{"type":"FeatureCollection","metadata":{"parent_osm_id":"10625041","parent_name":"BangkaBelitung","parent_name_1":"BangkaBelitung","parent_gid":"IDN.3_1","parent_level":"4","child_level":"5","count":7,"source":"GADM 4.1","generated":"2026-05-07"},"features":[{"type":"Feature","properties":{"name":"Bangka","name_en":"Bangka","admin_level":"5","osm_id":""},"geometry":{"type":"Polygon","coordinates":[[[105.9619,-2.2303],[105.9491,-2.2288],[105.9415,-2.2234],[105.9334,-2.2211],[105.9277,-2.2166],[105.9263,-2.2084],[105.9237,-2.2101],[105.9227,-2.2251],[105.9179,-2.2304],[105.9193,-2.2432],[105.9173,-2.2456],[105.913,-2.2457],[105.9115,-2.2473],[105.9118,-2.2501],[105.9174,-2.2609],[105.9227,-2.2616],[105.9279,-2.2658],[105.9351,-2.268],[105.9355,-2.2763],[105.9386,-2.2792],[105.9352,-2.2861],[105.9249,-2.2883],[105.9214,-2.2911],[105.9223,-2.2928],[105.9204,-2.3002],[105.9215,-2.3034],[105.92,-2.3063],[105.9121,-2.3115],[105.9037,-2.3217],[105.8997,-2.3384],[105.9023,-2.3425],[105.8966,-2.3418],[105.8941,-2.3388],[105.8874,-2.3385],[105.8826,-2.3342],[105.8664,-2.3331],[105.8599,-2.3384],[105.8531,-2.3401],[105.8455,-2.3394],[105.8432,-2.3455],[105.8396,-2.346],[105.8365,-2.3487],[105.83,-2.3477],[105.8292,-2.3502],[105.8278,-2.3476],[105.8257,-2.3474],[105.8254,-2.3496],[105.8233,-2.3499],[105.8126,-2.3637],[105.8033,-2.3668],[105.8033,-2.3636],[105.8065,-2.3605],[105.8145,-2.3422],[105.8206,-2.3379],[105.8225,-2.3345],[105.8231,-2.3315],[105.8217,-2.3304],[105.8246,-2.3291],[105.8256,-2.3187],[105.8271,-2.318],[105.8254,-2.3138],[105.8256,-2.3084],[105.8229,-2.3038],[105.812,-2.2964],[105.8115,-2.2916],[105.8097,-2.2903],[105.8108,-2.2859],[105.8091,-2.2796],[105.8035,-2.2725],[105.7988,-2.27],[105.7961,-2.2633],[105.7878,-2.2519],[105.786,-2.2362],[105.7888,-2.2312],[105.7929,-2.2281],[105.7875,-2.2173],[105.7863,-2.2114],[105.7934,-2.1931],[105.7924,-2.182],[105.7891,-2.1724],[105.7846,-2.1698],[105.7812,-2.1644],[105.7684,-2.1595],[105.7676,-2.1579],[105.7639,-2.1581],[105.7444,-2.1519],[105.7344,-2.1442],[105.7345,-2.141],[105.7397,-2.1337],[105.7471,-2.1308],[105.7485,-2.1261],[105.7516,-2.1235],[105.7503,-2.1165],[105.7404,-2.1175],[105.7377,-2.1132],[105.7496,-2.1127],[105.7555,-2.1091],[105.7559,-2.1069],[105.7506,-2.1035],[105.7493,-2.1003],[105.7446,-2.1007],[105.7381,-2.1038],[105.7292,-2.1016],[105.7319,-2.099],[105.7265,-2.0967],[105.7242,-2.0912],[105.7194,-2.0915],[105.7247,-2.0861],[105.7225,-2.0842],[105.7162,-2.0839],[105.7167,-2.0825],[105.7205,-2.0819],[105.7238,-2.0765],[105.7192,-2.0737],[105.7339,-2.0734],[105.736,-2.0714],[105.7406,-2.0719],[105.7436,-2.0702],[105.741,-2.0678],[105.7325,-2.0677],[105.7321,-2.0612],[105.7234,-2.0616],[105.7169,-2.06],[105.7147,-2.0577],[105.7185,-2.0571],[105.7282,-2.0498],[105.7329,-2.0489],[105.7469,-2.042],[105.7519,-2.0403],[105.7635,-2.0406],[105.7641,-2.0356],[105.7687,-2.0307],[105.7708,-2.0258],[105.7703,-2.0078],[105.774,-2.0013],[105.7859,-1.9962],[105.7767,-1.9953],[105.774,-1.9891],[105.7685,-1.9855],[105.7265,-1.9638],[105.7129,-1.937],[105.7019,-1.9235],[105.7062,-1.9122],[105.6979,-1.9074],[105.6971,-1.9016],[105.6988,-1.8921],[105.7041,-1.8945],[105.7131,-1.8953],[105.722,-1.8885],[105.7285,-1.876],[105.748,-1.861],[105.7475,-1.8547],[105.7532,-1.8411],[105.756,-1.8401],[105.7523,-1.8379],[105.7526,-1.8352],[105.7464,-1.8318],[105.7453,-1.8291],[105.741,-1.8295],[105.7407,-1.8261],[105.7473,-1.8251],[105.7457,-1.8218],[105.7466,-1.8201],[105.7571,-1.8221],[105.7555,-1.8175],[105.7602,-1.817],[105.7607,-1.8123],[105.7594,-1.8078],[105.7547,-1.8083],[105.7511,-1.8034],[105.7508,-1.8009],[105.7552,-1.7994],[105.7566,-1.7932],[105.7457,-1.7848],[105.7442,-1.7823],[105.7463,-1.7782],[105.7573,-1.7754],[105.7697,-1.7678],[105.7748,-1.7676],[105.7791,-1.7735],[105.7825,-1.7856],[105.7797,-1.7916],[105.7799,-1.7985],[105.7847,-1.8064],[105.7881,-1.8083],[105.8021,-1.8084],[105.8027,-1.8101],[105.801,-1.8123],[105.8005,-1.8143],[105.8027,-1.8108],[105.8111,-1.8142],[105.82,-1.8099],[105.8154,-1.8106],[105.8115,-1.8073],[105.825,-1.8069],[105.8264,-1.8045],[105.8152,-1.79],[105.7996,-1.7841],[105.7952,-1.7803],[105.7922,-1.7623],[105.7824,-1.7499],[105.7781,-1.7481],[105.779,-1.744],[105.7742,-1.7423],[105.7686,-1.7361],[105.764,-1.7363],[105.7542,-1.7276],[105.7528,-1.7158],[105.7467,-1.7041],[105.7485,-1.6998],[105.7431,-1.6945],[105.74,-1.686],[105.7424,-1.6834],[105.7535,-1.6816],[105.757,-1.6774],[105.7572,-1.6711],[105.7596,-1.6687],[105.7578,-1.6667],[105.7597,-1.6652],[105.7616,-1.6589],[105.7534,-1.6517],[105.7614,-1.6534],[105.7669,-1.6508],[105.762,-1.6482],[105.7571,-1.65],[105.7567,-1.6486],[105.7595,-1.6477],[105.7593,-1.6465],[105.7526,-1.637],[105.7439,-1.6339],[105.7384,-1.6355],[105.7351,-1.6347],[105.7355,-1.6327],[105.7331,-1.6316],[105.7358,-1.6247],[105.7387,-1.6244],[105.7418,-1.6206],[105.7416,-1.6162],[105.7396,-1.6141],[105.7415,-1.6129],[105.7401,-1.6091],[105.7336,-1.6036],[105.7314,-1.5976],[105.7237,-1.5866],[105.7195,-1.5829],[105.7227,-1.5646],[105.7226,-1.5628],[105.7204,-1.5616],[105.7223,-1.5537],[105.7206,-1.544],[105.7114,-1.5366],[105.7045,-1.5339],[105.7026,-1.5308],[105.7034,-1.528],[105.7206,-1.5281],[105.755,-1.5331],[105.8147,-1.5315],[105.8266,-1.5293],[105.8428,-1.5227],[105.8597,-1.5232],[105.8793,-1.5198],[105.8878,-1.5117],[105.8833,-1.5021],[105.89,-1.5021],[105.9051,-1.5065],[105.9121,-1.5061],[105.9143,-1.5046],[105.9143,-1.502],[105.9162,-1.5019],[105.9182,-1.507],[105.921,-1.509],[105.9218,-1.5159],[105.9201,-1.518],[105.9202,-1.5221],[105.9126,-1.5229],[105.9093,-1.5326],[105.9128,-1.5404],[105.9157,-1.5407],[105.9317,-1.552],[105.9515,-1.5597],[105.9575,-1.5566],[105.9644,-1.5576],[105.9679,-1.5565],[105.9702,-1.5542],[105.9685,-1.5508],[105.9717,-1.5489],[105.976,-1.5518],[105.9807,-1.5509],[105.9802,-1.5534],[105.9844,-1.5573],[105.9861,-1.5571],[105.988,-1.5623],[105.9914,-1.5613],[105.9925,-1.5638],[105.9985,-1.5667],[106.0008,-1.5696],[106.0059,-1.5689],[106.0057,-1.571],[106.0108,-1.5783],[106.018,-1.5816],[106.0203,-1.5858],[106.0283,-1.5876],[106.032,-1.5931],[106.036,-1.592],[106.0359,-1.5946],[106.0382,-1.5971],[106.0488,-1.6002],[106.0479,-1.603],[106.0513,-1.6056],[106.051,-1.6103],[106.0545,-1.6194],[106.0481,-1.6178],[106.044,-1.6134],[106.0391,-1.6161],[106.0329,-1.6144],[106.0273,-1.6211],[106.0232,-1.6323],[106.021,-1.6525],[106.0286,-1.6819],[106.0413,-1.7002],[106.0609,-1.7154],[106.0641,-1.7294],[106.0733,-1.748],[106.0817,-1.7559],[106.0901,-1.7571],[106.0925,-1.7559],[106.095,-1.7575],[106.0905,-1.7627],[106.0904,-1.7665],[106.0849,-1.7697],[106.0849,-1.7709],[106.0902,-1.772],[106.0895,-1.7736],[106.0868,-1.7736],[106.0873,-1.7759],[106.09,-1.7772],[106.0921,-1.7753],[106.0929,-1.7783],[106.1025,-1.7894],[106.1097,-1.7955],[106.1158,-1.7991],[106.1198,-1.7989],[106.1205,-1.8003],[106.1268,-1.8015],[106.1282,-1.8043],[106.1264,-1.8087],[106.1193,-1.8138],[106.1189,-1.8217],[106.1237,-1.8366],[106.1348,-1.8551],[106.1505,-1.8681],[106.158,-1.8708],[106.1614,-1.8689],[106.1662,-1.872],[106.1715,-1.8728],[106.1724,-1.8773],[106.1764,-1.8798],[106.1749,-1.883],[106.1759,-1.8873],[106.1799,-1.8914],[106.184,-1.8928],[106.1858,-1.8956],[106.186,-1.9028],[106.1839,-1.9081],[106.1746,-1.9123],[106.173,-1.9198],[106.1717,-1.9186],[106.1671,-1.92],[106.1656,-1.9225],[106.1622,-1.9534],[106.1603,-1.9538],[106.1556,-1.9596],[106.1559,-1.9668],[106.153,-1.9771],[106.1509,-1.9796],[106.1493,-1.9795],[106.1523,-1.9829],[106.1502,-1.9949],[106.1554,-2.0206],[106.1548,-2.026],[106.1583,-2.0348],[106.1635,-2.0679],[106.1589,-2.0859],[106.1488,-2.0826],[106.137,-2.0966],[106.132,-2.0975],[106.1286,-2.0957],[106.1276,-2.0903],[106.1385,-2.0821],[106.1413,-2.0769],[106.1389,-2.067],[106.133,-2.0587],[106.1302,-2.0573],[106.1217,-2.0631],[106.1173,-2.0636],[106.1163,-2.0671],[106.1113,-2.0704],[106.1093,-2.0699],[106.1093,-2.0661],[106.1062,-2.0658],[106.1031,-2.0733],[106.1077,-2.0725],[106.1081,-2.0768],[106.1057,-2.0787],[106.1035,-2.0784],[106.1008,-2.0817],[106.0985,-2.0806],[106.0998,-2.0786],[106.0976,-2.0753],[106.0946,-2.0772],[106.0921,-2.0758],[106.0902,-2.077],[106.0791,-2.0757],[106.0687,-2.0736],[106.0623,-2.0702],[106.0528,-2.075],[106.0461,-2.0754],[106.0403,-2.0823],[106.042,-2.0864],[106.0409,-2.0928],[106.0446,-2.0952],[106.0457,-2.0989],[106.0443,-2.1075],[106.0391,-2.1081],[106.0402,-2.1125],[106.0444,-2.1122],[106.0468,-2.1175],[106.0566,-2.1202],[106.062,-2.1271],[106.0789,-2.1287],[106.0821,-2.1296],[106.0838,-2.1323],[106.0877,-2.1318],[106.0874,-2.1385],[106.0903,-2.1408],[106.089,-2.1462],[106.0782,-2.1513],[106.0792,-2.1539],[106.0732,-2.1573],[106.0747,-2.161],[106.07,-2.1663],[106.0723,-2.1686],[106.0736,-2.1745],[106.0486,-2.1812],[106.0446,-2.1845],[106.0394,-2.1861],[106.0397,-2.1917],[106.0381,-2.1942],[106.0306,-2.1979],[106.0211,-2.2075],[106.0198,-2.2127],[106.0209,-2.2144],[106.0162,-2.2168],[105.9919,-2.2217],[105.9814,-2.2269],[105.9804,-2.2307],[105.9737,-2.2299],[105.9653,-2.2245],[105.9643,-2.2295],[105.9619,-2.2303]]]}},{"type":"Feature","properties":{"name":"BangkaBarat","name_en":"BangkaBarat","admin_level":"5","osm_id":""},"geometry":{"type":"Polygon","coordinates":[[[105.759,-1.9806],[105.774,-1.9891],[105.7767,-1.9953],[105.7859,-1.9962],[105.774,-2.0013],[105.7703,-2.0078],[105.7708,-2.0258],[105.7687,-2.0307],[105.7641,-2.0356],[105.7635,-2.0406],[105.7519,-2.0403],[105.7469,-2.042],[105.7329,-2.0489],[105.7282,-2.0498],[105.7185,-2.0571],[105.7147,-2.0577],[105.7169,-2.06],[105.7234,-2.0616],[105.7321,-2.0612],[105.7325,-2.0677],[105.741,-2.0678],[105.7436,-2.0702],[105.7406,-2.0719],[105.736,-2.0714],[105.7339,-2.0734],[105.7195,-2.0735],[105.7238,-2.0765],[105.7205,-2.0819],[105.716,-2.0832],[105.7243,-2.0856],[105.7247,-2.0868],[105.7192,-2.0914],[105.7242,-2.0912],[105.7265,-2.0967],[105.7319,-2.099],[105.7292,-2.1016],[105.7381,-2.1038],[105.7446,-2.1007],[105.7493,-2.1003],[105.7506,-2.1035],[105.7559,-2.1069],[105.7555,-2.1091],[105.7496,-2.1127],[105.7377,-2.1132],[105.7404,-2.1175],[105.7482,-2.1161],[105.7506,-2.1169],[105.7516,-2.1235],[105.7485,-2.1261],[105.7471,-2.1308],[105.745,-2.1283],[105.7275,-2.125],[105.6982,-2.1303],[105.6966,-2.1302],[105.692,-2.1244],[105.6883,-2.1237],[105.6794,-2.1281],[105.6755,-2.1249],[105.6766,-2.1193],[105.6727,-2.1176],[105.6139,-2.1215],[105.6035,-2.116],[105.5967,-2.1101],[105.5712,-2.0971],[105.5371,-2.0833],[105.5303,-2.0787],[105.5195,-2.0773],[105.512,-2.0804],[105.5019,-2.0896],[105.4846,-2.0906],[105.4852,-2.0918],[105.483,-2.0934],[105.4771,-2.0946],[105.4607,-2.1049],[105.4552,-2.1122],[105.4501,-2.1152],[105.4471,-2.1204],[105.4374,-2.1271],[105.437,-2.1316],[105.4395,-2.1349],[105.4378,-2.1358],[105.4313,-2.134],[105.4288,-2.1359],[105.4217,-2.1279],[105.4083,-2.1205],[105.4013,-2.1213],[105.3998,-2.1237],[105.3927,-2.1248],[105.3782,-2.1318],[105.3739,-2.129],[105.3675,-2.1297],[105.3507,-2.1219],[105.3336,-2.1203],[105.3256,-2.1274],[105.3041,-2.1294],[105.2996,-2.1277],[105.2828,-2.1428],[105.2748,-2.1454],[105.2672,-2.1418],[105.26,-2.1359],[105.2367,-2.1104],[105.231,-2.0928],[105.22,-2.0796],[105.2048,-2.0714],[105.1967,-2.0698],[105.1894,-2.0732],[105.1817,-2.074],[105.1693,-2.0701],[105.1648,-2.0701],[105.162,-2.072],[105.1559,-2.0703],[105.1523,-2.0724],[105.1509,-2.0714],[105.1413,-2.0772],[105.1316,-2.0856],[105.1278,-2.0764],[105.1254,-2.0758],[105.1255,-2.0602],[105.1238,-2.05],[105.1211,-2.0445],[105.1208,-2.0358],[105.1161,-2.033],[105.1157,-2.0303],[105.1123,-2.0279],[105.1097,-2.0282],[105.108,-2.0254],[105.1166,-2.0093],[105.1271,-1.9975],[105.1277,-1.9889],[105.1324,-1.9804],[105.1334,-1.9756],[105.1294,-1.9685],[105.1246,-1.9645],[105.1272,-1.9594],[105.1519,-1.9479],[105.1555,-1.9432],[105.1572,-1.935],[105.1595,-1.9322],[105.1804,-1.925],[105.1923,-1.9147],[105.1948,-1.9135],[105.1958,-1.9162],[105.2016,-1.9101],[105.2123,-1.9039],[105.2166,-1.9024],[105.2276,-1.9023],[105.2491,-1.9063],[105.2476,-1.9022],[105.2683,-1.8949],[105.2787,-1.884],[105.3059,-1.8688],[105.3212,-1.8623],[105.3348,-1.8455],[105.3412,-1.8413],[105.3492,-1.8398],[105.3584,-1.8232],[105.3605,-1.8147],[105.3717,-1.8018],[105.3759,-1.7928],[105.3761,-1.786],[105.3823,-1.7776],[105.3908,-1.7601],[105.3854,-1.7542],[105.388,-1.7389],[105.3919,-1.7277],[105.3941,-1.7261],[105.4032,-1.7279],[105.4039,-1.7258],[105.4018,-1.7236],[105.3824,-1.7193],[105.3794,-1.7124],[105.3837,-1.7089],[105.3615,-1.6978],[105.3494,-1.6879],[105.3336,-1.6781],[105.3286,-1.6691],[105.3196,-1.6698],[105.3146,-1.6659],[105.3157,-1.6627],[105.3282,-1.6623],[105.3322,-1.6655],[105.3469,-1.6677],[105.3508,-1.6645],[105.3591,-1.6655],[105.367,-1.6591],[105.363,-1.6537],[105.3555,-1.6523],[105.354,-1.6476],[105.3619,-1.6419],[105.3626,-1.6387],[105.3598,-1.6297],[105.3619,-1.6247],[105.3691,-1.6268],[105.3753,-1.6359],[105.3781,-1.6349],[105.3911,-1.6245],[105.4007,-1.6134],[105.4024,-1.61],[105.4008,-1.604],[105.4017,-1.6006],[105.4173,-1.6024],[105.426,-1.5986],[105.4343,-1.5979],[105.4481,-1.5867],[105.4535,-1.579],[105.4619,-1.5753],[105.4651,-1.5703],[105.4728,-1.5646],[105.497,-1.5668],[105.5059,-1.5634],[105.5271,-1.5675],[105.5363,-1.5674],[105.5559,-1.5608],[105.5683,-1.5518],[105.5731,-1.5462],[105.5735,-1.5438],[105.5686,-1.5317],[105.5712,-1.5295],[105.5762,-1.5347],[105.5838,-1.5368],[105.5928,-1.5356],[105.6021,-1.529],[105.611,-1.5311],[105.6081,-1.5422],[105.6045,-1.5468],[105.6088,-1.5482],[105.6072,-1.5538],[105.6117,-1.5528],[105.6085,-1.5565],[105.6173,-1.563],[105.619,-1.5706],[105.6117,-1.5756],[105.6125,-1.5798],[105.6143,-1.5819],[105.6219,-1.5782],[105.6179,-1.587],[105.6301,-1.6026],[105.6282,-1.6085],[105.6334,-1.6181],[105.6326,-1.623],[105.6339,-1.6277],[105.6467,-1.6432],[105.654,-1.646],[105.6607,-1.6519],[105.683,-1.6588],[105.7037,-1.6551],[105.7087,-1.6498],[105.7211,-1.6456],[105.7127,-1.6607],[105.705,-1.6638],[105.6866,-1.6867],[105.6795,-1.6933],[105.6745,-1.6999],[105.6726,-1.7091],[105.6692,-1.7147],[105.6668,-1.7151],[105.6765,-1.7294],[105.6754,-1.7341],[105.6787,-1.7379],[105.6762,-1.7404],[105.6759,-1.7461],[105.6781,-1.7489],[105.6789,-1.745],[105.6808,-1.7439],[105.6817,-1.748],[105.6847,-1.7519],[105.6789,-1.7565],[105.6684,-1.7612],[105.6835,-1.769],[105.6926,-1.7795],[105.694,-1.7838],[105.7101,-1.7834],[105.7175,-1.7815],[105.7246,-1.7822],[105.7425,-1.7707],[105.7472,-1.7689],[105.7495,-1.7697],[105.7442,-1.7823],[105.7478,-1.7874],[105.7559,-1.7919],[105.7552,-1.7994],[105.7508,-1.8009],[105.7506,-1.8022],[105.7547,-1.8083],[105.7594,-1.8078],[105.7607,-1.8123],[105.7602,-1.817],[105.7555,-1.8175],[105.7571,-1.8221],[105.7466,-1.8201],[105.7457,-1.8218],[105.7473,-1.8251],[105.7407,-1.8261],[105.741,-1.8295],[105.7453,-1.8291],[105.7464,-1.8318],[105.7526,-1.8352],[105.7523,-1.8379],[105.756,-1.8401],[105.7532,-1.8411],[105.7475,-1.8547],[105.748,-1.861],[105.7285,-1.876],[105.722,-1.8885],[105.7131,-1.8953],[105.7041,-1.8945],[105.6988,-1.8921],[105.6971,-1.9016],[105.6979,-1.9074],[105.7062,-1.9122],[105.7019,-1.9235],[105.7129,-1.937],[105.7265,-1.9638],[105.759,-1.9806]]]}},{"type":"Feature","properties":{"name":"BangkaSelatan","name_en":"BangkaSelatan","admin_level":"5","osm_id":""},"geometry":{"type":"Polygon","coordinates":[[[106.6129,-2.9644],[106.6182,-2.9651],[106.6205,-2.9611],[106.6245,-2.9612],[106.6286,-2.9634],[106.6279,-2.9682],[106.6293,-2.9704],[106.6389,-2.9745],[106.6682,-2.9781],[106.6754,-2.9753],[106.6776,-2.979],[106.6775,-2.9839],[106.681,-2.9895],[106.6948,-3.003],[106.7044,-3.0052],[106.7389,-3.005],[106.7408,-3.0061],[106.7445,-3.0135],[106.7338,-3.0245],[106.7293,-3.0321],[106.7355,-3.0498],[106.7397,-3.0521],[106.7434,-3.0568],[106.7401,-3.0598],[106.7389,-3.0643],[106.7343,-3.0683],[106.733,-3.0727],[106.7398,-3.0857],[106.7367,-3.0864],[106.7357,-3.0849],[106.7296,-3.0836],[106.7283,-3.0816],[106.7201,-3.083],[106.7143,-3.0869],[106.71,-3.0928],[106.7067,-3.0936],[106.7049,-3.098],[106.7004,-3.0943],[106.6907,-3.0932],[106.6862,-3.0894],[106.6759,-3.093],[106.665,-3.1],[106.664,-3.1024],[106.6624,-3.101],[106.6592,-3.1023],[106.6576,-3.1004],[106.6573,-3.0924],[106.6523,-3.0861],[106.6375,-3.0816],[106.6292,-3.0817],[106.6165,-3.0866],[106.6116,-3.086],[106.6082,-3.0885],[106.6058,-3.0841],[106.6018,-3.0821],[106.6023,-3.0798],[106.5902,-3.0716],[106.5964,-3.0785],[106.588,-3.0773],[106.5785,-3.0786],[106.5661,-3.0835],[106.5539,-3.0921],[106.5503,-3.0967],[106.5509,-3.1012],[106.5528,-3.1018],[106.5544,-3.1061],[106.5537,-3.1089],[106.5475,-3.1083],[106.5457,-3.1067],[106.5459,-3.1029],[106.5397,-3.1011],[106.5318,-3.1042],[106.5313,-3.1085],[106.5281,-3.1067],[106.5227,-3.11],[106.5209,-3.1135],[106.5163,-3.1123],[106.5131,-3.1153],[106.5105,-3.1102],[106.5087,-3.1097],[106.5094,-3.1071],[106.5073,-3.1061],[106.5056,-3.1077],[106.5021,-3.1047],[106.5002,-3.0995],[106.4959,-3.0975],[106.4967,-3.0952],[106.4955,-3.0933],[106.4916,-3.0915],[106.4911,-3.0879],[106.496,-3.0847],[106.4951,-3.0781],[106.4979,-3.0767],[106.4992,-3.069],[106.4975,-3.0615],[106.495,-3.058],[106.4925,-3.0577],[106.4937,-3.0545],[106.4924,-3.0512],[106.483,-3.0382],[106.4687,-3.0257],[106.4485,-3.0152],[106.445,-3.0117],[106.4418,-3.0116],[106.4438,-3.0032],[106.4391,-2.9938],[106.4377,-2.9864],[106.4259,-2.9724],[106.417,-2.9684],[106.4055,-2.9664],[106.3861,-2.9668],[106.3851,-2.9724],[106.3777,-2.9709],[106.3737,-2.9684],[106.3522,-2.9707],[106.3465,-2.9676],[106.3354,-2.9674],[106.3298,-2.9635],[106.3293,-2.959],[106.3313,-2.9547],[106.3297,-2.9487],[106.3207,-2.9328],[106.3099,-2.9244],[106.2969,-2.9179],[106.2872,-2.9071],[106.2773,-2.9023],[106.2628,-2.8995],[106.2434,-2.8988],[106.2384,-2.9013],[106.2333,-2.8999],[106.2179,-2.8861],[106.1984,-2.8803],[106.1952,-2.8757],[106.1813,-2.8715],[106.1655,-2.872],[106.142,-2.8759],[106.1366,-2.8638],[106.1225,-2.8509],[106.0915,-2.837],[106.0701,-2.8341],[106.0569,-2.8303],[106.0351,-2.8331],[106.02,-2.8269],[106.0,-2.8236],[105.9759,-2.8153],[105.968,-2.815],[105.9538,-2.8212],[105.9501,-2.8211],[105.9496,-2.8087],[105.9512,-2.8073],[105.9524,-2.7995],[105.9539,-2.7987],[105.9556,-2.792],[105.9534,-2.7825],[105.9489,-2.7756],[105.933,-2.7636],[105.9285,-2.754],[105.9191,-2.7437],[105.9157,-2.7264],[105.9174,-2.7282],[105.9193,-2.7253],[105.9185,-2.7192],[105.9155,-2.7094],[105.9065,-2.6965],[105.9055,-2.6874],[105.903,-2.683],[105.903,-2.6695],[105.9015,-2.6631],[105.9001,-2.6605],[105.898,-2.6605],[105.8918,-2.6469],[105.8866,-2.6443],[105.8874,-2.6384],[105.8972,-2.614],[105.8965,-2.611],[105.8987,-2.6058],[105.8976,-2.6035],[105.8957,-2.6031],[105.8945,-2.5968],[105.892,-2.5961],[105.8908,-2.5882],[105.898,-2.589],[105.9038,-2.582],[105.9121,-2.564],[105.9163,-2.5457],[105.926,-2.541],[105.9298,-2.5356],[105.9384,-2.5303],[105.9353,-2.5273],[105.9346,-2.523],[105.9366,-2.5122],[105.9361,-2.5027],[105.9387,-2.4955],[105.9355,-2.4823],[105.9717,-2.4882],[106.0121,-2.4789],[106.0198,-2.4827],[106.0288,-2.5013],[106.0316,-2.5025],[106.0303,-2.5105],[106.0314,-2.5124],[106.0464,-2.5164],[106.0511,-2.5157],[106.0544,-2.5129],[106.0559,-2.5084],[106.0518,-2.5063],[106.0508,-2.5021],[106.0529,-2.4989],[106.059,-2.4996],[106.0609,-2.4908],[106.0677,-2.4931],[106.0678,-2.499],[106.0713,-2.5001],[106.0867,-2.4956],[106.0884,-2.4913],[106.0947,-2.492],[106.1114,-2.4877],[106.1201,-2.5009],[106.1383,-2.5024],[106.1493,-2.5073],[106.1513,-2.521],[106.1631,-2.5252],[106.1629,-2.5276],[106.1665,-2.5338],[106.1733,-2.5377],[106.1746,-2.5415],[106.1773,-2.5434],[106.1786,-2.552],[106.1828,-2.5538],[106.1864,-2.5594],[106.1908,-2.5621],[106.1961,-2.5625],[106.201,-2.5663],[106.2018,-2.5692],[106.2065,-2.5703],[106.2092,-2.5744],[106.2139,-2.5711],[106.2215,-2.5737],[106.2277,-2.5811],[106.2376,-2.5849],[106.2475,-2.5847],[106.2512,-2.5804],[106.264,-2.5751],[106.2746,-2.5758],[106.2812,-2.5731],[106.2811,-2.5694],[106.2834,-2.5681],[106.289,-2.5704],[106.2971,-2.5641],[106.2975,-2.5579],[106.3014,-2.5518],[106.305,-2.5513],[106.309,-2.5481],[106.3189,-2.55],[106.3238,-2.554],[106.3328,-2.5538],[106.3372,-2.5475],[106.3513,-2.5539],[106.3699,-2.5543],[106.373,-2.5557],[106.3728,-2.5592],[106.3791,-2.5659],[106.397,-2.5687],[106.4006,-2.5662],[106.4013,-2.568],[106.4088,-2.5693],[106.4157,-2.5672],[106.421,-2.5701],[106.4243,-2.5686],[106.4248,-2.5632],[106.4263,-2.5625],[106.4332,-2.5641],[106.4375,-2.5688],[106.4495,-2.5633],[106.4546,-2.5585],[106.4575,-2.5584],[106.4584,-2.5635],[106.4565,-2.5677],[106.4579,-2.5741],[106.4553,-2.5778],[106.4487,-2.581],[106.4431,-2.5956],[106.444,-2.6162],[106.4526,-2.6197],[106.4567,-2.6191],[106.4579,-2.6173],[106.4665,-2.6189],[106.4708,-2.6171],[106.4785,-2.6176],[106.482,-2.6137],[106.4863,-2.6141],[106.4889,-2.6118],[106.4944,-2.6123],[106.4954,-2.6218],[106.5007,-2.6341],[106.4963,-2.6569],[106.5106,-2.6605],[106.5134,-2.6574],[106.5256,-2.6584],[106.5311,-2.6547],[106.5366,-2.6589],[106.5406,-2.6584],[106.5465,-2.6611],[106.5559,-2.6607],[106.5599,-2.6619],[106.5653,-2.6685],[106.5703,-2.6717],[106.5713,-2.6743],[106.5792,-2.6792],[106.5806,-2.6848],[106.5972,-2.6844],[106.6016,-2.6908],[106.6216,-2.6947],[106.6322,-2.6946],[106.6368,-2.7014],[106.638,-2.7132],[106.6438,-2.7187],[106.6489,-2.7179],[106.6561,-2.7212],[106.6561,-2.7196],[106.6605,-2.7159],[106.6624,-2.7172],[106.6587,-2.7229],[106.6524,-2.7427],[106.6458,-2.7549],[106.6466,-2.7585],[106.6414,-2.7676],[106.6315,-2.7924],[106.6185,-2.8324],[106.6023,-2.8623],[106.6002,-2.8694],[106.6007,-2.8763],[106.5931,-2.8992],[106.5907,-2.917],[106.5915,-2.9339],[106.5939,-2.9451],[106.6012,-2.957],[106.6129,-2.9644]]]}},{"type":"Feature","properties":{"name":"BangkaTengah","name_en":"BangkaTengah","admin_level":"5","osm_id":""},"geometry":{"type":"Polygon","coordinates":[[[106.6022,-2.6909],[106.5972,-2.6844],[106.5806,-2.6848],[106.5792,-2.6792],[106.5713,-2.6743],[106.5703,-2.6717],[106.5653,-2.6685],[106.5599,-2.6619],[106.5559,-2.6607],[106.5465,-2.6611],[106.5406,-2.6584],[106.5366,-2.6589],[106.5311,-2.6547],[106.5256,-2.6584],[106.5134,-2.6574],[106.5106,-2.6605],[106.4963,-2.6569],[106.5007,-2.6341],[106.4954,-2.6218],[106.4944,-2.6123],[106.4889,-2.6118],[106.4863,-2.6141],[106.482,-2.6137],[106.4785,-2.6176],[106.4708,-2.6171],[106.4665,-2.6189],[106.4579,-2.6173],[106.4567,-2.6191],[106.4526,-2.6197],[106.4445,-2.6167],[106.4431,-2.5956],[106.4487,-2.581],[106.4553,-2.5778],[106.458,-2.5736],[106.4565,-2.5668],[106.4584,-2.5635],[106.4564,-2.5578],[106.4495,-2.5633],[106.4375,-2.5688],[106.4332,-2.5641],[106.4263,-2.5625],[106.4248,-2.5632],[106.4243,-2.5686],[106.421,-2.5701],[106.4157,-2.5672],[106.4088,-2.5693],[106.4013,-2.568],[106.4006,-2.5662],[106.397,-2.5687],[106.3791,-2.5659],[106.3728,-2.5592],[106.373,-2.5557],[106.3699,-2.5543],[106.3513,-2.5539],[106.3372,-2.5475],[106.3328,-2.5538],[106.3238,-2.554],[106.3189,-2.55],[106.309,-2.5481],[106.305,-2.5513],[106.3014,-2.5518],[106.2975,-2.5579],[106.2971,-2.5641],[106.289,-2.5704],[106.2834,-2.5681],[106.2811,-2.5694],[106.2812,-2.5731],[106.2746,-2.5758],[106.264,-2.5751],[106.2512,-2.5804],[106.2475,-2.5847],[106.2367,-2.5847],[106.2277,-2.5811],[106.2215,-2.5737],[106.2139,-2.5711],[106.2092,-2.5744],[106.2065,-2.5703],[106.2018,-2.5692],[106.201,-2.5663],[106.1961,-2.5625],[106.1908,-2.5621],[106.1864,-2.5594],[106.1828,-2.5538],[106.1786,-2.552],[106.1773,-2.5434],[106.1746,-2.5415],[106.1733,-2.5377],[106.1665,-2.5338],[106.1629,-2.5276],[106.1631,-2.5252],[106.1513,-2.521],[106.1493,-2.5073],[106.1383,-2.5024],[106.1201,-2.5009],[106.1114,-2.4877],[106.0947,-2.492],[106.0884,-2.4913],[106.0867,-2.4956],[106.0713,-2.5001],[106.0678,-2.499],[106.0677,-2.4931],[106.0609,-2.4908],[106.059,-2.4996],[106.0529,-2.4989],[106.0508,-2.5021],[106.0518,-2.5063],[106.0559,-2.5084],[106.0544,-2.5129],[106.0511,-2.5157],[106.0464,-2.5164],[106.0314,-2.5124],[106.0303,-2.5105],[106.0316,-2.5025],[106.0288,-2.5013],[106.0198,-2.4827],[106.0121,-2.4789],[105.9717,-2.4882],[105.9355,-2.4823],[105.9322,-2.4701],[105.9264,-2.4587],[105.9125,-2.4443],[105.882,-2.4282],[105.8802,-2.4242],[105.8743,-2.4291],[105.8685,-2.4284],[105.8352,-2.4132],[105.8267,-2.3934],[105.8184,-2.381],[105.8088,-2.3741],[105.8033,-2.3668],[105.8126,-2.3637],[105.8233,-2.3499],[105.8254,-2.3496],[105.8257,-2.3474],[105.8278,-2.3476],[105.8292,-2.3502],[105.83,-2.3477],[105.8365,-2.3487],[105.8396,-2.346],[105.8432,-2.3455],[105.8455,-2.3394],[105.8531,-2.3401],[105.8599,-2.3384],[105.8664,-2.3331],[105.8826,-2.3342],[105.8874,-2.3385],[105.8941,-2.3388],[105.8966,-2.3418],[105.9023,-2.3425],[105.8997,-2.3384],[105.9037,-2.3217],[105.9121,-2.3115],[105.92,-2.3063],[105.9215,-2.3034],[105.9204,-2.3002],[105.9223,-2.2928],[105.9214,-2.2911],[105.9249,-2.2883],[105.9352,-2.2861],[105.9386,-2.2792],[105.9355,-2.2763],[105.9351,-2.268],[105.9279,-2.2658],[105.9227,-2.2616],[105.9174,-2.2609],[105.9118,-2.2501],[105.9115,-2.2473],[105.913,-2.2457],[105.9173,-2.2456],[105.9193,-2.2432],[105.9179,-2.2304],[105.9227,-2.2251],[105.9231,-2.2114],[105.9252,-2.2089],[105.9263,-2.2084],[105.9277,-2.2166],[105.9298,-2.2189],[105.9415,-2.2234],[105.9491,-2.2288],[105.9632,-2.23],[105.9653,-2.2245],[105.9737,-2.2299],[105.9804,-2.2307],[105.9814,-2.2269],[105.9919,-2.2217],[106.0162,-2.2168],[106.0209,-2.2144],[106.0198,-2.2127],[106.0211,-2.2075],[106.0306,-2.1979],[106.0381,-2.1942],[106.0397,-2.1917],[106.0394,-2.1861],[106.0446,-2.1845],[106.0486,-2.1812],[106.0736,-2.1745],[106.0723,-2.1686],[106.07,-2.1663],[106.0747,-2.161],[106.073,-2.1588],[106.0735,-2.1567],[106.0792,-2.1539],[106.0782,-2.1513],[106.0888,-2.1456],[106.0926,-2.1445],[106.0986,-2.1479],[106.1005,-2.1462],[106.1012,-2.1512],[106.1034,-2.154],[106.109,-2.155],[106.1104,-2.1535],[106.1172,-2.1544],[106.1302,-2.1468],[106.1364,-2.148],[106.1421,-2.1532],[106.1487,-2.1564],[106.1493,-2.1546],[106.1519,-2.1593],[106.157,-2.1591],[106.1605,-2.1533],[106.1682,-2.1576],[106.1702,-2.1553],[106.1818,-2.1536],[106.1868,-2.1622],[106.1925,-2.1611],[106.1902,-2.1626],[106.1928,-2.1626],[106.1907,-2.1643],[106.1927,-2.1658],[106.1899,-2.1657],[106.1884,-2.1704],[106.1912,-2.1773],[106.1938,-2.1804],[106.2025,-2.183],[106.1991,-2.1832],[106.1991,-2.1867],[106.2006,-2.1908],[106.2041,-2.1942],[106.204,-2.2006],[106.2073,-2.2048],[106.2076,-2.209],[106.2051,-2.2105],[106.2062,-2.2131],[106.2047,-2.2157],[106.2062,-2.2224],[106.2118,-2.233],[106.2113,-2.2362],[106.2144,-2.2429],[106.2257,-2.2548],[106.2255,-2.2598],[106.2282,-2.2602],[106.2245,-2.2634],[106.2225,-2.2692],[106.223,-2.275],[106.2256,-2.278],[106.2258,-2.2987],[106.2318,-2.3088],[106.2322,-2.3157],[106.2347,-2.3164],[106.2383,-2.329],[106.2581,-2.3528],[106.2795,-2.3917],[106.2995,-2.4208],[106.3016,-2.4227],[106.3067,-2.422],[106.3273,-2.4446],[106.346,-2.4602],[106.3718,-2.4726],[106.395,-2.4782],[106.4013,-2.4787],[106.405,-2.4773],[106.4152,-2.4802],[106.4236,-2.4803],[106.4365,-2.4775],[106.4466,-2.4727],[106.4792,-2.4969],[106.49,-2.5014],[106.5425,-2.5133],[106.5689,-2.521],[106.6185,-2.5308],[106.6201,-2.5325],[106.6226,-2.5316],[106.6403,-2.5352],[106.6975,-2.5422],[106.7551,-2.5568],[106.841,-2.5722],[106.8493,-2.5719],[106.8441,-2.5754],[106.8413,-2.5847],[106.8376,-2.5874],[106.8343,-2.5872],[106.8327,-2.5898],[106.8306,-2.5881],[106.8237,-2.5887],[106.8072,-2.5946],[106.8018,-2.5948],[106.8018,-2.5936],[106.8065,-2.5941],[106.8243,-2.5882],[106.8232,-2.5838],[106.8196,-2.5794],[106.8159,-2.578],[106.8088,-2.5786],[106.7975,-2.5825],[106.7856,-2.5891],[106.7835,-2.5919],[106.7847,-2.594],[106.7731,-2.6077],[106.7709,-2.6076],[106.7689,-2.6016],[106.763,-2.5984],[106.7468,-2.6084],[106.7338,-2.6209],[106.7328,-2.6241],[106.7275,-2.6298],[106.7232,-2.6307],[106.7203,-2.6345],[106.7077,-2.6431],[106.7086,-2.6464],[106.7034,-2.6503],[106.7029,-2.6532],[106.699,-2.6573],[106.6975,-2.6633],[106.6893,-2.6688],[106.6822,-2.6814],[106.6814,-2.686],[106.6743,-2.6933],[106.6654,-2.7121],[106.6561,-2.7196],[106.6561,-2.7212],[106.6489,-2.7179],[106.6438,-2.7187],[106.638,-2.7132],[106.6368,-2.7014],[106.6334,-2.6952],[106.6216,-2.6947],[106.6022,-2.6909]]]}},{"type":"Feature","properties":{"name":"Belitung","name_en":"Belitung","admin_level":"5","osm_id":""},"geometry":{"type":"Polygon","coordinates":[[[107.8165,-3.0904],[107.8225,-3.093],[107.8294,-3.1023],[107.8333,-3.1027],[107.8341,-3.1055],[107.8326,-3.1091],[107.8342,-3.1134],[107.8376,-3.1119],[107.8447,-3.1132],[107.8489,-3.122],[107.8411,-3.1238],[107.8367,-3.1294],[107.8396,-3.1372],[107.8321,-3.1395],[107.8335,-3.1434],[107.8328,-3.1496],[107.8348,-3.152],[107.8347,-3.155],[107.8374,-3.1571],[107.8283,-3.1674],[107.8203,-3.1656],[107.8127,-3.1659],[107.8032,-3.1728],[107.8027,-3.1767],[107.8003,-3.175],[107.7962,-3.177],[107.7923,-3.1749],[107.7864,-3.1753],[107.7795,-3.1835],[107.7754,-3.1824],[107.7748,-3.1838],[107.7715,-3.1842],[107.7665,-3.1918],[107.7593,-3.192],[107.7569,-3.1941],[107.7536,-3.1936],[107.753,-3.1918],[107.7436,-3.195],[107.7404,-3.1916],[107.7294,-3.1905],[107.7087,-3.1926],[107.6952,-3.1984],[107.6887,-3.204],[107.681,-3.2042],[107.6689,-3.2106],[107.6573,-3.224],[107.656,-3.2284],[107.6451,-3.2324],[107.6405,-3.2357],[107.6396,-3.2391],[107.6362,-3.2397],[107.632,-3.2355],[107.6236,-3.234],[107.6157,-3.2377],[107.6113,-3.238],[107.6073,-3.241],[107.608,-3.2321],[107.5945,-3.2221],[107.5959,-3.2179],[107.5886,-3.2053],[107.5852,-3.203],[107.5869,-3.1995],[107.5851,-3.1954],[107.5883,-3.1985],[107.5921,-3.1969],[107.6048,-3.1809],[107.6068,-3.1731],[107.627,-3.1517],[107.63,-3.1429],[107.6264,-3.1378],[107.6279,-3.1339],[107.6268,-3.1289],[107.6319,-3.1314],[107.635,-3.1298],[107.6346,-3.1317],[107.6361,-3.1324],[107.6383,-3.1287],[107.6376,-3.1277],[107.635,-3.1272],[107.6363,-3.126],[107.63542483574246,-3.122888304862028],[107.6347,-3.1225],[107.6358,-3.1253],[107.6345,-3.1265],[107.6348,-3.1284],[107.6377,-3.129],[107.6357,-3.132],[107.6353,-3.1292],[107.632,-3.131],[107.6276,-3.1279],[107.6239,-3.1308],[107.6203,-3.1228],[107.61,-3.1157],[107.6083,-3.1105],[107.6114,-3.1076],[107.609,-3.108],[107.606,-3.1061],[107.5986,-3.1074],[107.5939,-3.1053],[107.5923,-3.095],[107.5868,-3.0912],[107.5825,-3.0857],[107.583,-3.0769],[107.5861,-3.0724],[107.5824,-3.0616],[107.5803,-3.0481],[107.5845,-3.0506],[107.5866,-3.0489],[107.5843,-3.0501],[107.5772,-3.0444],[107.5704,-3.0339],[107.5688,-3.0305],[107.568,-3.0186],[107.5651,-3.0147],[107.566,-3.0098],[107.5648,-3.0043],[107.5617,-3.0026],[107.5607,-2.9966],[107.5685,-2.9836],[107.5807,-2.984],[107.5857,-2.9784],[107.5905,-2.9688],[107.5912,-2.9622],[107.598,-2.9556],[107.5946,-2.948],[107.5987,-2.9406],[107.5984,-2.936],[107.6002,-2.932],[107.6052,-2.9281],[107.6081,-2.929],[107.6108,-2.9264],[107.6139,-2.9112],[107.6058,-2.9129],[107.5874,-2.912],[107.573,-2.9198],[107.5667,-2.9263],[107.5654,-2.931],[107.5638,-2.9301],[107.5637,-2.9268],[107.5596,-2.9248],[107.5507,-2.9284],[107.5461,-2.9349],[107.5383,-2.9324],[107.5349,-2.935],[107.5327,-2.9343],[107.5306,-2.9368],[107.5314,-2.9312],[107.5286,-2.921],[107.537,-2.9138],[107.5497,-2.8972],[107.5657,-2.8902],[107.5759,-2.8838],[107.5907,-2.8686],[107.5977,-2.8583],[107.5955,-2.8476],[107.5977,-2.8467],[107.5981,-2.8451],[107.596,-2.843],[107.5979,-2.8411],[107.5941,-2.8368],[107.5975,-2.8349],[107.5993,-2.8288],[107.5977,-2.8175],[107.5988,-2.8147],[107.5952,-2.8058],[107.5912,-2.8047],[107.5923,-2.8016],[107.5894,-2.7998],[107.5836,-2.7991],[107.5811,-2.7966],[107.5875,-2.7917],[107.5897,-2.793],[107.5966,-2.7927],[107.5998,-2.7887],[107.595,-2.7868],[107.5981,-2.7855],[107.6086,-2.773],[107.6146,-2.7702],[107.6103,-2.7652],[107.6138,-2.7671],[107.6176,-2.7675],[107.6187,-2.767],[107.6144,-2.7668],[107.6102,-2.7647],[107.6045,-2.7641],[107.6131,-2.7619],[107.6185,-2.7586],[107.6175,-2.7575],[107.6212,-2.758],[107.6259,-2.755],[107.625,-2.7534],[107.6269,-2.7508],[107.631,-2.7499],[107.6304,-2.7485],[107.6331,-2.7498],[107.6382,-2.7488],[107.6415,-2.752],[107.6372,-2.7619],[107.64,-2.7689],[107.6362,-2.7821],[107.6378,-2.7926],[107.6368,-2.7964],[107.6379,-2.7983],[107.6383,-2.7776],[107.6419,-2.7695],[107.639,-2.7617],[107.6413,-2.7581],[107.6413,-2.7601],[107.6424,-2.7588],[107.6433,-2.751],[107.6411,-2.7467],[107.6372,-2.7465],[107.634,-2.7443],[107.6313,-2.7456],[107.6314,-2.7434],[107.6311,-2.7431],[107.6307,-2.7461],[107.6296,-2.7452],[107.6292,-2.7466],[107.6289,-2.747],[107.6284,-2.747],[107.6297,-2.7443],[107.6284,-2.7434],[107.6275,-2.7469],[107.6262,-2.747],[107.6256,-2.7444],[107.6225,-2.7475],[107.6291,-2.7269],[107.6284,-2.7145],[107.6222,-2.7064],[107.6148,-2.7072],[107.6114,-2.7051],[107.6129,-2.7047],[107.6123,-2.7018],[107.615,-2.7017],[107.6179,-2.6944],[107.6197,-2.6944],[107.6213,-2.6895],[107.6253,-2.689],[107.6255,-2.6839],[107.6282,-2.6814],[107.6277,-2.6784],[107.6296,-2.6785],[107.6291,-2.674],[107.6313,-2.6732],[107.6284,-2.6651],[107.6312,-2.655],[107.6314,-2.6456],[107.6337,-2.6456],[107.6331,-2.6494],[107.6405,-2.6447],[107.6401,-2.6428],[107.6424,-2.6399],[107.6418,-2.636],[107.6382,-2.6322],[107.6421,-2.6315],[107.6459,-2.6257],[107.6442,-2.6241],[107.6454,-2.6206],[107.6436,-2.6155],[107.6391,-2.6137],[107.633,-2.6058],[107.6278,-2.6051],[107.6284,-2.5947],[107.6363,-2.593],[107.641,-2.5902],[107.6409,-2.5881],[107.6437,-2.5881],[107.646,-2.5836],[107.644,-2.5798],[107.6482,-2.5786],[107.6513,-2.5748],[107.651,-2.5687],[107.6551,-2.5678],[107.6584,-2.5619],[107.658,-2.559],[107.6642,-2.5582],[107.6672,-2.5546],[107.6686,-2.5541],[107.6691,-2.558],[107.6762,-2.5631],[107.6879,-2.5641],[107.6912,-2.5614],[107.6978,-2.5615],[107.7046,-2.5589],[107.7123,-2.552],[107.7124,-2.5497],[107.7137,-2.5513],[107.7197,-2.5467],[107.7287,-2.5513],[107.7274,-2.555],[107.7301,-2.5565],[107.7639,-2.5572],[107.7677,-2.5557],[107.7676,-2.5541],[107.7702,-2.5554],[107.7725,-2.5545],[107.7788,-2.549],[107.7881,-2.5479],[107.7927,-2.5457],[107.7923,-2.5476],[107.7947,-2.5465],[107.7971,-2.5444],[107.7968,-2.5436],[107.8126,-2.5351],[107.8156,-2.5263],[107.8182,-2.5272],[107.8184,-2.5292],[107.82,-2.5296],[107.8204,-2.5281],[107.8214,-2.5301],[107.8304,-2.529],[107.831,-2.5311],[107.8334,-2.5317],[107.8331,-2.5363],[107.8268,-2.5397],[107.8258,-2.5434],[107.8281,-2.5462],[107.8281,-2.55],[107.8385,-2.5561],[107.8412,-2.5568],[107.8422,-2.5554],[107.8687,-2.5598],[107.8837,-2.5675],[107.8964,-2.567],[107.9029,-2.5747],[107.908,-2.5755],[107.9126,-2.5713],[107.9198,-2.5722],[107.9204,-2.5644],[107.9234,-2.5608],[107.9258,-2.5617],[107.9275,-2.5602],[107.9297,-2.5621],[107.9294,-2.5651],[107.938,-2.5661],[107.9373,-2.5732],[107.94,-2.5849],[107.9385,-2.5901],[107.9357,-2.5933],[107.9275,-2.6001],[107.9117,-2.6086],[107.899,-2.6084],[107.9,-2.614],[107.8984,-2.6182],[107.9026,-2.6296],[107.9009,-2.6324],[107.9023,-2.6365],[107.8976,-2.6392],[107.8989,-2.6428],[107.8971,-2.6623],[107.8938,-2.6694],[107.8864,-2.6698],[107.8841,-2.6721],[107.8779,-2.6833],[107.8764,-2.6904],[107.8876,-2.6979],[107.8897,-2.6961],[107.8895,-2.699],[107.905,-2.7052],[107.9067,-2.7098],[107.9129,-2.7114],[107.9196,-2.7104],[107.922,-2.7118],[107.9227,-2.71],[107.9256,-2.7092],[107.9333,-2.7105],[107.9345,-2.7157],[107.9328,-2.7215],[107.9372,-2.7232],[107.9394,-2.7275],[107.9517,-2.7377],[107.9629,-2.7424],[107.9552,-2.75],[107.9583,-2.757],[107.9666,-2.7579],[107.9692,-2.7568],[107.9709,-2.7532],[107.9793,-2.7532],[107.982,-2.7509],[107.9908,-2.7518],[107.9956,-2.7552],[107.9918,-2.7666],[107.9963,-2.7741],[107.9953,-2.7768],[107.9923,-2.7783],[107.9892,-2.7777],[107.986,-2.7797],[107.9796,-2.7799],[107.9782,-2.7855],[107.9743,-2.784],[107.9724,-2.7874],[107.9683,-2.7879],[107.9646,-2.7915],[107.9602,-2.79],[107.9558,-2.7944],[107.9493,-2.7934],[107.9368,-2.7994],[107.9192,-2.8008],[107.9135,-2.7984],[107.9091,-2.7994],[107.8976,-2.7969],[107.8836,-2.7998],[107.875,-2.7987],[107.8674,-2.8008],[107.8625,-2.8064],[107.8593,-2.8147],[107.8525,-2.8179],[107.849,-2.8216],[107.8487,-2.8243],[107.8525,-2.8294],[107.8524,-2.8328],[107.8459,-2.8429],[107.8474,-2.8446],[107.8473,-2.8476],[107.8551,-2.8562],[107.855,-2.8675],[107.8373,-2.8774],[107.8294,-2.8756],[107.8248,-2.8789],[107.8202,-2.8759],[107.8072,-2.8736],[107.7963,-2.8671],[107.7904,-2.8654],[107.7819,-2.8676],[107.7767,-2.875],[107.7695,-2.8784],[107.7563,-2.8804],[107.7547,-2.8826],[107.7506,-2.8936],[107.7587,-2.8985],[107.7596,-2.9017],[107.7676,-2.9046],[107.7823,-2.9158],[107.7829,-2.9193],[107.7924,-2.9226],[107.7954,-2.9275],[107.7996,-2.9302],[107.805,-2.9309],[107.8089,-2.9358],[107.8118,-2.9432],[107.8156,-2.9443],[107.8199,-2.9429],[107.8242,-2.9495],[107.8269,-2.9595],[107.8335,-2.9598],[107.8366,-2.9656],[107.8411,-2.9678],[107.8454,-2.9754],[107.8491,-2.9767],[107.8484,-2.9855],[107.8536,-2.9873],[107.8577,-2.9942],[107.8534,-3.0085],[107.8548,-3.0123],[107.8619,-3.0145],[107.8637,-3.0184],[107.8613,-3.0242],[107.864,-3.0289],[107.8635,-3.0355],[107.8587,-3.0404],[107.8554,-3.0407],[107.8553,-3.0447],[107.851,-3.0472],[107.8517,-3.0503],[107.8488,-3.0528],[107.8497,-3.0551],[107.8483,-3.0596],[107.8444,-3.061],[107.8385,-3.069],[107.8226,-3.0817],[107.8161,-3.0846],[107.8149,-3.0838],[107.8119,-3.0862],[107.8143,-3.0868],[107.8165,-3.0904]]]}},{"type":"Feature","properties":{"name":"BelitungTimur","name_en":"BelitungTimur","admin_level":"5","osm_id":""},"geometry":{"type":"Polygon","coordinates":[[[108.0138,-3.2441],[108.0115,-3.2476],[108.0061,-3.2475],[107.9967,-3.2547],[107.9945,-3.257],[107.9955,-3.2592],[107.9909,-3.2601],[107.9915,-3.268],[107.9849,-3.2722],[107.9756,-3.2636],[107.9745,-3.2612],[107.9761,-3.2597],[107.9756,-3.255],[107.9657,-3.2441],[107.967,-3.2153],[107.9697,-3.21],[107.9689,-3.203],[107.9719,-3.2004],[107.9734,-3.1916],[107.9717,-3.189],[107.9707,-3.181],[107.9634,-3.1734],[107.9632,-3.1676],[107.9575,-3.16],[107.9507,-3.1587],[107.9491,-3.1559],[107.9404,-3.1511],[107.9328,-3.1509],[107.9302,-3.1416],[107.933,-3.1377],[107.9337,-3.1324],[107.931,-3.1317],[107.9297,-3.1263],[107.9279,-3.1271],[107.9261,-3.1315],[107.9235,-3.1317],[107.9215,-3.1281],[107.9236,-3.1253],[107.9222,-3.1228],[107.9166,-3.1227],[107.9129,-3.119],[107.9049,-3.1155],[107.8993,-3.1156],[107.8921,-3.1186],[107.8863,-3.1177],[107.8827,-3.1096],[107.8889,-3.1048],[107.8953,-3.1053],[107.8993,-3.0982],[107.8889,-3.0895],[107.8893,-3.0818],[107.8837,-3.08],[107.8787,-3.0817],[107.876,-3.0803],[107.8725,-3.0739],[107.8646,-3.0735],[107.8634,-3.0717],[107.8651,-3.0682],[107.8622,-3.0626],[107.8665,-3.0621],[107.8616,-3.0587],[107.8486,-3.0604],[107.8488,-3.0528],[107.8517,-3.0503],[107.851,-3.0472],[107.8553,-3.0447],[107.8554,-3.0407],[107.8587,-3.0404],[107.863,-3.0364],[107.864,-3.0289],[107.8613,-3.0242],[107.8637,-3.0184],[107.8619,-3.0145],[107.8557,-3.013],[107.8534,-3.0085],[107.858,-2.9956],[107.8536,-2.9873],[107.8484,-2.9855],[107.8491,-2.9767],[107.8454,-2.9754],[107.8411,-2.9678],[107.8366,-2.9656],[107.8335,-2.9598],[107.8269,-2.9595],[107.8242,-2.9495],[107.8199,-2.9429],[107.8156,-2.9443],[107.8118,-2.9432],[107.8089,-2.9358],[107.805,-2.9309],[107.7996,-2.9302],[107.7954,-2.9275],[107.7924,-2.9226],[107.7829,-2.9193],[107.7823,-2.9158],[107.7676,-2.9046],[107.7596,-2.9017],[107.7587,-2.8985],[107.7506,-2.8936],[107.7563,-2.8804],[107.7695,-2.8784],[107.7767,-2.875],[107.7806,-2.8687],[107.7852,-2.8663],[107.7923,-2.8655],[107.8024,-2.8716],[107.809,-2.8743],[107.8202,-2.8759],[107.8248,-2.8789],[107.8294,-2.8756],[107.8373,-2.8774],[107.8438,-2.8745],[107.8477,-2.8707],[107.8522,-2.8697],[107.855,-2.8675],[107.8551,-2.8562],[107.8473,-2.8476],[107.8474,-2.8446],[107.8459,-2.8429],[107.8524,-2.8328],[107.8525,-2.8294],[107.8487,-2.8243],[107.849,-2.8216],[107.8525,-2.8179],[107.8593,-2.8147],[107.8625,-2.8064],[107.8674,-2.8008],[107.875,-2.7987],[107.8836,-2.7998],[107.8976,-2.7969],[107.9091,-2.7994],[107.9135,-2.7984],[107.9192,-2.8008],[107.9368,-2.7994],[107.9493,-2.7934],[107.9558,-2.7944],[107.9602,-2.79],[107.9646,-2.7915],[107.9683,-2.7879],[107.9724,-2.7874],[107.9743,-2.784],[107.9782,-2.7855],[107.9796,-2.7799],[107.986,-2.7797],[107.9872,-2.778],[107.9923,-2.7783],[107.9953,-2.7768],[107.9961,-2.7731],[107.9918,-2.7666],[107.9956,-2.7552],[107.9915,-2.7521],[107.982,-2.7509],[107.9793,-2.7532],[107.9709,-2.7532],[107.9692,-2.7568],[107.9666,-2.7579],[107.9583,-2.757],[107.9552,-2.75],[107.9629,-2.7424],[107.9517,-2.7377],[107.9394,-2.7275],[107.9372,-2.7232],[107.9328,-2.7215],[107.9345,-2.7157],[107.9333,-2.7105],[107.9256,-2.7092],[107.9227,-2.71],[107.922,-2.7118],[107.9196,-2.7104],[107.9129,-2.7114],[107.9067,-2.7098],[107.905,-2.7052],[107.8895,-2.699],[107.8897,-2.6961],[107.8876,-2.6979],[107.8764,-2.6904],[107.8779,-2.6833],[107.8841,-2.6721],[107.8864,-2.6698],[107.8938,-2.6694],[107.8971,-2.6623],[107.8989,-2.6428],[107.8976,-2.6392],[107.9023,-2.6365],[107.9009,-2.6324],[107.9026,-2.6296],[107.8984,-2.6182],[107.9,-2.614],[107.899,-2.6084],[107.9099,-2.6093],[107.9275,-2.6001],[107.9357,-2.5933],[107.9395,-2.5873],[107.9379,-2.57],[107.9452,-2.5723],[107.9495,-2.5678],[107.9521,-2.57],[107.9537,-2.5695],[107.9541,-2.5734],[107.9591,-2.5787],[107.9626,-2.5761],[107.9686,-2.5757],[107.9738,-2.5728],[107.9783,-2.5724],[107.9865,-2.5753],[107.9893,-2.5722],[107.9974,-2.5764],[107.9988,-2.5795],[108.0042,-2.5807],[108.0079,-2.5844],[108.0075,-2.5859],[108.0104,-2.5852],[108.0093,-2.5917],[108.0133,-2.5968],[108.0064,-2.6129],[108.0072,-2.6167],[108.0023,-2.6161],[108.0027,-2.6186],[108.0077,-2.6208],[108.0124,-2.6195],[108.0153,-2.6255],[108.0211,-2.6308],[108.0216,-2.6375],[108.0245,-2.6428],[108.0275,-2.6371],[108.0298,-2.6375],[108.0255,-2.6495],[108.0214,-2.6528],[108.0195,-2.6553],[108.0161,-2.6653],[108.0179,-2.6641],[108.0189,-2.667],[108.0265,-2.6612],[108.0296,-2.6569],[108.0321,-2.6484],[108.0315,-2.6398],[108.0326,-2.6397],[108.0334,-2.6438],[108.0353,-2.6436],[108.0342,-2.6521],[108.036,-2.6488],[108.035,-2.6464],[108.0388,-2.6408],[108.0384,-2.6381],[108.04,-2.6365],[108.0386,-2.6254],[108.0399,-2.6225],[108.0374,-2.6179],[108.0378,-2.6102],[108.0402,-2.6085],[108.0443,-2.6097],[108.0447,-2.606],[108.0411,-2.6021],[108.0417,-2.5988],[108.0578,-2.6062],[108.0685,-2.6015],[108.0688,-2.6058],[108.0749,-2.6073],[108.0798,-2.606],[108.0798,-2.604],[108.0827,-2.6043],[108.0831,-2.5999],[108.0861,-2.5985],[108.0892,-2.6008],[108.0872,-2.6046],[108.0936,-2.6077],[108.0954,-2.6135],[108.1048,-2.6149],[108.1034,-2.6196],[108.1043,-2.6212],[108.1075,-2.6189],[108.1108,-2.6211],[108.1087,-2.6258],[108.1096,-2.6281],[108.1111,-2.6267],[108.1134,-2.6317],[108.1261,-2.6285],[108.1288,-2.6317],[108.1305,-2.6316],[108.1287,-2.6347],[108.1392,-2.6394],[108.14,-2.6427],[108.1378,-2.6468],[108.1401,-2.6494],[108.1431,-2.6501],[108.1446,-2.6471],[108.1466,-2.65],[108.1494,-2.6497],[108.1531,-2.6517],[108.1551,-2.6544],[108.1532,-2.6591],[108.1553,-2.66],[108.1529,-2.6613],[108.1513,-2.6688],[108.149,-2.6717],[108.156,-2.6751],[108.1624,-2.6756],[108.161,-2.6822],[108.1643,-2.6862],[108.1667,-2.6865],[108.17,-2.6775],[108.1711,-2.6688],[108.1761,-2.671],[108.1791,-2.6746],[108.1782,-2.6774],[108.1793,-2.6784],[108.1845,-2.6791],[108.1814,-2.6755],[108.183,-2.6749],[108.196,-2.6822],[108.1974,-2.6837],[108.1916,-2.6832],[108.1933,-2.6863],[108.1926,-2.6916],[108.1972,-2.6913],[108.1994,-2.6951],[108.2018,-2.6897],[108.204,-2.6909],[108.2083,-2.7015],[108.2102,-2.7004],[108.2188,-2.703],[108.2185,-2.7063],[108.2234,-2.714],[108.2257,-2.7139],[108.2312,-2.7199],[108.237,-2.7226],[108.2398,-2.7257],[108.2418,-2.7315],[108.2454,-2.7338],[108.2481,-2.7402],[108.2509,-2.7423],[108.2549,-2.7426],[108.2566,-2.7412],[108.2591,-2.7439],[108.2642,-2.7438],[108.2648,-2.7465],[108.2673,-2.7474],[108.2666,-2.7484],[108.2708,-2.7518],[108.2711,-2.7568],[108.2673,-2.7589],[108.2662,-2.7706],[108.269,-2.7762],[108.2722,-2.7786],[108.2844,-2.8129],[108.2907,-2.8226],[108.2965,-2.8468],[108.2981,-2.8475],[108.2967,-2.8627],[108.2935,-2.8755],[108.2943,-2.8777],[108.2877,-2.8833],[108.2839,-2.8838],[108.2639,-2.8966],[108.2535,-2.9123],[108.2474,-2.9252],[108.2441,-2.9398],[108.248,-2.9501],[108.2472,-2.9559],[108.2419,-2.9623],[108.2414,-2.9663],[108.2361,-2.9691],[108.2297,-2.9785],[108.2254,-2.9806],[108.2211,-2.9855],[108.2086,-3.012],[108.2079,-3.0169],[108.2107,-3.0274],[108.2131,-3.0307],[108.2124,-3.0337],[108.2161,-3.036],[108.2173,-3.0541],[108.2165,-3.0571],[108.2139,-3.057],[108.2137,-3.0604],[108.2105,-3.0638],[108.2105,-3.0662],[108.2133,-3.0699],[108.2084,-3.0698],[108.2069,-3.0717],[108.1963,-3.089],[108.1927,-3.101],[108.1902,-3.1024],[108.1886,-3.1061],[108.1842,-3.1086],[108.1799,-3.1201],[108.182,-3.1277],[108.1856,-3.131],[108.1907,-3.1285],[108.2013,-3.131],[108.2064,-3.1367],[108.2087,-3.1453],[108.2042,-3.147],[108.1915,-3.143],[108.1854,-3.1428],[108.1854,-3.1465],[108.1832,-3.1468],[108.1768,-3.1525],[108.1709,-3.1604],[108.1571,-3.1662],[108.1525,-3.1721],[108.148,-3.1708],[108.1378,-3.1743],[108.1185,-3.1741],[108.1158,-3.176],[108.1081,-3.169],[108.1058,-3.1702],[108.1047,-3.1688],[108.102,-3.1693],[108.0998,-3.1665],[108.0963,-3.1658],[108.0822,-3.1687],[108.0795,-3.1706],[108.0773,-3.1781],[108.0723,-3.1821],[108.0692,-3.1879],[108.0725,-3.1974],[108.0787,-3.2008],[108.0791,-3.2035],[108.0837,-3.2046],[108.0869,-3.2084],[108.0872,-3.22],[108.084,-3.2209],[108.0839,-3.224],[108.0817,-3.2244],[108.0834,-3.2257],[108.0837,-3.2288],[108.0811,-3.2328],[108.0806,-3.239],[108.0833,-3.2443],[108.0804,-3.2465],[108.0766,-3.2465],[108.0709,-3.2426],[108.0687,-3.2449],[108.0679,-3.2417],[108.0667,-3.2429],[108.0614,-3.2392],[108.048,-3.2403],[108.0473,-3.242],[108.0435,-3.2427],[108.0416,-3.2457],[108.0364,-3.2432],[108.03,-3.2447],[108.0219,-3.2433],[108.0205,-3.2466],[108.0189,-3.2433],[108.0138,-3.2441]]]}},{"type":"Feature","properties":{"name":"Pangkalpinang","name_en":"Pangkalpinang","admin_level":"5","osm_id":""},"geometry":{"type":"Polygon","coordinates":[[[106.1205,-2.1525],[106.1172,-2.1544],[106.1034,-2.154],[106.1012,-2.1512],[106.1005,-2.1462],[106.0986,-2.1479],[106.0926,-2.1445],[106.0888,-2.1456],[106.0903,-2.1408],[106.0874,-2.1385],[106.0877,-2.1318],[106.0838,-2.1323],[106.0821,-2.1296],[106.0789,-2.1287],[106.062,-2.1271],[106.0566,-2.1202],[106.0468,-2.1175],[106.0444,-2.1122],[106.0402,-2.1125],[106.0391,-2.1081],[106.0443,-2.1075],[106.0457,-2.0989],[106.0446,-2.0952],[106.0409,-2.0928],[106.042,-2.0864],[106.0403,-2.0823],[106.0461,-2.0754],[106.0528,-2.075],[106.0623,-2.0702],[106.0687,-2.0736],[106.0791,-2.0757],[106.0902,-2.077],[106.0921,-2.0758],[106.0946,-2.0772],[106.0976,-2.0753],[106.0998,-2.0786],[106.0985,-2.0806],[106.1008,-2.0817],[106.1035,-2.0784],[106.1057,-2.0787],[106.1081,-2.0768],[106.1077,-2.0725],[106.1031,-2.0733],[106.1062,-2.0658],[106.1093,-2.0661],[106.1093,-2.0699],[106.1113,-2.0704],[106.1163,-2.0671],[106.1173,-2.0636],[106.1217,-2.0631],[106.1302,-2.0573],[106.133,-2.0587],[106.1389,-2.067],[106.1413,-2.0769],[106.1385,-2.0821],[106.1276,-2.0903],[106.1286,-2.0957],[106.132,-2.0975],[106.137,-2.0966],[106.1488,-2.0826],[106.1589,-2.0859],[106.1668,-2.0923],[106.1789,-2.1203],[106.1853,-2.129],[106.1845,-2.1318],[106.181,-2.1324],[106.1792,-2.1388],[106.1803,-2.1459],[106.1779,-2.1485],[106.1751,-2.1484],[106.1776,-2.1543],[106.1702,-2.1553],[106.1682,-2.1576],[106.1605,-2.1533],[106.157,-2.1591],[106.1519,-2.1593],[106.1493,-2.1546],[106.1487,-2.1564],[106.1421,-2.1532],[106.1364,-2.148],[106.1302,-2.1468],[106.1205,-2.1525]]]}}]}