{"type":"FeatureCollection","metadata":{"parent_osm_id":"2390840","parent_name":"Riau","parent_name_1":"Riau","parent_gid":"IDN.24_1","parent_level":"4","child_level":"5","count":12,"source":"GADM 4.1","generated":"2026-05-07"},"features":[{"type":"Feature","properties":{"name":"Bengkalis","name_en":"Bengkalis","admin_level":"5","osm_id":""},"geometry":{"type":"Polygon","coordinates":[[[102.1511,1.2964],[102.1517,1.2765],[102.1497,1.2685],[102.1518,1.2691],[102.1532,1.2615],[102.1641,1.2318],[102.1643,1.2113],[102.1597,1.1951],[102.162,1.1908],[102.1463,1.1867],[102.1426,1.1806],[102.1319,1.1769],[102.1098,1.1474],[102.1072,1.1375],[102.0946,1.1253],[102.0619,1.077],[102.0332,1.0383],[102.0113,1.0125],[101.9931,0.9952],[101.969,0.9605],[101.9377,0.9589],[101.9147,0.9625],[101.9094,0.9596],[101.9019,0.9471],[101.8406,0.9469],[101.8784,1.0143],[101.8842,1.0431],[101.8835,1.0683],[101.8726,1.1025],[101.8636,1.1197],[101.8503,1.1382],[101.8138,1.1689],[101.7405,1.1928],[101.712,1.1971],[101.612,1.0306],[101.5394,0.9254],[101.525,0.9307],[101.5224,0.9354],[101.5203,0.9487],[101.5183,0.9514],[101.4978,0.9597],[101.4891,0.9663],[101.4777,0.9712],[101.4743,0.9759],[101.456,0.9849],[101.4552,0.9865],[101.458,0.9981],[101.456,1.0033],[101.45,1.0064],[101.4399,1.0074],[101.4335,1.0161],[101.4225,1.014],[101.4164,1.0228],[101.4088,1.0219],[101.4012,1.0234],[101.3943,1.0205],[101.3764,1.0238],[101.3722,1.0267],[101.3683,1.027],[101.3655,1.0322],[101.3588,1.029],[101.3536,1.0327],[101.3512,1.0328],[101.3398,1.0282],[101.3319,1.035],[101.3265,1.0356],[101.3216,1.0416],[101.3163,1.042],[101.3101,1.0466],[101.3054,1.045],[101.2978,1.0475],[101.2962,1.0511],[101.2909,1.0499],[101.2884,1.0529],[101.2883,1.057],[101.2824,1.0604],[101.278,1.0539],[101.2745,1.0442],[101.2665,1.0368],[101.2608,1.0342],[101.2509,1.0213],[101.2367,1.0136],[101.2305,1.0069],[100.9326,1.2485],[100.9352,1.2802],[100.9475,1.3512],[100.9542,1.349],[100.9713,1.3484],[100.9748,1.3499],[100.9951,1.3515],[101.0114,1.3507],[101.0173,1.3527],[101.028,1.3606],[101.0569,1.3736],[101.0748,1.3843],[101.0792,1.3905],[101.1023,1.4039],[101.1136,1.4139],[101.1205,1.4135],[101.1237,1.4171],[101.1369,1.4192],[101.1512,1.4321],[101.1685,1.4416],[101.1789,1.4453],[101.241,1.4656],[101.2706,1.4684],[101.2956,1.4735],[101.3173,1.4748],[101.341,1.4672],[101.3664,1.4516],[101.4222,1.4311],[101.4223,1.4583],[101.4755,1.4564],[101.4812,1.4821],[101.5149,1.4817],[101.5759,1.536],[101.5788,1.54],[101.6001,1.5245],[101.6262,1.5174],[101.69,1.5158],[101.7282,1.6609],[101.726,1.672],[101.7422,1.6683],[101.7663,1.656],[101.8068,1.6222],[101.8279,1.5996],[101.8503,1.5795],[101.8733,1.5615],[101.8852,1.5551],[101.8909,1.5496],[101.898,1.5468],[101.9113,1.5361],[101.9248,1.529],[101.9468,1.5076],[101.9536,1.5038],[101.9576,1.4989],[101.9692,1.491],[101.9716,1.4877],[101.9976,1.4694],[102.0019,1.4651],[102.0036,1.4618],[102.0027,1.4612],[102.0053,1.4584],[102.017,1.4533],[102.0371,1.4412],[102.0429,1.434],[102.0492,1.4292],[102.0658,1.4195],[102.0899,1.4017],[102.1004,1.3978],[102.1082,1.3924],[102.1245,1.3894],[102.1356,1.3821],[102.1487,1.379],[102.1533,1.3728],[102.1592,1.3596],[102.1572,1.3317],[102.1551,1.3256],[102.1511,1.2964]]]}},{"type":"Feature","properties":{"name":"Dumai","name_en":"Dumai","admin_level":"5","osm_id":""},"geometry":{"type":"Polygon","coordinates":[[[101.5029,1.4818],[101.4812,1.4821],[101.4755,1.4564],[101.4223,1.4583],[101.4222,1.4311],[101.3664,1.4516],[101.341,1.4672],[101.3174,1.4747],[101.333,1.4963],[101.3139,1.5268],[101.3111,1.5418],[101.3079,1.5471],[101.3,1.5886],[101.293,1.5981],[101.2838,1.6175],[101.2814,1.6262],[101.2818,1.6316],[101.2715,1.647],[101.2696,1.6549],[101.2637,1.6614],[101.2529,1.6815],[101.242,1.6943],[101.2029,1.7528],[101.13,1.8408],[101.1261,1.8516],[101.1211,1.8576],[101.1171,1.8697],[101.1129,1.8723],[101.1083,1.8818],[101.0985,1.892],[101.0881,1.9075],[101.088,1.9105],[101.0845,1.9158],[101.079,1.9193],[101.0731,1.9291],[101.0602,1.9551],[101.054,1.9939],[101.0326,2.0446],[101.0259,2.065],[101.0187,2.0755],[101.0186,2.0906],[101.0128,2.0982],[101.0093,2.1199],[101.0128,2.1448],[101.0364,2.2158],[101.0501,2.2433],[101.0545,2.2674],[101.0596,2.2743],[101.0618,2.2753],[101.0576,2.2618],[101.0602,2.2486],[101.0646,2.2452],[101.0682,2.2374],[101.0683,2.2316],[101.0764,2.2183],[101.0813,2.2131],[101.1123,2.1897],[101.1793,2.1285],[101.2269,2.099],[101.2683,2.0814],[101.2848,2.0574],[101.2941,2.0514],[101.305,2.0411],[101.3181,2.0058],[101.3231,1.9979],[101.3215,1.9824],[101.3283,1.9472],[101.3271,1.9382],[101.3287,1.936],[101.3307,1.9201],[101.3328,1.9153],[101.3323,1.9114],[101.3354,1.9031],[101.337,1.8917],[101.3412,1.886],[101.3472,1.8716],[101.3543,1.8435],[101.3638,1.8316],[101.3562,1.7947],[101.3575,1.7782],[101.3647,1.7593],[101.3819,1.7323],[101.3874,1.7203],[101.3894,1.7199],[101.3935,1.7132],[101.4005,1.7068],[101.4158,1.6956],[101.4315,1.6892],[101.4406,1.6866],[101.4447,1.6892],[101.4489,1.6873],[101.4636,1.6873],[101.4814,1.6828],[101.493,1.6757],[101.4974,1.6668],[101.5029,1.6652],[101.5067,1.6603],[101.5243,1.6495],[101.5416,1.6425],[101.551,1.641],[101.5617,1.6371],[101.5893,1.637],[101.6019,1.6387],[101.6029,1.6402],[101.6142,1.6425],[101.6268,1.6489],[101.634,1.6546],[101.6452,1.659],[101.6609,1.6619],[101.6643,1.6653],[101.6941,1.6668],[101.7113,1.6713],[101.726,1.672],[101.7282,1.6609],[101.69,1.5158],[101.6262,1.5174],[101.6001,1.5245],[101.5788,1.54],[101.5759,1.536],[101.5149,1.4817],[101.5029,1.4818]]]}},{"type":"Feature","properties":{"name":"IndragiriHilir","name_en":"IndragiriHilir","admin_level":"5","osm_id":""},"geometry":{"type":"Polygon","coordinates":[[[102.796,-0.9881],[102.7834,-0.9985],[102.7754,-1.0089],[102.7737,-1.0138],[102.7811,-1.0198],[102.782,-1.0227],[102.7788,-1.0291],[102.7761,-1.0278],[102.7749,-1.0247],[102.7713,-1.028],[102.7686,-1.0281],[102.7669,-1.0255],[102.7583,-1.0237],[102.7544,-1.028],[102.7555,-1.0401],[102.7412,-1.042],[102.7338,-1.0483],[102.7318,-1.0529],[102.7343,-1.0677],[102.7325,-1.0708],[102.7278,-1.0744],[102.7219,-1.0711],[102.7151,-1.0714],[102.7121,-1.0727],[102.7097,-1.0773],[102.6867,-1.0775],[102.6835,-1.0806],[102.6828,-1.0882],[102.6736,-1.0923],[102.6733,-1.0965],[102.6683,-1.1074],[102.6529,-1.1108],[102.6504,-1.1131],[102.6468,-1.1223],[102.6417,-1.121],[102.6303,-1.11],[102.6232,-1.0979],[102.6168,-1.0946],[102.6028,-1.0947],[102.5876,-1.0922],[102.5714,-1.0966],[102.5668,-1.0954],[102.5586,-1.0973],[102.5562,-1.0958],[102.555,-1.09],[102.5594,-1.0604],[102.5627,-1.0205],[102.5675,-0.937],[102.5706,-0.914],[102.576,-0.8891],[102.5833,-0.8691],[102.591,-0.8581],[102.6259,-0.8272],[102.634,-0.8171],[102.6386,-0.8059],[102.6392,-0.717],[102.6455,-0.6895],[102.6566,-0.6792],[102.6671,-0.6721],[102.6677,-0.6567],[102.6633,-0.605],[102.6661,-0.5909],[102.6873,-0.5393],[102.6912,-0.4691],[102.6944,-0.4699],[102.7022,-0.4772],[102.7074,-0.4773],[102.7178,-0.4668],[102.7201,-0.4621],[102.7168,-0.4543],[102.717,0.1054],[102.7307,0.1083],[102.7449,0.1137],[102.7819,0.1171],[102.795,0.1198],[102.8141,0.1264],[102.8351,0.1379],[102.844,0.1454],[102.859,0.1531],[102.8704,0.1621],[102.8841,0.1767],[102.9029,0.2021],[102.9175,0.2186],[102.96,0.2569],[103.0039,0.2909],[103.0153,0.2971],[103.0276,0.3013],[103.0441,0.3044],[103.0715,0.3139],[103.116,0.3251],[103.145,0.3405],[103.2081,0.4084],[103.256,0.4464],[103.2636,0.4522],[103.2955,0.4686],[103.3369,0.4853],[103.356,0.531],[103.3573,0.5374],[103.3837,0.534],[103.4071,0.527],[103.4151,0.5232],[103.4274,0.5143],[103.4318,0.5086],[103.4382,0.5069],[103.4394,0.5029],[103.4529,0.4932],[103.4586,0.4911],[103.4851,0.4655],[103.4884,0.4647],[103.4889,0.4619],[103.4956,0.4607],[103.4967,0.4566],[103.5345,0.4397],[103.5552,0.4178],[103.5778,0.4013],[103.5879,0.392],[103.5996,0.3685],[103.6029,0.3584],[103.6139,0.3466],[103.6374,0.343],[103.6509,0.3388],[103.6733,0.3271],[103.6786,0.3261],[103.6927,0.3145],[103.7065,0.3058],[103.7151,0.2967],[103.7427,0.2508],[103.757,0.219],[103.7665,0.1854],[103.7679,0.152],[103.7692,0.1507],[103.7713,0.1285],[103.7754,0.1106],[103.7755,0.1014],[103.7823,0.0724],[103.7882,0.0557],[103.812,0.0071],[103.8146,-0.0002],[103.8141,-0.0058],[103.8102,-0.011],[103.8068,-0.0121],[103.7799,-0.0092],[103.765,-0.0098],[103.7626,-0.0083],[103.7619,-0.0098],[103.7542,-0.0123],[103.748,-0.0115],[103.7402,-0.0152],[103.7294,-0.0169],[103.7254,-0.0161],[103.7246,-0.018],[103.7048,-0.0222],[103.6924,-0.0215],[103.6905,-0.0231],[103.6793,-0.0219],[103.6633,-0.0146],[103.6647,-0.0187],[103.6398,-0.0129],[103.6338,-0.0145],[103.6157,-0.006],[103.5992,-0.0172],[103.5887,-0.0213],[103.5704,-0.0356],[103.578,-0.0365],[103.5857,-0.0317],[103.5889,-0.0313],[103.5926,-0.0323],[103.5956,-0.0357],[103.5966,-0.0427],[103.5931,-0.0502],[103.5833,-0.061],[103.5792,-0.0629],[103.5754,-0.0624],[103.5637,-0.0707],[103.5428,-0.0744],[103.5359,-0.0802],[103.529,-0.0753],[103.5231,-0.0737],[103.518,-0.0744],[103.5099,-0.079],[103.5042,-0.0784],[103.5042,-0.0701],[103.5015,-0.067],[103.4878,-0.0575],[103.4812,-0.0494],[103.4687,-0.041],[103.4617,-0.0457],[103.4656,-0.0486],[103.4631,-0.0556],[103.4637,-0.058],[103.4686,-0.0601],[103.4754,-0.0555],[103.4779,-0.0557],[103.4813,-0.0617],[103.4827,-0.0698],[103.4797,-0.0763],[103.481,-0.0787],[103.4875,-0.0825],[103.4889,-0.0867],[103.4882,-0.0935],[103.4854,-0.0976],[103.4799,-0.1017],[103.4721,-0.1038],[103.4709,-0.1074],[103.4731,-0.1111],[103.4711,-0.12],[103.4975,-0.134],[103.5019,-0.1458],[103.4948,-0.1579],[103.4712,-0.172],[103.462,-0.1756],[103.4555,-0.1842],[103.4335,-0.1982],[103.4047,-0.2227],[103.3968,-0.2275],[103.385,-0.2313],[103.319,-0.2437],[103.3094,-0.2437],[103.2774,-0.2362],[103.2695,-0.2384],[103.262,-0.2439],[103.2466,-0.2639],[103.2268,-0.2714],[103.2279,-0.2799],[103.2318,-0.284],[103.2434,-0.2864],[103.2448,-0.288],[103.246,-0.305],[103.2618,-0.3054],[103.2826,-0.3258],[103.3189,-0.3449],[103.3263,-0.3527],[103.3242,-0.3564],[103.3158,-0.3612],[103.3057,-0.382],[103.3091,-0.389],[103.3216,-0.3989],[103.3313,-0.4013],[103.334,-0.4047],[103.3342,-0.4098],[103.3241,-0.4386],[103.3337,-0.4414],[103.341,-0.4414],[103.3516,-0.4393],[103.3642,-0.4344],[103.3704,-0.4352],[103.3726,-0.4391],[103.3748,-0.4676],[103.3774,-0.4803],[103.3871,-0.5019],[103.3871,-0.5074],[103.3904,-0.5159],[103.4044,-0.5252],[103.4289,-0.5312],[103.4361,-0.5433],[103.437,-0.5528],[103.4316,-0.5812],[103.4266,-0.5912],[103.4183,-0.6002],[103.406,-0.6031],[103.3899,-0.6095],[103.374,-0.6097],[103.3694,-0.6125],[103.3558,-0.6261],[103.3537,-0.6272],[103.3444,-0.6261],[103.3406,-0.6283],[103.3354,-0.6346],[103.3349,-0.6392],[103.3288,-0.6455],[103.3219,-0.6565],[103.3134,-0.6637],[103.2725,-0.6725],[103.2593,-0.6778],[103.2356,-0.6806],[103.2266,-0.6852],[103.2298,-0.6889],[103.2535,-0.7011],[103.2688,-0.6999],[103.2878,-0.7056],[103.3139,-0.702],[103.3201,-0.6989],[103.3289,-0.6976],[103.3596,-0.6973],[103.3758,-0.6951],[103.3982,-0.7045],[103.423,-0.7056],[103.4358,-0.7123],[103.4367,-0.717],[103.4347,-0.7201],[103.4195,-0.7301],[103.4281,-0.7333],[103.4355,-0.734],[103.4373,-0.7375],[103.4415,-0.737],[103.4428,-0.7407],[103.4444,-0.737],[103.4543,-0.7343],[103.4614,-0.736],[103.4801,-0.7568],[103.4853,-0.7684],[103.4397,-0.7712],[103.4249,-0.776],[103.3817,-0.7943],[103.37,-0.7961],[103.3626,-0.7947],[103.3367,-0.7845],[103.3129,-0.7792],[103.2871,-0.7748],[103.247,-0.7726],[103.2034,-0.7669],[103.1861,-0.7602],[103.1419,-0.7498],[103.1215,-0.7469],[103.0962,-0.7553],[103.0549,-0.7523],[103.0156,-0.7528],[103.0036,-0.7629],[102.9723,-0.8082],[102.9351,-0.8578],[102.883,-0.9126],[102.8616,-0.9316],[102.8247,-0.9599],[102.796,-0.9881]]]}},{"type":"Feature","properties":{"name":"IndragiriHulu","name_en":"IndragiriHulu","admin_level":"5","osm_id":""},"geometry":{"type":"Polygon","coordinates":[[[102.2102,-0.9498],[102.2004,-0.9544],[102.1871,-0.9538],[102.1804,-0.9475],[102.1737,-0.9294],[102.1698,-0.9241],[102.165,-0.9183],[102.1534,-0.9091],[102.1461,-0.9096],[102.1275,-0.9204],[102.1197,-0.9218],[102.113,-0.9197],[102.1046,-0.9137],[102.0871,-0.9103],[102.0673,-0.9038],[102.0305,-0.8906],[102.0169,-0.8837],[102.0063,-0.8826],[101.9897,-0.8853],[101.9768,-0.8898],[101.968,-0.8964],[101.9591,-0.9097],[101.954,-0.9038],[101.947,-0.9003],[101.9418,-0.9023],[101.9393,-0.9068],[101.9361,-0.9087],[101.9292,-0.9065],[101.9233,-0.8974],[101.9186,-0.8932],[101.9168,-0.8846],[101.9147,-0.8831],[101.9081,-0.8879],[101.896,-0.8911],[101.8816,-0.9095],[101.8781,-0.9109],[101.8681,-0.9095],[101.8648,-0.9123],[101.8578,-0.9145],[101.853,-0.9224],[101.8512,-0.9223],[101.8438,-0.9116],[101.8478,-0.9],[101.8397,-0.8802],[101.8266,-0.8747],[101.817,-0.8618],[101.8125,-0.8592],[101.8055,-0.8567],[101.7985,-0.8576],[101.7963,-0.8502],[101.7883,-0.8442],[101.7827,-0.8425],[101.7816,-0.8377],[101.7785,-0.8336],[101.7842,-0.8233],[101.7854,-0.8127],[101.7821,-0.8005],[101.7776,-0.7987],[101.777,-0.7942],[101.7807,-0.7899],[101.7852,-0.7801],[101.7891,-0.7571],[101.787,-0.7541],[101.7884,-0.7405],[101.7954,-0.7342],[101.7921,-0.7226],[101.793,-0.7086],[101.7996,-0.6971],[101.7994,-0.6913],[101.8028,-0.6799],[101.8066,-0.6747],[101.8057,-0.6602],[101.8397,-0.6226],[101.8445,-0.6162],[101.8484,-0.6046],[101.8612,-0.5986],[101.8845,-0.5725],[101.9063,-0.5381],[101.9081,-0.5108],[101.9121,-0.504],[101.9114,-0.487],[101.9082,-0.468],[101.897,-0.4479],[101.8898,-0.4249],[101.8895,-0.4135],[101.8926,-0.3957],[101.9069,-0.3995],[101.9272,-0.4001],[101.9392,-0.4049],[101.9512,-0.4075],[101.9608,-0.4065],[101.9696,-0.4003],[102.0188,-0.3501],[102.0316,-0.3298],[102.0475,-0.312],[102.0972,-0.2755],[102.102,-0.2731],[102.1173,-0.2705],[102.1502,-0.2696],[102.1652,-0.2636],[102.1692,-0.2591],[102.1741,-0.2467],[102.1793,-0.2124],[102.1906,-0.1863],[102.1948,-0.1796],[102.2073,-0.172],[102.2251,-0.1665],[102.2526,-0.1658],[102.3006,-0.1741],[102.3681,-0.1788],[102.3837,-0.1766],[102.4072,-0.1664],[102.4329,-0.1474],[102.4755,-0.0978],[102.4797,-0.0889],[102.4854,-0.0692],[102.4963,0.0122],[102.5,0.0232],[102.5152,0.0491],[102.5381,0.0749],[102.5656,0.0932],[102.5934,0.1013],[102.6268,0.1036],[102.717,0.1054],[102.7168,-0.4543],[102.7201,-0.4621],[102.7178,-0.4668],[102.7074,-0.4773],[102.7022,-0.4772],[102.6944,-0.4699],[102.6912,-0.4691],[102.6873,-0.5393],[102.6661,-0.5909],[102.6633,-0.605],[102.6677,-0.6567],[102.6671,-0.6721],[102.6566,-0.6792],[102.6455,-0.6895],[102.6392,-0.717],[102.6386,-0.8059],[102.634,-0.8171],[102.6259,-0.8272],[102.591,-0.8581],[102.5833,-0.8691],[102.576,-0.8891],[102.5706,-0.914],[102.5675,-0.937],[102.5627,-1.0205],[102.5594,-1.0604],[102.555,-1.09],[102.545,-1.0895],[102.5345,-1.0857],[102.5123,-1.0857],[102.4838,-1.08],[102.4722,-1.0797],[102.4602,-1.0772],[102.447,-1.0688],[102.4329,-1.0422],[102.4167,-1.0301],[102.4054,-1.0277],[102.3543,-1.0263],[102.3504,-1.0212],[102.3489,-1.0155],[102.3523,-0.9954],[102.3492,-0.9895],[102.3435,-0.9844],[102.3221,-0.9738],[102.2977,-0.9567],[102.2821,-0.9311],[102.2776,-0.927],[102.262,-0.926],[102.243,-0.9335],[102.2356,-0.9311],[102.2296,-0.9396],[102.2102,-0.9498]]]}},{"type":"Feature","properties":{"name":"Kampar","name_en":"Kampar","admin_level":"5","osm_id":""},"geometry":{"type":"Polygon","coordinates":[[[100.9562,-0.3116],[100.9477,-0.3108],[100.9434,-0.3131],[100.9326,-0.3148],[100.9203,-0.3236],[100.9204,-0.3191],[100.9166,-0.3201],[100.9088,-0.3323],[100.9032,-0.3349],[100.8889,-0.3349],[100.8818,-0.3387],[100.8752,-0.3395],[100.8696,-0.3378],[100.8616,-0.3326],[100.8587,-0.3326],[100.8445,-0.3393],[100.8378,-0.3176],[100.841,-0.3143],[100.8387,-0.3065],[100.8411,-0.2969],[100.8375,-0.2893],[100.832,-0.2851],[100.8224,-0.2837],[100.806,-0.2715],[100.8045,-0.2653],[100.8051,-0.2556],[100.8015,-0.2431],[100.7938,-0.2374],[100.7762,-0.2175],[100.7753,-0.2148],[100.7841,-0.1943],[100.7822,-0.1889],[100.7758,-0.1852],[100.7693,-0.1772],[100.7682,-0.1615],[100.7633,-0.1454],[100.7562,-0.1395],[100.7549,-0.1361],[100.7542,-0.1325],[100.7614,-0.1246],[100.7614,-0.1197],[100.7578,-0.1127],[100.7534,-0.083],[100.7434,-0.0723],[100.7427,-0.0621],[100.7449,-0.0477],[100.7365,-0.0438],[100.7434,-0.0394],[100.7472,-0.0448],[100.7507,-0.0446],[100.757,-0.0395],[100.7586,-0.0319],[100.7661,-0.0219],[100.7711,-0.0192],[100.7753,-0.0143],[100.7823,-0.0113],[100.7859,-0.014],[100.789,-0.0208],[100.8011,-0.024],[100.8092,-0.0303],[100.8109,-0.0393],[100.8119,-0.0407],[100.8145,-0.0403],[100.8192,-0.0326],[100.8242,-0.0326],[100.8272,-0.0303],[100.8244,-0.0206],[100.8262,-0.017],[100.8477,0.0],[100.8443,0.0273],[100.8515,0.0444],[100.8502,0.0533],[100.8372,0.0606],[100.8353,0.0652],[100.8325,0.0669],[100.8285,0.0644],[100.8167,0.0625],[100.8143,0.0609],[100.8091,0.0509],[100.8044,0.0488],[100.8011,0.0495],[100.7992,0.0582],[100.795,0.0614],[100.7916,0.0707],[100.7881,0.0754],[100.7822,0.077],[100.7812,0.0789],[100.7802,0.0867],[100.776,0.0898],[100.7786,0.0954],[100.7744,0.1021],[100.7771,0.1043],[100.7867,0.107],[100.7901,0.1156],[100.7842,0.122],[100.7878,0.128],[100.8007,0.1281],[100.8046,0.1296],[100.8094,0.1345],[100.8136,0.1482],[100.8158,0.1492],[100.8278,0.145],[100.8315,0.1461],[100.8334,0.1506],[100.8342,0.1617],[100.8362,0.1636],[100.8422,0.1613],[100.8451,0.1625],[100.8475,0.1669],[100.8489,0.1754],[100.8427,0.1809],[100.8455,0.1868],[100.8435,0.1972],[100.8453,0.2076],[100.8391,0.213],[100.839,0.2185],[100.8415,0.2226],[100.8413,0.226],[100.8344,0.2351],[100.8259,0.2394],[100.819,0.249],[100.8149,0.2502],[100.8114,0.2485],[100.8003,0.2511],[100.7968,0.2444],[100.7943,0.2436],[100.7898,0.2506],[100.7863,0.2532],[100.775,0.2519],[100.7722,0.2485],[100.7716,0.2404],[100.7693,0.2369],[100.7658,0.2357],[100.7648,0.2369],[100.7549,0.2372],[100.7413,0.2415],[100.7386,0.2362],[100.7316,0.2362],[100.7233,0.242],[100.7135,0.2386],[100.7015,0.246],[100.7001,0.2375],[100.6946,0.2318],[100.6955,0.2169],[100.6848,0.2036],[100.6824,0.189],[100.6762,0.1862],[100.6673,0.1956],[100.6491,0.2036],[100.6298,0.2192],[100.6202,0.2359],[100.6134,0.2427],[100.6016,0.2593],[100.5948,0.267],[100.5841,0.2727],[100.5772,0.2791],[100.5643,0.2971],[100.5376,0.31],[100.5318,0.3182],[100.5381,0.3338],[100.5313,0.343],[100.5274,0.3451],[100.5185,0.3213],[100.5029,0.3113],[100.4936,0.3079],[100.4852,0.3083],[100.473,0.3135],[100.4676,0.3199],[100.4629,0.3312],[100.4612,0.3507],[100.4562,0.3678],[100.4565,0.3774],[100.454,0.3951],[100.448,0.4161],[100.4478,0.422],[100.4527,0.4246],[100.4619,0.434],[100.4653,0.443],[100.4723,0.4452],[100.4745,0.4494],[100.4882,0.4541],[100.4914,0.458],[100.4976,0.459],[100.5121,0.4578],[100.5142,0.4631],[100.5198,0.4702],[100.5303,0.4781],[100.5412,0.5032],[100.5474,0.5114],[100.5546,0.5148],[100.5623,0.5249],[100.5717,0.5322],[100.5769,0.5285],[100.5781,0.5249],[100.5856,0.5185],[100.6036,0.5108],[100.6089,0.5063],[100.6408,0.4672],[100.6508,0.4597],[100.6626,0.4473],[100.6825,0.4319],[100.6904,0.4207],[100.6944,0.418],[100.7068,0.4035],[100.7165,0.3977],[100.7205,0.3905],[100.7267,0.3885],[100.728,0.3859],[100.7351,0.3808],[100.7425,0.3778],[100.7499,0.3796],[100.7545,0.3811],[100.7605,0.3857],[100.7727,0.3898],[100.7701,0.382],[100.7775,0.377],[100.7751,0.376],[100.8028,0.3549],[100.8105,0.3532],[100.8152,0.3549],[100.8348,0.3704],[100.8389,0.3754],[100.8394,0.3867],[100.8413,0.3923],[100.8423,0.425],[100.8408,0.4666],[100.8387,0.476],[100.8251,0.4928],[100.8195,0.511],[100.8086,0.5294],[100.7932,0.5449],[100.7896,0.5447],[100.7855,0.5409],[100.777,0.5284],[100.7716,0.5282],[100.7458,0.5446],[100.7337,0.5544],[100.7226,0.5578],[100.7148,0.567],[100.7095,0.5698],[100.6897,0.587],[100.68,0.5876],[100.6768,0.5895],[100.6742,0.5939],[100.6739,0.5983],[100.6622,0.6075],[100.6523,0.6184],[100.6505,0.6259],[100.6445,0.6349],[100.6413,0.6377],[100.6261,0.6446],[100.6243,0.6471],[100.6157,0.6586],[100.61,0.671],[100.6044,0.6908],[100.5972,0.6989],[100.594,0.7001],[100.5954,0.7041],[100.6114,0.7162],[100.6566,0.7459],[100.6831,0.7862],[100.693,0.8026],[100.6917,0.8039],[100.7004,0.8108],[100.6914,0.8216],[100.7033,0.8321],[100.7243,0.8414],[100.7283,0.8332],[100.7445,0.8484],[100.7554,0.8497],[100.7595,0.8562],[100.7638,0.8582],[100.7715,0.8653],[100.9069,1.0299],[101.2734,0.8283],[101.2987,0.8105],[101.3009,0.8081],[101.3003,0.8046],[101.3057,0.8008],[101.3096,0.8027],[101.3111,0.8058],[101.3148,0.8065],[101.3181,0.8003],[101.3201,0.8003],[101.3205,0.8024],[101.3226,0.8032],[101.3348,0.7974],[101.3235,0.7225],[101.3155,0.7118],[101.3112,0.7086],[101.3177,0.7024],[101.3143,0.6972],[101.3176,0.6947],[101.3226,0.696],[101.3349,0.689],[101.3799,0.6623],[101.3815,0.6582],[101.3769,0.6535],[101.3774,0.6488],[101.375,0.6444],[101.3586,0.633],[101.3467,0.6208],[101.3335,0.6133],[101.3279,0.606],[101.3312,0.605],[101.3321,0.6007],[101.3261,0.5986],[101.3307,0.5958],[101.3287,0.5907],[101.335,0.5869],[101.3401,0.5861],[101.3413,0.5837],[101.339,0.5839],[101.3373,0.5817],[101.3423,0.5794],[101.3451,0.5741],[101.3489,0.5734],[101.3494,0.5706],[101.3541,0.5665],[101.3558,0.5665],[101.3559,0.5696],[101.3588,0.5693],[101.3611,0.5638],[101.3646,0.5633],[101.3689,0.5594],[101.3683,0.5655],[101.3726,0.5638],[101.3723,0.5566],[101.3748,0.5542],[101.373,0.5492],[101.3707,0.5473],[101.371,0.5444],[101.3678,0.5422],[101.3653,0.5368],[101.3629,0.5361],[101.363,0.4989],[101.3594,0.4976],[101.3585,0.5016],[101.3561,0.5006],[101.3508,0.4947],[101.3497,0.4906],[101.3502,0.4796],[101.3539,0.4732],[101.3572,0.4714],[101.3629,0.432],[101.3701,0.4354],[101.3705,0.434],[101.3812,0.4344],[101.389,0.4328],[101.3907,0.4332],[101.3918,0.4364],[101.398,0.4328],[101.4037,0.4323],[101.4323,0.4211],[101.4308,0.4235],[101.4311,0.4277],[101.4375,0.4239],[101.4368,0.4225],[101.4396,0.4199],[101.4474,0.417],[101.4488,0.4195],[101.4453,0.4215],[101.4469,0.4227],[101.4487,0.4305],[101.4473,0.4321],[101.4506,0.4345],[101.4536,0.4427],[101.4561,0.4408],[101.4632,0.4401],[101.4634,0.4417],[101.471,0.4472],[101.477,0.456],[101.4856,0.4529],[101.4959,0.4463],[101.5054,0.4461],[101.5102,0.4428],[101.5159,0.4426],[101.5159,0.441],[101.5249,0.4361],[101.5275,0.4379],[101.529,0.434],[101.5517,0.4327],[101.5543,0.4315],[101.557,0.4268],[101.5671,0.4252],[101.5681,0.4292],[101.5666,0.4308],[101.5671,0.434],[101.57,0.4364],[101.5701,0.4404],[101.5668,0.4474],[101.5711,0.4534],[101.5739,0.4547],[101.5906,0.4236],[101.6142,0.3946],[101.6389,0.3941],[101.6673,0.3839],[101.6773,0.3863],[101.6874,0.3831],[101.6815,0.3735],[101.672,0.3431],[101.6588,0.3218],[101.6591,0.3187],[101.6796,0.2948],[101.6827,0.2759],[101.6817,0.2708],[101.5805,0.268],[101.5743,0.2539],[101.5654,0.2252],[101.5652,0.2184],[101.5707,0.213],[101.5741,0.2054],[101.5779,0.2019],[101.5864,0.2022],[101.5871,0.2047],[101.5921,0.1938],[101.5904,0.1848],[101.5801,0.1615],[101.5789,0.1445],[101.5724,0.1229],[101.5709,0.1044],[101.5759,0.0918],[101.5686,0.0519],[101.5624,0.046],[101.5618,0.0421],[101.5563,0.0438],[101.5497,0.0417],[101.5396,0.0364],[101.534,0.0296],[101.5319,0.0231],[101.5291,-0.0041],[101.5147,-0.0376],[101.5143,-0.0466],[101.5181,-0.0677],[101.5228,-0.1172],[101.5175,-0.118],[101.5081,-0.1134],[101.5023,-0.1135],[101.4894,-0.1023],[101.4831,-0.1007],[101.4805,-0.104],[101.4831,-0.1071],[101.483,-0.1106],[101.4701,-0.1289],[101.4672,-0.1294],[101.4602,-0.1259],[101.4512,-0.1273],[101.424,-0.0924],[101.4223,-0.0874],[101.4159,-0.0829],[101.4143,-0.0763],[101.4099,-0.0739],[101.4073,-0.08],[101.4079,-0.0834],[101.4062,-0.0882],[101.394,-0.0992],[101.3908,-0.1279],[101.3842,-0.1269],[101.3769,-0.1291],[101.3723,-0.1395],[101.3724,-0.1476],[101.3682,-0.1488],[101.3648,-0.1394],[101.3593,-0.1341],[101.3486,-0.1094],[101.3463,-0.1074],[101.3391,-0.1079],[101.3204,-0.0921],[101.3141,-0.0757],[101.3136,-0.0672],[101.3113,-0.065],[101.3115,-0.056],[101.3034,-0.0517],[101.3078,-0.0427],[101.2987,-0.0373],[101.2956,-0.0285],[101.2912,-0.0248],[101.2906,-0.0192],[101.2799,-0.0091],[101.2804,-0.0058],[101.2722,-0.0045],[101.2644,-0.0103],[101.2594,-0.0169],[101.2588,-0.0286],[101.2553,-0.0422],[101.2509,-0.045],[101.2427,-0.0463],[101.2389,-0.0597],[101.2329,-0.061],[101.223,-0.0728],[101.2192,-0.0872],[101.2103,-0.092],[101.2036,-0.098],[101.2022,-0.1014],[101.2029,-0.1104],[101.1938,-0.1184],[101.1932,-0.1214],[101.196,-0.1259],[101.1977,-0.1352],[101.2042,-0.1471],[101.2018,-0.1518],[101.2006,-0.1655],[101.2019,-0.1832],[101.1997,-0.1887],[101.1882,-0.1994],[101.1751,-0.2187],[101.1742,-0.225],[101.1775,-0.2307],[101.1769,-0.2341],[101.1705,-0.2375],[101.1614,-0.2313],[101.158,-0.2362],[101.1566,-0.241],[101.1584,-0.2488],[101.1664,-0.2564],[101.1665,-0.2606],[101.1595,-0.2701],[101.1527,-0.2742],[101.1504,-0.2797],[101.1451,-0.2839],[101.1418,-0.2895],[101.1394,-0.3061],[101.1429,-0.3191],[101.143,-0.3336],[101.1405,-0.3394],[101.1257,-0.3556],[101.1252,-0.3638],[101.118,-0.3878],[101.1146,-0.3892],[101.0952,-0.382],[101.0474,-0.377],[101.0401,-0.3607],[101.0251,-0.3399],[101.0186,-0.3361],[101.0058,-0.3237],[101.0006,-0.3205],[100.9976,-0.3197],[100.9962,-0.3209],[100.98,-0.3137],[100.9692,-0.3146],[100.9562,-0.3116]]]}},{"type":"Feature","properties":{"name":"KepulauanMeranti","name_en":"KepulauanMeranti","admin_level":"5","osm_id":""},"geometry":{"type":"Polygon","coordinates":[[[103.0494,0.7203],[103.0315,0.6977],[103.0267,0.6891],[103.0227,0.6861],[103.0176,0.6856],[102.9945,0.6891],[102.981,0.7029],[102.9755,0.7151],[102.9694,0.7239],[102.9521,0.7404],[102.9275,0.7693],[102.9184,0.7743],[102.8871,0.7822],[102.8662,0.7914],[102.8496,0.7942],[102.776,0.7886],[102.7516,0.7885],[102.7082,0.7918],[102.6552,0.789],[102.6292,0.7822],[102.6013,0.769],[102.5924,0.7668],[102.5789,0.7661],[102.5564,0.7697],[102.5178,0.7831],[102.5011,0.7905],[102.4802,0.8024],[102.4567,0.813],[102.4372,0.8252],[102.4286,0.8334],[102.4123,0.8549],[102.4079,0.8771],[102.4084,0.8862],[102.4208,0.9052],[102.4326,0.9188],[102.4405,0.9355],[102.452,0.9363],[102.4721,0.9282],[102.4878,0.9309],[102.4992,0.9435],[102.5107,0.9479],[102.5297,0.9619],[102.5376,0.9653],[102.5568,0.9697],[102.5616,0.9726],[102.5694,0.9799],[102.5778,0.9924],[102.5887,1.0011],[102.6085,1.0033],[102.609,1.0001],[102.6138,0.9968],[102.6225,0.9933],[102.6336,0.9915],[102.6354,0.9886],[102.6371,0.9912],[102.6493,0.992],[102.6584,0.9951],[102.6933,1.0106],[102.716,1.0165],[102.7279,1.0215],[102.7377,1.0221],[102.7453,1.0176],[102.747,1.0144],[102.7492,1.008],[102.7471,0.9999],[102.7499,0.9975],[102.754,0.9997],[102.7583,1.0095],[102.7744,1.0055],[102.7813,1.0021],[102.7881,0.9888],[102.797,0.9803],[102.8296,0.9707],[102.8523,0.9615],[102.8671,0.9574],[102.8813,0.9508],[102.9156,0.9229],[102.9265,0.9043],[102.9419,0.8896],[102.9613,0.8769],[102.9952,0.8609],[103.0309,0.8375],[103.0471,0.8243],[103.0493,0.8206],[103.051,0.8074],[103.0551,0.7968],[103.0565,0.7812],[103.0501,0.7549],[103.0494,0.7203]]]}},{"type":"Feature","properties":{"name":"KuantanSingingi","name_en":"KuantanSingingi","admin_level":"5","osm_id":""},"geometry":{"type":"Polygon","coordinates":[[[101.8555,-0.9774],[101.85,-0.9811],[101.8391,-0.9828],[101.8183,-0.9788],[101.815,-0.9757],[101.7987,-0.9684],[101.7927,-0.9713],[101.7837,-0.9695],[101.7736,-0.97],[101.7627,-0.9757],[101.7557,-0.9749],[101.7339,-0.9568],[101.7254,-0.9552],[101.7207,-0.9561],[101.7144,-0.9481],[101.7037,-0.9471],[101.6931,-0.9438],[101.6895,-0.9401],[101.7139,-0.9003],[101.7126,-0.8718],[101.6937,-0.8717],[101.6886,-0.8702],[101.6839,-0.8663],[101.6787,-0.8577],[101.6694,-0.8353],[101.6654,-0.8351],[101.659,-0.8304],[101.6559,-0.8307],[101.6443,-0.8255],[101.6413,-0.8294],[101.6368,-0.83],[101.6362,-0.833],[101.6259,-0.8332],[101.6199,-0.8313],[101.6158,-0.8378],[101.6048,-0.8405],[101.5976,-0.8475],[101.5939,-0.8484],[101.5837,-0.8407],[101.5712,-0.8378],[101.5656,-0.8341],[101.5582,-0.8345],[101.5512,-0.828],[101.5487,-0.8233],[101.537,-0.816],[101.5236,-0.8116],[101.5,-0.8093],[101.495,-0.8055],[101.486,-0.7946],[101.4796,-0.7823],[101.4586,-0.7681],[101.4442,-0.7625],[101.432,-0.7544],[101.4316,-0.7474],[101.4265,-0.7435],[101.4246,-0.7369],[101.4218,-0.7367],[101.4185,-0.7388],[101.414,-0.7369],[101.4131,-0.7269],[101.4107,-0.7229],[101.411,-0.7176],[101.4019,-0.7107],[101.3826,-0.7026],[101.3736,-0.6976],[101.3682,-0.6918],[101.3611,-0.6892],[101.3564,-0.6831],[101.3547,-0.6764],[101.3332,-0.6495],[101.3255,-0.6427],[101.3207,-0.6417],[101.3078,-0.6289],[101.3038,-0.632],[101.2959,-0.6313],[101.2882,-0.6247],[101.281,-0.6219],[101.2657,-0.6231],[101.2529,-0.6269],[101.2496,-0.6255],[101.2415,-0.6153],[101.2391,-0.6076],[101.2228,-0.602],[101.2076,-0.5938],[101.2055,-0.5877],[101.1933,-0.5725],[101.1837,-0.5551],[101.1834,-0.5517],[101.1679,-0.5396],[101.1609,-0.5376],[101.1508,-0.5312],[101.1446,-0.5333],[101.1422,-0.5305],[101.135,-0.5279],[101.1297,-0.5243],[101.1219,-0.5121],[101.1191,-0.5107],[101.1138,-0.5037],[101.1097,-0.5021],[101.1049,-0.5034],[101.0919,-0.5116],[101.0894,-0.5114],[101.081,-0.5055],[101.0713,-0.5031],[101.0727,-0.4987],[101.0687,-0.4984],[101.0668,-0.4953],[101.0667,-0.4829],[101.0621,-0.4805],[101.057,-0.4746],[101.0527,-0.4645],[101.0481,-0.4599],[101.0491,-0.4552],[101.0448,-0.4504],[101.0437,-0.4444],[101.0377,-0.4352],[101.0434,-0.4312],[101.045,-0.4237],[101.0391,-0.418],[101.0301,-0.4023],[101.0258,-0.398],[101.0253,-0.3947],[101.0301,-0.3895],[101.0405,-0.3852],[101.0429,-0.3823],[101.0434,-0.378],[101.0485,-0.3768],[101.0952,-0.382],[101.1146,-0.3892],[101.1189,-0.3865],[101.1252,-0.3638],[101.1257,-0.3556],[101.1405,-0.3394],[101.143,-0.3336],[101.1429,-0.3191],[101.1394,-0.3061],[101.1418,-0.2895],[101.1451,-0.2839],[101.1504,-0.2797],[101.1527,-0.2742],[101.1595,-0.2701],[101.1665,-0.2606],[101.1664,-0.2564],[101.1584,-0.2488],[101.1566,-0.241],[101.158,-0.2362],[101.1614,-0.2313],[101.1705,-0.2375],[101.1769,-0.2341],[101.1775,-0.2307],[101.1742,-0.225],[101.1751,-0.2187],[101.1882,-0.1994],[101.1997,-0.1887],[101.2019,-0.1832],[101.2006,-0.1655],[101.2018,-0.1518],[101.2042,-0.1471],[101.1977,-0.1352],[101.196,-0.1259],[101.1932,-0.1214],[101.1938,-0.1184],[101.2029,-0.1104],[101.2022,-0.1014],[101.2036,-0.098],[101.2103,-0.092],[101.2192,-0.0872],[101.223,-0.0728],[101.2329,-0.061],[101.2389,-0.0597],[101.2427,-0.0463],[101.2509,-0.045],[101.2553,-0.0422],[101.2588,-0.0286],[101.2594,-0.0169],[101.2644,-0.0103],[101.2722,-0.0045],[101.2804,-0.0058],[101.2799,-0.0091],[101.2906,-0.0192],[101.2912,-0.0248],[101.2956,-0.0285],[101.2987,-0.0373],[101.3078,-0.0427],[101.3034,-0.0517],[101.3115,-0.056],[101.3113,-0.065],[101.3136,-0.0672],[101.3141,-0.0757],[101.3204,-0.0921],[101.3391,-0.1079],[101.3463,-0.1074],[101.3486,-0.1094],[101.3593,-0.1341],[101.3648,-0.1394],[101.3682,-0.1488],[101.3724,-0.1476],[101.3723,-0.1395],[101.3769,-0.1291],[101.3842,-0.1269],[101.3908,-0.1279],[101.394,-0.0992],[101.4062,-0.0882],[101.4079,-0.0834],[101.4073,-0.08],[101.4099,-0.0739],[101.4143,-0.0763],[101.4159,-0.0829],[101.4223,-0.0874],[101.424,-0.0924],[101.4512,-0.1273],[101.4602,-0.1259],[101.4672,-0.1294],[101.4701,-0.1289],[101.483,-0.1106],[101.4831,-0.1071],[101.4805,-0.104],[101.4831,-0.1007],[101.4894,-0.1023],[101.5023,-0.1135],[101.5081,-0.1134],[101.5175,-0.118],[101.5288,-0.1184],[101.5318,-0.121],[101.5325,-0.1279],[101.5357,-0.1268],[101.5446,-0.1302],[101.5482,-0.1456],[101.5525,-0.1527],[101.5573,-0.1553],[101.5568,-0.1614],[101.5601,-0.1704],[101.5665,-0.1767],[101.5701,-0.1832],[101.5828,-0.1877],[101.5856,-0.1926],[101.5924,-0.1982],[101.5962,-0.2141],[101.6025,-0.2195],[101.6044,-0.2257],[101.6117,-0.2357],[101.6166,-0.2362],[101.6197,-0.2311],[101.623,-0.2309],[101.6394,-0.2464],[101.6519,-0.2406],[101.6564,-0.2411],[101.6608,-0.2393],[101.664,-0.2422],[101.6651,-0.2527],[101.667,-0.2542],[101.6733,-0.2561],[101.6774,-0.2529],[101.6799,-0.253],[101.6888,-0.2596],[101.7057,-0.2621],[101.7126,-0.2653],[101.7139,-0.2716],[101.7184,-0.2767],[101.7197,-0.2809],[101.7342,-0.2966],[101.7348,-0.3016],[101.733,-0.3108],[101.7368,-0.3114],[101.7382,-0.3094],[101.7434,-0.3095],[101.7547,-0.3123],[101.7537,-0.3191],[101.7575,-0.3238],[101.7599,-0.3314],[101.7461,-0.3444],[101.7481,-0.3477],[101.7477,-0.3521],[101.7651,-0.358],[101.7763,-0.3646],[101.7885,-0.3657],[101.7925,-0.3707],[101.7977,-0.3726],[101.8046,-0.3807],[101.8109,-0.3819],[101.8196,-0.3763],[101.8244,-0.3751],[101.8287,-0.3768],[101.8343,-0.3819],[101.8379,-0.3923],[101.8454,-0.3986],[101.8494,-0.4044],[101.8628,-0.4042],[101.8724,-0.3925],[101.8885,-0.3932],[101.8908,-0.3962],[101.8926,-0.3957],[101.8895,-0.4135],[101.8898,-0.4249],[101.897,-0.4479],[101.9082,-0.468],[101.9114,-0.487],[101.9121,-0.504],[101.9081,-0.5108],[101.9063,-0.5381],[101.8845,-0.5725],[101.8612,-0.5986],[101.8484,-0.6046],[101.8445,-0.6162],[101.8397,-0.6226],[101.8057,-0.6602],[101.8066,-0.6747],[101.8028,-0.6799],[101.7994,-0.6913],[101.7996,-0.6971],[101.793,-0.7086],[101.7921,-0.7226],[101.7954,-0.7342],[101.7884,-0.7405],[101.787,-0.7541],[101.7891,-0.7571],[101.7852,-0.7801],[101.7768,-0.7959],[101.7777,-0.7989],[101.7821,-0.8005],[101.7854,-0.8127],[101.7842,-0.8233],[101.7785,-0.8336],[101.7816,-0.8377],[101.7827,-0.8425],[101.7883,-0.8442],[101.7963,-0.8502],[101.7985,-0.8576],[101.8055,-0.8567],[101.8125,-0.8592],[101.817,-0.8618],[101.8266,-0.8747],[101.8397,-0.8802],[101.8478,-0.9],[101.8438,-0.9116],[101.8472,-0.915],[101.8503,-0.9219],[101.853,-0.9224],[101.8578,-0.9145],[101.8648,-0.9123],[101.8681,-0.9095],[101.8781,-0.9109],[101.8816,-0.9095],[101.896,-0.8911],[101.9081,-0.8879],[101.9147,-0.8831],[101.9168,-0.8846],[101.9186,-0.8932],[101.9233,-0.8974],[101.9279,-0.9052],[101.9127,-0.9223],[101.9152,-0.9343],[101.9121,-0.9386],[101.9104,-0.9387],[101.9093,-0.9467],[101.9072,-0.9506],[101.9012,-0.951],[101.8978,-0.953],[101.8917,-0.9608],[101.8838,-0.9645],[101.8723,-0.9667],[101.8592,-0.9654],[101.855,-0.9698],[101.8555,-0.9774]]]}},{"type":"Feature","properties":{"name":"Pekanbaru","name_en":"Pekanbaru","admin_level":"5","osm_id":""},"geometry":{"type":"Polygon","coordinates":[[[101.4309,0.426],[101.4323,0.4211],[101.4037,0.4323],[101.398,0.4328],[101.3918,0.4364],[101.3907,0.4332],[101.389,0.4328],[101.3812,0.4344],[101.3705,0.434],[101.3701,0.4354],[101.3629,0.432],[101.3572,0.4714],[101.3539,0.4732],[101.3502,0.4796],[101.3497,0.4906],[101.3508,0.4947],[101.3561,0.5006],[101.3585,0.5016],[101.3594,0.4976],[101.363,0.4989],[101.3629,0.5361],[101.3653,0.5368],[101.3678,0.5422],[101.371,0.5444],[101.3707,0.5473],[101.373,0.5492],[101.3748,0.5542],[101.3723,0.5566],[101.3726,0.5638],[101.3683,0.5655],[101.3689,0.5594],[101.3646,0.5633],[101.3611,0.5638],[101.3588,0.5693],[101.3559,0.5696],[101.3558,0.5665],[101.3541,0.5665],[101.3494,0.5706],[101.3489,0.5734],[101.3451,0.5741],[101.3423,0.5794],[101.3373,0.5817],[101.339,0.5839],[101.3413,0.5837],[101.3401,0.5861],[101.335,0.5869],[101.3287,0.5907],[101.3307,0.5958],[101.3261,0.5986],[101.3321,0.6007],[101.3312,0.605],[101.3279,0.606],[101.3335,0.6133],[101.3467,0.6208],[101.3586,0.633],[101.3753,0.6448],[101.3774,0.6488],[101.3769,0.6535],[101.3815,0.6582],[101.3804,0.6617],[101.3782,0.6626],[101.3776,0.6704],[101.3822,0.6812],[101.3863,0.6865],[101.3973,0.6924],[101.4015,0.6891],[101.4072,0.6883],[101.4113,0.6835],[101.415,0.6828],[101.4178,0.6849],[101.4264,0.6747],[101.4407,0.666],[101.4571,0.6618],[101.4845,0.6597],[101.4843,0.6549],[101.4891,0.6513],[101.492,0.6544],[101.4961,0.6559],[101.4982,0.6595],[101.5188,0.657],[101.5403,0.658],[101.5443,0.6504],[101.5459,0.6422],[101.5498,0.6384],[101.5528,0.6371],[101.5584,0.6376],[101.5638,0.6409],[101.5666,0.641],[101.5714,0.6387],[101.5742,0.6329],[101.5713,0.6248],[101.5737,0.6206],[101.5782,0.6147],[101.5881,0.6098],[101.5915,0.6065],[101.5881,0.5968],[101.5844,0.5953],[101.5785,0.5971],[101.5844,0.585],[101.586,0.5776],[101.5852,0.5747],[101.5799,0.571],[101.582,0.5587],[101.5758,0.5507],[101.5776,0.5434],[101.5808,0.5419],[101.5877,0.5429],[101.5928,0.5325],[101.5889,0.5279],[101.5881,0.5167],[101.582,0.5068],[101.5824,0.5016],[101.5799,0.4967],[101.5839,0.4891],[101.5886,0.4741],[101.5857,0.4718],[101.5722,0.4723],[101.5691,0.4687],[101.5739,0.4547],[101.5711,0.4534],[101.5668,0.4474],[101.5701,0.4404],[101.57,0.4364],[101.5671,0.434],[101.5666,0.4308],[101.5681,0.4292],[101.5671,0.4252],[101.557,0.4268],[101.5543,0.4315],[101.5517,0.4327],[101.529,0.434],[101.5275,0.4379],[101.5249,0.4361],[101.5159,0.441],[101.5159,0.4426],[101.5102,0.4428],[101.5054,0.4461],[101.4959,0.4463],[101.4856,0.4529],[101.477,0.456],[101.471,0.4472],[101.4634,0.4417],[101.4632,0.4401],[101.4561,0.4408],[101.4536,0.4427],[101.4506,0.4345],[101.4473,0.4321],[101.4487,0.4305],[101.4469,0.4227],[101.4453,0.4215],[101.4488,0.4195],[101.4474,0.417],[101.4396,0.4199],[101.4368,0.4225],[101.4375,0.4239],[101.4311,0.4277],[101.4309,0.426]]]}},{"type":"Feature","properties":{"name":"Pelalawan","name_en":"Pelalawan","admin_level":"5","osm_id":""},"geometry":{"type":"Polygon","coordinates":[[[102.1724,-0.2516],[102.1692,-0.2591],[102.1652,-0.2636],[102.1584,-0.2672],[102.1455,-0.2701],[102.1259,-0.2697],[102.102,-0.2731],[102.0654,-0.298],[102.0422,-0.3173],[102.0316,-0.3298],[102.0188,-0.3501],[101.9696,-0.4003],[101.9608,-0.4065],[101.9536,-0.4078],[101.9467,-0.4068],[101.9272,-0.4001],[101.9069,-0.3995],[101.8912,-0.3963],[101.8885,-0.3932],[101.878,-0.3919],[101.8716,-0.3929],[101.8628,-0.4042],[101.8494,-0.4044],[101.8454,-0.3986],[101.8379,-0.3923],[101.8343,-0.3819],[101.8287,-0.3768],[101.8244,-0.3751],[101.8196,-0.3763],[101.8109,-0.3819],[101.8046,-0.3807],[101.7977,-0.3726],[101.7925,-0.3707],[101.7885,-0.3657],[101.7763,-0.3646],[101.7651,-0.358],[101.7477,-0.3521],[101.7481,-0.3477],[101.7461,-0.3444],[101.7599,-0.3314],[101.7575,-0.3238],[101.7537,-0.3191],[101.7547,-0.3123],[101.7434,-0.3095],[101.7382,-0.3094],[101.7368,-0.3114],[101.733,-0.3108],[101.7348,-0.3016],[101.7342,-0.2966],[101.7197,-0.2809],[101.7184,-0.2767],[101.7139,-0.2716],[101.7126,-0.2653],[101.7057,-0.2621],[101.6888,-0.2596],[101.6799,-0.253],[101.6774,-0.2529],[101.6733,-0.2561],[101.667,-0.2542],[101.6651,-0.2527],[101.664,-0.2422],[101.6608,-0.2393],[101.6564,-0.2411],[101.6519,-0.2406],[101.6394,-0.2464],[101.623,-0.2309],[101.6197,-0.2311],[101.6166,-0.2362],[101.6117,-0.2357],[101.6044,-0.2257],[101.6025,-0.2195],[101.5962,-0.2141],[101.5924,-0.1982],[101.5856,-0.1926],[101.5828,-0.1877],[101.5701,-0.1832],[101.5665,-0.1767],[101.5621,-0.1733],[101.5574,-0.1639],[101.5573,-0.1553],[101.5525,-0.1527],[101.5482,-0.1456],[101.5446,-0.1302],[101.5357,-0.1268],[101.5325,-0.1279],[101.5304,-0.1193],[101.5228,-0.1172],[101.5181,-0.0677],[101.5143,-0.0466],[101.5147,-0.0376],[101.5291,-0.0041],[101.5319,0.0231],[101.534,0.0296],[101.5396,0.0364],[101.5497,0.0417],[101.5563,0.0438],[101.5618,0.0421],[101.5624,0.046],[101.5686,0.0519],[101.5717,0.0644],[101.5759,0.0918],[101.5709,0.1044],[101.5724,0.1229],[101.5789,0.1445],[101.5801,0.1615],[101.5904,0.1848],[101.5921,0.1938],[101.5871,0.2047],[101.5864,0.2022],[101.5807,0.2013],[101.5741,0.2054],[101.5707,0.213],[101.5652,0.2184],[101.5654,0.2252],[101.5743,0.2539],[101.5805,0.268],[101.6817,0.2708],[101.6827,0.2759],[101.6796,0.2948],[101.6591,0.3187],[101.6588,0.3218],[101.672,0.3431],[101.6815,0.3735],[101.6874,0.3831],[101.6773,0.3863],[101.6673,0.3839],[101.6389,0.3941],[101.6142,0.3946],[101.5906,0.4236],[101.5725,0.4572],[101.5691,0.4687],[101.5722,0.4723],[101.5857,0.4718],[101.5886,0.4741],[101.5839,0.4891],[101.5799,0.4967],[101.5824,0.5016],[101.582,0.5068],[101.5881,0.5167],[101.5889,0.5279],[101.5906,0.5298],[101.5954,0.5294],[101.6107,0.5366],[101.6118,0.5393],[101.6247,0.542],[101.6418,0.5432],[101.6591,0.5407],[101.6646,0.5374],[101.6654,0.501],[101.6765,0.4557],[101.6716,0.4465],[101.6706,0.4315],[101.6717,0.4078],[101.6922,0.4194],[101.6968,0.435],[101.6975,0.4458],[101.7179,0.4499],[101.7258,0.4485],[101.7333,0.4451],[101.7505,0.4295],[101.7941,0.4076],[101.7985,0.4177],[101.8128,0.4245],[101.815,0.4301],[101.8194,0.4327],[101.8366,0.4363],[101.8443,0.4496],[101.8499,0.4752],[101.8433,0.4828],[101.8417,0.4951],[101.8343,0.4981],[101.8312,0.5071],[101.8498,0.5104],[101.8855,0.5105],[101.8864,0.4575],[101.8781,0.4573],[101.8781,0.4493],[101.8948,0.4494],[101.8947,0.4542],[101.9084,0.4543],[101.9085,0.4599],[101.9147,0.4599],[101.9148,0.4659],[101.9136,0.4652],[101.913,0.4678],[101.9115,0.468],[101.9115,0.4772],[101.9205,0.4774],[101.9215,0.4985],[101.9171,0.4985],[101.917,0.4954],[101.9158,0.4953],[101.9158,0.4988],[101.9144,0.4988],[101.9128,0.5025],[101.9128,0.5046],[101.9202,0.5046],[101.9202,0.5061],[101.916,0.5071],[101.9198,0.5209],[101.9734,0.5502],[101.9775,0.5719],[102.062,0.5879],[102.1186,0.5968],[102.3402,0.6114],[102.8482,0.6667],[102.8562,0.6692],[102.8601,0.6728],[102.8684,0.6861],[102.8721,0.7018],[102.8798,0.7112],[102.8933,0.7194],[102.9043,0.7222],[102.9109,0.7166],[102.9618,0.6561],[102.9895,0.6348],[103.0276,0.6008],[103.0376,0.5876],[103.0447,0.569],[103.0618,0.5449],[103.0732,0.5341],[103.0777,0.5366],[103.0859,0.5303],[103.0967,0.5163],[103.1056,0.5087],[103.1126,0.4973],[103.1208,0.477],[103.1214,0.463],[103.1119,0.4573],[103.0764,0.4446],[103.0669,0.4383],[103.0548,0.4345],[103.0337,0.4218],[103.0068,0.4019],[102.9548,0.3807],[102.9392,0.3694],[102.9132,0.343],[102.9,0.336],[102.8607,0.318],[102.8421,0.3152],[102.8208,0.3038],[102.8088,0.3004],[102.7942,0.2935],[102.8072,0.2616],[102.8238,0.2553],[102.834,0.2477],[102.8424,0.2443],[102.8505,0.2452],[102.8611,0.2507],[102.8789,0.2621],[102.8967,0.2702],[102.9064,0.2782],[102.9233,0.2879],[102.9339,0.293],[102.9471,0.2968],[102.986,0.3151],[103.0049,0.3275],[103.0138,0.3394],[103.057,0.3699],[103.087,0.383],[103.0968,0.3843],[103.1222,0.3915],[103.1438,0.3928],[103.1675,0.4072],[103.1922,0.4374],[103.1992,0.4522],[103.2034,0.4719],[103.2119,0.4835],[103.2337,0.4914],[103.2647,0.5092],[103.2901,0.5078],[103.3028,0.5118],[103.3091,0.5154],[103.3195,0.5251],[103.3315,0.5473],[103.3392,0.5427],[103.3573,0.5374],[103.356,0.531],[103.3369,0.4853],[103.2955,0.4686],[103.2636,0.4522],[103.256,0.4464],[103.2081,0.4084],[103.145,0.3405],[103.116,0.3251],[103.0715,0.3139],[103.0441,0.3044],[103.0276,0.3013],[103.0153,0.2971],[103.0039,0.2909],[102.96,0.2569],[102.9175,0.2186],[102.9029,0.2021],[102.8841,0.1767],[102.8704,0.1621],[102.859,0.1531],[102.844,0.1454],[102.8351,0.1379],[102.8141,0.1264],[102.795,0.1198],[102.7819,0.1171],[102.7449,0.1137],[102.7307,0.1083],[102.7174,0.1054],[102.6024,0.1026],[102.5807,0.0983],[102.5656,0.0932],[102.5511,0.0847],[102.5381,0.0749],[102.5201,0.0555],[102.5001,0.0233],[102.4963,0.0122],[102.4854,-0.0692],[102.4797,-0.0889],[102.4704,-0.1051],[102.4329,-0.1474],[102.4072,-0.1664],[102.3837,-0.1766],[102.3681,-0.1788],[102.3006,-0.1741],[102.2526,-0.1658],[102.2251,-0.1665],[102.2137,-0.1692],[102.1994,-0.1761],[102.1948,-0.1796],[102.1906,-0.1863],[102.1793,-0.2124],[102.1759,-0.2401],[102.1724,-0.2516]]]}},{"type":"Feature","properties":{"name":"RokanHilir","name_en":"RokanHilir","admin_level":"5","osm_id":""},"geometry":{"type":"Polygon","coordinates":[[[101.0219,1.3561],[101.0114,1.3507],[100.9951,1.3515],[100.9748,1.3499],[100.9713,1.3484],[100.9542,1.349],[100.9475,1.3512],[100.9562,1.3848],[100.9516,1.3872],[100.9496,1.3909],[100.9543,1.3974],[100.9529,1.4005],[100.9534,1.4045],[100.952,1.4013],[100.9464,1.398],[100.9374,1.3959],[100.9319,1.3979],[100.902,1.3816],[100.8655,1.3563],[100.8565,1.3454],[100.8296,1.3236],[100.816,1.3077],[100.8064,1.2888],[100.8033,1.2757],[100.8035,1.2684],[100.7968,1.2621],[100.7939,1.2477],[100.786,1.2433],[100.7677,1.242],[100.756,1.2426],[100.7454,1.2453],[100.728,1.244],[100.7059,1.2445],[100.7,1.2462],[100.6936,1.252],[100.6713,1.2833],[100.6643,1.2906],[100.6576,1.2879],[100.654,1.2819],[100.6536,1.271],[100.6476,1.255],[100.6408,1.2502],[100.6282,1.2313],[100.6209,1.224],[100.6167,1.2226],[100.6121,1.2233],[100.6026,1.2269],[100.5894,1.2402],[100.5566,1.2613],[100.546,1.2717],[100.5293,1.2804],[100.4937,1.3056],[100.4822,1.3166],[100.4787,1.3226],[100.468,1.3231],[100.459,1.327],[100.4493,1.3364],[100.4581,1.3406],[100.4584,1.3432],[100.4528,1.3459],[100.4177,1.3759],[100.4119,1.3827],[100.3812,1.3918],[100.3552,1.4176],[100.3336,1.4334],[100.3427,1.436],[100.3396,1.4387],[100.3321,1.4398],[100.3275,1.4432],[100.3227,1.4429],[100.3194,1.4468],[100.3002,1.4527],[100.2852,1.4608],[100.2846,1.4627],[100.2794,1.4662],[100.2813,1.4751],[100.2853,1.4786],[100.2944,1.4736],[100.3035,1.4717],[100.309,1.4717],[100.3218,1.4775],[100.3237,1.4741],[100.3235,1.4704],[100.3227,1.4638],[100.3198,1.4592],[100.3327,1.4601],[100.3768,1.4553],[100.3828,1.4576],[100.3891,1.4636],[100.4014,1.4677],[100.4102,1.4769],[100.4133,1.4857],[100.4108,1.4921],[100.4162,1.5022],[100.4225,1.5257],[100.4175,1.5365],[100.4125,1.5412],[100.4167,1.5523],[100.4128,1.5577],[100.4109,1.5663],[100.4115,1.572],[100.408,1.5755],[100.404,1.5859],[100.4103,1.5919],[100.414,1.6001],[100.4148,1.6095],[100.4112,1.6194],[100.4034,1.624],[100.4064,1.6396],[100.4126,1.6461],[100.412,1.6612],[100.407,1.6728],[100.4007,1.6656],[100.3899,1.6692],[100.4158,1.6899],[100.4228,1.7002],[100.4199,1.7016],[100.3797,1.6968],[100.3397,1.7125],[100.3461,1.7231],[100.3523,1.7378],[100.3538,1.7822],[100.3306,1.7846],[100.2962,1.7912],[100.2843,1.8007],[100.2777,1.8135],[100.2813,1.834],[100.28,1.8423],[100.2815,1.8651],[100.2885,1.8734],[100.2893,1.8768],[100.2922,1.8789],[100.3051,1.8823],[100.3112,1.8928],[100.3108,1.8997],[100.3144,1.9096],[100.3133,1.944],[100.3165,1.9981],[100.3155,2.0524],[100.3406,2.1277],[100.3636,2.1683],[100.3651,2.2108],[100.3594,2.2117],[100.3499,2.2306],[100.3354,2.2534],[100.3336,2.2639],[100.3278,2.2759],[100.3174,2.2897],[100.3131,2.31],[100.3008,2.3401],[100.3019,2.3499],[100.2994,2.3565],[100.2955,2.4282],[100.2996,2.4462],[100.3001,2.4608],[100.3072,2.48],[100.3071,2.4913],[100.3196,2.5289],[100.3235,2.5475],[100.3272,2.5425],[100.33,2.5298],[100.3315,2.5136],[100.3311,2.5058],[100.3286,2.502],[100.3295,2.4972],[100.3413,2.474],[100.3407,2.4598],[100.3466,2.4433],[100.3484,2.4257],[100.3541,2.4147],[100.3584,2.4111],[100.3612,2.3858],[100.3766,2.3716],[100.3751,2.3564],[100.3798,2.3546],[100.378,2.3462],[100.3924,2.3187],[100.3927,2.3139],[100.387,2.3089],[100.3956,2.3092],[100.4064,2.3001],[100.4154,2.2885],[100.4158,2.2849],[100.4187,2.2827],[100.4198,2.2795],[100.4273,2.2762],[100.427,2.2718],[100.4351,2.2567],[100.4431,2.2512],[100.4489,2.2439],[100.4638,2.2311],[100.4665,2.2223],[100.4715,2.2219],[100.4819,2.2134],[100.4815,2.2072],[100.4761,2.2103],[100.4742,2.2087],[100.4719,2.2049],[100.4734,2.2018],[100.4761,2.201],[100.4861,2.2045],[100.4857,2.2076],[100.4872,2.2079],[100.4907,2.2056],[100.4907,2.2021],[100.4926,2.2006],[100.5068,2.199],[100.5206,2.1901],[100.5241,2.1863],[100.5222,2.1809],[100.5238,2.1805],[100.5252,2.1832],[100.5282,2.1837],[100.5348,2.1801],[100.5353,2.1759],[100.5466,2.1671],[100.5469,2.1602],[100.5425,2.156],[100.5427,2.1503],[100.5493,2.1548],[100.5523,2.1599],[100.5579,2.1599],[100.5582,2.1569],[100.5668,2.1482],[100.5674,2.1449],[100.5757,2.1446],[100.5814,2.1401],[100.5852,2.1344],[100.5971,2.1377],[100.605,2.1342],[100.6261,2.13],[100.6722,2.1244],[100.6864,2.1202],[100.6904,2.1164],[100.7177,2.0999],[100.7582,2.0912],[100.7717,2.0864],[100.7843,2.0777],[100.8345,2.0221],[100.8443,2.0125],[100.8511,2.0082],[100.8687,1.9895],[100.8744,1.9826],[100.8831,1.9611],[100.8929,1.9636],[100.8892,1.9874],[100.8892,2.0202],[100.8849,2.035],[100.8796,2.044],[100.8482,2.077],[100.8296,2.0916],[100.7934,2.1158],[100.779,2.1567],[100.7785,2.1635],[100.781,2.1817],[100.7801,2.1859],[100.7716,2.2001],[100.7678,2.2123],[100.7679,2.2241],[100.7861,2.2444],[100.7905,2.2467],[100.792,2.2512],[100.7966,2.2541],[100.8084,2.2768],[100.819,2.2909],[100.8267,2.2958],[100.8352,2.2987],[100.8709,2.3012],[100.8967,2.3054],[100.9458,2.3045],[100.9877,2.2932],[101.0275,2.2908],[101.0373,2.2932],[101.0466,2.2929],[101.0522,2.2912],[101.0564,2.2842],[101.0602,2.2812],[101.0618,2.2753],[101.0545,2.2674],[101.0501,2.2433],[101.0364,2.2158],[101.0182,2.1637],[101.0128,2.1448],[101.0093,2.1236],[101.0128,2.0982],[101.0186,2.0906],[101.0187,2.0755],[101.0259,2.065],[101.0326,2.0446],[101.054,1.9939],[101.0602,1.9551],[101.079,1.9193],[101.0845,1.9158],[101.088,1.9105],[101.0881,1.9075],[101.0985,1.892],[101.1083,1.8818],[101.1129,1.8723],[101.1171,1.8697],[101.1211,1.8576],[101.1261,1.8516],[101.13,1.8408],[101.2029,1.7528],[101.242,1.6943],[101.2529,1.6815],[101.2637,1.6614],[101.2696,1.6549],[101.2715,1.647],[101.2818,1.6316],[101.2814,1.6262],[101.2838,1.6175],[101.293,1.5981],[101.3,1.5886],[101.3079,1.5471],[101.3111,1.5418],[101.3139,1.5268],[101.333,1.4963],[101.3174,1.4747],[101.2956,1.4735],[101.2706,1.4684],[101.241,1.4656],[101.1685,1.4416],[101.1512,1.4321],[101.1369,1.4192],[101.1237,1.4171],[101.1205,1.4135],[101.1136,1.4139],[101.1023,1.4039],[101.0792,1.3905],[101.0748,1.3843],[101.0569,1.3736],[101.028,1.3606],[101.0219,1.3561]]]}},{"type":"Feature","properties":{"name":"RokanHulu","name_en":"RokanHulu","admin_level":"5","osm_id":""},"geometry":{"type":"Polygon","coordinates":[[[100.3401,0.3889],[100.3196,0.403],[100.3134,0.3982],[100.2991,0.3974],[100.2931,0.3925],[100.2882,0.4002],[100.2808,0.4023],[100.2737,0.4076],[100.2646,0.4197],[100.2606,0.4306],[100.2567,0.4358],[100.255,0.442],[100.2562,0.445],[100.2604,0.4457],[100.25,0.4559],[100.2462,0.4642],[100.238,0.4742],[100.2373,0.4788],[100.2398,0.4801],[100.2424,0.4858],[100.242,0.4908],[100.2377,0.4947],[100.2216,0.5029],[100.2158,0.5143],[100.2161,0.5207],[100.2294,0.5277],[100.2315,0.5313],[100.2376,0.5353],[100.235,0.5361],[100.2354,0.539],[100.233,0.5432],[100.2381,0.5394],[100.2372,0.5426],[100.232,0.5485],[100.2211,0.5563],[100.2115,0.5591],[100.2056,0.5582],[100.2001,0.5599],[100.1948,0.5578],[100.1917,0.56],[100.1841,0.561],[100.1798,0.5659],[100.1768,0.5727],[100.1783,0.5895],[100.1868,0.6266],[100.2013,0.6409],[100.2015,0.6432],[100.2158,0.6631],[100.2378,0.6733],[100.2408,0.6793],[100.2427,0.6943],[100.2399,0.7332],[100.2321,0.737],[100.2238,0.7388],[100.2205,0.7418],[100.2158,0.7398],[100.2132,0.7356],[100.2072,0.7378],[100.2005,0.7447],[100.1933,0.7638],[100.1837,0.7642],[100.1741,0.7719],[100.1645,0.783],[100.145,0.7937],[100.1243,0.8165],[100.1193,0.83],[100.1214,0.837],[100.129,0.8436],[100.1379,0.8441],[100.1341,0.8662],[100.1372,0.8813],[100.1426,0.8829],[100.1399,0.8922],[100.1414,0.8998],[100.135,0.9058],[100.1336,0.9003],[100.1155,0.8991],[100.1069,0.9079],[100.1078,0.9141],[100.1188,0.939],[100.1212,0.9356],[100.126,0.9339],[100.127,0.9297],[100.133,0.9255],[100.1353,0.9209],[100.1353,0.926],[100.1288,0.9308],[100.1299,0.9439],[100.1332,0.9497],[100.1439,0.9544],[100.1446,0.9616],[100.1479,0.9658],[100.1465,0.9722],[100.1475,0.9755],[100.1424,0.9777],[100.1394,0.9815],[100.1408,0.9844],[100.1435,0.986],[100.1458,0.9852],[100.1476,0.988],[100.1557,0.992],[100.1594,0.9957],[100.1625,1.0022],[100.1474,1.0118],[100.1374,1.0145],[100.1323,1.0203],[100.1389,1.0369],[100.1413,1.0581],[100.1402,1.0608],[100.1382,1.0613],[100.1298,1.0549],[100.1235,1.063],[100.1212,1.068],[100.1209,1.0737],[100.1226,1.0774],[100.1215,1.082],[100.1232,1.0941],[100.1285,1.1043],[100.1347,1.1121],[100.1418,1.1172],[100.1479,1.1191],[100.1482,1.1218],[100.1601,1.1203],[100.1704,1.1227],[100.1791,1.1175],[100.1803,1.12],[100.1829,1.1207],[100.184,1.1243],[100.1776,1.1267],[100.1727,1.1335],[100.1661,1.1342],[100.1617,1.1494],[100.1582,1.1536],[100.1499,1.1582],[100.1434,1.1593],[100.1367,1.1664],[100.1322,1.1798],[100.1292,1.1783],[100.1302,1.1827],[100.129,1.1874],[100.1215,1.1969],[100.1164,1.1999],[100.1207,1.2134],[100.1185,1.2177],[100.1162,1.219],[100.1175,1.2285],[100.1162,1.2393],[100.1171,1.2442],[100.1219,1.2519],[100.12,1.2551],[100.1078,1.2678],[100.0744,1.2761],[100.0586,1.2984],[100.0503,1.3131],[100.0362,1.3191],[100.0294,1.3261],[100.0255,1.3357],[100.0248,1.3527],[100.0304,1.3796],[100.0419,1.3922],[100.0691,1.3987],[100.0953,1.4004],[100.1005,1.3975],[100.1145,1.3951],[100.1255,1.3982],[100.1365,1.4039],[100.1688,1.4027],[100.2008,1.3988],[100.2119,1.406],[100.2221,1.4098],[100.2372,1.4125],[100.2517,1.4128],[100.2657,1.423],[100.2834,1.4247],[100.2887,1.4231],[100.2964,1.4182],[100.3075,1.417],[100.3153,1.4254],[100.3247,1.4278],[100.3285,1.4308],[100.3312,1.4306],[100.3336,1.4334],[100.3552,1.4176],[100.3812,1.3918],[100.4119,1.3827],[100.4177,1.3759],[100.4528,1.3459],[100.4584,1.3432],[100.4581,1.3406],[100.4493,1.3364],[100.459,1.327],[100.468,1.3231],[100.4787,1.3226],[100.4822,1.3166],[100.4937,1.3056],[100.5293,1.2804],[100.546,1.2717],[100.5566,1.2613],[100.5894,1.2402],[100.6026,1.2269],[100.6072,1.2242],[100.6167,1.2226],[100.6209,1.224],[100.6282,1.2313],[100.6408,1.2502],[100.6476,1.255],[100.6536,1.271],[100.654,1.2819],[100.6576,1.2879],[100.6643,1.2906],[100.6713,1.2833],[100.6936,1.252],[100.7,1.2462],[100.7059,1.2445],[100.728,1.244],[100.7454,1.2453],[100.756,1.2426],[100.7677,1.242],[100.786,1.2433],[100.7939,1.2477],[100.7968,1.2621],[100.8035,1.2684],[100.8033,1.2757],[100.8064,1.2888],[100.816,1.3077],[100.8296,1.3236],[100.8565,1.3454],[100.8655,1.3563],[100.902,1.3816],[100.9319,1.3979],[100.9374,1.3959],[100.9464,1.398],[100.952,1.4013],[100.9534,1.4045],[100.9529,1.4005],[100.9543,1.3974],[100.9496,1.3909],[100.9516,1.3872],[100.9562,1.3848],[100.9553,1.3774],[100.9475,1.3512],[100.9352,1.2802],[100.9076,1.0308],[100.7715,0.8653],[100.7638,0.8582],[100.7595,0.8562],[100.7554,0.8497],[100.7445,0.8484],[100.7283,0.8332],[100.7243,0.8414],[100.7033,0.8321],[100.6914,0.8216],[100.7004,0.8108],[100.6917,0.8039],[100.693,0.8026],[100.6831,0.7862],[100.6566,0.7459],[100.6114,0.7162],[100.5954,0.7041],[100.594,0.7001],[100.5972,0.6989],[100.6044,0.6908],[100.61,0.671],[100.6157,0.6586],[100.6243,0.6471],[100.6261,0.6446],[100.6413,0.6377],[100.6445,0.6349],[100.6505,0.6259],[100.6523,0.6184],[100.6622,0.6075],[100.6739,0.5983],[100.6742,0.5939],[100.6768,0.5895],[100.68,0.5876],[100.6897,0.587],[100.7095,0.5698],[100.7148,0.567],[100.7226,0.5578],[100.7337,0.5544],[100.7458,0.5446],[100.7716,0.5282],[100.777,0.5284],[100.7855,0.5409],[100.7896,0.5447],[100.7932,0.5449],[100.8086,0.5294],[100.8195,0.511],[100.8251,0.4928],[100.8387,0.476],[100.8408,0.4666],[100.8423,0.425],[100.8413,0.3923],[100.8394,0.3867],[100.8389,0.3754],[100.8348,0.3704],[100.8152,0.3549],[100.8105,0.3532],[100.8028,0.3549],[100.7751,0.376],[100.7775,0.377],[100.7701,0.382],[100.7727,0.3898],[100.7605,0.3857],[100.7545,0.3811],[100.7499,0.3796],[100.7425,0.3778],[100.7351,0.3808],[100.728,0.3859],[100.7267,0.3885],[100.7205,0.3905],[100.7165,0.3977],[100.7068,0.4035],[100.6944,0.418],[100.6904,0.4207],[100.6825,0.4319],[100.6626,0.4473],[100.6508,0.4597],[100.6408,0.4672],[100.6089,0.5063],[100.6036,0.5108],[100.5856,0.5185],[100.5781,0.5249],[100.5769,0.5285],[100.5717,0.5322],[100.5623,0.5249],[100.5546,0.5148],[100.5474,0.5114],[100.5412,0.5032],[100.5303,0.4781],[100.5198,0.4702],[100.5142,0.4631],[100.5121,0.4578],[100.4976,0.459],[100.4914,0.458],[100.4882,0.4541],[100.4773,0.4511],[100.4745,0.4494],[100.4723,0.4452],[100.4653,0.443],[100.4619,0.434],[100.4527,0.4246],[100.4478,0.422],[100.4502,0.4074],[100.4382,0.4131],[100.431,0.4218],[100.4221,0.4244],[100.4198,0.4239],[100.4165,0.4178],[100.4099,0.4147],[100.4025,0.4059],[100.3892,0.399],[100.3758,0.3893],[100.3661,0.3948],[100.3641,0.3903],[100.3472,0.3843],[100.3442,0.3845],[100.3401,0.3889]]]}},{"type":"Feature","properties":{"name":"Siak","name_en":"Siak","admin_level":"5","osm_id":""},"geometry":{"type":"Polygon","coordinates":[[[101.9198,0.5209],[101.916,0.5071],[101.9202,0.5061],[101.9202,0.5046],[101.9128,0.5046],[101.9128,0.5025],[101.9144,0.4988],[101.9158,0.4988],[101.9158,0.4953],[101.917,0.4954],[101.9171,0.4985],[101.9215,0.4985],[101.9205,0.4774],[101.9115,0.4772],[101.9115,0.468],[101.913,0.4678],[101.9136,0.4652],[101.9148,0.4659],[101.9147,0.4599],[101.9085,0.4599],[101.9084,0.4543],[101.8947,0.4542],[101.8948,0.4494],[101.8781,0.4493],[101.8781,0.4573],[101.8864,0.4575],[101.8855,0.5105],[101.8498,0.5104],[101.8312,0.5071],[101.8343,0.4981],[101.8417,0.4951],[101.8433,0.4828],[101.8499,0.4752],[101.8443,0.4496],[101.8366,0.4363],[101.8194,0.4327],[101.815,0.4301],[101.8128,0.4245],[101.7985,0.4177],[101.7942,0.4077],[101.7505,0.4295],[101.7333,0.4451],[101.7258,0.4485],[101.7179,0.4499],[101.6975,0.4458],[101.6968,0.435],[101.6922,0.4194],[101.6717,0.4078],[101.6706,0.4315],[101.6716,0.4465],[101.6765,0.4557],[101.6654,0.501],[101.6646,0.5374],[101.6591,0.5407],[101.6418,0.5432],[101.6206,0.5415],[101.6118,0.5393],[101.6107,0.5366],[101.6033,0.5326],[101.593,0.5293],[101.5926,0.5337],[101.5884,0.5393],[101.5883,0.5423],[101.5808,0.5419],[101.5776,0.5434],[101.5758,0.5507],[101.582,0.5587],[101.5799,0.571],[101.5852,0.5747],[101.586,0.5776],[101.5844,0.585],[101.5785,0.5971],[101.5844,0.5953],[101.5881,0.5968],[101.5915,0.6065],[101.5881,0.6098],[101.5782,0.6147],[101.5737,0.6206],[101.5713,0.6248],[101.5742,0.6329],[101.571,0.639],[101.5666,0.641],[101.5638,0.6409],[101.5584,0.6376],[101.5528,0.6371],[101.5498,0.6384],[101.5459,0.6422],[101.5443,0.6504],[101.5403,0.658],[101.5188,0.657],[101.4982,0.6595],[101.4961,0.6559],[101.492,0.6544],[101.4891,0.6513],[101.4843,0.6549],[101.4845,0.6597],[101.4571,0.6618],[101.4407,0.666],[101.4264,0.6747],[101.4178,0.6849],[101.415,0.6828],[101.4113,0.6835],[101.4072,0.6883],[101.4015,0.6891],[101.3973,0.6924],[101.3863,0.6865],[101.3822,0.6812],[101.3776,0.6704],[101.3782,0.6626],[101.3226,0.696],[101.3176,0.6947],[101.3143,0.6972],[101.3177,0.7024],[101.3112,0.7086],[101.3155,0.7118],[101.3235,0.7225],[101.3348,0.7974],[101.3226,0.8032],[101.3205,0.8024],[101.3201,0.8003],[101.3181,0.8003],[101.3148,0.8065],[101.3111,0.8058],[101.3096,0.8027],[101.3057,0.8008],[101.3003,0.8046],[101.3009,0.8081],[101.2987,0.8105],[101.2734,0.8283],[100.9069,1.0299],[100.9326,1.2485],[101.2305,1.0069],[101.2367,1.0136],[101.2509,1.0213],[101.2608,1.0342],[101.2665,1.0368],[101.2745,1.0442],[101.278,1.0539],[101.2824,1.0604],[101.2883,1.057],[101.2884,1.0529],[101.2909,1.0499],[101.2962,1.0511],[101.2978,1.0475],[101.3054,1.045],[101.3101,1.0466],[101.3163,1.042],[101.3216,1.0416],[101.3265,1.0356],[101.3319,1.035],[101.3398,1.0282],[101.3512,1.0328],[101.3536,1.0327],[101.3588,1.029],[101.3655,1.0322],[101.3683,1.027],[101.3722,1.0267],[101.3764,1.0238],[101.3943,1.0205],[101.4012,1.0234],[101.4088,1.0219],[101.4164,1.0228],[101.4225,1.014],[101.4335,1.0161],[101.4399,1.0074],[101.45,1.0064],[101.456,1.0033],[101.458,0.9981],[101.4552,0.9865],[101.456,0.9849],[101.4743,0.9759],[101.4777,0.9712],[101.4891,0.9663],[101.4978,0.9597],[101.5183,0.9514],[101.5203,0.9487],[101.5224,0.9354],[101.525,0.9307],[101.5394,0.9254],[101.612,1.0306],[101.712,1.1971],[101.7405,1.1928],[101.8138,1.1689],[101.8503,1.1382],[101.8636,1.1197],[101.8739,1.0999],[101.8835,1.0683],[101.8842,1.0431],[101.8784,1.0143],[101.8406,0.9469],[101.9019,0.9471],[101.9122,0.9621],[101.9234,0.9618],[101.9377,0.9589],[101.969,0.9605],[101.9931,0.9952],[102.0113,1.0125],[102.0332,1.0383],[102.0619,1.077],[102.0946,1.1253],[102.1072,1.1375],[102.1098,1.1474],[102.1319,1.1769],[102.1426,1.1806],[102.1463,1.1867],[102.1633,1.191],[102.1723,1.2077],[102.1728,1.2276],[102.1753,1.23],[102.1794,1.2304],[102.1957,1.2172],[102.2023,1.2066],[102.2083,1.1906],[102.2072,1.1694],[102.1951,1.1252],[102.1916,1.1044],[102.192,1.0872],[102.2079,1.0483],[102.2185,1.0275],[102.2229,1.0074],[102.2259,1.0001],[102.2385,0.9822],[102.2627,0.9562],[102.2886,0.94],[102.2973,0.9376],[102.3093,0.9249],[102.3349,0.9045],[102.339,0.9001],[102.3495,0.8818],[102.3625,0.8693],[102.4012,0.8172],[102.4109,0.8081],[102.4399,0.7911],[102.4501,0.7871],[102.4604,0.7799],[102.4693,0.7771],[102.4876,0.761],[102.4994,0.753],[102.5077,0.7487],[102.5281,0.7462],[102.5285,0.7451],[102.5268,0.7449],[102.5288,0.7444],[102.5303,0.7457],[102.5429,0.7463],[102.5701,0.7375],[102.5939,0.7366],[102.6243,0.7421],[102.6421,0.7513],[102.6567,0.7522],[102.6691,0.7555],[102.6952,0.7549],[102.7185,0.7503],[102.719,0.7476],[102.7296,0.7454],[102.7499,0.7359],[102.7674,0.7312],[102.7879,0.7309],[102.8181,0.7366],[102.8496,0.7388],[102.877,0.7339],[102.8934,0.7282],[102.9006,0.721],[102.8933,0.7194],[102.8798,0.7112],[102.8721,0.7018],[102.8684,0.6861],[102.8601,0.6728],[102.8562,0.6692],[102.8482,0.6667],[102.3402,0.6114],[102.1072,0.5954],[101.9775,0.5719],[101.9734,0.5502],[101.9198,0.5209]]]}}]}