{"type":"FeatureCollection","metadata":{"parent_osm_id":"10008065","parent_name":"Lengkiti","parent_name_1":"SumateraSelatan","parent_gid":"IDN.31.12.3_1","parent_level":"6","child_level":"7","count":21,"source":"GADM 4.1","generated":"2026-05-08"},"features":[{"type":"Feature","properties":{"name":"BandarJaya","name_en":"BandarJaya","admin_level":"7","osm_id":""},"geometry":{"type":"Polygon","coordinates":[[[104.1587,-4.4028],[104.1256,-4.4175],[104.1189,-4.3986],[104.1197,-4.3934],[104.1223,-4.3882],[104.131,-4.3796],[104.1476,-4.3704],[104.1599,-4.3677],[104.183,-4.358],[104.2019,-4.3546],[104.2077,-4.3522],[104.2148,-4.3563],[104.1587,-4.4028]]]}},{"type":"Feature","properties":{"name":"BumiKawa","name_en":"BumiKawa","admin_level":"7","osm_id":""},"geometry":{"type":"Polygon","coordinates":[[[104.0124,-4.4459],[104.0015,-4.4472],[103.9958,-4.4502],[103.986,-4.461],[103.9799,-4.4646],[103.9714,-4.466],[103.967,-4.4636],[103.9605,-4.4571],[103.9523,-4.4442],[103.9257,-4.4215],[103.9157,-4.409],[103.9077,-4.3975],[103.9034,-4.3832],[103.8988,-4.3818],[103.8903,-4.3824],[103.8814,-4.3795],[103.8643,-4.3795],[103.8511,-4.3768],[103.8535,-4.3606],[103.8515,-4.3417],[103.9151,-4.343],[103.9875,-4.3166],[104.0216,-4.3296],[104.083,-4.3216],[104.0812,-4.3285],[104.0869,-4.3324],[104.0949,-4.3341],[104.0966,-4.3369],[104.0954,-4.3403],[104.0977,-4.3422],[104.0997,-4.3408],[104.1019,-4.3451],[104.0248,-4.4019],[104.047,-4.4524],[104.0506,-4.4512],[104.0525,-4.4534],[104.0451,-4.4584],[104.0271,-4.4554],[104.0124,-4.4459]]]}},{"type":"Feature","properties":{"name":"BungaTanjung","name_en":"BungaTanjung","admin_level":"7","osm_id":""},"geometry":{"type":"Polygon","coordinates":[[[103.8515,-4.3417],[103.8497,-4.324],[103.9099,-4.3246],[103.9105,-4.3232],[103.9334,-4.3192],[103.9505,-4.3301],[103.9151,-4.343],[103.8515,-4.3417]]]}},{"type":"Feature","properties":{"name":"GedungPakuan","name_en":"GedungPakuan","admin_level":"7","osm_id":""},"geometry":{"type":"Polygon","coordinates":[[[103.9873,-4.3167],[103.9505,-4.3301],[103.9334,-4.3192],[103.9419,-4.3177],[103.9576,-4.3054],[103.9706,-4.2906],[104.0186,-4.2523],[104.0198,-4.2546],[104.0057,-4.2695],[103.9947,-4.2941],[103.9873,-4.3167]]]}},{"type":"Feature","properties":{"name":"KarangEndah","name_en":"KarangEndah","admin_level":"7","osm_id":""},"geometry":{"type":"Polygon","coordinates":[[[104.1089,-4.4255],[104.0986,-4.4374],[104.0631,-4.4461],[104.0525,-4.4534],[104.0506,-4.4512],[104.047,-4.4524],[104.0248,-4.4019],[104.1019,-4.3451],[104.1028,-4.3468],[104.1065,-4.346],[104.1125,-4.3444],[104.117,-4.3411],[104.1238,-4.3425],[104.1236,-4.3391],[104.1576,-4.3275],[104.1901,-4.3435],[104.1631,-4.3515],[104.131,-4.3654],[104.1073,-4.3777],[104.1063,-4.3911],[104.119,-4.398],[104.1256,-4.4175],[104.1089,-4.4255]]]}},{"type":"Feature","properties":{"name":"LubukDalam","name_en":"LubukDalam","admin_level":"7","osm_id":""},"geometry":{"type":"Polygon","coordinates":[[[104.0837,-4.3105],[104.0647,-4.3112],[104.063,-4.3063],[104.0684,-4.2776],[104.086,-4.2608],[104.0908,-4.2727],[104.0889,-4.2788],[104.0817,-4.2854],[104.0854,-4.2948],[104.0888,-4.2988],[104.0927,-4.3011],[104.0947,-4.2964],[104.1,-4.2931],[104.1069,-4.2852],[104.1089,-4.2759],[104.1292,-4.291],[104.131,-4.3006],[104.1294,-4.3019],[104.1241,-4.3007],[104.1153,-4.2963],[104.1117,-4.2996],[104.1044,-4.2992],[104.1044,-4.302],[104.0966,-4.3058],[104.0896,-4.3043],[104.0837,-4.3105]]]}},{"type":"Feature","properties":{"name":"LubukHara","name_en":"LubukHara","admin_level":"7","osm_id":""},"geometry":{"type":"Polygon","coordinates":[[[104.0389,-4.2434],[104.0389,-4.2281],[104.0466,-4.2126],[104.057,-4.2115],[104.064,-4.2236],[104.0731,-4.2292],[104.0625,-4.2415],[104.0448,-4.2414],[104.0389,-4.2434]]]}},{"type":"Feature","properties":{"name":"NegeriAgung","name_en":"NegeriAgung","admin_level":"7","osm_id":""},"geometry":{"type":"Polygon","coordinates":[[[104.0466,-4.2126],[104.0389,-4.2281],[104.0389,-4.2434],[104.03,-4.2464],[104.017,-4.2476],[104.0162,-4.2454],[104.0107,-4.2434],[104.0028,-4.2458],[103.9969,-4.2503],[103.9895,-4.2503],[103.9836,-4.2438],[103.9807,-4.2354],[103.9807,-4.2196],[103.9834,-4.2173],[103.9974,-4.2213],[104.0021,-4.2204],[104.0091,-4.2229],[104.0182,-4.2227],[104.0466,-4.2126]]]}},{"type":"Feature","properties":{"name":"NegeriRatu","name_en":"NegeriRatu","admin_level":"7","osm_id":""},"geometry":{"type":"Polygon","coordinates":[[[104.083,-4.3216],[104.0691,-4.3234],[104.0647,-4.3112],[104.0837,-4.3105],[104.0845,-4.3164],[104.083,-4.3216]]]}},{"type":"Feature","properties":{"name":"PagarDewa","name_en":"PagarDewa","admin_level":"7","osm_id":""},"geometry":{"type":"Polygon","coordinates":[[[104.0997,-4.3408],[104.0977,-4.3422],[104.0954,-4.3403],[104.0966,-4.3369],[104.0949,-4.3341],[104.1065,-4.3318],[104.1079,-4.3348],[104.0997,-4.3408]]]}},{"type":"Feature","properties":{"name":"PajarBulan","name_en":"PajarBulan","admin_level":"7","osm_id":""},"geometry":{"type":"Polygon","coordinates":[[[104.2244,-4.3143],[104.2196,-4.3191],[104.2233,-4.3227],[104.2222,-4.3276],[104.2189,-4.3318],[104.2207,-4.3455],[104.2191,-4.3463],[104.2192,-4.3528],[104.2148,-4.3563],[104.1576,-4.3275],[104.1236,-4.3391],[104.1238,-4.3425],[104.117,-4.3411],[104.1125,-4.3444],[104.1028,-4.3468],[104.0997,-4.3408],[104.115,-4.3296],[104.1345,-4.3265],[104.1348,-4.3214],[104.1363,-4.3205],[104.1337,-4.314],[104.1432,-4.3082],[104.1846,-4.2933],[104.2273,-4.2806],[104.2284,-4.2833],[104.2266,-4.2878],[104.2247,-4.2882],[104.2271,-4.2891],[104.2254,-4.2974],[104.2222,-4.295],[104.2215,-4.2957],[104.2244,-4.2994],[104.2233,-4.303],[104.2259,-4.309],[104.2256,-4.3105],[104.2244,-4.3097],[104.2244,-4.3143]]]}},{"type":"Feature","properties":{"name":"SegaraKembang","name_en":"SegaraKembang","admin_level":"7","osm_id":""},"geometry":{"type":"Polygon","coordinates":[[[104.0691,-4.3234],[104.0216,-4.3296],[104.0124,-4.3165],[104.0271,-4.303],[104.0271,-4.297],[104.0419,-4.2984],[104.0633,-4.3072],[104.0691,-4.3234]]]}},{"type":"Feature","properties":{"name":"SimpangEmpat","name_en":"SimpangEmpat","admin_level":"7","osm_id":""},"geometry":{"type":"Polygon","coordinates":[[[104.0684,-4.2776],[104.0633,-4.3072],[104.0419,-4.2984],[104.0271,-4.297],[104.0272,-4.281],[104.0384,-4.2701],[104.0443,-4.2731],[104.0556,-4.2722],[104.061,-4.2667],[104.0684,-4.2776]]]}},{"type":"Feature","properties":{"name":"Sukaraja","name_en":"Sukaraja","admin_level":"7","osm_id":""},"geometry":{"type":"Polygon","coordinates":[[[104.0216,-4.3296],[103.9873,-4.3167],[103.9947,-4.2941],[104.0057,-4.2695],[104.0198,-4.2546],[104.0221,-4.2587],[104.0384,-4.2701],[104.0272,-4.281],[104.0271,-4.303],[104.0124,-4.3165],[104.0216,-4.3296]]]}},{"type":"Feature","properties":{"name":"Sundan","name_en":"Sundan","admin_level":"7","osm_id":""},"geometry":{"type":"Polygon","coordinates":[[[103.8445,-4.2865],[103.8355,-4.2618],[103.8196,-4.2393],[103.8323,-4.2365],[103.8432,-4.2308],[103.8395,-4.222],[103.8458,-4.214],[103.8474,-4.2079],[103.8519,-4.2045],[103.8596,-4.2021],[103.8708,-4.1899],[103.878,-4.1853],[103.882,-4.1843],[103.8956,-4.187],[103.8966,-4.1906],[103.8953,-4.197],[103.8969,-4.2034],[103.8986,-4.2057],[103.9041,-4.2079],[103.9241,-4.2111],[103.9361,-4.2151],[103.9441,-4.2157],[103.9585,-4.213],[103.9752,-4.2141],[103.9834,-4.2173],[103.9807,-4.2196],[103.9807,-4.2345],[103.961,-4.2466],[103.9492,-4.2661],[103.9247,-4.288],[103.8883,-4.2891],[103.888,-4.2879],[103.845,-4.2879],[103.8445,-4.2865]]]}},{"type":"Feature","properties":{"name":"TanjungAgung","name_en":"TanjungAgung","admin_level":"7","osm_id":""},"geometry":{"type":"Polygon","coordinates":[[[104.0949,-4.3341],[104.0869,-4.3324],[104.0812,-4.3285],[104.0877,-4.3286],[104.0915,-4.3304],[104.0916,-4.3263],[104.0974,-4.3281],[104.0977,-4.3317],[104.0991,-4.3319],[104.1013,-4.329],[104.0997,-4.3255],[104.1039,-4.3269],[104.1098,-4.3198],[104.1191,-4.3125],[104.1223,-4.3159],[104.1256,-4.3143],[104.1275,-4.3153],[104.1276,-4.3227],[104.1314,-4.3212],[104.1306,-4.3244],[104.1345,-4.3259],[104.115,-4.3296],[104.1079,-4.3348],[104.1065,-4.3318],[104.0949,-4.3341]]]}},{"type":"Feature","properties":{"name":"TanjungLengkayap","name_en":"TanjungLengkayap","admin_level":"7","osm_id":""},"geometry":{"type":"Polygon","coordinates":[[[104.227,-4.2504],[104.2265,-4.2552],[104.2292,-4.265],[104.2274,-4.2662],[104.2291,-4.267],[104.2327,-4.274],[104.2311,-4.2783],[104.2321,-4.2806],[104.2293,-4.2786],[104.2298,-4.2812],[104.2255,-4.281],[104.1846,-4.2933],[104.1432,-4.3082],[104.1337,-4.314],[104.1363,-4.3205],[104.1348,-4.3214],[104.1335,-4.3263],[104.1306,-4.3244],[104.1314,-4.3212],[104.1276,-4.3227],[104.1275,-4.3153],[104.1256,-4.3143],[104.1223,-4.3159],[104.1191,-4.3125],[104.1098,-4.3198],[104.1039,-4.3269],[104.0997,-4.3255],[104.1013,-4.329],[104.0991,-4.3319],[104.0977,-4.3317],[104.0974,-4.3281],[104.0916,-4.3263],[104.0915,-4.3304],[104.0813,-4.3283],[104.0845,-4.3164],[104.0834,-4.311],[104.0896,-4.3043],[104.0966,-4.3058],[104.1044,-4.302],[104.1044,-4.2992],[104.1117,-4.2996],[104.1153,-4.2963],[104.1241,-4.3007],[104.1294,-4.3019],[104.131,-4.3006],[104.1292,-4.291],[104.1089,-4.2759],[104.1078,-4.268],[104.1105,-4.2638],[104.125,-4.262],[104.1378,-4.2703],[104.1486,-4.2692],[104.1635,-4.2703],[104.1731,-4.269],[104.1872,-4.2615],[104.1937,-4.2444],[104.1981,-4.2443],[104.2064,-4.2492],[104.2116,-4.2484],[104.227,-4.2504]]]}},{"type":"Feature","properties":{"name":"Tihang","name_en":"Tihang","admin_level":"7","osm_id":""},"geometry":{"type":"Polygon","coordinates":[[[104.0198,-4.2546],[104.017,-4.2476],[104.03,-4.2464],[104.0448,-4.2414],[104.0625,-4.2415],[104.0731,-4.2292],[104.078,-4.2361],[104.0808,-4.2482],[104.086,-4.2608],[104.0684,-4.2776],[104.061,-4.2667],[104.0556,-4.2722],[104.0443,-4.2731],[104.0221,-4.2587],[104.0198,-4.2546]]]}},{"type":"Feature","properties":{"name":"Tualang","name_en":"Tualang","admin_level":"7","osm_id":""},"geometry":{"type":"Polygon","coordinates":[[[103.8497,-4.324],[103.845,-4.2879],[103.888,-4.2879],[103.8883,-4.2891],[103.9247,-4.288],[103.9492,-4.2661],[103.961,-4.2466],[103.9807,-4.2345],[103.9836,-4.2438],[103.9895,-4.2503],[103.9969,-4.2503],[104.0028,-4.2458],[104.0107,-4.2434],[104.0162,-4.2454],[104.0186,-4.2523],[103.9706,-4.2906],[103.9576,-4.3054],[103.9419,-4.3177],[103.9105,-4.3232],[103.9099,-4.3246],[103.8497,-4.324]]]}},{"type":"Feature","properties":{"name":"Umpam","name_en":"Umpam","admin_level":"7","osm_id":""},"geometry":{"type":"Polygon","coordinates":[[[104.2077,-4.3522],[104.2019,-4.3546],[104.183,-4.358],[104.1599,-4.3677],[104.1476,-4.3704],[104.136,-4.3762],[104.1223,-4.3882],[104.119,-4.398],[104.1063,-4.3911],[104.1073,-4.3777],[104.131,-4.3654],[104.1631,-4.3515],[104.1901,-4.3435],[104.2077,-4.3522]]]}},{"type":"Feature","properties":{"name":"WayHeling","name_en":"WayHeling","admin_level":"7","osm_id":""},"geometry":{"type":"Polygon","coordinates":[[[104.1089,-4.2759],[104.1069,-4.2852],[104.1,-4.2931],[104.0947,-4.2964],[104.095,-4.2981],[104.0916,-4.3011],[104.0854,-4.2948],[104.0817,-4.2854],[104.0889,-4.2788],[104.0908,-4.2727],[104.0936,-4.2764],[104.0969,-4.2764],[104.1089,-4.265],[104.1078,-4.268],[104.1089,-4.2759]]]}}]}