{"type":"FeatureCollection","metadata":{"parent_osm_id":"10005019","parent_name":"Lawang","parent_name_1":"JawaTimur","parent_gid":"IDN.11.22.15_1","parent_level":"6","child_level":"7","count":12,"source":"GADM 4.1","generated":"2026-05-07"},"features":[{"type":"Feature","properties":{"name":"Bedali","name_en":"Bedali","admin_level":"7","osm_id":""},"geometry":{"type":"Polygon","coordinates":[[[112.669,-7.8434],[112.6745,-7.8436],[112.6756,-7.8469],[112.6794,-7.8485],[112.6817,-7.849],[112.6869,-7.8463],[112.6875,-7.8479],[112.6933,-7.8489],[112.6989,-7.8532],[112.7019,-7.8522],[112.6987,-7.8554],[112.6967,-7.8546],[112.6955,-7.8584],[112.7011,-7.8615],[112.7039,-7.8664],[112.7098,-7.8693],[112.7105,-7.8712],[112.7054,-7.8717],[112.7028,-7.8767],[112.7007,-7.8775],[112.6995,-7.8749],[112.6876,-7.8668],[112.685,-7.8634],[112.6859,-7.8621],[112.6836,-7.8594],[112.6846,-7.8583],[112.677,-7.8533],[112.6719,-7.852],[112.6667,-7.8474],[112.6688,-7.8459],[112.669,-7.8434]]]}},{"type":"Feature","properties":{"name":"Kalirejo","name_en":"Kalirejo","admin_level":"7","osm_id":""},"geometry":{"type":"Polygon","coordinates":[[[112.7019,-7.8522],[112.6989,-7.8532],[112.6933,-7.8489],[112.6875,-7.8479],[112.6869,-7.8463],[112.6817,-7.849],[112.6777,-7.8479],[112.6754,-7.8467],[112.6745,-7.8436],[112.669,-7.8434],[112.6563,-7.8366],[112.6551,-7.8347],[112.6563,-7.8325],[112.6582,-7.8347],[112.6618,-7.8327],[112.6691,-7.8373],[112.6693,-7.8389],[112.6708,-7.8368],[112.6729,-7.8392],[112.6786,-7.836],[112.685,-7.8388],[112.6922,-7.8384],[112.6926,-7.8405],[112.6959,-7.8422],[112.6991,-7.8402],[112.7018,-7.8409],[112.7016,-7.8425],[112.7076,-7.8484],[112.7057,-7.8535],[112.7019,-7.8522]]]}},{"type":"Feature","properties":{"name":"Ketindan","name_en":"Ketindan","admin_level":"7","osm_id":""},"geometry":{"type":"Polygon","coordinates":[[[112.69,-7.8381],[112.685,-7.8388],[112.6786,-7.836],[112.6729,-7.8392],[112.6708,-7.8368],[112.6693,-7.8389],[112.6691,-7.8373],[112.6621,-7.8328],[112.6582,-7.8347],[112.6563,-7.8325],[112.6551,-7.8347],[112.6472,-7.8237],[112.6496,-7.8185],[112.6528,-7.818],[112.6782,-7.8298],[112.6831,-7.8286],[112.6861,-7.8301],[112.6888,-7.8286],[112.6904,-7.8309],[112.6907,-7.8352],[112.6886,-7.8357],[112.69,-7.8381]]]}},{"type":"Feature","properties":{"name":"Lawang","name_en":"Lawang","admin_level":"7","osm_id":""},"geometry":{"type":"Polygon","coordinates":[[[112.7069,-7.8475],[112.7016,-7.8425],[112.7018,-7.8409],[112.6991,-7.8402],[112.6959,-7.8422],[112.6926,-7.8405],[112.6922,-7.8384],[112.69,-7.8381],[112.6886,-7.8357],[112.6907,-7.8352],[112.6904,-7.8309],[112.6889,-7.8284],[112.6943,-7.8283],[112.6992,-7.8309],[112.7025,-7.8306],[112.705,-7.8377],[112.7114,-7.8433],[112.7089,-7.8482],[112.7069,-7.8475]]]}},{"type":"Feature","properties":{"name":"Mulyoarjo","name_en":"Mulyoarjo","admin_level":"7","osm_id":""},"geometry":{"type":"Polygon","coordinates":[[[112.7114,-7.8433],[112.705,-7.8377],[112.7025,-7.8306],[112.6983,-7.83],[112.7045,-7.8284],[112.7128,-7.8293],[112.7136,-7.8329],[112.7196,-7.8369],[112.7178,-7.8394],[112.72,-7.841],[112.7203,-7.844],[112.7156,-7.8448],[112.7114,-7.8433]]]}},{"type":"Feature","properties":{"name":"Sidodadi","name_en":"Sidodadi","admin_level":"7","osm_id":""},"geometry":{"type":"Polygon","coordinates":[[[112.7107,-7.8702],[112.7046,-7.8669],[112.7011,-7.8615],[112.6954,-7.8579],[112.6967,-7.8546],[112.6987,-7.8554],[112.7019,-7.8522],[112.7057,-7.8535],[112.7069,-7.8475],[112.7089,-7.8482],[112.7102,-7.8452],[112.7249,-7.8513],[112.7292,-7.8552],[112.7232,-7.8661],[112.7209,-7.8662],[112.7193,-7.8713],[112.7148,-7.8706],[112.7139,-7.8722],[112.7107,-7.8702]]]}},{"type":"Feature","properties":{"name":"Sidoluhur","name_en":"Sidoluhur","admin_level":"7","osm_id":""},"geometry":{"type":"Polygon","coordinates":[[[112.759,-7.875],[112.7588,-7.8776],[112.7548,-7.8794],[112.7556,-7.8812],[112.7534,-7.8832],[112.7549,-7.8842],[112.7497,-7.8844],[112.7491,-7.8914],[112.7456,-7.8927],[112.7452,-7.8947],[112.7425,-7.8926],[112.7401,-7.8958],[112.7333,-7.8963],[112.7319,-7.9002],[112.7283,-7.8993],[112.7285,-7.8961],[112.7247,-7.896],[112.7245,-7.8948],[112.7197,-7.8936],[112.7117,-7.8961],[112.713,-7.8916],[112.7111,-7.8929],[112.706,-7.8904],[112.7092,-7.882],[112.7188,-7.8812],[112.7219,-7.8761],[112.7267,-7.8765],[112.7305,-7.8741],[112.7438,-7.8721],[112.759,-7.875]]]}},{"type":"Feature","properties":{"name":"Srigading","name_en":"Srigading","admin_level":"7","osm_id":""},"geometry":{"type":"Polygon","coordinates":[[[112.7615,-7.875],[112.7559,-7.8753],[112.7531,-7.8735],[112.7438,-7.8721],[112.7305,-7.8741],[112.7267,-7.8765],[112.7219,-7.8761],[112.7176,-7.8817],[112.7154,-7.8817],[112.7153,-7.8793],[112.7132,-7.8789],[112.7157,-7.8744],[112.7137,-7.8724],[112.7148,-7.8706],[112.7193,-7.8713],[112.7209,-7.8662],[112.7232,-7.8661],[112.7269,-7.86],[112.7293,-7.855],[112.7297,-7.8489],[112.7366,-7.847],[112.7369,-7.8452],[112.7583,-7.8535],[112.7606,-7.8584],[112.7586,-7.8648],[112.7634,-7.8641],[112.7671,-7.8681],[112.7725,-7.8672],[112.7694,-7.8716],[112.7615,-7.875]]]}},{"type":"Feature","properties":{"name":"SumberNgepoh","name_en":"SumberNgepoh","admin_level":"7","osm_id":""},"geometry":{"type":"Polygon","coordinates":[[[112.7102,-7.8452],[112.7114,-7.8433],[112.7156,-7.8448],[112.7203,-7.844],[112.72,-7.841],[112.7178,-7.839],[112.7237,-7.8339],[112.7247,-7.83],[112.726,-7.8303],[112.7281,-7.8268],[112.7299,-7.8275],[112.7295,-7.819],[112.7335,-7.8184],[112.7336,-7.8242],[112.7368,-7.8276],[112.7352,-7.833],[112.7366,-7.8352],[112.7343,-7.8349],[112.7408,-7.846],[112.7369,-7.8452],[112.7366,-7.847],[112.7297,-7.8489],[112.7292,-7.8552],[112.7249,-7.8513],[112.7102,-7.8452]]]}},{"type":"Feature","properties":{"name":"SumberPorong","name_en":"SumberPorong","admin_level":"7","osm_id":""},"geometry":{"type":"Polygon","coordinates":[[[112.7196,-7.8369],[112.7136,-7.8329],[112.7127,-7.8292],[112.7083,-7.8298],[112.7045,-7.828],[112.706,-7.8262],[112.7112,-7.8252],[112.7124,-7.8212],[112.715,-7.8221],[112.7194,-7.8194],[112.7242,-7.8202],[112.7289,-7.819],[112.7299,-7.8275],[112.7281,-7.8269],[112.726,-7.8303],[112.7247,-7.83],[112.7237,-7.8339],[112.7196,-7.8369]]]}},{"type":"Feature","properties":{"name":"Turirejo","name_en":"Turirejo","admin_level":"7","osm_id":""},"geometry":{"type":"Polygon","coordinates":[[[112.6888,-7.8286],[112.6855,-7.8299],[112.6854,-7.8222],[112.6797,-7.817],[112.6801,-7.8113],[112.6924,-7.8145],[112.6996,-7.814],[112.7011,-7.8171],[112.7055,-7.8183],[112.7055,-7.8228],[112.707,-7.8221],[112.707,-7.8234],[112.7105,-7.8246],[112.706,-7.8262],[112.7045,-7.8287],[112.698,-7.8305],[112.6943,-7.8283],[112.6888,-7.8286]]]}},{"type":"Feature","properties":{"name":"Wonorejo","name_en":"Wonorejo","admin_level":"7","osm_id":""},"geometry":{"type":"Polygon","coordinates":[[[112.6855,-7.8299],[112.6831,-7.8286],[112.6782,-7.8298],[112.6725,-7.8279],[112.6542,-7.8184],[112.647,-7.8177],[112.6337,-7.8103],[112.6286,-7.8095],[112.6265,-7.8054],[112.6145,-7.7939],[112.6142,-7.7905],[112.6167,-7.7876],[112.6208,-7.7873],[112.6264,-7.791],[112.6382,-7.7907],[112.6416,-7.7952],[112.6564,-7.7975],[112.6546,-7.8017],[112.6565,-7.8056],[112.6607,-7.8046],[112.6801,-7.8113],[112.6797,-7.817],[112.6854,-7.8222],[112.6855,-7.8299]]]}}]}