{"type":"FeatureCollection","metadata":{"parent_osm_id":"10357585","parent_name":"Seberida","parent_name_1":"Riau","parent_gid":"IDN.24.4.13_1","parent_level":"6","child_level":"7","count":11,"source":"GADM 4.1","generated":"2026-05-08"},"features":[{"type":"Feature","properties":{"name":"BandarPadang","name_en":"BandarPadang","admin_level":"7","osm_id":""},"geometry":{"type":"Polygon","coordinates":[[[102.306,-0.5737],[102.311,-0.5698],[102.3158,-0.5615],[102.3678,-0.5946],[102.354,-0.6189],[102.3158,-0.5859],[102.306,-0.5737]]]}},{"type":"Feature","properties":{"name":"Beligan","name_en":"Beligan","admin_level":"7","osm_id":""},"geometry":{"type":"Polygon","coordinates":[[[102.2844,-0.6255],[102.283,-0.6113],[102.2776,-0.5948],[102.306,-0.5737],[102.3158,-0.5859],[102.354,-0.6189],[102.3498,-0.6309],[102.3482,-0.6526],[102.3399,-0.6493],[102.3286,-0.6421],[102.3161,-0.6413],[102.3059,-0.6388],[102.2883,-0.6298],[102.2844,-0.6255]]]}},{"type":"Feature","properties":{"name":"BukitMeranti","name_en":"BukitMeranti","admin_level":"7","osm_id":""},"geometry":{"type":"Polygon","coordinates":[[[102.4559,-0.5029],[102.474,-0.5097],[102.4755,-0.5582],[102.4658,-0.5621],[102.4546,-0.5634],[102.4535,-0.5392],[102.4482,-0.5252],[102.4559,-0.5029]]]}},{"type":"Feature","properties":{"name":"BuluhRampai","name_en":"BuluhRampai","admin_level":"7","osm_id":""},"geometry":{"type":"Polygon","coordinates":[[[102.44,-0.4877],[102.451,-0.4997],[102.4559,-0.5029],[102.4482,-0.5252],[102.4535,-0.5392],[102.4546,-0.5634],[102.4401,-0.5653],[102.4264,-0.5649],[102.4203,-0.5622],[102.4191,-0.5415],[102.4314,-0.5286],[102.4316,-0.5089],[102.44,-0.4877]]]}},{"type":"Feature","properties":{"name":"Kelesa","name_en":"Kelesa","admin_level":"7","osm_id":""},"geometry":{"type":"Polygon","coordinates":[[[102.36,-0.6848],[102.359,-0.674],[102.3512,-0.6553],[102.3482,-0.6526],[102.3486,-0.6461],[102.415,-0.6398],[102.4395,-0.6424],[102.453,-0.6402],[102.4711,-0.6624],[102.4571,-0.6773],[102.4369,-0.6844],[102.4209,-0.6998],[102.4161,-0.7011],[102.4091,-0.6975],[102.402,-0.6972],[102.3859,-0.6914],[102.36,-0.6848]]]}},{"type":"Feature","properties":{"name":"PangkalanKasai","name_en":"PangkalanKasai","admin_level":"7","osm_id":""},"geometry":{"type":"Polygon","coordinates":[[[102.4261,-0.4914],[102.4295,-0.4823],[102.4335,-0.4821],[102.44,-0.4877],[102.4316,-0.5089],[102.4314,-0.5286],[102.4191,-0.5415],[102.4203,-0.5622],[102.4315,-0.5654],[102.4633,-0.5624],[102.453,-0.6402],[102.4395,-0.6424],[102.415,-0.6398],[102.3486,-0.6461],[102.3498,-0.6309],[102.354,-0.6189],[102.3773,-0.5804],[102.3809,-0.5668],[102.4014,-0.5565],[102.4261,-0.4914]]]}},{"type":"Feature","properties":{"name":"PayaRumbai","name_en":"PayaRumbai","admin_level":"7","osm_id":""},"geometry":{"type":"Polygon","coordinates":[[[102.654,-0.4799],[102.6356,-0.5084],[102.6022,-0.5531],[102.5691,-0.591],[102.5437,-0.6095],[102.5199,-0.6228],[102.4972,-0.6326],[102.4902,-0.639],[102.4711,-0.6624],[102.453,-0.6402],[102.4633,-0.5624],[102.4755,-0.5582],[102.474,-0.5097],[102.5025,-0.5155],[102.5147,-0.5147],[102.5342,-0.5094],[102.5604,-0.4986],[102.6079,-0.4837],[102.654,-0.4799]]]}},{"type":"Feature","properties":{"name":"PetalaBumi","name_en":"PetalaBumi","admin_level":"7","osm_id":""},"geometry":{"type":"Polygon","coordinates":[[[102.3246,-0.5401],[102.3441,-0.4963],[102.3463,-0.4894],[102.347,-0.4774],[102.3683,-0.486],[102.3828,-0.5067],[102.3976,-0.5068],[102.3991,-0.51],[102.4016,-0.5103],[102.4036,-0.5235],[102.3833,-0.5304],[102.3739,-0.5373],[102.3555,-0.5576],[102.3246,-0.5401]]]}},{"type":"Feature","properties":{"name":"Seresam","name_en":"Seresam","admin_level":"7","osm_id":""},"geometry":{"type":"Polygon","coordinates":[[[102.3158,-0.5615],[102.3246,-0.5401],[102.3795,-0.5712],[102.3786,-0.5765],[102.3678,-0.5946],[102.3158,-0.5615]]]}},{"type":"Feature","properties":{"name":"Sibabat","name_en":"Sibabat","admin_level":"7","osm_id":""},"geometry":{"type":"Polygon","coordinates":[[[102.396,-0.4735],[102.4041,-0.4895],[102.4086,-0.4922],[102.4178,-0.493],[102.4261,-0.4914],[102.419,-0.5101],[102.4013,-0.5103],[102.3991,-0.51],[102.3976,-0.5068],[102.3828,-0.5067],[102.3683,-0.486],[102.347,-0.4774],[102.3448,-0.4508],[102.3728,-0.4562],[102.3912,-0.4681],[102.396,-0.4735]]]}},{"type":"Feature","properties":{"name":"TitianResak","name_en":"TitianResak","admin_level":"7","osm_id":""},"geometry":{"type":"Polygon","coordinates":[[[102.419,-0.5101],[102.4014,-0.5565],[102.3809,-0.5668],[102.3795,-0.5712],[102.3555,-0.5576],[102.3739,-0.5373],[102.3833,-0.5304],[102.4036,-0.5235],[102.4016,-0.5103],[102.419,-0.5101]]]}}]}