{"type":"FeatureCollection","metadata":{"parent_osm_id":"10621699","parent_name":"Sejangkung","parent_name_1":"KalimantanBarat","parent_gid":"IDN.12.10.11_1","parent_level":"6","child_level":"7","count":12,"source":"GADM 4.1","generated":"2026-05-07"},"features":[{"type":"Feature","properties":{"name":"ParitRaja","name_en":"ParitRaja","admin_level":"7","osm_id":""},"geometry":{"type":"Polygon","coordinates":[[[109.3668,1.4153],[109.3457,1.414],[109.3237,1.4054],[109.3166,1.4173],[109.3151,1.4295],[109.3129,1.4339],[109.3184,1.438],[109.334,1.4396],[109.3548,1.4516],[109.3741,1.4454],[109.3825,1.4442],[109.3807,1.4159],[109.3668,1.4153]]]}},{"type":"Feature","properties":{"name":"Penakalan","name_en":"Penakalan","admin_level":"7","osm_id":""},"geometry":{"type":"Polygon","coordinates":[[[109.2977,1.4021],[109.2862,1.4024],[109.2783,1.4086],[109.2962,1.4232],[109.3018,1.4149],[109.3069,1.4026],[109.2977,1.4021]]]}},{"type":"Feature","properties":{"name":"PerigiLandu","name_en":"PerigiLandu","admin_level":"7","osm_id":""},"geometry":{"type":"Polygon","coordinates":[[[109.3658,1.4744],[109.3864,1.495],[109.3825,1.4442],[109.3731,1.4456],[109.3558,1.4517],[109.3441,1.445],[109.3438,1.4701],[109.3514,1.4733],[109.3658,1.4744]]]}},{"type":"Feature","properties":{"name":"PerigiLimus","name_en":"PerigiLimus","admin_level":"7","osm_id":""},"geometry":{"type":"Polygon","coordinates":[[[109.4489,1.5153],[109.4612,1.5232],[109.4712,1.5226],[109.4679,1.4846],[109.4681,1.4807],[109.4705,1.479],[109.4703,1.4277],[109.469,1.4261],[109.4645,1.426],[109.4692,1.4185],[109.4547,1.4086],[109.4423,1.4142],[109.4327,1.4112],[109.4248,1.4124],[109.4271,1.4295],[109.4307,1.4368],[109.4261,1.4422],[109.4325,1.4452],[109.4282,1.4485],[109.4317,1.451],[109.4279,1.4586],[109.4313,1.4609],[109.4312,1.464],[109.4298,1.4641],[109.427,1.4721],[109.4281,1.5095],[109.4489,1.5153]]]}},{"type":"Feature","properties":{"name":"Piantus","name_en":"Piantus","admin_level":"7","osm_id":""},"geometry":{"type":"Polygon","coordinates":[[[109.3198,1.4624],[109.3322,1.4649],[109.3438,1.4701],[109.3441,1.445],[109.334,1.4396],[109.3252,1.4389],[109.3198,1.4624]]]}},{"type":"Feature","properties":{"name":"Sekuduk","name_en":"Sekuduk","admin_level":"7","osm_id":""},"geometry":{"type":"Polygon","coordinates":[[[109.2989,1.4653],[109.3061,1.4654],[109.3198,1.4624],[109.3252,1.4389],[109.3173,1.4375],[109.3087,1.4301],[109.2965,1.4229],[109.2843,1.4383],[109.2797,1.4405],[109.2729,1.4507],[109.2989,1.4653]]]}},{"type":"Feature","properties":{"name":"Semanga","name_en":"Semanga","admin_level":"7","osm_id":""},"geometry":{"type":"Polygon","coordinates":[[[109.4779,1.363],[109.4611,1.405],[109.4547,1.4086],[109.4692,1.4185],[109.4645,1.426],[109.469,1.4261],[109.4703,1.4277],[109.4705,1.479],[109.4681,1.4807],[109.4679,1.4846],[109.4712,1.5226],[109.4897,1.5257],[109.4994,1.5239],[109.5049,1.5202],[109.5088,1.522],[109.5324,1.5224],[109.5466,1.5263],[109.5569,1.5382],[109.5646,1.5541],[109.5662,1.564],[109.5648,1.5711],[109.5667,1.5797],[109.5844,1.5806],[109.5933,1.5788],[109.5991,1.5739],[109.6219,1.5703],[109.6337,1.5715],[109.6405,1.57],[109.6433,1.5667],[109.6394,1.5627],[109.6342,1.5615],[109.6257,1.5521],[109.607,1.5403],[109.6065,1.5198],[109.601,1.5171],[109.6003,1.5143],[109.6033,1.5102],[109.607,1.4913],[109.6024,1.4858],[109.5908,1.4869],[109.5885,1.4855],[109.5864,1.4839],[109.5857,1.4763],[109.57,1.4685],[109.5714,1.4598],[109.567,1.4538],[109.5565,1.4204],[109.5536,1.4062],[109.5552,1.3998],[109.5546,1.3942],[109.5499,1.3874],[109.5408,1.3663],[109.5307,1.3582],[109.522,1.3582],[109.5188,1.354],[109.5045,1.3505],[109.4984,1.3469],[109.4974,1.3429],[109.4834,1.3478],[109.4808,1.3512],[109.4779,1.363]]]}},{"type":"Feature","properties":{"name":"Sendoyan","name_en":"Sendoyan","admin_level":"7","osm_id":""},"geometry":{"type":"Polygon","coordinates":[[[109.4248,1.4124],[109.4016,1.4172],[109.3807,1.4159],[109.3855,1.4756],[109.4273,1.4753],[109.427,1.4721],[109.4298,1.4641],[109.4312,1.464],[109.4313,1.4609],[109.4279,1.4586],[109.4317,1.451],[109.4282,1.4485],[109.4325,1.4452],[109.4261,1.4422],[109.4307,1.4368],[109.4271,1.4295],[109.4248,1.4124]]]}},{"type":"Feature","properties":{"name":"Senujuh","name_en":"Senujuh","admin_level":"7","osm_id":""},"geometry":{"type":"Polygon","coordinates":[[[109.3864,1.495],[109.4022,1.5004],[109.4109,1.5077],[109.4279,1.5094],[109.4273,1.4753],[109.3855,1.4756],[109.3864,1.495]]]}},{"type":"Feature","properties":{"name":"Sepantai","name_en":"Sepantai","admin_level":"7","osm_id":""},"geometry":{"type":"Polygon","coordinates":[[[109.6142,1.3642],[109.6188,1.3553],[109.6264,1.3319],[109.6262,1.3262],[109.6215,1.3118],[109.6141,1.3015],[109.6072,1.286],[109.6108,1.275],[109.61,1.2604],[109.6047,1.2503],[109.6022,1.2507],[109.6016,1.2538],[109.5978,1.2537],[109.5853,1.2457],[109.5738,1.2441],[109.5556,1.2486],[109.5527,1.256],[109.5527,1.264],[109.5485,1.274],[109.5274,1.2935],[109.5185,1.3067],[109.5137,1.3315],[109.5085,1.3376],[109.4974,1.3429],[109.4984,1.3469],[109.5045,1.3505],[109.5188,1.354],[109.522,1.3582],[109.5307,1.3582],[109.5408,1.3663],[109.5499,1.3874],[109.5546,1.3942],[109.5552,1.3998],[109.5536,1.4062],[109.5565,1.4204],[109.567,1.4538],[109.5714,1.4598],[109.5743,1.4553],[109.578,1.4537],[109.5802,1.449],[109.6087,1.431],[109.609,1.4272],[109.6032,1.4174],[109.6064,1.409],[109.6024,1.4076],[109.6014,1.4047],[109.6026,1.4006],[109.6091,1.3936],[109.6094,1.3888],[109.6038,1.3909],[109.5939,1.3856],[109.5868,1.3858],[109.5796,1.3837],[109.5762,1.3814],[109.5756,1.3767],[109.592,1.3698],[109.5971,1.3706],[109.5999,1.3736],[109.6098,1.3688],[109.6142,1.3642]]]}},{"type":"Feature","properties":{"name":"Setalik","name_en":"Setalik","admin_level":"7","osm_id":""},"geometry":{"type":"Polygon","coordinates":[[[109.3237,1.4054],[109.3069,1.4026],[109.3018,1.4149],[109.2965,1.4229],[109.3129,1.4339],[109.3151,1.4295],[109.3166,1.4173],[109.3237,1.4054]]]}},{"type":"Feature","properties":{"name":"Sulung","name_en":"Sulung","admin_level":"7","osm_id":""},"geometry":{"type":"Polygon","coordinates":[[[109.2962,1.4232],[109.2783,1.4086],[109.2563,1.4236],[109.2553,1.427],[109.2587,1.4376],[109.2641,1.4452],[109.2729,1.4507],[109.2797,1.4405],[109.2843,1.4383],[109.2962,1.4232]]]}}]}