{"type":"FeatureCollection","metadata":{"parent_osm_id":"10621704","parent_name":"Tangaran","parent_name_1":"KalimantanBarat","parent_gid":"IDN.12.10.16_1","parent_level":"6","child_level":"7","count":7,"source":"GADM 4.1","generated":"2026-05-07"},"features":[{"type":"Feature","properties":{"name":"ArungParak","name_en":"ArungParak","admin_level":"7","osm_id":""},"geometry":{"type":"Polygon","coordinates":[[[109.1619,1.6041],[109.1653,1.6009],[109.1718,1.5987],[109.1856,1.5974],[109.1765,1.5841],[109.1653,1.5837],[109.1619,1.5861],[109.1604,1.5897],[109.1558,1.5911],[109.1529,1.5999],[109.1619,1.6041]]]}},{"type":"Feature","properties":{"name":"Merabuan","name_en":"Merabuan","admin_level":"7","osm_id":""},"geometry":{"type":"Polygon","coordinates":[[[109.1856,1.5974],[109.2015,1.6027],[109.2136,1.6043],[109.2118,1.5866],[109.2141,1.5646],[109.1831,1.565],[109.181,1.5644],[109.1824,1.5613],[109.1793,1.5619],[109.1776,1.5599],[109.174,1.5635],[109.1768,1.5855],[109.1856,1.5974]]]}},{"type":"Feature","properties":{"name":"Merpati","name_en":"Merpati","admin_level":"7","osm_id":""},"geometry":{"type":"Polygon","coordinates":[[[109.177,1.5604],[109.1793,1.5619],[109.1824,1.5613],[109.1812,1.5647],[109.1862,1.5647],[109.1896,1.5586],[109.1916,1.5595],[109.1931,1.5574],[109.1904,1.5552],[109.1939,1.5517],[109.1967,1.5447],[109.1979,1.544],[109.2002,1.5468],[109.2025,1.5449],[109.2028,1.5409],[109.2107,1.5417],[109.2118,1.5395],[109.2101,1.5364],[109.1906,1.5302],[109.191,1.5317],[109.1858,1.5322],[109.1836,1.5342],[109.1789,1.5341],[109.177,1.5604]]]}},{"type":"Feature","properties":{"name":"Pancur","name_en":"Pancur","admin_level":"7","osm_id":""},"geometry":{"type":"Polygon","coordinates":[[[109.1529,1.5999],[109.1558,1.5911],[109.1604,1.5897],[109.1636,1.5847],[109.1765,1.5841],[109.1747,1.576],[109.1758,1.5701],[109.1735,1.5652],[109.167,1.5643],[109.1623,1.5609],[109.1403,1.5614],[109.1358,1.5599],[109.1123,1.5738],[109.1289,1.5865],[109.1529,1.5999]]]}},{"type":"Feature","properties":{"name":"Semata","name_en":"Semata","admin_level":"7","osm_id":""},"geometry":{"type":"Polygon","coordinates":[[[109.0871,1.4798],[109.0734,1.5135],[109.0866,1.5109],[109.0965,1.5149],[109.1446,1.5123],[109.17,1.5242],[109.1753,1.5282],[109.1789,1.5341],[109.1836,1.5342],[109.1858,1.5322],[109.191,1.5317],[109.1957,1.5158],[109.1975,1.5138],[109.1943,1.5137],[109.1888,1.5095],[109.17,1.5106],[109.1663,1.5081],[109.1584,1.5063],[109.1557,1.505],[109.1566,1.5035],[109.1477,1.4953],[109.1304,1.4871],[109.1076,1.4854],[109.1029,1.4826],[109.0871,1.4798]]]}},{"type":"Feature","properties":{"name":"SimpangEmpat","name_en":"SimpangEmpat","admin_level":"7","osm_id":""},"geometry":{"type":"Polygon","coordinates":[[[109.0734,1.5135],[109.0704,1.5181],[109.06,1.5244],[109.0602,1.5255],[109.0903,1.5537],[109.0903,1.5552],[109.1123,1.5738],[109.1358,1.5599],[109.1403,1.5614],[109.1623,1.5609],[109.167,1.5643],[109.1728,1.5652],[109.177,1.5604],[109.1789,1.5341],[109.1732,1.5262],[109.1578,1.518],[109.1567,1.5187],[109.1525,1.515],[109.1446,1.5123],[109.0965,1.5149],[109.0886,1.5109],[109.0734,1.5135]]]}},{"type":"Feature","properties":{"name":"Tangaran","name_en":"Tangaran","admin_level":"7","osm_id":""},"geometry":{"type":"Polygon","coordinates":[[[109.1906,1.5302],[109.2098,1.5363],[109.2166,1.5349],[109.2188,1.5306],[109.2242,1.5312],[109.2247,1.5294],[109.2214,1.5252],[109.2237,1.524],[109.2275,1.5259],[109.2293,1.5208],[109.2041,1.5168],[109.1977,1.5136],[109.1906,1.5302]]]}}]}