{"type":"FeatureCollection","metadata":{"parent_osm_id":"10622012","parent_name":"Ambalau","parent_name_1":"KalimantanBarat","parent_gid":"IDN.12.14.1_1","parent_level":"6","child_level":"7","count":13,"source":"GADM 4.1","generated":"2026-05-07"},"features":[{"type":"Feature","properties":{"name":"BuntutPimpin","name_en":"BuntutPimpin","admin_level":"7","osm_id":""},"geometry":{"type":"Polygon","coordinates":[[[112.7667,0.2279],[112.7737,0.2339],[112.7853,0.2398],[112.7908,0.2411],[112.7971,0.2404],[112.8086,0.2374],[112.8234,0.2309],[112.8415,0.2178],[112.8525,0.2119],[112.8629,0.2094],[112.8838,0.2095],[112.8951,0.1977],[112.8972,0.1852],[112.8938,0.1693],[112.9021,0.1463],[112.9028,0.122],[112.9079,0.1101],[112.9077,0.0996],[112.9034,0.0842],[112.904,0.0719],[112.9126,0.0526],[112.9238,0.0363],[112.9292,-0.0021],[112.9387,-0.0146],[112.9477,-0.0214],[112.9601,-0.028],[112.9938,-0.0378],[112.9932,-0.0415],[112.997,-0.0496],[112.9973,-0.0573],[112.9947,-0.0591],[112.9704,-0.0608],[112.9584,-0.0667],[112.943,-0.0696],[112.9202,-0.0672],[112.9113,-0.0684],[112.8871,-0.0759],[112.8751,-0.0862],[112.86,-0.0944],[112.852,-0.103],[112.8475,-0.0948],[112.8432,-0.0694],[112.8315,-0.0567],[112.8183,-0.0335],[112.8104,-0.0266],[112.8006,-0.0145],[112.8006,-0.0055],[112.796,0.0089],[112.7865,0.0192],[112.7742,0.0234],[112.7676,0.0294],[112.7668,0.053],[112.77,0.0688],[112.7757,0.0773],[112.7859,0.0881],[112.7872,0.1005],[112.7845,0.105],[112.8172,0.1464],[112.827,0.1613],[112.828,0.1651],[112.8277,0.1687],[112.8234,0.1734],[112.7768,0.2132],[112.7667,0.2279]]]}},{"type":"Feature","properties":{"name":"BuntutPurun","name_en":"BuntutPurun","admin_level":"7","osm_id":""},"geometry":{"type":"Polygon","coordinates":[[[112.9945,-0.4865],[112.9903,-0.4638],[112.9845,-0.4522],[112.9902,-0.443],[112.9997,-0.4353],[113.0122,-0.4202],[113.0278,-0.3951],[113.0278,-0.3915],[113.0174,-0.3672],[113.0132,-0.3511],[113.004,-0.3384],[112.9957,-0.3045],[112.9847,-0.2814],[112.9801,-0.2607],[113.0446,-0.2541],[113.0624,-0.249],[113.0746,-0.2437],[113.0825,-0.2374],[113.0881,-0.2295],[113.0955,-0.206],[113.1011,-0.194],[113.1067,-0.1899],[113.1164,-0.1893],[113.1258,-0.1909],[113.1308,-0.194],[113.1446,-0.2224],[113.1669,-0.2785],[113.1716,-0.2987],[113.177,-0.3122],[113.181,-0.3156],[113.1948,-0.318],[113.1983,-0.323],[113.1949,-0.3332],[113.1969,-0.3398],[113.2073,-0.3446],[113.2217,-0.347],[113.2297,-0.3643],[113.2383,-0.3701],[113.2462,-0.3789],[113.2594,-0.3856],[113.2631,-0.3902],[113.2624,-0.3955],[113.2589,-0.4],[113.2569,-0.408],[113.2669,-0.418],[113.2663,-0.431],[113.2635,-0.4377],[113.2458,-0.453],[113.2404,-0.4636],[113.2289,-0.4743],[113.2266,-0.4801],[113.2262,-0.4916],[113.2228,-0.4996],[113.2152,-0.5054],[113.2056,-0.5026],[113.1986,-0.4955],[113.1996,-0.4797],[113.1986,-0.4776],[113.1914,-0.4783],[113.1878,-0.4676],[113.1821,-0.4646],[113.165,-0.4696],[113.1579,-0.4699],[113.1545,-0.4654],[113.1539,-0.4531],[113.1505,-0.4474],[113.1421,-0.4431],[113.1304,-0.4498],[113.1249,-0.4571],[113.1214,-0.4656],[113.1126,-0.4743],[113.1114,-0.484],[113.1097,-0.4865],[113.095,-0.4843],[113.0616,-0.4989],[113.0532,-0.4976],[113.0398,-0.4869],[113.0354,-0.4859],[113.0297,-0.4849],[113.0228,-0.4861],[113.0034,-0.4938],[112.9981,-0.4928],[112.9945,-0.4865]]]}},{"type":"Feature","properties":{"name":"BuntutSabon","name_en":"BuntutSabon","admin_level":"7","osm_id":""},"geometry":{"type":"Polygon","coordinates":[[[112.9801,-0.2607],[112.9847,-0.2814],[112.9957,-0.3045],[113.004,-0.3384],[113.0132,-0.3511],[113.0174,-0.3672],[113.0278,-0.3915],[113.0278,-0.3951],[113.0122,-0.4202],[112.9997,-0.4353],[112.9902,-0.443],[112.9845,-0.4522],[112.9903,-0.4638],[112.9945,-0.4865],[112.9899,-0.4857],[112.9868,-0.4902],[112.981,-0.5054],[112.9766,-0.5099],[112.9607,-0.5111],[112.9464,-0.516],[112.9351,-0.5179],[112.9263,-0.5207],[112.9166,-0.5276],[112.8988,-0.5288],[112.8823,-0.5373],[112.8678,-0.5489],[112.8556,-0.5657],[112.8504,-0.5691],[112.8255,-0.5737],[112.8205,-0.5759],[112.8135,-0.5751],[112.8029,-0.5675],[112.7935,-0.5644],[112.8179,-0.536],[112.8296,-0.5294],[112.8446,-0.5126],[112.866,-0.5023],[112.872,-0.4953],[112.8738,-0.4906],[112.873,-0.481],[112.8702,-0.4777],[112.8538,-0.4701],[112.8538,-0.4617],[112.864,-0.4378],[112.8647,-0.4261],[112.8622,-0.4228],[112.854,-0.4221],[112.8476,-0.417],[112.8619,-0.4129],[112.8659,-0.4037],[112.8653,-0.3974],[112.8572,-0.3763],[112.8568,-0.3687],[112.8581,-0.3646],[112.8712,-0.3492],[112.8737,-0.3378],[112.8741,-0.3041],[112.8787,-0.2975],[112.8938,-0.2905],[112.9038,-0.2802],[112.9131,-0.2817],[112.9321,-0.2765],[112.9387,-0.2737],[112.9453,-0.2677],[112.9531,-0.2645],[112.9801,-0.2607]]]}},{"type":"Feature","properties":{"name":"KepalaJungai","name_en":"KepalaJungai","admin_level":"7","osm_id":""},"geometry":{"type":"Polygon","coordinates":[[[112.8838,0.2095],[112.9184,0.2066],[112.9486,0.1999],[112.9604,0.2004],[112.9659,0.2059],[112.9701,0.2248],[112.9618,0.2473],[112.9619,0.2567],[112.9695,0.2706],[112.9787,0.2809],[112.986,0.2926],[112.9912,0.2969],[113.0017,0.2989],[113.0122,0.3084],[113.036,0.3088],[113.0574,0.3174],[113.0616,0.3176],[113.0688,0.3115],[113.075,0.2997],[113.0821,0.2918],[113.0982,0.2873],[113.1025,0.2832],[113.104,0.2763],[113.1011,0.2599],[113.111,0.249],[113.1268,0.2423],[113.1331,0.242],[113.1402,0.2451],[113.1526,0.2574],[113.1616,0.2609],[113.1708,0.2619],[113.2048,0.2542],[113.2568,0.245],[113.273,0.2404],[113.2729,0.2339],[113.2762,0.2301],[113.2823,0.2284],[113.3254,0.1802],[113.3408,0.1674],[113.3592,0.1585],[113.3806,0.1539],[113.4137,0.1305],[113.4198,0.123],[113.4226,0.1158],[113.4143,0.108],[113.4125,0.1032],[113.4164,0.0765],[113.4105,0.0525],[113.4129,0.0436],[113.4402,0.0154],[113.4421,0.0116],[113.44,0.0067],[113.4365,0.0015],[113.4334,-0.0001],[113.4287,-0.0083],[113.4204,-0.0129],[113.4117,-0.0214],[113.3847,-0.0371],[113.3666,-0.0317],[113.3579,-0.032],[113.3102,-0.0425],[113.3024,-0.0425],[113.2813,-0.0336],[113.2737,-0.0278],[113.264,-0.0173],[113.2556,-0.0148],[113.2398,-0.002],[113.2283,0.0033],[113.2148,0.0173],[113.2066,0.0197],[113.1889,0.0182],[113.1728,0.0123],[113.1641,0.0108],[113.128,0.0121],[113.116,0.0096],[113.1021,-0.0024],[113.0956,-0.0166],[113.0947,-0.0287],[113.0924,-0.0356],[113.0883,-0.0399],[113.0739,-0.0448],[113.0639,-0.0452],[113.026,-0.0305],[113.001,-0.0316],[112.9951,-0.0351],[112.9938,-0.0378],[112.9601,-0.028],[112.9387,-0.0146],[112.9292,-0.0021],[112.9238,0.0363],[112.9126,0.0526],[112.904,0.0719],[112.9034,0.0842],[112.9077,0.0996],[112.9079,0.1101],[112.9028,0.122],[112.9021,0.1463],[112.8938,0.1693],[112.8972,0.1852],[112.8965,0.1915],[112.8951,0.1977],[112.8838,0.2095]]]}},{"type":"Feature","properties":{"name":"NangaAmbalau","name_en":"NangaAmbalau","admin_level":"7","osm_id":""},"geometry":{"type":"Polygon","coordinates":[[[112.7463,-0.2455],[112.74,-0.2412],[112.7364,-0.2263],[112.7094,-0.208],[112.6998,-0.2058],[112.6813,-0.2066],[112.6782,-0.2023],[112.6661,-0.2053],[112.6597,-0.2097],[112.6515,-0.2075],[112.6497,-0.2042],[112.6475,-0.1797],[112.6464,-0.176],[112.6404,-0.1691],[112.6346,-0.1568],[112.6346,-0.1431],[112.6446,-0.1335],[112.6585,-0.1134],[112.6624,-0.1053],[112.6601,-0.0959],[112.6733,-0.0843],[112.6832,-0.0784],[112.6938,-0.0784],[112.7009,-0.0831],[112.7138,-0.1049],[112.7201,-0.1085],[112.7291,-0.11],[112.746,-0.11],[112.7551,-0.1081],[112.772,-0.1013],[112.7963,-0.1045],[112.7975,-0.1136],[112.7851,-0.1539],[112.7749,-0.1613],[112.7623,-0.167],[112.7567,-0.1718],[112.7518,-0.1826],[112.7511,-0.1889],[112.7562,-0.2065],[112.7661,-0.2136],[112.7678,-0.2162],[112.7676,-0.2207],[112.7648,-0.2269],[112.7463,-0.2455]]]}},{"type":"Feature","properties":{"name":"NangaKemangai","name_en":"NangaKemangai","admin_level":"7","osm_id":""},"geometry":{"type":"Polygon","coordinates":[[[112.6813,-0.2066],[112.6998,-0.2058],[112.7094,-0.208],[112.7364,-0.2263],[112.74,-0.2412],[112.7463,-0.2455],[112.7463,-0.2594],[112.7333,-0.2632],[112.7208,-0.2798],[112.7155,-0.2835],[112.7076,-0.2799],[112.7012,-0.2733],[112.698,-0.266],[112.6965,-0.2532],[112.6879,-0.2386],[112.6847,-0.2126],[112.6813,-0.2066]]]}},{"type":"Feature","properties":{"name":"NangaKeremoi","name_en":"NangaKeremoi","admin_level":"7","osm_id":""},"geometry":{"type":"Polygon","coordinates":[[[112.7365,0.2171],[112.7515,0.2175],[112.7667,0.2279],[112.7768,0.2132],[112.7827,0.2073],[112.8128,0.1829],[112.8277,0.1687],[112.827,0.1613],[112.8205,0.151],[112.7845,0.105],[112.7872,0.1005],[112.7872,0.0925],[112.7859,0.0881],[112.7757,0.0773],[112.77,0.0688],[112.7668,0.053],[112.7668,0.0366],[112.7676,0.0294],[112.7742,0.0234],[112.7865,0.0192],[112.796,0.0089],[112.8006,-0.0055],[112.8006,-0.0145],[112.8104,-0.0266],[112.8183,-0.0335],[112.8315,-0.0567],[112.8432,-0.0694],[112.8475,-0.0948],[112.852,-0.103],[112.8373,-0.1188],[112.8019,-0.1376],[112.7851,-0.1539],[112.7975,-0.1136],[112.7956,-0.0883],[112.8087,-0.0754],[112.8114,-0.0658],[112.81,-0.0539],[112.8036,-0.0428],[112.7981,-0.0387],[112.7903,-0.0351],[112.7838,-0.0354],[112.7718,-0.0329],[112.7603,-0.023],[112.7342,0.0311],[112.7279,0.04],[112.7175,0.0504],[112.7098,0.0543],[112.7059,0.0589],[112.7,0.0785],[112.6991,0.1083],[112.6954,0.127],[112.6857,0.1529],[112.6825,0.1702],[112.6844,0.2228],[112.6915,0.2409],[112.7018,0.2379],[112.7175,0.2265],[112.7365,0.2171]]]}},{"type":"Feature","properties":{"name":"NangaKesange","name_en":"NangaKesange","admin_level":"7","osm_id":""},"geometry":{"type":"Polygon","coordinates":[[[112.9038,-0.2802],[112.8938,-0.2905],[112.8787,-0.2975],[112.8741,-0.3041],[112.8737,-0.3378],[112.8712,-0.3492],[112.8581,-0.3646],[112.8568,-0.3687],[112.8572,-0.3763],[112.8653,-0.3974],[112.8659,-0.4037],[112.8619,-0.4129],[112.8476,-0.417],[112.8472,-0.4079],[112.8447,-0.4053],[112.8351,-0.4071],[112.8273,-0.4108],[112.8105,-0.4064],[112.7962,-0.3977],[112.7927,-0.3896],[112.7944,-0.3812],[112.8094,-0.3607],[112.8058,-0.3519],[112.7922,-0.3428],[112.7872,-0.3373],[112.7847,-0.3296],[112.785,-0.3256],[112.7946,-0.3065],[112.8089,-0.2915],[112.8089,-0.2875],[112.8085,-0.2827],[112.8039,-0.2758],[112.796,-0.2758],[112.7885,-0.2781],[112.7929,-0.2674],[112.8012,-0.269],[112.8129,-0.2663],[112.8323,-0.2393],[112.8437,-0.2368],[112.8526,-0.2388],[112.8689,-0.2382],[112.8789,-0.236],[112.9037,-0.223],[112.9148,-0.2188],[112.9279,-0.2164],[112.9064,-0.2425],[112.9038,-0.2802]]]}},{"type":"Feature","properties":{"name":"NangaMenakon","name_en":"NangaMenakon","admin_level":"7","osm_id":""},"geometry":{"type":"Polygon","coordinates":[[[112.9801,-0.2607],[112.9531,-0.2645],[112.9453,-0.2677],[112.9387,-0.2737],[112.9321,-0.2765],[112.9131,-0.2817],[112.9038,-0.2802],[112.9064,-0.2425],[112.9148,-0.2318],[112.9395,-0.2029],[112.9539,-0.1944],[112.968,-0.1915],[112.9818,-0.1824],[112.9865,-0.2008],[112.9876,-0.2166],[112.9851,-0.2301],[112.9785,-0.2345],[112.974,-0.2445],[112.9746,-0.2508],[112.9801,-0.2607]]]}},{"type":"Feature","properties":{"name":"NangaMenantak","name_en":"NangaMenantak","admin_level":"7","osm_id":""},"geometry":{"type":"Polygon","coordinates":[[[113.2073,-0.3446],[113.1969,-0.3398],[113.1949,-0.3332],[113.1983,-0.323],[113.1948,-0.318],[113.181,-0.3156],[113.177,-0.3122],[113.1716,-0.2987],[113.1669,-0.2785],[113.1446,-0.2224],[113.1308,-0.194],[113.1258,-0.1909],[113.1164,-0.1893],[113.1067,-0.1899],[113.1011,-0.194],[113.0955,-0.206],[113.0881,-0.2295],[113.0825,-0.2374],[113.0746,-0.2437],[113.0624,-0.249],[113.0446,-0.2541],[112.9801,-0.2607],[112.9746,-0.2508],[112.974,-0.2445],[112.9785,-0.2345],[112.9851,-0.2301],[112.9876,-0.2166],[112.9865,-0.2008],[112.9818,-0.1824],[112.989,-0.1729],[113.0018,-0.1679],[113.0084,-0.1622],[113.0131,-0.1565],[113.0187,-0.1449],[113.0209,-0.1316],[113.0164,-0.1012],[113.0173,-0.0927],[113.0211,-0.0838],[113.0255,-0.0779],[113.0392,-0.0719],[113.0489,-0.063],[113.0521,-0.0552],[113.0519,-0.0412],[113.0639,-0.0452],[113.0689,-0.0453],[113.0883,-0.0399],[113.0924,-0.0356],[113.0947,-0.0287],[113.0956,-0.0166],[113.1021,-0.0024],[113.116,0.0096],[113.1216,0.0113],[113.1641,0.0108],[113.1728,0.0123],[113.1889,0.0182],[113.2104,0.0194],[113.2148,0.0173],[113.2283,0.0033],[113.2398,-0.002],[113.2556,-0.0148],[113.264,-0.0173],[113.2737,-0.0278],[113.2813,-0.0336],[113.3024,-0.0425],[113.3102,-0.0425],[113.3579,-0.032],[113.3666,-0.0317],[113.3847,-0.0371],[113.4117,-0.0214],[113.4204,-0.0129],[113.4287,-0.0083],[113.4274,-0.0166],[113.4288,-0.0294],[113.4201,-0.0351],[113.4165,-0.0411],[113.4165,-0.0473],[113.4192,-0.0504],[113.4346,-0.0529],[113.438,-0.0577],[113.4399,-0.0709],[113.4363,-0.0775],[113.4235,-0.0919],[113.4212,-0.0981],[113.422,-0.1116],[113.4202,-0.1152],[113.4164,-0.1185],[113.4011,-0.119],[113.3973,-0.1226],[113.3964,-0.127],[113.3969,-0.1297],[113.4002,-0.132],[113.4147,-0.1346],[113.4194,-0.1365],[113.4211,-0.139],[113.4133,-0.1562],[113.4101,-0.1608],[113.406,-0.1625],[113.3982,-0.1603],[113.3931,-0.161],[113.3866,-0.1656],[113.3857,-0.1699],[113.3872,-0.1796],[113.3854,-0.1861],[113.373,-0.1936],[113.3523,-0.2213],[113.3377,-0.2255],[113.3236,-0.2348],[113.3154,-0.2365],[113.292,-0.2376],[113.2877,-0.2404],[113.2782,-0.2517],[113.2756,-0.2653],[113.271,-0.2704],[113.2604,-0.2715],[113.2552,-0.2744],[113.2444,-0.2876],[113.2391,-0.2916],[113.2348,-0.2976],[113.2257,-0.3289],[113.2179,-0.334],[113.2108,-0.3348],[113.207,-0.338],[113.2058,-0.3422],[113.2073,-0.3446]]]}},{"type":"Feature","properties":{"name":"NangaSakai","name_en":"NangaSakai","admin_level":"7","osm_id":""},"geometry":{"type":"Polygon","coordinates":[[[112.852,-0.103],[112.86,-0.0944],[112.8751,-0.0862],[112.8871,-0.0759],[112.9113,-0.0684],[112.9202,-0.0672],[112.943,-0.0696],[112.9584,-0.0667],[112.9704,-0.0608],[112.9947,-0.0591],[112.9973,-0.0573],[112.9977,-0.0547],[112.997,-0.0496],[112.9932,-0.0415],[112.9938,-0.0378],[112.9951,-0.0351],[113.001,-0.0316],[113.026,-0.0305],[113.0519,-0.0412],[113.0521,-0.0552],[113.0489,-0.063],[113.0392,-0.0719],[113.0255,-0.0779],[113.0173,-0.0927],[113.0164,-0.1012],[113.0209,-0.1316],[113.0187,-0.1449],[113.0131,-0.1565],[113.0018,-0.1679],[112.989,-0.1729],[112.9818,-0.1824],[112.9752,-0.1874],[112.968,-0.1915],[112.9539,-0.1944],[112.9395,-0.2029],[112.9279,-0.2164],[112.9148,-0.2188],[112.9037,-0.223],[112.8789,-0.236],[112.8689,-0.2382],[112.8526,-0.2388],[112.8437,-0.2368],[112.8323,-0.2393],[112.8129,-0.2663],[112.8012,-0.269],[112.7929,-0.2674],[112.7885,-0.2781],[112.7853,-0.2794],[112.7661,-0.278],[112.754,-0.282],[112.7368,-0.2846],[112.7155,-0.2835],[112.7208,-0.2798],[112.7333,-0.2632],[112.7463,-0.2594],[112.7463,-0.2455],[112.7663,-0.2248],[112.7678,-0.2162],[112.7562,-0.2065],[112.7511,-0.1889],[112.7518,-0.1826],[112.7567,-0.1718],[112.7623,-0.167],[112.7749,-0.1613],[112.7886,-0.1513],[112.8019,-0.1376],[112.8373,-0.1188],[112.852,-0.103]]]}},{"type":"Feature","properties":{"name":"NangaSake","name_en":"NangaSake","admin_level":"7","osm_id":""},"geometry":{"type":"Polygon","coordinates":[[[112.7963,-0.1045],[112.772,-0.1013],[112.7551,-0.1081],[112.746,-0.11],[112.7291,-0.11],[112.7201,-0.1085],[112.7138,-0.1049],[112.7009,-0.0831],[112.6938,-0.0784],[112.7064,-0.0717],[112.7095,-0.0539],[112.7142,-0.0459],[112.7323,-0.0424],[112.7398,-0.0301],[112.7445,-0.0254],[112.7603,-0.023],[112.7718,-0.0329],[112.7838,-0.0354],[112.7903,-0.0351],[112.7981,-0.0387],[112.8036,-0.0428],[112.81,-0.0539],[112.8114,-0.0658],[112.8087,-0.0754],[112.7956,-0.0883],[112.7963,-0.1045]]]}},{"type":"Feature","properties":{"name":"TanjungAndan","name_en":"TanjungAndan","admin_level":"7","osm_id":""},"geometry":{"type":"Polygon","coordinates":[[[112.5217,0.1837],[112.5354,0.1795],[112.5411,0.1798],[112.5469,0.1914],[112.5496,0.1932],[112.5655,0.2024],[112.575,0.2012],[112.5822,0.188],[112.589,0.1814],[112.6064,0.1525],[112.6143,0.1476],[112.6191,0.1481],[112.6405,0.1613],[112.6463,0.1668],[112.6486,0.1717],[112.6448,0.1807],[112.6281,0.199],[112.6282,0.2047],[112.6322,0.2114],[112.6408,0.2176],[112.6609,0.2277],[112.677,0.2389],[112.6832,0.241],[112.6915,0.2409],[112.6844,0.2228],[112.6825,0.1702],[112.6857,0.1529],[112.6954,0.127],[112.6991,0.1083],[112.7,0.0785],[112.7022,0.0676],[112.7059,0.0589],[112.7098,0.0543],[112.7175,0.0504],[112.7279,0.04],[112.7342,0.0311],[112.7603,-0.023],[112.7445,-0.0254],[112.7398,-0.0301],[112.7323,-0.0424],[112.7142,-0.0459],[112.7095,-0.0539],[112.7064,-0.0717],[112.6938,-0.0784],[112.6832,-0.0784],[112.6777,-0.0812],[112.6601,-0.0959],[112.6553,-0.0798],[112.6488,-0.0727],[112.6459,-0.0647],[112.6316,-0.0563],[112.6173,-0.0523],[112.5974,-0.0542],[112.5881,-0.052],[112.5767,-0.0373],[112.5599,-0.0289],[112.5474,-0.0286],[112.5389,-0.0312],[112.5079,-0.0572],[112.4961,-0.055],[112.4919,-0.0517],[112.489,-0.0488],[112.4883,-0.0444],[112.4893,-0.0361],[112.4868,-0.0208],[112.493,0.0003],[112.5011,0.0093],[112.5011,0.0175],[112.4995,0.0234],[112.4856,0.0441],[112.4825,0.0529],[112.4734,0.0648],[112.4704,0.0887],[112.472,0.1216],[112.4737,0.1311],[112.4997,0.1211],[112.51,0.1188],[112.5133,0.1192],[112.5151,0.1212],[112.5142,0.1312],[112.5065,0.1431],[112.505,0.1527],[112.5131,0.1721],[112.5217,0.1837]]]}}]}