{"type":"FeatureCollection","metadata":{"parent_osm_id":"10621599","parent_name":"Siding","parent_name_1":"KalimantanBarat","parent_gid":"IDN.12.1.11_1","parent_level":"6","child_level":"7","count":8,"source":"GADM 4.1","generated":"2026-05-07"},"features":[{"type":"Feature","properties":{"name":"LhiBuie","name_en":"LhiBuie","admin_level":"7","osm_id":""},"geometry":{"type":"Polygon","coordinates":[[[109.9033,1.2988],[109.9468,1.3339],[109.9598,1.3422],[109.9647,1.3434],[109.9753,1.3048],[109.9809,1.2961],[109.9864,1.294],[109.9981,1.2955],[110.0039,1.2947],[110.0208,1.2815],[110.0304,1.2768],[110.0188,1.2592],[109.9837,1.2227],[109.9395,1.237],[109.8841,1.2777],[109.9033,1.2988]]]}},{"type":"Feature","properties":{"name":"Siding","name_en":"Siding","admin_level":"7","osm_id":""},"geometry":{"type":"Polygon","coordinates":[[[109.9837,1.2227],[110.0188,1.2592],[110.0304,1.2768],[110.0373,1.2735],[110.0429,1.2664],[110.0464,1.2644],[110.0538,1.2666],[110.0569,1.2654],[110.0615,1.2591],[110.0646,1.2494],[110.0652,1.2393],[110.0609,1.232],[110.0423,1.2152],[110.0399,1.2073],[110.0413,1.2047],[110.0683,1.2098],[110.0817,1.2157],[110.0837,1.215],[110.0936,1.1985],[110.1072,1.1952],[110.1321,1.1966],[110.1283,1.1946],[110.1222,1.1753],[110.1062,1.1587],[110.1023,1.1517],[110.0989,1.1486],[110.0879,1.1461],[110.0394,1.1736],[109.9934,1.2196],[109.9837,1.2227]]]}},{"type":"Feature","properties":{"name":"SinjangPermai","name_en":"SinjangPermai","admin_level":"7","osm_id":""},"geometry":{"type":"Polygon","coordinates":[[[109.9046,1.1347],[109.9177,1.1551],[109.9211,1.1691],[109.9187,1.1702],[109.9837,1.2227],[109.9934,1.2196],[110.0394,1.1736],[110.0879,1.1461],[110.0821,1.1448],[110.0765,1.14],[110.0716,1.1313],[110.02,1.1416],[110.0005,1.1419],[109.9869,1.1374],[109.9692,1.1214],[109.9762,1.1002],[109.9917,1.0819],[109.9938,1.0716],[109.98,1.0704],[109.9636,1.0717],[109.9574,1.0706],[109.9535,1.0776],[109.9381,1.09],[109.9348,1.1038],[109.9328,1.1253],[109.9233,1.1295],[109.9092,1.1321],[109.9046,1.1347]]]}},{"type":"Feature","properties":{"name":"SungkungI","name_en":"SungkungI","admin_level":"7","osm_id":""},"geometry":{"type":"Polygon","coordinates":[[[109.9574,1.0706],[109.9938,1.0716],[109.9917,1.0819],[109.9762,1.1002],[109.9692,1.1214],[109.9869,1.1374],[109.9909,1.1387],[110.0251,1.0959],[110.0499,1.034],[110.0431,1.0283],[110.04,1.0211],[110.0374,1.0192],[110.0351,1.0203],[110.0328,1.0256],[110.0223,1.0221],[110.0104,1.024],[110.0036,1.0268],[109.9961,1.0262],[109.9881,1.0293],[109.9826,1.0294],[109.9807,1.0305],[109.9793,1.0354],[109.9574,1.0706]]]}},{"type":"Feature","properties":{"name":"SungkungIi","name_en":"SungkungIi","admin_level":"7","osm_id":""},"geometry":{"type":"Polygon","coordinates":[[[109.9909,1.1387],[110.0005,1.1419],[110.02,1.1416],[110.0716,1.1313],[110.0724,1.1195],[110.0789,1.1096],[110.0863,1.1056],[110.1047,1.1038],[110.1174,1.0936],[110.1265,1.0904],[110.1296,1.0872],[110.1283,1.0814],[110.1152,1.074],[110.1123,1.064],[110.1154,1.0555],[110.1281,1.0435],[110.1379,1.0316],[110.1358,1.025],[110.132,1.0214],[110.126,1.0191],[110.116,1.0207],[110.1063,1.0202],[110.0993,1.022],[110.0937,1.0198],[110.0919,1.0207],[110.0925,1.0268],[110.0899,1.0288],[110.069,1.0326],[110.056,1.0369],[110.0499,1.034],[110.0251,1.0959],[109.9909,1.1387]]]}},{"type":"Feature","properties":{"name":"Tamong","name_en":"Tamong","admin_level":"7","osm_id":""},"geometry":{"type":"Polygon","coordinates":[[[109.8284,1.0605],[109.8336,1.0698],[109.8464,1.082],[109.8565,1.0948],[109.8579,1.0986],[109.9141,1.0705],[109.9244,1.0517],[109.9124,1.0375],[109.8974,1.0429],[109.8391,1.0557],[109.8284,1.0605]]]}},{"type":"Feature","properties":{"name":"Tangguh","name_en":"Tangguh","admin_level":"7","osm_id":""},"geometry":{"type":"Polygon","coordinates":[[[109.871,1.2573],[109.8748,1.2661],[109.8841,1.2777],[109.9395,1.237],[109.9837,1.2227],[109.9187,1.1702],[109.915,1.172],[109.8748,1.1709],[109.8619,1.1774],[109.8547,1.1951],[109.8569,1.2103],[109.871,1.2573]]]}},{"type":"Feature","properties":{"name":"Tawang","name_en":"Tawang","admin_level":"7","osm_id":""},"geometry":{"type":"Polygon","coordinates":[[[109.8579,1.0986],[109.8631,1.1136],[109.8636,1.1322],[109.871,1.1401],[109.8952,1.1287],[109.9046,1.1347],[109.9092,1.1321],[109.9233,1.1295],[109.9328,1.1253],[109.9348,1.1038],[109.9381,1.09],[109.9535,1.0776],[109.9793,1.0354],[109.9639,1.031],[109.9557,1.0329],[109.9312,1.0527],[109.9276,1.0535],[109.9244,1.0517],[109.9141,1.0705],[109.8579,1.0986]]]}}]}