{"type":"FeatureCollection","metadata":{"parent_osm_id":"10621265","parent_name":"Jelimpo","parent_name_1":"KalimantanBarat","parent_gid":"IDN.12.7.3_1","parent_level":"6","child_level":"7","count":13,"source":"GADM 4.1","generated":"2026-05-07"},"features":[{"type":"Feature","properties":{"name":"AnganTembawang","name_en":"AnganTembawang","admin_level":"7","osm_id":""},"geometry":{"type":"Polygon","coordinates":[[[110.0771,0.2693],[110.0829,0.2678],[110.1428,0.2685],[110.1415,0.2618],[110.129,0.2491],[110.1293,0.2432],[110.1349,0.224],[110.1322,0.2187],[110.1206,0.2128],[110.1159,0.2086],[110.111,0.2099],[110.1055,0.218],[110.1037,0.2184],[110.0977,0.2189],[110.0934,0.2173],[110.0876,0.2106],[110.0827,0.2148],[110.0758,0.2174],[110.0683,0.2176],[110.0651,0.2308],[110.0651,0.2463],[110.0684,0.2566],[110.0771,0.2693]]]}},{"type":"Feature","properties":{"name":"BalaiPeluntan","name_en":"BalaiPeluntan","admin_level":"7","osm_id":""},"geometry":{"type":"Polygon","coordinates":[[[109.9944,0.2411],[109.9977,0.2458],[110.0005,0.2471],[110.0047,0.242],[110.016,0.2372],[110.0141,0.2317],[110.001,0.2168],[109.9776,0.1985],[109.9702,0.1945],[109.9617,0.2093],[109.9631,0.2238],[109.9678,0.2299],[109.9734,0.2317],[109.9921,0.2332],[109.9944,0.2411]]]}},{"type":"Feature","properties":{"name":"DaraItamI","name_en":"DaraItamI","admin_level":"7","osm_id":""},"geometry":{"type":"Polygon","coordinates":[[[110.0331,0.2178],[110.0258,0.2093],[110.0202,0.1971],[110.022,0.1882],[110.0314,0.1798],[110.0298,0.1767],[110.0137,0.1682],[109.9973,0.1649],[109.9884,0.1653],[109.9851,0.1798],[109.9702,0.1945],[109.9776,0.1985],[110.001,0.2168],[110.0141,0.2317],[110.016,0.2372],[110.0216,0.236],[110.022,0.2313],[110.0291,0.22],[110.0331,0.2178]]]}},{"type":"Feature","properties":{"name":"Jelimpo","name_en":"Jelimpo","admin_level":"7","osm_id":""},"geometry":{"type":"Polygon","coordinates":[[[110.1352,0.2999],[110.1283,0.2987],[110.1143,0.302],[110.1063,0.3099],[110.1011,0.3104],[110.0937,0.3094],[110.0876,0.3034],[110.0801,0.301],[110.0589,0.3014],[110.0529,0.324],[110.0525,0.3375],[110.0548,0.3586],[110.0609,0.3623],[110.0635,0.3672],[110.0703,0.3623],[110.0773,0.3534],[110.0782,0.3497],[110.081,0.3478],[110.0852,0.3483],[110.0918,0.353],[110.0969,0.352],[110.1007,0.346],[110.1264,0.346],[110.1409,0.338],[110.1439,0.3345],[110.1375,0.331],[110.1327,0.3216],[110.1324,0.3127],[110.1352,0.2999]]]}},{"type":"Feature","properties":{"name":"KayuAra","name_en":"KayuAra","admin_level":"7","osm_id":""},"geometry":{"type":"Polygon","coordinates":[[[110.1428,0.2685],[110.0829,0.2678],[110.0773,0.2692],[110.0693,0.2739],[110.0574,0.2844],[110.0589,0.3014],[110.0801,0.301],[110.0876,0.3034],[110.0937,0.3094],[110.1011,0.3104],[110.1063,0.3099],[110.1143,0.302],[110.1283,0.2987],[110.1352,0.2999],[110.1428,0.2685]]]}},{"type":"Feature","properties":{"name":"KersikBelantian","name_en":"KersikBelantian","admin_level":"7","osm_id":""},"geometry":{"type":"Polygon","coordinates":[[[110.0932,0.4421],[110.0806,0.4508],[110.0691,0.4618],[110.0796,0.4822],[110.081,0.4976],[110.0787,0.5093],[110.0796,0.5404],[110.0997,0.5436],[110.1163,0.5576],[110.1208,0.5481],[110.1292,0.5374],[110.14,0.5285],[110.1503,0.5233],[110.1643,0.5102],[110.1681,0.5042],[110.1685,0.4877],[110.154,0.4793],[110.1372,0.4634],[110.126,0.4564],[110.1143,0.4541],[110.0932,0.4421]]]}},{"type":"Feature","properties":{"name":"MandorKiru","name_en":"MandorKiru","admin_level":"7","osm_id":""},"geometry":{"type":"Polygon","coordinates":[[[110.1439,0.3345],[110.1339,0.3427],[110.1264,0.346],[110.1007,0.346],[110.0969,0.352],[110.0918,0.353],[110.0852,0.3483],[110.081,0.3478],[110.0782,0.3497],[110.0773,0.3534],[110.0703,0.3623],[110.0635,0.3672],[110.0628,0.3726],[110.0604,0.3733],[110.1091,0.3928],[110.1143,0.396],[110.1339,0.3988],[110.1503,0.3956],[110.1582,0.3885],[110.1624,0.3819],[110.1539,0.3788],[110.1501,0.3716],[110.1486,0.3627],[110.1447,0.3569],[110.145,0.3497],[110.1487,0.3396],[110.1439,0.3345]]]}},{"type":"Feature","properties":{"name":"Nyiin","name_en":"Nyiin","admin_level":"7","osm_id":""},"geometry":{"type":"Polygon","coordinates":[[[110.0692,0.4616],[110.0806,0.4508],[110.0932,0.4421],[110.089,0.4335],[110.0904,0.4241],[110.088,0.418],[110.0782,0.4068],[110.0703,0.4007],[110.051,0.3802],[110.0464,0.3848],[110.045,0.3904],[110.0412,0.3928],[110.0356,0.3909],[110.0295,0.3914],[110.0248,0.3965],[110.0244,0.4054],[110.0553,0.4344],[110.0692,0.4616]]]}},{"type":"Feature","properties":{"name":"Papung","name_en":"Papung","admin_level":"7","osm_id":""},"geometry":{"type":"Polygon","coordinates":[[[110.1544,0.3915],[110.1503,0.3956],[110.1339,0.3988],[110.1255,0.3984],[110.1143,0.396],[110.1091,0.3928],[110.0604,0.3733],[110.0552,0.3747],[110.051,0.3802],[110.0703,0.4007],[110.0782,0.4068],[110.088,0.418],[110.0902,0.4238],[110.1208,0.4157],[110.1517,0.4129],[110.1597,0.4073],[110.1601,0.4016],[110.1544,0.3915]]]}},{"type":"Feature","properties":{"name":"PawisHilir","name_en":"PawisHilir","admin_level":"7","osm_id":""},"geometry":{"type":"Polygon","coordinates":[[[110.0771,0.2693],[110.0684,0.2566],[110.0651,0.2463],[110.0651,0.2308],[110.0683,0.2176],[110.0609,0.215],[110.0538,0.2156],[110.0472,0.2104],[110.0291,0.22],[110.022,0.2313],[110.0216,0.236],[110.0132,0.2378],[110.0047,0.242],[110.0005,0.2471],[110.0174,0.2575],[110.0192,0.2655],[110.0167,0.2845],[110.0571,0.2846],[110.0693,0.2739],[110.0771,0.2693]]]}},{"type":"Feature","properties":{"name":"Sekais","name_en":"Sekais","admin_level":"7","osm_id":""},"geometry":{"type":"Polygon","coordinates":[[[110.0932,0.4421],[110.1143,0.4541],[110.126,0.4564],[110.1372,0.4634],[110.154,0.4793],[110.1704,0.4887],[110.1807,0.4873],[110.1868,0.4843],[110.1855,0.4737],[110.181,0.4662],[110.173,0.4635],[110.1618,0.4541],[110.1594,0.4502],[110.1601,0.4431],[110.1742,0.4332],[110.1857,0.4274],[110.1917,0.4272],[110.1948,0.4293],[110.2091,0.4265],[110.212,0.4224],[110.2125,0.418],[110.2096,0.413],[110.203,0.4114],[110.1978,0.4071],[110.1909,0.3854],[110.1885,0.3823],[110.181,0.3792],[110.1709,0.3836],[110.1624,0.3819],[110.1582,0.3885],[110.1544,0.3915],[110.1601,0.4016],[110.1597,0.4073],[110.1517,0.4129],[110.1208,0.4157],[110.0902,0.4238],[110.089,0.4335],[110.0932,0.4421]]]}},{"type":"Feature","properties":{"name":"Temahar","name_en":"Temahar","admin_level":"7","osm_id":""},"geometry":{"type":"Polygon","coordinates":[[[110.1685,0.4877],[110.1681,0.5042],[110.1643,0.5102],[110.1503,0.5233],[110.14,0.5285],[110.1292,0.5374],[110.1208,0.5481],[110.1163,0.5576],[110.1324,0.5665],[110.1471,0.5701],[110.1645,0.5695],[110.2078,0.5607],[110.2124,0.5617],[110.2216,0.5691],[110.2353,0.5736],[110.2429,0.5744],[110.2531,0.5729],[110.2552,0.5633],[110.2541,0.5572],[110.2564,0.5498],[110.2555,0.5482],[110.2393,0.5398],[110.2175,0.5369],[110.2004,0.5269],[110.2036,0.5063],[110.2076,0.4975],[110.2073,0.4837],[110.2057,0.4817],[110.2015,0.4795],[110.1962,0.4795],[110.191,0.4849],[110.1868,0.4843],[110.1807,0.4873],[110.1704,0.4887],[110.1685,0.4877]]]}},{"type":"Feature","properties":{"name":"TubangRaeng","name_en":"TubangRaeng","admin_level":"7","osm_id":""},"geometry":{"type":"Polygon","coordinates":[[[110.0533,0.3511],[110.0529,0.324],[110.0595,0.2982],[110.0574,0.2844],[110.0167,0.2845],[110.0052,0.3511],[110.0132,0.3534],[110.0262,0.3662],[110.0492,0.3511],[110.0533,0.3511]]]}}]}