{"type":"FeatureCollection","metadata":{"parent_osm_id":"10713059","parent_name":"Gelumbang","parent_name_1":"SumateraSelatan","parent_gid":"IDN.31.5.3_1","parent_level":"6","child_level":"7","count":23,"source":"GADM 4.1","generated":"2026-05-08"},"features":[{"type":"Feature","properties":{"name":"Betung","name_en":"Betung","admin_level":"7","osm_id":""},"geometry":{"type":"Polygon","coordinates":[[[104.3646,-3.2098],[104.3645,-3.2129],[104.333,-3.1953],[104.3335,-3.1864],[104.3359,-3.1802],[104.3649,-3.1979],[104.3646,-3.2098]]]}},{"type":"Feature","properties":{"name":"Bitis","name_en":"Bitis","admin_level":"7","osm_id":""},"geometry":{"type":"Polygon","coordinates":[[[104.4395,-3.2365],[104.4401,-3.2386],[104.4224,-3.2253],[104.4007,-3.2127],[104.4024,-3.1952],[104.4282,-3.1956],[104.4306,-3.1928],[104.4752,-3.1994],[104.478,-3.2097],[104.4559,-3.2076],[104.4453,-3.2137],[104.4376,-3.2294],[104.4395,-3.2365]]]}},{"type":"Feature","properties":{"name":"GaungTelang","name_en":"GaungTelang","admin_level":"7","osm_id":""},"geometry":{"type":"Polygon","coordinates":[[[104.3216,-3.2916],[104.3418,-3.2923],[104.3594,-3.2956],[104.3652,-3.3003],[104.3663,-3.3051],[104.3731,-3.307],[104.3699,-3.3281],[104.3495,-3.323],[104.3351,-3.3252],[104.3196,-3.3325],[104.3123,-3.3309],[104.3053,-3.3248],[104.2993,-3.3165],[104.3043,-3.311],[104.3048,-3.3049],[104.3135,-3.3007],[104.3102,-3.2949],[104.3216,-3.2916]]]}},{"type":"Feature","properties":{"name":"Gelumbang","name_en":"Gelumbang","admin_level":"7","osm_id":""},"geometry":{"type":"Polygon","coordinates":[[[104.4225,-3.2254],[104.4401,-3.2386],[104.4395,-3.2365],[104.4501,-3.2328],[104.4535,-3.2281],[104.4567,-3.227],[104.4703,-3.2284],[104.4739,-3.2302],[104.4722,-3.2509],[104.4589,-3.2721],[104.4047,-3.2433],[104.4225,-3.2254]]]}},{"type":"Feature","properties":{"name":"Gumai","name_en":"Gumai","admin_level":"7","osm_id":""},"geometry":{"type":"Polygon","coordinates":[[[104.4752,-3.1994],[104.4306,-3.1928],[104.4282,-3.1956],[104.3993,-3.1951],[104.4061,-3.1814],[104.402,-3.0863],[104.4279,-3.0892],[104.4461,-3.0886],[104.4752,-3.1994]]]}},{"type":"Feature","properties":{"name":"Jambu","name_en":"Jambu","admin_level":"7","osm_id":""},"geometry":{"type":"Polygon","coordinates":[[[104.3526,-3.2937],[104.3418,-3.2923],[104.3216,-3.2916],[104.3322,-3.2795],[104.3478,-3.2662],[104.3648,-3.2781],[104.3526,-3.2937]]]}},{"type":"Feature","properties":{"name":"KarangEndah","name_en":"KarangEndah","admin_level":"7","osm_id":""},"geometry":{"type":"Polygon","coordinates":[[[104.3731,-3.307],[104.3663,-3.3051],[104.3652,-3.3003],[104.3594,-3.2956],[104.3526,-3.2937],[104.3648,-3.2781],[104.3719,-3.2841],[104.3787,-3.2754],[104.3867,-3.2689],[104.3953,-3.266],[104.435,-3.2815],[104.441,-3.2812],[104.4477,-3.2841],[104.4565,-3.2942],[104.4488,-3.2976],[104.4376,-3.2998],[104.4197,-3.3172],[104.3873,-3.307],[104.3825,-3.3097],[104.3731,-3.307]]]}},{"type":"Feature","properties":{"name":"KarangEndahSelatan","name_en":"KarangEndahSelatan","admin_level":"7","osm_id":""},"geometry":{"type":"Polygon","coordinates":[[[104.3699,-3.3281],[104.3731,-3.307],[104.3825,-3.3097],[104.3873,-3.307],[104.4197,-3.3172],[104.4039,-3.3366],[104.387,-3.3344],[104.3699,-3.3281]]]}},{"type":"Feature","properties":{"name":"Kartamulia","name_en":"Kartamulia","admin_level":"7","osm_id":""},"geometry":{"type":"Polygon","coordinates":[[[104.333,-3.1953],[104.3645,-3.2129],[104.3646,-3.2098],[104.3923,-3.2209],[104.3885,-3.2247],[104.3674,-3.234],[104.3365,-3.2136],[104.337,-3.2074],[104.333,-3.1953]]]}},{"type":"Feature","properties":{"name":"Melilian","name_en":"Melilian","admin_level":"7","osm_id":""},"geometry":{"type":"Polygon","coordinates":[[[104.3216,-3.2916],[104.3102,-3.2949],[104.3135,-3.3007],[104.3048,-3.3049],[104.3043,-3.311],[104.2993,-3.3165],[104.2914,-3.3056],[104.2849,-3.3027],[104.257,-3.3054],[104.2422,-3.2961],[104.2387,-3.2892],[104.247,-3.2886],[104.2653,-3.2783],[104.2694,-3.2743],[104.3216,-3.2916]]]}},{"type":"Feature","properties":{"name":"Midar","name_en":"Midar","admin_level":"7","osm_id":""},"geometry":{"type":"Polygon","coordinates":[[[104.3648,-3.2781],[104.3558,-3.2707],[104.3338,-3.2598],[104.3498,-3.2526],[104.3674,-3.234],[104.3974,-3.2461],[104.3986,-3.2615],[104.3953,-3.266],[104.3867,-3.2689],[104.3787,-3.2754],[104.3719,-3.2841],[104.3648,-3.2781]]]}},{"type":"Feature","properties":{"name":"PayaBakal","name_en":"PayaBakal","admin_level":"7","osm_id":""},"geometry":{"type":"Polygon","coordinates":[[[104.4007,-3.2127],[104.4225,-3.2254],[104.4047,-3.2433],[104.3974,-3.2461],[104.3674,-3.234],[104.3885,-3.2247],[104.4007,-3.2127]]]}},{"type":"Feature","properties":{"name":"Pedataran","name_en":"Pedataran","admin_level":"7","osm_id":""},"geometry":{"type":"Polygon","coordinates":[[[104.3478,-3.2662],[104.3322,-3.2795],[104.3216,-3.2916],[104.2694,-3.2743],[104.3041,-3.2458],[104.3478,-3.2662]]]}},{"type":"Feature","properties":{"name":"PinangBanjar","name_en":"PinangBanjar","admin_level":"7","osm_id":""},"geometry":{"type":"Polygon","coordinates":[[[104.4921,-3.3285],[104.4927,-3.3114],[104.4863,-3.3018],[104.489,-3.2908],[104.4879,-3.2848],[104.4834,-3.2799],[104.4937,-3.2672],[104.5,-3.2798],[104.5012,-3.3022],[104.5035,-3.3074],[104.5167,-3.3119],[104.5103,-3.3499],[104.4986,-3.344],[104.4921,-3.3285]]]}},{"type":"Feature","properties":{"name":"Putak","name_en":"Putak","admin_level":"7","osm_id":""},"geometry":{"type":"Polygon","coordinates":[[[104.478,-3.2097],[104.4669,-3.1696],[104.4461,-3.0886],[104.4821,-3.0848],[104.4859,-3.1051],[104.4788,-3.1159],[104.4791,-3.1208],[104.484,-3.1248],[104.4851,-3.1311],[104.4837,-3.1363],[104.49,-3.1424],[104.4921,-3.1634],[104.4969,-3.1692],[104.4961,-3.1738],[104.5107,-3.2006],[104.5145,-3.2052],[104.5212,-3.2087],[104.5033,-3.2123],[104.4926,-3.2211],[104.4818,-3.2233],[104.478,-3.2097]]]}},{"type":"Feature","properties":{"name":"Sebau","name_en":"Sebau","admin_level":"7","osm_id":""},"geometry":{"type":"Polygon","coordinates":[[[104.3365,-3.2136],[104.3674,-3.234],[104.3498,-3.2526],[104.3338,-3.2598],[104.3041,-3.2458],[104.3279,-3.2256],[104.3365,-3.2136]]]}},{"type":"Feature","properties":{"name":"Segayam","name_en":"Segayam","admin_level":"7","osm_id":""},"geometry":{"type":"Polygon","coordinates":[[[104.5117,-3.2107],[104.5212,-3.2087],[104.5351,-3.2147],[104.5634,-3.2152],[104.5715,-3.2418],[104.5609,-3.2588],[104.5563,-3.2636],[104.5464,-3.2587],[104.5275,-3.264],[104.5273,-3.2413],[104.5202,-3.2192],[104.5117,-3.2107]]]}},{"type":"Feature","properties":{"name":"Sigam","name_en":"Sigam","admin_level":"7","osm_id":""},"geometry":{"type":"Polygon","coordinates":[[[104.4047,-3.2433],[104.4589,-3.2721],[104.457,-3.2782],[104.4565,-3.2942],[104.4477,-3.2841],[104.441,-3.2812],[104.435,-3.2815],[104.3953,-3.266],[104.3986,-3.2615],[104.3974,-3.2461],[104.4047,-3.2433]]]}},{"type":"Feature","properties":{"name":"SukaJaya","name_en":"SukaJaya","admin_level":"7","osm_id":""},"geometry":{"type":"Polygon","coordinates":[[[104.3646,-3.2098],[104.3649,-3.1979],[104.4024,-3.1952],[104.4007,-3.2127],[104.3923,-3.2209],[104.3646,-3.2098]]]}},{"type":"Feature","properties":{"name":"SukaMenang","name_en":"SukaMenang","admin_level":"7","osm_id":""},"geometry":{"type":"Polygon","coordinates":[[[104.4395,-3.2365],[104.4376,-3.2294],[104.4414,-3.2207],[104.4453,-3.2137],[104.4516,-3.2089],[104.4618,-3.2077],[104.478,-3.2097],[104.4809,-3.2201],[104.4747,-3.2211],[104.4739,-3.2302],[104.4703,-3.2284],[104.4567,-3.227],[104.4535,-3.2281],[104.4501,-3.2328],[104.4395,-3.2365]]]}},{"type":"Feature","properties":{"name":"TalangTaling","name_en":"TalangTaling","admin_level":"7","osm_id":""},"geometry":{"type":"Polygon","coordinates":[[[104.4722,-3.2509],[104.4747,-3.2211],[104.4809,-3.2201],[104.4818,-3.2233],[104.4926,-3.2211],[104.5033,-3.2123],[104.5117,-3.2107],[104.5202,-3.2192],[104.5273,-3.2413],[104.5275,-3.264],[104.523,-3.2644],[104.5087,-3.26],[104.4937,-3.2672],[104.4876,-3.2571],[104.4836,-3.2539],[104.4722,-3.2509]]]}},{"type":"Feature","properties":{"name":"TambanganKelekar","name_en":"TambanganKelekar","admin_level":"7","osm_id":""},"geometry":{"type":"Polygon","coordinates":[[[104.4589,-3.2721],[104.4722,-3.2509],[104.4836,-3.2539],[104.4917,-3.2628],[104.4937,-3.2672],[104.4834,-3.2799],[104.4879,-3.2848],[104.489,-3.2908],[104.4863,-3.3018],[104.4927,-3.3114],[104.4921,-3.3285],[104.4896,-3.3221],[104.4708,-3.2927],[104.4635,-3.2889],[104.4565,-3.2942],[104.457,-3.2782],[104.4589,-3.2721]]]}},{"type":"Feature","properties":{"name":"TelukLimau","name_en":"TelukLimau","admin_level":"7","osm_id":""},"geometry":{"type":"Polygon","coordinates":[[[104.3649,-3.1979],[104.3359,-3.1802],[104.3451,-3.163],[104.3551,-3.1322],[104.3515,-3.0942],[104.352,-3.0776],[104.402,-3.0863],[104.4061,-3.1814],[104.3993,-3.1951],[104.3649,-3.1979]]]}}]}