{"type":"FeatureCollection","metadata":{"parent_osm_id":"10989422","parent_name":"Serpong","parent_name_1":"Banten","parent_gid":"IDN.4.7.6_1","parent_level":"6","child_level":"7","count":9,"source":"GADM 4.1","generated":"2026-05-08"},"features":[{"type":"Feature","properties":{"name":"Buaran","name_en":"Buaran","admin_level":"7","osm_id":""},"geometry":{"type":"Polygon","coordinates":[[[106.7017,-6.335],[106.7032,-6.34],[106.7108,-6.3424],[106.7117,-6.3484],[106.7045,-6.3486],[106.7045,-6.3471],[106.7001,-6.347],[106.6969,-6.3442],[106.6892,-6.3501],[106.6829,-6.351],[106.6817,-6.3495],[106.6843,-6.3477],[106.6821,-6.3392],[106.6835,-6.3356],[106.6914,-6.3361],[106.6933,-6.3342],[106.6935,-6.3301],[106.6966,-6.3358],[106.7017,-6.335]]]}},{"type":"Feature","properties":{"name":"Ciater","name_en":"Ciater","admin_level":"7","osm_id":""},"geometry":{"type":"Polygon","coordinates":[[[106.6987,-6.3045],[106.699,-6.3071],[106.7034,-6.3075],[106.7057,-6.3102],[106.7057,-6.3177],[106.7018,-6.3237],[106.7035,-6.3242],[106.7036,-6.3265],[106.6999,-6.3295],[106.7008,-6.3317],[106.6994,-6.3335],[106.7018,-6.3339],[106.7017,-6.335],[106.6966,-6.3358],[106.6935,-6.3301],[106.6933,-6.3342],[106.6914,-6.3361],[106.6835,-6.3356],[106.6828,-6.3327],[106.6849,-6.3325],[106.6789,-6.3244],[106.6833,-6.3232],[106.6826,-6.3212],[106.6852,-6.3199],[106.686,-6.3215],[106.6874,-6.3192],[106.69,-6.3193],[106.6897,-6.317],[106.6949,-6.316],[106.695,-6.3137],[106.6985,-6.3143],[106.698,-6.3102],[106.6942,-6.3066],[106.6987,-6.3045]]]}},{"type":"Feature","properties":{"name":"Cilenggang","name_en":"Cilenggang","admin_level":"7","osm_id":""},"geometry":{"type":"Polygon","coordinates":[[[106.6559,-6.3005],[106.6677,-6.2997],[106.6689,-6.3045],[106.6742,-6.3092],[106.6771,-6.3143],[106.6717,-6.3178],[106.6697,-6.3169],[106.6682,-6.3134],[106.6703,-6.3117],[106.6674,-6.3097],[106.664,-6.312],[106.6613,-6.3104],[106.6609,-6.3144],[106.6578,-6.3137],[106.6566,-6.3127],[106.6592,-6.3085],[106.6571,-6.3061],[106.6559,-6.3005]]]}},{"type":"Feature","properties":{"name":"LengkongGudang","name_en":"LengkongGudang","admin_level":"7","osm_id":""},"geometry":{"type":"Polygon","coordinates":[[[106.6677,-6.2997],[106.6559,-6.3005],[106.6537,-6.2987],[106.6539,-6.2947],[106.6575,-6.29],[106.6567,-6.2874],[106.6747,-6.2864],[106.6771,-6.2901],[106.6774,-6.2958],[106.6736,-6.299],[106.6677,-6.2997]]]}},{"type":"Feature","properties":{"name":"LengkongGudangTimur","name_en":"LengkongGudangTimur","admin_level":"7","osm_id":""},"geometry":{"type":"Polygon","coordinates":[[[106.6907,-6.2898],[106.6923,-6.2912],[106.6916,-6.2942],[106.6955,-6.2986],[106.6947,-6.3],[106.6859,-6.2992],[106.6836,-6.3011],[106.6825,-6.2993],[106.6802,-6.3006],[106.6795,-6.2994],[106.675,-6.2996],[106.6774,-6.2958],[106.6771,-6.2901],[106.6751,-6.2862],[106.676,-6.2874],[106.6895,-6.2871],[106.6907,-6.2898]]]}},{"type":"Feature","properties":{"name":"LengkongWetan","name_en":"LengkongWetan","admin_level":"7","osm_id":""},"geometry":{"type":"Polygon","coordinates":[[[106.6865,-6.2811],[106.686,-6.2823],[106.6881,-6.2826],[106.6902,-6.2868],[106.6795,-6.2863],[106.6777,-6.2875],[106.6751,-6.2862],[106.6628,-6.2877],[106.6567,-6.2874],[106.6537,-6.2854],[106.6648,-6.2769],[106.6748,-6.2806],[106.6761,-6.2794],[106.6816,-6.2804],[106.6827,-6.2827],[106.6865,-6.2811]]]}},{"type":"Feature","properties":{"name":"RawaBuntu","name_en":"RawaBuntu","admin_level":"7","osm_id":""},"geometry":{"type":"Polygon","coordinates":[[[106.6899,-6.3178],[106.69,-6.3193],[106.6874,-6.3192],[106.686,-6.3215],[106.6852,-6.3199],[106.6826,-6.3212],[106.6833,-6.3232],[106.6789,-6.3244],[106.6775,-6.3224],[106.6725,-6.3227],[106.6734,-6.321],[106.6719,-6.3204],[106.6717,-6.3178],[106.6771,-6.3143],[106.6742,-6.3092],[106.6689,-6.3045],[106.6677,-6.2997],[106.675,-6.2984],[106.675,-6.2996],[106.6795,-6.2994],[106.6802,-6.3006],[106.6825,-6.2993],[106.685,-6.3063],[106.6836,-6.3093],[106.6863,-6.3098],[106.6817,-6.3112],[106.6816,-6.3131],[106.6841,-6.3151],[106.6874,-6.315],[106.6899,-6.3178]]]}},{"type":"Feature","properties":{"name":"RawaMekarJaya","name_en":"RawaMekarJaya","admin_level":"7","osm_id":""},"geometry":{"type":"Polygon","coordinates":[[[106.6947,-6.3],[106.694,-6.3011],[106.697,-6.3011],[106.6986,-6.3037],[106.6942,-6.3066],[106.698,-6.3102],[106.6985,-6.3143],[106.695,-6.3137],[106.6949,-6.316],[106.6899,-6.3178],[106.6874,-6.315],[106.6823,-6.3143],[106.6817,-6.3112],[106.6863,-6.3098],[106.6836,-6.3093],[106.685,-6.3063],[106.6836,-6.3011],[106.6859,-6.2992],[106.6947,-6.3]]]}},{"type":"Feature","properties":{"name":"Serpong","name_en":"Serpong","admin_level":"7","osm_id":""},"geometry":{"type":"Polygon","coordinates":[[[106.6566,-6.3127],[106.6609,-6.3144],[106.6613,-6.3104],[106.664,-6.312],[106.6674,-6.3097],[106.67,-6.3115],[106.6682,-6.3135],[106.6734,-6.321],[106.6712,-6.3264],[106.6684,-6.3278],[106.6624,-6.3244],[106.6607,-6.3274],[106.6577,-6.3248],[106.6591,-6.318],[106.6623,-6.3176],[106.6595,-6.3155],[106.6564,-6.3168],[106.6554,-6.3159],[106.6566,-6.3127]]]}}]}