{"type":"FeatureCollection","metadata":{"parent_osm_id":"10989427","parent_name":"Jombang","parent_name_1":"Banten","parent_gid":"IDN.4.1.6_1","parent_level":"6","child_level":"7","count":5,"source":"GADM 4.1","generated":"2026-05-08"},"features":[{"type":"Feature","properties":{"name":"GedongDalem","name_en":"GedongDalem","admin_level":"7","osm_id":""},"geometry":{"type":"Polygon","coordinates":[[[106.0623,-6.0036],[106.0588,-6.0027],[106.0534,-5.9952],[106.0554,-5.9923],[106.0611,-5.9916],[106.0626,-5.9895],[106.0735,-5.9958],[106.0742,-5.9975],[106.0775,-5.998],[106.0774,-6.0014],[106.0714,-6.0008],[106.0623,-6.0036]]]}},{"type":"Feature","properties":{"name":"JombangWetan","name_en":"JombangWetan","admin_level":"7","osm_id":""},"geometry":{"type":"Polygon","coordinates":[[[106.0543,-6.0227],[106.0485,-6.0204],[106.0494,-6.0154],[106.0507,-6.0162],[106.0589,-6.0108],[106.0648,-6.0101],[106.0649,-6.017],[106.0584,-6.0196],[106.0559,-6.0187],[106.0543,-6.0227]]]}},{"type":"Feature","properties":{"name":"Masigit","name_en":"Masigit","admin_level":"7","osm_id":""},"geometry":{"type":"Polygon","coordinates":[[[106.0438,-6.0177],[106.0473,-6.0137],[106.0469,-6.0105],[106.0445,-6.0081],[106.0457,-6.0064],[106.0516,-6.0066],[106.0539,-6.0036],[106.0558,-6.0046],[106.0588,-6.0027],[106.0623,-6.0036],[106.0618,-6.0087],[106.0507,-6.0162],[106.0494,-6.0154],[106.0487,-6.0198],[106.046,-6.0202],[106.0438,-6.0177]]]}},{"type":"Feature","properties":{"name":"PanggungRawi","name_en":"PanggungRawi","admin_level":"7","osm_id":""},"geometry":{"type":"Polygon","coordinates":[[[106.0879,-6.0027],[106.0794,-6.0127],[106.0738,-6.0103],[106.0716,-6.0121],[106.0684,-6.01],[106.0597,-6.0109],[106.0638,-6.0022],[106.0714,-6.0008],[106.0879,-6.0027]]]}},{"type":"Feature","properties":{"name":"Sukmajaya","name_en":"Sukmajaya","admin_level":"7","osm_id":""},"geometry":{"type":"Polygon","coordinates":[[[106.0791,-6.0267],[106.0725,-6.0221],[106.0727,-6.0252],[106.0679,-6.0265],[106.0659,-6.0229],[106.0618,-6.021],[106.0562,-6.0235],[106.0547,-6.0227],[106.0559,-6.0187],[106.0584,-6.0196],[106.0649,-6.017],[106.0655,-6.0108],[106.0684,-6.01],[106.0689,-6.0115],[106.0722,-6.0121],[106.0738,-6.0103],[106.0804,-6.0135],[106.0791,-6.0267]]]}}]}