{"type":"FeatureCollection","metadata":{"parent_osm_id":"11220054","parent_name":"Larangan","parent_name_1":"JawaTengah","parent_gid":"IDN.10.6.9_1","parent_level":"6","child_level":"7","count":11,"source":"GADM 4.1","generated":"2026-05-07"},"features":[{"type":"Feature","properties":{"name":"Kamal","name_en":"Kamal","admin_level":"7","osm_id":""},"geometry":{"type":"Polygon","coordinates":[[[108.8938,-7.1031],[108.8916,-7.0943],[108.8957,-7.0836],[108.8947,-7.0771],[108.8973,-7.0712],[108.9029,-7.0691],[108.9059,-7.0702],[108.913,-7.0691],[108.9282,-7.0778],[108.9296,-7.0816],[108.9286,-7.0854],[108.9196,-7.0907],[108.909,-7.0931],[108.9067,-7.1031],[108.8938,-7.1031]]]}},{"type":"Feature","properties":{"name":"Karangbale","name_en":"Karangbale","admin_level":"7","osm_id":""},"geometry":{"type":"Polygon","coordinates":[[[108.9163,-7.0241],[108.9169,-7.0208],[108.92,-7.0196],[108.9189,-7.0174],[108.9212,-7.0152],[108.9195,-7.0148],[108.9192,-7.0104],[108.9164,-7.0102],[108.9171,-7.0052],[108.9142,-7.0022],[108.9149,-6.989],[108.9186,-6.9841],[108.9219,-6.9847],[108.9285,-6.9826],[108.9303,-6.9867],[108.9366,-6.9918],[108.935,-7.0017],[108.9372,-7.0026],[108.9359,-7.0093],[108.9338,-7.0142],[108.9288,-7.0172],[108.9262,-7.0245],[108.9163,-7.0241]]]}},{"type":"Feature","properties":{"name":"Kedungbokor","name_en":"Kedungbokor","admin_level":"7","osm_id":""},"geometry":{"type":"Polygon","coordinates":[[[108.9557,-7.0062],[108.958,-6.9947],[108.9637,-6.9815],[108.9668,-6.9789],[108.9781,-6.9808],[108.9774,-6.9827],[108.9799,-6.9833],[108.9783,-6.9879],[108.9758,-6.9853],[108.9744,-6.9857],[108.9751,-6.9904],[108.9736,-6.9944],[108.9747,-6.9989],[108.9727,-7.0015],[108.9691,-7.0016],[108.9698,-7.0076],[108.9632,-7.0142],[108.9593,-7.0119],[108.9607,-7.009],[108.9579,-7.0102],[108.9567,-7.0058],[108.9557,-7.0062]]]}},{"type":"Feature","properties":{"name":"Larangan","name_en":"Larangan","admin_level":"7","osm_id":""},"geometry":{"type":"Polygon","coordinates":[[[108.9285,-6.9826],[108.9279,-6.9814],[108.9312,-6.9784],[108.9302,-6.9756],[108.9326,-6.9708],[108.9349,-6.9697],[108.9502,-6.9727],[108.952,-6.9656],[108.9542,-6.963],[108.9589,-6.9688],[108.957,-6.9725],[108.9636,-6.9759],[108.9631,-6.985],[108.958,-6.9947],[108.9552,-7.0073],[108.9476,-7.0066],[108.9449,-7.0087],[108.9433,-7.008],[108.9429,-7.01],[108.9347,-7.0112],[108.9372,-7.0026],[108.935,-7.0017],[108.9366,-6.992],[108.9303,-6.9867],[108.9285,-6.9826]]]}},{"type":"Feature","properties":{"name":"Luwunggede","name_en":"Luwunggede","admin_level":"7","osm_id":""},"geometry":{"type":"Polygon","coordinates":[[[108.907,-6.9589],[108.9143,-6.9601],[108.9154,-6.9589],[108.9264,-6.9583],[108.9359,-6.9597],[108.9374,-6.9637],[108.935,-6.9698],[108.9313,-6.9725],[108.9302,-6.9756],[108.9312,-6.9784],[108.9299,-6.9799],[108.9203,-6.9779],[108.92,-6.9766],[108.9128,-6.9752],[108.9113,-6.971],[108.9083,-6.9721],[108.9042,-6.9703],[108.9051,-6.967],[108.9021,-6.9661],[108.907,-6.9589]]]}},{"type":"Feature","properties":{"name":"Pamulihan","name_en":"Pamulihan","admin_level":"7","osm_id":""},"geometry":{"type":"Polygon","coordinates":[[[108.8993,-7.0391],[108.8995,-7.0349],[108.9066,-7.0325],[108.9095,-7.0256],[108.9163,-7.0241],[108.9259,-7.0247],[108.9288,-7.0172],[108.9338,-7.0142],[108.9345,-7.0113],[108.9429,-7.01],[108.9433,-7.008],[108.9449,-7.0087],[108.9476,-7.0066],[108.9539,-7.0078],[108.9567,-7.0058],[108.9579,-7.0102],[108.9608,-7.0092],[108.9596,-7.0122],[108.9632,-7.0142],[108.9654,-7.0119],[108.9634,-7.016],[108.9652,-7.02],[108.97,-7.0167],[108.972,-7.0222],[108.9786,-7.0226],[108.9764,-7.0285],[108.9722,-7.0307],[108.9684,-7.0296],[108.9643,-7.0363],[108.9593,-7.0403],[108.9536,-7.0515],[108.9481,-7.0569],[108.9395,-7.0607],[108.9301,-7.0605],[108.9208,-7.0667],[108.9063,-7.0701],[108.9017,-7.0693],[108.8964,-7.0722],[108.8965,-7.0599],[108.9016,-7.0464],[108.8993,-7.0391]]]}},{"type":"Feature","properties":{"name":"Rengaspendawa","name_en":"Rengaspendawa","admin_level":"7","osm_id":""},"geometry":{"type":"Polygon","coordinates":[[[109.0143,-6.9485],[109.016,-6.9543],[109.0135,-6.958],[109.0092,-6.9588],[109.0072,-6.9611],[109.0053,-6.9678],[109.0027,-6.9704],[108.9995,-6.971],[108.9895,-6.9786],[108.9863,-6.9775],[108.9803,-6.9814],[108.9739,-6.9806],[108.9769,-6.9718],[108.9814,-6.9672],[108.9839,-6.9613],[108.9868,-6.9502],[108.9965,-6.952],[108.9983,-6.9502],[109.0034,-6.9524],[109.0143,-6.9485]]]}},{"type":"Feature","properties":{"name":"Siandong","name_en":"Siandong","admin_level":"7","osm_id":""},"geometry":{"type":"Polygon","coordinates":[[[108.9739,-6.9806],[108.9668,-6.9789],[108.9637,-6.9815],[108.9636,-6.9759],[108.957,-6.9724],[108.9589,-6.9691],[108.9542,-6.963],[108.955,-6.9574],[108.9632,-6.9569],[108.9643,-6.9553],[108.9725,-6.956],[108.9752,-6.9588],[108.9839,-6.9612],[108.9814,-6.9672],[108.9769,-6.9718],[108.9739,-6.9806]]]}},{"type":"Feature","properties":{"name":"Sitanggal","name_en":"Sitanggal","admin_level":"7","osm_id":""},"geometry":{"type":"Polygon","coordinates":[[[108.9593,-6.941],[108.9647,-6.9396],[108.9675,-6.9427],[108.9857,-6.9439],[108.9841,-6.9484],[108.9868,-6.9502],[108.9839,-6.9612],[108.9752,-6.9588],[108.9725,-6.956],[108.9643,-6.9553],[108.9632,-6.9569],[108.955,-6.9574],[108.9547,-6.9506],[108.9587,-6.9459],[108.9593,-6.941]]]}},{"type":"Feature","properties":{"name":"Slatri","name_en":"Slatri","admin_level":"7","osm_id":""},"geometry":{"type":"Polygon","coordinates":[[[108.9311,-6.9343],[108.94,-6.9328],[108.9396,-6.9299],[108.9425,-6.9291],[108.9469,-6.9333],[108.9555,-6.9334],[108.9575,-6.9369],[108.9593,-6.941],[108.959,-6.9448],[108.9548,-6.9502],[108.9545,-6.9628],[108.952,-6.9656],[108.9502,-6.9727],[108.9349,-6.9697],[108.9374,-6.9636],[108.9348,-6.9571],[108.9353,-6.9545],[108.9304,-6.9458],[108.9312,-6.9395],[108.9295,-6.9352],[108.9311,-6.9343]]]}},{"type":"Feature","properties":{"name":"Wlahar","name_en":"Wlahar","admin_level":"7","osm_id":""},"geometry":{"type":"Polygon","coordinates":[[[108.9516,-7.1273],[108.9442,-7.1299],[108.9425,-7.1226],[108.9371,-7.1218],[108.9348,-7.1185],[108.9336,-7.1146],[108.9375,-7.1091],[108.9319,-7.1029],[108.9332,-7.0995],[108.9322,-7.0985],[108.9257,-7.0984],[108.9067,-7.1031],[108.909,-7.0931],[108.9196,-7.0907],[108.9293,-7.0843],[108.9296,-7.0808],[108.9272,-7.0768],[108.913,-7.0691],[108.9242,-7.0653],[108.9301,-7.0605],[108.9395,-7.0607],[108.9481,-7.0569],[108.9536,-7.0515],[108.9593,-7.0403],[108.9643,-7.0363],[108.9684,-7.0296],[108.974,-7.0301],[108.9775,-7.0273],[108.9786,-7.0226],[108.9822,-7.0225],[108.9856,-7.0276],[108.983,-7.0328],[108.9874,-7.0376],[108.9834,-7.0382],[108.9827,-7.04],[108.9893,-7.0442],[108.9867,-7.0458],[108.9797,-7.0447],[108.9785,-7.0478],[108.9797,-7.0516],[108.9858,-7.0573],[108.9863,-7.0603],[108.9842,-7.0615],[108.9702,-7.06],[108.9669,-7.0669],[108.9771,-7.075],[108.9786,-7.0789],[108.9778,-7.0839],[108.9838,-7.087],[108.9836,-7.0926],[108.9859,-7.0971],[108.9814,-7.1002],[108.9803,-7.1036],[108.9851,-7.1058],[108.9845,-7.1113],[108.9836,-7.1124],[108.981,-7.1109],[108.9795,-7.112],[108.9801,-7.1188],[108.9773,-7.1213],[108.9675,-7.1216],[108.9676,-7.1264],[108.9555,-7.1223],[108.9526,-7.1235],[108.9516,-7.1273]]]}}]}