{"type":"FeatureCollection","metadata":{"parent_osm_id":"11220162","parent_name":"Tangerang","parent_name_1":"Banten","parent_gid":"IDN.4.3.13_1","parent_level":"6","child_level":"7","count":8,"source":"GADM 4.1","generated":"2026-05-08"},"features":[{"type":"Feature","properties":{"name":"Babakan","name_en":"Babakan","admin_level":"7","osm_id":""},"geometry":{"type":"Polygon","coordinates":[[[106.6261,-6.1958],[106.6266,-6.1914],[106.6317,-6.1912],[106.6342,-6.1892],[106.6301,-6.1852],[106.6339,-6.1868],[106.6446,-6.1849],[106.6459,-6.1872],[106.6419,-6.1963],[106.6261,-6.1958]]]}},{"type":"Feature","properties":{"name":"BuaranIndah","name_en":"BuaranIndah","admin_level":"7","osm_id":""},"geometry":{"type":"Polygon","coordinates":[[[106.657,-6.1864],[106.6519,-6.1855],[106.6519,-6.1866],[106.6452,-6.1871],[106.6451,-6.1805],[106.6383,-6.1813],[106.6388,-6.1768],[106.6502,-6.1748],[106.6559,-6.1788],[106.6585,-6.1827],[106.657,-6.1864]]]}},{"type":"Feature","properties":{"name":"Cikokol","name_en":"Cikokol","admin_level":"7","osm_id":""},"geometry":{"type":"Polygon","coordinates":[[[106.6275,-6.2158],[106.6199,-6.2119],[106.6236,-6.211],[106.622,-6.2057],[106.6264,-6.1986],[106.6261,-6.1958],[106.631,-6.1959],[106.6279,-6.2017],[106.6312,-6.2044],[106.6383,-6.2082],[106.6462,-6.2074],[106.6466,-6.2138],[106.6275,-6.2158]]]}},{"type":"Feature","properties":{"name":"KelapaIndah","name_en":"KelapaIndah","admin_level":"7","osm_id":""},"geometry":{"type":"Polygon","coordinates":[[[106.6481,-6.1863],[106.6487,-6.1935],[106.6517,-6.195],[106.6503,-6.1979],[106.6515,-6.2046],[106.6485,-6.2048],[106.6476,-6.2069],[106.6435,-6.2086],[106.6383,-6.2082],[106.6279,-6.2017],[106.631,-6.1959],[106.6419,-6.1963],[106.6455,-6.1877],[106.6481,-6.1863]]]}},{"type":"Feature","properties":{"name":"Sukaasih","name_en":"Sukaasih","admin_level":"7","osm_id":""},"geometry":{"type":"Polygon","coordinates":[[[106.6357,-6.1678],[106.6438,-6.1672],[106.6413,-6.1697],[106.6421,-6.1762],[106.6383,-6.1782],[106.6346,-6.1774],[106.6357,-6.1678]]]}},{"type":"Feature","properties":{"name":"Sukarasa","name_en":"Sukarasa","admin_level":"7","osm_id":""},"geometry":{"type":"Polygon","coordinates":[[[106.6288,-6.1754],[106.6286,-6.169],[106.6357,-6.1678],[106.6346,-6.1774],[106.6282,-6.1777],[106.6288,-6.1754]]]}},{"type":"Feature","properties":{"name":"Sukasari","name_en":"Sukasari","admin_level":"7","osm_id":""},"geometry":{"type":"Polygon","coordinates":[[[106.6301,-6.1852],[106.6282,-6.1777],[106.6373,-6.1771],[106.6383,-6.1813],[106.6451,-6.1805],[106.6447,-6.1849],[106.6339,-6.1868],[106.6301,-6.1852]]]}},{"type":"Feature","properties":{"name":"TanahTinggi","name_en":"TanahTinggi","admin_level":"7","osm_id":""},"geometry":{"type":"Polygon","coordinates":[[[106.6578,-6.1634],[106.6607,-6.1669],[106.6581,-6.1678],[106.6596,-6.1723],[106.6578,-6.1729],[106.6602,-6.1755],[106.6572,-6.1755],[106.6585,-6.1779],[106.6602,-6.1767],[106.662,-6.1794],[106.6613,-6.1832],[106.658,-6.1824],[106.6559,-6.1788],[106.6502,-6.1748],[106.6421,-6.1758],[106.6417,-6.1743],[106.6413,-6.1697],[106.6436,-6.1665],[106.6578,-6.1634]]]}}]}