{"type":"FeatureCollection","metadata":{"parent_osm_id":"11922371","parent_name":"Pusako","parent_name_1":"Riau","parent_gid":"IDN.24.12.9_1","parent_level":"6","child_level":"7","count":7,"source":"GADM 4.1","generated":"2026-05-08"},"features":[{"type":"Feature","properties":{"name":"Benayah","name_en":"Benayah","admin_level":"7","osm_id":""},"geometry":{"type":"Polygon","coordinates":[[[102.0767,0.9557],[102.0801,0.9623],[102.0892,0.9704],[102.1022,0.9745],[102.1238,0.9665],[102.152,0.9678],[102.1529,0.9457],[102.0764,0.9489],[102.0767,0.9557]]]}},{"type":"Feature","properties":{"name":"Dosan","name_en":"Dosan","admin_level":"7","osm_id":""},"geometry":{"type":"Polygon","coordinates":[[[102.1009,0.9251],[102.0976,0.9262],[102.102,0.9316],[102.1015,0.9408],[102.081,0.9426],[102.0766,0.9489],[102.1532,0.9457],[102.1541,0.9333],[102.1743,0.8996],[102.2298,0.8443],[102.26,0.8198],[102.2651,0.8131],[102.2697,0.8107],[102.2669,0.8014],[102.2567,0.7965],[102.2525,0.7911],[102.2113,0.8243],[102.1563,0.879],[102.1405,0.9013],[102.1009,0.9251]]]}},{"type":"Feature","properties":{"name":"DusunPusaka","name_en":"DusunPusaka","admin_level":"7","osm_id":""},"geometry":{"type":"Polygon","coordinates":[[[102.1087,1.0025],[102.1103,1.0141],[102.1138,1.0212],[102.1137,1.0302],[102.1491,1.0359],[102.1563,1.009],[102.1087,1.0025]]]}},{"type":"Feature","properties":{"name":"Pebadaran","name_en":"Pebadaran","admin_level":"7","osm_id":""},"geometry":{"type":"Polygon","coordinates":[[[102.0978,0.9736],[102.1026,0.9888],[102.1039,1.0037],[102.1099,1.0024],[102.1817,1.0115],[102.1846,1.0028],[102.1539,0.9882],[102.1515,0.9839],[102.152,0.9678],[102.1238,0.9665],[102.105,0.974],[102.0978,0.9736]]]}},{"type":"Feature","properties":{"name":"Perincit","name_en":"Perincit","admin_level":"7","osm_id":""},"geometry":{"type":"Polygon","coordinates":[[[102.1157,1.031],[102.1147,1.0364],[102.1101,1.0379],[102.0812,1.0396],[102.0746,1.0413],[102.0731,1.0473],[102.081,1.0528],[102.0861,1.0533],[102.0952,1.053],[102.1038,1.0477],[102.1256,1.0507],[102.1315,1.0432],[102.1331,1.0338],[102.1157,1.031]]]}},{"type":"Feature","properties":{"name":"SungaiBerbari","name_en":"SungaiBerbari","admin_level":"7","osm_id":""},"geometry":{"type":"Polygon","coordinates":[[[102.0638,0.8928],[102.0745,0.9066],[102.1276,0.8713],[102.2221,0.7806],[102.2196,0.7799],[102.2169,0.7764],[102.2125,0.7752],[102.2086,0.7755],[102.2023,0.7798],[102.1183,0.8532],[102.0638,0.8928]]]}},{"type":"Feature","properties":{"name":"SungaiLimau","name_en":"SungaiLimau","admin_level":"7","osm_id":""},"geometry":{"type":"Polygon","coordinates":[[[102.0745,0.9066],[102.067,0.9117],[102.1009,0.9251],[102.1405,0.9013],[102.1563,0.879],[102.2113,0.8243],[102.2525,0.7911],[102.2511,0.7872],[102.2449,0.7832],[102.235,0.7848],[102.2304,0.7795],[102.2254,0.7814],[102.2221,0.7806],[102.1276,0.8713],[102.0745,0.9066]]]}}]}