{"type":"FeatureCollection","metadata":{"parent_osm_id":"12615897","parent_name":"Pucuk","parent_name_1":"JawaTimur","parent_gid":"IDN.11.18.18_1","parent_level":"6","child_level":"7","count":17,"source":"GADM 4.1","generated":"2026-05-07"},"features":[{"type":"Feature","properties":{"name":"Babatkumpul","name_en":"Babatkumpul","admin_level":"7","osm_id":""},"geometry":{"type":"Polygon","coordinates":[[[112.3069,-7.0812],[112.3083,-7.0791],[112.3018,-7.0788],[112.3026,-7.0761],[112.3014,-7.0732],[112.3052,-7.0743],[112.3079,-7.0665],[112.3116,-7.0669],[112.3103,-7.0725],[112.3119,-7.0701],[112.3192,-7.0712],[112.3182,-7.0747],[112.3138,-7.0737],[112.3125,-7.0841],[112.3066,-7.0833],[112.3069,-7.0812]]]}},{"type":"Feature","properties":{"name":"Bugoharjo","name_en":"Bugoharjo","admin_level":"7","osm_id":""},"geometry":{"type":"Polygon","coordinates":[[[112.3295,-7.0465],[112.3283,-7.0497],[112.3208,-7.0496],[112.3028,-7.0539],[112.2972,-7.0524],[112.2983,-7.0411],[112.3295,-7.0465]]]}},{"type":"Feature","properties":{"name":"Cungkup","name_en":"Cungkup","admin_level":"7","osm_id":""},"geometry":{"type":"Polygon","coordinates":[[[112.3077,-7.0668],[112.3052,-7.0743],[112.3014,-7.0732],[112.3026,-7.0761],[112.3018,-7.0788],[112.3083,-7.0791],[112.3069,-7.0812],[112.2985,-7.0823],[112.2985,-7.0854],[112.2937,-7.0805],[112.2874,-7.0785],[112.2932,-7.0647],[112.293,-7.051],[112.2971,-7.0518],[112.2977,-7.0532],[112.2965,-7.0623],[112.3052,-7.0632],[112.3043,-7.0665],[112.3077,-7.0668]]]}},{"type":"Feature","properties":{"name":"Gempolpading","name_en":"Gempolpading","admin_level":"7","osm_id":""},"geometry":{"type":"Polygon","coordinates":[[[112.2593,-7.1219],[112.2608,-7.1186],[112.2635,-7.1176],[112.2658,-7.107],[112.2749,-7.1073],[112.2725,-7.1224],[112.2665,-7.1213],[112.266,-7.1243],[112.2622,-7.1281],[112.2563,-7.1295],[112.2593,-7.1219]]]}},{"type":"Feature","properties":{"name":"Karangtinggil","name_en":"Karangtinggil","admin_level":"7","osm_id":""},"geometry":{"type":"Polygon","coordinates":[[[112.2936,-7.1051],[112.2869,-7.105],[112.2875,-7.1005],[112.2896,-7.1004],[112.2917,-7.0906],[112.2963,-7.0904],[112.2958,-7.0948],[112.2987,-7.0991],[112.2967,-7.1],[112.2968,-7.1029],[112.2939,-7.1034],[112.2936,-7.1051]]]}},{"type":"Feature","properties":{"name":"Kedali","name_en":"Kedali","admin_level":"7","osm_id":""},"geometry":{"type":"Polygon","coordinates":[[[112.2869,-7.105],[112.2936,-7.1052],[112.2922,-7.1094],[112.2932,-7.123],[112.2873,-7.1232],[112.283,-7.1152],[112.2834,-7.1048],[112.2869,-7.105]]]}},{"type":"Feature","properties":{"name":"Kesambi","name_en":"Kesambi","admin_level":"7","osm_id":""},"geometry":{"type":"Polygon","coordinates":[[[112.2722,-7.1071],[112.2682,-7.1068],[112.2688,-7.0945],[112.2669,-7.0936],[112.2682,-7.0864],[112.2746,-7.0882],[112.2722,-7.1071]]]}},{"type":"Feature","properties":{"name":"Ngambeg","name_en":"Ngambeg","admin_level":"7","osm_id":""},"geometry":{"type":"Polygon","coordinates":[[[112.3148,-7.0704],[112.3119,-7.0701],[112.3102,-7.0725],[112.3116,-7.0669],[112.3043,-7.0665],[112.3052,-7.0632],[112.2965,-7.0623],[112.2977,-7.0532],[112.3028,-7.0539],[112.3193,-7.0507],[112.3148,-7.0704]]]}},{"type":"Feature","properties":{"name":"Padenganploso","name_en":"Padenganploso","admin_level":"7","osm_id":""},"geometry":{"type":"Polygon","coordinates":[[[112.3369,-7.0557],[112.3343,-7.0627],[112.3296,-7.0618],[112.3269,-7.0719],[112.3158,-7.0672],[112.3164,-7.0599],[112.3199,-7.0499],[112.3287,-7.0496],[112.327,-7.0563],[112.331,-7.0574],[112.3318,-7.0536],[112.3369,-7.0557]]]}},{"type":"Feature","properties":{"name":"Paji","name_en":"Paji","admin_level":"7","osm_id":""},"geometry":{"type":"Polygon","coordinates":[[[112.3069,-7.0812],[112.3064,-7.0832],[112.3093,-7.0842],[112.308,-7.087],[112.3083,-7.0964],[112.2983,-7.1012],[112.2967,-7.1],[112.2987,-7.0991],[112.2958,-7.0929],[112.2981,-7.0882],[112.2985,-7.0823],[112.3069,-7.0812]]]}},{"type":"Feature","properties":{"name":"Plososetro","name_en":"Plososetro","admin_level":"7","osm_id":""},"geometry":{"type":"Polygon","coordinates":[[[112.2874,-7.0785],[112.2972,-7.0833],[112.2986,-7.0856],[112.2963,-7.0904],[112.2861,-7.0895],[112.2889,-7.0859],[112.2801,-7.0836],[112.2874,-7.0785]]]}},{"type":"Feature","properties":{"name":"Pucuk","name_en":"Pucuk","admin_level":"7","osm_id":""},"geometry":{"type":"Polygon","coordinates":[[[112.2658,-7.107],[112.2661,-7.1038],[112.2608,-7.1044],[112.2589,-7.103],[112.2605,-7.1028],[112.2612,-7.0993],[112.2589,-7.1008],[112.2594,-7.0949],[112.2617,-7.0949],[112.2615,-7.0812],[112.2692,-7.0775],[112.272,-7.0804],[112.2683,-7.0854],[112.2669,-7.0936],[112.2688,-7.0945],[112.2682,-7.1065],[112.2658,-7.107]]]}},{"type":"Feature","properties":{"name":"Sumberjo","name_en":"Sumberjo","admin_level":"7","osm_id":""},"geometry":{"type":"Polygon","coordinates":[[[112.2936,-7.1051],[112.294,-7.1033],[112.2985,-7.1026],[112.3002,-7.1108],[112.3014,-7.1109],[112.3013,-7.1169],[112.3037,-7.1172],[112.3031,-7.1214],[112.3093,-7.1194],[112.3143,-7.1206],[112.3135,-7.1249],[112.3094,-7.1298],[112.2992,-7.1325],[112.2956,-7.131],[112.2922,-7.1098],[112.2936,-7.1051]]]}},{"type":"Feature","properties":{"name":"Tanggungan","name_en":"Tanggungan","admin_level":"7","osm_id":""},"geometry":{"type":"Polygon","coordinates":[[[112.2968,-7.1029],[112.2967,-7.1],[112.2995,-7.1014],[112.3083,-7.0964],[112.3113,-7.1017],[112.3098,-7.1179],[112.3081,-7.1204],[112.3031,-7.1214],[112.3037,-7.1172],[112.3013,-7.1169],[112.3002,-7.1065],[112.2987,-7.1064],[112.2985,-7.1026],[112.2968,-7.1029]]]}},{"type":"Feature","properties":{"name":"Wanar","name_en":"Wanar","admin_level":"7","osm_id":""},"geometry":{"type":"Polygon","coordinates":[[[112.2533,-7.1351],[112.2563,-7.1295],[112.2622,-7.1281],[112.266,-7.1243],[112.2665,-7.1213],[112.2725,-7.1224],[112.2749,-7.1073],[112.2828,-7.1075],[112.2829,-7.115],[112.2874,-7.1243],[112.2849,-7.133],[112.2825,-7.1337],[112.28,-7.1401],[112.2779,-7.1411],[112.274,-7.1398],[112.2658,-7.1357],[112.2629,-7.1319],[112.2583,-7.1347],[112.2533,-7.1351]]]}},{"type":"Feature","properties":{"name":"WaruKulon","name_en":"WaruKulon","admin_level":"7","osm_id":""},"geometry":{"type":"Polygon","coordinates":[[[112.2749,-7.1073],[112.2722,-7.1071],[112.2745,-7.088],[112.2682,-7.0864],[112.272,-7.0804],[112.2889,-7.0859],[112.2858,-7.09],[112.2847,-7.0963],[112.2831,-7.0964],[112.2823,-7.0986],[112.2823,-7.1007],[112.2872,-7.1018],[112.2869,-7.105],[112.2834,-7.1047],[112.2829,-7.1074],[112.2807,-7.1081],[112.2749,-7.1073]]]}},{"type":"Feature","properties":{"name":"WaruWetan","name_en":"WaruWetan","admin_level":"7","osm_id":""},"geometry":{"type":"Polygon","coordinates":[[[112.2917,-7.0906],[112.2896,-7.1004],[112.2875,-7.1005],[112.2873,-7.102],[112.2823,-7.1007],[112.2861,-7.0895],[112.2917,-7.0906]]]}}]}