{"type":"FeatureCollection","metadata":{"parent_osm_id":"12803208","parent_name":"Bati-Bati","parent_name_1":"KalimantanSelatan","parent_gid":"IDN.13.12.2_1","parent_level":"6","child_level":"7","count":14,"source":"GADM 4.1","generated":"2026-05-07"},"features":[{"type":"Feature","properties":{"name":"BanyuIrang","name_en":"BanyuIrang","admin_level":"7","osm_id":""},"geometry":{"type":"Polygon","coordinates":[[[114.7851,-3.5249],[114.7982,-3.5236],[114.8099,-3.5258],[114.8122,-3.5299],[114.8099,-3.5336],[114.8117,-3.5402],[114.8168,-3.5419],[114.8267,-3.5487],[114.8068,-3.564],[114.7991,-3.5727],[114.795,-3.5679],[114.7876,-3.5642],[114.7856,-3.5613],[114.7837,-3.5496],[114.7768,-3.5409],[114.7817,-3.5358],[114.7851,-3.5249]]]}},{"type":"Feature","properties":{"name":"BatiBati","name_en":"BatiBati","admin_level":"7","osm_id":""},"geometry":{"type":"Polygon","coordinates":[[[114.7284,-3.615],[114.7277,-3.6094],[114.7252,-3.6075],[114.6983,-3.5985],[114.7006,-3.5935],[114.7126,-3.5965],[114.738,-3.6069],[114.7421,-3.6076],[114.7482,-3.6026],[114.7685,-3.6095],[114.7572,-3.6265],[114.7508,-3.6318],[114.7448,-3.6262],[114.7404,-3.6257],[114.7416,-3.6239],[114.7397,-3.6194],[114.7291,-3.6164],[114.7284,-3.615]]]}},{"type":"Feature","properties":{"name":"BentokDarat","name_en":"BentokDarat","admin_level":"7","osm_id":""},"geometry":{"type":"Polygon","coordinates":[[[114.8267,-3.5487],[114.8345,-3.5513],[114.8351,-3.5479],[114.8363,-3.5478],[114.8373,-3.5511],[114.8388,-3.5519],[114.839,-3.5507],[114.8409,-3.5527],[114.8443,-3.5508],[114.8474,-3.5514],[114.8482,-3.5539],[114.8451,-3.5581],[114.849,-3.557],[114.85,-3.5588],[114.8525,-3.558],[114.8574,-3.5606],[114.856,-3.5621],[114.8578,-3.5635],[114.856,-3.5649],[114.854,-3.5637],[114.8535,-3.565],[114.8582,-3.5694],[114.8621,-3.5654],[114.8653,-3.5649],[114.8656,-3.5603],[114.8674,-3.5597],[114.866,-3.558],[114.8688,-3.5565],[114.8691,-3.5545],[114.873,-3.5547],[114.8768,-3.5524],[114.8814,-3.557],[114.8856,-3.5471],[114.892,-3.5461],[114.8991,-3.5426],[114.9019,-3.5447],[114.9064,-3.542],[114.9088,-3.5428],[114.9095,-3.5499],[114.9076,-3.562],[114.9201,-3.5852],[114.9033,-3.5928],[114.8938,-3.6027],[114.8809,-3.6247],[114.8667,-3.6121],[114.8585,-3.6087],[114.8527,-3.602],[114.8314,-3.5948],[114.8212,-3.5838],[114.816,-3.5824],[114.8126,-3.579],[114.8094,-3.5722],[114.7987,-3.5761],[114.7974,-3.5749],[114.8068,-3.564],[114.8267,-3.5487]]]}},{"type":"Feature","properties":{"name":"BentokKampung","name_en":"BentokKampung","admin_level":"7","osm_id":""},"geometry":{"type":"Polygon","coordinates":[[[114.7768,-3.5409],[114.7837,-3.5496],[114.7856,-3.5613],[114.7876,-3.5642],[114.795,-3.5679],[114.7991,-3.5727],[114.7891,-3.5834],[114.789,-3.5852],[114.7786,-3.584],[114.7734,-3.5878],[114.7652,-3.5792],[114.7627,-3.5724],[114.7567,-3.564],[114.7632,-3.5547],[114.772,-3.5474],[114.7768,-3.5409]]]}},{"type":"Feature","properties":{"name":"BenuaRaya","name_en":"BenuaRaya","admin_level":"7","osm_id":""},"geometry":{"type":"Polygon","coordinates":[[[114.6983,-3.5985],[114.7252,-3.6075],[114.7277,-3.6094],[114.7284,-3.615],[114.7255,-3.6175],[114.7055,-3.6141],[114.698,-3.6202],[114.691,-3.6192],[114.6983,-3.5985]]]}},{"type":"Feature","properties":{"name":"KaitKait","name_en":"KaitKait","admin_level":"7","osm_id":""},"geometry":{"type":"Polygon","coordinates":[[[114.8314,-3.5948],[114.8527,-3.602],[114.8585,-3.6087],[114.8317,-3.615],[114.8135,-3.6132],[114.7943,-3.6083],[114.7781,-3.6001],[114.7762,-3.5985],[114.7734,-3.5878],[114.8101,-3.5937],[114.8156,-3.5939],[114.8206,-3.5914],[114.8267,-3.5953],[114.8314,-3.5948]]]}},{"type":"Feature","properties":{"name":"KaitKaitBaru","name_en":"KaitKaitBaru","admin_level":"7","osm_id":""},"geometry":{"type":"Polygon","coordinates":[[[114.7974,-3.5749],[114.7987,-3.5761],[114.8094,-3.5722],[114.8126,-3.579],[114.816,-3.5824],[114.8212,-3.5838],[114.8314,-3.5948],[114.8267,-3.5953],[114.8206,-3.5914],[114.8156,-3.5939],[114.8101,-3.5937],[114.7734,-3.5878],[114.7786,-3.584],[114.789,-3.5852],[114.7891,-3.5834],[114.7974,-3.5749]]]}},{"type":"Feature","properties":{"name":"LiangAnggang","name_en":"LiangAnggang","admin_level":"7","osm_id":""},"geometry":{"type":"Polygon","coordinates":[[[114.7605,-3.5164],[114.7635,-3.5168],[114.7529,-3.5398],[114.7514,-3.5514],[114.7551,-3.562],[114.7538,-3.5638],[114.7499,-3.5662],[114.7357,-3.5696],[114.7188,-3.5791],[114.7102,-3.5739],[114.7106,-3.5644],[114.7206,-3.5565],[114.7344,-3.5509],[114.7438,-3.543],[114.7605,-3.5164]]]}},{"type":"Feature","properties":{"name":"NusaIndah","name_en":"NusaIndah","admin_level":"7","osm_id":""},"geometry":{"type":"Polygon","coordinates":[[[114.7567,-3.564],[114.7627,-3.5724],[114.7652,-3.5792],[114.7741,-3.5888],[114.7762,-3.5985],[114.7736,-3.6014],[114.7588,-3.5964],[114.7509,-3.5867],[114.7393,-3.584],[114.7306,-3.5789],[114.7234,-3.5808],[114.7188,-3.5791],[114.7357,-3.5696],[114.7499,-3.5662],[114.7551,-3.562],[114.7567,-3.564]]]}},{"type":"Feature","properties":{"name":"Padang","name_en":"Padang","admin_level":"7","osm_id":""},"geometry":{"type":"Polygon","coordinates":[[[114.7482,-3.6026],[114.7421,-3.6076],[114.738,-3.6069],[114.7126,-3.5965],[114.7006,-3.5935],[114.7046,-3.5871],[114.7249,-3.5931],[114.7482,-3.6026]]]}},{"type":"Feature","properties":{"name":"Pandahan","name_en":"Pandahan","admin_level":"7","osm_id":""},"geometry":{"type":"Polygon","coordinates":[[[114.7566,-3.5095],[114.759,-3.5158],[114.7605,-3.5164],[114.7474,-3.5386],[114.7344,-3.5509],[114.717,-3.5587],[114.7099,-3.5662],[114.7052,-3.5503],[114.7068,-3.5375],[114.7119,-3.5192],[114.7118,-3.5122],[114.7566,-3.5095]]]}},{"type":"Feature","properties":{"name":"Sambangan","name_en":"Sambangan","admin_level":"7","osm_id":""},"geometry":{"type":"Polygon","coordinates":[[[114.7845,-3.525],[114.7817,-3.5358],[114.772,-3.5474],[114.7632,-3.5547],[114.7567,-3.564],[114.7514,-3.5514],[114.7529,-3.5398],[114.7634,-3.517],[114.7653,-3.5188],[114.7649,-3.521],[114.7805,-3.5253],[114.7845,-3.525]]]}},{"type":"Feature","properties":{"name":"Ujung","name_en":"Ujung","admin_level":"7","osm_id":""},"geometry":{"type":"Polygon","coordinates":[[[114.7685,-3.6095],[114.7249,-3.5931],[114.7046,-3.5871],[114.7084,-3.5799],[114.715,-3.5817],[114.7192,-3.5849],[114.7269,-3.5848],[114.7452,-3.5943],[114.7554,-3.5963],[114.7562,-3.5937],[114.7588,-3.5964],[114.7736,-3.6014],[114.7685,-3.6095]]]}},{"type":"Feature","properties":{"name":"UjungBaru","name_en":"UjungBaru","admin_level":"7","osm_id":""},"geometry":{"type":"Polygon","coordinates":[[[114.7102,-3.5739],[114.7203,-3.5799],[114.7234,-3.5808],[114.7306,-3.5789],[114.7393,-3.584],[114.7509,-3.5867],[114.7548,-3.5902],[114.7562,-3.5937],[114.7554,-3.5963],[114.7452,-3.5943],[114.7269,-3.5848],[114.7192,-3.5849],[114.715,-3.5817],[114.7084,-3.5799],[114.7102,-3.5739]]]}}]}