{"type":"FeatureCollection","metadata":{"parent_osm_id":"13046736","parent_name":"Tuban","parent_name_1":"JawaTimur","parent_gid":"IDN.11.37.19_1","parent_level":"6","child_level":"7","count":17,"source":"GADM 4.1","generated":"2026-05-07"},"features":[{"type":"Feature","properties":{"name":"Baturetno","name_en":"Baturetno","admin_level":"7","osm_id":""},"geometry":{"type":"Polygon","coordinates":[[[112.0742,-6.8993],[112.0736,-6.9012],[112.0702,-6.9003],[112.069,-6.9028],[112.0681,-6.9014],[112.0704,-6.8944],[112.0743,-6.8941],[112.0742,-6.8993]]]}},{"type":"Feature","properties":{"name":"Doromukti","name_en":"Doromukti","admin_level":"7","osm_id":""},"geometry":{"type":"Polygon","coordinates":[[[112.0603,-6.8991],[112.0585,-6.9034],[112.0547,-6.902],[112.0557,-6.8979],[112.0603,-6.8991]]]}},{"type":"Feature","properties":{"name":"Karangsari","name_en":"Karangsari","admin_level":"7","osm_id":""},"geometry":{"type":"Polygon","coordinates":[[[112.0501,-6.8874],[112.0508,-6.8865],[112.0481,-6.8849],[112.0475,-6.8822],[112.0606,-6.8911],[112.0601,-6.8922],[112.0526,-6.8869],[112.0516,-6.8886],[112.0501,-6.8874]]]}},{"type":"Feature","properties":{"name":"Kebonsari","name_en":"Kebonsari","admin_level":"7","osm_id":""},"geometry":{"type":"Polygon","coordinates":[[[112.069,-6.9028],[112.0672,-6.906],[112.0585,-6.9034],[112.0603,-6.8991],[112.0681,-6.9014],[112.069,-6.9028]]]}},{"type":"Feature","properties":{"name":"Kembangbilo","name_en":"Kembangbilo","admin_level":"7","osm_id":""},"geometry":{"type":"Polygon","coordinates":[[[112.0388,-6.9015],[112.0346,-6.9071],[112.0304,-6.9086],[112.0239,-6.9144],[112.0193,-6.9141],[112.0235,-6.9098],[112.0237,-6.9066],[112.0219,-6.9054],[112.0237,-6.8971],[112.0287,-6.8973],[112.0331,-6.8946],[112.0369,-6.8948],[112.0388,-6.9015]]]}},{"type":"Feature","properties":{"name":"Kingking","name_en":"Kingking","admin_level":"7","osm_id":""},"geometry":{"type":"Polygon","coordinates":[[[112.0516,-6.8886],[112.0526,-6.8869],[112.0592,-6.8912],[112.0586,-6.8945],[112.0502,-6.8912],[112.0516,-6.8886]]]}},{"type":"Feature","properties":{"name":"Kutorejo","name_en":"Kutorejo","admin_level":"7","osm_id":""},"geometry":{"type":"Polygon","coordinates":[[[112.0647,-6.9004],[112.0603,-6.8991],[112.0634,-6.8921],[112.0657,-6.8927],[112.0674,-6.8893],[112.0647,-6.9004]]]}},{"type":"Feature","properties":{"name":"Latsari","name_en":"Latsari","admin_level":"7","osm_id":""},"geometry":{"type":"Polygon","coordinates":[[[112.0444,-6.8838],[112.0516,-6.8886],[112.0444,-6.9001],[112.0411,-6.9004],[112.0376,-6.899],[112.0388,-6.8928],[112.0444,-6.8838]]]}},{"type":"Feature","properties":{"name":"Mondokan","name_en":"Mondokan","admin_level":"7","osm_id":""},"geometry":{"type":"Polygon","coordinates":[[[112.0223,-6.8766],[112.0251,-6.8696],[112.0302,-6.8769],[112.032,-6.8772],[112.0308,-6.8796],[112.0285,-6.8794],[112.0266,-6.8851],[112.0246,-6.8868],[112.024,-6.8888],[112.0258,-6.8916],[112.0246,-6.8922],[112.0229,-6.8919],[112.0231,-6.8886],[112.0179,-6.8885],[112.0223,-6.8766]]]}},{"type":"Feature","properties":{"name":"Perbon","name_en":"Perbon","admin_level":"7","osm_id":""},"geometry":{"type":"Polygon","coordinates":[[[112.032,-6.8772],[112.0362,-6.8745],[112.0445,-6.8837],[112.0404,-6.8893],[112.0382,-6.8969],[112.0367,-6.897],[112.0369,-6.8948],[112.0331,-6.8946],[112.0287,-6.8973],[112.0258,-6.8971],[112.0245,-6.8869],[112.0266,-6.8851],[112.0285,-6.8794],[112.0308,-6.8796],[112.032,-6.8772]]]}},{"type":"Feature","properties":{"name":"Ronggomulyo","name_en":"Ronggomulyo","admin_level":"7","osm_id":""},"geometry":{"type":"Polygon","coordinates":[[[112.0576,-6.8984],[112.0519,-6.8974],[112.0466,-6.8958],[112.0502,-6.8912],[112.0593,-6.8947],[112.0576,-6.8984]]]}},{"type":"Feature","properties":{"name":"Sendangharjo","name_en":"Sendangharjo","admin_level":"7","osm_id":""},"geometry":{"type":"Polygon","coordinates":[[[112.0704,-6.8944],[112.0682,-6.9013],[112.0648,-6.9004],[112.0662,-6.8924],[112.0704,-6.8944]]]}},{"type":"Feature","properties":{"name":"Sidomulyo","name_en":"Sidomulyo","admin_level":"7","osm_id":""},"geometry":{"type":"Polygon","coordinates":[[[112.0603,-6.8991],[112.0576,-6.8984],[112.0589,-6.8919],[112.0606,-6.8911],[112.0634,-6.8921],[112.0603,-6.8991]]]}},{"type":"Feature","properties":{"name":"Sidorejo","name_en":"Sidorejo","admin_level":"7","osm_id":""},"geometry":{"type":"Polygon","coordinates":[[[112.0602,-6.904],[112.0581,-6.9068],[112.0388,-6.9015],[112.0393,-6.8997],[112.0444,-6.9001],[112.0476,-6.8959],[112.0557,-6.8979],[112.0547,-6.902],[112.0602,-6.904]]]}},{"type":"Feature","properties":{"name":"Sugiharjo","name_en":"Sugiharjo","admin_level":"7","osm_id":""},"geometry":{"type":"Polygon","coordinates":[[[112.013,-6.9142],[112.008,-6.9121],[112.0084,-6.9098],[112.0111,-6.9072],[112.0115,-6.9027],[112.0147,-6.8985],[112.0179,-6.8885],[112.0226,-6.8883],[112.024,-6.8897],[112.0229,-6.8919],[112.0258,-6.893],[112.0258,-6.8971],[112.0237,-6.8971],[112.0219,-6.9054],[112.0237,-6.9066],[112.0235,-6.9098],[112.0197,-6.914],[112.013,-6.9142]]]}},{"type":"Feature","properties":{"name":"Sukolilo","name_en":"Sukolilo","admin_level":"7","osm_id":""},"geometry":{"type":"Polygon","coordinates":[[[112.0813,-6.8962],[112.0794,-6.8977],[112.0789,-6.902],[112.0747,-6.9009],[112.0743,-6.8941],[112.0813,-6.8962]]]}},{"type":"Feature","properties":{"name":"Sumurgung","name_en":"Sumurgung","admin_level":"7","osm_id":""},"geometry":{"type":"Polygon","coordinates":[[[112.0022,-6.8843],[112.0105,-6.884],[112.012,-6.8869],[112.0159,-6.8854],[112.018,-6.8869],[112.0147,-6.8985],[112.0115,-6.9027],[112.0113,-6.9069],[112.009,-6.9099],[112.0044,-6.9091],[112.0064,-6.9046],[112.005,-6.9037],[112.0091,-6.8959],[112.0026,-6.8961],[112.0025,-6.8944],[112.0001,-6.8937],[112.0022,-6.8875],[111.9996,-6.8846],[112.0022,-6.8843]]]}}]}