{"type":"FeatureCollection","metadata":{"parent_osm_id":"13256625","parent_name":"Kuranji","parent_name_1":"KalimantanSelatan","parent_gid":"IDN.13.11.4_1","parent_level":"6","child_level":"7","count":6,"source":"GADM 4.1","generated":"2026-05-07"},"features":[{"type":"Feature","properties":{"name":"GiriMulya","name_en":"GiriMulya","admin_level":"7","osm_id":""},"geometry":{"type":"Polygon","coordinates":[[[115.6573,-3.4962],[115.6678,-3.4925],[115.6745,-3.4925],[115.6877,-3.494],[115.7167,-3.5007],[115.7238,-3.4973],[115.7318,-3.5021],[115.7318,-3.5048],[115.7159,-3.5273],[115.7062,-3.5278],[115.682,-3.5211],[115.672,-3.5201],[115.6614,-3.5169],[115.6521,-3.5165],[115.6573,-3.4962]]]}},{"type":"Feature","properties":{"name":"IndraLokaJaya","name_en":"IndraLokaJaya","admin_level":"7","osm_id":""},"geometry":{"type":"Polygon","coordinates":[[[115.7358,-3.5582],[115.7375,-3.5638],[115.7354,-3.5782],[115.7378,-3.5833],[115.7428,-3.5884],[115.7473,-3.6021],[115.7473,-3.6084],[115.7434,-3.6141],[115.7404,-3.6153],[115.7204,-3.6144],[115.7166,-3.6096],[115.7142,-3.5964],[115.6993,-3.594],[115.6921,-3.594],[115.6883,-3.5967],[115.6865,-3.6012],[115.6814,-3.6056],[115.6757,-3.6083],[115.6497,-3.6076],[115.65,-3.5584],[115.7013,-3.5594],[115.7358,-3.5582]]]}},{"type":"Feature","properties":{"name":"KarangIntan","name_en":"KarangIntan","admin_level":"7","osm_id":""},"geometry":{"type":"Polygon","coordinates":[[[115.7446,-3.5955],[115.7428,-3.5884],[115.7378,-3.5833],[115.7354,-3.5782],[115.7375,-3.5638],[115.7358,-3.5582],[115.7412,-3.5584],[115.7505,-3.5557],[115.7696,-3.5574],[115.7699,-3.5612],[115.7664,-3.5687],[115.7657,-3.5786],[115.7662,-3.5806],[115.7721,-3.5838],[115.7736,-3.5893],[115.7658,-3.5948],[115.7613,-3.596],[115.7446,-3.5955]]]}},{"type":"Feature","properties":{"name":"Kuranji","name_en":"Kuranji","admin_level":"7","osm_id":""},"geometry":{"type":"Polygon","coordinates":[[[115.7318,-3.5021],[115.7238,-3.4973],[115.7167,-3.5007],[115.6877,-3.494],[115.6745,-3.4925],[115.6678,-3.4925],[115.6573,-3.4962],[115.6571,-3.4906],[115.662,-3.4787],[115.6622,-3.4731],[115.6787,-3.4773],[115.6977,-3.4792],[115.712,-3.4773],[115.7333,-3.4711],[115.7409,-3.4711],[115.7526,-3.474],[115.7318,-3.5048],[115.7318,-3.5021]]]}},{"type":"Feature","properties":{"name":"Mustika","name_en":"Mustika","admin_level":"7","osm_id":""},"geometry":{"type":"Polygon","coordinates":[[[115.6521,-3.5165],[115.6614,-3.5169],[115.672,-3.5201],[115.682,-3.5211],[115.7062,-3.5278],[115.7159,-3.5273],[115.7144,-3.5344],[115.7144,-3.5594],[115.65,-3.5584],[115.652,-3.5477],[115.6503,-3.5392],[115.6521,-3.5165]]]}},{"type":"Feature","properties":{"name":"WaringinTunggal","name_en":"WaringinTunggal","admin_level":"7","osm_id":""},"geometry":{"type":"Polygon","coordinates":[[[115.7526,-3.474],[115.7409,-3.4711],[115.7333,-3.4711],[115.712,-3.4773],[115.6977,-3.4792],[115.6787,-3.4773],[115.6622,-3.4731],[115.662,-3.4653],[115.6634,-3.4604],[115.667,-3.4582],[115.6654,-3.456],[115.6688,-3.4573],[115.6687,-3.4536],[115.6702,-3.452],[115.6679,-3.4501],[115.6703,-3.4482],[115.6691,-3.4447],[115.6717,-3.4437],[115.6731,-3.4453],[115.6745,-3.4442],[115.6746,-3.4474],[115.6728,-3.4474],[115.6737,-3.4494],[115.677,-3.4467],[115.6784,-3.4473],[115.6801,-3.4451],[115.6767,-3.4402],[115.6826,-3.4404],[115.685,-3.4374],[115.6827,-3.4321],[115.6869,-3.4306],[115.691,-3.4323],[115.6907,-3.4348],[115.6926,-3.4347],[115.6896,-3.4369],[115.6908,-3.4374],[115.696,-3.4349],[115.6949,-3.4316],[115.6961,-3.4285],[115.6999,-3.4386],[115.7038,-3.4373],[115.7065,-3.4315],[115.7116,-3.4316],[115.7119,-3.4367],[115.7157,-3.4386],[115.7153,-3.4408],[115.7175,-3.4423],[115.7198,-3.4402],[115.7213,-3.4427],[115.718,-3.4489],[115.7216,-3.4508],[115.7251,-3.4515],[115.745,-3.4479],[115.7448,-3.4527],[115.7485,-3.4611],[115.7535,-3.4672],[115.7526,-3.474]]]}}]}