{"type":"FeatureCollection","metadata":{"parent_osm_id":"14713624","parent_name":"Kasiman","parent_name_1":"JawaTimur","parent_gid":"IDN.11.5.11_1","parent_level":"6","child_level":"7","count":10,"source":"GADM 4.1","generated":"2026-05-07"},"features":[{"type":"Feature","properties":{"name":"Batokan","name_en":"Batokan","admin_level":"7","osm_id":""},"geometry":{"type":"Polygon","coordinates":[[[111.6073,-7.1467],[111.6058,-7.1433],[111.6082,-7.1421],[111.6106,-7.1433],[111.6091,-7.1393],[111.6118,-7.1407],[111.6121,-7.1384],[111.6159,-7.1391],[111.6154,-7.1375],[111.6172,-7.1374],[111.6203,-7.1401],[111.62,-7.1465],[111.6223,-7.1467],[111.6219,-7.1553],[111.6073,-7.1467]]]}},{"type":"Feature","properties":{"name":"Besah","name_en":"Besah","admin_level":"7","osm_id":""},"geometry":{"type":"Polygon","coordinates":[[[111.6438,-7.1476],[111.6339,-7.1429],[111.6348,-7.1387],[111.6335,-7.1363],[111.6374,-7.1294],[111.6374,-7.1229],[111.6393,-7.1236],[111.6424,-7.1295],[111.6517,-7.1315],[111.65,-7.138],[111.6478,-7.1376],[111.646,-7.1394],[111.6438,-7.1476]]]}},{"type":"Feature","properties":{"name":"Betet","name_en":"Betet","admin_level":"7","osm_id":""},"geometry":{"type":"Polygon","coordinates":[[[111.6219,-7.1553],[111.6223,-7.1467],[111.6307,-7.1427],[111.634,-7.1422],[111.6438,-7.1476],[111.6433,-7.1506],[111.6381,-7.1524],[111.6372,-7.1472],[111.6342,-7.1458],[111.627,-7.1549],[111.6219,-7.1553]]]}},{"type":"Feature","properties":{"name":"Kasiman","name_en":"Kasiman","admin_level":"7","osm_id":""},"geometry":{"type":"Polygon","coordinates":[[[111.615,-7.1161],[111.6139,-7.1167],[111.6141,-7.1147],[111.6124,-7.1147],[111.6133,-7.1107],[111.6203,-7.1103],[111.6218,-7.1085],[111.618,-7.1068],[111.6138,-7.0989],[111.6168,-7.0976],[111.6148,-7.0961],[111.615,-7.0908],[111.6129,-7.0873],[111.6143,-7.085],[111.6126,-7.0842],[111.6125,-7.0822],[111.6163,-7.0823],[111.6143,-7.0788],[111.6169,-7.0749],[111.6198,-7.0733],[111.6216,-7.0755],[111.6237,-7.0738],[111.6274,-7.0819],[111.6304,-7.0807],[111.6302,-7.0828],[111.6325,-7.0825],[111.6311,-7.0835],[111.6323,-7.0858],[111.6377,-7.0887],[111.6391,-7.091],[111.6422,-7.0913],[111.6415,-7.0978],[111.6374,-7.1037],[111.635,-7.1022],[111.6262,-7.1029],[111.6237,-7.1169],[111.6196,-7.1136],[111.615,-7.1161]]]}},{"type":"Feature","properties":{"name":"Ngaglik","name_en":"Ngaglik","admin_level":"7","osm_id":""},"geometry":{"type":"Polygon","coordinates":[[[111.6081,-7.1346],[111.6092,-7.1322],[111.6072,-7.1313],[111.6062,-7.1277],[111.6076,-7.1285],[111.6075,-7.1267],[111.6116,-7.1255],[111.6108,-7.1223],[111.6116,-7.1214],[111.6133,-7.1228],[111.6128,-7.1203],[111.6145,-7.1193],[111.6136,-7.1185],[111.615,-7.1161],[111.6206,-7.114],[111.6237,-7.1169],[111.6216,-7.1236],[111.6227,-7.1305],[111.6203,-7.1401],[111.6172,-7.1374],[111.6154,-7.1375],[111.6159,-7.1391],[111.6101,-7.1386],[111.6113,-7.1357],[111.6078,-7.1371],[111.6081,-7.1346]]]}},{"type":"Feature","properties":{"name":"Sambeng","name_en":"Sambeng","admin_level":"7","osm_id":""},"geometry":{"type":"Polygon","coordinates":[[[111.6223,-7.1467],[111.62,-7.1465],[111.6196,-7.1438],[111.6227,-7.1305],[111.6216,-7.1236],[111.6247,-7.115],[111.6262,-7.1029],[111.635,-7.1022],[111.6361,-7.103],[111.634,-7.1053],[111.6377,-7.1103],[111.6351,-7.1173],[111.6377,-7.1269],[111.6349,-7.1357],[111.6335,-7.1363],[111.6348,-7.1387],[111.634,-7.1422],[111.6223,-7.1467]]]}},{"type":"Feature","properties":{"name":"Sekaran","name_en":"Sekaran","admin_level":"7","osm_id":""},"geometry":{"type":"Polygon","coordinates":[[[111.6517,-7.1315],[111.6424,-7.1295],[111.6386,-7.1229],[111.6356,-7.1226],[111.6351,-7.1173],[111.6377,-7.1103],[111.634,-7.1053],[111.6361,-7.103],[111.6374,-7.1037],[111.6414,-7.098],[111.6434,-7.0853],[111.6539,-7.0745],[111.6567,-7.0669],[111.6546,-7.0669],[111.654,-7.0651],[111.6567,-7.0647],[111.6582,-7.0603],[111.66,-7.0594],[111.6691,-7.0631],[111.6654,-7.0827],[111.6622,-7.0827],[111.6616,-7.0871],[111.656,-7.0884],[111.6573,-7.0967],[111.6564,-7.1025],[111.6537,-7.1019],[111.6574,-7.105],[111.658,-7.1084],[111.6569,-7.1089],[111.6582,-7.109],[111.659,-7.1127],[111.6613,-7.1149],[111.6611,-7.1169],[111.6585,-7.1175],[111.6614,-7.1197],[111.6589,-7.12],[111.6625,-7.1225],[111.6599,-7.1235],[111.6617,-7.1241],[111.6575,-7.1303],[111.6527,-7.1302],[111.6517,-7.1315]]]}},{"type":"Feature","properties":{"name":"Sidomukti","name_en":"Sidomukti","admin_level":"7","osm_id":""},"geometry":{"type":"Polygon","coordinates":[[[111.65,-7.136],[111.6524,-7.1303],[111.6575,-7.1303],[111.6605,-7.1255],[111.6631,-7.1257],[111.6658,-7.1282],[111.6663,-7.1308],[111.6622,-7.1398],[111.6534,-7.1386],[111.65,-7.136]]]}},{"type":"Feature","properties":{"name":"Tambakmerak","name_en":"Tambakmerak","admin_level":"7","osm_id":""},"geometry":{"type":"Polygon","coordinates":[[[111.6605,-7.1255],[111.6617,-7.1238],[111.6599,-7.1235],[111.6625,-7.1222],[111.6597,-7.1217],[111.659,-7.1198],[111.6614,-7.1195],[111.6585,-7.1172],[111.6608,-7.1172],[111.6613,-7.1149],[111.659,-7.1127],[111.6582,-7.109],[111.6569,-7.1089],[111.658,-7.1084],[111.6574,-7.105],[111.6537,-7.1019],[111.6564,-7.1025],[111.6573,-7.0967],[111.656,-7.0884],[111.6617,-7.0869],[111.6681,-7.088],[111.6695,-7.0892],[111.6694,-7.0935],[111.6678,-7.0986],[111.6602,-7.1048],[111.6659,-7.1034],[111.6694,-7.1057],[111.6682,-7.1086],[111.6717,-7.1081],[111.6709,-7.1102],[111.673,-7.1099],[111.6706,-7.1132],[111.6741,-7.1122],[111.6751,-7.1138],[111.6717,-7.1153],[111.6707,-7.1176],[111.6725,-7.1259],[111.6658,-7.1282],[111.6631,-7.1257],[111.6605,-7.1255]]]}},{"type":"Feature","properties":{"name":"Tembeling","name_en":"Tembeling","admin_level":"7","osm_id":""},"geometry":{"type":"Polygon","coordinates":[[[111.6381,-7.1524],[111.6437,-7.1497],[111.6521,-7.1499],[111.651,-7.1556],[111.655,-7.1572],[111.6574,-7.167],[111.6524,-7.1673],[111.644,-7.1642],[111.6396,-7.1583],[111.6381,-7.1524]]]}}]}