{"type":"FeatureCollection","metadata":{"parent_osm_id":"14972915","parent_name":"Bungaya","parent_name_1":"SulawesiSelatan","parent_gid":"IDN.26.6.9_1","parent_level":"6","child_level":"7","count":7,"source":"GADM 4.1","generated":"2026-05-08"},"features":[{"type":"Feature","properties":{"name":"Bissoloro","name_en":"Bissoloro","admin_level":"7","osm_id":""},"geometry":{"type":"Polygon","coordinates":[[[119.6696,-5.3979],[119.664,-5.4037],[119.6528,-5.4053],[119.649,-5.4083],[119.6445,-5.4081],[119.647,-5.3967],[119.6437,-5.3926],[119.6433,-5.3888],[119.6375,-5.3849],[119.6369,-5.3805],[119.6331,-5.3762],[119.6235,-5.3737],[119.6176,-5.3676],[119.6183,-5.3541],[119.6154,-5.3478],[119.6067,-5.3403],[119.6045,-5.3401],[119.6031,-5.3368],[119.5998,-5.3345],[119.6017,-5.3315],[119.5932,-5.3213],[119.5951,-5.3173],[119.5855,-5.3019],[119.5852,-5.2951],[119.5902,-5.2962],[119.5936,-5.2944],[119.5984,-5.2953],[119.6032,-5.3007],[119.6131,-5.3072],[119.6164,-5.3134],[119.6232,-5.3154],[119.6234,-5.3192],[119.6263,-5.3193],[119.6275,-5.3241],[119.6299,-5.3251],[119.6296,-5.33],[119.6334,-5.331],[119.6324,-5.3369],[119.6362,-5.3351],[119.6371,-5.3378],[119.6426,-5.3394],[119.6452,-5.342],[119.6464,-5.3388],[119.6487,-5.3436],[119.655,-5.3467],[119.6541,-5.351],[119.6567,-5.3523],[119.6583,-5.3598],[119.6577,-5.368],[119.6589,-5.3703],[119.6575,-5.3724],[119.6717,-5.3826],[119.6721,-5.3927],[119.6696,-5.3979]]]}},{"type":"Feature","properties":{"name":"Bontomanai","name_en":"Bontomanai","admin_level":"7","osm_id":""},"geometry":{"type":"Polygon","coordinates":[[[119.7504,-5.3283],[119.7501,-5.3304],[119.7456,-5.3323],[119.7436,-5.3357],[119.7392,-5.3364],[119.7344,-5.3478],[119.7173,-5.3545],[119.7144,-5.358],[119.7132,-5.3658],[119.7068,-5.3614],[119.7035,-5.3504],[119.6957,-5.3483],[119.6911,-5.3445],[119.6932,-5.336],[119.6918,-5.3291],[119.6949,-5.3255],[119.6922,-5.3216],[119.6884,-5.3196],[119.6879,-5.3218],[119.6844,-5.3218],[119.6821,-5.3248],[119.6785,-5.3219],[119.6766,-5.3234],[119.6723,-5.3214],[119.667,-5.3171],[119.6628,-5.316],[119.6587,-5.3174],[119.6564,-5.3148],[119.6489,-5.3132],[119.6478,-5.306],[119.6536,-5.3026],[119.6774,-5.3055],[119.6821,-5.3048],[119.6967,-5.3107],[119.6968,-5.3294],[119.6986,-5.3272],[119.7079,-5.3284],[119.7095,-5.33],[119.7145,-5.3255],[119.7212,-5.3293],[119.735,-5.3275],[119.7504,-5.3283]]]}},{"type":"Feature","properties":{"name":"Buakkang","name_en":"Buakkang","admin_level":"7","osm_id":""},"geometry":{"type":"Polygon","coordinates":[[[119.7076,-5.4381],[119.7064,-5.4198],[119.6988,-5.4147],[119.6938,-5.4158],[119.6834,-5.4125],[119.6783,-5.4004],[119.6757,-5.3984],[119.6814,-5.3961],[119.6905,-5.3955],[119.7031,-5.3981],[119.7144,-5.3972],[119.7341,-5.3919],[119.7411,-5.42],[119.7265,-5.4299],[119.72,-5.4312],[119.7076,-5.4381]]]}},{"type":"Feature","properties":{"name":"Jenebatu","name_en":"Jenebatu","admin_level":"7","osm_id":""},"geometry":{"type":"Polygon","coordinates":[[[119.7896,-5.3331],[119.7877,-5.3328],[119.785,-5.3358],[119.7828,-5.3459],[119.7878,-5.3559],[119.792,-5.3588],[119.7901,-5.3598],[119.7939,-5.3642],[119.7955,-5.3707],[119.7848,-5.3703],[119.7556,-5.3638],[119.729,-5.3503],[119.7344,-5.3478],[119.7392,-5.3364],[119.7436,-5.3357],[119.7456,-5.3323],[119.7501,-5.3304],[119.7504,-5.3283],[119.7562,-5.3283],[119.7561,-5.3127],[119.7639,-5.3107],[119.7714,-5.3024],[119.789,-5.3089],[119.7805,-5.3171],[119.7759,-5.3242],[119.7795,-5.3261],[119.7928,-5.3272],[119.7896,-5.3331]]]}},{"type":"Feature","properties":{"name":"Mangempang","name_en":"Mangempang","admin_level":"7","osm_id":""},"geometry":{"type":"Polygon","coordinates":[[[119.6489,-5.3132],[119.6564,-5.3148],[119.6587,-5.3174],[119.6628,-5.316],[119.667,-5.3171],[119.6723,-5.3214],[119.6766,-5.3234],[119.6785,-5.3219],[119.6821,-5.3248],[119.6844,-5.3218],[119.6879,-5.3218],[119.6884,-5.3196],[119.6922,-5.3216],[119.6949,-5.3255],[119.6918,-5.3291],[119.6932,-5.336],[119.6911,-5.3445],[119.6774,-5.3384],[119.6627,-5.3371],[119.6544,-5.3307],[119.6484,-5.331],[119.6456,-5.3289],[119.6489,-5.3132]]]}},{"type":"Feature","properties":{"name":"Rannaloe","name_en":"Rannaloe","admin_level":"7","osm_id":""},"geometry":{"type":"Polygon","coordinates":[[[119.6757,-5.3984],[119.6696,-5.3979],[119.6721,-5.3927],[119.6717,-5.3826],[119.6575,-5.3724],[119.6589,-5.3703],[119.6577,-5.368],[119.6583,-5.3598],[119.6567,-5.3523],[119.6541,-5.351],[119.655,-5.3467],[119.6487,-5.3436],[119.6464,-5.3388],[119.6452,-5.342],[119.6387,-5.3383],[119.6425,-5.3342],[119.6447,-5.3282],[119.6484,-5.331],[119.6544,-5.3307],[119.6627,-5.3371],[119.6774,-5.3384],[119.6914,-5.3446],[119.6982,-5.3495],[119.7013,-5.3489],[119.7035,-5.3504],[119.7068,-5.3614],[119.7202,-5.37],[119.7276,-5.3791],[119.7341,-5.3919],[119.7144,-5.3972],[119.7031,-5.3981],[119.6905,-5.3955],[119.6814,-5.3961],[119.6757,-5.3984]]]}},{"type":"Feature","properties":{"name":"Sapaya","name_en":"Sapaya","admin_level":"7","osm_id":""},"geometry":{"type":"Polygon","coordinates":[[[119.7415,-5.4199],[119.7358,-5.3954],[119.7276,-5.3791],[119.7202,-5.37],[119.7131,-5.3659],[119.7144,-5.358],[119.7173,-5.3545],[119.729,-5.3503],[119.7556,-5.3638],[119.7848,-5.3703],[119.7955,-5.3707],[119.7973,-5.3817],[119.8029,-5.3906],[119.7998,-5.392],[119.7969,-5.4006],[119.7973,-5.4041],[119.785,-5.3991],[119.7733,-5.4096],[119.7611,-5.4119],[119.7508,-5.4179],[119.7415,-5.4199]]]}}]}