{"type":"FeatureCollection","metadata":{"parent_osm_id":"16242455","parent_name":"SungaiKunjang","parent_name_1":"KalimantanTimur","parent_gid":"IDN.34.12.6_1","parent_level":"6","child_level":"7","count":7,"source":"GADM 4.1","generated":"2026-05-08"},"features":[{"type":"Feature","properties":{"name":"KarangAnyar","name_en":"KarangAnyar","admin_level":"7","osm_id":""},"geometry":{"type":"Polygon","coordinates":[[[117.1218,-0.5067],[117.1183,-0.5056],[117.1144,-0.5076],[117.1143,-0.5095],[117.109,-0.5062],[117.1142,-0.4939],[117.1162,-0.4942],[117.1199,-0.4905],[117.1221,-0.4914],[117.1242,-0.4973],[117.1172,-0.5023],[117.1218,-0.5067]]]}},{"type":"Feature","properties":{"name":"KarangAsamIlir","name_en":"KarangAsamIlir","admin_level":"7","osm_id":""},"geometry":{"type":"Polygon","coordinates":[[[117.1211,-0.5072],[117.1202,-0.5157],[117.1164,-0.5157],[117.1118,-0.5128],[117.111,-0.5147],[117.1081,-0.5139],[117.1063,-0.5153],[117.109,-0.5062],[117.1143,-0.5095],[117.1144,-0.5076],[117.1183,-0.5056],[117.1211,-0.5072]]]}},{"type":"Feature","properties":{"name":"KarangAsamUlu","name_en":"KarangAsamUlu","admin_level":"7","osm_id":""},"geometry":{"type":"Polygon","coordinates":[[[117.1202,-0.5157],[117.1161,-0.5289],[117.1088,-0.5309],[117.1063,-0.5153],[117.1081,-0.5139],[117.111,-0.5147],[117.1118,-0.5128],[117.1164,-0.5157],[117.1202,-0.5157]]]}},{"type":"Feature","properties":{"name":"LoaBakung","name_en":"LoaBakung","admin_level":"7","osm_id":""},"geometry":{"type":"Polygon","coordinates":[[[117.1132,-0.5347],[117.0943,-0.5374],[117.0877,-0.5449],[117.0687,-0.5307],[117.0651,-0.5264],[117.0612,-0.5176],[117.0577,-0.5189],[117.0523,-0.515],[117.0534,-0.5079],[117.0827,-0.508],[117.0864,-0.5097],[117.0877,-0.505],[117.0928,-0.504],[117.0975,-0.4974],[117.1014,-0.4995],[117.1037,-0.4976],[117.1057,-0.498],[117.1104,-0.5008],[117.1063,-0.5163],[117.1088,-0.5309],[117.1161,-0.5289],[117.1132,-0.5347]]]}},{"type":"Feature","properties":{"name":"LoaBuah","name_en":"LoaBuah","admin_level":"7","osm_id":""},"geometry":{"type":"Polygon","coordinates":[[[117.0843,-0.5768],[117.0821,-0.5773],[117.0786,-0.5862],[117.0755,-0.5899],[117.0762,-0.5786],[117.0667,-0.5714],[117.0616,-0.5592],[117.0563,-0.5375],[117.0651,-0.5264],[117.0762,-0.5372],[117.0877,-0.5449],[117.0853,-0.5545],[117.0854,-0.5756],[117.0843,-0.5768]]]}},{"type":"Feature","properties":{"name":"LokBahu","name_en":"LokBahu","admin_level":"7","osm_id":""},"geometry":{"type":"Polygon","coordinates":[[[117.0563,-0.5375],[117.0545,-0.529],[117.0471,-0.5165],[117.0479,-0.4918],[117.056,-0.4619],[117.0662,-0.4387],[117.0687,-0.434],[117.0718,-0.4327],[117.0685,-0.4411],[117.1028,-0.4779],[117.1093,-0.4817],[117.1186,-0.4922],[117.1142,-0.4939],[117.1104,-0.504],[117.1104,-0.5008],[117.1057,-0.498],[117.1037,-0.4976],[117.1014,-0.4995],[117.0978,-0.4973],[117.0928,-0.504],[117.0877,-0.505],[117.0864,-0.5097],[117.0827,-0.508],[117.0534,-0.5079],[117.052,-0.5147],[117.0577,-0.5189],[117.0612,-0.5176],[117.0651,-0.526],[117.0563,-0.5375]]]}},{"type":"Feature","properties":{"name":"TelukLerongUlu","name_en":"TelukLerongUlu","admin_level":"7","osm_id":""},"geometry":{"type":"Polygon","coordinates":[[[117.1272,-0.5024],[117.1218,-0.5067],[117.1172,-0.5023],[117.1242,-0.4973],[117.1203,-0.4898],[117.125,-0.4931],[117.13,-0.4925],[117.13,-0.4954],[117.1287,-0.4958],[117.1302,-0.4968],[117.1272,-0.5024]]]}}]}