{"type":"FeatureCollection","metadata":{"parent_osm_id":"16446983","parent_name":"Tanjungpura","parent_name_1":"SumateraUtara","parent_gid":"IDN.32.15.22_1","parent_level":"6","child_level":"7","count":19,"source":"GADM 4.1","generated":"2026-05-08"},"features":[{"type":"Feature","properties":{"name":"BajaKuning","name_en":"BajaKuning","admin_level":"7","osm_id":""},"geometry":{"type":"Polygon","coordinates":[[[98.433,3.9282],[98.4241,3.9284],[98.423,3.9441],[98.4386,3.9436],[98.4342,3.9392],[98.4374,3.9357],[98.4341,3.9336],[98.4377,3.9317],[98.433,3.9282]]]}},{"type":"Feature","properties":{"name":"Bubun","name_en":"Bubun","admin_level":"7","osm_id":""},"geometry":{"type":"Polygon","coordinates":[[[98.4901,4.0116],[98.4978,4.0176],[98.5036,4.0175],[98.5085,4.0155],[98.5128,4.0172],[98.5119,4.0189],[98.5155,4.0197],[98.5185,4.0195],[98.5201,4.0167],[98.5303,4.0153],[98.5332,4.0134],[98.5243,3.9875],[98.5238,3.9825],[98.5257,3.975],[98.5178,3.9724],[98.5117,3.9612],[98.5022,3.9671],[98.5026,3.9746],[98.5057,3.9792],[98.4954,3.9813],[98.4977,3.9927],[98.495,4.0014],[98.4901,4.0068],[98.4901,4.0116]]]}},{"type":"Feature","properties":{"name":"KaryaMaju","name_en":"KaryaMaju","admin_level":"7","osm_id":""},"geometry":{"type":"Polygon","coordinates":[[[98.5383,3.9395],[98.5361,3.9371],[98.5367,3.9324],[98.5352,3.9309],[98.5272,3.9326],[98.5204,3.9322],[98.5179,3.9281],[98.5147,3.929],[98.5074,3.9222],[98.4957,3.9232],[98.4887,3.9196],[98.4874,3.9217],[98.4854,3.9214],[98.4844,3.9192],[98.4856,3.9165],[98.4902,3.9126],[98.4904,3.9108],[98.4794,3.9078],[98.4817,3.9017],[98.4666,3.8922],[98.4644,3.8971],[98.4666,3.9121],[98.4732,3.9205],[98.4896,3.9315],[98.4958,3.9402],[98.4966,3.9388],[98.5021,3.9381],[98.5061,3.9454],[98.5151,3.9492],[98.5151,3.9461],[98.5174,3.9431],[98.525,3.9409],[98.5326,3.9432],[98.5383,3.9395]]]}},{"type":"Feature","properties":{"name":"KwalaLangkat","name_en":"KwalaLangkat","admin_level":"7","osm_id":""},"geometry":{"type":"Polygon","coordinates":[[[98.4901,4.0116],[98.4901,4.0068],[98.4963,3.9984],[98.4975,3.9886],[98.4778,3.978],[98.472,3.9779],[98.4709,3.9797],[98.4718,3.9852],[98.4686,3.9878],[98.4697,3.9893],[98.4726,3.988],[98.4741,3.9953],[98.4726,3.9968],[98.4722,4.0048],[98.469,4.0121],[98.4711,4.0245],[98.4694,4.0381],[98.4728,4.0363],[98.4802,4.036],[98.4917,4.0293],[98.4865,4.0197],[98.4877,4.0135],[98.4901,4.0116]]]}},{"type":"Feature","properties":{"name":"KwalaSerapuh","name_en":"KwalaSerapuh","admin_level":"7","osm_id":""},"geometry":{"type":"Polygon","coordinates":[[[98.4319,4.0134],[98.4363,4.0197],[98.4405,4.0199],[98.4434,4.0171],[98.4468,4.0093],[98.4504,4.0074],[98.4517,4.0082],[98.4577,4.0173],[98.4575,4.0199],[98.4474,4.0295],[98.4459,4.0391],[98.4501,4.0411],[98.4694,4.0381],[98.4711,4.0245],[98.469,4.0121],[98.4722,4.0048],[98.4726,3.9968],[98.4741,3.9959],[98.4733,3.9889],[98.4721,3.9879],[98.4697,3.9893],[98.467,3.9868],[98.4609,3.9877],[98.4539,3.9825],[98.4529,3.9854],[98.4504,3.9868],[98.4428,3.9855],[98.4417,3.9923],[98.4467,3.9965],[98.4478,3.9997],[98.4329,4.0063],[98.4319,4.0134]]]}},{"type":"Feature","properties":{"name":"Lalang","name_en":"Lalang","admin_level":"7","osm_id":""},"geometry":{"type":"Polygon","coordinates":[[[98.4449,3.8959],[98.4408,3.8933],[98.4413,3.8909],[98.439,3.8914],[98.4377,3.8899],[98.4342,3.8905],[98.4339,3.8923],[98.4276,3.8953],[98.4294,3.8984],[98.4293,3.9029],[98.431,3.9011],[98.4371,3.9004],[98.4427,3.904],[98.4449,3.8959]]]}},{"type":"Feature","properties":{"name":"PantaiCermin","name_en":"PantaiCermin","admin_level":"7","osm_id":""},"geometry":{"type":"Polygon","coordinates":[[[98.4624,3.8912],[98.4508,3.8901],[98.4467,3.8937],[98.4449,3.8932],[98.4427,3.904],[98.4454,3.9183],[98.4486,3.9191],[98.4491,3.917],[98.451,3.9164],[98.4568,3.9191],[98.4732,3.9205],[98.4666,3.9121],[98.4644,3.8971],[98.4666,3.8922],[98.4624,3.8912]]]}},{"type":"Feature","properties":{"name":"PayaPerupuk","name_en":"PayaPerupuk","admin_level":"7","osm_id":""},"geometry":{"type":"Polygon","coordinates":[[[98.419,3.8912],[98.4151,3.8926],[98.4131,3.8963],[98.4076,3.8973],[98.4115,3.9075],[98.4174,3.9049],[98.4238,3.9086],[98.4226,3.9044],[98.4196,3.9013],[98.4205,3.8931],[98.419,3.8912]]]}},{"type":"Feature","properties":{"name":"PekanTanjungPura","name_en":"PekanTanjungPura","admin_level":"7","osm_id":""},"geometry":{"type":"Polygon","coordinates":[[[98.428,3.8947],[98.4278,3.8906],[98.4241,3.8884],[98.4221,3.891],[98.419,3.8912],[98.4205,3.8931],[98.4196,3.9013],[98.4226,3.9044],[98.4238,3.9086],[98.427,3.9084],[98.429,3.9025],[98.428,3.8947]]]}},{"type":"Feature","properties":{"name":"Pekubuan","name_en":"Pekubuan","admin_level":"7","osm_id":""},"geometry":{"type":"Polygon","coordinates":[[[98.4306,3.928],[98.4333,3.9281],[98.4357,3.9254],[98.44,3.9288],[98.4453,3.9245],[98.4435,3.9213],[98.4461,3.9186],[98.4427,3.904],[98.4371,3.9004],[98.429,3.9025],[98.427,3.9084],[98.4238,3.9086],[98.4236,3.9111],[98.4198,3.9155],[98.4207,3.9174],[98.425,3.916],[98.4306,3.928]]]}},{"type":"Feature","properties":{"name":"PematangCengal","name_en":"PematangCengal","admin_level":"7","osm_id":""},"geometry":{"type":"Polygon","coordinates":[[[98.4976,3.989],[98.4976,3.9874],[98.4954,3.9813],[98.5057,3.9792],[98.5032,3.9747],[98.4913,3.9768],[98.4838,3.9743],[98.4827,3.9723],[98.4873,3.9623],[98.4998,3.9602],[98.5053,3.9562],[98.5045,3.9513],[98.4896,3.9315],[98.4862,3.9329],[98.4877,3.9364],[98.4853,3.9428],[98.4851,3.9496],[98.4831,3.9508],[98.4819,3.95],[98.4814,3.9407],[98.4786,3.9391],[98.4768,3.9416],[98.4737,3.9394],[98.4683,3.9435],[98.4634,3.9419],[98.4599,3.9439],[98.4592,3.9421],[98.4617,3.9342],[98.4573,3.9228],[98.4453,3.9245],[98.4394,3.9289],[98.4441,3.9309],[98.4465,3.9337],[98.4485,3.9414],[98.4549,3.9469],[98.4554,3.9528],[98.4535,3.9554],[98.4441,3.9603],[98.4418,3.9653],[98.4384,3.9662],[98.44,3.9722],[98.4378,3.9763],[98.4388,3.9825],[98.4428,3.9856],[98.4504,3.9868],[98.4529,3.9854],[98.4539,3.9825],[98.4609,3.9877],[98.467,3.9868],[98.4686,3.9878],[98.4718,3.9852],[98.4714,3.9785],[98.4753,3.9775],[98.4976,3.989]]]}},{"type":"Feature","properties":{"name":"PematangCengalBarat","name_en":"PematangCengalBarat","admin_level":"7","osm_id":""},"geometry":{"type":"Polygon","coordinates":[[[98.433,3.9282],[98.4377,3.9317],[98.4341,3.9336],[98.4374,3.9357],[98.4342,3.9392],[98.4385,3.9422],[98.4379,3.9443],[98.4485,3.9414],[98.4469,3.9347],[98.4441,3.9309],[98.4392,3.9289],[98.4357,3.9254],[98.433,3.9282]]]}},{"type":"Feature","properties":{"name":"PematangSerai","name_en":"PematangSerai","admin_level":"7","osm_id":""},"geometry":{"type":"Polygon","coordinates":[[[98.4128,3.9285],[98.4117,3.9306],[98.4139,3.9307],[98.4137,3.9319],[98.4105,3.9321],[98.411,3.9341],[98.4087,3.9349],[98.4133,3.9423],[98.4124,3.944],[98.408,3.9453],[98.4085,3.9491],[98.4103,3.9471],[98.411,3.9482],[98.411,3.9538],[98.4104,3.955],[98.4076,3.9535],[98.4065,3.9545],[98.4088,3.9575],[98.412,3.9574],[98.4123,3.9602],[98.4162,3.9634],[98.4165,3.9436],[98.423,3.9441],[98.424,3.9272],[98.4222,3.9241],[98.4176,3.9245],[98.4128,3.9285]]]}},{"type":"Feature","properties":{"name":"PematangTengah","name_en":"PematangTengah","admin_level":"7","osm_id":""},"geometry":{"type":"Polygon","coordinates":[[[98.4076,3.8973],[98.4012,3.8971],[98.4043,3.9117],[98.4125,3.9168],[98.413,3.9135],[98.4076,3.8973]]]}},{"type":"Feature","properties":{"name":"PulauBanyak","name_en":"PulauBanyak","admin_level":"7","osm_id":""},"geometry":{"type":"Polygon","coordinates":[[[98.4163,3.9633],[98.4215,3.9609],[98.4233,3.9616],[98.4223,3.9665],[98.4244,3.9682],[98.4225,3.9715],[98.4235,3.9755],[98.4266,3.9833],[98.4316,3.9866],[98.4285,3.9922],[98.4291,3.9956],[98.4323,3.9966],[98.4387,3.9947],[98.4428,4.0009],[98.4478,3.9997],[98.4467,3.9965],[98.4417,3.9923],[98.4428,3.9856],[98.4379,3.9812],[98.4378,3.9763],[98.44,3.9738],[98.4381,3.967],[98.4418,3.9653],[98.4441,3.9603],[98.4542,3.9546],[98.4549,3.9469],[98.4485,3.9414],[98.4373,3.9445],[98.4165,3.9436],[98.4163,3.9633]]]}},{"type":"Feature","properties":{"name":"SerapuhAsli","name_en":"SerapuhAsli","admin_level":"7","osm_id":""},"geometry":{"type":"Polygon","coordinates":[[[98.4039,3.9138],[98.4075,3.92],[98.4123,3.9242],[98.4115,3.926],[98.4128,3.9285],[98.4177,3.9246],[98.4125,3.9168],[98.4078,3.9128],[98.4052,3.9111],[98.4039,3.9138]]]}},{"type":"Feature","properties":{"name":"SukaMaju","name_en":"SukaMaju","admin_level":"7","osm_id":""},"geometry":{"type":"Polygon","coordinates":[[[98.4891,3.9312],[98.4732,3.9205],[98.4568,3.9191],[98.451,3.9164],[98.4491,3.917],[98.4493,3.9188],[98.4461,3.9186],[98.4435,3.9213],[98.4453,3.9245],[98.4545,3.9224],[98.4582,3.924],[98.4617,3.9342],[98.4592,3.9421],[98.4599,3.9439],[98.4634,3.9419],[98.4683,3.9435],[98.4737,3.9394],[98.4768,3.9416],[98.4786,3.9391],[98.4814,3.9407],[98.4819,3.95],[98.4831,3.9508],[98.4851,3.9496],[98.4853,3.9428],[98.4877,3.9364],[98.4862,3.9329],[98.4891,3.9312]]]}},{"type":"Feature","properties":{"name":"TapakKuda","name_en":"TapakKuda","admin_level":"7","osm_id":""},"geometry":{"type":"Polygon","coordinates":[[[98.5522,3.9453],[98.5383,3.9395],[98.5326,3.9432],[98.5239,3.9409],[98.5163,3.944],[98.5151,3.9492],[98.5061,3.9454],[98.5021,3.9381],[98.4959,3.94],[98.5045,3.9513],[98.5051,3.9571],[98.5011,3.9595],[98.5045,3.9649],[98.5117,3.9612],[98.5178,3.9724],[98.5257,3.975],[98.5238,3.9825],[98.5243,3.9875],[98.5332,4.0134],[98.5386,4.0113],[98.5425,4.0077],[98.5382,3.9981],[98.5385,3.9928],[98.5406,3.9889],[98.5452,3.9829],[98.551,3.9837],[98.557,3.9722],[98.5578,3.9675],[98.5544,3.9623],[98.5585,3.9498],[98.5522,3.9453]]]}},{"type":"Feature","properties":{"name":"TelukBakung","name_en":"TelukBakung","admin_level":"7","osm_id":""},"geometry":{"type":"Polygon","coordinates":[[[98.4241,3.9284],[98.4307,3.9278],[98.425,3.916],[98.4197,3.917],[98.4207,3.9132],[98.424,3.9095],[98.417,3.9049],[98.4115,3.9075],[98.4136,3.916],[98.4125,3.9168],[98.4176,3.9245],[98.4222,3.9241],[98.4241,3.9284]]]}}]}