{"type":"FeatureCollection","metadata":{"parent_osm_id":"17637484","parent_name":"Sidorejo","parent_name_1":"JawaTengah","parent_gid":"IDN.10.27.3_1","parent_level":"6","child_level":"7","count":6,"source":"GADM 4.1","generated":"2026-05-07"},"features":[{"type":"Feature","properties":{"name":"Blotongan","name_en":"Blotongan","admin_level":"7","osm_id":""},"geometry":{"type":"Polygon","coordinates":[[[110.4889,-7.2924],[110.4931,-7.2952],[110.4955,-7.3009],[110.4868,-7.304],[110.4825,-7.3095],[110.4788,-7.3075],[110.4768,-7.308],[110.477,-7.3055],[110.4747,-7.3028],[110.4704,-7.3026],[110.4696,-7.2992],[110.4717,-7.2973],[110.4688,-7.2958],[110.484,-7.2861],[110.4889,-7.2924]]]}},{"type":"Feature","properties":{"name":"Bugel","name_en":"Bugel","admin_level":"7","osm_id":""},"geometry":{"type":"Polygon","coordinates":[[[110.4955,-7.3009],[110.4931,-7.2952],[110.4889,-7.2924],[110.4944,-7.2879],[110.4936,-7.2921],[110.4983,-7.2985],[110.5003,-7.3002],[110.5095,-7.3007],[110.5077,-7.3055],[110.5096,-7.3093],[110.5087,-7.3148],[110.5053,-7.3107],[110.4994,-7.313],[110.4962,-7.3115],[110.4964,-7.3064],[110.4996,-7.3029],[110.4955,-7.3009]]]}},{"type":"Feature","properties":{"name":"KaumanKidul","name_en":"KaumanKidul","admin_level":"7","osm_id":""},"geometry":{"type":"Polygon","coordinates":[[[110.5086,-7.3089],[110.5084,-7.3022],[110.5106,-7.3019],[110.5132,-7.2942],[110.5157,-7.2945],[110.5187,-7.2895],[110.5204,-7.2924],[110.5185,-7.2966],[110.5206,-7.2986],[110.5208,-7.302],[110.5181,-7.3041],[110.5173,-7.3104],[110.5086,-7.3089]]]}},{"type":"Feature","properties":{"name":"Pulutan","name_en":"Pulutan","admin_level":"7","osm_id":""},"geometry":{"type":"Polygon","coordinates":[[[110.4864,-7.3188],[110.4858,-7.3175],[110.4747,-7.3165],[110.4761,-7.3125],[110.4732,-7.3096],[110.4752,-7.3106],[110.4759,-7.3091],[110.4721,-7.3061],[110.4714,-7.3033],[110.4748,-7.3029],[110.4773,-7.3083],[110.4788,-7.3075],[110.484,-7.3095],[110.4869,-7.3069],[110.4895,-7.3094],[110.489,-7.3123],[110.4917,-7.3167],[110.4864,-7.3188]]]}},{"type":"Feature","properties":{"name":"Salatiga","name_en":"Salatiga","admin_level":"7","osm_id":""},"geometry":{"type":"Polygon","coordinates":[[[110.5048,-7.3275],[110.498,-7.3285],[110.4981,-7.3263],[110.4955,-7.326],[110.4984,-7.3219],[110.4958,-7.3176],[110.4974,-7.3119],[110.4994,-7.313],[110.5053,-7.3107],[110.5077,-7.3149],[110.5129,-7.3143],[110.5143,-7.3155],[110.5109,-7.3164],[110.5075,-7.325],[110.5048,-7.3275]]]}},{"type":"Feature","properties":{"name":"SidorejoLor","name_en":"SidorejoLor","admin_level":"7","osm_id":""},"geometry":{"type":"Polygon","coordinates":[[[110.4862,-7.3229],[110.4833,-7.321],[110.4841,-7.3191],[110.4873,-7.3193],[110.4917,-7.3167],[110.489,-7.3123],[110.4895,-7.3094],[110.4869,-7.3069],[110.4862,-7.3087],[110.4829,-7.3091],[110.4839,-7.3073],[110.4868,-7.304],[110.49,-7.3038],[110.4932,-7.3014],[110.4993,-7.3025],[110.499,-7.3047],[110.4964,-7.3064],[110.4962,-7.3115],[110.4974,-7.3126],[110.4958,-7.3176],[110.4979,-7.3232],[110.4945,-7.326],[110.4887,-7.3211],[110.4862,-7.3229]]]}}]}