{"type":"FeatureCollection","metadata":{"parent_osm_id":"17705148","parent_name":"Kragilan","parent_name_1":"Banten","parent_gid":"IDN.4.6.16_1","parent_level":"6","child_level":"7","count":14,"source":"GADM 4.1","generated":"2026-05-08"},"features":[{"type":"Feature","properties":{"name":"Cisait","name_en":"Cisait","admin_level":"7","osm_id":""},"geometry":{"type":"Polygon","coordinates":[[[106.2513,-6.1588],[106.2552,-6.148],[106.2464,-6.1417],[106.2463,-6.1399],[106.2585,-6.1425],[106.2639,-6.131],[106.2655,-6.1316],[106.2668,-6.1349],[106.2652,-6.1355],[106.2613,-6.1449],[106.2639,-6.1504],[106.2668,-6.1506],[106.2668,-6.1558],[106.2695,-6.1552],[106.2686,-6.1577],[106.2556,-6.1606],[106.2513,-6.1588]]]}},{"type":"Feature","properties":{"name":"Dukuh","name_en":"Dukuh","admin_level":"7","osm_id":""},"geometry":{"type":"Polygon","coordinates":[[[106.2855,-6.1759],[106.2813,-6.174],[106.284,-6.1707],[106.2835,-6.1663],[106.2862,-6.1536],[106.2981,-6.1586],[106.2984,-6.1633],[106.3023,-6.1596],[106.3057,-6.1606],[106.3056,-6.1633],[106.3015,-6.1657],[106.2978,-6.172],[106.2855,-6.1759]]]}},{"type":"Feature","properties":{"name":"Jeruktipis","name_en":"Jeruktipis","admin_level":"7","osm_id":""},"geometry":{"type":"Polygon","coordinates":[[[106.2708,-6.1273],[106.2677,-6.1166],[106.2707,-6.1122],[106.2783,-6.1068],[106.2874,-6.1106],[106.2864,-6.116],[106.2825,-6.1216],[106.2778,-6.1248],[106.2747,-6.1308],[106.2708,-6.1273]]]}},{"type":"Feature","properties":{"name":"Kamaruton","name_en":"Kamaruton","admin_level":"7","osm_id":""},"geometry":{"type":"Polygon","coordinates":[[[106.2962,-6.0933],[106.2924,-6.0928],[106.2955,-6.0948],[106.2914,-6.1091],[106.2932,-6.1111],[106.2972,-6.1099],[106.2997,-6.1111],[106.3011,-6.1124],[106.3007,-6.1159],[106.2783,-6.1068],[106.2837,-6.0972],[106.2857,-6.0963],[106.2853,-6.0908],[106.2917,-6.0899],[106.2962,-6.0933]]]}},{"type":"Feature","properties":{"name":"Kendayakan","name_en":"Kendayakan","admin_level":"7","osm_id":""},"geometry":{"type":"Polygon","coordinates":[[[106.2691,-6.1567],[106.2717,-6.1494],[106.2815,-6.1407],[106.282,-6.1428],[106.2838,-6.1413],[106.2864,-6.1417],[106.286,-6.1447],[106.2904,-6.1464],[106.2862,-6.1536],[106.2854,-6.1608],[106.2691,-6.1567]]]}},{"type":"Feature","properties":{"name":"Kragilan","name_en":"Kragilan","admin_level":"7","osm_id":""},"geometry":{"type":"Polygon","coordinates":[[[106.2965,-6.1258],[106.3001,-6.1354],[106.2966,-6.1389],[106.2966,-6.1414],[106.2933,-6.1425],[106.2903,-6.1462],[106.286,-6.1447],[106.2864,-6.1417],[106.2838,-6.1413],[106.282,-6.1428],[106.2814,-6.1379],[106.2795,-6.1359],[106.2803,-6.1342],[106.2785,-6.1327],[106.2817,-6.1261],[106.2843,-6.1234],[106.2965,-6.1258]]]}},{"type":"Feature","properties":{"name":"Kramatjati","name_en":"Kramatjati","admin_level":"7","osm_id":""},"geometry":{"type":"Polygon","coordinates":[[[106.2813,-6.174],[106.2808,-6.1763],[106.2732,-6.1714],[106.2692,-6.173],[106.271,-6.1643],[106.2666,-6.1633],[106.2717,-6.1576],[106.2818,-6.1589],[106.2854,-6.1608],[106.2835,-6.1663],[106.284,-6.1707],[106.2813,-6.174]]]}},{"type":"Feature","properties":{"name":"Pematang","name_en":"Pematang","admin_level":"7","osm_id":""},"geometry":{"type":"Polygon","coordinates":[[[106.2692,-6.173],[106.2642,-6.1731],[106.2633,-6.176],[106.2579,-6.1768],[106.2587,-6.1737],[106.2561,-6.1745],[106.254,-6.1729],[106.2568,-6.1674],[106.2553,-6.1643],[106.2568,-6.1596],[106.2622,-6.1597],[106.2691,-6.1567],[106.2714,-6.1579],[106.2666,-6.1633],[106.271,-6.1643],[106.2692,-6.173]]]}},{"type":"Feature","properties":{"name":"Sentul","name_en":"Sentul","admin_level":"7","osm_id":""},"geometry":{"type":"Polygon","coordinates":[[[106.2676,-6.1298],[106.2694,-6.1305],[106.2708,-6.1273],[106.2785,-6.1327],[106.2803,-6.1342],[106.2795,-6.1359],[106.2815,-6.1407],[106.2717,-6.1494],[106.2695,-6.1552],[106.2668,-6.1558],[106.2668,-6.1506],[106.2639,-6.1504],[106.2613,-6.1449],[106.2652,-6.1355],[106.2668,-6.1349],[106.2676,-6.1298]]]}},{"type":"Feature","properties":{"name":"Silebu","name_en":"Silebu","admin_level":"7","osm_id":""},"geometry":{"type":"Polygon","coordinates":[[[106.2265,-6.1862],[106.2257,-6.1809],[106.233,-6.1708],[106.2412,-6.1715],[106.2513,-6.1588],[106.2525,-6.1604],[106.2563,-6.1604],[106.2553,-6.1643],[106.2568,-6.1674],[106.2539,-6.1731],[106.2488,-6.1739],[106.245,-6.1715],[106.2425,-6.1743],[106.2415,-6.1795],[106.239,-6.1794],[106.2374,-6.1823],[106.2343,-6.1832],[106.2341,-6.1853],[106.2287,-6.1903],[106.2271,-6.1904],[106.2265,-6.1862]]]}},{"type":"Feature","properties":{"name":"Sukajadi","name_en":"Sukajadi","admin_level":"7","osm_id":""},"geometry":{"type":"Polygon","coordinates":[[[106.2272,-6.195],[106.2271,-6.1904],[106.229,-6.1902],[106.239,-6.1794],[106.2415,-6.1795],[106.2425,-6.1743],[106.245,-6.1715],[106.2509,-6.1742],[106.2533,-6.1729],[106.2557,-6.173],[106.2561,-6.1745],[106.2587,-6.1737],[106.2579,-6.1768],[106.2517,-6.1794],[106.2496,-6.1843],[106.2435,-6.1848],[106.2372,-6.1911],[106.2303,-6.1912],[106.2272,-6.195]]]}},{"type":"Feature","properties":{"name":"Tegalmaja","name_en":"Tegalmaja","admin_level":"7","osm_id":""},"geometry":{"type":"Polygon","coordinates":[[[106.3007,-6.1159],[106.2962,-6.1261],[106.2933,-6.1259],[106.2916,-6.1239],[106.2843,-6.1234],[106.2785,-6.1327],[106.2747,-6.1308],[106.2778,-6.1248],[106.2825,-6.1216],[106.2864,-6.116],[106.2874,-6.1106],[106.3007,-6.1159]]]}},{"type":"Feature","properties":{"name":"Terasbendung","name_en":"Terasbendung","admin_level":"7","osm_id":""},"geometry":{"type":"Polygon","coordinates":[[[106.2842,-6.0774],[106.2897,-6.0829],[106.298,-6.0869],[106.2965,-6.0927],[106.2917,-6.0899],[106.2853,-6.0908],[106.2857,-6.0963],[106.28,-6.1026],[106.2657,-6.0992],[106.2774,-6.0908],[106.2842,-6.0774]]]}},{"type":"Feature","properties":{"name":"UndarAndir","name_en":"UndarAndir","admin_level":"7","osm_id":""},"geometry":{"type":"Polygon","coordinates":[[[106.3,-6.1404],[106.3031,-6.1421],[106.3048,-6.1471],[106.3092,-6.15],[106.3079,-6.1567],[106.3004,-6.157],[106.2981,-6.1586],[106.2862,-6.1536],[106.2895,-6.1472],[106.2933,-6.1425],[106.2966,-6.1414],[106.2984,-6.1372],[106.2997,-6.1369],[106.3,-6.1404]]]}}]}