{"type":"FeatureCollection","metadata":{"parent_osm_id":"17757983","parent_name":"Puspo","parent_name_1":"JawaTimur","parent_gid":"IDN.11.28.17_1","parent_level":"6","child_level":"7","count":7,"source":"GADM 4.1","generated":"2026-05-07"},"features":[{"type":"Feature","properties":{"name":"Jangjangwulung","name_en":"Jangjangwulung","admin_level":"7","osm_id":""},"geometry":{"type":"Polygon","coordinates":[[[112.8308,-7.8361],[112.834,-7.8362],[112.8351,-7.834],[112.8376,-7.8339],[112.8421,-7.8259],[112.8452,-7.8243],[112.8446,-7.8295],[112.8419,-7.8327],[112.844,-7.8447],[112.8417,-7.8517],[112.8426,-7.8578],[112.8394,-7.8611],[112.8407,-7.8642],[112.8355,-7.8666],[112.8358,-7.8689],[112.8339,-7.8707],[112.8302,-7.8667],[112.8297,-7.862],[112.8251,-7.8563],[112.8266,-7.8528],[112.8251,-7.845],[112.8273,-7.8407],[112.8309,-7.8378],[112.8308,-7.8361]]]}},{"type":"Feature","properties":{"name":"Jimbaran","name_en":"Jimbaran","admin_level":"7","osm_id":""},"geometry":{"type":"Polygon","coordinates":[[[112.8959,-7.8128],[112.8977,-7.8165],[112.9008,-7.8184],[112.9006,-7.8201],[112.9027,-7.8205],[112.9028,-7.8261],[112.9078,-7.8294],[112.91,-7.8367],[112.9072,-7.8372],[112.9024,-7.8338],[112.8959,-7.8428],[112.8901,-7.8426],[112.8846,-7.8485],[112.8852,-7.8416],[112.8833,-7.837],[112.8837,-7.8336],[112.8726,-7.8255],[112.8712,-7.821],[112.8725,-7.8141],[112.8685,-7.8043],[112.877,-7.8116],[112.8959,-7.8128]]]}},{"type":"Feature","properties":{"name":"Keduwung","name_en":"Keduwung","admin_level":"7","osm_id":""},"geometry":{"type":"Polygon","coordinates":[[[112.9422,-7.8618],[112.9511,-7.8685],[112.9575,-7.8913],[112.9563,-7.8981],[112.9532,-7.9039],[112.9488,-7.9063],[112.9489,-7.9083],[112.9357,-7.9054],[112.931,-7.8837],[112.9249,-7.8756],[112.9177,-7.8721],[112.9138,-7.8675],[112.9147,-7.8627],[112.9122,-7.8593],[112.914,-7.8569],[112.9116,-7.8545],[112.9139,-7.8486],[112.9101,-7.8428],[112.9099,-7.8343],[112.9076,-7.8292],[112.9049,-7.8286],[112.9028,-7.8261],[112.9034,-7.8239],[112.9108,-7.8232],[112.9146,-7.8274],[112.9243,-7.8515],[112.9256,-7.8607],[112.9305,-7.8643],[112.9394,-7.8637],[112.9422,-7.8618]]]}},{"type":"Feature","properties":{"name":"Kemiri","name_en":"Kemiri","admin_level":"7","osm_id":""},"geometry":{"type":"Polygon","coordinates":[[[112.8456,-7.8236],[112.8609,-7.8197],[112.8604,-7.8237],[112.8629,-7.8272],[112.8624,-7.8338],[112.86,-7.8379],[112.8607,-7.8391],[112.8566,-7.8411],[112.8477,-7.8583],[112.8452,-7.8577],[112.8402,-7.8625],[112.8394,-7.8611],[112.8426,-7.8578],[112.8417,-7.8517],[112.844,-7.8447],[112.8419,-7.8327],[112.8446,-7.8295],[112.8456,-7.8236]]]}},{"type":"Feature","properties":{"name":"PalangSari","name_en":"PalangSari","admin_level":"7","osm_id":""},"geometry":{"type":"Polygon","coordinates":[[[112.8339,-7.8707],[112.8358,-7.8689],[112.8355,-7.8666],[112.84,-7.865],[112.8407,-7.8618],[112.8444,-7.8597],[112.845,-7.8578],[112.8477,-7.8583],[112.8566,-7.8411],[112.8592,-7.8397],[112.8574,-7.8446],[112.8615,-7.85],[112.8665,-7.8647],[112.8533,-7.8766],[112.8534,-7.8789],[112.8594,-7.8867],[112.8569,-7.8911],[112.8502,-7.8946],[112.8486,-7.8915],[112.8422,-7.8888],[112.8385,-7.8892],[112.8373,-7.8848],[112.8299,-7.8766],[112.83,-7.8739],[112.8339,-7.8707]]]}},{"type":"Feature","properties":{"name":"Puspo","name_en":"Puspo","admin_level":"7","osm_id":""},"geometry":{"type":"Polygon","coordinates":[[[112.8609,-7.8197],[112.861,-7.8042],[112.8677,-7.8024],[112.8725,-7.8141],[112.8712,-7.821],[112.8726,-7.8255],[112.8837,-7.8336],[112.8833,-7.837],[112.8852,-7.8416],[112.8846,-7.8485],[112.881,-7.8531],[112.8665,-7.8647],[112.8615,-7.85],[112.8574,-7.8446],[112.8624,-7.8338],[112.8629,-7.8272],[112.8604,-7.8237],[112.8609,-7.8197]]]}},{"type":"Feature","properties":{"name":"PusungMalang","name_en":"PusungMalang","admin_level":"7","osm_id":""},"geometry":{"type":"Polygon","coordinates":[[[112.9374,-7.8271],[112.9404,-7.831],[112.9404,-7.8358],[112.9394,-7.8407],[112.9345,-7.8458],[112.9422,-7.8618],[112.9394,-7.8637],[112.9305,-7.8643],[112.9247,-7.8591],[112.9243,-7.8515],[112.9152,-7.8291],[112.9201,-7.8298],[112.9374,-7.8271]]]}}]}