{"type":"FeatureCollection","metadata":{"parent_osm_id":"18187203","parent_name":"Lembang","parent_name_1":"SulawesiSelatan","parent_gid":"IDN.26.17.5_1","parent_level":"6","child_level":"7","count":14,"source":"GADM 4.1","generated":"2026-05-08"},"features":[{"type":"Feature","properties":{"name":"Basseang","name_en":"Basseang","admin_level":"7","osm_id":""},"geometry":{"type":"Polygon","coordinates":[[[119.6902,-3.3601],[119.6932,-3.3655],[119.694,-3.3799],[119.6986,-3.3846],[119.6949,-3.3947],[119.6973,-3.4036],[119.6981,-3.4222],[119.6989,-3.424],[119.702,-3.424],[119.6988,-3.427],[119.6946,-3.4273],[119.6935,-3.4293],[119.6952,-3.442],[119.6939,-3.4478],[119.6856,-3.446],[119.6885,-3.4526],[119.6892,-3.46],[119.6931,-3.4636],[119.6874,-3.4659],[119.6858,-3.4681],[119.6804,-3.4682],[119.6731,-3.4663],[119.6676,-3.4602],[119.6676,-3.456],[119.6609,-3.4481],[119.6128,-3.4239],[119.6051,-3.4095],[119.6093,-3.4002],[119.6105,-3.3926],[119.5976,-3.3838],[119.599,-3.3843],[119.606,-3.3721],[119.6075,-3.3491],[119.59,-3.2877],[119.6033,-3.2823],[119.6055,-3.2853],[119.6149,-3.2874],[119.6173,-3.2983],[119.62,-3.3022],[119.627,-3.3066],[119.6354,-3.3158],[119.644,-3.3179],[119.6467,-3.3275],[119.6427,-3.3314],[119.6422,-3.3355],[119.6507,-3.3436],[119.6508,-3.3461],[119.6478,-3.3511],[119.65,-3.36],[119.6595,-3.3599],[119.6745,-3.3662],[119.6797,-3.3664],[119.6902,-3.3601]]]}},{"type":"Feature","properties":{"name":"BentengParemba","name_en":"BentengParemba","admin_level":"7","osm_id":""},"geometry":{"type":"Polygon","coordinates":[[[119.4768,-3.4619],[119.475,-3.4571],[119.4777,-3.4563],[119.4785,-3.4505],[119.4756,-3.4486],[119.4736,-3.4427],[119.4742,-3.4401],[119.4712,-3.4387],[119.4688,-3.4333],[119.4724,-3.4294],[119.4723,-3.4267],[119.4701,-3.4244],[119.4709,-3.4175],[119.4763,-3.4182],[119.4827,-3.415],[119.4915,-3.4057],[119.5208,-3.4083],[119.5203,-3.4164],[119.5233,-3.4386],[119.5235,-3.4605],[119.5213,-3.4782],[119.5255,-3.4931],[119.5227,-3.4989],[119.5002,-3.491],[119.4939,-3.4864],[119.4904,-3.482],[119.4923,-3.4744],[119.486,-3.4688],[119.4826,-3.4679],[119.4831,-3.4655],[119.4808,-3.4635],[119.4768,-3.4619]]]}},{"type":"Feature","properties":{"name":"Betteng","name_en":"Betteng","admin_level":"7","osm_id":""},"geometry":{"type":"Polygon","coordinates":[[[119.5255,-3.4931],[119.5213,-3.4782],[119.5235,-3.4605],[119.5233,-3.4386],[119.5203,-3.4164],[119.5203,-3.3833],[119.5232,-3.3823],[119.53,-3.3858],[119.537,-3.3813],[119.5557,-3.3758],[119.5752,-3.3773],[119.5684,-3.3794],[119.5618,-3.3837],[119.5628,-3.3878],[119.5613,-3.3962],[119.555,-3.3998],[119.5545,-3.4049],[119.5581,-3.4161],[119.5619,-3.4224],[119.5619,-3.4263],[119.5559,-3.4382],[119.5541,-3.4459],[119.5551,-3.4487],[119.563,-3.454],[119.5625,-3.4617],[119.5684,-3.4708],[119.574,-3.4743],[119.5684,-3.4876],[119.563,-3.4925],[119.564,-3.5005],[119.5688,-3.5068],[119.5656,-3.5121],[119.563,-3.5135],[119.5542,-3.5131],[119.5431,-3.5085],[119.5397,-3.5092],[119.5391,-3.5075],[119.5355,-3.5088],[119.5328,-3.5014],[119.5264,-3.4958],[119.5255,-3.4931]]]}},{"type":"Feature","properties":{"name":"BinangaKaraeng","name_en":"BinangaKaraeng","admin_level":"7","osm_id":""},"geometry":{"type":"Polygon","coordinates":[[[119.4741,-3.5029],[119.4753,-3.5012],[119.4789,-3.5012],[119.4781,-3.4989],[119.4808,-3.497],[119.4788,-3.4946],[119.4839,-3.4938],[119.4847,-3.4885],[119.4886,-3.4837],[119.492,-3.484],[119.5002,-3.491],[119.5227,-3.4989],[119.5146,-3.5061],[119.4981,-3.5291],[119.4904,-3.5182],[119.4741,-3.5029]]]}},{"type":"Feature","properties":{"name":"Kariango","name_en":"Kariango","admin_level":"7","osm_id":""},"geometry":{"type":"Polygon","coordinates":[[[119.6799,-3.4895],[119.6792,-3.5024],[119.6761,-3.511],[119.6697,-3.5072],[119.6624,-3.5066],[119.6471,-3.4967],[119.6407,-3.4999],[119.6407,-3.5044],[119.6315,-3.5128],[119.6267,-3.5064],[119.6184,-3.5006],[119.6098,-3.4987],[119.6028,-3.4936],[119.5878,-3.4782],[119.598,-3.4757],[119.6133,-3.4656],[119.625,-3.4611],[119.6293,-3.4616],[119.6315,-3.4649],[119.6427,-3.4704],[119.6432,-3.4762],[119.6472,-3.4797],[119.6573,-3.4813],[119.6603,-3.4891],[119.6637,-3.4888],[119.6656,-3.4903],[119.6685,-3.4888],[119.6726,-3.4902],[119.678,-3.4885],[119.6799,-3.4895]]]}},{"type":"Feature","properties":{"name":"LembangMesakada","name_en":"LembangMesakada","admin_level":"7","osm_id":""},"geometry":{"type":"Polygon","coordinates":[[[119.59,-3.2877],[119.6075,-3.3491],[119.606,-3.3721],[119.599,-3.3843],[119.5704,-3.3761],[119.5557,-3.3758],[119.537,-3.3813],[119.53,-3.3858],[119.5232,-3.3823],[119.5203,-3.3833],[119.5201,-3.3964],[119.5028,-3.389],[119.497,-3.3695],[119.5044,-3.3532],[119.5124,-3.3519],[119.5171,-3.3489],[119.5176,-3.3425],[119.5148,-3.3348],[119.5101,-3.3314],[119.5253,-3.3023],[119.5278,-3.2914],[119.5329,-3.2825],[119.5278,-3.2769],[119.5287,-3.2749],[119.5328,-3.2752],[119.5348,-3.2735],[119.5412,-3.2748],[119.5503,-3.271],[119.5536,-3.2726],[119.5555,-3.2701],[119.5587,-3.2697],[119.563,-3.2739],[119.5647,-3.2734],[119.5676,-3.2772],[119.5691,-3.2764],[119.5687,-3.2782],[119.5704,-3.2784],[119.5701,-3.281],[119.5727,-3.286],[119.5806,-3.2884],[119.59,-3.2877]]]}},{"type":"Feature","properties":{"name":"Letta","name_en":"Letta","admin_level":"7","osm_id":""},"geometry":{"type":"Polygon","coordinates":[[[119.6788,-3.5726],[119.6635,-3.5694],[119.6577,-3.5697],[119.649,-3.5739],[119.6386,-3.5736],[119.6392,-3.5677],[119.6356,-3.5639],[119.6376,-3.5585],[119.6346,-3.5542],[119.6315,-3.5128],[119.6407,-3.5044],[119.6407,-3.4999],[119.6471,-3.4967],[119.6624,-3.5066],[119.6697,-3.5072],[119.6758,-3.5108],[119.6759,-3.5145],[119.6701,-3.5221],[119.6691,-3.5287],[119.6704,-3.5374],[119.6674,-3.5513],[119.6679,-3.5567],[119.6733,-3.5615],[119.6758,-3.5701],[119.6788,-3.5726]]]}},{"type":"Feature","properties":{"name":"Pakeng","name_en":"Pakeng","admin_level":"7","osm_id":""},"geometry":{"type":"Polygon","coordinates":[[[119.5408,-3.5569],[119.5376,-3.5569],[119.5357,-3.5526],[119.5381,-3.5532],[119.5396,-3.5516],[119.5384,-3.5491],[119.5408,-3.5481],[119.5414,-3.5429],[119.5449,-3.5381],[119.5493,-3.5362],[119.5546,-3.5379],[119.5616,-3.5334],[119.5521,-3.5122],[119.5644,-3.5132],[119.5688,-3.5068],[119.564,-3.5005],[119.563,-3.4925],[119.5684,-3.4876],[119.574,-3.4741],[119.5796,-3.4774],[119.5878,-3.4782],[119.6028,-3.4936],[119.6096,-3.4985],[119.601,-3.541],[119.596,-3.5509],[119.5792,-3.5653],[119.564,-3.5553],[119.5516,-3.5556],[119.5453,-3.5612],[119.5416,-3.5607],[119.5429,-3.558],[119.5408,-3.5569]]]}},{"type":"Feature","properties":{"name":"Rajang","name_en":"Rajang","admin_level":"7","osm_id":""},"geometry":{"type":"Polygon","coordinates":[[[119.6386,-3.5736],[119.6351,-3.5773],[119.6319,-3.5754],[119.6268,-3.5758],[119.6261,-3.5734],[119.6229,-3.5723],[119.6147,-3.5732],[119.6084,-3.5701],[119.604,-3.5699],[119.6002,-3.5728],[119.5883,-3.5757],[119.5832,-3.5701],[119.5814,-3.5729],[119.5726,-3.5685],[119.5663,-3.5707],[119.5657,-3.5728],[119.563,-3.5716],[119.5617,-3.5727],[119.5589,-3.5687],[119.5535,-3.5653],[119.5511,-3.5657],[119.551,-3.564],[119.5453,-3.5612],[119.5513,-3.5557],[119.5615,-3.5549],[119.5667,-3.556],[119.5743,-3.563],[119.5792,-3.5653],[119.596,-3.5509],[119.601,-3.541],[119.6096,-3.4985],[119.6184,-3.5006],[119.6267,-3.5064],[119.6315,-3.5128],[119.6346,-3.5542],[119.6376,-3.5585],[119.6356,-3.5639],[119.6392,-3.5677],[119.6386,-3.5736]]]}},{"type":"Feature","properties":{"name":"SabbangParu","name_en":"SabbangParu","admin_level":"7","osm_id":""},"geometry":{"type":"Polygon","coordinates":[[[119.5287,-3.5624],[119.5261,-3.5618],[119.5219,-3.5674],[119.5168,-3.5654],[119.5159,-3.5726],[119.5137,-3.5743],[119.5111,-3.5739],[119.5135,-3.5625],[119.5117,-3.5521],[119.5046,-3.5366],[119.4981,-3.5291],[119.5087,-3.515],[119.5141,-3.5306],[119.5244,-3.5492],[119.5287,-3.5624]]]}},{"type":"Feature","properties":{"name":"SaliSali","name_en":"SaliSali","admin_level":"7","osm_id":""},"geometry":{"type":"Polygon","coordinates":[[[119.4402,-3.3383],[119.4434,-3.3367],[119.4653,-3.3511],[119.4669,-3.3475],[119.4853,-3.3449],[119.4933,-3.3504],[119.5044,-3.3532],[119.497,-3.3695],[119.5028,-3.389],[119.5201,-3.3964],[119.5208,-3.4083],[119.4915,-3.4057],[119.4827,-3.415],[119.4763,-3.4182],[119.4709,-3.4175],[119.4737,-3.4161],[119.4733,-3.4132],[119.467,-3.4062],[119.4669,-3.3981],[119.4644,-3.3962],[119.4654,-3.3899],[119.4591,-3.3852],[119.4592,-3.3834],[119.4652,-3.3787],[119.4632,-3.3731],[119.4549,-3.3662],[119.45,-3.3554],[119.4382,-3.3518],[119.43,-3.3452],[119.4312,-3.3392],[119.4359,-3.3401],[119.4402,-3.3383]]]}},{"type":"Feature","properties":{"name":"Suppirang","name_en":"Suppirang","admin_level":"7","osm_id":""},"geometry":{"type":"Polygon","coordinates":[[[119.4357,-3.2765],[119.4322,-3.2677],[119.4336,-3.2578],[119.4407,-3.2538],[119.4436,-3.2548],[119.448,-3.2597],[119.4627,-3.2642],[119.472,-3.2744],[119.4899,-3.2797],[119.5014,-3.2948],[119.5055,-3.2975],[119.514,-3.2971],[119.5172,-3.2923],[119.5194,-3.2811],[119.5278,-3.2769],[119.5329,-3.2825],[119.5278,-3.2914],[119.5253,-3.3023],[119.5101,-3.3314],[119.5148,-3.3348],[119.5176,-3.3425],[119.5171,-3.3489],[119.5124,-3.3519],[119.5044,-3.3532],[119.4933,-3.3504],[119.4853,-3.3449],[119.4669,-3.3475],[119.4653,-3.3511],[119.4434,-3.3367],[119.4451,-3.3328],[119.4442,-3.3293],[119.4343,-3.3159],[119.4346,-3.3139],[119.438,-3.3112],[119.4398,-3.3029],[119.4348,-3.2946],[119.4369,-3.2875],[119.4357,-3.2765]]]}},{"type":"Feature","properties":{"name":"Tadokkong","name_en":"Tadokkong","admin_level":"7","osm_id":""},"geometry":{"type":"Polygon","coordinates":[[[119.5361,-3.5552],[119.5317,-3.5579],[119.5305,-3.5618],[119.5287,-3.5624],[119.5244,-3.5492],[119.5141,-3.5306],[119.5087,-3.515],[119.5151,-3.5055],[119.5217,-3.5011],[119.5255,-3.4931],[119.5264,-3.4958],[119.5328,-3.5014],[119.5355,-3.5088],[119.5391,-3.5075],[119.5397,-3.5092],[119.5431,-3.5085],[119.5521,-3.5122],[119.5616,-3.5334],[119.5546,-3.5379],[119.5493,-3.5362],[119.5462,-3.5369],[119.5414,-3.5429],[119.5408,-3.5481],[119.5384,-3.5491],[119.5396,-3.5516],[119.5381,-3.5532],[119.5357,-3.5526],[119.5361,-3.5552]]]}},{"type":"Feature","properties":{"name":"Ulusaddang","name_en":"Ulusaddang","admin_level":"7","osm_id":""},"geometry":{"type":"Polygon","coordinates":[[[119.6931,-3.4636],[119.7059,-3.4735],[119.7022,-3.4761],[119.7002,-3.4801],[119.7017,-3.4831],[119.7009,-3.4852],[119.695,-3.487],[119.6902,-3.4911],[119.678,-3.4885],[119.6726,-3.4902],[119.6685,-3.4888],[119.6656,-3.4903],[119.6637,-3.4888],[119.6603,-3.4891],[119.6573,-3.4813],[119.6472,-3.4797],[119.6432,-3.4762],[119.6427,-3.4704],[119.6315,-3.4649],[119.6293,-3.4616],[119.625,-3.4611],[119.6133,-3.4656],[119.598,-3.4757],[119.5888,-3.4783],[119.5796,-3.4774],[119.574,-3.4743],[119.5684,-3.4708],[119.5625,-3.4617],[119.563,-3.454],[119.5551,-3.4487],[119.5541,-3.4459],[119.5559,-3.4382],[119.5619,-3.4263],[119.5619,-3.4224],[119.5581,-3.4161],[119.5545,-3.4049],[119.555,-3.3998],[119.5613,-3.3962],[119.5628,-3.3878],[119.5618,-3.3837],[119.5684,-3.3794],[119.5752,-3.3773],[119.5976,-3.3838],[119.6105,-3.3926],[119.6093,-3.4002],[119.6051,-3.4095],[119.6128,-3.4239],[119.6609,-3.4481],[119.6676,-3.456],[119.6676,-3.4602],[119.6731,-3.4663],[119.6858,-3.4681],[119.6874,-3.4659],[119.6931,-3.4636]]]}}]}