{"type":"FeatureCollection","metadata":{"parent_osm_id":"18371167","parent_name":"Kambowa","parent_name_1":"SulawesiTenggara","parent_gid":"IDN.28.3.2_1","parent_level":"6","child_level":"7","count":8,"source":"GADM 4.1","generated":"2026-05-08"},"features":[{"type":"Feature","properties":{"name":"Bubu","name_en":"Bubu","admin_level":"7","osm_id":""},"geometry":{"type":"Polygon","coordinates":[[[122.9084,-4.9027],[122.9361,-4.9175],[122.9394,-4.9142],[122.9421,-4.9142],[122.946,-4.9182],[122.9467,-4.9234],[122.9533,-4.9234],[122.9533,-4.9254],[122.9566,-4.9267],[122.9566,-4.9287],[122.9592,-4.9287],[122.9612,-4.9307],[122.9612,-4.9346],[122.9705,-4.9509],[122.9654,-4.9614],[122.9616,-4.979],[122.9309,-4.9797],[122.9305,-4.9516],[122.8979,-4.931],[122.9084,-4.9027]]]}},{"type":"Feature","properties":{"name":"Kambowa","name_en":"Kambowa","admin_level":"7","osm_id":""},"geometry":{"type":"Polygon","coordinates":[[[122.955,-5.003],[122.9557,-5.0172],[122.9516,-5.0188],[122.9512,-5.0205],[122.9536,-5.0273],[122.9388,-5.0349],[122.8947,-5.0333],[122.8791,-5.0239],[122.8833,-5.0039],[122.955,-5.003]]]}},{"type":"Feature","properties":{"name":"Konde","name_en":"Konde","admin_level":"7","osm_id":""},"geometry":{"type":"Polygon","coordinates":[[[122.9787,-5.0574],[122.9792,-5.0605],[122.9738,-5.0784],[122.957,-5.0823],[122.9311,-5.095],[122.9096,-5.1121],[122.9053,-5.1236],[122.9006,-5.1197],[122.8884,-5.1228],[122.8686,-5.1214],[122.8609,-5.1176],[122.8513,-5.1185],[122.8425,-5.1154],[122.839,-5.1088],[122.8276,-5.0958],[122.843,-5.0799],[122.8483,-5.0772],[122.9013,-5.0812],[122.9156,-5.0807],[122.9393,-5.0757],[122.9592,-5.0697],[122.9787,-5.0574]]]}},{"type":"Feature","properties":{"name":"Lagundi","name_en":"Lagundi","admin_level":"7","osm_id":""},"geometry":{"type":"Polygon","coordinates":[[[122.9787,-5.0574],[122.9592,-5.0697],[122.9393,-5.0757],[122.9156,-5.0807],[122.9013,-5.0812],[122.8483,-5.0772],[122.8554,-5.055],[122.8607,-5.0497],[122.8687,-5.0488],[122.8732,-5.0509],[122.9173,-5.052],[122.952,-5.0465],[122.9711,-5.0383],[122.9726,-5.0478],[122.9782,-5.0537],[122.9787,-5.0574]]]}},{"type":"Feature","properties":{"name":"Lahumoko(triMulya)","name_en":"Lahumoko(triMulya)","admin_level":"7","osm_id":""},"geometry":{"type":"Polygon","coordinates":[[[122.8979,-4.931],[122.9305,-4.9516],[122.9309,-4.9797],[122.8883,-4.9808],[122.8918,-4.9475],[122.8979,-4.931]]]}},{"type":"Feature","properties":{"name":"MATA","name_en":"MATA","admin_level":"7","osm_id":""},"geometry":{"type":"Polygon","coordinates":[[[122.9053,-5.1236],[122.9096,-5.1121],[122.9311,-5.095],[122.957,-5.0823],[122.9738,-5.0784],[122.972,-5.0868],[122.9685,-5.0899],[122.971,-5.0959],[122.972,-5.1136],[122.9733,-5.1154],[122.9661,-5.1242],[122.9652,-5.1318],[122.9529,-5.1415],[122.9489,-5.1483],[122.9283,-5.1422],[122.9053,-5.1236]]]}},{"type":"Feature","properties":{"name":"Morindino","name_en":"Morindino","admin_level":"7","osm_id":""},"geometry":{"type":"Polygon","coordinates":[[[122.9309,-4.9797],[122.9616,-4.979],[122.955,-5.003],[122.8833,-5.0039],[122.8883,-4.9808],[122.9309,-4.9797]]]}},{"type":"Feature","properties":{"name":"Pongkowulu","name_en":"Pongkowulu","admin_level":"7","osm_id":""},"geometry":{"type":"Polygon","coordinates":[[[122.8791,-5.0239],[122.8947,-5.0333],[122.9388,-5.0349],[122.9536,-5.0273],[122.955,-5.0292],[122.9612,-5.0264],[122.9668,-5.0261],[122.9692,-5.0279],[122.9688,-5.0329],[122.9711,-5.0383],[122.952,-5.0465],[122.9173,-5.052],[122.8732,-5.0509],[122.8687,-5.0488],[122.8791,-5.0239]]]}}]}