{"type":"FeatureCollection","metadata":{"parent_osm_id":"19013849","parent_name":"Pucakwangi","parent_name_1":"JawaTengah","parent_gid":"IDN.10.21.14_1","parent_level":"6","child_level":"7","count":20,"source":"GADM 4.1","generated":"2026-05-07"},"features":[{"type":"Feature","properties":{"name":"Bodeh","name_en":"Bodeh","admin_level":"7","osm_id":""},"geometry":{"type":"Polygon","coordinates":[[[111.1306,-6.8412],[111.124,-6.839],[111.1254,-6.8352],[111.1243,-6.8329],[111.125,-6.8318],[111.1265,-6.8337],[111.1269,-6.8318],[111.131,-6.8322],[111.1316,-6.829],[111.1304,-6.828],[111.1333,-6.8268],[111.1345,-6.835],[111.1327,-6.8413],[111.1306,-6.8412]]]}},{"type":"Feature","properties":{"name":"Grogolsari","name_en":"Grogolsari","admin_level":"7","osm_id":""},"geometry":{"type":"Polygon","coordinates":[[[111.1275,-6.8055],[111.1271,-6.8092],[111.1182,-6.8087],[111.1179,-6.8052],[111.1205,-6.8061],[111.1225,-6.8048],[111.1211,-6.8036],[111.1217,-6.7977],[111.1188,-6.794],[111.1199,-6.7941],[111.1194,-6.7921],[111.1212,-6.7942],[111.1234,-6.7927],[111.1246,-6.7948],[111.1298,-6.7949],[111.1275,-6.8055]]]}},{"type":"Feature","properties":{"name":"Jetak","name_en":"Jetak","admin_level":"7","osm_id":""},"geometry":{"type":"Polygon","coordinates":[[[111.1219,-6.8094],[111.1276,-6.8089],[111.1275,-6.8055],[111.1352,-6.8079],[111.1328,-6.8101],[111.1297,-6.8185],[111.1245,-6.8182],[111.1261,-6.8154],[111.1228,-6.8129],[111.1236,-6.8117],[111.1219,-6.8094]]]}},{"type":"Feature","properties":{"name":"Karangrejo","name_en":"Karangrejo","admin_level":"7","osm_id":""},"geometry":{"type":"Polygon","coordinates":[[[111.1275,-6.8055],[111.1298,-6.7953],[111.1373,-6.7968],[111.1378,-6.7958],[111.1382,-6.7985],[111.1411,-6.7997],[111.1438,-6.8092],[111.1459,-6.8112],[111.1375,-6.8114],[111.1348,-6.8069],[111.1275,-6.8055]]]}},{"type":"Feature","properties":{"name":"Karangwotan","name_en":"Karangwotan","admin_level":"7","osm_id":""},"geometry":{"type":"Polygon","coordinates":[[[111.1243,-6.8338],[111.1254,-6.8352],[111.124,-6.839],[111.1306,-6.8412],[111.1309,-6.8439],[111.1269,-6.8432],[111.1268,-6.8449],[111.13,-6.854],[111.1379,-6.8628],[111.1369,-6.8654],[111.1336,-6.8636],[111.1309,-6.8663],[111.1406,-6.8731],[111.1352,-6.8734],[111.1318,-6.8717],[111.1301,-6.8684],[111.1262,-6.866],[111.1262,-6.8619],[111.1242,-6.8627],[111.123,-6.8587],[111.1207,-6.858],[111.1191,-6.852],[111.1175,-6.8533],[111.1145,-6.8523],[111.1151,-6.8502],[111.1118,-6.8511],[111.1135,-6.8479],[111.115,-6.8491],[111.1156,-6.8481],[111.1134,-6.8405],[111.1146,-6.8389],[111.1118,-6.8381],[111.1111,-6.8392],[111.1097,-6.8371],[111.1143,-6.8322],[111.1141,-6.8335],[111.1167,-6.8333],[111.1182,-6.8351],[111.1207,-6.8325],[111.1229,-6.8322],[111.1233,-6.8344],[111.1243,-6.8338]]]}},{"type":"Feature","properties":{"name":"Kepohkencono","name_en":"Kepohkencono","admin_level":"7","osm_id":""},"geometry":{"type":"Polygon","coordinates":[[[111.1306,-6.8412],[111.1327,-6.8413],[111.1344,-6.8306],[111.1471,-6.8309],[111.1434,-6.8272],[111.152,-6.8309],[111.1567,-6.8352],[111.1594,-6.8457],[111.159,-6.8528],[111.1575,-6.8545],[111.159,-6.859],[111.1536,-6.8605],[111.1554,-6.8647],[111.1531,-6.8749],[111.1563,-6.878],[111.1425,-6.8805],[111.1412,-6.8796],[111.1413,-6.875],[111.1392,-6.8726],[111.1411,-6.8723],[111.1368,-6.871],[111.1311,-6.8665],[111.1332,-6.8637],[111.1369,-6.8654],[111.1379,-6.8631],[111.1313,-6.8562],[111.1268,-6.845],[111.1269,-6.8432],[111.1309,-6.8439],[111.1306,-6.8412]]]}},{"type":"Feature","properties":{"name":"Kletek","name_en":"Kletek","admin_level":"7","osm_id":""},"geometry":{"type":"Polygon","coordinates":[[[111.2386,-6.8504],[111.2293,-6.8494],[111.2249,-6.8461],[111.2228,-6.8481],[111.2242,-6.8505],[111.2227,-6.8517],[111.224,-6.855],[111.2222,-6.8562],[111.2232,-6.8604],[111.2148,-6.8601],[111.21,-6.8482],[111.2062,-6.8456],[111.2101,-6.8302],[111.2119,-6.8305],[111.2221,-6.8215],[111.2242,-6.8263],[111.2244,-6.8352],[111.2376,-6.836],[111.2394,-6.839],[111.2376,-6.8417],[111.2386,-6.8504]]]}},{"type":"Feature","properties":{"name":"Lumbungmas","name_en":"Lumbungmas","admin_level":"7","osm_id":""},"geometry":{"type":"Polygon","coordinates":[[[111.191,-6.8984],[111.1869,-6.8967],[111.1869,-6.8988],[111.1833,-6.8986],[111.1767,-6.9054],[111.1525,-6.9101],[111.1499,-6.9059],[111.1411,-6.9008],[111.1425,-6.8961],[111.1416,-6.8937],[111.1294,-6.8886],[111.1335,-6.8831],[111.1294,-6.8776],[111.1291,-6.8724],[111.1308,-6.87],[111.1349,-6.8734],[111.1392,-6.8726],[111.1413,-6.875],[111.1412,-6.8796],[111.1425,-6.8805],[111.1599,-6.8782],[111.1681,-6.8755],[111.167,-6.8784],[111.1763,-6.8803],[111.1791,-6.8828],[111.1914,-6.8794],[111.1919,-6.8817],[111.1967,-6.8832],[111.2032,-6.8818],[111.1996,-6.8971],[111.191,-6.8984]]]}},{"type":"Feature","properties":{"name":"Mencon","name_en":"Mencon","admin_level":"7","osm_id":""},"geometry":{"type":"Polygon","coordinates":[[[111.1914,-6.8164],[111.1924,-6.8159],[111.1936,-6.8194],[111.1971,-6.8223],[111.1964,-6.8261],[111.1977,-6.8273],[111.2009,-6.8258],[111.2033,-6.8271],[111.2057,-6.8236],[111.2072,-6.8244],[111.2078,-6.8283],[111.2101,-6.8302],[111.2062,-6.8456],[111.2009,-6.8463],[111.1972,-6.845],[111.1978,-6.8433],[111.1964,-6.8423],[111.1937,-6.8437],[111.1889,-6.8415],[111.1867,-6.8421],[111.1861,-6.8354],[111.1936,-6.8285],[111.1883,-6.8239],[111.1895,-6.8212],[111.1925,-6.8219],[111.1905,-6.8188],[111.1914,-6.8164]]]}},{"type":"Feature","properties":{"name":"Mojoagung","name_en":"Mojoagung","admin_level":"7","osm_id":""},"geometry":{"type":"Polygon","coordinates":[[[111.1563,-6.878],[111.1531,-6.8749],[111.1554,-6.8647],[111.1536,-6.8605],[111.159,-6.859],[111.1575,-6.8545],[111.1598,-6.8454],[111.1605,-6.8488],[111.1671,-6.8529],[111.1683,-6.8577],[111.1705,-6.8576],[111.1705,-6.8593],[111.1746,-6.8604],[111.1787,-6.8587],[111.1836,-6.8642],[111.1885,-6.8624],[111.1917,-6.864],[111.1926,-6.862],[111.1951,-6.8613],[111.194,-6.8744],[111.1914,-6.8768],[111.1914,-6.8794],[111.1794,-6.8828],[111.1763,-6.8803],[111.167,-6.8784],[111.1681,-6.8755],[111.1563,-6.878]]]}},{"type":"Feature","properties":{"name":"Pelemgede","name_en":"Pelemgede","admin_level":"7","osm_id":""},"geometry":{"type":"Polygon","coordinates":[[[111.1884,-6.8229],[111.1936,-6.8285],[111.1874,-6.8333],[111.1823,-6.8303],[111.1754,-6.8319],[111.1742,-6.8334],[111.1705,-6.8315],[111.1695,-6.8324],[111.1628,-6.8262],[111.1687,-6.8199],[111.172,-6.8194],[111.1749,-6.8207],[111.1795,-6.8198],[111.1884,-6.8229]]]}},{"type":"Feature","properties":{"name":"Plosorejo","name_en":"Plosorejo","admin_level":"7","osm_id":""},"geometry":{"type":"Polygon","coordinates":[[[111.1487,-6.7926],[111.1552,-6.7975],[111.1562,-6.8023],[111.1597,-6.8057],[111.156,-6.8058],[111.1546,-6.8074],[111.1556,-6.81],[111.1535,-6.8112],[111.1566,-6.815],[111.1541,-6.816],[111.1519,-6.816],[111.1517,-6.8107],[111.1459,-6.8112],[111.1438,-6.8093],[111.1411,-6.7997],[111.1382,-6.7985],[111.1378,-6.7956],[111.1397,-6.7936],[111.1459,-6.7953],[111.1471,-6.7926],[111.1487,-6.7926]]]}},{"type":"Feature","properties":{"name":"Pucakwangi","name_en":"Pucakwangi","admin_level":"7","osm_id":""},"geometry":{"type":"Polygon","coordinates":[[[111.1594,-6.8457],[111.1566,-6.8353],[111.1604,-6.8353],[111.1584,-6.826],[111.1603,-6.8241],[111.1695,-6.8324],[111.1705,-6.8315],[111.1742,-6.8334],[111.1754,-6.8319],[111.1823,-6.8303],[111.1877,-6.8329],[111.1876,-6.8353],[111.1861,-6.8356],[111.1867,-6.8421],[111.1889,-6.8415],[111.1937,-6.8437],[111.196,-6.8422],[111.1978,-6.8438],[111.1937,-6.8493],[111.1906,-6.8444],[111.1882,-6.8442],[111.1875,-6.8524],[111.1782,-6.8535],[111.1763,-6.8601],[111.1746,-6.8604],[111.1683,-6.8577],[111.1671,-6.8529],[111.1605,-6.8488],[111.1608,-6.8456],[111.1594,-6.8457]]]}},{"type":"Feature","properties":{"name":"Sitimulyo","name_en":"Sitimulyo","admin_level":"7","osm_id":""},"geometry":{"type":"Polygon","coordinates":[[[111.2232,-6.8604],[111.2237,-6.8649],[111.2218,-6.8717],[111.2167,-6.8731],[111.2151,-6.8705],[111.2118,-6.8693],[111.2112,-6.8713],[111.2082,-6.8721],[111.2087,-6.8749],[111.2044,-6.8778],[111.2032,-6.8818],[111.1967,-6.8832],[111.1912,-6.8803],[111.1914,-6.8768],[111.194,-6.8744],[111.1951,-6.8613],[111.1926,-6.862],[111.1917,-6.864],[111.1885,-6.8624],[111.1836,-6.8642],[111.181,-6.8598],[111.1775,-6.8582],[111.1763,-6.8592],[111.1761,-6.8578],[111.1782,-6.8535],[111.1875,-6.8524],[111.1875,-6.8452],[111.1902,-6.8442],[111.1937,-6.8493],[111.1949,-6.8461],[111.1972,-6.845],[111.2009,-6.8463],[111.2069,-6.8457],[111.21,-6.8482],[111.2144,-6.8567],[111.2143,-6.8596],[111.2232,-6.8604]]]}},{"type":"Feature","properties":{"name":"Sokopuluhan","name_en":"Sokopuluhan","admin_level":"7","osm_id":""},"geometry":{"type":"Polygon","coordinates":[[[111.1881,-6.8039],[111.1927,-6.8123],[111.1905,-6.8187],[111.1925,-6.8219],[111.1895,-6.8212],[111.1882,-6.823],[111.1795,-6.8198],[111.1691,-6.8199],[111.1622,-6.8104],[111.1628,-6.8069],[111.1602,-6.8058],[111.1613,-6.802],[111.1661,-6.8043],[111.1704,-6.8036],[111.1712,-6.8014],[111.1784,-6.8019],[111.1775,-6.7984],[111.1811,-6.7998],[111.1823,-6.8019],[111.1873,-6.8002],[111.1881,-6.8039]]]}},{"type":"Feature","properties":{"name":"Tanjungsekar","name_en":"Tanjungsekar","admin_level":"7","osm_id":""},"geometry":{"type":"Polygon","coordinates":[[[111.1567,-6.8352],[111.1495,-6.8302],[111.1462,-6.8254],[111.1454,-6.8226],[111.1486,-6.8232],[111.1459,-6.8112],[111.1517,-6.8107],[111.1519,-6.816],[111.1548,-6.8158],[111.1566,-6.815],[111.1535,-6.8112],[111.1556,-6.81],[111.1546,-6.8074],[111.156,-6.8058],[111.1602,-6.8058],[111.1628,-6.8069],[111.1622,-6.8104],[111.1689,-6.8198],[111.1638,-6.8259],[111.1603,-6.8241],[111.1587,-6.8253],[111.1604,-6.8353],[111.1567,-6.8352]]]}},{"type":"Feature","properties":{"name":"Tegalwero","name_en":"Tegalwero","admin_level":"7","osm_id":""},"geometry":{"type":"Polygon","coordinates":[[[111.1796,-6.7946],[111.1817,-6.7989],[111.1775,-6.7984],[111.1784,-6.8019],[111.1712,-6.8014],[111.1704,-6.8036],[111.1661,-6.8043],[111.1613,-6.802],[111.1602,-6.8059],[111.1561,-6.8022],[111.1555,-6.7974],[111.1578,-6.7958],[111.1589,-6.7978],[111.1618,-6.7974],[111.1621,-6.7942],[111.1661,-6.7928],[111.1666,-6.7906],[111.1716,-6.7919],[111.1727,-6.7936],[111.1796,-6.7946]]]}},{"type":"Feature","properties":{"name":"Terteg","name_en":"Terteg","admin_level":"7","osm_id":""},"geometry":{"type":"Polygon","coordinates":[[[111.2057,-6.8236],[111.2044,-6.8116],[111.2095,-6.8071],[111.2123,-6.808],[111.2131,-6.8115],[111.2279,-6.8129],[111.2374,-6.8178],[111.2323,-6.8229],[111.2239,-6.8233],[111.2214,-6.8215],[111.2117,-6.8306],[111.2078,-6.8283],[111.2057,-6.8236]]]}},{"type":"Feature","properties":{"name":"Triguno","name_en":"Triguno","admin_level":"7","osm_id":""},"geometry":{"type":"Polygon","coordinates":[[[111.1344,-6.8306],[111.1333,-6.8268],[111.1317,-6.8284],[111.1286,-6.8275],[111.1283,-6.8255],[111.1309,-6.8252],[111.1286,-6.8236],[111.1283,-6.8184],[111.1245,-6.8182],[111.1258,-6.8175],[111.1297,-6.8185],[111.1328,-6.8101],[111.1349,-6.8083],[111.1375,-6.8114],[111.1459,-6.8112],[111.1486,-6.8232],[111.1452,-6.8233],[111.1495,-6.8302],[111.1434,-6.8272],[111.1471,-6.8309],[111.1344,-6.8306]]]}},{"type":"Feature","properties":{"name":"Wateshaji","name_en":"Wateshaji","admin_level":"7","osm_id":""},"geometry":{"type":"Polygon","coordinates":[[[111.1153,-6.9162],[111.1159,-6.9148],[111.111,-6.9126],[111.1108,-6.9094],[111.115,-6.9064],[111.1209,-6.8951],[111.1273,-6.8933],[111.1294,-6.8886],[111.1416,-6.8937],[111.1425,-6.8961],[111.1403,-6.9034],[111.1438,-6.9108],[111.1424,-6.9157],[111.1388,-6.9204],[111.1325,-6.9204],[111.125,-6.9135],[111.1203,-6.913],[111.1153,-6.9162]]]}}]}