{"type":"FeatureCollection","metadata":{"parent_osm_id":"19686992","parent_name":"Bontoa","parent_name_1":"SulawesiSelatan","parent_gid":"IDN.26.13.2_1","parent_level":"6","child_level":"7","count":9,"source":"GADM 4.1","generated":"2026-05-08"},"features":[{"type":"Feature","properties":{"name":"Ampekale","name_en":"Ampekale","admin_level":"7","osm_id":""},"geometry":{"type":"Polygon","coordinates":[[[119.5243,-4.924],[119.5208,-4.9051],[119.5121,-4.8923],[119.5137,-4.8869],[119.5182,-4.8825],[119.5253,-4.8852],[119.5277,-4.884],[119.53,-4.8923],[119.5372,-4.8904],[119.5427,-4.8925],[119.5461,-4.892],[119.5453,-4.8953],[119.5481,-4.9032],[119.5452,-4.9099],[119.5347,-4.9085],[119.5341,-4.9187],[119.532,-4.9197],[119.5329,-4.9217],[119.5243,-4.924]]]}},{"type":"Feature","properties":{"name":"BontoBahari","name_en":"BontoBahari","admin_level":"7","osm_id":""},"geometry":{"type":"Polygon","coordinates":[[[119.5191,-4.9396],[119.5223,-4.9297],[119.5307,-4.9319],[119.5301,-4.9399],[119.5376,-4.9433],[119.5423,-4.9438],[119.5449,-4.9422],[119.5447,-4.9437],[119.544,-4.9456],[119.5367,-4.9464],[119.5191,-4.9396]]]}},{"type":"Feature","properties":{"name":"BontoLempangan","name_en":"BontoLempangan","admin_level":"7","osm_id":""},"geometry":{"type":"Polygon","coordinates":[[[119.6413,-4.9103],[119.6312,-4.9073],[119.6324,-4.9126],[119.6379,-4.9208],[119.6214,-4.9208],[119.6135,-4.9354],[119.6023,-4.9194],[119.5973,-4.9165],[119.5826,-4.9168],[119.581,-4.9157],[119.5819,-4.9144],[119.5791,-4.9081],[119.5811,-4.9052],[119.5862,-4.903],[119.588,-4.8956],[119.5917,-4.8963],[119.5909,-4.8996],[119.595,-4.9047],[119.5987,-4.9051],[119.5992,-4.9037],[119.5969,-4.903],[119.5962,-4.901],[119.6006,-4.9015],[119.5979,-4.8983],[119.6042,-4.895],[119.6007,-4.8942],[119.5997,-4.8925],[119.6018,-4.8937],[119.6033,-4.8923],[119.6021,-4.8901],[119.6037,-4.887],[119.6038,-4.8901],[119.6073,-4.8887],[119.6094,-4.8901],[119.612,-4.888],[119.6293,-4.9029],[119.6423,-4.9058],[119.6413,-4.9103]]]}},{"type":"Feature","properties":{"name":"Bontoa","name_en":"Bontoa","admin_level":"7","osm_id":""},"geometry":{"type":"Polygon","coordinates":[[[119.544,-4.9456],[119.5457,-4.939],[119.5502,-4.9421],[119.5509,-4.9365],[119.5552,-4.9344],[119.5602,-4.9355],[119.5638,-4.9388],[119.558,-4.9459],[119.5509,-4.9469],[119.544,-4.9456]]]}},{"type":"Feature","properties":{"name":"MinasaUpa","name_en":"MinasaUpa","admin_level":"7","osm_id":""},"geometry":{"type":"Polygon","coordinates":[[[119.5452,-4.9099],[119.5481,-4.904],[119.5453,-4.8953],[119.5461,-4.892],[119.5542,-4.89],[119.5576,-4.8938],[119.5638,-4.8922],[119.5672,-4.8984],[119.5737,-4.8977],[119.5742,-4.8994],[119.5711,-4.899],[119.5703,-4.902],[119.5752,-4.9049],[119.5788,-4.9036],[119.5811,-4.9052],[119.5791,-4.9081],[119.5819,-4.9144],[119.5764,-4.9226],[119.5694,-4.9281],[119.569,-4.9203],[119.5626,-4.9212],[119.5492,-4.9186],[119.547,-4.9154],[119.5442,-4.9145],[119.5452,-4.9099]]]}},{"type":"Feature","properties":{"name":"Pajukukang","name_en":"Pajukukang","admin_level":"7","osm_id":""},"geometry":{"type":"Polygon","coordinates":[[[119.5243,-4.924],[119.5323,-4.9222],[119.5342,-4.9203],[119.5381,-4.9216],[119.5438,-4.9269],[119.5433,-4.9303],[119.545,-4.9321],[119.5434,-4.935],[119.5464,-4.9377],[119.5449,-4.9422],[119.5423,-4.9438],[119.5376,-4.9433],[119.5297,-4.9396],[119.5307,-4.9319],[119.5223,-4.9297],[119.5243,-4.924]]]}},{"type":"Feature","properties":{"name":"Salenrang","name_en":"Salenrang","admin_level":"7","osm_id":""},"geometry":{"type":"Polygon","coordinates":[[[119.6135,-4.9354],[119.6075,-4.9437],[119.6041,-4.941],[119.5999,-4.9419],[119.5987,-4.9356],[119.5939,-4.9377],[119.591,-4.9367],[119.5891,-4.9395],[119.5872,-4.9394],[119.5864,-4.9312],[119.5849,-4.9308],[119.5835,-4.9337],[119.5818,-4.9336],[119.5832,-4.9276],[119.5797,-4.9273],[119.5774,-4.929],[119.5753,-4.9277],[119.5735,-4.9322],[119.5704,-4.9306],[119.5694,-4.9281],[119.5752,-4.9239],[119.581,-4.9157],[119.5973,-4.9165],[119.6023,-4.9194],[119.6135,-4.9354]]]}},{"type":"Feature","properties":{"name":"Tunikamaseang","name_en":"Tunikamaseang","admin_level":"7","osm_id":""},"geometry":{"type":"Polygon","coordinates":[[[119.5638,-4.9388],[119.5602,-4.9355],[119.5552,-4.9344],[119.5509,-4.9365],[119.5502,-4.9421],[119.5474,-4.941],[119.5461,-4.937],[119.5434,-4.935],[119.5436,-4.9327],[119.5466,-4.9326],[119.5482,-4.9306],[119.552,-4.9325],[119.5542,-4.9286],[119.5434,-4.9223],[119.5449,-4.9187],[119.5426,-4.9172],[119.5427,-4.9157],[119.5442,-4.9145],[119.547,-4.9154],[119.5481,-4.9181],[119.554,-4.9198],[119.5635,-4.9212],[119.569,-4.9203],[119.5693,-4.9292],[119.5735,-4.9322],[119.5724,-4.9331],[119.5733,-4.9348],[119.5702,-4.9385],[119.5702,-4.941],[119.5638,-4.9388]]]}},{"type":"Feature","properties":{"name":"Tupabiring","name_en":"Tupabiring","admin_level":"7","osm_id":""},"geometry":{"type":"Polygon","coordinates":[[[119.5329,-4.9217],[119.532,-4.9197],[119.5341,-4.9187],[119.5347,-4.9085],[119.5452,-4.9099],[119.5448,-4.914],[119.5425,-4.9167],[119.5449,-4.9187],[119.5434,-4.9223],[119.5543,-4.9292],[119.552,-4.9325],[119.5482,-4.9306],[119.5456,-4.9326],[119.5434,-4.9306],[119.5438,-4.9269],[119.5381,-4.9216],[119.5342,-4.9203],[119.5329,-4.9217]]]}}]}