{"type":"FeatureCollection","metadata":{"parent_osm_id":"19686233","parent_name":"Turikale","parent_name_1":"SulawesiSelatan","parent_gid":"IDN.26.13.14_1","parent_level":"6","child_level":"7","count":7,"source":"GADM 4.1","generated":"2026-05-08"},"features":[{"type":"Feature","properties":{"name":"Adatongeng","name_en":"Adatongeng","admin_level":"7","osm_id":""},"geometry":{"type":"Polygon","coordinates":[[[119.5635,-5.0251],[119.5678,-5.0219],[119.5703,-5.0245],[119.5719,-5.021],[119.5744,-5.0249],[119.5809,-5.0277],[119.5687,-5.0292],[119.5652,-5.0277],[119.5635,-5.0251]]]}},{"type":"Feature","properties":{"name":"Alliritengae","name_en":"Alliritengae","admin_level":"7","osm_id":""},"geometry":{"type":"Polygon","coordinates":[[[119.5673,-5.0107],[119.5702,-5.0024],[119.5717,-5.0029],[119.5715,-5.0051],[119.5742,-5.0063],[119.5745,-5.0085],[119.5694,-5.0123],[119.5673,-5.0107]]]}},{"type":"Feature","properties":{"name":"BoriBellaya","name_en":"BoriBellaya","admin_level":"7","osm_id":""},"geometry":{"type":"Polygon","coordinates":[[[119.607,-4.9849],[119.6013,-4.9944],[119.6014,-5.0092],[119.5971,-5.0131],[119.5956,-5.0097],[119.5924,-5.009],[119.5882,-5.0151],[119.5857,-5.0051],[119.5903,-5.0028],[119.5828,-4.9951],[119.5825,-4.9898],[119.5842,-4.988],[119.5847,-4.9759],[119.5874,-4.9738],[119.5889,-4.969],[119.5911,-4.9681],[119.599,-4.9751],[119.5974,-4.9767],[119.5999,-4.9826],[119.6043,-4.9815],[119.607,-4.9849]]]}},{"type":"Feature","properties":{"name":"Pettuadae","name_en":"Pettuadae","admin_level":"7","osm_id":""},"geometry":{"type":"Polygon","coordinates":[[[119.5562,-5.0266],[119.5685,-5.0116],[119.5694,-5.0123],[119.5735,-5.0086],[119.5793,-5.0078],[119.5839,-5.017],[119.5882,-5.0151],[119.5924,-5.009],[119.5956,-5.0097],[119.5971,-5.0131],[119.5909,-5.0189],[119.5847,-5.0295],[119.5744,-5.0249],[119.5719,-5.021],[119.5703,-5.0245],[119.5678,-5.0219],[119.5642,-5.0249],[119.5562,-5.0266]]]}},{"type":"Feature","properties":{"name":"RAYA","name_en":"RAYA","admin_level":"7","osm_id":""},"geometry":{"type":"Polygon","coordinates":[[[119.5811,-5.0047],[119.5832,-4.9956],[119.5903,-5.0029],[119.5857,-5.0051],[119.5872,-5.0145],[119.5844,-5.0171],[119.5807,-5.009],[119.5811,-5.0047]]]}},{"type":"Feature","properties":{"name":"Taroada","name_en":"Taroada","admin_level":"7","osm_id":""},"geometry":{"type":"Polygon","coordinates":[[[119.5788,-5.0404],[119.5751,-5.041],[119.5737,-5.0398],[119.5683,-5.0414],[119.5617,-5.0497],[119.5472,-5.0379],[119.5447,-5.0431],[119.5469,-5.0487],[119.5445,-5.0496],[119.5398,-5.0475],[119.5389,-5.041],[119.5359,-5.0381],[119.5359,-5.0339],[119.5316,-5.0332],[119.5333,-5.0294],[119.5534,-5.0295],[119.5562,-5.0266],[119.5635,-5.0251],[119.5652,-5.0277],[119.5687,-5.0292],[119.5809,-5.0277],[119.5847,-5.0295],[119.5788,-5.0404]]]}},{"type":"Feature","properties":{"name":"Turikale","name_en":"Turikale","admin_level":"7","osm_id":""},"geometry":{"type":"Polygon","coordinates":[[[119.5733,-4.9948],[119.5803,-4.997],[119.5792,-5.0017],[119.5811,-5.0047],[119.5807,-5.009],[119.5788,-5.0076],[119.5745,-5.0085],[119.5742,-5.0063],[119.5715,-5.0051],[119.5733,-4.9948]]]}}]}