{"type":"FeatureCollection","metadata":{"parent_osm_id":"19896536","parent_name":"Simanindo","parent_name_1":"SumateraUtara","parent_gid":"IDN.32.26.8_1","parent_level":"6","child_level":"7","count":16,"source":"GADM 4.1","generated":"2026-05-08"},"features":[{"type":"Feature","properties":{"name":"Ambarita","name_en":"Ambarita","admin_level":"7","osm_id":""},"geometry":{"type":"Polygon","coordinates":[[[98.8196,2.6971],[98.8258,2.69],[98.8315,2.6873],[98.8304,2.6845],[98.8326,2.6828],[98.8398,2.6794],[98.843,2.6809],[98.8432,2.6796],[98.8495,2.6768],[98.8496,2.6715],[98.8443,2.6636],[98.8306,2.6649],[98.828,2.6677],[98.8246,2.6676],[98.8184,2.6628],[98.8036,2.6611],[98.7987,2.6574],[98.7885,2.6564],[98.7703,2.6497],[98.7709,2.6522],[98.7655,2.6693],[98.7621,2.6735],[98.7691,2.6751],[98.7741,2.6741],[98.7814,2.6791],[98.7948,2.6825],[98.8012,2.6859],[98.8056,2.6915],[98.8196,2.6971]]]}},{"type":"Feature","properties":{"name":"CintaDame","name_en":"CintaDame","admin_level":"7","osm_id":""},"geometry":{"type":"Polygon","coordinates":[[[98.7215,2.752],[98.7263,2.7588],[98.7349,2.7594],[98.7374,2.7549],[98.7443,2.7531],[98.742,2.7404],[98.7349,2.7361],[98.7246,2.7463],[98.7215,2.752]]]}},{"type":"Feature","properties":{"name":"Dosroha","name_en":"Dosroha","admin_level":"7","osm_id":""},"geometry":{"type":"Polygon","coordinates":[[[98.6922,2.7125],[98.6962,2.7303],[98.7027,2.7365],[98.7096,2.7308],[98.7219,2.7239],[98.7223,2.7203],[98.7245,2.7192],[98.7161,2.716],[98.7091,2.7179],[98.7067,2.7133],[98.7063,2.7085],[98.6922,2.7125]]]}},{"type":"Feature","properties":{"name":"Garoga","name_en":"Garoga","admin_level":"7","osm_id":""},"geometry":{"type":"Polygon","coordinates":[[[98.8594,2.6567],[98.859,2.6491],[98.8481,2.6362],[98.8441,2.6465],[98.8359,2.6596],[98.8306,2.6649],[98.8439,2.6635],[98.8454,2.6587],[98.8506,2.6567],[98.8594,2.6567]]]}},{"type":"Feature","properties":{"name":"HutaGinjang","name_en":"HutaGinjang","admin_level":"7","osm_id":""},"geometry":{"type":"Polygon","coordinates":[[[98.8913,2.6089],[98.8913,2.6034],[98.8963,2.5962],[98.8592,2.5858],[98.8587,2.5899],[98.8533,2.599],[98.8705,2.6055],[98.8798,2.6065],[98.8858,2.6095],[98.8913,2.6089]]]}},{"type":"Feature","properties":{"name":"Maduma","name_en":"Maduma","admin_level":"7","osm_id":""},"geometry":{"type":"Polygon","coordinates":[[[98.7349,2.7361],[98.742,2.7406],[98.7501,2.7311],[98.761,2.7285],[98.7668,2.724],[98.7593,2.7051],[98.7349,2.7361]]]}},{"type":"Feature","properties":{"name":"Martoba","name_en":"Martoba","admin_level":"7","osm_id":""},"geometry":{"type":"Polygon","coordinates":[[[98.7716,2.7424],[98.7814,2.7419],[98.7896,2.7353],[98.7969,2.7324],[98.8139,2.7116],[98.813,2.704],[98.8196,2.6971],[98.8056,2.6915],[98.8012,2.6859],[98.7948,2.6825],[98.7814,2.6791],[98.7741,2.6741],[98.7691,2.6751],[98.7621,2.6735],[98.7572,2.6791],[98.7579,2.6849],[98.7531,2.6927],[98.7643,2.7155],[98.7716,2.7424]]]}},{"type":"Feature","properties":{"name":"Parbalohan","name_en":"Parbalohan","admin_level":"7","osm_id":""},"geometry":{"type":"Polygon","coordinates":[[[98.9063,2.5775],[98.9085,2.5749],[98.907,2.5679],[98.9027,2.5647],[98.8992,2.5582],[98.8991,2.5524],[98.8965,2.5451],[98.8929,2.5432],[98.8863,2.5451],[98.8797,2.5517],[98.8864,2.5583],[98.8847,2.5665],[98.9063,2.5775]]]}},{"type":"Feature","properties":{"name":"Pardomuan","name_en":"Pardomuan","admin_level":"7","osm_id":""},"geometry":{"type":"Polygon","coordinates":[[[98.9014,2.5858],[98.9029,2.5804],[98.9063,2.5775],[98.8847,2.5665],[98.8794,2.5767],[98.9014,2.5858]]]}},{"type":"Feature","properties":{"name":"Parmonangan","name_en":"Parmonangan","admin_level":"7","osm_id":""},"geometry":{"type":"Polygon","coordinates":[[[98.8963,2.5962],[98.9014,2.5858],[98.8735,2.5738],[98.8621,2.573],[98.8591,2.5753],[98.8596,2.5857],[98.8963,2.5962]]]}},{"type":"Feature","properties":{"name":"Sihusapi","name_en":"Sihusapi","admin_level":"7","osm_id":""},"geometry":{"type":"Polygon","coordinates":[[[98.753,2.6916],[98.7346,2.6918],[98.7277,2.6942],[98.7161,2.7036],[98.7063,2.7085],[98.7083,2.7168],[98.7091,2.7179],[98.7161,2.716],[98.7244,2.7189],[98.7223,2.7219],[98.731,2.73],[98.7349,2.736],[98.7593,2.7051],[98.753,2.6916]]]}},{"type":"Feature","properties":{"name":"SimanindoSangkal","name_en":"SimanindoSangkal","admin_level":"7","osm_id":""},"geometry":{"type":"Polygon","coordinates":[[[98.7444,2.753],[98.7475,2.7532],[98.7511,2.7503],[98.7581,2.7405],[98.7638,2.743],[98.7662,2.7399],[98.7685,2.7422],[98.7716,2.7424],[98.7668,2.7241],[98.761,2.7285],[98.7501,2.7311],[98.742,2.7406],[98.7444,2.753]]]}},{"type":"Feature","properties":{"name":"Simarmata","name_en":"Simarmata","admin_level":"7","osm_id":""},"geometry":{"type":"Polygon","coordinates":[[[98.7027,2.7365],[98.7131,2.7439],[98.7162,2.7507],[98.7215,2.752],[98.7246,2.7463],[98.7349,2.736],[98.731,2.73],[98.7223,2.7219],[98.7219,2.7239],[98.7096,2.7308],[98.7027,2.7365]]]}},{"type":"Feature","properties":{"name":"Tanjungan","name_en":"Tanjungan","admin_level":"7","osm_id":""},"geometry":{"type":"Polygon","coordinates":[[[98.8546,2.5692],[98.8402,2.5825],[98.836,2.5911],[98.8533,2.599],[98.859,2.5892],[98.8591,2.5753],[98.8621,2.573],[98.8688,2.5729],[98.8794,2.5767],[98.8855,2.5648],[98.8864,2.5583],[98.8797,2.5517],[98.8546,2.5692]]]}},{"type":"Feature","properties":{"name":"Tomok","name_en":"Tomok","admin_level":"7","osm_id":""},"geometry":{"type":"Polygon","coordinates":[[[98.8603,2.656],[98.8685,2.6497],[98.8701,2.6454],[98.8846,2.6278],[98.8865,2.6229],[98.8882,2.622],[98.8913,2.6089],[98.8858,2.6095],[98.8798,2.6065],[98.8665,2.6043],[98.836,2.5911],[98.831,2.6056],[98.8393,2.6104],[98.8453,2.6179],[98.8503,2.6196],[98.8572,2.6189],[98.8589,2.6212],[98.8523,2.6285],[98.8481,2.6362],[98.859,2.6491],[98.8603,2.656]]]}},{"type":"Feature","properties":{"name":"TuktukSiadong","name_en":"TuktukSiadong","admin_level":"7","osm_id":""},"geometry":{"type":"Polygon","coordinates":[[[98.8495,2.6746],[98.8531,2.6738],[98.8522,2.6775],[98.8548,2.6781],[98.8602,2.6759],[98.8644,2.6713],[98.8641,2.6684],[98.8623,2.6674],[98.8573,2.6693],[98.8517,2.664],[98.8594,2.6567],[98.8506,2.6567],[98.8454,2.6587],[98.8439,2.6635],[98.8496,2.6715],[98.8495,2.6746]]]}}]}