{"type":"FeatureCollection","metadata":{"parent_osm_id":"19912804","parent_name":"Karas","parent_name_1":"JawaTimur","parent_gid":"IDN.11.21.4_1","parent_level":"6","child_level":"7","count":11,"source":"GADM 4.1","generated":"2026-05-07"},"features":[{"type":"Feature","properties":{"name":"Botok","name_en":"Botok","admin_level":"7","osm_id":""},"geometry":{"type":"Polygon","coordinates":[[[111.3423,-7.588],[111.3433,-7.5866],[111.3462,-7.5873],[111.3543,-7.585],[111.367,-7.586],[111.361,-7.5941],[111.3525,-7.5983],[111.3479,-7.598],[111.3361,-7.6039],[111.3353,-7.5982],[111.3369,-7.5971],[111.3373,-7.5926],[111.3418,-7.5902],[111.3423,-7.588]]]}},{"type":"Feature","properties":{"name":"Geplak","name_en":"Geplak","admin_level":"7","osm_id":""},"geometry":{"type":"Polygon","coordinates":[[[111.4049,-7.5616],[111.4074,-7.5621],[111.4071,-7.5642],[111.4092,-7.5647],[111.4087,-7.568],[111.4063,-7.5677],[111.4056,-7.5708],[111.3969,-7.5678],[111.3915,-7.569],[111.3923,-7.5637],[111.399,-7.5639],[111.4001,-7.5613],[111.4049,-7.5616]]]}},{"type":"Feature","properties":{"name":"Ginuk","name_en":"Ginuk","admin_level":"7","osm_id":""},"geometry":{"type":"Polygon","coordinates":[[[111.3669,-7.5853],[111.3435,-7.5866],[111.3421,-7.5881],[111.335,-7.5883],[111.3323,-7.5904],[111.3334,-7.5864],[111.3307,-7.5862],[111.3298,-7.5828],[111.3393,-7.5772],[111.3445,-7.5766],[111.3532,-7.5728],[111.3544,-7.5704],[111.3646,-7.57],[111.366,-7.5702],[111.3657,-7.5731],[111.3704,-7.5789],[111.3669,-7.5853]]]}},{"type":"Feature","properties":{"name":"Jungke","name_en":"Jungke","admin_level":"7","osm_id":""},"geometry":{"type":"Polygon","coordinates":[[[111.4043,-7.5707],[111.4034,-7.5765],[111.3913,-7.5787],[111.394,-7.5757],[111.3914,-7.575],[111.3915,-7.569],[111.3969,-7.5678],[111.4043,-7.5707]]]}},{"type":"Feature","properties":{"name":"Karas","name_en":"Karas","admin_level":"7","osm_id":""},"geometry":{"type":"Polygon","coordinates":[[[111.3923,-7.5637],[111.3905,-7.5698],[111.3914,-7.5751],[111.3939,-7.5756],[111.3939,-7.5769],[111.3902,-7.5788],[111.3895,-7.5818],[111.3816,-7.5861],[111.3806,-7.5853],[111.3844,-7.5827],[111.3839,-7.5805],[111.3806,-7.5811],[111.3772,-7.5849],[111.3809,-7.5775],[111.3843,-7.5743],[111.3815,-7.5727],[111.3816,-7.5671],[111.3789,-7.565],[111.378,-7.5545],[111.3825,-7.5556],[111.3843,-7.5601],[111.3923,-7.5637]]]}},{"type":"Feature","properties":{"name":"Kuwon","name_en":"Kuwon","admin_level":"7","osm_id":""},"geometry":{"type":"Polygon","coordinates":[[[111.369,-7.5808],[111.3704,-7.5789],[111.3657,-7.5731],[111.366,-7.5702],[111.371,-7.5696],[111.3713,-7.5634],[111.3741,-7.5605],[111.3733,-7.5585],[111.372,-7.5597],[111.3702,-7.5583],[111.3692,-7.5542],[111.3716,-7.5526],[111.3737,-7.547],[111.3773,-7.547],[111.3789,-7.565],[111.3816,-7.5671],[111.3815,-7.5727],[111.3843,-7.5743],[111.3754,-7.5865],[111.3744,-7.5854],[111.3766,-7.5808],[111.3754,-7.5773],[111.369,-7.5808]]]}},{"type":"Feature","properties":{"name":"Sobontoro","name_en":"Sobontoro","admin_level":"7","osm_id":""},"geometry":{"type":"Polygon","coordinates":[[[111.4029,-7.5505],[111.4029,-7.5556],[111.3992,-7.5638],[111.3911,-7.564],[111.3843,-7.5601],[111.3825,-7.5556],[111.378,-7.5545],[111.3766,-7.5495],[111.3776,-7.5472],[111.381,-7.5472],[111.4029,-7.5505]]]}},{"type":"Feature","properties":{"name":"Sumursongo","name_en":"Sumursongo","admin_level":"7","osm_id":""},"geometry":{"type":"Polygon","coordinates":[[[111.4011,-7.5404],[111.3997,-7.5416],[111.4063,-7.5444],[111.4038,-7.5479],[111.404,-7.5504],[111.3976,-7.5507],[111.3948,-7.5484],[111.3892,-7.5493],[111.3776,-7.5472],[111.3813,-7.5397],[111.3885,-7.5411],[111.4011,-7.5404]]]}},{"type":"Feature","properties":{"name":"Taji","name_en":"Taji","admin_level":"7","osm_id":""},"geometry":{"type":"Polygon","coordinates":[[[111.3603,-7.5945],[111.3665,-7.5876],[111.369,-7.5808],[111.3754,-7.5773],[111.3766,-7.5808],[111.3744,-7.5862],[111.3772,-7.5837],[111.3774,-7.5897],[111.3701,-7.5964],[111.3742,-7.597],[111.3758,-7.5957],[111.373,-7.6041],[111.3734,-7.6054],[111.3779,-7.604],[111.3753,-7.6067],[111.3751,-7.6098],[111.3639,-7.6059],[111.3595,-7.6084],[111.3596,-7.6056],[111.3633,-7.6036],[111.365,-7.6004],[111.3603,-7.5945]]]}},{"type":"Feature","properties":{"name":"Temboro","name_en":"Temboro","admin_level":"7","osm_id":""},"geometry":{"type":"Polygon","coordinates":[[[111.3806,-7.5864],[111.3901,-7.581],[111.3932,-7.5839],[111.4,-7.5819],[111.4051,-7.5888],[111.4027,-7.5887],[111.4008,-7.5918],[111.3995,-7.5903],[111.3964,-7.5914],[111.396,-7.5943],[111.3892,-7.5966],[111.3823,-7.6061],[111.3751,-7.6098],[111.3753,-7.6067],[111.3779,-7.604],[111.3734,-7.6054],[111.373,-7.6041],[111.3758,-7.5957],[111.3742,-7.597],[111.3701,-7.5964],[111.3806,-7.5864]]]}},{"type":"Feature","properties":{"name":"Temenggungan","name_en":"Temenggungan","admin_level":"7","osm_id":""},"geometry":{"type":"Polygon","coordinates":[[[111.4162,-7.5743],[111.4177,-7.5753],[111.4124,-7.5774],[111.4119,-7.5815],[111.4091,-7.5819],[111.4071,-7.5857],[111.4063,-7.584],[111.4057,-7.5858],[111.4034,-7.5858],[111.4011,-7.5821],[111.3932,-7.5839],[111.3904,-7.5818],[111.3902,-7.5788],[111.399,-7.5781],[111.4088,-7.5733],[111.413,-7.5727],[111.4126,-7.5742],[111.4162,-7.5743]]]}}]}