{"type":"FeatureCollection","metadata":{"parent_osm_id":"19938177","parent_name":"Tarowang","parent_name_1":"SulawesiSelatan","parent_gid":"IDN.26.7.10_1","parent_level":"6","child_level":"7","count":8,"source":"GADM 4.1","generated":"2026-05-08"},"features":[{"type":"Feature","properties":{"name":"AlluTarowang","name_en":"AlluTarowang","admin_level":"7","osm_id":""},"geometry":{"type":"Polygon","coordinates":[[[119.8323,-5.5859],[119.8326,-5.574],[119.8527,-5.5615],[119.8545,-5.5627],[119.8557,-5.577],[119.8595,-5.5903],[119.8548,-5.6042],[119.852,-5.6046],[119.8508,-5.6029],[119.8513,-5.6007],[119.8532,-5.5999],[119.85,-5.5939],[119.8436,-5.589],[119.8373,-5.5889],[119.8323,-5.5859]]]}},{"type":"Feature","properties":{"name":"BalangBaru","name_en":"BalangBaru","admin_level":"7","osm_id":""},"geometry":{"type":"Polygon","coordinates":[[[119.8527,-5.5615],[119.8578,-5.5579],[119.8605,-5.5594],[119.8631,-5.5669],[119.874,-5.5777],[119.8733,-5.5799],[119.8764,-5.5919],[119.876,-5.5998],[119.8798,-5.6037],[119.874,-5.6144],[119.872,-5.6141],[119.8706,-5.6109],[119.8668,-5.6089],[119.8644,-5.6128],[119.8613,-5.6086],[119.8641,-5.6045],[119.8631,-5.601],[119.8648,-5.5988],[119.8606,-5.598],[119.8595,-5.5962],[119.861,-5.5898],[119.857,-5.5821],[119.8558,-5.5705],[119.8541,-5.568],[119.855,-5.5647],[119.8527,-5.5615]]]}},{"type":"Feature","properties":{"name":"BalangLoeTarowang","name_en":"BalangLoeTarowang","admin_level":"7","osm_id":""},"geometry":{"type":"Polygon","coordinates":[[[119.8798,-5.6037],[119.876,-5.5998],[119.8764,-5.5919],[119.8733,-5.5799],[119.874,-5.5777],[119.8804,-5.5778],[119.8844,-5.5799],[119.8888,-5.5867],[119.8885,-5.5956],[119.8798,-5.6037]]]}},{"type":"Feature","properties":{"name":"BontoUjung","name_en":"BontoUjung","admin_level":"7","osm_id":""},"geometry":{"type":"Polygon","coordinates":[[[119.874,-5.5777],[119.8631,-5.5669],[119.8621,-5.5616],[119.8588,-5.5589],[119.8595,-5.5578],[119.861,-5.5574],[119.8625,-5.5606],[119.8715,-5.5654],[119.8773,-5.5709],[119.8824,-5.5685],[119.8834,-5.5721],[119.8914,-5.5783],[119.8927,-5.5854],[119.8982,-5.5915],[119.8949,-5.5943],[119.8885,-5.5956],[119.8888,-5.5867],[119.8853,-5.5806],[119.8804,-5.5778],[119.874,-5.5777]]]}},{"type":"Feature","properties":{"name":"Bontorappo","name_en":"Bontorappo","admin_level":"7","osm_id":""},"geometry":{"type":"Polygon","coordinates":[[[119.8257,-5.6091],[119.8258,-5.5966],[119.8323,-5.5859],[119.8373,-5.5889],[119.8436,-5.589],[119.8523,-5.5967],[119.8532,-5.5999],[119.8506,-5.6018],[119.852,-5.6046],[119.8471,-5.6055],[119.8484,-5.6084],[119.8427,-5.6114],[119.8398,-5.6158],[119.8341,-5.6149],[119.8257,-5.6091]]]}},{"type":"Feature","properties":{"name":"Pao","name_en":"Pao","admin_level":"7","osm_id":""},"geometry":{"type":"Polygon","coordinates":[[[119.8618,-5.6236],[119.8428,-5.6164],[119.8416,-5.6126],[119.8463,-5.6087],[119.8543,-5.6067],[119.8552,-5.6082],[119.8624,-5.6089],[119.8639,-5.6125],[119.8667,-5.614],[119.8662,-5.6175],[119.8618,-5.6236]]]}},{"type":"Feature","properties":{"name":"Tarowang","name_en":"Tarowang","admin_level":"7","osm_id":""},"geometry":{"type":"Polygon","coordinates":[[[119.852,-5.6046],[119.8548,-5.6042],[119.8569,-5.6008],[119.8595,-5.5903],[119.8579,-5.5878],[119.8585,-5.5846],[119.861,-5.5898],[119.8599,-5.5972],[119.8648,-5.5988],[119.8631,-5.601],[119.8641,-5.6045],[119.8608,-5.6087],[119.8552,-5.6082],[119.8543,-5.6067],[119.8484,-5.6084],[119.8471,-5.6055],[119.852,-5.6046]]]}},{"type":"Feature","properties":{"name":"Tino","name_en":"Tino","admin_level":"7","osm_id":""},"geometry":{"type":"Polygon","coordinates":[[[119.8831,-5.5569],[119.8907,-5.5625],[119.9001,-5.5572],[119.902,-5.559],[119.9012,-5.5606],[119.9027,-5.5638],[119.9079,-5.5642],[119.9068,-5.5655],[119.9087,-5.57],[119.9048,-5.5722],[119.9074,-5.5771],[119.9063,-5.5817],[119.8997,-5.5879],[119.8982,-5.5915],[119.8927,-5.5854],[119.8914,-5.5783],[119.8834,-5.5721],[119.8824,-5.5685],[119.8773,-5.5709],[119.8715,-5.5654],[119.8625,-5.5606],[119.861,-5.5574],[119.8588,-5.5589],[119.8562,-5.5546],[119.8642,-5.5546],[119.8663,-5.5529],[119.8744,-5.5566],[119.8831,-5.5569]]]}}]}