{"type":"FeatureCollection","metadata":{"parent_osm_id":"19938181","parent_name":"Rumbia","parent_name_1":"Lampung","parent_gid":"IDN.17.4.16_1","parent_level":"6","child_level":"7","count":8,"source":"GADM 4.1","generated":"2026-05-07"},"features":[{"type":"Feature","properties":{"name":"BinaKaryaBuana","name_en":"BinaKaryaBuana","admin_level":"7","osm_id":""},"geometry":{"type":"Polygon","coordinates":[[[105.6569,-4.789],[105.6555,-4.7863],[105.6491,-4.7826],[105.6371,-4.7858],[105.6259,-4.7941],[105.6177,-4.7925],[105.6109,-4.7892],[105.6079,-4.7769],[105.5987,-4.7688],[105.6064,-4.7667],[105.6101,-4.7642],[105.622,-4.7463],[105.6331,-4.7472],[105.6426,-4.7499],[105.6504,-4.7452],[105.6552,-4.7467],[105.6606,-4.7454],[105.6752,-4.7592],[105.6815,-4.7615],[105.6815,-4.7629],[105.6776,-4.7741],[105.6786,-4.7823],[105.6751,-4.7849],[105.6639,-4.7826],[105.6569,-4.789]]]}},{"type":"Feature","properties":{"name":"BinakaryaPutra","name_en":"BinakaryaPutra","admin_level":"7","osm_id":""},"geometry":{"type":"Polygon","coordinates":[[[105.5888,-4.7963],[105.583,-4.7901],[105.5704,-4.7809],[105.5678,-4.7808],[105.5681,-4.7783],[105.5714,-4.7758],[105.576,-4.7767],[105.5795,-4.7725],[105.5872,-4.7693],[105.5987,-4.7688],[105.6079,-4.7769],[105.6109,-4.7892],[105.6177,-4.7925],[105.6259,-4.7941],[105.6105,-4.8063],[105.6081,-4.8119],[105.5998,-4.8176],[105.5981,-4.8166],[105.5945,-4.8057],[105.5888,-4.7963]]]}},{"type":"Feature","properties":{"name":"ReksoBinangun","name_en":"ReksoBinangun","admin_level":"7","osm_id":""},"geometry":{"type":"Polygon","coordinates":[[[105.5033,-4.7324],[105.5027,-4.73],[105.5071,-4.7283],[105.512,-4.7317],[105.5179,-4.7331],[105.5241,-4.745],[105.5309,-4.7515],[105.5304,-4.7565],[105.5221,-4.7663],[105.5208,-4.7749],[105.5171,-4.7763],[105.5154,-4.7713],[105.5158,-4.7552],[105.5055,-4.7426],[105.5033,-4.7324]]]}},{"type":"Feature","properties":{"name":"RenoBasuki","name_en":"RenoBasuki","admin_level":"7","osm_id":""},"geometry":{"type":"Polygon","coordinates":[[[105.5312,-4.744],[105.5369,-4.7447],[105.5396,-4.7425],[105.5434,-4.7346],[105.5424,-4.7277],[105.5471,-4.7205],[105.5523,-4.7166],[105.5589,-4.7171],[105.5612,-4.7269],[105.5652,-4.7306],[105.5628,-4.7348],[105.5628,-4.7436],[105.559,-4.747],[105.553,-4.7468],[105.5499,-4.7518],[105.545,-4.753],[105.5427,-4.7558],[105.5337,-4.7541],[105.5279,-4.7474],[105.5312,-4.744]]]}},{"type":"Feature","properties":{"name":"RestuBaru","name_en":"RestuBaru","admin_level":"7","osm_id":""},"geometry":{"type":"Polygon","coordinates":[[[105.5628,-4.7436],[105.5678,-4.7429],[105.5715,-4.7358],[105.5764,-4.7379],[105.5729,-4.7531],[105.5739,-4.7603],[105.5788,-4.7668],[105.5829,-4.7693],[105.5872,-4.7693],[105.5795,-4.7725],[105.576,-4.7767],[105.5714,-4.7758],[105.5681,-4.7783],[105.5678,-4.7808],[105.5634,-4.7805],[105.5625,-4.778],[105.5592,-4.7763],[105.5575,-4.7698],[105.5605,-4.7658],[105.5584,-4.7615],[105.5534,-4.7582],[105.5427,-4.7558],[105.545,-4.753],[105.5499,-4.7518],[105.553,-4.7468],[105.559,-4.747],[105.5628,-4.7436]]]}},{"type":"Feature","properties":{"name":"RestuBuana","name_en":"RestuBuana","admin_level":"7","osm_id":""},"geometry":{"type":"Polygon","coordinates":[[[105.5764,-4.7379],[105.5804,-4.738],[105.5834,-4.7347],[105.587,-4.7351],[105.595,-4.7311],[105.6018,-4.7338],[105.6058,-4.7326],[105.6094,-4.7341],[105.6107,-4.7408],[105.6134,-4.7444],[105.622,-4.7463],[105.6127,-4.7613],[105.6064,-4.7667],[105.5991,-4.7688],[105.5829,-4.7693],[105.5761,-4.7642],[105.5731,-4.7572],[105.5764,-4.7379]]]}},{"type":"Feature","properties":{"name":"RuktiBasuki","name_en":"RuktiBasuki","admin_level":"7","osm_id":""},"geometry":{"type":"Polygon","coordinates":[[[105.5256,-4.7467],[105.5279,-4.7474],[105.5337,-4.7541],[105.5472,-4.7561],[105.5584,-4.7615],[105.5605,-4.7658],[105.5575,-4.7698],[105.5584,-4.7746],[105.5634,-4.7805],[105.5559,-4.7797],[105.5324,-4.7945],[105.5268,-4.7903],[105.5267,-4.7832],[105.5226,-4.7798],[105.5208,-4.775],[105.5221,-4.7663],[105.5304,-4.7565],[105.5309,-4.7515],[105.5256,-4.7467]]]}},{"type":"Feature","properties":{"name":"TelukDalemIlir","name_en":"TelukDalemIlir","admin_level":"7","osm_id":""},"geometry":{"type":"Polygon","coordinates":[[[105.4837,-4.7552],[105.486,-4.7559],[105.4872,-4.759],[105.4889,-4.755],[105.4873,-4.7544],[105.4877,-4.7531],[105.4917,-4.7517],[105.4888,-4.7511],[105.4903,-4.7487],[105.4888,-4.7452],[105.4899,-4.7445],[105.492,-4.7476],[105.4936,-4.7437],[105.4916,-4.7409],[105.4939,-4.7395],[105.4968,-4.7406],[105.4958,-4.757],[105.4992,-4.7668],[105.4979,-4.7754],[105.4954,-4.7802],[105.491,-4.7842],[105.482,-4.7887],[105.4735,-4.7805],[105.4683,-4.7786],[105.4687,-4.7733],[105.467,-4.771],[105.4681,-4.769],[105.4669,-4.7688],[105.469,-4.7661],[105.4688,-4.7639],[105.4722,-4.7643],[105.4776,-4.7618],[105.4753,-4.7605],[105.4759,-4.759],[105.4794,-4.7607],[105.4818,-4.7598],[105.4837,-4.7552]]]}}]}