{"type":"FeatureCollection","metadata":{"parent_osm_id":"19958121","parent_name":"Mekarsari","parent_name_1":"KalimantanSelatan","parent_gid":"IDN.13.5.12_1","parent_level":"6","child_level":"7","count":9,"source":"GADM 4.1","generated":"2026-05-07"},"features":[{"type":"Feature","properties":{"name":"IndahSari","name_en":"IndahSari","admin_level":"7","osm_id":""},"geometry":{"type":"Polygon","coordinates":[[[114.4136,-3.2676],[114.3829,-3.2893],[114.3809,-3.2907],[114.3835,-3.2675],[114.4028,-3.252],[114.4136,-3.2676]]]}},{"type":"Feature","properties":{"name":"JelapatIi","name_en":"JelapatIi","admin_level":"7","osm_id":""},"geometry":{"type":"Polygon","coordinates":[[[114.4574,-3.2122],[114.508,-3.2285],[114.5062,-3.2433],[114.5105,-3.2528],[114.5155,-3.2635],[114.5211,-3.2658],[114.5241,-3.2713],[114.5276,-3.272],[114.5202,-3.2749],[114.5002,-3.2713],[114.4999,-3.269],[114.4574,-3.2592],[114.4528,-3.2482],[114.4574,-3.2122]]]}},{"type":"Feature","properties":{"name":"KarangMekar","name_en":"KarangMekar","admin_level":"7","osm_id":""},"geometry":{"type":"Polygon","coordinates":[[[114.3809,-3.2907],[114.4136,-3.2676],[114.4276,-3.2867],[114.3709,-3.3219],[114.3716,-3.3076],[114.3798,-3.3004],[114.3809,-3.2907]]]}},{"type":"Feature","properties":{"name":"MekarSari","name_en":"MekarSari","admin_level":"7","osm_id":""},"geometry":{"type":"Polygon","coordinates":[[[114.4136,-3.2676],[114.4066,-3.2573],[114.421,-3.2478],[114.4376,-3.2175],[114.4472,-3.2522],[114.4436,-3.2553],[114.4477,-3.2631],[114.4417,-3.267],[114.445,-3.2705],[114.4335,-3.2776],[114.4261,-3.2845],[114.4136,-3.2676]]]}},{"type":"Feature","properties":{"name":"TambanRaya","name_en":"TambanRaya","admin_level":"7","osm_id":""},"geometry":{"type":"Polygon","coordinates":[[[114.3709,-3.3219],[114.4276,-3.2867],[114.4407,-3.307],[114.4099,-3.3262],[114.3799,-3.34],[114.3773,-3.3377],[114.3599,-3.3504],[114.3538,-3.3425],[114.3709,-3.3219]]]}},{"type":"Feature","properties":{"name":"TambanRayaBaru","name_en":"TambanRayaBaru","admin_level":"7","osm_id":""},"geometry":{"type":"Polygon","coordinates":[[[114.4276,-3.2867],[114.4261,-3.2845],[114.4335,-3.2776],[114.445,-3.2705],[114.4594,-3.2829],[114.4374,-3.3021],[114.4276,-3.2867]]]}},{"type":"Feature","properties":{"name":"TinggiranBaru","name_en":"TinggiranBaru","admin_level":"7","osm_id":""},"geometry":{"type":"Polygon","coordinates":[[[114.5208,-3.2749],[114.5276,-3.272],[114.5303,-3.2745],[114.5306,-3.2842],[114.5418,-3.2856],[114.5448,-3.2918],[114.5423,-3.2924],[114.5389,-3.2971],[114.5158,-3.3032],[114.5145,-3.3117],[114.476,-3.3021],[114.5116,-3.3032],[114.5208,-3.2749]]]}},{"type":"Feature","properties":{"name":"TinggiranDarat","name_en":"TinggiranDarat","admin_level":"7","osm_id":""},"geometry":{"type":"Polygon","coordinates":[[[114.4502,-3.21],[114.4571,-3.2121],[114.4528,-3.2482],[114.4574,-3.2592],[114.4999,-3.269],[114.5002,-3.2713],[114.5029,-3.2718],[114.4704,-3.2981],[114.4594,-3.2829],[114.4417,-3.267],[114.4477,-3.2631],[114.4436,-3.2553],[114.4472,-3.2522],[114.4376,-3.2175],[114.4502,-3.21]]]}},{"type":"Feature","properties":{"name":"TinggiranTengah","name_en":"TinggiranTengah","admin_level":"7","osm_id":""},"geometry":{"type":"Polygon","coordinates":[[[114.5029,-3.2718],[114.5208,-3.2749],[114.5116,-3.3032],[114.4727,-3.3012],[114.4704,-3.2981],[114.5029,-3.2718]]]}}]}