{"type":"FeatureCollection","metadata":{"parent_osm_id":"19957680","parent_name":"Caringin","parent_name_1":"JawaBarat","parent_gid":"IDN.9.11.6_1","parent_level":"6","child_level":"7","count":5,"source":"GADM 4.1","generated":"2026-05-08"},"features":[{"type":"Feature","properties":{"name":"Caringin","name_en":"Caringin","admin_level":"7","osm_id":""},"geometry":{"type":"Polygon","coordinates":[[[107.5293,-7.4698],[107.5276,-7.4791],[107.5191,-7.4794],[107.5124,-7.4855],[107.5094,-7.4862],[107.5067,-7.4849],[107.497,-7.4903],[107.4961,-7.484],[107.4978,-7.4799],[107.4983,-7.4705],[107.5008,-7.4649],[107.4855,-7.4524],[107.4902,-7.4428],[107.4946,-7.4405],[107.4969,-7.4357],[107.4998,-7.4361],[107.5005,-7.4325],[107.5071,-7.4324],[107.5083,-7.4273],[107.5106,-7.4277],[107.5086,-7.4288],[107.513,-7.4336],[107.5108,-7.4377],[107.5109,-7.4441],[107.5188,-7.4422],[107.5179,-7.4442],[107.5195,-7.4456],[107.5198,-7.4504],[107.5184,-7.4522],[107.5196,-7.4562],[107.5186,-7.46],[107.5241,-7.4643],[107.5257,-7.4687],[107.5293,-7.4698]]]}},{"type":"Feature","properties":{"name":"Cimahi","name_en":"Cimahi","admin_level":"7","osm_id":""},"geometry":{"type":"Polygon","coordinates":[[[107.4263,-7.451],[107.4282,-7.4485],[107.4264,-7.4441],[107.4287,-7.444],[107.4298,-7.4418],[107.4263,-7.4402],[107.4276,-7.4382],[107.4341,-7.4396],[107.4433,-7.4515],[107.4475,-7.454],[107.4519,-7.4528],[107.4555,-7.4541],[107.463,-7.4513],[107.4776,-7.4538],[107.4855,-7.4524],[107.4791,-7.458],[107.4805,-7.4731],[107.4841,-7.476],[107.4844,-7.4785],[107.47,-7.4881],[107.4674,-7.4932],[107.4628,-7.4945],[107.4638,-7.505],[107.4589,-7.5144],[107.4534,-7.5108],[107.4423,-7.5073],[107.4231,-7.5056],[107.4262,-7.5025],[107.4263,-7.4949],[107.4215,-7.4883],[107.4219,-7.4806],[107.4238,-7.4767],[107.4219,-7.4733],[107.423,-7.4692],[107.4202,-7.4624],[107.4236,-7.4586],[107.4234,-7.456],[107.4263,-7.451]]]}},{"type":"Feature","properties":{"name":"Indralayang","name_en":"Indralayang","admin_level":"7","osm_id":""},"geometry":{"type":"Polygon","coordinates":[[[107.4855,-7.4524],[107.5008,-7.4649],[107.4983,-7.4705],[107.4978,-7.4799],[107.4961,-7.484],[107.4962,-7.4889],[107.4983,-7.4919],[107.4971,-7.4954],[107.491,-7.4997],[107.4914,-7.5027],[107.4877,-7.5113],[107.4847,-7.5128],[107.4847,-7.5152],[107.4822,-7.5153],[107.4816,-7.5176],[107.4733,-7.5186],[107.4594,-7.5147],[107.4605,-7.5094],[107.4638,-7.505],[107.4628,-7.4945],[107.4674,-7.4932],[107.47,-7.4881],[107.4844,-7.4785],[107.4841,-7.476],[107.4805,-7.4731],[107.4791,-7.458],[107.4855,-7.4524]]]}},{"type":"Feature","properties":{"name":"Purbayani","name_en":"Purbayani","admin_level":"7","osm_id":""},"geometry":{"type":"Polygon","coordinates":[[[107.4954,-7.5259],[107.4956,-7.5349],[107.4856,-7.5372],[107.4833,-7.5391],[107.4807,-7.5378],[107.4796,-7.535],[107.4808,-7.5306],[107.477,-7.5271],[107.4774,-7.5222],[107.4733,-7.5186],[107.4799,-7.5181],[107.4818,-7.5174],[107.4822,-7.5153],[107.4847,-7.5152],[107.4845,-7.5131],[107.4877,-7.5113],[107.4913,-7.5029],[107.491,-7.4997],[107.4971,-7.4954],[107.4981,-7.4891],[107.5067,-7.4849],[107.5114,-7.4859],[107.5191,-7.4794],[107.5264,-7.4792],[107.5269,-7.4827],[107.5248,-7.4872],[107.5204,-7.4914],[107.5195,-7.4965],[107.5172,-7.4978],[107.5168,-7.5035],[107.5131,-7.5054],[107.5102,-7.5048],[107.5076,-7.5078],[107.5029,-7.5086],[107.4994,-7.5134],[107.4996,-7.5162],[107.4975,-7.5164],[107.4954,-7.5259]]]}},{"type":"Feature","properties":{"name":"Sukarame","name_en":"Sukarame","admin_level":"7","osm_id":""},"geometry":{"type":"Polygon","coordinates":[[[107.5917,-7.3998],[107.5832,-7.4023],[107.5728,-7.4105],[107.5694,-7.4185],[107.5606,-7.4238],[107.5578,-7.4277],[107.5571,-7.4327],[107.5545,-7.4352],[107.5508,-7.4355],[107.5455,-7.4407],[107.5447,-7.4441],[107.5409,-7.4478],[107.537,-7.4585],[107.532,-7.4613],[107.5326,-7.4683],[107.5293,-7.4698],[107.5257,-7.4687],[107.5241,-7.4643],[107.5185,-7.4598],[107.5196,-7.4562],[107.5184,-7.4522],[107.5198,-7.4504],[107.5195,-7.4456],[107.5179,-7.4442],[107.5188,-7.4422],[107.5109,-7.4441],[107.5108,-7.4377],[107.513,-7.4336],[107.5088,-7.4282],[107.5126,-7.428],[107.5164,-7.4246],[107.5192,-7.4258],[107.5253,-7.4249],[107.5261,-7.4216],[107.5296,-7.4209],[107.5317,-7.4179],[107.5374,-7.417],[107.5409,-7.4131],[107.5442,-7.4122],[107.5465,-7.4069],[107.55,-7.4062],[107.5513,-7.4033],[107.5538,-7.4031],[107.5562,-7.4006],[107.5578,-7.4026],[107.56,-7.4024],[107.5687,-7.3942],[107.5743,-7.3938],[107.5789,-7.3886],[107.583,-7.3868],[107.5906,-7.3716],[107.5937,-7.3704],[107.5933,-7.368],[107.5969,-7.367],[107.599,-7.3644],[107.6025,-7.3718],[107.603,-7.3785],[107.5957,-7.3888],[107.5917,-7.3998]]]}}]}