{"type":"FeatureCollection","metadata":{"parent_osm_id":"19957694","parent_name":"SukaMakmur","parent_name_1":"Aceh","parent_gid":"IDN.1.3.23_1","parent_level":"6","child_level":"7","count":35,"source":"GADM 4.1","generated":"2026-05-07"},"features":[{"type":"Feature","properties":{"name":"AneukBatee","name_en":"AneukBatee","admin_level":"7","osm_id":""},"geometry":{"type":"Polygon","coordinates":[[[95.3832,5.486],[95.3835,5.4804],[95.3805,5.481],[95.3787,5.4829],[95.3796,5.4878],[95.3832,5.486]]]}},{"type":"Feature","properties":{"name":"AneukGalongBaro","name_en":"AneukGalongBaro","admin_level":"7","osm_id":""},"geometry":{"type":"Polygon","coordinates":[[[95.3889,5.4844],[95.3948,5.483],[95.3942,5.4758],[95.3885,5.4766],[95.3889,5.4844]]]}},{"type":"Feature","properties":{"name":"AneukGalongTiti","name_en":"AneukGalongTiti","admin_level":"7","osm_id":""},"geometry":{"type":"Polygon","coordinates":[[[95.3942,5.4758],[95.395,5.4721],[95.3938,5.4688],[95.3888,5.4719],[95.3883,5.4741],[95.3885,5.4766],[95.3942,5.4758]]]}},{"type":"Feature","properties":{"name":"BaetLamphuot","name_en":"BaetLamphuot","admin_level":"7","osm_id":""},"geometry":{"type":"Polygon","coordinates":[[[95.3907,5.4496],[95.3885,5.4468],[95.3852,5.4484],[95.3862,5.451],[95.3907,5.4496]]]}},{"type":"Feature","properties":{"name":"BaetMasjid","name_en":"BaetMasjid","admin_level":"7","osm_id":""},"geometry":{"type":"Polygon","coordinates":[[[95.3868,5.4509],[95.3852,5.4484],[95.3812,5.4486],[95.3802,5.4524],[95.3815,5.4541],[95.3864,5.4526],[95.3868,5.4509]]]}},{"type":"Feature","properties":{"name":"BaetMeesago","name_en":"BaetMeesago","admin_level":"7","osm_id":""},"geometry":{"type":"Polygon","coordinates":[[[95.3785,5.3922],[95.3734,5.3875],[95.3764,5.426],[95.3841,5.4486],[95.3885,5.4468],[95.3831,5.4393],[95.3781,5.4018],[95.3785,5.3922]]]}},{"type":"Feature","properties":{"name":"BlangCut","name_en":"BlangCut","admin_level":"7","osm_id":""},"geometry":{"type":"Polygon","coordinates":[[[95.3863,5.4866],[95.3875,5.4832],[95.3835,5.483],[95.3832,5.486],[95.3863,5.4866]]]}},{"type":"Feature","properties":{"name":"Bukloh","name_en":"Bukloh","admin_level":"7","osm_id":""},"geometry":{"type":"Polygon","coordinates":[[[95.3779,5.4938],[95.3817,5.4928],[95.3787,5.4829],[95.3757,5.485],[95.3779,5.4938]]]}},{"type":"Feature","properties":{"name":"DilipBukti","name_en":"DilipBukti","admin_level":"7","osm_id":""},"geometry":{"type":"Polygon","coordinates":[[[95.4004,5.4615],[95.3981,5.4555],[95.3972,5.4548],[95.3955,5.4566],[95.3921,5.4522],[95.3893,5.4519],[95.3894,5.4504],[95.3823,5.4539],[95.3838,5.4582],[95.3906,5.4558],[95.3935,5.46],[95.398,5.4622],[95.4004,5.4615]]]}},{"type":"Feature","properties":{"name":"DilipLamteungoh","name_en":"DilipLamteungoh","admin_level":"7","osm_id":""},"geometry":{"type":"Polygon","coordinates":[[[95.3945,5.4517],[95.3931,5.4495],[95.3894,5.4504],[95.3896,5.4522],[95.3931,5.4532],[95.3945,5.4517]]]}},{"type":"Feature","properties":{"name":"KayeeAdang","name_en":"KayeeAdang","admin_level":"7","osm_id":""},"geometry":{"type":"Polygon","coordinates":[[[95.3288,5.3961],[95.3281,5.4041],[95.3407,5.4121],[95.3594,5.4368],[95.3605,5.4519],[95.3635,5.459],[95.3673,5.459],[95.3631,5.4481],[95.3611,5.4339],[95.344,5.4092],[95.3288,5.3961]]]}},{"type":"Feature","properties":{"name":"KlingManyang","name_en":"KlingManyang","admin_level":"7","osm_id":""},"geometry":{"type":"Polygon","coordinates":[[[95.3787,5.4829],[95.3827,5.4807],[95.3829,5.4771],[95.377,5.4767],[95.369,5.4809],[95.3692,5.4851],[95.377,5.4849],[95.3787,5.4829]]]}},{"type":"Feature","properties":{"name":"LambarihBakmee","name_en":"LambarihBakmee","admin_level":"7","osm_id":""},"geometry":{"type":"Polygon","coordinates":[[[95.3635,5.492],[95.3712,5.4964],[95.3756,5.4937],[95.3723,5.4848],[95.3692,5.4851],[95.3686,5.4879],[95.3635,5.492]]]}},{"type":"Feature","properties":{"name":"LambarihJurongRaya","name_en":"LambarihJurongRaya","admin_level":"7","osm_id":""},"geometry":{"type":"Polygon","coordinates":[[[95.3763,5.4938],[95.3779,5.4938],[95.3746,5.4849],[95.3735,5.4853],[95.3745,5.4918],[95.3763,5.4938]]]}},{"type":"Feature","properties":{"name":"LambaroSibreh","name_en":"LambaroSibreh","admin_level":"7","osm_id":""},"geometry":{"type":"Polygon","coordinates":[[[95.3813,5.4723],[95.3861,5.4723],[95.3852,5.4672],[95.3824,5.4674],[95.3805,5.4696],[95.3813,5.4723]]]}},{"type":"Feature","properties":{"name":"Lambirah","name_en":"Lambirah","admin_level":"7","osm_id":""},"geometry":{"type":"Polygon","coordinates":[[[95.3347,5.3879],[95.3303,5.3905],[95.3288,5.3961],[95.344,5.4092],[95.3611,5.4339],[95.3643,5.4526],[95.3675,5.4589],[95.3704,5.4589],[95.3663,5.4485],[95.364,5.4359],[95.3508,5.407],[95.3347,5.3879]]]}},{"type":"Feature","properties":{"name":"LamgeuBaro","name_en":"LamgeuBaro","admin_level":"7","osm_id":""},"geometry":{"type":"Polygon","coordinates":[[[95.3614,5.4872],[95.3635,5.492],[95.3687,5.4876],[95.3686,5.479],[95.3664,5.4791],[95.3665,5.4757],[95.3682,5.4746],[95.367,5.4713],[95.3607,5.4744],[95.3614,5.4872]]]}},{"type":"Feature","properties":{"name":"LamgeuTuha","name_en":"LamgeuTuha","admin_level":"7","osm_id":""},"geometry":{"type":"Polygon","coordinates":[[[95.3682,5.4746],[95.3665,5.4757],[95.3664,5.4791],[95.3685,5.4788],[95.3682,5.4746]]]}},{"type":"Feature","properties":{"name":"Lamlheu","name_en":"Lamlheu","admin_level":"7","osm_id":""},"geometry":{"type":"Polygon","coordinates":[[[95.369,5.4809],[95.3715,5.4806],[95.3724,5.4789],[95.3732,5.4728],[95.3711,5.4708],[95.3675,5.4718],[95.369,5.4809]]]}},{"type":"Feature","properties":{"name":"LampanahIneu","name_en":"LampanahIneu","admin_level":"7","osm_id":""},"geometry":{"type":"Polygon","coordinates":[[[95.3724,5.4789],[95.378,5.4765],[95.3775,5.4745],[95.3803,5.4729],[95.3777,5.4708],[95.3769,5.4723],[95.3737,5.4721],[95.3724,5.4789]]]}},{"type":"Feature","properties":{"name":"Lampisang","name_en":"Lampisang","admin_level":"7","osm_id":""},"geometry":{"type":"Polygon","coordinates":[[[95.378,5.4765],[95.3866,5.4762],[95.3859,5.4728],[95.3807,5.4726],[95.3775,5.4745],[95.378,5.4765]]]}},{"type":"Feature","properties":{"name":"Lamtanjong","name_en":"Lamtanjong","admin_level":"7","osm_id":""},"geometry":{"type":"Polygon","coordinates":[[[95.3399,5.3825],[95.3347,5.3879],[95.3508,5.407],[95.364,5.4359],[95.3663,5.4485],[95.3704,5.4589],[95.3756,5.4591],[95.3719,5.4511],[95.3576,5.4039],[95.3399,5.3825]]]}},{"type":"Feature","properties":{"name":"LamtehDayah","name_en":"LamtehDayah","admin_level":"7","osm_id":""},"geometry":{"type":"Polygon","coordinates":[[[95.3676,5.4665],[95.3674,5.4689],[95.3644,5.4698],[95.364,5.4718],[95.3711,5.4708],[95.3691,5.4661],[95.3676,5.4665]]]}},{"type":"Feature","properties":{"name":"LuthuDayahKrueng","name_en":"LuthuDayahKrueng","admin_level":"7","osm_id":""},"geometry":{"type":"Polygon","coordinates":[[[95.3549,5.3717],[95.3434,5.3692],[95.3399,5.3825],[95.3576,5.4039],[95.3719,5.4511],[95.3777,5.4643],[95.3792,5.4621],[95.3774,5.4581],[95.3783,5.4575],[95.3683,5.426],[95.3638,5.4023],[95.3549,5.3717]]]}},{"type":"Feature","properties":{"name":"LuthuLamweu","name_en":"LuthuLamweu","admin_level":"7","osm_id":""},"geometry":{"type":"Polygon","coordinates":[[[95.3683,5.3819],[95.3549,5.3717],[95.3638,5.4023],[95.3683,5.426],[95.3776,5.4551],[95.3815,5.4541],[95.3802,5.4524],[95.3802,5.4463],[95.3766,5.4436],[95.3722,5.4259],[95.3683,5.3819]]]}},{"type":"Feature","properties":{"name":"MeunasahBakthu","name_en":"MeunasahBakthu","admin_level":"7","osm_id":""},"geometry":{"type":"Polygon","coordinates":[[[95.3827,5.4807],[95.3888,5.4805],[95.3884,5.4761],[95.3829,5.4771],[95.3827,5.4807]]]}},{"type":"Feature","properties":{"name":"MeunasahTuha","name_en":"MeunasahTuha","admin_level":"7","osm_id":""},"geometry":{"type":"Polygon","coordinates":[[[95.3875,5.4843],[95.3889,5.4844],[95.3888,5.4805],[95.3835,5.4804],[95.3835,5.483],[95.3872,5.4831],[95.3875,5.4843]]]}},{"type":"Feature","properties":{"name":"Niron","name_en":"Niron","admin_level":"7","osm_id":""},"geometry":{"type":"Polygon","coordinates":[[[95.3847,5.4909],[95.3863,5.4866],[95.3823,5.4861],[95.3796,5.4878],[95.3817,5.4928],[95.3847,5.4909]]]}},{"type":"Feature","properties":{"name":"PanteeRawa","name_en":"PanteeRawa","admin_level":"7","osm_id":""},"geometry":{"type":"Polygon","coordinates":[[[95.3734,5.3875],[95.3683,5.3819],[95.3722,5.4259],[95.3768,5.4441],[95.3798,5.4455],[95.3804,5.4488],[95.3831,5.4486],[95.3827,5.4423],[95.3764,5.426],[95.3734,5.3875]]]}},{"type":"Feature","properties":{"name":"ReuhatTuha","name_en":"ReuhatTuha","admin_level":"7","osm_id":""},"geometry":{"type":"Polygon","coordinates":[[[95.3823,5.4539],[95.3776,5.4551],[95.3774,5.4581],[95.3815,5.4657],[95.3833,5.4676],[95.3852,5.4672],[95.3858,5.4694],[95.3879,5.4685],[95.3871,5.4629],[95.3823,5.4539]]]}},{"type":"Feature","properties":{"name":"Seumeureung","name_en":"Seumeureung","admin_level":"7","osm_id":""},"geometry":{"type":"Polygon","coordinates":[[[95.3813,5.4723],[95.3805,5.4696],[95.3828,5.4673],[95.3807,5.4623],[95.3792,5.4621],[95.3768,5.4661],[95.3775,5.4703],[95.3813,5.4723]]]}},{"type":"Feature","properties":{"name":"SibrehKeumudee","name_en":"SibrehKeumudee","admin_level":"7","osm_id":""},"geometry":{"type":"Polygon","coordinates":[[[95.3921,5.4667],[95.3917,5.4623],[95.3935,5.46],[95.3912,5.4562],[95.3838,5.4582],[95.3878,5.4652],[95.3921,5.4667]]]}},{"type":"Feature","properties":{"name":"TampokBlang","name_en":"TampokBlang","admin_level":"7","osm_id":""},"geometry":{"type":"Polygon","coordinates":[[[95.3771,5.4631],[95.3689,5.4659],[95.3711,5.4708],[95.372,5.4714],[95.372,5.4683],[95.3736,5.468],[95.3769,5.4723],[95.3771,5.4631]]]}},{"type":"Feature","properties":{"name":"TampokJeuratRaya","name_en":"TampokJeuratRaya","admin_level":"7","osm_id":""},"geometry":{"type":"Polygon","coordinates":[[[95.372,5.4714],[95.3732,5.4728],[95.3758,5.4716],[95.3732,5.468],[95.372,5.4683],[95.372,5.4714]]]}},{"type":"Feature","properties":{"name":"Weusiteh","name_en":"Weusiteh","admin_level":"7","osm_id":""},"geometry":{"type":"Polygon","coordinates":[[[95.3937,5.4686],[95.3871,5.4639],[95.3879,5.4685],[95.3858,5.4694],[95.3857,5.4712],[95.3866,5.4762],[95.3884,5.4761],[95.3888,5.4719],[95.3937,5.4686]]]}}]}