{"type":"FeatureCollection","metadata":{"parent_osm_id":"20072060","parent_name":"Purba","parent_name_1":"SumateraUtara","parent_gid":"IDN.32.29.22_1","parent_level":"6","child_level":"7","count":10,"source":"GADM 4.1","generated":"2026-05-08"},"features":[{"type":"Feature","properties":{"name":"HutaRaja","name_en":"HutaRaja","admin_level":"7","osm_id":""},"geometry":{"type":"Polygon","coordinates":[[[98.7399,2.9021],[98.7383,2.9075],[98.7295,2.9212],[98.7265,2.9329],[98.7216,2.9405],[98.7452,2.9546],[98.7652,2.9759],[98.7804,2.9611],[98.7886,2.9485],[98.7881,2.9439],[98.783,2.9353],[98.7743,2.9273],[98.7567,2.9178],[98.752,2.9124],[98.7499,2.9038],[98.7399,2.9021]]]}},{"type":"Feature","properties":{"name":"Kinalang","name_en":"Kinalang","admin_level":"7","osm_id":""},"geometry":{"type":"Polygon","coordinates":[[[98.6483,2.8847],[98.636,2.8875],[98.6336,2.8962],[98.6297,2.9026],[98.6281,2.9081],[98.6364,2.9194],[98.6415,2.8985],[98.6483,2.8847]]]}},{"type":"Feature","properties":{"name":"PematangPurba","name_en":"PematangPurba","admin_level":"7","osm_id":""},"geometry":{"type":"Polygon","coordinates":[[[98.7008,2.8687],[98.6892,2.8808],[98.6828,2.8935],[98.6774,2.898],[98.6741,2.9034],[98.6843,2.915],[98.703,2.9245],[98.7216,2.9405],[98.7265,2.9329],[98.7295,2.9212],[98.7383,2.9075],[98.7399,2.9021],[98.7312,2.8995],[98.7162,2.8908],[98.7028,2.8738],[98.7008,2.8687]]]}},{"type":"Feature","properties":{"name":"PurbaDolog","name_en":"PurbaDolog","admin_level":"7","osm_id":""},"geometry":{"type":"Polygon","coordinates":[[[98.704,2.8569],[98.7024,2.866],[98.7172,2.8669],[98.7236,2.863],[98.7318,2.863],[98.7364,2.8358],[98.7296,2.8392],[98.7183,2.8497],[98.704,2.8569]]]}},{"type":"Feature","properties":{"name":"PurbaSipinggan","name_en":"PurbaSipinggan","admin_level":"7","osm_id":""},"geometry":{"type":"Polygon","coordinates":[[[98.6864,2.8879],[98.6767,2.8884],[98.6693,2.8863],[98.6565,2.8792],[98.6483,2.8847],[98.6415,2.8985],[98.6364,2.9194],[98.6411,2.928],[98.6439,2.9442],[98.6465,2.9481],[98.6557,2.9258],[98.6864,2.8879]]]}},{"type":"Feature","properties":{"name":"PurbaTengah","name_en":"PurbaTengah","admin_level":"7","osm_id":""},"geometry":{"type":"Polygon","coordinates":[[[98.7024,2.866],[98.7008,2.8687],[98.7028,2.8738],[98.7092,2.8829],[98.7162,2.8908],[98.7251,2.8965],[98.7275,2.8747],[98.7318,2.863],[98.7236,2.863],[98.7172,2.8669],[98.7024,2.866]]]}},{"type":"Feature","properties":{"name":"SaribuJandi","name_en":"SaribuJandi","admin_level":"7","osm_id":""},"geometry":{"type":"Polygon","coordinates":[[[98.6707,2.9715],[98.6735,2.9624],[98.678,2.9564],[98.6871,2.953],[98.7038,2.9541],[98.7187,2.9629],[98.734,2.9876],[98.7406,2.9916],[98.7587,2.9929],[98.7582,2.9885],[98.7605,2.9835],[98.7422,2.975],[98.7397,2.9681],[98.7324,2.9593],[98.7226,2.952],[98.7119,2.9451],[98.6992,2.9398],[98.6806,2.9349],[98.6752,2.9324],[98.6708,2.928],[98.6571,2.9238],[98.6465,2.9481],[98.6531,2.954],[98.6602,2.9642],[98.6707,2.9715]]]}},{"type":"Feature","properties":{"name":"TanohTinggir","name_en":"TanohTinggir","admin_level":"7","osm_id":""},"geometry":{"type":"Polygon","coordinates":[[[98.6285,2.8869],[98.6219,2.9002],[98.6281,2.9081],[98.636,2.8875],[98.6285,2.8869]]]}},{"type":"Feature","properties":{"name":"TigaRunggu","name_en":"TigaRunggu","admin_level":"7","osm_id":""},"geometry":{"type":"Polygon","coordinates":[[[98.7652,2.8487],[98.773,2.8342],[98.7737,2.8301],[98.7633,2.8222],[98.7583,2.8236],[98.7521,2.8296],[98.7442,2.8336],[98.7364,2.8358],[98.7319,2.8627],[98.7275,2.8747],[98.7251,2.8965],[98.7388,2.9018],[98.7499,2.9038],[98.749,2.896],[98.7507,2.8875],[98.7574,2.8742],[98.7652,2.8487]]]}},{"type":"Feature","properties":{"name":"UrungPurba","name_en":"UrungPurba","admin_level":"7","osm_id":""},"geometry":{"type":"Polygon","coordinates":[[[98.7652,2.9759],[98.7452,2.9546],[98.7385,2.9494],[98.7252,2.9435],[98.703,2.9245],[98.6843,2.915],[98.6741,2.9034],[98.6571,2.9238],[98.6708,2.928],[98.6752,2.9324],[98.6806,2.9349],[98.6992,2.9398],[98.7119,2.9451],[98.7324,2.9593],[98.7397,2.9681],[98.7422,2.975],[98.7534,2.9813],[98.7605,2.9835],[98.7652,2.9759]]]}}]}