{"type":"FeatureCollection","metadata":{"parent_osm_id":"20135737","parent_name":"Haurgeulis","parent_name_1":"JawaBarat","parent_gid":"IDN.9.12.10_1","parent_level":"6","child_level":"7","count":10,"source":"GADM 4.1","generated":"2026-05-08"},"features":[{"type":"Feature","properties":{"name":"Cipancuh","name_en":"Cipancuh","admin_level":"7","osm_id":""},"geometry":{"type":"Polygon","coordinates":[[[107.9436,-6.4586],[107.9325,-6.4582],[107.9332,-6.4503],[107.9292,-6.4504],[107.9281,-6.448],[107.9316,-6.4324],[107.9469,-6.4359],[107.9507,-6.4389],[107.9509,-6.4409],[107.9493,-6.4411],[107.951,-6.4422],[107.9495,-6.4423],[107.9486,-6.445],[107.9428,-6.447],[107.9421,-6.4531],[107.9436,-6.4586]]]}},{"type":"Feature","properties":{"name":"Haurgeulis","name_en":"Haurgeulis","admin_level":"7","osm_id":""},"geometry":{"type":"Polygon","coordinates":[[[107.9398,-6.4584],[107.9694,-6.46],[107.9682,-6.4723],[107.958,-6.47],[107.9557,-6.4714],[107.9475,-6.4705],[107.9479,-6.4664],[107.9445,-6.4665],[107.9438,-6.4623],[107.9396,-6.4622],[107.9398,-6.4584]]]}},{"type":"Feature","properties":{"name":"Haurkolot","name_en":"Haurkolot","admin_level":"7","osm_id":""},"geometry":{"type":"Polygon","coordinates":[[[107.9682,-6.4723],[107.9691,-6.475],[107.9652,-6.481],[107.9643,-6.4855],[107.959,-6.4853],[107.9589,-6.4868],[107.9558,-6.4869],[107.9505,-6.4792],[107.9483,-6.4818],[107.9451,-6.4741],[107.9413,-6.4717],[107.9416,-6.4664],[107.9479,-6.4664],[107.9475,-6.4705],[107.9557,-6.4714],[107.958,-6.47],[107.9682,-6.4723]]]}},{"type":"Feature","properties":{"name":"Karangtumaritis","name_en":"Karangtumaritis","admin_level":"7","osm_id":""},"geometry":{"type":"Polygon","coordinates":[[[107.8979,-6.4202],[107.9071,-6.4225],[107.9029,-6.4379],[107.9015,-6.4561],[107.9107,-6.4568],[107.9104,-6.4597],[107.9071,-6.4595],[107.9058,-6.47],[107.9066,-6.4842],[107.9025,-6.4824],[107.8987,-6.4852],[107.8965,-6.4804],[107.8994,-6.4774],[107.8978,-6.4752],[107.8992,-6.4716],[107.8952,-6.472],[107.8951,-6.4627],[107.892,-6.4629],[107.891,-6.4599],[107.888,-6.4598],[107.8873,-6.4579],[107.8789,-6.4577],[107.8789,-6.4572],[107.8889,-6.4578],[107.893,-6.4524],[107.8912,-6.4489],[107.8942,-6.4494],[107.8948,-6.4483],[107.8901,-6.4437],[107.8927,-6.4385],[107.8912,-6.4352],[107.897,-6.4257],[107.8956,-6.4253],[107.8943,-6.4202],[107.8979,-6.4202]]]}},{"type":"Feature","properties":{"name":"Kertanegara","name_en":"Kertanegara","admin_level":"7","osm_id":""},"geometry":{"type":"Polygon","coordinates":[[[107.9303,-6.4659],[107.9205,-6.4621],[107.9205,-6.4575],[107.9016,-6.4563],[107.9029,-6.4379],[107.9066,-6.4269],[107.9205,-6.4423],[107.9216,-6.432],[107.9316,-6.4324],[107.9281,-6.448],[107.9292,-6.4504],[107.9333,-6.4504],[107.9325,-6.4582],[107.9295,-6.4584],[107.9303,-6.4659]]]}},{"type":"Feature","properties":{"name":"Mekarjati","name_en":"Mekarjati","admin_level":"7","osm_id":""},"geometry":{"type":"Polygon","coordinates":[[[107.9436,-6.4586],[107.9425,-6.4479],[107.9442,-6.4457],[107.9486,-6.445],[107.9495,-6.4423],[107.951,-6.4422],[107.9494,-6.4408],[107.9749,-6.4484],[107.9723,-6.4536],[107.9732,-6.4553],[107.9694,-6.46],[107.9436,-6.4586]]]}},{"type":"Feature","properties":{"name":"Sidadadi","name_en":"Sidadadi","admin_level":"7","osm_id":""},"geometry":{"type":"Polygon","coordinates":[[[107.9625,-6.4178],[107.9929,-6.4211],[107.9924,-6.4242],[107.9945,-6.4293],[107.9926,-6.4345],[107.9901,-6.4374],[107.9865,-6.4385],[107.986,-6.4413],[107.9809,-6.4426],[107.9758,-6.4486],[107.9494,-6.4408],[107.951,-6.4405],[107.9499,-6.438],[107.9519,-6.4387],[107.9513,-6.4372],[107.9546,-6.4344],[107.9524,-6.4281],[107.9544,-6.4292],[107.9578,-6.427],[107.9582,-6.4248],[107.9606,-6.4255],[107.9594,-6.4222],[107.962,-6.4205],[107.9611,-6.4194],[107.9625,-6.4178]]]}},{"type":"Feature","properties":{"name":"Sukajati","name_en":"Sukajati","admin_level":"7","osm_id":""},"geometry":{"type":"Polygon","coordinates":[[[107.9358,-6.4714],[107.9303,-6.4659],[107.9295,-6.4584],[107.9398,-6.4584],[107.9396,-6.4622],[107.9438,-6.4623],[107.9445,-6.4665],[107.9416,-6.4664],[107.9415,-6.4716],[107.9358,-6.4714]]]}},{"type":"Feature","properties":{"name":"Sumbermulya","name_en":"Sumbermulya","admin_level":"7","osm_id":""},"geometry":{"type":"Polygon","coordinates":[[[107.9202,-6.4236],[107.9222,-6.4198],[107.9241,-6.42],[107.9254,-6.418],[107.9291,-6.4191],[107.9323,-6.4132],[107.9342,-6.4123],[107.9342,-6.4103],[107.9375,-6.411],[107.9382,-6.4087],[107.9414,-6.4098],[107.9429,-6.4045],[107.9468,-6.4096],[107.9586,-6.4172],[107.9625,-6.4178],[107.9611,-6.4194],[107.962,-6.4205],[107.9594,-6.4222],[107.9606,-6.4255],[107.9582,-6.4248],[107.9578,-6.427],[107.9544,-6.4292],[107.9524,-6.4281],[107.9546,-6.4344],[107.9513,-6.4372],[107.9515,-6.4388],[107.9376,-6.433],[107.9201,-6.4318],[107.9202,-6.4236]]]}},{"type":"Feature","properties":{"name":"Wanakaya","name_en":"Wanakaya","admin_level":"7","osm_id":""},"geometry":{"type":"Polygon","coordinates":[[[107.9297,-6.4658],[107.9267,-6.4777],[107.9126,-6.4809],[107.9106,-6.4856],[107.9085,-6.4834],[107.9066,-6.4842],[107.9058,-6.47],[107.9071,-6.4595],[107.9104,-6.4597],[107.9107,-6.4568],[107.9205,-6.4575],[107.9205,-6.4621],[107.9297,-6.4658]]]}}]}