{"type":"FeatureCollection","metadata":{"parent_osm_id":"20202484","parent_name":"Perbaungan","parent_name_1":"SumateraUtara","parent_gid":"IDN.32.27.8_1","parent_level":"6","child_level":"7","count":27,"source":"GADM 4.1","generated":"2026-05-08"},"features":[{"type":"Feature","properties":{"name":"Adolina","name_en":"Adolina","admin_level":"7","osm_id":""},"geometry":{"type":"Polygon","coordinates":[[[98.9303,3.4828],[98.9358,3.4964],[98.9361,3.5003],[98.9333,3.5031],[98.9368,3.5145],[98.9368,3.519],[98.9353,3.5222],[98.9358,3.5255],[98.931,3.5327],[98.933,3.5377],[98.9263,3.5447],[98.9262,3.5467],[98.9308,3.5532],[98.9328,3.5632],[98.9531,3.5626],[98.9528,3.555],[98.957,3.555],[98.9565,3.5525],[98.9536,3.5511],[98.9575,3.5441],[98.9563,3.5397],[98.9588,3.5332],[98.9495,3.5148],[98.9515,3.5091],[98.9411,3.4807],[98.9307,3.4815],[98.9303,3.4828]]]}},{"type":"Feature","properties":{"name":"BatangTerap","name_en":"BatangTerap","admin_level":"7","osm_id":""},"geometry":{"type":"Polygon","coordinates":[[[98.9339,3.5664],[98.9329,3.5691],[98.9235,3.5754],[98.9213,3.5798],[98.9586,3.5781],[98.9584,3.5721],[98.9488,3.5721],[98.9482,3.5698],[98.9511,3.5692],[98.951,3.5675],[98.9442,3.5667],[98.9435,3.5687],[98.9339,3.5664]]]}},{"type":"Feature","properties":{"name":"Bengkel","name_en":"Bengkel","admin_level":"7","osm_id":""},"geometry":{"type":"Polygon","coordinates":[[[99.0033,3.5657],[98.9951,3.5669],[98.9953,3.5701],[99.0038,3.5681],[99.0086,3.5687],[99.0088,3.5567],[99.0071,3.5545],[99.0046,3.5546],[99.0054,3.5641],[99.0032,3.5642],[99.0033,3.5657]]]}},{"type":"Feature","properties":{"name":"CintaAir","name_en":"CintaAir","admin_level":"7","osm_id":""},"geometry":{"type":"Polygon","coordinates":[[[98.9924,3.6029],[99.0099,3.601],[99.012,3.5995],[99.011,3.598],[99.0134,3.5965],[99.0105,3.589],[99.0076,3.5884],[99.0033,3.5845],[98.9989,3.5846],[98.9924,3.6029]]]}},{"type":"Feature","properties":{"name":"CitamanJernih","name_en":"CitamanJernih","admin_level":"7","osm_id":""},"geometry":{"type":"Polygon","coordinates":[[[98.9328,3.5632],[98.9337,3.565],[98.9476,3.5658],[98.9605,3.5635],[98.957,3.555],[98.9528,3.555],[98.9531,3.5626],[98.9328,3.5632]]]}},{"type":"Feature","properties":{"name":"DeliMudaHulu","name_en":"DeliMudaHulu","admin_level":"7","osm_id":""},"geometry":{"type":"Polygon","coordinates":[[[99.0088,3.5567],[99.0086,3.5687],[99.0038,3.5683],[99.0042,3.5718],[99.0131,3.5717],[99.0113,3.5689],[99.0152,3.5684],[99.0152,3.5709],[99.0175,3.5717],[99.0299,3.5715],[99.0281,3.5547],[99.0252,3.5539],[99.0088,3.5567]]]}},{"type":"Feature","properties":{"name":"JamburPulau","name_en":"JamburPulau","admin_level":"7","osm_id":""},"geometry":{"type":"Polygon","coordinates":[[[98.9586,3.5781],[98.9592,3.596],[98.9677,3.5959],[98.9666,3.5852],[98.964,3.584],[98.9658,3.584],[98.9661,3.5803],[98.963,3.5723],[98.9584,3.5721],[98.9586,3.5781]]]}},{"type":"Feature","properties":{"name":"Kesatuan","name_en":"Kesatuan","admin_level":"7","osm_id":""},"geometry":{"type":"Polygon","coordinates":[[[99.0403,3.5974],[99.0428,3.5922],[99.0462,3.5916],[99.0504,3.5879],[99.0463,3.5768],[99.0345,3.5767],[99.0328,3.5716],[99.0299,3.5715],[99.0346,3.587],[99.0403,3.5974]]]}},{"type":"Feature","properties":{"name":"KotaGaluh","name_en":"KotaGaluh","admin_level":"7","osm_id":""},"geometry":{"type":"Polygon","coordinates":[[[98.9614,3.5637],[98.9629,3.5736],[98.9661,3.5803],[98.9658,3.584],[98.9715,3.587],[98.9743,3.5911],[98.9778,3.5917],[98.9793,3.5891],[98.9793,3.5758],[98.9758,3.5759],[98.9754,3.5713],[98.97,3.5717],[98.9698,3.5678],[98.9654,3.567],[98.9649,3.5633],[98.9614,3.5637]]]}},{"type":"Feature","properties":{"name":"LidahTanah","name_en":"LidahTanah","admin_level":"7","osm_id":""},"geometry":{"type":"Polygon","coordinates":[[[99.0374,3.6036],[99.0454,3.5994],[99.0403,3.5974],[99.0346,3.587],[99.0299,3.5715],[99.0175,3.5717],[99.0152,3.5709],[99.0152,3.5684],[99.0113,3.5689],[99.0131,3.5717],[99.008,3.5717],[99.0071,3.574],[99.0133,3.5821],[99.0176,3.5823],[99.0218,3.5864],[99.0301,3.5902],[99.032,3.5959],[99.0355,3.598],[99.0355,3.6033],[99.0367,3.6018],[99.0374,3.6036]]]}},{"type":"Feature","properties":{"name":"LubukBayas","name_en":"LubukBayas","admin_level":"7","osm_id":""},"geometry":{"type":"Polygon","coordinates":[[[99.0621,3.5799],[99.0697,3.5794],[99.0674,3.5718],[99.0651,3.5702],[99.0659,3.5663],[99.0706,3.564],[99.0752,3.5664],[99.0774,3.5651],[99.0673,3.5602],[99.0594,3.552],[99.0554,3.5505],[99.0541,3.5477],[99.0531,3.5502],[99.0554,3.5523],[99.0562,3.5564],[99.0527,3.5667],[99.0568,3.5674],[99.0636,3.5781],[99.0621,3.5799]]]}},{"type":"Feature","properties":{"name":"LubukCemara","name_en":"LubukCemara","admin_level":"7","osm_id":""},"geometry":{"type":"Polygon","coordinates":[[[98.974,3.6142],[98.975,3.604],[98.9832,3.6035],[98.9859,3.574],[98.9793,3.5758],[98.9792,3.5898],[98.9747,3.5968],[98.9739,3.5961],[98.9708,3.599],[98.972,3.6114],[98.974,3.6142]]]}},{"type":"Feature","properties":{"name":"LubukDendang","name_en":"LubukDendang","admin_level":"7","osm_id":""},"geometry":{"type":"Polygon","coordinates":[[[99.012,3.5995],[99.0152,3.5972],[99.0226,3.597],[99.0234,3.5888],[99.0269,3.5884],[99.0218,3.5864],[99.0176,3.5823],[99.0133,3.5821],[99.0103,3.5857],[99.0154,3.5889],[99.0105,3.5916],[99.0134,3.5965],[99.011,3.598],[99.012,3.5995]]]}},{"type":"Feature","properties":{"name":"LubukRotan","name_en":"LubukRotan","admin_level":"7","osm_id":""},"geometry":{"type":"Polygon","coordinates":[[[99.0504,3.5879],[99.0561,3.5851],[99.0636,3.5781],[99.0568,3.5674],[99.0527,3.5667],[99.0527,3.5686],[99.0477,3.5689],[99.0496,3.576],[99.0463,3.5768],[99.0504,3.5879]]]}},{"type":"Feature","properties":{"name":"MelatiDua","name_en":"MelatiDua","admin_level":"7","osm_id":""},"geometry":{"type":"Polygon","coordinates":[[[98.9829,3.5077],[98.9822,3.5057],[98.9851,3.5056],[98.9848,3.4976],[98.9809,3.4984],[98.9811,3.5008],[98.979,3.5009],[98.978,3.5041],[98.9717,3.5044],[98.9715,3.5065],[98.9648,3.5064],[98.9618,3.5093],[98.9621,3.5149],[98.9563,3.5138],[98.9563,3.5127],[98.9516,3.5135],[98.9515,3.5112],[98.9538,3.5116],[98.9545,3.5099],[98.9515,3.5091],[98.9499,3.5115],[98.9495,3.5148],[98.9533,3.5226],[98.9563,3.5237],[98.9572,3.5221],[98.9619,3.5217],[98.9635,3.534],[98.9696,3.5327],[98.9683,3.5335],[98.9697,3.5351],[98.9658,3.5353],[98.9657,3.5379],[98.9835,3.5376],[98.9826,3.5181],[98.98,3.5088],[98.9829,3.5077]]]}},{"type":"Feature","properties":{"name":"MelatiSatu","name_en":"MelatiSatu","admin_level":"7","osm_id":""},"geometry":{"type":"Polygon","coordinates":[[[98.969,3.5549],[98.9614,3.5563],[98.9616,3.559],[98.959,3.5591],[98.9614,3.5637],[98.9683,3.5629],[98.9683,3.5605],[98.9703,3.5605],[98.969,3.5549]]]}},{"type":"Feature","properties":{"name":"PematangSijonam","name_en":"PematangSijonam","admin_level":"7","osm_id":""},"geometry":{"type":"Polygon","coordinates":[[[98.9832,3.6035],[98.9924,3.6029],[98.9989,3.5846],[99.0033,3.5845],[99.0007,3.576],[98.9953,3.5701],[98.9951,3.5669],[98.9862,3.5675],[98.9846,3.5709],[98.9859,3.574],[98.9832,3.6035]]]}},{"type":"Feature","properties":{"name":"PematangTatal","name_en":"PematangTatal","admin_level":"7","osm_id":""},"geometry":{"type":"Polygon","coordinates":[[[99.0239,3.6055],[99.0317,3.6082],[99.0374,3.6036],[99.0367,3.6018],[99.0355,3.6033],[99.0355,3.598],[99.032,3.5959],[99.0301,3.5902],[99.0269,3.5884],[99.0234,3.5888],[99.0226,3.6003],[99.0239,3.6055]]]}},{"type":"Feature","properties":{"name":"SeiBuluh","name_en":"SeiBuluh","admin_level":"7","osm_id":""},"geometry":{"type":"Polygon","coordinates":[[[99.0554,3.5523],[99.0531,3.5502],[99.0535,3.548],[99.0387,3.5489],[99.0397,3.5553],[99.0554,3.5523]]]}},{"type":"Feature","properties":{"name":"SeiNagaLawan","name_en":"SeiNagaLawan","admin_level":"7","osm_id":""},"geometry":{"type":"Polygon","coordinates":[[[99.0697,3.5794],[99.0787,3.5801],[99.091,3.5927],[99.1102,3.5767],[99.1183,3.5724],[99.1167,3.5694],[99.114,3.5704],[99.1105,3.5686],[99.1042,3.5719],[99.092,3.5731],[99.0903,3.5728],[99.0863,3.565],[99.0789,3.5638],[99.0752,3.5664],[99.0706,3.564],[99.0659,3.5663],[99.0651,3.5702],[99.0674,3.5718],[99.0697,3.5794]]]}},{"type":"Feature","properties":{"name":"SeiSijenggi","name_en":"SeiSijenggi","admin_level":"7","osm_id":""},"geometry":{"type":"Polygon","coordinates":[[[99.0071,3.5545],[99.0087,3.5566],[99.0261,3.5538],[99.0322,3.556],[99.0352,3.5542],[99.0356,3.5571],[99.0397,3.5553],[99.0387,3.5489],[99.0078,3.5513],[99.0044,3.5545],[99.0071,3.5545]]]}},{"type":"Feature","properties":{"name":"SimpangTigaPekan","name_en":"SimpangTigaPekan","admin_level":"7","osm_id":""},"geometry":{"type":"Polygon","coordinates":[[[98.9339,3.5656],[98.9435,3.5687],[98.9442,3.5667],[98.951,3.5675],[98.9511,3.5692],[98.9482,3.5698],[98.9488,3.5721],[98.963,3.5723],[98.9605,3.5635],[98.9559,3.5653],[98.9339,3.5656]]]}},{"type":"Feature","properties":{"name":"SukaBeras","name_en":"SukaBeras","admin_level":"7","osm_id":""},"geometry":{"type":"Polygon","coordinates":[[[99.0038,3.5683],[98.9956,3.5701],[99.0007,3.576],[99.0033,3.5845],[99.0076,3.5884],[99.0099,3.5884],[99.0111,3.5911],[99.0154,3.5889],[99.0103,3.5857],[99.0134,3.5807],[99.0071,3.574],[99.008,3.5717],[99.0042,3.5718],[99.0038,3.5683]]]}},{"type":"Feature","properties":{"name":"SukaJadi","name_en":"SukaJadi","admin_level":"7","osm_id":""},"geometry":{"type":"Polygon","coordinates":[[[98.9726,3.6142],[98.974,3.6142],[98.972,3.6114],[98.9708,3.599],[98.9739,3.5961],[98.9747,3.5968],[98.9775,3.5919],[98.9743,3.5911],[98.9709,3.5865],[98.965,3.5835],[98.9643,3.5844],[98.9666,3.5852],[98.9677,3.5959],[98.9656,3.5959],[98.9662,3.6143],[98.9726,3.6142]]]}},{"type":"Feature","properties":{"name":"TanahMerah","name_en":"TanahMerah","admin_level":"7","osm_id":""},"geometry":{"type":"Polygon","coordinates":[[[99.0328,3.5716],[99.0345,3.5767],[99.0496,3.576],[99.0477,3.5689],[99.0527,3.5686],[99.0554,3.5575],[99.0429,3.5578],[99.0436,3.5687],[99.0371,3.569],[99.0374,3.5715],[99.0328,3.5716]]]}},{"type":"Feature","properties":{"name":"TanjungBuluh","name_en":"TanjungBuluh","admin_level":"7","osm_id":""},"geometry":{"type":"Polygon","coordinates":[[[99.0284,3.5572],[99.0299,3.5715],[99.0374,3.5715],[99.0371,3.569],[99.0436,3.5687],[99.0429,3.5578],[99.0554,3.5575],[99.0562,3.554],[99.0554,3.5523],[99.0514,3.5522],[99.0356,3.5571],[99.0352,3.5542],[99.0322,3.556],[99.028,3.5539],[99.0284,3.5572]]]}},{"type":"Feature","properties":{"name":"Tualang","name_en":"Tualang","admin_level":"7","osm_id":""},"geometry":{"type":"Polygon","coordinates":[[[98.993,3.5554],[98.991,3.5462],[98.9799,3.5463],[98.9796,3.5528],[98.969,3.5539],[98.9703,3.5605],[98.9683,3.5605],[98.9683,3.5629],[98.9649,3.5633],[98.9654,3.567],[98.9698,3.5678],[98.97,3.5717],[98.9754,3.5713],[98.9758,3.5759],[98.9859,3.574],[98.9846,3.5709],[98.9862,3.5675],[98.9845,3.5632],[98.9958,3.5632],[98.993,3.5554]]]}}]}