{"type":"FeatureCollection","metadata":{"parent_osm_id":"20447448","parent_name":"Sulang","parent_name_1":"JawaTengah","parent_gid":"IDN.10.26.13_1","parent_level":"6","child_level":"7","count":21,"source":"GADM 4.1","generated":"2026-05-07"},"features":[{"type":"Feature","properties":{"name":"Bogorame","name_en":"Bogorame","admin_level":"7","osm_id":""},"geometry":{"type":"Polygon","coordinates":[[[111.3634,-6.776],[111.3614,-6.7758],[111.3609,-6.7779],[111.3588,-6.7788],[111.3535,-6.7791],[111.348,-6.7888],[111.3379,-6.7871],[111.3423,-6.7763],[111.3447,-6.777],[111.3479,-6.7725],[111.3537,-6.7687],[111.3567,-6.7621],[111.3647,-6.7587],[111.3631,-6.763],[111.3618,-6.7618],[111.3602,-6.7637],[111.3609,-6.7664],[111.3585,-6.7666],[111.3575,-6.7692],[111.3608,-6.7733],[111.3627,-6.7728],[111.3634,-6.776]]]}},{"type":"Feature","properties":{"name":"Glebeg","name_en":"Glebeg","admin_level":"7","osm_id":""},"geometry":{"type":"Polygon","coordinates":[[[111.3783,-6.7889],[111.3711,-6.789],[111.3667,-6.7764],[111.3689,-6.7761],[111.3706,-6.7722],[111.38,-6.7731],[111.3807,-6.7717],[111.3834,-6.7717],[111.3879,-6.767],[111.3901,-6.7721],[111.386,-6.7758],[111.3826,-6.7827],[111.3814,-6.782],[111.3801,-6.7873],[111.3783,-6.7889]]]}},{"type":"Feature","properties":{"name":"Jatimudo","name_en":"Jatimudo","admin_level":"7","osm_id":""},"geometry":{"type":"Polygon","coordinates":[[[111.3711,-6.789],[111.3783,-6.7889],[111.3815,-6.7933],[111.3858,-6.788],[111.3888,-6.7882],[111.3911,-6.7908],[111.3902,-6.7951],[111.3964,-6.7989],[111.3942,-6.8029],[111.4003,-6.8055],[111.3967,-6.8095],[111.3936,-6.8059],[111.3907,-6.8051],[111.39,-6.8017],[111.3863,-6.8034],[111.3828,-6.8028],[111.3808,-6.8],[111.3757,-6.7994],[111.3716,-6.7936],[111.3711,-6.789]]]}},{"type":"Feature","properties":{"name":"Kaliombo","name_en":"Kaliombo","admin_level":"7","osm_id":""},"geometry":{"type":"Polygon","coordinates":[[[111.3534,-6.8126],[111.3486,-6.8135],[111.3376,-6.8122],[111.3373,-6.8087],[111.3346,-6.8088],[111.3346,-6.8071],[111.3373,-6.806],[111.3388,-6.7982],[111.3412,-6.7955],[111.3403,-6.7921],[111.3356,-6.7904],[111.3379,-6.7871],[111.348,-6.7888],[111.3535,-6.7791],[111.3608,-6.7781],[111.3614,-6.7758],[111.3667,-6.7764],[111.3716,-6.7936],[111.3689,-6.7947],[111.3669,-6.7987],[111.3671,-6.8034],[111.3587,-6.8136],[111.3534,-6.8126]]]}},{"type":"Feature","properties":{"name":"Karangharjo","name_en":"Karangharjo","admin_level":"7","osm_id":""},"geometry":{"type":"Polygon","coordinates":[[[111.4007,-6.8046],[111.3943,-6.8031],[111.3964,-6.7989],[111.3899,-6.7937],[111.3936,-6.7934],[111.3947,-6.7885],[111.3999,-6.789],[111.3998,-6.7858],[111.4043,-6.7829],[111.4059,-6.7837],[111.4081,-6.791],[111.4043,-6.802],[111.4007,-6.8046]]]}},{"type":"Feature","properties":{"name":"Karangsari","name_en":"Karangsari","admin_level":"7","osm_id":""},"geometry":{"type":"Polygon","coordinates":[[[111.3143,-6.7547],[111.318,-6.7469],[111.3182,-6.7403],[111.3253,-6.7433],[111.3257,-6.7475],[111.3278,-6.7473],[111.3283,-6.75],[111.3261,-6.756],[111.328,-6.7575],[111.3287,-6.7632],[111.327,-6.7693],[111.3305,-6.772],[111.33,-6.7743],[111.326,-6.7746],[111.3257,-6.773],[111.3213,-6.772],[111.3216,-6.7703],[111.3199,-6.7698],[111.3228,-6.767],[111.3224,-6.7651],[111.3161,-6.7617],[111.3143,-6.7547]]]}},{"type":"Feature","properties":{"name":"Kebonagung","name_en":"Kebonagung","admin_level":"7","osm_id":""},"geometry":{"type":"Polygon","coordinates":[[[111.3403,-6.747],[111.3438,-6.7474],[111.3442,-6.7501],[111.3461,-6.7504],[111.346,-6.7532],[111.3476,-6.7527],[111.3444,-6.758],[111.3411,-6.749],[111.3351,-6.7466],[111.3368,-6.7455],[111.3377,-6.7471],[111.3403,-6.747]]]}},{"type":"Feature","properties":{"name":"Kemadu","name_en":"Kemadu","admin_level":"7","osm_id":""},"geometry":{"type":"Polygon","coordinates":[[[111.4003,-6.8354],[111.3935,-6.8372],[111.3866,-6.833],[111.3771,-6.8247],[111.376,-6.8151],[111.3827,-6.8119],[111.3895,-6.8145],[111.3926,-6.8194],[111.4006,-6.818],[111.4015,-6.8214],[111.3984,-6.8262],[111.4016,-6.8305],[111.4003,-6.8354]]]}},{"type":"Feature","properties":{"name":"Kerep","name_en":"Kerep","admin_level":"7","osm_id":""},"geometry":{"type":"Polygon","coordinates":[[[111.3917,-6.7473],[111.3989,-6.7577],[111.3965,-6.7611],[111.3978,-6.7655],[111.3959,-6.7684],[111.3964,-6.7717],[111.3919,-6.7707],[111.3901,-6.7721],[111.3881,-6.7694],[111.3876,-6.7633],[111.3789,-6.7565],[111.3855,-6.7472],[111.3917,-6.7473]]]}},{"type":"Feature","properties":{"name":"Korowelang","name_en":"Korowelang","admin_level":"7","osm_id":""},"geometry":{"type":"Polygon","coordinates":[[[111.419,-6.7897],[111.4171,-6.7913],[111.4174,-6.7939],[111.4117,-6.7941],[111.4078,-6.7921],[111.4059,-6.7837],[111.4077,-6.7825],[111.4118,-6.7865],[111.419,-6.7897]]]}},{"type":"Feature","properties":{"name":"Kunir","name_en":"Kunir","admin_level":"7","osm_id":""},"geometry":{"type":"Polygon","coordinates":[[[111.4017,-6.7792],[111.4077,-6.7825],[111.4016,-6.784],[111.3998,-6.7858],[111.3999,-6.789],[111.3947,-6.7885],[111.3936,-6.7934],[111.3899,-6.7937],[111.391,-6.7906],[111.3873,-6.7879],[111.3855,-6.7883],[111.3835,-6.792],[111.3804,-6.7931],[111.3783,-6.7889],[111.3801,-6.7873],[111.3811,-6.7824],[111.3826,-6.7827],[111.386,-6.7758],[111.3906,-6.7714],[111.3964,-6.7717],[111.3979,-6.7774],[111.4017,-6.7792]]]}},{"type":"Feature","properties":{"name":"Landoh","name_en":"Landoh","admin_level":"7","osm_id":""},"geometry":{"type":"Polygon","coordinates":[[[111.3688,-6.7543],[111.3725,-6.7553],[111.3745,-6.7541],[111.3751,-6.7563],[111.3768,-6.7561],[111.3768,-6.7546],[111.3822,-6.7602],[111.3865,-6.7622],[111.3879,-6.767],[111.3862,-6.7701],[111.38,-6.7731],[111.3706,-6.7722],[111.3689,-6.7761],[111.3634,-6.776],[111.3627,-6.7728],[111.3608,-6.7733],[111.3576,-6.7685],[111.3587,-6.7665],[111.3609,-6.7664],[111.3599,-6.7644],[111.3617,-6.7619],[111.3631,-6.763],[111.3661,-6.7546],[111.3688,-6.7543]]]}},{"type":"Feature","properties":{"name":"Pedak","name_en":"Pedak","admin_level":"7","osm_id":""},"geometry":{"type":"Polygon","coordinates":[[[111.3476,-6.7527],[111.3491,-6.7467],[111.3525,-6.7463],[111.361,-6.7485],[111.363,-6.7512],[111.3677,-6.751],[111.3688,-6.7543],[111.3661,-6.7546],[111.3647,-6.7587],[111.3579,-6.7613],[111.358,-6.7597],[111.3562,-6.7591],[111.3526,-6.7607],[111.3469,-6.7688],[111.3444,-6.7572],[111.3476,-6.7527]]]}},{"type":"Feature","properties":{"name":"Pomahan","name_en":"Pomahan","admin_level":"7","osm_id":""},"geometry":{"type":"Polygon","coordinates":[[[111.4167,-6.8266],[111.4084,-6.8284],[111.4062,-6.8345],[111.4034,-6.8359],[111.4003,-6.8353],[111.4016,-6.8305],[111.3984,-6.8262],[111.4015,-6.8214],[111.3999,-6.8134],[111.4055,-6.8127],[111.4065,-6.8103],[111.4083,-6.8108],[111.4084,-6.8082],[111.4126,-6.8091],[111.4118,-6.8078],[111.4139,-6.8043],[111.4175,-6.8043],[111.4167,-6.8266]]]}},{"type":"Feature","properties":{"name":"Pragu","name_en":"Pragu","admin_level":"7","osm_id":""},"geometry":{"type":"Polygon","coordinates":[[[111.3277,-6.7419],[111.3274,-6.7396],[111.329,-6.7394],[111.3325,-6.7418],[111.3353,-6.7417],[111.3352,-6.747],[111.3411,-6.749],[111.343,-6.7557],[111.3331,-6.7534],[111.3342,-6.7498],[111.3315,-6.7444],[111.3277,-6.7419]]]}},{"type":"Feature","properties":{"name":"Pranti","name_en":"Pranti","admin_level":"7","osm_id":""},"geometry":{"type":"Polygon","coordinates":[[[111.3579,-6.7613],[111.3537,-6.7687],[111.3479,-6.7725],[111.3447,-6.777],[111.3382,-6.7749],[111.3396,-6.7715],[111.3438,-6.7697],[111.3459,-6.7664],[111.3478,-6.7686],[111.3485,-6.7651],[111.3526,-6.7607],[111.3562,-6.7591],[111.358,-6.7597],[111.3579,-6.7613]]]}},{"type":"Feature","properties":{"name":"Rukem","name_en":"Rukem","admin_level":"7","osm_id":""},"geometry":{"type":"Polygon","coordinates":[[[111.418,-6.8033],[111.4134,-6.8048],[111.4126,-6.8091],[111.4084,-6.8082],[111.4083,-6.8108],[111.4065,-6.8103],[111.4055,-6.8127],[111.3977,-6.8124],[111.3967,-6.8095],[111.4043,-6.802],[111.4078,-6.7921],[111.4135,-6.7946],[111.4165,-6.7942],[111.4187,-6.7991],[111.418,-6.8033]]]}},{"type":"Feature","properties":{"name":"Seren","name_en":"Seren","admin_level":"7","osm_id":""},"geometry":{"type":"Polygon","coordinates":[[[111.3278,-6.7473],[111.3279,-6.7445],[111.3252,-6.7435],[111.3277,-6.7419],[111.3315,-6.7444],[111.3342,-6.7498],[111.3331,-6.7534],[111.3431,-6.7554],[111.3455,-6.7609],[111.346,-6.7664],[111.3383,-6.7735],[111.3382,-6.7749],[111.3423,-6.7763],[111.3379,-6.7871],[111.3322,-6.7842],[111.325,-6.7832],[111.324,-6.7817],[111.326,-6.7746],[111.3307,-6.773],[111.327,-6.7693],[111.3287,-6.7633],[111.328,-6.7575],[111.3261,-6.756],[111.3283,-6.75],[111.3278,-6.7473]]]}},{"type":"Feature","properties":{"name":"Sudo","name_en":"Sudo","admin_level":"7","osm_id":""},"geometry":{"type":"Polygon","coordinates":[[[111.3337,-6.814],[111.3251,-6.815],[111.3079,-6.8115],[111.3081,-6.8013],[111.3103,-6.8003],[111.3115,-6.7964],[111.3167,-6.7938],[111.3186,-6.785],[111.3218,-6.7806],[111.325,-6.7832],[111.3322,-6.7842],[111.3379,-6.7871],[111.3357,-6.7911],[111.3403,-6.7921],[111.3412,-6.7955],[111.3388,-6.7982],[111.3373,-6.806],[111.3344,-6.8076],[111.3348,-6.809],[111.3373,-6.8087],[111.3376,-6.8122],[111.3337,-6.814]]]}},{"type":"Feature","properties":{"name":"Sulang","name_en":"Sulang","admin_level":"7","osm_id":""},"geometry":{"type":"Polygon","coordinates":[[[111.3716,-6.7936],[111.3757,-6.7994],[111.3808,-6.8],[111.3828,-6.8028],[111.387,-6.8033],[111.39,-6.8017],[111.3907,-6.8051],[111.3944,-6.8066],[111.3977,-6.8124],[111.3999,-6.8134],[111.4006,-6.818],[111.3932,-6.8196],[111.3895,-6.8145],[111.3827,-6.8119],[111.376,-6.8151],[111.3754,-6.8125],[111.3681,-6.8104],[111.3658,-6.8113],[111.3637,-6.8061],[111.3671,-6.8034],[111.3669,-6.7987],[111.3689,-6.7947],[111.3716,-6.7936]]]}},{"type":"Feature","properties":{"name":"Tanjung","name_en":"Tanjung","admin_level":"7","osm_id":""},"geometry":{"type":"Polygon","coordinates":[[[111.3771,-6.8247],[111.3727,-6.8266],[111.3675,-6.8229],[111.3634,-6.8255],[111.3624,-6.8248],[111.3606,-6.8157],[111.3587,-6.8136],[111.3636,-6.8066],[111.3658,-6.8113],[111.3681,-6.8104],[111.3758,-6.8128],[111.3771,-6.8247]]]}}]}