{"type":"FeatureCollection","metadata":{"parent_osm_id":"20447247","parent_name":"Negara","parent_name_1":"Bali","parent_gid":"IDN.2.6.5_1","parent_level":"6","child_level":"7","count":12,"source":"GADM 4.1","generated":"2026-05-07"},"features":[{"type":"Feature","properties":{"name":"BalerBaleAgung","name_en":"BalerBaleAgung","admin_level":"7","osm_id":""},"geometry":{"type":"Polygon","coordinates":[[[114.6524,-8.2257],[114.6534,-8.2301],[114.6518,-8.2343],[114.6529,-8.237],[114.6545,-8.2369],[114.6479,-8.2419],[114.6484,-8.2501],[114.6445,-8.255],[114.6449,-8.2586],[114.6422,-8.2608],[114.6404,-8.2681],[114.6413,-8.2794],[114.638,-8.289],[114.6269,-8.3023],[114.6278,-8.3044],[114.6257,-8.31],[114.626,-8.3157],[114.6219,-8.3204],[114.6219,-8.3255],[114.6262,-8.3309],[114.6242,-8.3467],[114.6257,-8.3515],[114.6235,-8.3546],[114.624,-8.3574],[114.6092,-8.3542],[114.6143,-8.3396],[114.6171,-8.3361],[114.6168,-8.3303],[114.6153,-8.3291],[114.6176,-8.3148],[114.6242,-8.3022],[114.6226,-8.2941],[114.6235,-8.2912],[114.6203,-8.2859],[114.6227,-8.2767],[114.6298,-8.2704],[114.6395,-8.2541],[114.6386,-8.2473],[114.6364,-8.2444],[114.6309,-8.2416],[114.6419,-8.2315],[114.6477,-8.2305],[114.6524,-8.2257]]]}},{"type":"Feature","properties":{"name":"Baluk","name_en":"Baluk","admin_level":"7","osm_id":""},"geometry":{"type":"Polygon","coordinates":[[[114.5455,-8.3512],[114.5462,-8.3481],[114.5482,-8.3499],[114.5527,-8.3504],[114.5528,-8.3527],[114.5601,-8.3539],[114.5795,-8.3529],[114.5814,-8.3489],[114.6013,-8.352],[114.6076,-8.3542],[114.6062,-8.3563],[114.6089,-8.3604],[114.6085,-8.3653],[114.5932,-8.3654],[114.5925,-8.3677],[114.5693,-8.3653],[114.5628,-8.3625],[114.5639,-8.3602],[114.5551,-8.3581],[114.5513,-8.3559],[114.5521,-8.3538],[114.5455,-8.3512]]]}},{"type":"Feature","properties":{"name":"BanjarTengah","name_en":"BanjarTengah","admin_level":"7","osm_id":""},"geometry":{"type":"Polygon","coordinates":[[[114.624,-8.3574],[114.6243,-8.3605],[114.6137,-8.359],[114.6131,-8.3612],[114.6069,-8.3591],[114.6062,-8.3563],[114.6085,-8.354],[114.624,-8.3574]]]}},{"type":"Feature","properties":{"name":"Banyubiru","name_en":"Banyubiru","admin_level":"7","osm_id":""},"geometry":{"type":"Polygon","coordinates":[[[114.5391,-8.3291],[114.5405,-8.3304],[114.5429,-8.3296],[114.5464,-8.3326],[114.5479,-8.331],[114.575,-8.3474],[114.5797,-8.3485],[114.5799,-8.3455],[114.585,-8.3451],[114.5868,-8.347],[114.5989,-8.3486],[114.6013,-8.352],[114.5814,-8.3489],[114.5795,-8.3529],[114.5601,-8.3539],[114.5528,-8.3527],[114.5527,-8.3504],[114.5482,-8.3499],[114.5462,-8.3481],[114.5457,-8.349],[114.5433,-8.3458],[114.5282,-8.3384],[114.5236,-8.3345],[114.5316,-8.3325],[114.5325,-8.3343],[114.5354,-8.3338],[114.5343,-8.3317],[114.5366,-8.3318],[114.5391,-8.3291]]]}},{"type":"Feature","properties":{"name":"Berangbang","name_en":"Berangbang","admin_level":"7","osm_id":""},"geometry":{"type":"Polygon","coordinates":[[[114.5938,-8.3064],[114.5903,-8.2994],[114.5904,-8.2957],[114.5937,-8.2946],[114.5945,-8.2914],[114.6036,-8.2873],[114.6057,-8.2845],[114.6056,-8.2822],[114.6078,-8.2801],[114.6062,-8.2782],[114.6073,-8.2745],[114.6132,-8.2684],[114.6175,-8.2527],[114.6202,-8.2521],[114.6232,-8.2466],[114.6309,-8.2416],[114.6364,-8.2444],[114.6389,-8.2484],[114.6392,-8.2549],[114.6298,-8.2704],[114.6227,-8.2767],[114.6203,-8.2859],[114.6235,-8.2912],[114.6226,-8.2941],[114.6242,-8.3022],[114.6174,-8.3158],[114.6153,-8.3296],[114.6168,-8.3303],[114.6171,-8.3361],[114.6156,-8.3391],[114.6122,-8.3387],[114.6116,-8.3313],[114.6019,-8.3242],[114.6022,-8.3137],[114.6042,-8.3111],[114.6007,-8.3084],[114.5938,-8.3064]]]}},{"type":"Feature","properties":{"name":"Cupel","name_en":"Cupel","admin_level":"7","osm_id":""},"geometry":{"type":"Polygon","coordinates":[[[114.5455,-8.3512],[114.5521,-8.3538],[114.5513,-8.3559],[114.5551,-8.3581],[114.5639,-8.3602],[114.5628,-8.3625],[114.5658,-8.3642],[114.5776,-8.3666],[114.5758,-8.374],[114.5714,-8.3797],[114.5647,-8.3716],[114.5562,-8.3661],[114.5561,-8.3636],[114.5463,-8.3549],[114.5455,-8.3512]]]}},{"type":"Feature","properties":{"name":"Kaliakah","name_en":"Kaliakah","admin_level":"7","osm_id":""},"geometry":{"type":"Polygon","coordinates":[[[114.5556,-8.324],[114.5581,-8.3216],[114.5615,-8.3258],[114.5627,-8.3239],[114.5654,-8.3253],[114.5692,-8.3226],[114.5767,-8.3244],[114.5812,-8.323],[114.5884,-8.3188],[114.5895,-8.3138],[114.5921,-8.3119],[114.5938,-8.3064],[114.6007,-8.3084],[114.6042,-8.3111],[114.6022,-8.3137],[114.6019,-8.3242],[114.6116,-8.3313],[114.6122,-8.3387],[114.6144,-8.339],[114.6092,-8.3542],[114.6059,-8.3542],[114.6013,-8.352],[114.5995,-8.3489],[114.5935,-8.347],[114.5868,-8.347],[114.5859,-8.3453],[114.5831,-8.345],[114.5799,-8.3455],[114.5797,-8.3485],[114.5671,-8.3434],[114.5479,-8.3318],[114.5513,-8.3294],[114.5527,-8.331],[114.5548,-8.33],[114.5536,-8.3268],[114.5541,-8.3242],[114.5556,-8.324]]]}},{"type":"Feature","properties":{"name":"Lelateng","name_en":"Lelateng","admin_level":"7","osm_id":""},"geometry":{"type":"Polygon","coordinates":[[[114.6199,-8.3721],[114.6158,-8.376],[114.6178,-8.3765],[114.6166,-8.3796],[114.6203,-8.3795],[114.6194,-8.3813],[114.6214,-8.384],[114.6166,-8.3824],[114.6179,-8.3849],[114.6159,-8.3842],[114.6133,-8.3864],[114.6128,-8.3852],[114.6062,-8.3844],[114.6046,-8.3911],[114.5931,-8.3889],[114.5981,-8.3811],[114.5987,-8.3765],[114.6098,-8.3788],[114.611,-8.3746],[114.6082,-8.3666],[114.6087,-8.3599],[114.6131,-8.3612],[114.6137,-8.359],[114.6207,-8.3601],[114.6179,-8.3712],[114.6199,-8.3721]]]}},{"type":"Feature","properties":{"name":"LoloanBarat","name_en":"LoloanBarat","admin_level":"7","osm_id":""},"geometry":{"type":"Polygon","coordinates":[[[114.6243,-8.3605],[114.6229,-8.3681],[114.6199,-8.3721],[114.6179,-8.3713],[114.6207,-8.3601],[114.6243,-8.3605]]]}},{"type":"Feature","properties":{"name":"Pengambengan","name_en":"Pengambengan","admin_level":"7","osm_id":""},"geometry":{"type":"Polygon","coordinates":[[[114.624,-8.389],[114.6232,-8.3949],[114.6069,-8.4004],[114.6052,-8.3998],[114.5975,-8.4033],[114.5815,-8.3983],[114.5806,-8.394],[114.5737,-8.3858],[114.5805,-8.3833],[114.5817,-8.3861],[114.5936,-8.3866],[114.5931,-8.3889],[114.6032,-8.3912],[114.6046,-8.3911],[114.6062,-8.3844],[114.6128,-8.3852],[114.6133,-8.3864],[114.6159,-8.3842],[114.6178,-8.385],[114.6166,-8.3824],[114.6186,-8.3823],[114.6238,-8.3861],[114.6223,-8.3879],[114.624,-8.389]]]}},{"type":"Feature","properties":{"name":"TegalBadengBarat","name_en":"TegalBadengBarat","admin_level":"7","osm_id":""},"geometry":{"type":"Polygon","coordinates":[[[114.5775,-8.367],[114.5927,-8.3678],[114.5877,-8.3863],[114.5817,-8.3861],[114.5803,-8.3832],[114.5764,-8.3857],[114.5714,-8.3797],[114.5758,-8.374],[114.5775,-8.367]]]}},{"type":"Feature","properties":{"name":"TegalBadengTimur","name_en":"TegalBadengTimur","admin_level":"7","osm_id":""},"geometry":{"type":"Polygon","coordinates":[[[114.5926,-8.3677],[114.5932,-8.3654],[114.6085,-8.3653],[114.611,-8.3744],[114.6098,-8.3788],[114.5987,-8.3765],[114.5981,-8.3811],[114.5952,-8.3854],[114.5917,-8.3874],[114.5877,-8.3863],[114.5926,-8.3677]]]}}]}