{"type":"FeatureCollection","metadata":{"parent_osm_id":"4275823","parent_name":"Basidondo","parent_name_1":"SulawesiTengah","parent_gid":"IDN.27.11.2_1","parent_level":"6","child_level":"7","count":8,"source":"GADM 4.1","generated":"2026-05-08"},"features":[{"type":"Feature","properties":{"name":"Galandau","name_en":"Galandau","admin_level":"7","osm_id":""},"geometry":{"type":"Polygon","coordinates":[[[120.7119,0.8011],[120.7019,0.812],[120.7074,0.8228],[120.7178,0.8216],[120.7359,0.8239],[120.7398,0.8151],[120.7388,0.8118],[120.7338,0.8117],[120.7336,0.8094],[120.73,0.8086],[120.7295,0.8105],[120.7277,0.8076],[120.7274,0.809],[120.7254,0.8087],[120.7261,0.8056],[120.7246,0.807],[120.7228,0.8036],[120.7223,0.8051],[120.7216,0.8038],[120.7172,0.805],[120.7172,0.8033],[120.7139,0.8029],[120.7138,0.8005],[120.7119,0.8011]]]}},{"type":"Feature","properties":{"name":"Kayulompa","name_en":"Kayulompa","admin_level":"7","osm_id":""},"geometry":{"type":"Polygon","coordinates":[[[120.7756,0.6736],[120.7641,0.6699],[120.7543,0.662],[120.7444,0.6638],[120.7362,0.6608],[120.7064,0.6686],[120.7055,0.6618],[120.6949,0.6733],[120.6817,0.6781],[120.6758,0.6843],[120.6684,0.6983],[120.6664,0.7153],[120.6683,0.7253],[120.6593,0.7427],[120.6565,0.7539],[120.6578,0.7587],[120.6617,0.7624],[120.6807,0.7681],[120.6924,0.7658],[120.6975,0.7667],[120.7071,0.7594],[120.7163,0.7593],[120.7248,0.7622],[120.7403,0.733],[120.7496,0.7254],[120.7619,0.7048],[120.7756,0.6736]]]}},{"type":"Feature","properties":{"name":"Kinapasan","name_en":"Kinapasan","admin_level":"7","osm_id":""},"geometry":{"type":"Polygon","coordinates":[[[120.8813,0.7547],[120.8794,0.7499],[120.8423,0.6959],[120.8455,0.6992],[120.85,0.7006],[120.848,0.6968],[120.8385,0.6877],[120.8353,0.6906],[120.8294,0.6901],[120.823,0.698],[120.8219,0.7086],[120.8151,0.7132],[120.8139,0.719],[120.8178,0.7249],[120.8172,0.7434],[120.8248,0.7567],[120.8251,0.7703],[120.8109,0.7747],[120.8061,0.781],[120.7747,0.7887],[120.78,0.7924],[120.7823,0.7982],[120.7788,0.7987],[120.7745,0.8067],[120.7755,0.8094],[120.7644,0.8189],[120.7623,0.8256],[120.7776,0.8191],[120.7919,0.8159],[120.8046,0.8096],[120.8258,0.8034],[120.8356,0.792],[120.8464,0.7884],[120.8654,0.7651],[120.8813,0.7547]]]}},{"type":"Feature","properties":{"name":"Konkomos","name_en":"Konkomos","admin_level":"7","osm_id":""},"geometry":{"type":"Polygon","coordinates":[[[120.7021,0.8118],[120.7086,0.8056],[120.7096,0.8026],[120.724,0.7917],[120.7397,0.7682],[120.7163,0.7593],[120.7071,0.7594],[120.6975,0.7667],[120.6924,0.7658],[120.6807,0.7681],[120.6617,0.7624],[120.6556,0.7542],[120.6491,0.7581],[120.6435,0.7592],[120.6401,0.7695],[120.6322,0.7756],[120.6394,0.7826],[120.6567,0.7933],[120.6703,0.7964],[120.7021,0.8118]]]}},{"type":"Feature","properties":{"name":"Labonu","name_en":"Labonu","admin_level":"7","osm_id":""},"geometry":{"type":"Polygon","coordinates":[[[120.7055,0.6618],[120.6969,0.6614],[120.6852,0.6502],[120.6743,0.6451],[120.6659,0.6338],[120.6663,0.6279],[120.6613,0.6236],[120.6609,0.6156],[120.6565,0.6172],[120.6502,0.617],[120.644,0.6118],[120.6422,0.612],[120.6369,0.6058],[120.6378,0.598],[120.6296,0.593],[120.6263,0.5876],[120.6188,0.5871],[120.6153,0.5894],[120.6147,0.5984],[120.6112,0.6007],[120.6073,0.6011],[120.6012,0.5956],[120.5968,0.5956],[120.5914,0.6262],[120.585,0.6438],[120.5859,0.6507],[120.5838,0.6546],[120.5821,0.6548],[120.5787,0.664],[120.5794,0.6689],[120.5858,0.6709],[120.5961,0.6866],[120.6054,0.6953],[120.6133,0.6977],[120.6269,0.6972],[120.6302,0.7082],[120.6371,0.7159],[120.6432,0.7177],[120.6558,0.7178],[120.6669,0.7228],[120.6684,0.6983],[120.6758,0.6843],[120.6817,0.6781],[120.6949,0.6733],[120.7055,0.6618]]]}},{"type":"Feature","properties":{"name":"Ogosipat","name_en":"Ogosipat","admin_level":"7","osm_id":""},"geometry":{"type":"Polygon","coordinates":[[[120.7973,0.6761],[120.7967,0.6792],[120.7848,0.6786],[120.7759,0.6729],[120.7619,0.7048],[120.7496,0.7254],[120.7403,0.733],[120.7249,0.7621],[120.7386,0.7676],[120.7631,0.7835],[120.7745,0.7888],[120.7813,0.7861],[120.7854,0.787],[120.8061,0.781],[120.8109,0.7747],[120.8251,0.7703],[120.8248,0.7567],[120.8172,0.7434],[120.8178,0.7249],[120.8139,0.719],[120.8151,0.7132],[120.8219,0.7086],[120.823,0.698],[120.8301,0.6892],[120.8194,0.6842],[120.8188,0.6788],[120.8146,0.6759],[120.797,0.6793],[120.7973,0.6761]]]}},{"type":"Feature","properties":{"name":"Sibaluton","name_en":"Sibaluton","admin_level":"7","osm_id":""},"geometry":{"type":"Polygon","coordinates":[[[120.6576,0.758],[120.6565,0.7539],[120.6593,0.7427],[120.6683,0.7253],[120.6667,0.7225],[120.6558,0.7178],[120.6432,0.7177],[120.6371,0.7159],[120.6302,0.7082],[120.6269,0.6972],[120.6133,0.6977],[120.6054,0.6953],[120.5961,0.6866],[120.5858,0.6709],[120.5794,0.6689],[120.5783,0.6769],[120.5735,0.678],[120.5667,0.6965],[120.5641,0.7224],[120.5713,0.7427],[120.571,0.7535],[120.5744,0.7554],[120.5757,0.7502],[120.5772,0.7496],[120.5774,0.7509],[120.5865,0.7523],[120.5875,0.7505],[120.5929,0.7493],[120.5969,0.7534],[120.591,0.7581],[120.5923,0.7643],[120.5852,0.7648],[120.5837,0.7668],[120.5794,0.768],[120.582,0.7701],[120.5798,0.7709],[120.5789,0.7732],[120.5778,0.769],[120.5744,0.7682],[120.5761,0.7761],[120.5862,0.7868],[120.6119,0.7703],[120.6176,0.778],[120.6307,0.7768],[120.6401,0.7695],[120.6435,0.7592],[120.6491,0.7581],[120.6556,0.7542],[120.6576,0.758]]]}},{"type":"Feature","properties":{"name":"Silondou","name_en":"Silondou","admin_level":"7","osm_id":""},"geometry":{"type":"Polygon","coordinates":[[[120.7119,0.8011],[120.7138,0.8005],[120.7139,0.8029],[120.7172,0.8033],[120.7172,0.805],[120.7216,0.8038],[120.7223,0.8051],[120.7228,0.8036],[120.7246,0.807],[120.7251,0.8057],[120.7261,0.8056],[120.7254,0.8087],[120.7274,0.809],[120.7277,0.8076],[120.7295,0.8105],[120.73,0.8086],[120.7336,0.8094],[120.7338,0.8117],[120.7388,0.8118],[120.7398,0.8151],[120.7359,0.8239],[120.7551,0.8315],[120.7623,0.8256],[120.7645,0.8187],[120.7753,0.8097],[120.7745,0.8067],[120.7788,0.7987],[120.7823,0.7982],[120.78,0.7924],[120.7747,0.7887],[120.7631,0.7835],[120.7397,0.7682],[120.724,0.7917],[120.7119,0.8011]]]}}]}