{"type":"FeatureCollection","metadata":{"parent_osm_id":"5461561","parent_name":"Langkahan","parent_name_1":"Aceh","parent_gid":"IDN.1.11.8_1","parent_level":"6","child_level":"7","count":23,"source":"GADM 4.1","generated":"2026-05-07"},"features":[{"type":"Feature","properties":{"name":"AlueDua","name_en":"AlueDua","admin_level":"7","osm_id":""},"geometry":{"type":"Polygon","coordinates":[[[97.4785,5.0731],[97.48,5.0751],[97.4842,5.0758],[97.4882,5.0647],[97.4872,5.0605],[97.4817,5.0637],[97.4785,5.068],[97.4798,5.0715],[97.4785,5.0731]]]}},{"type":"Feature","properties":{"name":"AlueKrakKayee","name_en":"AlueKrakKayee","admin_level":"7","osm_id":""},"geometry":{"type":"Polygon","coordinates":[[[97.4935,5.0145],[97.4948,5.0023],[97.4816,5.0088],[97.4825,5.0155],[97.4935,5.0145]]]}},{"type":"Feature","properties":{"name":"Bantayan","name_en":"Bantayan","admin_level":"7","osm_id":""},"geometry":{"type":"Polygon","coordinates":[[[97.4885,5.0791],[97.4878,5.0815],[97.4906,5.0861],[97.4954,5.0862],[97.4974,5.0817],[97.4951,5.0777],[97.4932,5.0768],[97.4885,5.0791]]]}},{"type":"Feature","properties":{"name":"BuketLinteung","name_en":"BuketLinteung","admin_level":"7","osm_id":""},"geometry":{"type":"Polygon","coordinates":[[[97.4988,4.8984],[97.4987,4.8948],[97.4926,4.887],[97.4723,4.8796],[97.4518,4.8992],[97.4489,4.9041],[97.4532,4.9143],[97.4569,4.9175],[97.4615,4.9181],[97.4609,4.9196],[97.4631,4.9199],[97.4673,4.9134],[97.4706,4.9189],[97.4769,4.9211],[97.4793,4.92],[97.4794,4.9184],[97.4736,4.9181],[97.474,4.9133],[97.4781,4.9143],[97.4797,4.9112],[97.4877,4.9098],[97.4835,4.9051],[97.4837,4.9023],[97.4906,4.9066],[97.4919,4.9011],[97.4988,4.8984]]]}},{"type":"Feature","properties":{"name":"CotBada","name_en":"CotBada","admin_level":"7","osm_id":""},"geometry":{"type":"Polygon","coordinates":[[[97.4796,5.0871],[97.4842,5.0758],[97.48,5.0751],[97.4785,5.0731],[97.4755,5.0777],[97.4796,5.0871]]]}},{"type":"Feature","properties":{"name":"Geudumbak","name_en":"Geudumbak","admin_level":"7","osm_id":""},"geometry":{"type":"Polygon","coordinates":[[[97.4871,4.9629],[97.4854,4.9597],[97.4901,4.9599],[97.4954,4.9572],[97.5028,4.9609],[97.5049,4.9595],[97.5044,4.9579],[97.4989,4.9551],[97.4971,4.9476],[97.492,4.9474],[97.4874,4.9415],[97.4839,4.9451],[97.4775,4.941],[97.4759,4.9471],[97.4656,4.9625],[97.4738,4.9679],[97.4871,4.9629]]]}},{"type":"Feature","properties":{"name":"KampungBlang","name_en":"KampungBlang","admin_level":"7","osm_id":""},"geometry":{"type":"Polygon","coordinates":[[[97.4838,5.079],[97.4864,5.0779],[97.4887,5.0791],[97.4932,5.0768],[97.4912,5.075],[97.4917,5.0716],[97.4867,5.0679],[97.4838,5.079]]]}},{"type":"Feature","properties":{"name":"KruengLingka","name_en":"KruengLingka","admin_level":"7","osm_id":""},"geometry":{"type":"Polygon","coordinates":[[[97.5148,5.0569],[97.5132,5.0592],[97.5145,5.0646],[97.5066,5.0667],[97.5058,5.0747],[97.5076,5.0753],[97.5096,5.0731],[97.5088,5.068],[97.5122,5.0702],[97.5148,5.0693],[97.5148,5.0569]]]}},{"type":"Feature","properties":{"name":"Langkahan","name_en":"Langkahan","admin_level":"7","osm_id":""},"geometry":{"type":"Polygon","coordinates":[[[97.4754,4.9478],[97.4719,4.9475],[97.4735,4.9416],[97.4703,4.9342],[97.4585,4.9481],[97.4656,4.9624],[97.4754,4.9478]]]}},{"type":"Feature","properties":{"name":"LeubokMane","name_en":"LeubokMane","admin_level":"7","osm_id":""},"geometry":{"type":"Polygon","coordinates":[[[97.4948,5.0416],[97.4942,5.034],[97.5017,5.0332],[97.5014,5.026],[97.4842,5.027],[97.4858,5.0416],[97.4948,5.0416]]]}},{"type":"Feature","properties":{"name":"LubokPusaka","name_en":"LubokPusaka","admin_level":"7","osm_id":""},"geometry":{"type":"Polygon","coordinates":[[[97.4926,4.887],[97.496,4.8868],[97.5021,4.8925],[97.5067,4.8902],[97.5065,4.8875],[97.5017,4.8879],[97.4999,4.8843],[97.4954,4.8812],[97.4974,4.8747],[97.5033,4.8794],[97.5064,4.8852],[97.5098,4.8849],[97.5117,4.8823],[97.5079,4.8803],[97.5052,4.8759],[97.5021,4.8755],[97.5005,4.8704],[97.4976,4.8708],[97.4946,4.8671],[97.4886,4.8668],[97.4886,4.8529],[97.4854,4.8472],[97.4769,4.8387],[97.4747,4.8396],[97.4735,4.8441],[97.4718,4.8383],[97.4686,4.8372],[97.4676,4.8384],[97.47,4.8403],[97.4697,4.8428],[97.4672,4.8428],[97.4636,4.8397],[97.4618,4.8412],[97.4618,4.8448],[97.4591,4.8461],[97.4523,4.8355],[97.4425,4.8318],[97.4414,4.8289],[97.4502,4.8277],[97.4564,4.8229],[97.4566,4.8208],[97.4531,4.8187],[97.4368,4.8217],[97.4354,4.82],[97.4378,4.8119],[97.4353,4.8083],[97.4294,4.8078],[97.4284,4.8058],[97.4331,4.7975],[97.436,4.7954],[97.4365,4.7886],[97.4332,4.7859],[97.4255,4.7854],[97.4205,4.782],[97.4115,4.78],[97.4074,4.7828],[97.4074,4.7846],[97.4104,4.7872],[97.4184,4.7874],[97.4188,4.7898],[97.4123,4.796],[97.4061,4.7946],[97.4035,4.7895],[97.3999,4.7668],[97.4032,4.7633],[97.4093,4.7625],[97.4147,4.7685],[97.4171,4.7686],[97.4224,4.7647],[97.4244,4.7549],[97.4151,4.7595],[97.4111,4.7594],[97.4071,4.7559],[97.404,4.7554],[97.3992,4.7596],[97.388,4.7601],[97.3879,4.7674],[97.3862,4.7689],[97.3691,4.7689],[97.3654,4.7667],[97.3613,4.7671],[97.3608,4.7691],[97.366,4.7783],[97.3656,4.7818],[97.3635,4.7834],[97.3706,4.8743],[97.384,4.8736],[97.393,4.8764],[97.4074,4.8515],[97.4222,4.8529],[97.4243,4.8515],[97.4723,4.8796],[97.4926,4.887]]]}},{"type":"Feature","properties":{"name":"MatangKeutapang","name_en":"MatangKeutapang","admin_level":"7","osm_id":""},"geometry":{"type":"Polygon","coordinates":[[[97.4872,5.0605],[97.4882,5.0647],[97.4977,5.0633],[97.4947,5.0561],[97.4864,5.0578],[97.4872,5.0605]]]}},{"type":"Feature","properties":{"name":"MatangRubek","name_en":"MatangRubek","admin_level":"7","osm_id":""},"geometry":{"type":"Polygon","coordinates":[[[97.4995,5.0421],[97.4992,5.04],[97.5012,5.0377],[97.5048,5.0398],[97.5063,5.0442],[97.509,5.0434],[97.5143,5.0298],[97.5071,5.0291],[97.5062,5.0256],[97.5014,5.026],[97.5017,5.0332],[97.4942,5.034],[97.4948,5.0416],[97.4995,5.0421]]]}},{"type":"Feature","properties":{"name":"MatangTeungohS","name_en":"MatangTeungohS","admin_level":"7","osm_id":""},"geometry":{"type":"Polygon","coordinates":[[[97.5011,5.0164],[97.4955,5.0164],[97.4935,5.0145],[97.4913,5.0155],[97.4946,5.0211],[97.4947,5.0264],[97.5062,5.0256],[97.5061,5.0212],[97.5011,5.0164]]]}},{"type":"Feature","properties":{"name":"MeunasahBlang","name_en":"MeunasahBlang","admin_level":"7","osm_id":""},"geometry":{"type":"Polygon","coordinates":[[[97.4993,4.9916],[97.4939,4.992],[97.4919,4.9949],[97.4789,4.9964],[97.4816,5.0088],[97.4907,5.0048],[97.4919,5.0027],[97.4961,5.002],[97.4993,4.9916]]]}},{"type":"Feature","properties":{"name":"PadangMeuria","name_en":"PadangMeuria","admin_level":"7","osm_id":""},"geometry":{"type":"Polygon","coordinates":[[[97.4913,5.0155],[97.4825,5.0155],[97.4842,5.027],[97.4947,5.0264],[97.4946,5.0211],[97.4913,5.0155]]]}},{"type":"Feature","properties":{"name":"PanteGakiBale","name_en":"PanteGakiBale","admin_level":"7","osm_id":""},"geometry":{"type":"Polygon","coordinates":[[[97.5094,5.0649],[97.5067,5.0603],[97.5116,5.0565],[97.5139,5.0523],[97.5119,5.0502],[97.5056,5.0549],[97.5019,5.0531],[97.4947,5.0561],[97.4977,5.0633],[97.5036,5.0655],[97.5048,5.0681],[97.5094,5.0649]]]}},{"type":"Feature","properties":{"name":"PayaTukai","name_en":"PayaTukai","admin_level":"7","osm_id":""},"geometry":{"type":"Polygon","coordinates":[[[97.4917,5.0716],[97.4963,5.0734],[97.4999,5.0785],[97.5016,5.0773],[97.4981,5.069],[97.5059,5.0686],[97.5036,5.0655],[97.4977,5.0633],[97.4882,5.0647],[97.4867,5.0679],[97.4917,5.0716]]]}},{"type":"Feature","properties":{"name":"RumohRayeuk","name_en":"RumohRayeuk","admin_level":"7","osm_id":""},"geometry":{"type":"Polygon","coordinates":[[[97.4703,4.9342],[97.4676,4.9297],[97.4717,4.9267],[97.4734,4.9234],[97.4657,4.917],[97.4619,4.9201],[97.4615,4.9181],[97.4549,4.9162],[97.4491,4.9039],[97.429,4.9095],[97.4341,4.9137],[97.4407,4.9314],[97.452,4.9354],[97.4514,4.9412],[97.4585,4.9481],[97.4703,4.9342]]]}},{"type":"Feature","properties":{"name":"Seureuke","name_en":"Seureuke","admin_level":"7","osm_id":""},"geometry":{"type":"Polygon","coordinates":[[[97.393,4.8764],[97.3995,4.8786],[97.4031,4.8852],[97.4129,4.8901],[97.4133,4.8963],[97.429,4.9095],[97.4491,4.9039],[97.4518,4.8992],[97.4723,4.8796],[97.4243,4.8515],[97.4222,4.8529],[97.4074,4.8515],[97.393,4.8764]]]}},{"type":"Feature","properties":{"name":"SimpangTiga","name_en":"SimpangTiga","admin_level":"7","osm_id":""},"geometry":{"type":"Polygon","coordinates":[[[97.5019,5.0531],[97.4978,5.0497],[97.5037,5.0487],[97.5053,5.0457],[97.4989,5.0419],[97.4858,5.0416],[97.4878,5.0517],[97.4853,5.0527],[97.4864,5.0578],[97.5019,5.0531]]]}},{"type":"Feature","properties":{"name":"TanjongDalamSelatan","name_en":"TanjongDalamSelatan","admin_level":"7","osm_id":""},"geometry":{"type":"Polygon","coordinates":[[[97.5018,4.9677],[97.4993,4.9643],[97.4972,4.9647],[97.4953,4.9679],[97.4913,4.963],[97.4871,4.9629],[97.4738,4.9679],[97.4761,4.9775],[97.4738,4.9847],[97.4789,4.9964],[97.4919,4.9949],[97.4939,4.992],[97.4981,4.9913],[97.4966,4.9889],[97.4978,4.983],[97.4922,4.9807],[97.4911,4.9778],[97.4932,4.9759],[97.497,4.9776],[97.4993,4.9767],[97.4994,4.9703],[97.5018,4.9677]]]}},{"type":"Feature","properties":{"name":"TanjongJawa","name_en":"TanjongJawa","admin_level":"7","osm_id":""},"geometry":{"type":"Polygon","coordinates":[[[97.4947,5.011],[97.5011,5.0128],[97.5049,5.0104],[97.5054,5.0056],[97.502,5.0025],[97.5024,5.0002],[97.5074,4.9982],[97.5081,4.9965],[97.5017,4.9914],[97.4984,4.9924],[97.4973,5.0],[97.4948,5.0023],[97.4947,5.011]]]}}]}