{"type":"FeatureCollection","metadata":{"parent_osm_id":"5474507","parent_name":"Peulimbang","parent_name_1":"Aceh","parent_gid":"IDN.1.14.12_1","parent_level":"6","child_level":"7","count":23,"source":"GADM 4.1","generated":"2026-05-07"},"features":[{"type":"Feature","properties":{"name":"BaleeDaka","name_en":"BaleeDaka","admin_level":"7","osm_id":""},"geometry":{"type":"Polygon","coordinates":[[[96.525,5.1438],[96.5251,5.1466],[96.5288,5.149],[96.5276,5.1512],[96.5265,5.1486],[96.526,5.1525],[96.5309,5.1567],[96.5372,5.1559],[96.5353,5.1467],[96.5474,5.1415],[96.5461,5.1397],[96.525,5.1438]]]}},{"type":"Feature","properties":{"name":"CotGeulumpang","name_en":"CotGeulumpang","admin_level":"7","osm_id":""},"geometry":{"type":"Polygon","coordinates":[[[96.5514,5.1785],[96.5397,5.1768],[96.5399,5.1884],[96.544,5.1912],[96.5455,5.1884],[96.5478,5.1887],[96.5511,5.1847],[96.5514,5.1785]]]}},{"type":"Feature","properties":{"name":"Garab","name_en":"Garab","admin_level":"7","osm_id":""},"geometry":{"type":"Polygon","coordinates":[[[96.5189,5.1272],[96.5182,5.1309],[96.5161,5.1305],[96.5164,5.1334],[96.518,5.1353],[96.5195,5.1349],[96.525,5.1438],[96.5467,5.1397],[96.5439,5.1338],[96.535,5.1226],[96.5197,5.1231],[96.5189,5.1272]]]}},{"type":"Feature","properties":{"name":"Hutan","name_en":"Hutan","admin_level":"7","osm_id":""},"geometry":{"type":"Polygon","coordinates":[[[96.4886,4.892],[96.4756,4.8921],[96.4668,4.8948],[96.4616,4.9139],[96.4502,4.9245],[96.4658,4.9614],[96.4824,5.0082],[96.4832,5.0338],[96.4874,5.0466],[96.4977,5.0627],[96.4985,5.0678],[96.5047,5.0707],[96.5055,5.0805],[96.507,5.0816],[96.5108,5.0805],[96.5131,5.0887],[96.5119,5.0928],[96.5137,5.0952],[96.5124,5.0981],[96.5107,5.0981],[96.5139,5.103],[96.5129,5.1057],[96.5187,5.1105],[96.5221,5.1188],[96.5222,5.12],[96.5188,5.1207],[96.5175,5.1228],[96.5348,5.1225],[96.5358,5.099],[96.5313,5.0926],[96.5326,5.0904],[96.527,5.0866],[96.5282,5.085],[96.5271,5.0796],[96.5305,5.0775],[96.5295,5.0762],[96.5248,5.076],[96.5247,5.0733],[96.5189,5.0671],[96.5177,5.0549],[96.5154,5.0483],[96.5166,5.0289],[96.5101,5.0128],[96.5015,5.0008],[96.4999,4.9747],[96.4915,4.9301],[96.4886,4.892]]]}},{"type":"Feature","properties":{"name":"JamboDalam","name_en":"JamboDalam","admin_level":"7","osm_id":""},"geometry":{"type":"Polygon","coordinates":[[[96.562,5.1786],[96.5603,5.1723],[96.5616,5.1646],[96.544,5.1652],[96.5443,5.1773],[96.562,5.1786]]]}},{"type":"Feature","properties":{"name":"KeudePlimbang","name_en":"KeudePlimbang","admin_level":"7","osm_id":""},"geometry":{"type":"Polygon","coordinates":[[[96.5324,5.1869],[96.5325,5.186],[96.5309,5.1862],[96.531,5.187],[96.5324,5.1869]]]}},{"type":"Feature","properties":{"name":"KruengBaro","name_en":"KruengBaro","admin_level":"7","osm_id":""},"geometry":{"type":"Polygon","coordinates":[[[96.5193,5.1854],[96.5179,5.1865],[96.5184,5.19],[96.5227,5.1888],[96.5276,5.1909],[96.5273,5.1872],[96.5193,5.1854]]]}},{"type":"Feature","properties":{"name":"KutaTrieng","name_en":"KutaTrieng","admin_level":"7","osm_id":""},"geometry":{"type":"Polygon","coordinates":[[[96.5426,5.2004],[96.5485,5.2015],[96.5481,5.1978],[96.5426,5.1955],[96.5426,5.2004]]]}},{"type":"Feature","properties":{"name":"LancokBungo","name_en":"LancokBungo","admin_level":"7","osm_id":""},"geometry":{"type":"Polygon","coordinates":[[[96.5596,5.1589],[96.5597,5.1559],[96.5568,5.1515],[96.5369,5.1583],[96.5382,5.1637],[96.5438,5.1624],[96.5439,5.1605],[96.5596,5.1589]]]}},{"type":"Feature","properties":{"name":"MatangKule","name_en":"MatangKule","admin_level":"7","osm_id":""},"geometry":{"type":"Polygon","coordinates":[[[96.5568,5.1515],[96.5529,5.1491],[96.5474,5.1415],[96.5353,5.1467],[96.5369,5.1583],[96.5568,5.1515]]]}},{"type":"Feature","properties":{"name":"PadangKasab","name_en":"PadangKasab","admin_level":"7","osm_id":""},"geometry":{"type":"Polygon","coordinates":[[[96.5602,5.1904],[96.559,5.1849],[96.5575,5.1853],[96.5564,5.1866],[96.5577,5.1906],[96.5537,5.191],[96.5543,5.1927],[96.5504,5.1925],[96.5499,5.1953],[96.5443,5.1918],[96.5439,5.1954],[96.5478,5.1974],[96.5485,5.2015],[96.5588,5.2035],[96.5602,5.1904]]]}},{"type":"Feature","properties":{"name":"PalohPupu","name_en":"PalohPupu","admin_level":"7","osm_id":""},"geometry":{"type":"Polygon","coordinates":[[[96.5616,5.1646],[96.5596,5.1589],[96.5438,5.161],[96.544,5.1652],[96.5616,5.1646]]]}},{"type":"Feature","properties":{"name":"Puuek","name_en":"Puuek","admin_level":"7","osm_id":""},"geometry":{"type":"Polygon","coordinates":[[[96.559,5.1849],[96.562,5.1786],[96.5514,5.1785],[96.5508,5.1853],[96.5474,5.1889],[96.5455,5.1884],[96.544,5.1912],[96.5499,5.1953],[96.5504,5.1925],[96.5543,5.1927],[96.5537,5.191],[96.5577,5.1906],[96.5565,5.186],[96.559,5.1849]]]}},{"type":"Feature","properties":{"name":"RambongPayong","name_en":"RambongPayong","admin_level":"7","osm_id":""},"geometry":{"type":"Polygon","coordinates":[[[96.5309,5.1862],[96.5351,5.1872],[96.538,5.1779],[96.5268,5.1783],[96.5283,5.1793],[96.529,5.1862],[96.5309,5.1862]]]}},{"type":"Feature","properties":{"name":"SeuneubokAceh","name_en":"SeuneubokAceh","admin_level":"7","osm_id":""},"geometry":{"type":"Polygon","coordinates":[[[96.5251,5.1738],[96.5241,5.1785],[96.538,5.1779],[96.5386,5.1762],[96.5382,5.1729],[96.5251,5.1738]]]}},{"type":"Feature","properties":{"name":"SeuneubokNalan","name_en":"SeuneubokNalan","admin_level":"7","osm_id":""},"geometry":{"type":"Polygon","coordinates":[[[96.5203,5.1799],[96.5193,5.1854],[96.5273,5.1872],[96.529,5.1862],[96.5277,5.1788],[96.5228,5.1782],[96.5203,5.1799]]]}},{"type":"Feature","properties":{"name":"SeuneubokPlimbang","name_en":"SeuneubokPlimbang","admin_level":"7","osm_id":""},"geometry":{"type":"Polygon","coordinates":[[[96.5251,5.1908],[96.5272,5.1929],[96.5241,5.1945],[96.5277,5.1991],[96.5306,5.199],[96.5313,5.1964],[96.53,5.1951],[96.5329,5.1925],[96.5329,5.187],[96.5272,5.1861],[96.5276,5.1909],[96.5251,5.1908]]]}},{"type":"Feature","properties":{"name":"SeuneubokPunti","name_en":"SeuneubokPunti","admin_level":"7","osm_id":""},"geometry":{"type":"Polygon","coordinates":[[[96.5262,5.1668],[96.5263,5.1697],[96.5376,5.1695],[96.5371,5.1663],[96.5262,5.1668]]]}},{"type":"Feature","properties":{"name":"SeuneubokSeumawe","name_en":"SeuneubokSeumawe","admin_level":"7","osm_id":""},"geometry":{"type":"Polygon","coordinates":[[[96.544,5.1912],[96.5423,5.1924],[96.5349,5.1901],[96.5361,5.1931],[96.5307,5.1932],[96.5306,5.199],[96.5426,5.2004],[96.544,5.1912]]]}},{"type":"Feature","properties":{"name":"SeuneubokTeungoh","name_en":"SeuneubokTeungoh","admin_level":"7","osm_id":""},"geometry":{"type":"Polygon","coordinates":[[[96.5436,5.1909],[96.5399,5.1884],[96.5398,5.178],[96.5384,5.1767],[96.5351,5.1872],[96.5329,5.187],[96.5329,5.1925],[96.5308,5.1932],[96.5361,5.1931],[96.5349,5.1901],[96.5423,5.1924],[96.5436,5.1909]]]}},{"type":"Feature","properties":{"name":"TeupinPanah","name_en":"TeupinPanah","admin_level":"7","osm_id":""},"geometry":{"type":"Polygon","coordinates":[[[96.5309,5.1567],[96.5311,5.1592],[96.5324,5.1595],[96.5294,5.1621],[96.5301,5.1629],[96.5283,5.1629],[96.529,5.1648],[96.5257,5.1653],[96.5262,5.1668],[96.5371,5.1663],[96.5382,5.1637],[96.5368,5.1559],[96.5309,5.1567]]]}},{"type":"Feature","properties":{"name":"UteunRungkom","name_en":"UteunRungkom","admin_level":"7","osm_id":""},"geometry":{"type":"Polygon","coordinates":[[[96.5397,5.1768],[96.5443,5.1773],[96.5438,5.1624],[96.5389,5.1631],[96.5371,5.165],[96.5384,5.1767],[96.5397,5.1768]]]}},{"type":"Feature","properties":{"name":"UteunSikumbong","name_en":"UteunSikumbong","admin_level":"7","osm_id":""},"geometry":{"type":"Polygon","coordinates":[[[96.5263,5.1697],[96.524,5.1719],[96.5251,5.1738],[96.5382,5.1729],[96.5376,5.1695],[96.5263,5.1697]]]}}]}