{"type":"FeatureCollection","metadata":{"parent_osm_id":"5615330","parent_name":"Piyungan","parent_name_1":"Yogyakarta","parent_gid":"IDN.33.1.11_1","parent_level":"6","child_level":"7","count":3,"source":"GADM 4.1","generated":"2026-05-08"},"features":[{"type":"Feature","properties":{"name":"Sitimulyo","name_en":"Sitimulyo","admin_level":"7","osm_id":""},"geometry":{"type":"Polygon","coordinates":[[[110.4206,-7.8641],[110.4213,-7.8612],[110.4299,-7.852],[110.4275,-7.8476],[110.4295,-7.8433],[110.427,-7.8435],[110.4255,-7.8414],[110.4287,-7.8395],[110.4289,-7.8357],[110.4299,-7.8375],[110.435,-7.8367],[110.4342,-7.8331],[110.4362,-7.8319],[110.437,-7.8282],[110.4409,-7.8274],[110.4447,-7.8286],[110.4438,-7.8239],[110.4526,-7.8246],[110.4513,-7.8383],[110.4482,-7.8417],[110.4453,-7.8417],[110.4423,-7.8468],[110.4477,-7.8483],[110.4511,-7.8514],[110.4484,-7.86],[110.4454,-7.8612],[110.443,-7.8648],[110.4343,-7.867],[110.4296,-7.8714],[110.4256,-7.8639],[110.4206,-7.8641]]]}},{"type":"Feature","properties":{"name":"Srimartani","name_en":"Srimartani","admin_level":"7","osm_id":""},"geometry":{"type":"Polygon","coordinates":[[[110.4834,-7.8407],[110.4781,-7.8379],[110.4782,-7.8405],[110.4761,-7.8406],[110.4767,-7.8366],[110.4724,-7.8355],[110.4727,-7.8342],[110.4693,-7.8308],[110.4698,-7.8278],[110.4683,-7.8275],[110.4706,-7.8228],[110.476,-7.8237],[110.4767,-7.8255],[110.477,-7.824],[110.4794,-7.8249],[110.4813,-7.8175],[110.4855,-7.8185],[110.4845,-7.8212],[110.4923,-7.8228],[110.5017,-7.8223],[110.5052,-7.8235],[110.5074,-7.8217],[110.5095,-7.8221],[110.5112,-7.8288],[110.5146,-7.8281],[110.5151,-7.8303],[110.5213,-7.8322],[110.5197,-7.836],[110.5163,-7.8376],[110.4979,-7.8379],[110.4945,-7.8394],[110.489,-7.8375],[110.4876,-7.8399],[110.4834,-7.8407]]]}},{"type":"Feature","properties":{"name":"Srimulyo","name_en":"Srimulyo","admin_level":"7","osm_id":""},"geometry":{"type":"Polygon","coordinates":[[[110.4675,-7.8667],[110.4665,-7.8692],[110.4654,-7.8676],[110.4642,-7.8692],[110.4614,-7.8676],[110.4606,-7.8695],[110.4547,-7.8727],[110.4488,-7.8704],[110.4446,-7.872],[110.4403,-7.8665],[110.4484,-7.86],[110.4511,-7.8526],[110.4477,-7.8483],[110.4423,-7.8468],[110.4453,-7.8417],[110.4482,-7.8417],[110.4513,-7.8383],[110.4537,-7.8206],[110.456,-7.8214],[110.4602,-7.8197],[110.4613,-7.8226],[110.4619,-7.8211],[110.4654,-7.822],[110.4663,-7.8277],[110.4698,-7.8278],[110.4693,-7.8308],[110.4727,-7.8342],[110.4724,-7.8355],[110.4767,-7.8366],[110.4761,-7.8406],[110.4782,-7.8405],[110.4781,-7.8379],[110.4834,-7.8407],[110.4738,-7.8544],[110.4728,-7.8611],[110.4705,-7.8618],[110.4675,-7.8667]]]}}]}