{"type":"FeatureCollection","metadata":{"parent_osm_id":"5615322","parent_name":"Paliyan","parent_name_1":"Yogyakarta","parent_gid":"IDN.33.2.6_1","parent_level":"6","child_level":"7","count":7,"source":"GADM 4.1","generated":"2026-05-08"},"features":[{"type":"Feature","properties":{"name":"Giring","name_en":"Giring","admin_level":"7","osm_id":""},"geometry":{"type":"Polygon","coordinates":[[[110.5486,-8.0283],[110.5509,-8.0225],[110.5493,-8.0217],[110.5491,-8.0171],[110.5535,-8.0176],[110.5545,-8.0124],[110.5646,-8.0133],[110.5659,-8.0169],[110.5699,-8.0178],[110.5717,-8.0203],[110.5705,-8.0219],[110.5725,-8.022],[110.5726,-8.0242],[110.5699,-8.0233],[110.5682,-8.032],[110.5646,-8.0332],[110.5616,-8.0415],[110.563,-8.0508],[110.5593,-8.0569],[110.5587,-8.0624],[110.5612,-8.0726],[110.559,-8.0778],[110.5567,-8.0782],[110.5573,-8.0844],[110.555,-8.0863],[110.5525,-8.0854],[110.5476,-8.0796],[110.547,-8.0625],[110.5494,-8.0588],[110.5517,-8.047],[110.5517,-8.0418],[110.5497,-8.0413],[110.5523,-8.0375],[110.5486,-8.0283]]]}},{"type":"Feature","properties":{"name":"Grogol","name_en":"Grogol","admin_level":"7","osm_id":""},"geometry":{"type":"Polygon","coordinates":[[[110.5375,-7.9989],[110.5348,-7.9993],[110.5344,-7.9951],[110.5318,-7.9919],[110.524,-7.9914],[110.5197,-7.9931],[110.5155,-7.9917],[110.5128,-7.9819],[110.5153,-7.9807],[110.516,-7.9775],[110.5219,-7.983],[110.5239,-7.9832],[110.5268,-7.9811],[110.5246,-7.9794],[110.5255,-7.9765],[110.5331,-7.9744],[110.5368,-7.9766],[110.5402,-7.9738],[110.5438,-7.9752],[110.5461,-7.9813],[110.5418,-7.986],[110.5384,-7.987],[110.5399,-7.9921],[110.5366,-7.9945],[110.538,-7.9959],[110.5375,-7.9989]]]}},{"type":"Feature","properties":{"name":"KarangAsem","name_en":"KarangAsem","admin_level":"7","osm_id":""},"geometry":{"type":"Polygon","coordinates":[[[110.5145,-7.9901],[110.5197,-7.9931],[110.524,-7.9914],[110.5318,-7.9919],[110.5358,-7.9998],[110.5402,-7.9967],[110.5488,-7.9961],[110.5477,-7.9997],[110.5425,-8.0023],[110.5383,-8.0026],[110.5375,-8.0117],[110.5347,-8.0186],[110.5355,-8.0253],[110.5334,-8.0282],[110.5342,-8.0307],[110.528,-8.0371],[110.5278,-8.053],[110.5231,-8.0548],[110.5174,-8.0502],[110.5165,-8.0387],[110.514,-8.0363],[110.5145,-8.0273],[110.5131,-8.0234],[110.5178,-8.009],[110.517,-8.002],[110.5148,-7.9991],[110.5145,-7.9901]]]}},{"type":"Feature","properties":{"name":"KarangDuwet","name_en":"KarangDuwet","admin_level":"7","osm_id":""},"geometry":{"type":"Polygon","coordinates":[[[110.516,-7.9775],[110.5153,-7.9807],[110.5128,-7.9819],[110.5148,-7.9991],[110.517,-8.002],[110.5178,-8.009],[110.5131,-8.0234],[110.5144,-8.0328],[110.507,-8.0347],[110.5077,-8.0293],[110.5055,-8.02],[110.502,-8.0206],[110.5023,-8.0235],[110.4976,-8.0188],[110.4857,-8.0139],[110.4769,-8.0033],[110.4743,-8.0042],[110.4723,-7.998],[110.474,-7.9948],[110.4761,-7.9953],[110.4766,-7.9977],[110.4786,-7.9966],[110.4865,-7.9978],[110.4886,-7.9904],[110.4885,-7.9809],[110.5006,-7.9816],[110.5036,-7.9798],[110.516,-7.9775]]]}},{"type":"Feature","properties":{"name":"Mulusan","name_en":"Mulusan","admin_level":"7","osm_id":""},"geometry":{"type":"Polygon","coordinates":[[[110.5545,-8.0124],[110.5535,-8.0176],[110.5491,-8.0171],[110.5493,-8.0217],[110.5509,-8.0225],[110.5494,-8.0239],[110.5505,-8.0263],[110.5455,-8.032],[110.5395,-8.0343],[110.5345,-8.0311],[110.5334,-8.0282],[110.5355,-8.0253],[110.5347,-8.0186],[110.5375,-8.0117],[110.5383,-8.0026],[110.5425,-8.0023],[110.5477,-7.9997],[110.5488,-7.9961],[110.5499,-8.0031],[110.5533,-8.0041],[110.5539,-8.0024],[110.556,-8.0043],[110.5545,-8.0124]]]}},{"type":"Feature","properties":{"name":"Pampang","name_en":"Pampang","admin_level":"7","osm_id":""},"geometry":{"type":"Polygon","coordinates":[[[110.5375,-7.9989],[110.538,-7.9959],[110.5366,-7.9945],[110.5399,-7.9921],[110.5387,-7.9865],[110.5418,-7.986],[110.5508,-7.9782],[110.5603,-7.9799],[110.5577,-7.9856],[110.5554,-7.9868],[110.5558,-7.9883],[110.561,-7.9884],[110.5602,-7.996],[110.5577,-7.9953],[110.5569,-7.9971],[110.5588,-8.0003],[110.5535,-7.9986],[110.5533,-8.0005],[110.5504,-8.0003],[110.5485,-7.9958],[110.5402,-7.9967],[110.5375,-7.9989]]]}},{"type":"Feature","properties":{"name":"Sodo","name_en":"Sodo","admin_level":"7","osm_id":""},"geometry":{"type":"Polygon","coordinates":[[[110.5646,-8.0133],[110.5545,-8.0124],[110.556,-8.0043],[110.5539,-8.0024],[110.5533,-8.0041],[110.5501,-8.0033],[110.5498,-8.0],[110.5533,-8.0005],[110.5535,-7.9986],[110.556,-7.9987],[110.5669,-8.0046],[110.5656,-8.0096],[110.5665,-8.012],[110.5646,-8.0133]]]}}]}