{"type":"FeatureCollection","metadata":{"parent_osm_id":"5615320","parent_name":"Kokap","parent_name_1":"Yogyakarta","parent_gid":"IDN.33.4.4_1","parent_level":"6","child_level":"7","count":5,"source":"GADM 4.1","generated":"2026-05-08"},"features":[{"type":"Feature","properties":{"name":"Hargomulyo","name_en":"Hargomulyo","admin_level":"7","osm_id":""},"geometry":{"type":"Polygon","coordinates":[[[110.0442,-7.8715],[110.045,-7.8696],[110.0424,-7.8662],[110.0424,-7.8633],[110.0448,-7.8613],[110.0435,-7.8598],[110.0506,-7.8518],[110.0503,-7.8459],[110.056,-7.842],[110.0594,-7.8413],[110.0586,-7.8438],[110.0605,-7.8486],[110.0712,-7.848],[110.0807,-7.8425],[110.0906,-7.8458],[110.0942,-7.8507],[110.093,-7.8604],[110.0888,-7.8643],[110.0876,-7.8676],[110.0891,-7.8712],[110.0879,-7.8735],[110.0822,-7.8685],[110.08,-7.87],[110.076,-7.8689],[110.0677,-7.8729],[110.0624,-7.8702],[110.0512,-7.8693],[110.0496,-7.8712],[110.0442,-7.8715]]]}},{"type":"Feature","properties":{"name":"Hargorejo","name_en":"Hargorejo","admin_level":"7","osm_id":""},"geometry":{"type":"Polygon","coordinates":[[[110.093,-7.8604],[110.0942,-7.8507],[110.0925,-7.8472],[110.0807,-7.8425],[110.0847,-7.837],[110.0844,-7.8325],[110.0922,-7.8307],[110.0953,-7.8316],[110.0955,-7.828],[110.098,-7.8271],[110.1052,-7.8302],[110.1118,-7.8308],[110.1123,-7.8352],[110.1148,-7.8356],[110.114,-7.8391],[110.1154,-7.8406],[110.13,-7.8396],[110.1247,-7.8474],[110.128,-7.8528],[110.1258,-7.8651],[110.1233,-7.8707],[110.1279,-7.8694],[110.1296,-7.8728],[110.1264,-7.8738],[110.1261,-7.8769],[110.1174,-7.8781],[110.1113,-7.8812],[110.112,-7.8782],[110.1098,-7.8725],[110.1106,-7.8672],[110.0973,-7.8639],[110.094,-7.8625],[110.093,-7.8604]]]}},{"type":"Feature","properties":{"name":"Hargotirto","name_en":"Hargotirto","admin_level":"7","osm_id":""},"geometry":{"type":"Polygon","coordinates":[[[110.0808,-7.8066],[110.082,-7.8017],[110.0869,-7.7979],[110.0921,-7.7861],[110.1016,-7.7789],[110.1106,-7.778],[110.1231,-7.7888],[110.1215,-7.7968],[110.1223,-7.8002],[110.1151,-7.8052],[110.1108,-7.8113],[110.107,-7.8104],[110.1019,-7.8125],[110.0993,-7.815],[110.1,-7.8191],[110.0925,-7.8203],[110.0907,-7.8144],[110.085,-7.8135],[110.0808,-7.8066]]]}},{"type":"Feature","properties":{"name":"Hargowilis","name_en":"Hargowilis","admin_level":"7","osm_id":""},"geometry":{"type":"Polygon","coordinates":[[[110.1215,-7.7968],[110.1294,-7.7969],[110.1292,-7.7914],[110.1264,-7.7852],[110.1273,-7.7821],[110.1341,-7.787],[110.1376,-7.7854],[110.1385,-7.7882],[110.1437,-7.7919],[110.1469,-7.7966],[110.1463,-7.7998],[110.1436,-7.8012],[110.1363,-7.7996],[110.1353,-7.8012],[110.1324,-7.8011],[110.1321,-7.8032],[110.1365,-7.809],[110.1325,-7.8099],[110.127,-7.8066],[110.1312,-7.8157],[110.1298,-7.8253],[110.1282,-7.8272],[110.1306,-7.8391],[110.1284,-7.8404],[110.1161,-7.8408],[110.114,-7.8391],[110.1148,-7.8356],[110.1123,-7.8352],[110.1118,-7.8308],[110.1052,-7.8302],[110.098,-7.8271],[110.0955,-7.828],[110.0925,-7.8203],[110.1,-7.8191],[110.0993,-7.815],[110.1019,-7.8125],[110.107,-7.8104],[110.1108,-7.8113],[110.1151,-7.8052],[110.1223,-7.8002],[110.1215,-7.7968]]]}},{"type":"Feature","properties":{"name":"Kalirejo","name_en":"Kalirejo","admin_level":"7","osm_id":""},"geometry":{"type":"Polygon","coordinates":[[[110.0619,-7.8158],[110.0627,-7.814],[110.0723,-7.8122],[110.0808,-7.8066],[110.085,-7.8135],[110.0907,-7.8144],[110.0953,-7.8254],[110.0956,-7.8315],[110.0922,-7.8307],[110.0841,-7.8327],[110.0848,-7.8367],[110.0812,-7.842],[110.0717,-7.8478],[110.0602,-7.8484],[110.0586,-7.8438],[110.0586,-7.8272],[110.0589,-7.8239],[110.0622,-7.8189],[110.0619,-7.8158]]]}}]}