{"type":"FeatureCollection","metadata":{"parent_osm_id":"5615266","parent_name":"Wirobrajan","parent_name_1":"Yogyakarta","parent_gid":"IDN.33.3.14_1","parent_level":"6","child_level":"7","count":3,"source":"GADM 4.1","generated":"2026-05-08"},"features":[{"type":"Feature","properties":{"name":"Pakuncen","name_en":"Pakuncen","admin_level":"7","osm_id":""},"geometry":{"type":"Polygon","coordinates":[[[110.3478,-7.8009],[110.3483,-7.7951],[110.3499,-7.7941],[110.3488,-7.7929],[110.3527,-7.7926],[110.3554,-7.7945],[110.3549,-7.801],[110.3478,-7.8009]]]}},{"type":"Feature","properties":{"name":"Patangpuluhan","name_en":"Patangpuluhan","admin_level":"7","osm_id":""},"geometry":{"type":"Polygon","coordinates":[[[110.3515,-7.8135],[110.3458,-7.8125],[110.3446,-7.807],[110.3537,-7.8083],[110.3515,-7.8135]]]}},{"type":"Feature","properties":{"name":"Wirobrajan","name_en":"Wirobrajan","admin_level":"7","osm_id":""},"geometry":{"type":"Polygon","coordinates":[[[110.3446,-7.807],[110.3478,-7.8009],[110.3549,-7.801],[110.3539,-7.805],[110.3554,-7.806],[110.3537,-7.8083],[110.3446,-7.807]]]}}]}