{"type":"FeatureCollection","metadata":{"parent_osm_id":"5802296","parent_name":"Guntur","parent_name_1":"JawaTengah","parent_gid":"IDN.10.8.5_1","parent_level":"6","child_level":"7","count":20,"source":"GADM 4.1","generated":"2026-05-07"},"features":[{"type":"Feature","properties":{"name":"Bakalrejo","name_en":"Bakalrejo","admin_level":"7","osm_id":""},"geometry":{"type":"Polygon","coordinates":[[[110.6263,-6.9594],[110.6267,-6.9673],[110.6286,-6.9701],[110.6268,-6.9742],[110.623,-6.9719],[110.608,-6.9754],[110.6016,-6.9747],[110.6016,-6.9675],[110.6049,-6.9668],[110.6066,-6.9645],[110.6053,-6.9503],[110.6239,-6.9549],[110.6239,-6.9589],[110.6263,-6.9594]]]}},{"type":"Feature","properties":{"name":"Banjarejo","name_en":"Banjarejo","admin_level":"7","osm_id":""},"geometry":{"type":"Polygon","coordinates":[[[110.554,-6.9987],[110.5571,-6.9926],[110.5599,-6.9919],[110.5675,-6.9975],[110.5741,-6.9988],[110.5755,-7.001],[110.5717,-7.0036],[110.5711,-7.0079],[110.5685,-7.0103],[110.5637,-7.0076],[110.5633,-7.0131],[110.5663,-7.0153],[110.5645,-7.0175],[110.5618,-7.0158],[110.5599,-7.0115],[110.5615,-7.0105],[110.5634,-7.0026],[110.5571,-7.0014],[110.554,-6.9987]]]}},{"type":"Feature","properties":{"name":"Blerong","name_en":"Blerong","admin_level":"7","osm_id":""},"geometry":{"type":"Polygon","coordinates":[[[110.5571,-6.9926],[110.554,-6.9987],[110.5476,-6.984],[110.549,-6.9688],[110.5525,-6.9596],[110.5596,-6.9623],[110.5606,-6.9663],[110.5605,-6.9718],[110.5583,-6.9731],[110.5566,-6.9794],[110.5578,-6.9811],[110.5561,-6.9855],[110.5577,-6.9881],[110.5571,-6.9926]]]}},{"type":"Feature","properties":{"name":"Bogosari","name_en":"Bogosari","admin_level":"7","osm_id":""},"geometry":{"type":"Polygon","coordinates":[[[110.601,-6.981],[110.6041,-6.9808],[110.6114,-6.9883],[110.6158,-6.9843],[110.6216,-6.9857],[110.6203,-6.9865],[110.6227,-6.9898],[110.622,-6.9924],[110.6243,-6.9941],[110.6224,-7.0008],[110.6069,-7.0034],[110.6057,-6.9993],[110.5976,-6.9896],[110.601,-6.981]]]}},{"type":"Feature","properties":{"name":"Bumiharjo","name_en":"Bumiharjo","admin_level":"7","osm_id":""},"geometry":{"type":"Polygon","coordinates":[[[110.6268,-6.9742],[110.6286,-6.9701],[110.6267,-6.9673],[110.6263,-6.9594],[110.6324,-6.9604],[110.6369,-6.9554],[110.6427,-6.9592],[110.6411,-6.9639],[110.6428,-6.9674],[110.6387,-6.9732],[110.6394,-6.9767],[110.6318,-6.9794],[110.6312,-6.9757],[110.6268,-6.9742]]]}},{"type":"Feature","properties":{"name":"Gaji","name_en":"Gaji","admin_level":"7","osm_id":""},"geometry":{"type":"Polygon","coordinates":[[[110.5569,-6.9843],[110.5585,-6.974],[110.5653,-6.9778],[110.5725,-6.9774],[110.577,-6.9804],[110.5733,-6.9889],[110.5692,-6.9907],[110.5569,-6.9843]]]}},{"type":"Feature","properties":{"name":"Guntur","name_en":"Guntur","admin_level":"7","osm_id":""},"geometry":{"type":"Polygon","coordinates":[[[110.6016,-6.9747],[110.608,-6.9754],[110.625,-6.9721],[110.6274,-6.9754],[110.6312,-6.9757],[110.6309,-6.9842],[110.6221,-6.9814],[110.6194,-6.9826],[110.6191,-6.9847],[110.6153,-6.9845],[110.6135,-6.9877],[110.6114,-6.9883],[110.6041,-6.9808],[110.601,-6.981],[110.6016,-6.9747]]]}},{"type":"Feature","properties":{"name":"Krandon","name_en":"Krandon","admin_level":"7","osm_id":""},"geometry":{"type":"Polygon","coordinates":[[[110.5585,-6.974],[110.5605,-6.9718],[110.5606,-6.9663],[110.5706,-6.9688],[110.574,-6.9714],[110.5718,-6.9783],[110.5653,-6.9778],[110.5585,-6.974]]]}},{"type":"Feature","properties":{"name":"Pamongan","name_en":"Pamongan","admin_level":"7","osm_id":""},"geometry":{"type":"Polygon","coordinates":[[[110.6017,-6.9951],[110.6068,-7.0019],[110.6032,-7.0084],[110.5972,-7.0072],[110.595,-7.0127],[110.5902,-7.0168],[110.5879,-7.0157],[110.5863,-7.0197],[110.5819,-7.0182],[110.5803,-7.0205],[110.5831,-7.0142],[110.5929,-7.0033],[110.5923,-7.0012],[110.5977,-6.9955],[110.6012,-6.9969],[110.6017,-6.9951]]]}},{"type":"Feature","properties":{"name":"Sarirejo","name_en":"Sarirejo","admin_level":"7","osm_id":""},"geometry":{"type":"Polygon","coordinates":[[[110.5755,-7.001],[110.5741,-6.9988],[110.5756,-6.9959],[110.5784,-6.9972],[110.5822,-6.9905],[110.5882,-6.9929],[110.5865,-6.9953],[110.5891,-6.9963],[110.5892,-6.9978],[110.5868,-7.0032],[110.5755,-7.001]]]}},{"type":"Feature","properties":{"name":"Sidoharjo","name_en":"Sidoharjo","admin_level":"7","osm_id":""},"geometry":{"type":"Polygon","coordinates":[[[110.6427,-6.9592],[110.6369,-6.9554],[110.6435,-6.9497],[110.6433,-6.9482],[110.6393,-6.9465],[110.6416,-6.9443],[110.6412,-6.9427],[110.6339,-6.9389],[110.6353,-6.9365],[110.6392,-6.9364],[110.6398,-6.9337],[110.6432,-6.9371],[110.6418,-6.9392],[110.6468,-6.9434],[110.6458,-6.9447],[110.6474,-6.9476],[110.6519,-6.9503],[110.6486,-6.9592],[110.6463,-6.9602],[110.6427,-6.9592]]]}},{"type":"Feature","properties":{"name":"Sidokumpul","name_en":"Sidokumpul","admin_level":"7","osm_id":""},"geometry":{"type":"Polygon","coordinates":[[[110.5741,-6.9988],[110.5666,-6.997],[110.5607,-6.9921],[110.5569,-6.9926],[110.5569,-6.9843],[110.5686,-6.9908],[110.5733,-6.9889],[110.5766,-6.9813],[110.5836,-6.9853],[110.5795,-6.9962],[110.5784,-6.9972],[110.5756,-6.9959],[110.5741,-6.9988]]]}},{"type":"Feature","properties":{"name":"Sukorejo","name_en":"Sukorejo","admin_level":"7","osm_id":""},"geometry":{"type":"Polygon","coordinates":[[[110.5976,-6.9896],[110.6015,-6.9933],[110.6012,-6.9969],[110.5977,-6.9955],[110.5914,-7.0017],[110.588,-7.001],[110.5891,-6.9963],[110.5865,-6.9953],[110.5882,-6.9929],[110.582,-6.9904],[110.5841,-6.9851],[110.5865,-6.9845],[110.5976,-6.9896]]]}},{"type":"Feature","properties":{"name":"Tangkis","name_en":"Tangkis","admin_level":"7","osm_id":""},"geometry":{"type":"Polygon","coordinates":[[[110.5606,-6.9663],[110.5591,-6.9642],[110.5617,-6.9572],[110.5752,-6.9653],[110.5817,-6.9654],[110.5803,-6.9699],[110.5762,-6.9721],[110.5706,-6.9688],[110.5606,-6.9663]]]}},{"type":"Feature","properties":{"name":"Temuroso","name_en":"Temuroso","admin_level":"7","osm_id":""},"geometry":{"type":"Polygon","coordinates":[[[110.6016,-6.9675],[110.601,-6.981],[110.5976,-6.9896],[110.5872,-6.9846],[110.5825,-6.9854],[110.5727,-6.9775],[110.574,-6.9714],[110.5762,-6.9721],[110.5797,-6.9706],[110.5845,-6.9616],[110.6016,-6.9675]]]}},{"type":"Feature","properties":{"name":"Tlogorejo","name_en":"Tlogorejo","admin_level":"7","osm_id":""},"geometry":{"type":"Polygon","coordinates":[[[110.6394,-6.9767],[110.6387,-6.9732],[110.6428,-6.9674],[110.6411,-6.9639],[110.6427,-6.9592],[110.6466,-6.9601],[110.6493,-6.9576],[110.6533,-6.9624],[110.6512,-6.9742],[110.6446,-6.979],[110.6394,-6.9767]]]}},{"type":"Feature","properties":{"name":"Tlogoweru","name_en":"Tlogoweru","admin_level":"7","osm_id":""},"geometry":{"type":"Polygon","coordinates":[[[110.6069,-7.0034],[110.6217,-7.001],[110.6239,-7.0043],[110.6224,-7.011],[110.6122,-7.0225],[110.6063,-7.0199],[110.6076,-7.0198],[110.6077,-7.0111],[110.6057,-7.0086],[110.6032,-7.0084],[110.6048,-7.0045],[110.6069,-7.0034]]]}},{"type":"Feature","properties":{"name":"Trimulyo","name_en":"Trimulyo","admin_level":"7","osm_id":""},"geometry":{"type":"Polygon","coordinates":[[[110.6493,-6.9576],[110.6519,-6.9503],[110.6549,-6.9524],[110.6556,-6.9552],[110.66,-6.9547],[110.6622,-6.956],[110.6633,-6.9604],[110.6718,-6.9612],[110.6747,-6.9634],[110.675,-6.9671],[110.672,-6.9676],[110.6702,-6.9703],[110.6698,-6.9759],[110.6632,-6.9759],[110.6581,-6.9734],[110.6527,-6.9751],[110.6512,-6.9742],[110.6533,-6.9624],[110.6493,-6.9576]]]}},{"type":"Feature","properties":{"name":"Turitempel","name_en":"Turitempel","admin_level":"7","osm_id":""},"geometry":{"type":"Polygon","coordinates":[[[110.6263,-6.9594],[110.6239,-6.9589],[110.6241,-6.955],[110.6223,-6.9544],[110.6235,-6.9464],[110.6268,-6.9494],[110.6296,-6.9467],[110.631,-6.9498],[110.6393,-6.9465],[110.6435,-6.9485],[110.6336,-6.9598],[110.6263,-6.9594]]]}},{"type":"Feature","properties":{"name":"Wonorejo","name_en":"Wonorejo","admin_level":"7","osm_id":""},"geometry":{"type":"Polygon","coordinates":[[[110.5686,-7.0101],[110.5711,-7.0079],[110.5717,-7.0036],[110.5755,-7.001],[110.5868,-7.0032],[110.5882,-7.0011],[110.5919,-7.0011],[110.5929,-7.0033],[110.5831,-7.0142],[110.5803,-7.0205],[110.5755,-7.0193],[110.5785,-7.0137],[110.5751,-7.0122],[110.5732,-7.016],[110.5686,-7.0101]]]}}]}