{"type":"FeatureCollection","metadata":{"parent_osm_id":"7235906","parent_name":"Haharu","parent_name_1":"NusaTenggaraTimur","parent_gid":"IDN.21.19.1_1","parent_level":"6","child_level":"7","count":7,"source":"GADM 4.1","generated":"2026-05-08"},"features":[{"type":"Feature","properties":{"name":"Kadahang","name_en":"Kadahang","admin_level":"7","osm_id":""},"geometry":{"type":"Polygon","coordinates":[[[120.0074,-9.3827],[120.0128,-9.3865],[120.0236,-9.3887],[120.0291,-9.3966],[120.034,-9.3969],[120.0355,-9.4045],[120.0389,-9.4089],[120.0444,-9.4217],[120.0362,-9.4249],[120.0331,-9.428],[120.0248,-9.4296],[120.0169,-9.4355],[120.0036,-9.4413],[119.9981,-9.4494],[119.9853,-9.4605],[119.9802,-9.4622],[119.9733,-9.457],[119.9695,-9.4466],[119.9618,-9.4424],[119.9618,-9.4386],[119.9602,-9.4383],[119.9628,-9.4352],[119.9595,-9.4353],[119.9586,-9.4336],[119.9665,-9.4286],[119.9707,-9.4219],[119.9756,-9.4221],[119.9765,-9.4163],[119.9812,-9.4166],[119.979,-9.406],[119.9826,-9.4013],[119.9939,-9.3915],[120.0074,-9.3827]]]}},{"type":"Feature","properties":{"name":"Kalamba","name_en":"Kalamba","admin_level":"7","osm_id":""},"geometry":{"type":"Polygon","coordinates":[[[120.0214,-9.5868],[120.0177,-9.5843],[120.0202,-9.583],[120.0167,-9.5791],[120.0187,-9.5734],[120.0151,-9.5715],[120.0154,-9.5675],[120.0126,-9.5601],[120.0196,-9.5553],[120.0202,-9.5516],[120.0304,-9.5475],[120.0285,-9.5452],[120.0332,-9.5393],[120.034,-9.5349],[120.0484,-9.5292],[120.0783,-9.5387],[120.0813,-9.5381],[120.0838,-9.5407],[120.0826,-9.5435],[120.0852,-9.5472],[120.0844,-9.5504],[120.0869,-9.5497],[120.0912,-9.555],[120.0884,-9.5579],[120.0889,-9.5605],[120.0837,-9.564],[120.0834,-9.5667],[120.0848,-9.5688],[120.0876,-9.5686],[120.0877,-9.5707],[120.092,-9.5703],[120.0903,-9.5753],[120.0953,-9.5816],[120.0939,-9.5901],[120.0953,-9.591],[120.0956,-9.5963],[120.0981,-9.5991],[120.0994,-9.6056],[120.0959,-9.6075],[120.0828,-9.6063],[120.0726,-9.6029],[120.0718,-9.5989],[120.065,-9.5961],[120.0621,-9.5968],[120.0611,-9.5995],[120.0474,-9.6011],[120.0394,-9.5989],[120.0214,-9.5868]]]}},{"type":"Feature","properties":{"name":"Mbatapuhu","name_en":"Mbatapuhu","admin_level":"7","osm_id":""},"geometry":{"type":"Polygon","coordinates":[[[119.906,-9.5126],[119.9091,-9.513],[119.9109,-9.5108],[119.9125,-9.5055],[119.9116,-9.4968],[119.9147,-9.4959],[119.9161,-9.4996],[119.9171,-9.497],[119.9209,-9.4958],[119.9174,-9.493],[119.918,-9.4877],[119.9233,-9.4894],[119.9259,-9.4849],[119.9228,-9.4846],[119.9258,-9.482],[119.9208,-9.4805],[119.9218,-9.4761],[119.9173,-9.4773],[119.9152,-9.4745],[119.9166,-9.4645],[119.9221,-9.4653],[119.9231,-9.4695],[119.9263,-9.465],[119.9317,-9.4643],[119.93,-9.4567],[119.9352,-9.454],[119.9346,-9.4506],[119.9411,-9.4473],[119.9415,-9.4431],[119.9462,-9.4454],[119.9468,-9.4424],[119.9507,-9.4407],[119.9509,-9.4383],[119.9544,-9.4378],[119.954,-9.4344],[119.9586,-9.4336],[119.9595,-9.4353],[119.9628,-9.4352],[119.9602,-9.4381],[119.9618,-9.4386],[119.9615,-9.442],[119.9695,-9.4466],[119.9733,-9.457],[119.9811,-9.4624],[119.983,-9.4698],[119.9917,-9.4666],[119.9936,-9.4699],[119.9942,-9.48],[119.9996,-9.4853],[120.0039,-9.4865],[120.0063,-9.4919],[120.01,-9.4912],[120.0139,-9.4926],[120.0116,-9.4941],[120.0152,-9.5022],[120.0098,-9.5052],[120.0097,-9.5068],[120.0184,-9.5099],[120.0204,-9.514],[120.0134,-9.5268],[120.0168,-9.5335],[120.0135,-9.5415],[120.0149,-9.548],[120.0209,-9.5526],[120.0196,-9.5553],[120.0126,-9.5601],[120.0154,-9.5675],[120.0151,-9.5715],[120.0187,-9.5734],[120.0167,-9.5791],[120.0202,-9.583],[120.0177,-9.5843],[120.0211,-9.5857],[120.0213,-9.5879],[120.019,-9.5868],[120.0172,-9.5884],[120.0181,-9.5897],[120.0151,-9.5916],[120.0137,-9.5883],[120.0099,-9.5919],[120.0059,-9.5902],[120.0054,-9.5915],[120.0038,-9.5898],[120.0036,-9.5923],[120.0067,-9.5937],[120.001,-9.5952],[120.0012,-9.5971],[120.0046,-9.5956],[120.0039,-9.5973],[120.002,-9.5975],[120.0033,-9.5991],[120.003,-9.6038],[119.9988,-9.605],[119.9954,-9.6039],[119.9945,-9.6053],[119.9966,-9.6072],[119.9941,-9.608],[119.9943,-9.6101],[119.9896,-9.611],[119.9889,-9.6136],[119.9894,-9.6101],[119.9824,-9.6077],[119.9809,-9.6043],[119.9781,-9.6064],[119.974,-9.6054],[119.9588,-9.5914],[119.9432,-9.5834],[119.9399,-9.58],[119.942,-9.5683],[119.9412,-9.5637],[119.938,-9.5614],[119.9372,-9.5571],[119.9298,-9.5552],[119.9091,-9.5426],[119.9064,-9.5294],[119.906,-9.5126]]]}},{"type":"Feature","properties":{"name":"NAPU","name_en":"NAPU","admin_level":"7","osm_id":""},"geometry":{"type":"Polygon","coordinates":[[[119.9166,-9.4657],[119.9062,-9.4542],[119.8973,-9.4339],[119.8986,-9.4328],[119.8965,-9.4319],[119.8985,-9.4257],[119.9015,-9.4239],[119.9014,-9.4217],[119.8992,-9.4207],[119.9023,-9.4176],[119.9024,-9.4119],[119.9051,-9.4125],[119.9045,-9.4109],[119.9068,-9.4104],[119.907,-9.4067],[119.9113,-9.4026],[119.9098,-9.3994],[119.9128,-9.3952],[119.9105,-9.3935],[119.9117,-9.3916],[119.91,-9.3874],[119.9079,-9.3864],[119.9091,-9.3832],[119.9049,-9.3793],[119.9004,-9.3786],[119.8982,-9.38],[119.8938,-9.3765],[119.8881,-9.3756],[119.8868,-9.3734],[119.8764,-9.3713],[119.8754,-9.3672],[119.869,-9.3575],[119.8678,-9.3499],[119.8645,-9.3443],[119.8813,-9.3348],[119.8914,-9.3263],[119.9194,-9.2922],[119.9221,-9.285],[119.9256,-9.2837],[119.928,-9.2787],[119.9322,-9.2788],[119.9357,-9.2759],[119.943,-9.2853],[119.946,-9.3005],[119.9507,-9.3109],[119.9612,-9.3254],[119.9546,-9.3312],[119.9375,-9.3354],[119.9355,-9.3371],[119.9453,-9.3476],[119.95,-9.3569],[119.9396,-9.3745],[119.9384,-9.3833],[119.9419,-9.3862],[119.9482,-9.3882],[119.9531,-9.3884],[119.9591,-9.3862],[119.96,-9.3879],[119.9564,-9.3948],[119.9652,-9.3927],[119.9686,-9.3952],[119.9787,-9.4054],[119.9816,-9.4149],[119.981,-9.4168],[119.9765,-9.4163],[119.9756,-9.4221],[119.9703,-9.4222],[119.9652,-9.4297],[119.9593,-9.4334],[119.954,-9.4344],[119.9544,-9.4378],[119.9509,-9.4383],[119.9507,-9.4407],[119.9468,-9.4424],[119.9462,-9.4454],[119.9415,-9.4431],[119.9411,-9.4473],[119.9346,-9.4506],[119.9352,-9.454],[119.93,-9.4567],[119.9317,-9.4643],[119.9263,-9.465],[119.9231,-9.4695],[119.9221,-9.4653],[119.917,-9.4643],[119.9166,-9.4657]]]}},{"type":"Feature","properties":{"name":"PraiBakul","name_en":"PraiBakul","admin_level":"7","osm_id":""},"geometry":{"type":"Polygon","coordinates":[[[120.0482,-9.5292],[120.034,-9.5349],[120.0332,-9.5393],[120.0285,-9.5452],[120.0297,-9.5482],[120.0194,-9.5517],[120.0155,-9.5488],[120.0137,-9.5398],[120.0167,-9.5329],[120.0134,-9.5268],[120.0201,-9.5159],[120.02,-9.5118],[120.0154,-9.5083],[120.0097,-9.5068],[120.0098,-9.5052],[120.0152,-9.5022],[120.0116,-9.4941],[120.0139,-9.4926],[120.01,-9.4912],[120.0063,-9.4919],[120.0039,-9.4865],[119.9996,-9.4853],[119.9942,-9.48],[119.9936,-9.4699],[119.9915,-9.4663],[120.004,-9.467],[120.0097,-9.4624],[120.0177,-9.4599],[120.0314,-9.4526],[120.0398,-9.4516],[120.0453,-9.4528],[120.0535,-9.4581],[120.0807,-9.4842],[120.0762,-9.4854],[120.075,-9.488],[120.071,-9.4902],[120.0678,-9.4962],[120.0693,-9.501],[120.0675,-9.5025],[120.0674,-9.5056],[120.0649,-9.5067],[120.0643,-9.5096],[120.0595,-9.5136],[120.0515,-9.5187],[120.0472,-9.5265],[120.0482,-9.5292]]]}},{"type":"Feature","properties":{"name":"Rambangaru","name_en":"Rambangaru","admin_level":"7","osm_id":""},"geometry":{"type":"Polygon","coordinates":[[[119.9804,-9.4622],[119.9853,-9.4605],[119.9981,-9.4494],[120.0036,-9.4413],[120.0169,-9.4355],[120.0248,-9.4296],[120.0331,-9.428],[120.0362,-9.4249],[120.0444,-9.4217],[120.0502,-9.431],[120.0562,-9.4355],[120.0615,-9.4454],[120.0627,-9.4463],[120.0637,-9.4449],[120.0683,-9.4497],[120.0779,-9.4641],[120.0883,-9.4721],[120.0993,-9.477],[120.0895,-9.4877],[120.0804,-9.5155],[120.0797,-9.5348],[120.0813,-9.5382],[120.0783,-9.5387],[120.0714,-9.5355],[120.0488,-9.5302],[120.0472,-9.5265],[120.0515,-9.5187],[120.0595,-9.5136],[120.0643,-9.5096],[120.0649,-9.5067],[120.0674,-9.5056],[120.0675,-9.5025],[120.0693,-9.501],[120.0678,-9.4962],[120.071,-9.4902],[120.075,-9.488],[120.0762,-9.4854],[120.0807,-9.4842],[120.0512,-9.4564],[120.0449,-9.4527],[120.0368,-9.4512],[120.0097,-9.4624],[120.004,-9.467],[119.993,-9.4659],[119.983,-9.4698],[119.9804,-9.4622]]]}},{"type":"Feature","properties":{"name":"Wunga","name_en":"Wunga","admin_level":"7","osm_id":""},"geometry":{"type":"Polygon","coordinates":[[[120.0074,-9.3827],[119.9939,-9.3915],[119.979,-9.406],[119.9655,-9.3928],[119.9564,-9.3948],[119.96,-9.3879],[119.9591,-9.3862],[119.9508,-9.3886],[119.9407,-9.3856],[119.9384,-9.3833],[119.9393,-9.3753],[119.95,-9.3569],[119.9453,-9.3476],[119.9356,-9.3369],[119.9546,-9.3312],[119.9615,-9.3255],[119.9919,-9.3554],[119.9991,-9.3726],[120.0074,-9.3827]]]}}]}