{"type":"FeatureCollection","metadata":{"parent_osm_id":"7549194","parent_name":"Banda","parent_name_1":"Maluku","parent_gid":"IDN.19.6.2_1","parent_level":"6","child_level":"7","count":12,"source":"GADM 4.1","generated":"2026-05-07"},"features":[{"type":"Feature","properties":{"name":"DwiWarna","name_en":"DwiWarna","admin_level":"7","osm_id":""},"geometry":{"type":"Polygon","coordinates":[[[129.9044,-4.5299],[129.9003,-4.5306],[129.9003,-4.5246],[129.9024,-4.525],[129.9034,-4.5222],[129.9044,-4.5299]]]}},{"type":"Feature","properties":{"name":"KampungBaru","name_en":"KampungBaru","admin_level":"7","osm_id":""},"geometry":{"type":"Polygon","coordinates":[[[129.9044,-4.5299],[129.9063,-4.5182],[129.9002,-4.5182],[129.8994,-4.5154],[129.9086,-4.5142],[129.9081,-4.5252],[129.9071,-4.5282],[129.9044,-4.5299]]]}},{"type":"Feature","properties":{"name":"Lonthor","name_en":"Lonthor","admin_level":"7","osm_id":""},"geometry":{"type":"Polygon","coordinates":[[[129.9499,-4.5555],[129.9513,-4.5622],[129.9458,-4.5623],[129.9414,-4.5664],[129.9368,-4.5656],[129.9353,-4.5713],[129.9284,-4.5688],[129.9207,-4.5686],[129.9183,-4.5716],[129.9135,-4.5705],[129.9133,-4.5664],[129.9113,-4.565],[129.9067,-4.5651],[129.9017,-4.5582],[129.8974,-4.558],[129.8938,-4.56],[129.8935,-4.5582],[129.8907,-4.5575],[129.8885,-4.5621],[129.8862,-4.5612],[129.8847,-4.5542],[129.8832,-4.5528],[129.8743,-4.5565],[129.8728,-4.5606],[129.8696,-4.5619],[129.8687,-4.5647],[129.8649,-4.563],[129.8608,-4.5563],[129.8608,-4.5525],[129.8629,-4.5465],[129.8747,-4.5433],[129.877,-4.5433],[129.8815,-4.5474],[129.8842,-4.548],[129.888,-4.5459],[129.8996,-4.5456],[129.9056,-4.5496],[129.9254,-4.5436],[129.9499,-4.5555]]]}},{"type":"Feature","properties":{"name":"Merdeka","name_en":"Merdeka","admin_level":"7","osm_id":""},"geometry":{"type":"Polygon","coordinates":[[[129.897,-4.5085],[129.896,-4.5048],[129.893,-4.5043],[129.8929,-4.5028],[129.8976,-4.5043],[129.9006,-4.5032],[129.9041,-4.5052],[129.897,-4.5085]]]}},{"type":"Feature","properties":{"name":"Nusantara","name_en":"Nusantara","admin_level":"7","osm_id":""},"geometry":{"type":"Polygon","coordinates":[[[129.8808,-4.5108],[129.8912,-4.516],[129.8911,-4.5215],[129.8939,-4.5232],[129.889,-4.5284],[129.8911,-4.5323],[129.8907,-4.5353],[129.8889,-4.5361],[129.8844,-4.5339],[129.8826,-4.5359],[129.8775,-4.5345],[129.868,-4.5298],[129.869,-4.5277],[129.8672,-4.5259],[129.8669,-4.5196],[129.8689,-4.5184],[129.8709,-4.5119],[129.8736,-4.5123],[129.8752,-4.5075],[129.8782,-4.5051],[129.8808,-4.5108]]]}},{"type":"Feature","properties":{"name":"PulauAi","name_en":"PulauAi","admin_level":"7","osm_id":""},"geometry":{"type":"Polygon","coordinates":[[[129.7663,-4.5183],[129.7737,-4.5183],[129.7811,-4.5204],[129.7841,-4.5232],[129.7816,-4.5326],[129.7755,-4.5378],[129.7717,-4.5375],[129.7633,-4.521],[129.7651,-4.517],[129.7663,-4.5183]]]}},{"type":"Feature","properties":{"name":"PulauHatta","name_en":"PulauHatta","admin_level":"7","osm_id":""},"geometry":{"type":"Polygon","coordinates":[[[130.0444,-4.6032],[130.0419,-4.6054],[130.0371,-4.6047],[130.034,-4.6025],[130.0315,-4.595],[130.0308,-4.5872],[130.0349,-4.5845],[130.037,-4.5795],[130.0397,-4.5791],[130.0435,-4.5809],[130.0479,-4.586],[130.0459,-4.592],[130.0475,-4.5949],[130.0444,-4.6032]]]}},{"type":"Feature","properties":{"name":"PulauRhun","name_en":"PulauRhun","admin_level":"7","osm_id":""},"geometry":{"type":"Polygon","coordinates":[[[129.6922,-4.556],[129.6821,-4.5645],[129.6705,-4.5655],[129.6664,-4.5612],[129.6772,-4.5558],[129.6826,-4.5489],[129.6879,-4.5463],[129.6921,-4.5416],[129.6937,-4.5427],[129.6944,-4.5513],[129.6922,-4.556]]]}},{"type":"Feature","properties":{"name":"Rajawali","name_en":"Rajawali","admin_level":"7","osm_id":""},"geometry":{"type":"Polygon","coordinates":[[[129.897,-4.5085],[129.9041,-4.5052],[129.9073,-4.5085],[129.8979,-4.5128],[129.8963,-4.5116],[129.897,-4.5085]]]}},{"type":"Feature","properties":{"name":"Selamon","name_en":"Selamon","admin_level":"7","osm_id":""},"geometry":{"type":"Polygon","coordinates":[[[129.9328,-4.5472],[129.9254,-4.5436],[129.9359,-4.5369],[129.9363,-4.5352],[129.9346,-4.5339],[129.9415,-4.5238],[129.9399,-4.5122],[129.9431,-4.5085],[129.9469,-4.5082],[129.9443,-4.5135],[129.9458,-4.5229],[129.9471,-4.5262],[129.9499,-4.5267],[129.9502,-4.5298],[129.9556,-4.5327],[129.951,-4.537],[129.9461,-4.5386],[129.9404,-4.5509],[129.9328,-4.5472]]]}},{"type":"Feature","properties":{"name":"TanahRata","name_en":"TanahRata","admin_level":"7","osm_id":""},"geometry":{"type":"Polygon","coordinates":[[[129.9086,-4.5142],[129.8994,-4.5154],[129.8979,-4.5128],[129.9073,-4.5085],[129.9086,-4.5142]]]}},{"type":"Feature","properties":{"name":"Waer","name_en":"Waer","admin_level":"7","osm_id":""},"geometry":{"type":"Polygon","coordinates":[[[129.9499,-4.5555],[129.9404,-4.5509],[129.9461,-4.5386],[129.951,-4.537],[129.9576,-4.5489],[129.9537,-4.554],[129.9499,-4.5555]]]}}]}