{"type":"FeatureCollection","metadata":{"parent_osm_id":"8245550","parent_name":"Kudu","parent_name_1":"JawaTimur","parent_gid":"IDN.11.9.9_1","parent_level":"6","child_level":"7","count":12,"source":"GADM 4.1","generated":"2026-05-07"},"features":[{"type":"Feature","properties":{"name":"Bakalanrayung","name_en":"Bakalanrayung","admin_level":"7","osm_id":""},"geometry":{"type":"Polygon","coordinates":[[[112.2819,-7.4244],[112.2849,-7.4199],[112.2879,-7.4213],[112.2876,-7.4156],[112.2889,-7.4157],[112.2892,-7.4132],[112.292,-7.4134],[112.2923,-7.4116],[112.2989,-7.4131],[112.2966,-7.42],[112.2976,-7.4214],[112.2988,-7.4218],[112.3012,-7.4176],[112.3036,-7.4216],[112.3028,-7.4243],[112.3008,-7.4236],[112.2995,-7.4282],[112.298,-7.4279],[112.296,-7.4332],[112.2927,-7.4317],[112.2933,-7.4268],[112.2898,-7.4251],[112.2831,-7.4275],[112.2819,-7.4244]]]}},{"type":"Feature","properties":{"name":"Bendungan","name_en":"Bendungan","admin_level":"7","osm_id":""},"geometry":{"type":"Polygon","coordinates":[[[112.29,-7.4133],[112.2876,-7.4156],[112.2879,-7.4213],[112.2849,-7.4199],[112.2819,-7.4244],[112.2772,-7.4227],[112.277,-7.4203],[112.2739,-7.4194],[112.2759,-7.4127],[112.2794,-7.4135],[112.2803,-7.408],[112.2828,-7.4073],[112.2895,-7.4107],[112.29,-7.4133]]]}},{"type":"Feature","properties":{"name":"Hutan","name_en":"Hutan","admin_level":"7","osm_id":""},"geometry":{"type":"Polygon","coordinates":[[[112.3169,-7.3953],[112.3154,-7.3972],[112.317,-7.3983],[112.3157,-7.4018],[112.3117,-7.4026],[112.3125,-7.4041],[112.3104,-7.4064],[112.3057,-7.4059],[112.3032,-7.4017],[112.2987,-7.4016],[112.2977,-7.3996],[112.2941,-7.4023],[112.2942,-7.3963],[112.2899,-7.3953],[112.2894,-7.3923],[112.2849,-7.3914],[112.2864,-7.3935],[112.284,-7.395],[112.2842,-7.3915],[112.2828,-7.3946],[112.277,-7.3916],[112.2784,-7.3891],[112.2817,-7.3881],[112.281,-7.3861],[112.2831,-7.3832],[112.2852,-7.3828],[112.2871,-7.3838],[112.2859,-7.3857],[112.2885,-7.3873],[112.2917,-7.3883],[112.2936,-7.3865],[112.2942,-7.3905],[112.2984,-7.3926],[112.2996,-7.3966],[112.3005,-7.3934],[112.3053,-7.3942],[112.3112,-7.398],[112.3147,-7.3952],[112.3169,-7.3953]]]}},{"type":"Feature","properties":{"name":"Katemas","name_en":"Katemas","admin_level":"7","osm_id":""},"geometry":{"type":"Polygon","coordinates":[[[112.277,-7.3866],[112.2797,-7.3889],[112.277,-7.3916],[112.2795,-7.3934],[112.2831,-7.3945],[112.2833,-7.3912],[112.2837,-7.3947],[112.2853,-7.3947],[112.2864,-7.393],[112.2849,-7.3914],[112.2894,-7.3923],[112.2899,-7.3953],[112.2916,-7.3959],[112.2888,-7.4062],[112.2896,-7.4104],[112.2828,-7.4073],[112.2803,-7.408],[112.2794,-7.4135],[112.2755,-7.4129],[112.2756,-7.4114],[112.2738,-7.4139],[112.2716,-7.4139],[112.2704,-7.4132],[112.2726,-7.4082],[112.2704,-7.4079],[112.2715,-7.4015],[112.2705,-7.4002],[112.2732,-7.3913],[112.2746,-7.3914],[112.274,-7.3949],[112.2762,-7.3958],[112.2768,-7.398],[112.28,-7.3964],[112.2791,-7.3939],[112.2754,-7.392],[112.2767,-7.3911],[112.277,-7.3866]]]}},{"type":"Feature","properties":{"name":"Kepuhrejo","name_en":"Kepuhrejo","admin_level":"7","osm_id":""},"geometry":{"type":"Polygon","coordinates":[[[112.3014,-7.4177],[112.2988,-7.4218],[112.2976,-7.4214],[112.2966,-7.42],[112.2989,-7.4131],[112.2923,-7.4116],[112.292,-7.4134],[112.29,-7.4133],[112.2886,-7.4078],[112.2916,-7.3957],[112.2942,-7.3963],[112.2941,-7.4023],[112.2977,-7.3996],[112.2987,-7.4016],[112.3032,-7.4017],[112.3046,-7.4032],[112.3032,-7.4058],[112.3036,-7.4132],[112.3014,-7.4177]]]}},{"type":"Feature","properties":{"name":"Kudubanjar","name_en":"Kudubanjar","admin_level":"7","osm_id":""},"geometry":{"type":"Polygon","coordinates":[[[112.322,-7.4358],[112.3172,-7.4355],[112.317,-7.4367],[112.3078,-7.4346],[112.3136,-7.4248],[112.3149,-7.4178],[112.3182,-7.4182],[112.3174,-7.4201],[112.3243,-7.4209],[112.3244,-7.4298],[112.328,-7.4301],[112.3269,-7.4347],[112.3223,-7.434],[112.322,-7.4358]]]}},{"type":"Feature","properties":{"name":"Made","name_en":"Made","admin_level":"7","osm_id":""},"geometry":{"type":"Polygon","coordinates":[[[112.3033,-7.4213],[112.3014,-7.4177],[112.3036,-7.4132],[112.3041,-7.4037],[112.3057,-7.4059],[112.3104,-7.4064],[112.3125,-7.4041],[112.3117,-7.4026],[112.3157,-7.4018],[112.317,-7.3983],[112.3154,-7.3968],[112.3175,-7.3954],[112.3183,-7.4007],[112.3148,-7.4043],[112.3152,-7.4087],[112.3131,-7.408],[112.3112,-7.4095],[112.3078,-7.4164],[112.3046,-7.417],[112.3033,-7.4213]]]}},{"type":"Feature","properties":{"name":"Menturus","name_en":"Menturus","admin_level":"7","osm_id":""},"geometry":{"type":"Polygon","coordinates":[[[112.3195,-7.4461],[112.305,-7.443],[112.3073,-7.4351],[112.317,-7.4367],[112.3172,-7.4355],[112.322,-7.4358],[112.3195,-7.4461]]]}},{"type":"Feature","properties":{"name":"Randuwatang","name_en":"Randuwatang","admin_level":"7","osm_id":""},"geometry":{"type":"Polygon","coordinates":[[[112.3049,-7.443],[112.299,-7.4413],[112.294,-7.4377],[112.298,-7.4279],[112.305,-7.4317],[112.3042,-7.4356],[112.3066,-7.4364],[112.3049,-7.443]]]}},{"type":"Feature","properties":{"name":"Sidokaton","name_en":"Sidokaton","admin_level":"7","osm_id":""},"geometry":{"type":"Polygon","coordinates":[[[112.2685,-7.4223],[112.2704,-7.4181],[112.2704,-7.4133],[112.2738,-7.4139],[112.2739,-7.4121],[112.2761,-7.4116],[112.2739,-7.4194],[112.277,-7.4203],[112.2772,-7.4227],[112.2818,-7.4242],[112.2831,-7.4275],[112.2812,-7.4278],[112.2798,-7.432],[112.2711,-7.4323],[112.2722,-7.4283],[112.2685,-7.4223]]]}},{"type":"Feature","properties":{"name":"SumberTeguh","name_en":"SumberTeguh","admin_level":"7","osm_id":""},"geometry":{"type":"Polygon","coordinates":[[[112.2997,-7.4273],[112.3008,-7.4236],[112.303,-7.424],[112.3046,-7.417],[112.3078,-7.4164],[112.3112,-7.4095],[112.3131,-7.408],[112.3148,-7.4086],[112.3139,-7.4239],[112.3066,-7.4364],[112.3042,-7.4356],[112.3044,-7.4305],[112.3011,-7.4304],[112.2997,-7.4273]]]}},{"type":"Feature","properties":{"name":"Tapen","name_en":"Tapen","admin_level":"7","osm_id":""},"geometry":{"type":"Polygon","coordinates":[[[112.2832,-7.4375],[112.2815,-7.4384],[112.28,-7.4357],[112.2812,-7.4278],[112.2898,-7.4251],[112.2933,-7.4268],[112.2927,-7.4317],[112.296,-7.4332],[112.294,-7.4377],[112.2912,-7.4345],[112.2881,-7.4337],[112.2832,-7.4375]]]}}]}