{"type":"FeatureCollection","metadata":{"parent_osm_id":"8767277","parent_name":"Lindu","parent_name_1":"SulawesiTengah","parent_gid":"IDN.27.9.8_1","parent_level":"6","child_level":"7","count":5,"source":"GADM 4.1","generated":"2026-05-08"},"features":[{"type":"Feature","properties":{"name":"Anca","name_en":"Anca","admin_level":"7","osm_id":""},"geometry":{"type":"Polygon","coordinates":[[[120.1858,-1.2735],[120.1815,-1.277],[120.1586,-1.284],[120.1436,-1.296],[120.1294,-1.2974],[120.1049,-1.3159],[120.1063,-1.3065],[120.1055,-1.3014],[120.1075,-1.297],[120.1074,-1.2876],[120.1056,-1.286],[120.1068,-1.2845],[120.1068,-1.2765],[120.1091,-1.2732],[120.1058,-1.2739],[120.1049,-1.2781],[120.0998,-1.284],[120.0927,-1.2855],[120.0862,-1.2835],[120.0838,-1.2874],[120.0749,-1.2861],[120.068,-1.2908],[120.0656,-1.2907],[120.0639,-1.2947],[120.0648,-1.2978],[120.0592,-1.3103],[120.0581,-1.3175],[120.0554,-1.3227],[120.0507,-1.3256],[120.035,-1.3076],[120.0233,-1.2908],[120.0268,-1.2788],[120.0352,-1.2696],[120.0386,-1.268],[120.0497,-1.2706],[120.0631,-1.2569],[120.0675,-1.2481],[120.0724,-1.2478],[120.0747,-1.244],[120.0862,-1.2444],[120.1071,-1.2371],[120.1159,-1.2394],[120.1218,-1.2321],[120.13,-1.2272],[120.1356,-1.2309],[120.1458,-1.2324],[120.1563,-1.2446],[120.1617,-1.2444],[120.1792,-1.2624],[120.1798,-1.269],[120.1858,-1.2735]]]}},{"type":"Feature","properties":{"name":"Danau/waduk","name_en":"Danau/waduk","admin_level":"7","osm_id":""},"geometry":{"type":"Polygon","coordinates":[[[120.0526,-1.3249],[120.0581,-1.3175],[120.0592,-1.3103],[120.0648,-1.2978],[120.0639,-1.2947],[120.0656,-1.2907],[120.068,-1.2908],[120.0749,-1.2861],[120.0838,-1.2874],[120.0862,-1.2835],[120.0927,-1.2855],[120.0998,-1.284],[120.1049,-1.2781],[120.1058,-1.2739],[120.1091,-1.2732],[120.1068,-1.2765],[120.1068,-1.2845],[120.1056,-1.286],[120.1076,-1.2899],[120.1074,-1.2988],[120.1055,-1.3014],[120.1057,-1.3167],[120.1017,-1.324],[120.1002,-1.3339],[120.0894,-1.3402],[120.0859,-1.3476],[120.0829,-1.3491],[120.0809,-1.3481],[120.0806,-1.3521],[120.0744,-1.3549],[120.0654,-1.3539],[120.0658,-1.3505],[120.0648,-1.3525],[120.0598,-1.3456],[120.0572,-1.3385],[120.0509,-1.332],[120.0511,-1.3276],[120.0536,-1.3256],[120.0526,-1.3249]]]}},{"type":"Feature","properties":{"name":"Langko","name_en":"Langko","admin_level":"7","osm_id":""},"geometry":{"type":"Polygon","coordinates":[[[120.1623,-1.4685],[120.1596,-1.4725],[120.1511,-1.479],[120.1438,-1.4927],[120.1371,-1.4958],[120.1364,-1.5039],[120.1304,-1.5023],[120.1111,-1.4828],[120.0993,-1.4549],[120.0931,-1.4505],[120.0627,-1.4391],[120.0498,-1.4315],[120.0511,-1.4204],[120.065,-1.4059],[120.0741,-1.3849],[120.0712,-1.3687],[120.0674,-1.3636],[120.059,-1.3595],[120.044,-1.3572],[120.0403,-1.3546],[120.0143,-1.3529],[120.0116,-1.3401],[120.0167,-1.3271],[120.0239,-1.3316],[120.0362,-1.3336],[120.0464,-1.3407],[120.0555,-1.3369],[120.0648,-1.3525],[120.0658,-1.3505],[120.0654,-1.3539],[120.0669,-1.3548],[120.0684,-1.3538],[120.0731,-1.3551],[120.0786,-1.3534],[120.0778,-1.3527],[120.0813,-1.3512],[120.0809,-1.3481],[120.0837,-1.349],[120.0876,-1.3456],[120.0922,-1.3527],[120.0992,-1.3557],[120.1033,-1.362],[120.1137,-1.3667],[120.125,-1.3682],[120.137,-1.3831],[120.1418,-1.3805],[120.16,-1.3815],[120.1783,-1.3969],[120.1897,-1.4124],[120.1894,-1.4191],[120.1853,-1.4279],[120.1866,-1.443],[120.1852,-1.4474],[120.1804,-1.4482],[120.1793,-1.4516],[120.1748,-1.4565],[120.17,-1.4577],[120.1661,-1.4611],[120.1623,-1.4685]]]}},{"type":"Feature","properties":{"name":"Puro'o","name_en":"Puro'o","admin_level":"7","osm_id":""},"geometry":{"type":"Polygon","coordinates":[[[120.0448,-1.4272],[120.0244,-1.4128],[120.0215,-1.4057],[120.0212,-1.3941],[120.0183,-1.3849],[120.0133,-1.3788],[120.0062,-1.374],[120.0073,-1.3684],[120.0149,-1.3581],[120.0143,-1.3529],[120.0403,-1.3546],[120.044,-1.3572],[120.059,-1.3595],[120.0674,-1.3636],[120.0712,-1.3687],[120.0741,-1.3849],[120.0702,-1.3915],[120.0678,-1.4008],[120.0621,-1.4098],[120.0521,-1.4187],[120.0501,-1.4231],[120.0498,-1.4315],[120.0448,-1.4272]]]}},{"type":"Feature","properties":{"name":"Tomado","name_en":"Tomado","admin_level":"7","osm_id":""},"geometry":{"type":"Polygon","coordinates":[[[120.2217,-1.4559],[120.2192,-1.4562],[120.2142,-1.4532],[120.203,-1.4553],[120.1955,-1.4502],[120.1867,-1.4515],[120.1817,-1.4483],[120.1852,-1.4474],[120.1866,-1.443],[120.1853,-1.4279],[120.1894,-1.4191],[120.1899,-1.4143],[120.1881,-1.4088],[120.1797,-1.3983],[120.16,-1.3815],[120.1418,-1.3805],[120.137,-1.3831],[120.125,-1.3682],[120.1137,-1.3667],[120.1033,-1.362],[120.0992,-1.3557],[120.0922,-1.3527],[120.087,-1.3448],[120.0909,-1.3388],[120.1002,-1.3339],[120.1017,-1.324],[120.1056,-1.3155],[120.1277,-1.2984],[120.1321,-1.2966],[120.1436,-1.296],[120.1594,-1.2836],[120.1815,-1.277],[120.1864,-1.2742],[120.2053,-1.2867],[120.2156,-1.2888],[120.2303,-1.2995],[120.2403,-1.311],[120.2574,-1.3219],[120.2607,-1.3356],[120.2652,-1.3392],[120.2715,-1.3414],[120.2764,-1.3461],[120.2825,-1.3585],[120.2879,-1.3645],[120.2864,-1.37],[120.2876,-1.3794],[120.282,-1.3844],[120.2652,-1.3858],[120.2735,-1.3894],[120.2759,-1.3964],[120.2791,-1.3984],[120.2794,-1.4022],[120.277,-1.4078],[120.2671,-1.4159],[120.2604,-1.4158],[120.2538,-1.4118],[120.2501,-1.4129],[120.2441,-1.4239],[120.2419,-1.4355],[120.2267,-1.446],[120.2217,-1.4559]]]}}]}