{"type":"FeatureCollection","metadata":{"parent_osm_id":"8921208","parent_name":"Meureubo","parent_name_1":"Aceh","parent_gid":"IDN.1.2.5_1","parent_level":"6","child_level":"7","count":26,"source":"GADM 4.1","generated":"2026-05-07"},"features":[{"type":"Feature","properties":{"name":"Balee","name_en":"Balee","admin_level":"7","osm_id":""},"geometry":{"type":"Polygon","coordinates":[[[96.2586,4.1738],[96.2495,4.168],[96.2387,4.1504],[96.2378,4.144],[96.2331,4.1487],[96.2053,4.1644],[96.1962,4.1722],[96.1985,4.1999],[96.2177,4.1982],[96.2257,4.1954],[96.2547,4.1784],[96.2586,4.1738]]]}},{"type":"Feature","properties":{"name":"BukitJaya","name_en":"BukitJaya","admin_level":"7","osm_id":""},"geometry":{"type":"Polygon","coordinates":[[[96.2378,4.144],[96.2387,4.1504],[96.2525,4.1709],[96.2613,4.176],[96.2689,4.1753],[96.2758,4.1719],[96.2772,4.1686],[96.2749,4.1659],[96.2755,4.1618],[96.2788,4.1551],[96.2731,4.1507],[96.2734,4.1479],[96.2676,4.146],[96.2626,4.138],[96.2466,4.1261],[96.2345,4.1209],[96.2248,4.117],[96.214,4.1179],[96.2155,4.1301],[96.2208,4.1359],[96.2378,4.144]]]}},{"type":"Feature","properties":{"name":"Buloh","name_en":"Buloh","admin_level":"7","osm_id":""},"geometry":{"type":"Polygon","coordinates":[[[96.2586,4.1738],[96.2547,4.1784],[96.2551,4.1825],[96.2664,4.1791],[96.2777,4.1835],[96.2746,4.1744],[96.2758,4.1719],[96.2643,4.1758],[96.2613,4.176],[96.2586,4.1738]]]}},{"type":"Feature","properties":{"name":"GunongKleng","name_en":"GunongKleng","admin_level":"7","osm_id":""},"geometry":{"type":"Polygon","coordinates":[[[96.1821,4.1155],[96.1734,4.1227],[96.177,4.1276],[96.1742,4.1297],[96.1769,4.1336],[96.1802,4.1313],[96.1835,4.1358],[96.1763,4.1394],[96.1799,4.1438],[96.1771,4.1458],[96.1801,4.1501],[96.1975,4.1371],[96.187,4.1203],[96.1821,4.1155]]]}},{"type":"Feature","properties":{"name":"Langung","name_en":"Langung","admin_level":"7","osm_id":""},"geometry":{"type":"Polygon","coordinates":[[[96.1612,4.1324],[96.1548,4.1376],[96.1706,4.1636],[96.1772,4.1528],[96.1702,4.1443],[96.1651,4.1412],[96.1612,4.1324]]]}},{"type":"Feature","properties":{"name":"MesjidTuha","name_en":"MesjidTuha","admin_level":"7","osm_id":""},"geometry":{"type":"Polygon","coordinates":[[[96.1532,4.1792],[96.1557,4.1796],[96.1564,4.1779],[96.1595,4.1768],[96.1706,4.1636],[96.1683,4.1601],[96.1607,4.1649],[96.1543,4.1714],[96.1532,4.1792]]]}},{"type":"Feature","properties":{"name":"Meureubo","name_en":"Meureubo","admin_level":"7","osm_id":""},"geometry":{"type":"Polygon","coordinates":[[[96.1476,4.141],[96.1528,4.1525],[96.1598,4.1477],[96.1548,4.1376],[96.1476,4.141]]]}},{"type":"Feature","properties":{"name":"PasiAcehBaroh","name_en":"PasiAcehBaroh","admin_level":"7","osm_id":""},"geometry":{"type":"Polygon","coordinates":[[[96.1602,4.1822],[96.1602,4.1875],[96.164,4.1897],[96.164,4.1911],[96.1894,4.1897],[96.1976,4.1874],[96.1962,4.1721],[96.1882,4.1715],[96.1687,4.18],[96.1633,4.1799],[96.1602,4.1822]]]}},{"type":"Feature","properties":{"name":"PasiAcehTunong","name_en":"PasiAcehTunong","admin_level":"7","osm_id":""},"geometry":{"type":"Polygon","coordinates":[[[96.164,4.1911],[96.1603,4.1966],[96.162,4.1991],[96.1613,4.2027],[96.1821,4.2042],[96.198,4.1977],[96.1976,4.1874],[96.1894,4.1897],[96.164,4.1911]]]}},{"type":"Feature","properties":{"name":"PasiMesjid","name_en":"PasiMesjid","admin_level":"7","osm_id":""},"geometry":{"type":"Polygon","coordinates":[[[96.1501,4.1697],[96.145,4.1697],[96.1423,4.1731],[96.1427,4.1763],[96.1456,4.1775],[96.1495,4.1763],[96.1532,4.1711],[96.1501,4.1697]]]}},{"type":"Feature","properties":{"name":"PasiPinang","name_en":"PasiPinang","admin_level":"7","osm_id":""},"geometry":{"type":"Polygon","coordinates":[[[96.1391,4.1525],[96.1425,4.156],[96.1466,4.1574],[96.1501,4.1547],[96.1446,4.1502],[96.1438,4.1453],[96.1404,4.1476],[96.1391,4.1525]]]}},{"type":"Feature","properties":{"name":"PayaBaroRantoPanjang","name_en":"PayaBaroRantoPanjang","admin_level":"7","osm_id":""},"geometry":{"type":"Polygon","coordinates":[[[96.1862,4.2102],[96.1945,4.2179],[96.1998,4.2174],[96.2005,4.2204],[96.2029,4.2216],[96.198,4.1977],[96.1832,4.2027],[96.1821,4.2042],[96.1835,4.2078],[96.1862,4.2102]]]}},{"type":"Feature","properties":{"name":"PayaPeunaga","name_en":"PayaPeunaga","admin_level":"7","osm_id":""},"geometry":{"type":"Polygon","coordinates":[[[96.1801,4.1501],[96.1771,4.1458],[96.1799,4.1438],[96.1763,4.1394],[96.1767,4.1377],[96.1754,4.1385],[96.1729,4.1354],[96.1696,4.1378],[96.1684,4.136],[96.1637,4.1389],[96.1772,4.1528],[96.1801,4.1501]]]}},{"type":"Feature","properties":{"name":"PeunagaCutUjong","name_en":"PeunagaCutUjong","admin_level":"7","osm_id":""},"geometry":{"type":"Polygon","coordinates":[[[96.1821,4.1155],[96.187,4.1203],[96.1975,4.1371],[96.2139,4.1175],[96.2065,4.1158],[96.1919,4.1072],[96.1821,4.1155]]]}},{"type":"Feature","properties":{"name":"PeunagaPasi","name_en":"PeunagaPasi","admin_level":"7","osm_id":""},"geometry":{"type":"Polygon","coordinates":[[[96.1742,4.1297],[96.177,4.1276],[96.1734,4.1227],[96.169,4.126],[96.1725,4.131],[96.1742,4.1297]]]}},{"type":"Feature","properties":{"name":"PeunagaRayeuk","name_en":"PeunagaRayeuk","admin_level":"7","osm_id":""},"geometry":{"type":"Polygon","coordinates":[[[96.1774,4.1387],[96.1835,4.1358],[96.1817,4.1327],[96.1802,4.1313],[96.1769,4.1336],[96.1742,4.1297],[96.1725,4.131],[96.169,4.126],[96.1612,4.1324],[96.1644,4.1384],[96.1684,4.136],[96.1696,4.1378],[96.1729,4.1354],[96.1754,4.1385],[96.1774,4.1387]]]}},{"type":"Feature","properties":{"name":"PucokReudeup","name_en":"PucokReudeup","admin_level":"7","osm_id":""},"geometry":{"type":"Polygon","coordinates":[[[96.2029,4.2216],[96.2263,4.2155],[96.2395,4.2078],[96.2442,4.2096],[96.2574,4.2042],[96.2561,4.1913],[96.2014,4.2141],[96.2029,4.2216]]]}},{"type":"Feature","properties":{"name":"PuloTeungohRanto","name_en":"PuloTeungohRanto","admin_level":"7","osm_id":""},"geometry":{"type":"Polygon","coordinates":[[[96.1557,4.1796],[96.1602,4.1822],[96.1643,4.1796],[96.1687,4.18],[96.1708,4.1772],[96.1676,4.1737],[96.1564,4.1779],[96.1557,4.1796]]]}},{"type":"Feature","properties":{"name":"RantoPanyangBarat","name_en":"RantoPanyangBarat","admin_level":"7","osm_id":""},"geometry":{"type":"Polygon","coordinates":[[[96.1469,4.161],[96.1513,4.1637],[96.1501,4.1697],[96.1543,4.1714],[96.156,4.1694],[96.1553,4.1671],[96.1505,4.1603],[96.1469,4.161]]]}},{"type":"Feature","properties":{"name":"RantoPanyangTimur","name_en":"RantoPanyangTimur","admin_level":"7","osm_id":""},"geometry":{"type":"Polygon","coordinates":[[[96.1683,4.1601],[96.1647,4.1544],[96.1533,4.1609],[96.1517,4.1593],[96.1505,4.1603],[96.156,4.1694],[96.1683,4.1601]]]}},{"type":"Feature","properties":{"name":"RanubDong","name_en":"RanubDong","admin_level":"7","osm_id":""},"geometry":{"type":"Polygon","coordinates":[[[96.1654,4.1692],[96.1592,4.1759],[96.1595,4.1768],[96.1687,4.1739],[96.1654,4.1692]]]}},{"type":"Feature","properties":{"name":"Reudeup","name_en":"Reudeup","admin_level":"7","osm_id":""},"geometry":{"type":"Polygon","coordinates":[[[96.2547,4.1784],[96.2257,4.1954],[96.2177,4.1982],[96.1985,4.1999],[96.2014,4.2141],[96.2561,4.1913],[96.2547,4.1784]]]}},{"type":"Feature","properties":{"name":"SumberBatu","name_en":"SumberBatu","admin_level":"7","osm_id":""},"geometry":{"type":"Polygon","coordinates":[[[96.2574,4.2042],[96.2734,4.2014],[96.2724,4.1966],[96.2777,4.1835],[96.2664,4.1791],[96.2551,4.1825],[96.2574,4.2042]]]}},{"type":"Feature","properties":{"name":"UjongDrien","name_en":"UjongDrien","admin_level":"7","osm_id":""},"geometry":{"type":"Polygon","coordinates":[[[96.1475,4.1418],[96.1438,4.1453],[96.1446,4.1502],[96.1501,4.1547],[96.1527,4.1521],[96.1475,4.1418]]]}},{"type":"Feature","properties":{"name":"UjongTanjong","name_en":"UjongTanjong","admin_level":"7","osm_id":""},"geometry":{"type":"Polygon","coordinates":[[[96.1467,4.1598],[96.1469,4.161],[96.1517,4.1593],[96.1533,4.1609],[96.1647,4.1544],[96.1607,4.1473],[96.1519,4.1525],[96.1466,4.1574],[96.1467,4.1598]]]}},{"type":"Feature","properties":{"name":"UjongTanohDarat","name_en":"UjongTanohDarat","admin_level":"7","osm_id":""},"geometry":{"type":"Polygon","coordinates":[[[96.1962,4.1722],[96.2053,4.1644],[96.2376,4.1454],[96.2378,4.144],[96.2208,4.1359],[96.2155,4.1301],[96.2141,4.1175],[96.1988,4.136],[96.1841,4.1483],[96.1787,4.1507],[96.1712,4.163],[96.1654,4.1692],[96.1703,4.1756],[96.1702,4.1786],[96.1882,4.1715],[96.1962,4.1722]]]}}]}