{"type":"FeatureCollection","metadata":{"parent_osm_id":"8922257","parent_name":"Badar","parent_name_1":"Aceh","parent_gid":"IDN.1.9.4_1","parent_level":"6","child_level":"7","count":19,"source":"GADM 4.1","generated":"2026-05-07"},"features":[{"type":"Feature","properties":{"name":"BadarIndah","name_en":"BadarIndah","admin_level":"7","osm_id":""},"geometry":{"type":"Polygon","coordinates":[[[97.808,3.5079],[97.8059,3.5076],[97.8047,3.5097],[97.8041,3.5147],[97.8052,3.5153],[97.808,3.5079]]]}},{"type":"Feature","properties":{"name":"BatuMberong","name_en":"BatuMberong","admin_level":"7","osm_id":""},"geometry":{"type":"Polygon","coordinates":[[[97.7814,3.5306],[97.7778,3.5293],[97.7753,3.5303],[97.7763,3.5325],[97.7837,3.5332],[97.7834,3.5311],[97.7814,3.5306]]]}},{"type":"Feature","properties":{"name":"DelengMegakhe","name_en":"DelengMegakhe","admin_level":"7","osm_id":""},"geometry":{"type":"Polygon","coordinates":[[[97.8047,3.5097],[97.8005,3.5099],[97.8003,3.5082],[97.7978,3.5175],[97.801,3.5172],[97.8025,3.5141],[97.8041,3.5145],[97.8047,3.5097]]]}},{"type":"Feature","properties":{"name":"Hutan","name_en":"Hutan","admin_level":"7","osm_id":""},"geometry":{"type":"Polygon","coordinates":[[[97.7838,3.5326],[97.784,3.5384],[97.779,3.5528],[97.7754,3.5612],[97.7729,3.5618],[97.7741,3.5726],[97.7839,3.5807],[97.7887,3.5815],[97.792,3.5896],[97.8018,3.592],[97.8059,3.5985],[97.8116,3.5993],[97.8116,3.6058],[97.8068,3.6222],[97.806,3.6303],[97.8028,3.6361],[97.8061,3.6507],[97.8119,3.658],[97.8136,3.6711],[97.8207,3.6865],[97.8278,3.6737],[97.8384,3.6685],[97.8444,3.6612],[97.8466,3.6532],[97.854,3.64],[97.8536,3.6269],[97.8719,3.6121],[97.8705,3.607],[97.8637,3.5989],[97.8636,3.5946],[97.867,3.5848],[97.8676,3.5732],[97.8706,3.5686],[97.8609,3.5656],[97.8527,3.5591],[97.8471,3.5591],[97.8414,3.5543],[97.8349,3.5543],[97.8226,3.5413],[97.8065,3.5427],[97.8039,3.5385],[97.8065,3.5311],[97.8015,3.5281],[97.8038,3.5219],[97.8034,3.5174],[97.8018,3.5233],[97.7924,3.5244],[97.7921,3.5274],[97.7868,3.5271],[97.7849,3.5314],[97.7834,3.5311],[97.7838,3.5326]]]}},{"type":"Feature","properties":{"name":"KampungBaru","name_en":"KampungBaru","admin_level":"7","osm_id":""},"geometry":{"type":"Polygon","coordinates":[[[97.7846,3.5229],[97.784,3.5264],[97.7924,3.5271],[97.7918,3.5237],[97.7846,3.5229]]]}},{"type":"Feature","properties":{"name":"KumbangIndah","name_en":"KumbangIndah","admin_level":"7","osm_id":""},"geometry":{"type":"Polygon","coordinates":[[[97.7921,3.5185],[97.7921,3.5142],[97.786,3.5136],[97.7842,3.5228],[97.7911,3.5231],[97.7921,3.5185]]]}},{"type":"Feature","properties":{"name":"KumbangJaya","name_en":"KumbangJaya","admin_level":"7","osm_id":""},"geometry":{"type":"Polygon","coordinates":[[[97.7835,3.526],[97.7826,3.5287],[97.7855,3.5305],[97.7868,3.5271],[97.7835,3.526]]]}},{"type":"Feature","properties":{"name":"KutaPasir","name_en":"KutaPasir","admin_level":"7","osm_id":""},"geometry":{"type":"Polygon","coordinates":[[[97.7814,3.5306],[97.7849,3.5314],[97.7851,3.5301],[97.7818,3.5284],[97.7814,3.5306]]]}},{"type":"Feature","properties":{"name":"KutaTinggi","name_en":"KutaTinggi","admin_level":"7","osm_id":""},"geometry":{"type":"Polygon","coordinates":[[[97.8052,3.5153],[97.804,3.5145],[97.8037,3.5165],[97.8054,3.5166],[97.8052,3.5153]]]}},{"type":"Feature","properties":{"name":"LaweBekung","name_en":"LaweBekung","admin_level":"7","osm_id":""},"geometry":{"type":"Polygon","coordinates":[[[97.8052,3.525],[97.8076,3.5234],[97.8058,3.5164],[97.8034,3.5174],[97.8038,3.5219],[97.8021,3.5263],[97.8046,3.5271],[97.8052,3.525]]]}},{"type":"Feature","properties":{"name":"LaweBekungTempahan","name_en":"LaweBekungTempahan","admin_level":"7","osm_id":""},"geometry":{"type":"Polygon","coordinates":[[[97.8067,3.5295],[97.8044,3.5269],[97.8019,3.5264],[97.8018,3.5287],[97.8051,3.5313],[97.8067,3.5295]]]}},{"type":"Feature","properties":{"name":"LaweSekerah","name_en":"LaweSekerah","admin_level":"7","osm_id":""},"geometry":{"type":"Polygon","coordinates":[[[97.7729,3.5618],[97.7754,3.5612],[97.7807,3.5454],[97.7721,3.543],[97.7696,3.5462],[97.7656,3.5466],[97.7658,3.5528],[97.7626,3.5541],[97.7671,3.5541],[97.7648,3.5578],[97.7653,3.5621],[97.7729,3.5618]]]}},{"type":"Feature","properties":{"name":"Natam","name_en":"Natam","admin_level":"7","osm_id":""},"geometry":{"type":"Polygon","coordinates":[[[97.7727,3.5639],[97.7729,3.5618],[97.7687,3.5619],[97.7679,3.5654],[97.7727,3.5639]]]}},{"type":"Feature","properties":{"name":"NatamBaru","name_en":"NatamBaru","admin_level":"7","osm_id":""},"geometry":{"type":"Polygon","coordinates":[[[97.7687,3.5619],[97.7641,3.562],[97.7655,3.5674],[97.7679,3.5674],[97.7687,3.5619]]]}},{"type":"Feature","properties":{"name":"Peranginan","name_en":"Peranginan","admin_level":"7","osm_id":""},"geometry":{"type":"Polygon","coordinates":[[[97.7837,3.5332],[97.7738,3.533],[97.7754,3.5392],[97.7719,3.5398],[97.7714,3.5433],[97.7807,3.5454],[97.784,3.5384],[97.7837,3.5332]]]}},{"type":"Feature","properties":{"name":"Purwodadi","name_en":"Purwodadi","admin_level":"7","osm_id":""},"geometry":{"type":"Polygon","coordinates":[[[97.7971,3.5178],[97.7921,3.5185],[97.7908,3.5232],[97.7933,3.5248],[97.7963,3.5243],[97.7971,3.5178]]]}},{"type":"Feature","properties":{"name":"SalangAlas","name_en":"SalangAlas","admin_level":"7","osm_id":""},"geometry":{"type":"Polygon","coordinates":[[[97.8046,3.5262],[97.8067,3.5277],[97.8071,3.5274],[97.8059,3.525],[97.8046,3.5262]]]}},{"type":"Feature","properties":{"name":"TanahMerah","name_en":"TanahMerah","admin_level":"7","osm_id":""},"geometry":{"type":"Polygon","coordinates":[[[97.801,3.5172],[97.7971,3.5178],[97.7964,3.5242],[97.8008,3.524],[97.8025,3.5224],[97.803,3.5176],[97.801,3.5172]]]}},{"type":"Feature","properties":{"name":"TanohMegakhe","name_en":"TanohMegakhe","admin_level":"7","osm_id":""},"geometry":{"type":"Polygon","coordinates":[[[97.804,3.5145],[97.8025,3.5141],[97.801,3.5172],[97.8034,3.5174],[97.804,3.5145]]]}}]}