{"type":"FeatureCollection","metadata":{"parent_osm_id":"9347617","parent_name":"Jemaja","parent_name_1":"KepulauanRiau","parent_gid":"IDN.16.4.2_1","parent_level":"6","child_level":"7","count":7,"source":"GADM 4.1","generated":"2026-05-07"},"features":[{"type":"Feature","properties":{"name":"AirBiru","name_en":"AirBiru","admin_level":"7","osm_id":""},"geometry":{"type":"Polygon","coordinates":[[[105.7317,2.9428],[105.7416,2.9298],[105.741,2.9277],[105.7242,2.9153],[105.702,2.8911],[105.6967,2.8894],[105.6946,2.8931],[105.6964,2.8952],[105.6952,2.8979],[105.7004,2.9024],[105.7025,2.9078],[105.6985,2.914],[105.6994,2.9162],[105.7019,2.9158],[105.7037,2.9176],[105.7031,2.9215],[105.7059,2.9231],[105.7074,2.9261],[105.7066,2.9288],[105.6963,2.9308],[105.6946,2.934],[105.699,2.9352],[105.7049,2.9326],[105.7059,2.9343],[105.7096,2.9337],[105.7272,2.9436],[105.7295,2.9445],[105.7317,2.9428]]]}},{"type":"Feature","properties":{"name":"Impol","name_en":"Impol","admin_level":"7","osm_id":""},"geometry":{"type":"Polygon","coordinates":[[[105.7069,3.0991],[105.7144,3.0981],[105.718,3.0994],[105.7242,3.0924],[105.7269,3.095],[105.7287,3.0948],[105.7335,3.0912],[105.7355,3.0843],[105.7305,3.0813],[105.726,3.087],[105.7239,3.0868],[105.7202,3.0837],[105.7167,3.0766],[105.7119,3.0747],[105.7093,3.0774],[105.7072,3.0838],[105.7069,3.0991]]]}},{"type":"Feature","properties":{"name":"Keramut","name_en":"Keramut","admin_level":"7","osm_id":""},"geometry":{"type":"Polygon","coordinates":[[[105.6541,3.1189],[105.6662,3.1098],[105.6628,3.103],[105.6652,3.1011],[105.6722,3.0998],[105.6754,3.0915],[105.671,3.0911],[105.6695,3.0944],[105.6655,3.0946],[105.6631,3.099],[105.6604,3.0988],[105.6598,3.0965],[105.6585,3.0983],[105.6534,3.0973],[105.6524,3.0938],[105.6569,3.0899],[105.6563,3.0877],[105.6528,3.0884],[105.6501,3.0925],[105.6438,3.0937],[105.6426,3.0956],[105.6443,3.0992],[105.6403,3.1025],[105.6392,3.1018],[105.6383,3.1043],[105.6434,3.1054],[105.6437,3.1032],[105.648,3.1017],[105.6473,3.1047],[105.6446,3.1065],[105.6448,3.1093],[105.6424,3.1105],[105.6417,3.1151],[105.644,3.1184],[105.6502,3.1184],[105.6523,3.1207],[105.6541,3.1189]]]}},{"type":"Feature","properties":{"name":"Letung","name_en":"Letung","admin_level":"7","osm_id":""},"geometry":{"type":"Polygon","coordinates":[[[105.7103,2.966],[105.7084,2.9665],[105.7068,2.9777],[105.7088,2.9791],[105.7137,2.9758],[105.7122,2.9806],[105.715,2.9846],[105.71,2.9877],[105.7063,2.9878],[105.6967,2.9965],[105.6914,2.9964],[105.684,2.9999],[105.6757,3.0098],[105.6806,3.0124],[105.6853,3.0104],[105.6893,3.0055],[105.6915,3.0054],[105.6928,3.0064],[105.6922,3.0124],[105.6962,3.0139],[105.6975,3.017],[105.7054,3.0193],[105.7126,3.0137],[105.731,3.0252],[105.7342,3.0251],[105.7335,3.0214],[105.7379,3.0158],[105.7369,3.0094],[105.7294,3.0028],[105.7284,2.9976],[105.7252,2.9968],[105.7256,2.9921],[105.7195,2.9834],[105.7193,2.9751],[105.7118,2.9692],[105.7103,2.966]]]}},{"type":"Feature","properties":{"name":"Mampok","name_en":"Mampok","admin_level":"7","osm_id":""},"geometry":{"type":"Polygon","coordinates":[[[105.7367,2.978],[105.7323,2.9592],[105.7268,2.9511],[105.7268,2.9484],[105.7295,2.9445],[105.7096,2.9337],[105.7059,2.9343],[105.7076,2.9393],[105.7045,2.9419],[105.708,2.9491],[105.7069,2.9526],[105.713,2.952],[105.7153,2.9587],[105.7148,2.9639],[105.711,2.9655],[105.7111,2.967],[105.7118,2.9692],[105.7193,2.9751],[105.7195,2.9834],[105.7247,2.9914],[105.7256,2.9921],[105.7312,2.9859],[105.7367,2.978]]]}},{"type":"Feature","properties":{"name":"Rewak","name_en":"Rewak","admin_level":"7","osm_id":""},"geometry":{"type":"Polygon","coordinates":[[[105.731,3.0252],[105.7126,3.0137],[105.7054,3.0193],[105.6975,3.017],[105.6974,3.0218],[105.6951,3.0255],[105.6957,3.0289],[105.6967,3.0304],[105.7002,3.0305],[105.702,3.0331],[105.7049,3.0309],[105.706,3.0359],[105.6973,3.044],[105.6941,3.0438],[105.6943,3.0452],[105.6974,3.0453],[105.6946,3.0533],[105.6917,3.0563],[105.6923,3.0606],[105.6948,3.0611],[105.6964,3.0639],[105.7057,3.0604],[105.7146,3.0462],[105.7154,3.0431],[105.7137,3.0412],[105.7163,3.0378],[105.7146,3.0363],[105.7156,3.0309],[105.7189,3.0334],[105.7188,3.0306],[105.7204,3.0301],[105.727,3.0362],[105.7266,3.046],[105.7304,3.0471],[105.7345,3.0453],[105.7358,3.0497],[105.7392,3.0504],[105.7388,3.0481],[105.7408,3.0458],[105.7355,3.0454],[105.7339,3.0397],[105.7391,3.0284],[105.7342,3.0251],[105.731,3.0252]]]}},{"type":"Feature","properties":{"name":"Sunggak","name_en":"Sunggak","admin_level":"7","osm_id":""},"geometry":{"type":"Polygon","coordinates":[[[105.6863,3.1176],[105.6878,3.1182],[105.6918,3.1139],[105.6927,3.1086],[105.6975,3.1059],[105.6958,3.1032],[105.6832,3.1074],[105.6806,3.1045],[105.676,3.1071],[105.6733,3.1143],[105.6738,3.118],[105.6789,3.1149],[105.6801,3.1163],[105.6845,3.1157],[105.6848,3.1185],[105.6863,3.1176]]]}}]}