{"type":"FeatureCollection","metadata":{"parent_osm_id":"9674153","parent_name":"Batu","parent_name_1":"JawaTimur","parent_gid":"IDN.11.3.1_1","parent_level":"6","child_level":"7","count":9,"source":"GADM 4.1","generated":"2026-05-07"},"features":[{"type":"Feature","properties":{"name":"Hutan","name_en":"Hutan","admin_level":"7","osm_id":""},"geometry":{"type":"Polygon","coordinates":[[[112.512,-7.8858],[112.5092,-7.8884],[112.5132,-7.8942],[112.5141,-7.9041],[112.5214,-7.9033],[112.5236,-7.9133],[112.5201,-7.9131],[112.5189,-7.9146],[112.5144,-7.9113],[112.5074,-7.9092],[112.505,-7.9161],[112.4974,-7.9155],[112.492,-7.9186],[112.4883,-7.9257],[112.4886,-7.9324],[112.4769,-7.9391],[112.4741,-7.9423],[112.4737,-7.9318],[112.4761,-7.9152],[112.4753,-7.9043],[112.4809,-7.8916],[112.4893,-7.8905],[112.4932,-7.8884],[112.4998,-7.892],[112.5032,-7.8877],[112.5034,-7.8793],[112.5059,-7.8771],[112.5112,-7.8792],[112.512,-7.8858]]]}},{"type":"Feature","properties":{"name":"Ngaglik","name_en":"Ngaglik","admin_level":"7","osm_id":""},"geometry":{"type":"Polygon","coordinates":[[[112.512,-7.8909],[112.5092,-7.8884],[112.5137,-7.8833],[112.5157,-7.8682],[112.5211,-7.868],[112.5178,-7.8629],[112.5206,-7.8625],[112.5247,-7.8669],[112.5256,-7.8711],[112.5243,-7.8766],[112.5225,-7.8763],[112.522,-7.8792],[112.5206,-7.8793],[112.5186,-7.8898],[112.512,-7.8909]]]}},{"type":"Feature","properties":{"name":"Oro-oroOmbo","name_en":"Oro-oroOmbo","admin_level":"7","osm_id":""},"geometry":{"type":"Polygon","coordinates":[[[112.5234,-7.9135],[112.524,-7.9106],[112.5223,-7.9094],[112.5214,-7.9033],[112.5141,-7.9041],[112.5134,-7.8961],[112.5234,-7.8942],[112.5264,-7.8912],[112.5345,-7.8878],[112.537,-7.8904],[112.5449,-7.8905],[112.5417,-7.8968],[112.5373,-7.8968],[112.5386,-7.9007],[112.5314,-7.9016],[112.5302,-7.903],[112.5316,-7.9087],[112.5308,-7.9146],[112.5234,-7.9135]]]}},{"type":"Feature","properties":{"name":"Pesanggrahan","name_en":"Pesanggrahan","admin_level":"7","osm_id":""},"geometry":{"type":"Polygon","coordinates":[[[112.512,-7.8858],[112.5112,-7.8792],[112.5062,-7.877],[112.5038,-7.8782],[112.504,-7.8854],[112.4998,-7.892],[112.4932,-7.8884],[112.4987,-7.8851],[112.501,-7.8758],[112.5087,-7.8663],[112.5103,-7.8662],[112.511,-7.8617],[112.5147,-7.8619],[112.5167,-7.8596],[112.5211,-7.868],[112.5157,-7.8682],[112.5142,-7.8815],[112.512,-7.8858]]]}},{"type":"Feature","properties":{"name":"Sidomulyo","name_en":"Sidomulyo","admin_level":"7","osm_id":""},"geometry":{"type":"Polygon","coordinates":[[[112.5327,-7.8665],[112.524,-7.8632],[112.525,-7.8609],[112.5227,-7.8594],[112.5231,-7.8566],[112.5188,-7.8517],[112.518,-7.8472],[112.5233,-7.8393],[112.5255,-7.8418],[112.5289,-7.8421],[112.5302,-7.8463],[112.5286,-7.8533],[112.532,-7.8584],[112.5303,-7.8607],[112.5309,-7.8639],[112.5333,-7.8622],[112.5327,-7.8665]]]}},{"type":"Feature","properties":{"name":"Sisir","name_en":"Sisir","admin_level":"7","osm_id":""},"geometry":{"type":"Polygon","coordinates":[[[112.5134,-7.8961],[112.512,-7.8909],[112.5186,-7.8898],[112.5206,-7.8793],[112.522,-7.8792],[112.5225,-7.8763],[112.5243,-7.8766],[112.5254,-7.8723],[112.5247,-7.8669],[112.5209,-7.8624],[112.5209,-7.8544],[112.5231,-7.8569],[112.5227,-7.8594],[112.525,-7.8609],[112.5244,-7.8636],[112.5329,-7.8666],[112.5326,-7.8684],[112.5366,-7.8677],[112.5363,-7.8696],[112.5329,-7.8704],[112.5331,-7.8753],[112.5367,-7.8787],[112.5256,-7.8829],[112.526,-7.8861],[112.5295,-7.8875],[112.5231,-7.888],[112.5234,-7.8942],[112.5134,-7.8961]]]}},{"type":"Feature","properties":{"name":"Songgokerto","name_en":"Songgokerto","admin_level":"7","osm_id":""},"geometry":{"type":"Polygon","coordinates":[[[112.4932,-7.8884],[112.4893,-7.8905],[112.4809,-7.8916],[112.4881,-7.8816],[112.4896,-7.8762],[112.4876,-7.8713],[112.4888,-7.861],[112.4868,-7.8583],[112.4904,-7.8596],[112.4951,-7.8544],[112.4946,-7.8521],[112.4967,-7.8521],[112.4993,-7.8601],[112.5036,-7.8589],[112.5045,-7.8611],[112.509,-7.8605],[112.511,-7.8619],[112.5103,-7.8662],[112.5087,-7.8663],[112.501,-7.8758],[112.4987,-7.8851],[112.4932,-7.8884]]]}},{"type":"Feature","properties":{"name":"Sumberejo","name_en":"Sumberejo","admin_level":"7","osm_id":""},"geometry":{"type":"Polygon","coordinates":[[[112.5215,-7.8632],[112.5173,-7.8628],[112.5167,-7.8596],[112.5121,-7.8625],[112.509,-7.8605],[112.5045,-7.8611],[112.5036,-7.8589],[112.4993,-7.8601],[112.4986,-7.8582],[112.5093,-7.8478],[112.5178,-7.8464],[112.5205,-7.8539],[112.5215,-7.8632]]]}},{"type":"Feature","properties":{"name":"Temas","name_en":"Temas","admin_level":"7","osm_id":""},"geometry":{"type":"Polygon","coordinates":[[[112.5428,-7.8905],[112.537,-7.8904],[112.5345,-7.8878],[112.5264,-7.8912],[112.5234,-7.8942],[112.5231,-7.888],[112.5295,-7.8875],[112.526,-7.8861],[112.5256,-7.8829],[112.5367,-7.8789],[112.5354,-7.8762],[112.5331,-7.8753],[112.5329,-7.87],[112.538,-7.8698],[112.5404,-7.8752],[112.5503,-7.8732],[112.5498,-7.8824],[112.5519,-7.8834],[112.5521,-7.8874],[112.549,-7.8865],[112.543,-7.8878],[112.5428,-7.8905]]]}}]}