{"type":"FeatureCollection","metadata":{"parent_osm_id":"9680042","parent_name":"Sedati","parent_name_1":"JawaTimur","parent_gid":"IDN.11.32.10_1","parent_level":"6","child_level":"7","count":16,"source":"GADM 4.1","generated":"2026-05-07"},"features":[{"type":"Feature","properties":{"name":"BanjarKemuning","name_en":"BanjarKemuning","admin_level":"7","osm_id":""},"geometry":{"type":"Polygon","coordinates":[[[112.8354,-7.3722],[112.837,-7.3725],[112.8372,-7.3756],[112.834,-7.3833],[112.8169,-7.3851],[112.8115,-7.3881],[112.8121,-7.3872],[112.8046,-7.386],[112.8055,-7.3803],[112.8,-7.3794],[112.801,-7.3736],[112.8081,-7.3729],[112.8107,-7.3741],[112.8128,-7.3712],[112.8354,-7.3722]]]}},{"type":"Feature","properties":{"name":"Betro","name_en":"Betro","admin_level":"7","osm_id":""},"geometry":{"type":"Polygon","coordinates":[[[112.7572,-7.3954],[112.7576,-7.3929],[112.7527,-7.3919],[112.7555,-7.384],[112.7588,-7.3844],[112.7586,-7.3859],[112.7626,-7.386],[112.7653,-7.3823],[112.7672,-7.374],[112.8055,-7.3803],[112.8046,-7.386],[112.7852,-7.383],[112.7844,-7.3864],[112.782,-7.386],[112.7804,-7.3912],[112.7754,-7.3947],[112.7755,-7.3927],[112.7715,-7.3926],[112.7704,-7.3949],[112.77,-7.3891],[112.7695,-7.3947],[112.7642,-7.3935],[112.7633,-7.3965],[112.7572,-7.3954]]]}},{"type":"Feature","properties":{"name":"Buncitan","name_en":"Buncitan","admin_level":"7","osm_id":""},"geometry":{"type":"Polygon","coordinates":[[[112.7748,-7.3951],[112.7828,-7.395],[112.7924,-7.3972],[112.7896,-7.4023],[112.7821,-7.3991],[112.7842,-7.4086],[112.7794,-7.4083],[112.7756,-7.4024],[112.776,-7.3954],[112.7748,-7.3951]]]}},{"type":"Feature","properties":{"name":"Cemandi","name_en":"Cemandi","admin_level":"7","osm_id":""},"geometry":{"type":"Polygon","coordinates":[[[112.7754,-7.3947],[112.7804,-7.3912],[112.782,-7.386],[112.7844,-7.3864],[112.785,-7.383],[112.7942,-7.3844],[112.793,-7.3876],[112.7956,-7.3881],[112.7948,-7.3935],[112.7997,-7.3942],[112.8015,-7.3908],[112.8069,-7.3913],[112.8072,-7.4022],[112.7944,-7.3968],[112.7754,-7.3947]]]}},{"type":"Feature","properties":{"name":"GisikCemandi","name_en":"GisikCemandi","admin_level":"7","osm_id":""},"geometry":{"type":"Polygon","coordinates":[[[112.8046,-7.386],[112.8122,-7.3875],[112.8078,-7.389],[112.8077,-7.3913],[112.8015,-7.3908],[112.8005,-7.394],[112.7946,-7.3933],[112.7956,-7.3881],[112.793,-7.3876],[112.7945,-7.3846],[112.8046,-7.386]]]}},{"type":"Feature","properties":{"name":"Kalanganyar","name_en":"Kalanganyar","admin_level":"7","osm_id":""},"geometry":{"type":"Polygon","coordinates":[[[112.7881,-7.4292],[112.7903,-7.428],[112.7916,-7.4222],[112.7871,-7.4177],[112.7888,-7.4145],[112.7874,-7.412],[112.7884,-7.4096],[112.7834,-7.4075],[112.7821,-7.3991],[112.7896,-7.4023],[112.7926,-7.3965],[112.7944,-7.3968],[112.8155,-7.4085],[112.8174,-7.4069],[112.8326,-7.405],[112.8328,-7.4264],[112.8376,-7.4706],[112.8347,-7.4764],[112.8255,-7.4733],[112.8188,-7.4733],[112.8172,-7.4663],[112.8187,-7.4625],[112.8178,-7.4566],[112.8129,-7.4525],[112.8086,-7.4429],[112.8021,-7.4361],[112.7965,-7.4362],[112.7942,-7.4393],[112.7903,-7.439],[112.7877,-7.434],[112.7881,-7.4292]]]}},{"type":"Feature","properties":{"name":"Kwangsan","name_en":"Kwangsan","admin_level":"7","osm_id":""},"geometry":{"type":"Polygon","coordinates":[[[112.7722,-7.4158],[112.765,-7.4143],[112.7644,-7.4106],[112.7599,-7.4104],[112.7597,-7.4074],[112.7538,-7.4066],[112.7572,-7.3954],[112.7633,-7.3965],[112.7622,-7.4034],[112.7634,-7.4035],[112.7636,-7.4085],[112.7763,-7.4106],[112.7755,-7.4144],[112.7722,-7.4158]]]}},{"type":"Feature","properties":{"name":"Pabean","name_en":"Pabean","admin_level":"7","osm_id":""},"geometry":{"type":"Polygon","coordinates":[[[112.745,-7.3716],[112.7455,-7.365],[112.7477,-7.3635],[112.7615,-7.3643],[112.7645,-7.3675],[112.7703,-7.3673],[112.7681,-7.374],[112.7634,-7.3733],[112.7617,-7.3702],[112.7526,-7.3694],[112.7492,-7.3732],[112.745,-7.3716]]]}},{"type":"Feature","properties":{"name":"Pepe","name_en":"Pepe","admin_level":"7","osm_id":""},"geometry":{"type":"Polygon","coordinates":[[[112.7896,-7.4197],[112.7848,-7.4215],[112.7723,-7.4188],[112.7722,-7.4152],[112.7755,-7.4144],[112.7763,-7.4106],[112.7636,-7.4085],[112.7634,-7.4035],[112.7622,-7.4034],[112.7642,-7.3935],[112.7671,-7.3942],[112.7676,-7.3959],[112.776,-7.3954],[112.7756,-7.4024],[112.7792,-7.4082],[112.7884,-7.4096],[112.7874,-7.412],[112.7888,-7.4145],[112.7871,-7.4176],[112.7896,-7.4197]]]}},{"type":"Feature","properties":{"name":"Pranti","name_en":"Pranti","admin_level":"7","osm_id":""},"geometry":{"type":"Polygon","coordinates":[[[112.781,-7.3763],[112.775,-7.3754],[112.7796,-7.3729],[112.781,-7.3659],[112.7935,-7.3684],[112.791,-7.3714],[112.7863,-7.3704],[112.7844,-7.3729],[112.7815,-7.3729],[112.781,-7.3763]]]}},{"type":"Feature","properties":{"name":"Pulungan","name_en":"Pulungan","admin_level":"7","osm_id":""},"geometry":{"type":"Polygon","coordinates":[[[112.7661,-7.394],[112.7695,-7.3947],[112.77,-7.3891],[112.7704,-7.3949],[112.7715,-7.3926],[112.7755,-7.3927],[112.7748,-7.3951],[112.7697,-7.3961],[112.7669,-7.3958],[112.7661,-7.394]]]}},{"type":"Feature","properties":{"name":"SedatiAgung","name_en":"SedatiAgung","admin_level":"7","osm_id":""},"geometry":{"type":"Polygon","coordinates":[[[112.745,-7.3717],[112.7536,-7.375],[112.7583,-7.3794],[112.7656,-7.3802],[112.7653,-7.3823],[112.7626,-7.386],[112.7586,-7.3859],[112.7588,-7.3844],[112.756,-7.3843],[112.7557,-7.383],[112.7506,-7.3826],[112.7504,-7.3785],[112.7472,-7.3777],[112.7481,-7.3736],[112.7445,-7.3737],[112.745,-7.3717]]]}},{"type":"Feature","properties":{"name":"SedatiGede","name_en":"SedatiGede","admin_level":"7","osm_id":""},"geometry":{"type":"Polygon","coordinates":[[[112.7671,-7.3742],[112.7656,-7.3802],[112.7583,-7.3794],[112.7536,-7.375],[112.7488,-7.3739],[112.7529,-7.3693],[112.7621,-7.3703],[112.7634,-7.3733],[112.7671,-7.3742]]]}},{"type":"Feature","properties":{"name":"SegoroTambak","name_en":"SegoroTambak","admin_level":"7","osm_id":""},"geometry":{"type":"Polygon","coordinates":[[[112.8354,-7.3722],[112.8128,-7.3712],[112.8107,-7.3741],[112.8081,-7.3729],[112.801,-7.3736],[112.8,-7.3794],[112.781,-7.3763],[112.7815,-7.3729],[112.7844,-7.3729],[112.7863,-7.3704],[112.791,-7.3714],[112.7986,-7.3653],[112.8025,-7.3644],[112.8094,-7.3663],[112.8147,-7.3641],[112.8159,-7.3626],[112.8149,-7.3593],[112.8169,-7.3578],[112.8237,-7.361],[112.8274,-7.3528],[112.8269,-7.3455],[112.83,-7.3383],[112.8327,-7.3343],[112.8391,-7.3303],[112.8421,-7.3321],[112.8427,-7.3385],[112.838,-7.3699],[112.8354,-7.3722]]]}},{"type":"Feature","properties":{"name":"Semampir","name_en":"Semampir","admin_level":"7","osm_id":""},"geometry":{"type":"Polygon","coordinates":[[[112.775,-7.3754],[112.7681,-7.374],[112.7711,-7.3652],[112.7767,-7.3643],[112.781,-7.3659],[112.7796,-7.3729],[112.775,-7.3754]]]}},{"type":"Feature","properties":{"name":"TambakCemandi","name_en":"TambakCemandi","admin_level":"7","osm_id":""},"geometry":{"type":"Polygon","coordinates":[[[112.8115,-7.3881],[112.8174,-7.3851],[112.8331,-7.3834],[112.8358,-7.3847],[112.8367,-7.3883],[112.8332,-7.4047],[112.8174,-7.4069],[112.8155,-7.4085],[112.8073,-7.404],[112.8055,-7.4023],[112.8069,-7.403],[112.8075,-7.4005],[112.8069,-7.3913],[112.8083,-7.3886],[112.8115,-7.3881]]]}}]}