{"type":"FeatureCollection","metadata":{"parent_osm_id":"9680036","parent_name":"Tarik","parent_name_1":"JawaTimur","parent_gid":"IDN.11.32.15_1","parent_level":"6","child_level":"7","count":20,"source":"GADM 4.1","generated":"2026-05-07"},"features":[{"type":"Feature","properties":{"name":"Balongmacekan","name_en":"Balongmacekan","admin_level":"7","osm_id":""},"geometry":{"type":"Polygon","coordinates":[[[112.4992,-7.4501],[112.5002,-7.4448],[112.5212,-7.4476],[112.5181,-7.4542],[112.5147,-7.451],[112.5141,-7.4527],[112.5081,-7.4505],[112.5077,-7.4524],[112.4992,-7.4501]]]}},{"type":"Feature","properties":{"name":"Banjarwungu","name_en":"Banjarwungu","admin_level":"7","osm_id":""},"geometry":{"type":"Polygon","coordinates":[[[112.5432,-7.4421],[112.543,-7.4503],[112.539,-7.4546],[112.5326,-7.4542],[112.5296,-7.4519],[112.5305,-7.4431],[112.5336,-7.4425],[112.5343,-7.4386],[112.5375,-7.4382],[112.5393,-7.4411],[112.5432,-7.4421]]]}},{"type":"Feature","properties":{"name":"Gampingrowo","name_en":"Gampingrowo","admin_level":"7","osm_id":""},"geometry":{"type":"Polygon","coordinates":[[[112.5013,-7.445],[112.4987,-7.4477],[112.499,-7.4505],[112.4885,-7.4491],[112.488,-7.4414],[112.49,-7.4343],[112.4927,-7.4399],[112.5014,-7.441],[112.5013,-7.445]]]}},{"type":"Feature","properties":{"name":"Gempolklutuk","name_en":"Gempolklutuk","admin_level":"7","osm_id":""},"geometry":{"type":"Polygon","coordinates":[[[112.5549,-7.4452],[112.5595,-7.4469],[112.5572,-7.4528],[112.5493,-7.4514],[112.5473,-7.4483],[112.5426,-7.4489],[112.5432,-7.4421],[112.5549,-7.4452]]]}},{"type":"Feature","properties":{"name":"Janti","name_en":"Janti","admin_level":"7","osm_id":""},"geometry":{"type":"Polygon","coordinates":[[[112.519,-7.4245],[112.5239,-7.4255],[112.5254,-7.4275],[112.5227,-7.4395],[112.5194,-7.438],[112.5093,-7.4391],[112.5113,-7.4261],[112.519,-7.4245]]]}},{"type":"Feature","properties":{"name":"Kalimati","name_en":"Kalimati","admin_level":"7","osm_id":""},"geometry":{"type":"Polygon","coordinates":[[[112.5572,-7.4527],[112.5604,-7.4522],[112.5614,-7.4504],[112.5627,-7.4515],[112.565,-7.4507],[112.5651,-7.452],[112.562,-7.4532],[112.5607,-7.458],[112.5588,-7.4576],[112.5571,-7.4598],[112.5451,-7.4579],[112.5446,-7.4564],[112.5386,-7.4546],[112.545,-7.4479],[112.5481,-7.4486],[112.5493,-7.4514],[112.5572,-7.4527]]]}},{"type":"Feature","properties":{"name":"Kedinding","name_en":"Kedinding","admin_level":"7","osm_id":""},"geometry":{"type":"Polygon","coordinates":[[[112.542,-7.4312],[112.5433,-7.4303],[112.5454,-7.4326],[112.5508,-7.4318],[112.5513,-7.4365],[112.5576,-7.4376],[112.5546,-7.4458],[112.5406,-7.4416],[112.542,-7.4312]]]}},{"type":"Feature","properties":{"name":"Kedungbocok","name_en":"Kedungbocok","admin_level":"7","osm_id":""},"geometry":{"type":"Polygon","coordinates":[[[112.5055,-7.4625],[112.4886,-7.4599],[112.479,-7.4532],[112.4826,-7.4483],[112.4884,-7.4479],[112.4885,-7.4491],[112.4981,-7.4502],[112.4969,-7.4553],[112.5061,-7.4584],[112.5055,-7.4625]]]}},{"type":"Feature","properties":{"name":"Kemuning","name_en":"Kemuning","admin_level":"7","osm_id":""},"geometry":{"type":"Polygon","coordinates":[[[112.5197,-7.4512],[112.5211,-7.4474],[112.5089,-7.4461],[112.5102,-7.4392],[112.5343,-7.4386],[112.5336,-7.4425],[112.5305,-7.4431],[112.5296,-7.4519],[112.5283,-7.451],[112.5273,-7.4529],[112.5197,-7.4512]]]}},{"type":"Feature","properties":{"name":"Kendalsewu","name_en":"Kendalsewu","admin_level":"7","osm_id":""},"geometry":{"type":"Polygon","coordinates":[[[112.5427,-7.4665],[112.5382,-7.467],[112.5354,-7.4644],[112.536,-7.4593],[112.5389,-7.4596],[112.5386,-7.4546],[112.5452,-7.457],[112.5435,-7.4609],[112.5451,-7.4645],[112.5427,-7.4646],[112.5427,-7.4665]]]}},{"type":"Feature","properties":{"name":"Klantingsari","name_en":"Klantingsari","admin_level":"7","osm_id":""},"geometry":{"type":"Polygon","coordinates":[[[112.5598,-7.4629],[112.5568,-7.4636],[112.5539,-7.4675],[112.5495,-7.4668],[112.5493,-7.4687],[112.5423,-7.4686],[112.5427,-7.4646],[112.5451,-7.4645],[112.5435,-7.4609],[112.545,-7.4578],[112.5553,-7.4598],[112.5607,-7.458],[112.5598,-7.4629]]]}},{"type":"Feature","properties":{"name":"KramatTemenggung","name_en":"KramatTemenggung","admin_level":"7","osm_id":""},"geometry":{"type":"Polygon","coordinates":[[[112.4597,-7.4389],[112.4634,-7.4316],[112.4716,-7.4301],[112.4719,-7.4313],[112.4779,-7.431],[112.4774,-7.4362],[112.4693,-7.4348],[112.4637,-7.4391],[112.4597,-7.4389]]]}},{"type":"Feature","properties":{"name":"Mergobener","name_en":"Mergobener","admin_level":"7","osm_id":""},"geometry":{"type":"Polygon","coordinates":[[[112.5282,-7.4692],[112.5199,-7.4675],[112.5209,-7.4618],[112.5275,-7.4624],[112.5313,-7.4598],[112.5308,-7.4623],[112.5322,-7.4638],[112.5375,-7.4652],[112.5377,-7.4707],[112.5341,-7.4712],[112.5282,-7.4692]]]}},{"type":"Feature","properties":{"name":"Mergosari","name_en":"Mergosari","admin_level":"7","osm_id":""},"geometry":{"type":"Polygon","coordinates":[[[112.5296,-7.4519],[112.5326,-7.4542],[112.5386,-7.4546],[112.5389,-7.4596],[112.536,-7.4593],[112.5354,-7.4644],[112.5308,-7.4623],[112.5313,-7.4598],[112.5275,-7.4624],[112.5209,-7.4618],[112.5209,-7.4584],[112.5261,-7.4548],[112.5283,-7.451],[112.5296,-7.4519]]]}},{"type":"Feature","properties":{"name":"Mindugading","name_en":"Mindugading","admin_level":"7","osm_id":""},"geometry":{"type":"Polygon","coordinates":[[[112.4912,-7.4339],[112.4919,-7.4301],[112.494,-7.4304],[112.4935,-7.4336],[112.5006,-7.4334],[112.5032,-7.4356],[112.503,-7.4377],[112.5102,-7.4392],[112.5089,-7.4461],[112.5013,-7.445],[112.5014,-7.441],[112.4927,-7.4399],[112.4912,-7.4339]]]}},{"type":"Feature","properties":{"name":"Mliriprowo","name_en":"Mliriprowo","admin_level":"7","osm_id":""},"geometry":{"type":"Polygon","coordinates":[[[112.4593,-7.4407],[112.4597,-7.4389],[112.4637,-7.4391],[112.4693,-7.4348],[112.4726,-7.4361],[112.4709,-7.4431],[112.4825,-7.4442],[112.4826,-7.4492],[112.4812,-7.4489],[112.479,-7.4532],[112.4686,-7.4453],[112.4567,-7.447],[112.4593,-7.4407]]]}},{"type":"Feature","properties":{"name":"Sebani","name_en":"Sebani","admin_level":"7","osm_id":""},"geometry":{"type":"Polygon","coordinates":[[[112.4842,-7.4311],[112.4912,-7.4339],[112.488,-7.4414],[112.4886,-7.4477],[112.4826,-7.4483],[112.4825,-7.4442],[112.4709,-7.4431],[112.4726,-7.4361],[112.4774,-7.4362],[112.4779,-7.4311],[112.4842,-7.4311]]]}},{"type":"Feature","properties":{"name":"Segodobancang","name_en":"Segodobancang","admin_level":"7","osm_id":""},"geometry":{"type":"Polygon","coordinates":[[[112.5323,-7.4303],[112.542,-7.4312],[112.5406,-7.4416],[112.5375,-7.4382],[112.5227,-7.4395],[112.5254,-7.4275],[112.5323,-7.4303]]]}},{"type":"Feature","properties":{"name":"Singogalih","name_en":"Singogalih","admin_level":"7","osm_id":""},"geometry":{"type":"Polygon","coordinates":[[[112.5124,-7.4669],[112.5055,-7.4625],[112.5061,-7.4584],[112.4969,-7.4553],[112.498,-7.4505],[112.5077,-7.4524],[112.5081,-7.4505],[112.5141,-7.4527],[112.5124,-7.4669]]]}},{"type":"Feature","properties":{"name":"Tarik","name_en":"Tarik","admin_level":"7","osm_id":""},"geometry":{"type":"Polygon","coordinates":[[[112.5199,-7.4675],[112.5124,-7.4669],[112.5147,-7.451],[112.5179,-7.4542],[112.5197,-7.4512],[112.5273,-7.4529],[112.5209,-7.4584],[112.5199,-7.4675]]]}}]}