{"type":"FeatureCollection","metadata":{"parent_osm_id":"9680037","parent_name":"Prambon","parent_name_1":"JawaTimur","parent_gid":"IDN.11.24.15_1","parent_level":"6","child_level":"7","count":14,"source":"GADM 4.1","generated":"2026-05-07"},"features":[{"type":"Feature","properties":{"name":"Baleturi","name_en":"Baleturi","admin_level":"7","osm_id":""},"geometry":{"type":"Polygon","coordinates":[[[112.0052,-7.7246],[111.9963,-7.7215],[111.9942,-7.7199],[111.9943,-7.7171],[111.9911,-7.7159],[111.9905,-7.7001],[112.0042,-7.7021],[112.0044,-7.7038],[112.0066,-7.7045],[112.0036,-7.7052],[112.0048,-7.7072],[112.007,-7.7071],[112.0054,-7.7164],[112.0079,-7.7185],[112.0092,-7.7165],[112.0114,-7.7172],[112.0163,-7.7222],[112.0155,-7.7238],[112.0132,-7.7233],[112.0127,-7.7266],[112.0094,-7.7275],[112.0052,-7.7246]]]}},{"type":"Feature","properties":{"name":"Bandung","name_en":"Bandung","admin_level":"7","osm_id":""},"geometry":{"type":"Polygon","coordinates":[[[111.998,-7.7374],[111.9974,-7.7291],[111.9933,-7.7284],[111.9881,-7.7237],[111.9885,-7.7185],[111.9905,-7.7185],[111.9911,-7.7159],[111.9943,-7.7171],[111.9942,-7.7199],[111.9963,-7.7215],[112.0052,-7.7246],[112.0027,-7.7308],[112.0075,-7.7337],[112.0066,-7.7353],[112.0017,-7.7351],[112.0017,-7.7375],[111.998,-7.7374]]]}},{"type":"Feature","properties":{"name":"Gondanglegi","name_en":"Gondanglegi","admin_level":"7","osm_id":""},"geometry":{"type":"Polygon","coordinates":[[[112.0223,-7.7619],[112.0198,-7.7631],[112.0099,-7.7607],[112.0085,-7.7576],[112.0048,-7.7555],[112.005,-7.7525],[112.0021,-7.75],[112.0011,-7.745],[112.006,-7.7429],[112.0074,-7.7401],[112.0206,-7.7425],[112.0223,-7.7619]]]}},{"type":"Feature","properties":{"name":"Kurungrejo","name_en":"Kurungrejo","admin_level":"7","osm_id":""},"geometry":{"type":"Polygon","coordinates":[[[112.0379,-7.6602],[112.0386,-7.662],[112.035,-7.6666],[112.0303,-7.668],[112.0244,-7.6657],[112.0233,-7.668],[112.0152,-7.6691],[112.012,-7.656],[112.0123,-7.6548],[112.0299,-7.6572],[112.0379,-7.6602]]]}},{"type":"Feature","properties":{"name":"MojoAgung","name_en":"MojoAgung","admin_level":"7","osm_id":""},"geometry":{"type":"Polygon","coordinates":[[[112.0011,-7.745],[111.9982,-7.7429],[111.9993,-7.7417],[111.998,-7.7374],[112.0017,-7.7375],[112.0017,-7.7351],[112.0066,-7.7353],[112.0075,-7.7337],[112.0027,-7.7308],[112.0047,-7.7248],[112.0086,-7.7274],[112.0127,-7.7266],[112.014,-7.7278],[112.0127,-7.7286],[112.0103,-7.7405],[112.0074,-7.7401],[112.006,-7.7429],[112.0011,-7.745]]]}},{"type":"Feature","properties":{"name":"Nglawak","name_en":"Nglawak","admin_level":"7","osm_id":""},"geometry":{"type":"Polygon","coordinates":[[[111.9885,-7.7185],[111.9873,-7.7148],[111.9843,-7.7114],[111.9823,-7.7113],[111.9835,-7.7083],[111.9811,-7.7042],[111.9827,-7.699],[111.9905,-7.7001],[111.9917,-7.7153],[111.9905,-7.7185],[111.9885,-7.7185]]]}},{"type":"Feature","properties":{"name":"Rowoharjo","name_en":"Rowoharjo","admin_level":"7","osm_id":""},"geometry":{"type":"Polygon","coordinates":[[[111.9827,-7.699],[111.983,-7.6871],[111.978,-7.678],[111.9788,-7.6742],[111.9837,-7.6739],[111.9893,-7.675],[111.9883,-7.6784],[111.9894,-7.6806],[111.9878,-7.6824],[111.9894,-7.6886],[111.9912,-7.6887],[111.9914,-7.6911],[111.9898,-7.692],[111.9961,-7.6956],[111.9961,-7.6971],[111.9984,-7.6971],[111.9988,-7.6997],[112.0016,-7.6989],[112.0026,-7.7021],[111.9827,-7.699]]]}},{"type":"Feature","properties":{"name":"Sanggrahan","name_en":"Sanggrahan","admin_level":"7","osm_id":""},"geometry":{"type":"Polygon","coordinates":[[[112.0251,-7.706],[112.0266,-7.7065],[112.0241,-7.7088],[112.0243,-7.7124],[112.0177,-7.7131],[112.0136,-7.7107],[112.014,-7.7085],[112.0036,-7.7062],[112.0066,-7.7045],[112.0036,-7.7019],[112.0065,-7.6988],[112.009,-7.699],[112.0111,-7.6998],[112.0106,-7.7029],[112.0149,-7.7058],[112.0251,-7.706]]]}},{"type":"Feature","properties":{"name":"SingkalAnyar","name_en":"SingkalAnyar","admin_level":"7","osm_id":""},"geometry":{"type":"Polygon","coordinates":[[[112.0251,-7.7318],[112.0206,-7.7425],[112.0094,-7.741],[112.014,-7.7278],[112.022,-7.7283],[112.0251,-7.7318]]]}},{"type":"Feature","properties":{"name":"SonoAgeng","name_en":"SonoAgeng","admin_level":"7","osm_id":""},"geometry":{"type":"Polygon","coordinates":[[[112.025,-7.6837],[112.0175,-7.6865],[112.0121,-7.6854],[112.013,-7.6816],[112.0067,-7.6792],[112.0064,-7.6772],[112.0033,-7.675],[112.0028,-7.6707],[111.9996,-7.6682],[112.0016,-7.662],[112.0127,-7.6604],[112.0152,-7.6691],[112.0233,-7.668],[112.0244,-7.6657],[112.0303,-7.668],[112.025,-7.6837]]]}},{"type":"Feature","properties":{"name":"Sugihwaras","name_en":"Sugihwaras","admin_level":"7","osm_id":""},"geometry":{"type":"Polygon","coordinates":[[[112.0037,-7.7021],[112.0016,-7.6989],[111.9988,-7.6997],[111.9984,-7.6971],[111.9961,-7.6971],[111.9961,-7.6956],[111.9898,-7.692],[111.9914,-7.6911],[111.9912,-7.6887],[111.9894,-7.6886],[111.9878,-7.6824],[111.9894,-7.6806],[111.9885,-7.6763],[111.9926,-7.6714],[111.9932,-7.6677],[111.9967,-7.6664],[111.9994,-7.6664],[112.0028,-7.6707],[112.0033,-7.675],[112.0064,-7.6772],[112.0067,-7.6792],[112.013,-7.6816],[112.0121,-7.6854],[112.0091,-7.6861],[112.0046,-7.6952],[112.0044,-7.697],[112.007,-7.6982],[112.0037,-7.7021]]]}},{"type":"Feature","properties":{"name":"TanjungTani","name_en":"TanjungTani","admin_level":"7","osm_id":""},"geometry":{"type":"Polygon","coordinates":[[[112.0348,-7.7255],[112.0194,-7.7266],[112.0196,-7.7222],[112.0229,-7.7225],[112.0227,-7.7182],[112.0193,-7.7171],[112.0186,-7.7145],[112.0151,-7.7133],[112.0114,-7.7145],[112.0117,-7.7123],[112.0068,-7.7116],[112.007,-7.708],[112.014,-7.7085],[112.0136,-7.7107],[112.0205,-7.7134],[112.0243,-7.7124],[112.0241,-7.7088],[112.0266,-7.7065],[112.0303,-7.7077],[112.0288,-7.7129],[112.0303,-7.7136],[112.0298,-7.7164],[112.0317,-7.7175],[112.0319,-7.7205],[112.0358,-7.721],[112.0348,-7.7255]]]}},{"type":"Feature","properties":{"name":"Tegaron","name_en":"Tegaron","admin_level":"7","osm_id":""},"geometry":{"type":"Polygon","coordinates":[[[112.0264,-7.7268],[112.0254,-7.7312],[112.0212,-7.728],[112.0186,-7.7289],[112.0127,-7.7274],[112.0132,-7.7233],[112.0155,-7.7238],[112.0163,-7.7222],[112.0155,-7.7201],[112.0102,-7.7167],[112.0079,-7.7185],[112.0064,-7.7177],[112.0054,-7.7164],[112.0068,-7.7116],[112.0117,-7.7123],[112.0114,-7.7145],[112.0151,-7.7133],[112.0186,-7.7145],[112.0193,-7.7171],[112.0227,-7.7182],[112.0228,-7.7197],[112.0229,-7.7225],[112.0196,-7.7222],[112.0194,-7.7266],[112.0264,-7.7268]]]}},{"type":"Feature","properties":{"name":"WatuDandang","name_en":"WatuDandang","admin_level":"7","osm_id":""},"geometry":{"type":"Polygon","coordinates":[[[112.0201,-7.6859],[112.0253,-7.688],[112.0249,-7.6907],[112.0272,-7.6913],[112.0264,-7.705],[112.0251,-7.706],[112.0149,-7.7058],[112.0106,-7.7029],[112.0111,-7.6998],[112.0044,-7.697],[112.0091,-7.6861],[112.0107,-7.685],[112.0201,-7.6859]]]}}]}