{"type":"FeatureCollection","metadata":{"parent_osm_id":"9680039","parent_name":"Tulangan","parent_name_1":"JawaTimur","parent_gid":"IDN.11.32.16_1","parent_level":"6","child_level":"7","count":22,"source":"GADM 4.1","generated":"2026-05-07"},"features":[{"type":"Feature","properties":{"name":"Gelang","name_en":"Gelang","admin_level":"7","osm_id":""},"geometry":{"type":"Polygon","coordinates":[[[112.6445,-7.5024],[112.646,-7.4995],[112.6414,-7.4982],[112.6433,-7.4934],[112.6452,-7.4945],[112.6474,-7.4922],[112.6507,-7.4922],[112.6517,-7.4893],[112.6541,-7.4888],[112.6541,-7.4943],[112.6598,-7.4971],[112.6565,-7.5038],[112.6525,-7.5053],[112.6445,-7.5024]]]}},{"type":"Feature","properties":{"name":"Grabagan","name_en":"Grabagan","admin_level":"7","osm_id":""},"geometry":{"type":"Polygon","coordinates":[[[112.6163,-7.4539],[112.6114,-7.4499],[112.6122,-7.4488],[112.616,-7.4487],[112.6217,-7.445],[112.6245,-7.4466],[112.6299,-7.4424],[112.6325,-7.4439],[112.6317,-7.4521],[112.6279,-7.4604],[112.6255,-7.4594],[112.6249,-7.4555],[112.6163,-7.4539]]]}},{"type":"Feature","properties":{"name":"Grinting","name_en":"Grinting","admin_level":"7","osm_id":""},"geometry":{"type":"Polygon","coordinates":[[[112.6483,-7.4646],[112.6456,-7.4664],[112.6349,-7.4629],[112.6375,-7.4536],[112.6413,-7.4521],[112.6439,-7.453],[112.6455,-7.4618],[112.6483,-7.4631],[112.6483,-7.4646]]]}},{"type":"Feature","properties":{"name":"Grogol","name_en":"Grogol","admin_level":"7","osm_id":""},"geometry":{"type":"Polygon","coordinates":[[[112.6608,-7.4554],[112.6602,-7.4597],[112.6656,-7.4628],[112.6638,-7.4672],[112.6584,-7.4687],[112.6537,-7.4649],[112.6543,-7.4613],[112.6521,-7.461],[112.6519,-7.4547],[112.6608,-7.4554]]]}},{"type":"Feature","properties":{"name":"Janti","name_en":"Janti","admin_level":"7","osm_id":""},"geometry":{"type":"Polygon","coordinates":[[[112.621,-7.4848],[112.613,-7.4808],[112.6148,-7.4753],[112.6295,-7.4775],[112.6247,-7.4848],[112.621,-7.4848]]]}},{"type":"Feature","properties":{"name":"Jiken","name_en":"Jiken","admin_level":"7","osm_id":""},"geometry":{"type":"Polygon","coordinates":[[[112.6546,-7.51],[112.6522,-7.5058],[112.656,-7.5046],[112.6598,-7.4971],[112.6687,-7.5004],[112.6698,-7.5078],[112.6619,-7.5059],[112.6605,-7.5088],[112.6558,-7.5073],[112.6546,-7.51]]]}},{"type":"Feature","properties":{"name":"Kajeksan","name_en":"Kajeksan","admin_level":"7","osm_id":""},"geometry":{"type":"Polygon","coordinates":[[[112.6204,-7.4692],[112.6207,-7.4659],[112.623,-7.4663],[112.6241,-7.4639],[112.6308,-7.4674],[112.6341,-7.4619],[112.6353,-7.4664],[112.6378,-7.4672],[112.6373,-7.4722],[112.6342,-7.4733],[112.6204,-7.4692]]]}},{"type":"Feature","properties":{"name":"Kebaron","name_en":"Kebaron","admin_level":"7","osm_id":""},"geometry":{"type":"Polygon","coordinates":[[[112.62,-7.4896],[112.621,-7.4848],[112.6247,-7.4848],[112.6294,-7.4792],[112.6373,-7.4819],[112.637,-7.4832],[112.64,-7.4858],[112.6377,-7.4913],[112.6333,-7.4903],[112.632,-7.493],[112.63,-7.4935],[112.63,-7.4922],[112.62,-7.4896]]]}},{"type":"Feature","properties":{"name":"Kedondong","name_en":"Kedondong","admin_level":"7","osm_id":""},"geometry":{"type":"Polygon","coordinates":[[[112.678,-7.4738],[112.6825,-7.4777],[112.6841,-7.4828],[112.6827,-7.4857],[112.6702,-7.4799],[112.6716,-7.4726],[112.678,-7.4738]]]}},{"type":"Feature","properties":{"name":"Kemantren","name_en":"Kemantren","admin_level":"7","osm_id":""},"geometry":{"type":"Polygon","coordinates":[[[112.6349,-7.4629],[112.6456,-7.4664],[112.6483,-7.4646],[112.6539,-7.4651],[112.6584,-7.4685],[112.6491,-7.4722],[112.649,-7.4753],[112.6466,-7.4748],[112.6421,-7.469],[112.6366,-7.4658],[112.6353,-7.4664],[112.6349,-7.4629]]]}},{"type":"Feature","properties":{"name":"Kenongo","name_en":"Kenongo","admin_level":"7","osm_id":""},"geometry":{"type":"Polygon","coordinates":[[[112.6424,-7.4947],[112.639,-7.4937],[112.6396,-7.4919],[112.6377,-7.4913],[112.64,-7.4858],[112.6414,-7.4868],[112.6424,-7.4839],[112.6467,-7.4831],[112.6474,-7.4804],[112.6544,-7.4849],[112.6546,-7.4888],[112.6517,-7.4893],[112.6507,-7.4922],[112.6474,-7.4922],[112.6452,-7.4945],[112.6433,-7.4934],[112.6424,-7.4947]]]}},{"type":"Feature","properties":{"name":"Kepadangan","name_en":"Kepadangan","admin_level":"7","osm_id":""},"geometry":{"type":"Polygon","coordinates":[[[112.6294,-7.4792],[112.6297,-7.472],[112.6473,-7.4805],[112.6467,-7.4831],[112.6424,-7.4839],[112.6414,-7.4868],[112.637,-7.4832],[112.6373,-7.4819],[112.6294,-7.4792]]]}},{"type":"Feature","properties":{"name":"Kepatihan","name_en":"Kepatihan","admin_level":"7","osm_id":""},"geometry":{"type":"Polygon","coordinates":[[[112.6628,-7.4784],[112.6612,-7.4837],[112.6641,-7.4845],[112.6629,-7.489],[112.6604,-7.4885],[112.66,-7.4899],[112.661,-7.4939],[112.6624,-7.4932],[112.6615,-7.4975],[112.6541,-7.4943],[112.6546,-7.4853],[112.6524,-7.4835],[112.654,-7.4791],[112.6614,-7.477],[112.6628,-7.4784]]]}},{"type":"Feature","properties":{"name":"KepuhKemiri","name_en":"KepuhKemiri","admin_level":"7","osm_id":""},"geometry":{"type":"Polygon","coordinates":[[[112.6279,-7.4604],[112.6328,-7.4472],[112.6365,-7.4492],[112.6407,-7.4489],[112.6473,-7.4511],[112.6445,-7.4529],[112.6413,-7.4521],[112.6375,-7.4536],[112.6349,-7.4629],[112.6279,-7.4604]]]}},{"type":"Feature","properties":{"name":"Kepunten","name_en":"Kepunten","admin_level":"7","osm_id":""},"geometry":{"type":"Polygon","coordinates":[[[112.621,-7.4659],[112.6213,-7.4626],[112.614,-7.4584],[112.6136,-7.4547],[112.6171,-7.4538],[112.6203,-7.4555],[112.6244,-7.4553],[112.6257,-7.4597],[112.6341,-7.4619],[112.6308,-7.4674],[112.6241,-7.4639],[112.623,-7.4663],[112.621,-7.4659]]]}},{"type":"Feature","properties":{"name":"Medalem","name_en":"Medalem","admin_level":"7","osm_id":""},"geometry":{"type":"Polygon","coordinates":[[[112.6648,-7.4788],[112.6614,-7.477],[112.6602,-7.4783],[112.6569,-7.4778],[112.6573,-7.4744],[112.6548,-7.4737],[112.6557,-7.4701],[112.6612,-7.4684],[112.6637,-7.4705],[112.6648,-7.4788]]]}},{"type":"Feature","properties":{"name":"Modong","name_en":"Modong","admin_level":"7","osm_id":""},"geometry":{"type":"Polygon","coordinates":[[[112.6483,-7.4646],[112.6483,-7.4631],[112.6455,-7.4618],[112.6439,-7.453],[112.6473,-7.4516],[112.6521,-7.4537],[112.6521,-7.461],[112.6543,-7.4613],[112.6539,-7.4651],[112.6483,-7.4646]]]}},{"type":"Feature","properties":{"name":"Pangkemiri","name_en":"Pangkemiri","admin_level":"7","osm_id":""},"geometry":{"type":"Polygon","coordinates":[[[112.6641,-7.4845],[112.6677,-7.4839],[112.6674,-7.4911],[112.6693,-7.4905],[112.6726,-7.4927],[112.6709,-7.4984],[112.6691,-7.4977],[112.6678,-7.5008],[112.6615,-7.4975],[112.6624,-7.4932],[112.661,-7.4939],[112.66,-7.4912],[112.6604,-7.4885],[112.6629,-7.489],[112.6641,-7.4845]]]}},{"type":"Feature","properties":{"name":"Singopadu","name_en":"Singopadu","admin_level":"7","osm_id":""},"geometry":{"type":"Polygon","coordinates":[[[112.6342,-7.4733],[112.6373,-7.4722],[112.6378,-7.4672],[112.6421,-7.469],[112.6432,-7.4719],[112.6472,-7.4749],[112.6451,-7.4788],[112.6342,-7.4733]]]}},{"type":"Feature","properties":{"name":"Sudimoro","name_en":"Sudimoro","admin_level":"7","osm_id":""},"geometry":{"type":"Polygon","coordinates":[[[112.6638,-7.4672],[112.6699,-7.4676],[112.6728,-7.4703],[112.6702,-7.4799],[112.6649,-7.4793],[112.6638,-7.4706],[112.6612,-7.4684],[112.6638,-7.4672]]]}},{"type":"Feature","properties":{"name":"Tlasih","name_en":"Tlasih","admin_level":"7","osm_id":""},"geometry":{"type":"Polygon","coordinates":[[[112.6144,-7.4715],[112.6153,-7.4673],[112.6296,-7.472],[112.6295,-7.4775],[112.6148,-7.4753],[112.6144,-7.4715]]]}},{"type":"Feature","properties":{"name":"Tulangan","name_en":"Tulangan","admin_level":"7","osm_id":""},"geometry":{"type":"Polygon","coordinates":[[[112.6472,-7.4749],[112.649,-7.4753],[112.6491,-7.4722],[112.6543,-7.4701],[112.6557,-7.4701],[112.6548,-7.4737],[112.6573,-7.4745],[112.6569,-7.4778],[112.654,-7.4791],[112.6524,-7.4835],[112.645,-7.4789],[112.6472,-7.4749]]]}}]}