{"type":"FeatureCollection","metadata":{"parent_osm_id":"9686826","parent_name":"Pekalongan","parent_name_1":"Lampung","parent_gid":"IDN.17.5.17_1","parent_level":"6","child_level":"7","count":10,"source":"GADM 4.1","generated":"2026-05-07"},"features":[{"type":"Feature","properties":{"name":"Adirejo","name_en":"Adirejo","admin_level":"7","osm_id":""},"geometry":{"type":"Polygon","coordinates":[[[105.3626,-5.0985],[105.3644,-5.1058],[105.3491,-5.1073],[105.3473,-5.1013],[105.3409,-5.0965],[105.3361,-5.0952],[105.337,-5.0935],[105.3334,-5.0929],[105.3321,-5.0909],[105.3336,-5.0884],[105.3442,-5.0822],[105.3475,-5.0874],[105.3457,-5.0943],[105.3468,-5.0928],[105.3484,-5.0958],[105.3517,-5.0942],[105.3526,-5.0975],[105.3626,-5.0985]]]}},{"type":"Feature","properties":{"name":"GantiWarno","name_en":"GantiWarno","admin_level":"7","osm_id":""},"geometry":{"type":"Polygon","coordinates":[[[105.3764,-5.0288],[105.3779,-5.0385],[105.391,-5.0399],[105.3916,-5.0412],[105.3937,-5.0391],[105.3934,-5.0358],[105.398,-5.0366],[105.3971,-5.0402],[105.3901,-5.0469],[105.3868,-5.0537],[105.3797,-5.0564],[105.3723,-5.0565],[105.3715,-5.0588],[105.3662,-5.0617],[105.3616,-5.0622],[105.3569,-5.0604],[105.352,-5.0638],[105.3505,-5.0633],[105.3507,-5.0654],[105.3474,-5.0666],[105.3383,-5.0614],[105.3385,-5.0599],[105.3466,-5.057],[105.3487,-5.0528],[105.3556,-5.0472],[105.3636,-5.0451],[105.3692,-5.041],[105.3764,-5.0288]]]}},{"type":"Feature","properties":{"name":"GondangRejo","name_en":"GondangRejo","admin_level":"7","osm_id":""},"geometry":{"type":"Polygon","coordinates":[[[105.4263,-5.047],[105.4299,-5.0496],[105.4341,-5.048],[105.4339,-5.0498],[105.4296,-5.0642],[105.416,-5.0758],[105.4148,-5.0792],[105.4159,-5.0865],[105.4136,-5.084],[105.4104,-5.0844],[105.409,-5.0828],[105.4076,-5.0861],[105.4033,-5.0881],[105.3994,-5.0785],[105.3919,-5.0831],[105.3789,-5.0835],[105.382,-5.0805],[105.3797,-5.0762],[105.4022,-5.0642],[105.4067,-5.0572],[105.4108,-5.0582],[105.416,-5.0545],[105.4213,-5.0531],[105.4252,-5.05],[105.4263,-5.047]]]}},{"type":"Feature","properties":{"name":"Jojog","name_en":"Jojog","admin_level":"7","osm_id":""},"geometry":{"type":"Polygon","coordinates":[[[105.4134,-5.0452],[105.4094,-5.0492],[105.4086,-5.0514],[105.41,-5.053],[105.4052,-5.0562],[105.4067,-5.0572],[105.4037,-5.0622],[105.3973,-5.0675],[105.3919,-5.0594],[105.3851,-5.0604],[105.3839,-5.0552],[105.3878,-5.0525],[105.3901,-5.0469],[105.3971,-5.0402],[105.398,-5.0366],[105.4134,-5.0452]]]}},{"type":"Feature","properties":{"name":"KaliBening","name_en":"KaliBening","admin_level":"7","osm_id":""},"geometry":{"type":"Polygon","coordinates":[[[105.3385,-5.0599],[105.3401,-5.0632],[105.3485,-5.0671],[105.3464,-5.0715],[105.3359,-5.0719],[105.3312,-5.0701],[105.3305,-5.0713],[105.3249,-5.0709],[105.3232,-5.0745],[105.3205,-5.0758],[105.3159,-5.0753],[105.3149,-5.0735],[105.3163,-5.0688],[105.3189,-5.0665],[105.3264,-5.0647],[105.3261,-5.0603],[105.3393,-5.0547],[105.3385,-5.0599]]]}},{"type":"Feature","properties":{"name":"Pekalongan","name_en":"Pekalongan","admin_level":"7","osm_id":""},"geometry":{"type":"Polygon","coordinates":[[[105.3475,-5.0874],[105.3442,-5.0822],[105.3493,-5.0791],[105.3546,-5.072],[105.3586,-5.0726],[105.3636,-5.0709],[105.3654,-5.0726],[105.3649,-5.0751],[105.3746,-5.0762],[105.3724,-5.0811],[105.3692,-5.0814],[105.3687,-5.0832],[105.3628,-5.0866],[105.3475,-5.0874]]]}},{"type":"Feature","properties":{"name":"Sidodadi","name_en":"Sidodadi","admin_level":"7","osm_id":""},"geometry":{"type":"Polygon","coordinates":[[[105.3898,-5.098],[105.3849,-5.0915],[105.383,-5.0929],[105.3772,-5.0917],[105.3756,-5.0939],[105.3659,-5.0915],[105.3659,-5.095],[105.3633,-5.0961],[105.3626,-5.0985],[105.3526,-5.0975],[105.3517,-5.0942],[105.3484,-5.0958],[105.3468,-5.0928],[105.3457,-5.0943],[105.3457,-5.0926],[105.3475,-5.0874],[105.3601,-5.0875],[105.3687,-5.0832],[105.3683,-5.0869],[105.3704,-5.0888],[105.3789,-5.0835],[105.3919,-5.0831],[105.3994,-5.0785],[105.4033,-5.0881],[105.3987,-5.0898],[105.3962,-5.0936],[105.3909,-5.0958],[105.3898,-5.098]]]}},{"type":"Feature","properties":{"name":"Siraman","name_en":"Siraman","admin_level":"7","osm_id":""},"geometry":{"type":"Polygon","coordinates":[[[105.3973,-5.0675],[105.3797,-5.0762],[105.382,-5.0805],[105.3694,-5.0887],[105.3683,-5.0869],[105.3692,-5.0814],[105.3724,-5.0811],[105.3742,-5.0782],[105.3746,-5.0762],[105.3722,-5.0749],[105.3729,-5.0726],[105.3783,-5.0685],[105.3931,-5.0618],[105.3973,-5.0675]]]}},{"type":"Feature","properties":{"name":"TulusRejo","name_en":"TulusRejo","admin_level":"7","osm_id":""},"geometry":{"type":"Polygon","coordinates":[[[105.3537,-5.0624],[105.3581,-5.0601],[105.3616,-5.0622],[105.3662,-5.0617],[105.3715,-5.0588],[105.3723,-5.0565],[105.3828,-5.0553],[105.384,-5.0554],[105.3851,-5.0604],[105.3919,-5.0594],[105.3931,-5.0618],[105.3812,-5.0667],[105.3729,-5.0726],[105.3722,-5.0749],[105.3698,-5.075],[105.3649,-5.0751],[105.3654,-5.0726],[105.3636,-5.0709],[105.3586,-5.0726],[105.3546,-5.072],[105.3588,-5.0672],[105.3537,-5.0624]]]}},{"type":"Feature","properties":{"name":"WonoSari","name_en":"WonoSari","admin_level":"7","osm_id":""},"geometry":{"type":"Polygon","coordinates":[[[105.345,-5.0394],[105.3487,-5.0358],[105.3504,-5.0364],[105.3495,-5.0342],[105.3516,-5.0336],[105.3512,-5.0311],[105.3573,-5.0335],[105.3585,-5.0305],[105.362,-5.0293],[105.3643,-5.0304],[105.3643,-5.0281],[105.3657,-5.029],[105.3663,-5.0266],[105.3761,-5.0265],[105.3764,-5.0288],[105.3718,-5.0386],[105.3636,-5.0451],[105.3556,-5.0472],[105.3487,-5.0528],[105.3466,-5.057],[105.3385,-5.0599],[105.3393,-5.0547],[105.3261,-5.0603],[105.3264,-5.0647],[105.325,-5.0656],[105.3189,-5.0665],[105.3146,-5.0704],[105.3107,-5.0691],[105.3121,-5.065],[105.3186,-5.0605],[105.3212,-5.0561],[105.3203,-5.0532],[105.3286,-5.0499],[105.329,-5.0476],[105.3423,-5.0438],[105.345,-5.0394]]]}}]}