{"type":"FeatureCollection","metadata":{"parent_osm_id":"9945865","parent_name":"Sumberejo","parent_name_1":"Lampung","parent_gid":"IDN.17.11.18_1","parent_level":"6","child_level":"7","count":13,"source":"GADM 4.1","generated":"2026-05-07"},"features":[{"type":"Feature","properties":{"name":"Argomulyo","name_en":"Argomulyo","admin_level":"7","osm_id":""},"geometry":{"type":"Polygon","coordinates":[[[104.7033,-5.3476],[104.7076,-5.3466],[104.7104,-5.35],[104.7095,-5.3596],[104.7129,-5.3648],[104.7015,-5.3672],[104.7008,-5.35],[104.7033,-5.3476]]]}},{"type":"Feature","properties":{"name":"Argopeni","name_en":"Argopeni","admin_level":"7","osm_id":""},"geometry":{"type":"Polygon","coordinates":[[[104.6833,-5.3601],[104.6843,-5.3564],[104.6881,-5.3523],[104.7033,-5.3476],[104.7008,-5.35],[104.7015,-5.3672],[104.6976,-5.3675],[104.6966,-5.36],[104.6833,-5.3601]]]}},{"type":"Feature","properties":{"name":"Dadapan","name_en":"Dadapan","admin_level":"7","osm_id":""},"geometry":{"type":"Polygon","coordinates":[[[104.6843,-5.4215],[104.6746,-5.42],[104.6666,-5.4109],[104.6658,-5.4082],[104.6679,-5.4009],[104.6789,-5.3938],[104.69,-5.3786],[104.6951,-5.3762],[104.7016,-5.3769],[104.706,-5.3792],[104.7031,-5.3878],[104.6843,-5.4215]]]}},{"type":"Feature","properties":{"name":"Kebumen","name_en":"Kebumen","admin_level":"7","osm_id":""},"geometry":{"type":"Polygon","coordinates":[[[104.7494,-5.3337],[104.7628,-5.3405],[104.7656,-5.3445],[104.761,-5.3446],[104.7586,-5.3477],[104.7507,-5.3456],[104.7476,-5.3464],[104.7459,-5.338],[104.7494,-5.3337]]]}},{"type":"Feature","properties":{"name":"Margodadi","name_en":"Margodadi","admin_level":"7","osm_id":""},"geometry":{"type":"Polygon","coordinates":[[[104.7015,-5.3672],[104.7063,-5.367],[104.7048,-5.3794],[104.698,-5.3762],[104.69,-5.3787],[104.6899,-5.3722],[104.6915,-5.3684],[104.7015,-5.3672]]]}},{"type":"Feature","properties":{"name":"Margoyoso","name_en":"Margoyoso","admin_level":"7","osm_id":""},"geometry":{"type":"Polygon","coordinates":[[[104.6695,-5.3993],[104.6687,-5.3905],[104.6704,-5.3808],[104.6714,-5.3777],[104.6767,-5.3728],[104.6793,-5.3648],[104.6833,-5.3601],[104.6966,-5.36],[104.6976,-5.3675],[104.6915,-5.3684],[104.6899,-5.3722],[104.69,-5.3786],[104.6789,-5.3938],[104.6695,-5.3993]]]}},{"type":"Feature","properties":{"name":"Sidomulyo","name_en":"Sidomulyo","admin_level":"7","osm_id":""},"geometry":{"type":"Polygon","coordinates":[[[104.7233,-5.3423],[104.7311,-5.3372],[104.7354,-5.3323],[104.7391,-5.3403],[104.7445,-5.3404],[104.7459,-5.338],[104.7476,-5.3464],[104.7374,-5.3559],[104.7313,-5.3695],[104.7292,-5.3623],[104.729,-5.3484],[104.7233,-5.3423]]]}},{"type":"Feature","properties":{"name":"Sidorejo","name_en":"Sidorejo","admin_level":"7","osm_id":""},"geometry":{"type":"Polygon","coordinates":[[[104.7408,-5.3305],[104.7494,-5.3337],[104.7466,-5.3356],[104.7445,-5.3404],[104.7391,-5.3403],[104.7356,-5.3329],[104.7367,-5.3309],[104.7408,-5.3305]]]}},{"type":"Feature","properties":{"name":"SimpangKanan","name_en":"SimpangKanan","admin_level":"7","osm_id":""},"geometry":{"type":"Polygon","coordinates":[[[104.7219,-5.3892],[104.7161,-5.3952],[104.7136,-5.401],[104.7133,-5.4071],[104.7031,-5.4212],[104.6875,-5.4274],[104.6843,-5.4215],[104.7029,-5.3881],[104.706,-5.3792],[104.7149,-5.3782],[104.7219,-5.3892]]]}},{"type":"Feature","properties":{"name":"SumberMulyo","name_en":"SumberMulyo","admin_level":"7","osm_id":""},"geometry":{"type":"Polygon","coordinates":[[[104.7313,-5.3719],[104.7374,-5.3738],[104.7392,-5.3764],[104.7409,-5.3843],[104.7391,-5.3888],[104.7381,-5.3905],[104.7285,-5.3889],[104.7222,-5.3897],[104.7137,-5.3779],[104.7149,-5.3749],[104.7169,-5.3725],[104.7293,-5.3734],[104.7313,-5.3719]]]}},{"type":"Feature","properties":{"name":"Sumberrejo","name_en":"Sumberrejo","admin_level":"7","osm_id":""},"geometry":{"type":"Polygon","coordinates":[[[104.713,-5.3439],[104.7198,-5.344],[104.7233,-5.3423],[104.729,-5.3484],[104.7291,-5.3523],[104.7275,-5.3511],[104.7135,-5.36],[104.7115,-5.3624],[104.7123,-5.3638],[104.7095,-5.3596],[104.7104,-5.35],[104.7076,-5.3466],[104.713,-5.3439]]]}},{"type":"Feature","properties":{"name":"TegalBinangun","name_en":"TegalBinangun","admin_level":"7","osm_id":""},"geometry":{"type":"Polygon","coordinates":[[[104.7291,-5.3523],[104.7292,-5.3623],[104.7312,-5.3697],[104.7123,-5.3638],[104.7115,-5.3624],[104.7135,-5.36],[104.7275,-5.3511],[104.7291,-5.3523]]]}},{"type":"Feature","properties":{"name":"Wonoharjo","name_en":"Wonoharjo","admin_level":"7","osm_id":""},"geometry":{"type":"Polygon","coordinates":[[[104.7063,-5.367],[104.7129,-5.3648],[104.7123,-5.3638],[104.7312,-5.3697],[104.73,-5.3734],[104.7169,-5.3725],[104.7137,-5.3779],[104.7048,-5.3794],[104.7063,-5.367]]]}}]}