{"type":"FeatureCollection","metadata":{"parent_osm_id":"13290202","parent_name":"Campaka","parent_name_1":"JawaBarat","parent_gid":"IDN.9.22.4_1","parent_level":"6","child_level":"7","count":10,"source":"GADM 4.1","generated":"2026-05-09"},"features":[{"type":"Feature","properties":{"name":"Benteng","name_en":"Benteng","admin_level":"7","osm_id":""},"geometry":{"type":"Polygon","coordinates":[[[107.4867,-6.5161],[107.4927,-6.5101],[107.4968,-6.5099],[107.5,-6.5117],[107.5038,-6.5068],[107.5083,-6.5059],[107.5077,-6.5143],[107.5093,-6.5183],[107.504,-6.5313],[107.494,-6.5317],[107.4935,-6.5301],[107.4911,-6.5298],[107.4848,-6.5202],[107.4867,-6.5161]]]}},{"type":"Feature","properties":{"name":"Campaka","name_en":"Campaka","admin_level":"7","osm_id":""},"geometry":{"type":"Polygon","coordinates":[[[107.4775,-6.5034],[107.4785,-6.5019],[107.4757,-6.4978],[107.4796,-6.4988],[107.4801,-6.495],[107.4828,-6.4977],[107.4857,-6.4969],[107.4886,-6.5005],[107.4867,-6.5056],[107.4885,-6.505],[107.4891,-6.5082],[107.4914,-6.5083],[107.4927,-6.5101],[107.4919,-6.5121],[107.4867,-6.5161],[107.4848,-6.5147],[107.4855,-6.5129],[107.4774,-6.5115],[107.4763,-6.5085],[107.4731,-6.5071],[107.4775,-6.5034]]]}},{"type":"Feature","properties":{"name":"Campakasari","name_en":"Campakasari","admin_level":"7","osm_id":""},"geometry":{"type":"Polygon","coordinates":[[[107.4738,-6.5154],[107.4751,-6.516],[107.4756,-6.5144],[107.4753,-6.5121],[107.4732,-6.5111],[107.4749,-6.509],[107.4774,-6.5115],[107.4855,-6.5129],[107.4848,-6.5147],[107.4867,-6.5161],[107.4847,-6.5197],[107.4883,-6.5248],[107.4878,-6.5261],[107.4836,-6.5256],[107.483,-6.5272],[107.4758,-6.5263],[107.4783,-6.5213],[107.4747,-6.5203],[107.4756,-6.5181],[107.4738,-6.5154]]]}},{"type":"Feature","properties":{"name":"Cijaya","name_en":"Cijaya","admin_level":"7","osm_id":""},"geometry":{"type":"Polygon","coordinates":[[[107.5083,-6.5059],[107.5059,-6.5065],[107.5015,-6.5013],[107.5005,-6.4929],[107.494,-6.492],[107.4946,-6.488],[107.4979,-6.4882],[107.5092,-6.4787],[107.5145,-6.4871],[107.5112,-6.4957],[107.5118,-6.5005],[107.5097,-6.5057],[107.5083,-6.5059]]]}},{"type":"Feature","properties":{"name":"Cijunti","name_en":"Cijunti","admin_level":"7","osm_id":""},"geometry":{"type":"Polygon","coordinates":[[[107.522,-6.4186],[107.5294,-6.4184],[107.5297,-6.4242],[107.5266,-6.4256],[107.5261,-6.4334],[107.5267,-6.437],[107.5284,-6.4375],[107.5307,-6.4417],[107.5295,-6.4447],[107.5311,-6.4479],[107.5282,-6.4464],[107.5228,-6.4475],[107.5086,-6.442],[107.5124,-6.437],[107.5143,-6.4366],[107.5135,-6.4308],[107.521,-6.4265],[107.522,-6.4186]]]}},{"type":"Feature","properties":{"name":"Cikumpay","name_en":"Cikumpay","admin_level":"7","osm_id":""},"geometry":{"type":"Polygon","coordinates":[[[107.4885,-6.4908],[107.4872,-6.4871],[107.4854,-6.4868],[107.4881,-6.4858],[107.4873,-6.4836],[107.4902,-6.4779],[107.4884,-6.4722],[107.4888,-6.4699],[107.491,-6.4709],[107.4923,-6.4685],[107.4899,-6.4669],[107.4909,-6.4636],[107.4927,-6.4621],[107.4967,-6.4654],[107.5089,-6.4685],[107.5089,-6.4793],[107.4979,-6.4882],[107.4942,-6.489],[107.494,-6.492],[107.5005,-6.4929],[107.5015,-6.5013],[107.5058,-6.5063],[107.5016,-6.5086],[107.5,-6.5117],[107.4968,-6.5099],[107.4915,-6.5099],[107.4914,-6.5083],[107.4891,-6.5082],[107.4885,-6.505],[107.4867,-6.5056],[107.4886,-6.5005],[107.4831,-6.496],[107.4885,-6.4908]]]}},{"type":"Feature","properties":{"name":"Cimahi","name_en":"Cimahi","admin_level":"7","osm_id":""},"geometry":{"type":"Polygon","coordinates":[[[107.4927,-6.4621],[107.4912,-6.4601],[107.4933,-6.4597],[107.4922,-6.4583],[107.4954,-6.454],[107.4936,-6.4536],[107.4955,-6.4487],[107.4971,-6.4493],[107.4997,-6.4471],[107.5007,-6.4489],[107.5021,-6.4465],[107.5163,-6.4558],[107.5303,-6.4601],[107.5309,-6.4624],[107.5307,-6.4639],[107.5284,-6.4642],[107.5295,-6.4699],[107.5216,-6.4758],[107.5168,-6.4699],[107.509,-6.4648],[107.5056,-6.4668],[107.5,-6.4667],[107.4927,-6.4621]]]}},{"type":"Feature","properties":{"name":"Cirende","name_en":"Cirende","admin_level":"7","osm_id":""},"geometry":{"type":"Polygon","coordinates":[[[107.4878,-6.5261],[107.494,-6.5317],[107.5023,-6.5319],[107.5049,-6.5303],[107.508,-6.533],[107.5146,-6.5314],[107.5228,-6.5338],[107.5207,-6.5353],[107.5206,-6.5387],[107.5155,-6.5394],[107.5157,-6.5427],[107.5124,-6.5491],[107.5058,-6.551],[107.5035,-6.5554],[107.4979,-6.5551],[107.4906,-6.5518],[107.4888,-6.5477],[107.4835,-6.5463],[107.4857,-6.5442],[107.483,-6.5272],[107.4836,-6.5256],[107.4878,-6.5261]]]}},{"type":"Feature","properties":{"name":"Cisaat","name_en":"Cisaat","admin_level":"7","osm_id":""},"geometry":{"type":"Polygon","coordinates":[[[107.5044,-6.4471],[107.5056,-6.4443],[107.5071,-6.4444],[107.5074,-6.441],[107.5228,-6.4475],[107.5282,-6.4464],[107.5311,-6.4479],[107.5295,-6.4443],[107.5307,-6.4417],[107.5326,-6.4414],[107.5359,-6.4455],[107.5393,-6.4442],[107.5421,-6.4456],[107.5438,-6.45],[107.5411,-6.4538],[107.5441,-6.4557],[107.5424,-6.4599],[107.5298,-6.4687],[107.5284,-6.4642],[107.5308,-6.4638],[107.5303,-6.4601],[107.5154,-6.4554],[107.5094,-6.4521],[107.5044,-6.4471]]]}},{"type":"Feature","properties":{"name":"Kertamukti","name_en":"Kertamukti","admin_level":"7","osm_id":""},"geometry":{"type":"Polygon","coordinates":[[[107.5133,-6.49],[107.5145,-6.4871],[107.5083,-6.4771],[107.509,-6.4686],[107.5054,-6.4681],[107.5076,-6.4648],[107.5145,-6.468],[107.5216,-6.4758],[107.5246,-6.4746],[107.5336,-6.4652],[107.5448,-6.4595],[107.5437,-6.4627],[107.5456,-6.4672],[107.5428,-6.4726],[107.5412,-6.4887],[107.5281,-6.4912],[107.5279,-6.4929],[107.5268,-6.4915],[107.5255,-6.4925],[107.5133,-6.49]]]}}]}