{"type":"FeatureCollection","metadata":{"parent_osm_id":"gid_IDN_9_7_14_1","parent_name":"Ciranjang","parent_name_1":"JawaBarat","parent_gid":"IDN.9.7.14_1","parent_level":"6","child_level":"7","count":9,"source":"GADM 4.1","generated":"2026-05-09"},"features":[{"type":"Feature","properties":{"name":"Cibiuk","name_en":"Cibiuk","admin_level":"7","osm_id":""},"geometry":{"type":"Polygon","coordinates":[[[107.2732,-6.8198],[107.2625,-6.8204],[107.259,-6.8173],[107.2562,-6.817],[107.2507,-6.8067],[107.252,-6.8028],[107.2659,-6.8017],[107.2689,-6.8097],[107.271,-6.8086],[107.2732,-6.8198]]]}},{"type":"Feature","properties":{"name":"Ciranjang","name_en":"Ciranjang","admin_level":"7","osm_id":""},"geometry":{"type":"Polygon","coordinates":[[[107.2506,-6.8059],[107.2522,-6.8111],[107.2546,-6.8119],[107.2569,-6.8207],[107.2547,-6.8223],[107.2563,-6.8254],[107.2554,-6.8279],[107.2518,-6.8289],[107.2421,-6.8215],[107.2415,-6.8176],[107.2427,-6.8158],[107.2406,-6.8121],[107.2444,-6.811],[107.2423,-6.8095],[107.2433,-6.8081],[107.2466,-6.8081],[107.2449,-6.8059],[107.2475,-6.8004],[107.2488,-6.8003],[107.25,-6.8037],[107.2518,-6.8031],[107.2506,-6.8059]]]}},{"type":"Feature","properties":{"name":"Gunungsari","name_en":"Gunungsari","admin_level":"7","osm_id":""},"geometry":{"type":"Polygon","coordinates":[[[107.2871,-6.8088],[107.2808,-6.8075],[107.281,-6.8057],[107.2793,-6.8054],[107.2802,-6.7984],[107.2834,-6.7935],[107.2833,-6.7895],[107.2869,-6.7869],[107.2874,-6.7841],[107.2905,-6.7857],[107.2901,-6.7901],[107.2921,-6.7904],[107.2957,-6.788],[107.3003,-6.7932],[107.2949,-6.8022],[107.2871,-6.8088]]]}},{"type":"Feature","properties":{"name":"Karangwangi","name_en":"Karangwangi","admin_level":"7","osm_id":""},"geometry":{"type":"Polygon","coordinates":[[[107.2822,-6.8264],[107.2737,-6.8229],[107.271,-6.8086],[107.2815,-6.8075],[107.2871,-6.8088],[107.2857,-6.8144],[107.2832,-6.8145],[107.2825,-6.8167],[107.2835,-6.8171],[107.2822,-6.8264]]]}},{"type":"Feature","properties":{"name":"Kertajaya","name_en":"Kertajaya","admin_level":"7","osm_id":""},"geometry":{"type":"Polygon","coordinates":[[[107.2867,-6.7858],[107.2833,-6.7895],[107.2829,-6.7952],[107.2802,-6.7984],[107.2793,-6.8054],[107.281,-6.8057],[107.2808,-6.8075],[107.2758,-6.8078],[107.2715,-6.796],[107.2686,-6.7936],[107.2694,-6.7882],[107.2718,-6.7872],[107.2743,-6.7828],[107.2744,-6.7753],[107.2783,-6.7741],[107.2797,-6.7765],[107.282,-6.7745],[107.2813,-6.7795],[107.2792,-6.7801],[107.2805,-6.7805],[107.2794,-6.7838],[107.2805,-6.7819],[107.2809,-6.7844],[107.2815,-6.7809],[107.2824,-6.7817],[107.2833,-6.7796],[107.2882,-6.7816],[107.2862,-6.7838],[107.2867,-6.7858]]]}},{"type":"Feature","properties":{"name":"Mekargalih","name_en":"Mekargalih","admin_level":"7","osm_id":""},"geometry":{"type":"Polygon","coordinates":[[[107.2632,-6.82],[107.2686,-6.8274],[107.2634,-6.8307],[107.2636,-6.8371],[107.2599,-6.8376],[107.2571,-6.8367],[107.2561,-6.8334],[107.2547,-6.8331],[107.2563,-6.8258],[107.2547,-6.8223],[107.2569,-6.8207],[107.2563,-6.817],[107.2632,-6.82]]]}},{"type":"Feature","properties":{"name":"Nanggalamekar","name_en":"Nanggalamekar","admin_level":"7","osm_id":""},"geometry":{"type":"Polygon","coordinates":[[[107.2625,-6.8403],[107.2569,-6.8411],[107.2572,-6.8469],[107.2525,-6.8488],[107.2516,-6.8522],[107.248,-6.8537],[107.2367,-6.8502],[107.2355,-6.849],[107.2364,-6.8476],[107.2347,-6.8473],[107.2374,-6.8454],[107.2367,-6.8431],[107.2381,-6.8426],[107.2355,-6.8391],[107.2375,-6.8367],[107.2364,-6.8332],[107.2397,-6.8275],[107.2418,-6.8276],[107.2403,-6.825],[107.2431,-6.8232],[107.2421,-6.8215],[107.2487,-6.8256],[107.2498,-6.8284],[107.2554,-6.8279],[107.2548,-6.8332],[107.2574,-6.8369],[107.2619,-6.8375],[107.2625,-6.8403]]]}},{"type":"Feature","properties":{"name":"Sindangjaya","name_en":"Sindangjaya","admin_level":"7","osm_id":""},"geometry":{"type":"Polygon","coordinates":[[[107.271,-6.8086],[107.2689,-6.8097],[107.2636,-6.7966],[107.2668,-6.7782],[107.271,-6.7747],[107.2689,-6.7706],[107.2735,-6.7678],[107.2753,-6.7728],[107.2771,-6.7733],[107.2737,-6.7766],[107.2743,-6.7828],[107.2718,-6.7872],[107.2694,-6.7882],[107.2686,-6.7936],[107.2715,-6.796],[107.2758,-6.8078],[107.271,-6.8086]]]}},{"type":"Feature","properties":{"name":"Sindangsari","name_en":"Sindangsari","admin_level":"7","osm_id":""},"geometry":{"type":"Polygon","coordinates":[[[107.2652,-6.8016],[107.2509,-6.8028],[107.251,-6.7991],[107.2529,-6.7969],[107.2506,-6.7951],[107.2548,-6.7931],[107.2531,-6.7887],[107.2561,-6.7893],[107.2582,-6.7849],[107.2576,-6.7826],[107.263,-6.7765],[107.2636,-6.7724],[107.2674,-6.7707],[107.271,-6.7747],[107.2668,-6.7782],[107.2658,-6.7819],[107.2636,-6.7966],[107.2655,-6.7986],[107.2652,-6.8016]]]}}]}