{"type":"FeatureCollection","metadata":{"parent_osm_id":"gid_IDN_9_20_3_1","parent_name":"Cibingbin","parent_name_1":"JawaBarat","parent_gid":"IDN.9.20.3_1","parent_level":"6","child_level":"7","count":10,"source":"GADM 4.1","generated":"2026-05-09"},"features":[{"type":"Feature","properties":{"name":"Bantarpanjang","name_en":"Bantarpanjang","admin_level":"7","osm_id":""},"geometry":{"type":"Polygon","coordinates":[[[108.7412,-7.0016],[108.7431,-6.9989],[108.7419,-6.9902],[108.744,-6.987],[108.747,-6.9858],[108.7482,-6.9869],[108.7509,-6.9851],[108.7518,-6.987],[108.7557,-6.9839],[108.7587,-6.9836],[108.7599,-6.9876],[108.7662,-6.9903],[108.7699,-6.9939],[108.7762,-6.9924],[108.7805,-6.9959],[108.7807,-6.9988],[108.7834,-7.0008],[108.7815,-7.0046],[108.7843,-7.0073],[108.7867,-7.007],[108.7906,-7.0123],[108.789,-7.0146],[108.79,-7.0219],[108.7781,-7.0205],[108.7726,-7.0153],[108.758,-7.017],[108.7509,-7.015],[108.746,-7.011],[108.7458,-7.0071],[108.7417,-7.0043],[108.7412,-7.0016]]]}},{"type":"Feature","properties":{"name":"Ciangir","name_en":"Ciangir","admin_level":"7","osm_id":""},"geometry":{"type":"Polygon","coordinates":[[[108.7237,-7.1183],[108.7174,-7.1137],[108.7175,-7.1069],[108.7201,-7.1001],[108.7258,-7.0938],[108.7252,-7.092],[108.7267,-7.0912],[108.7279,-7.0855],[108.733,-7.0805],[108.734,-7.0739],[108.743,-7.0759],[108.7489,-7.0747],[108.7492,-7.0816],[108.7477,-7.0828],[108.7495,-7.0912],[108.7467,-7.096],[108.7485,-7.1019],[108.7475,-7.1116],[108.74,-7.1148],[108.7331,-7.1139],[108.7266,-7.115],[108.7237,-7.1183]]]}},{"type":"Feature","properties":{"name":"Cibingbin","name_en":"Cibingbin","admin_level":"7","osm_id":""},"geometry":{"type":"Polygon","coordinates":[[[108.758,-7.0501],[108.7579,-7.0474],[108.7596,-7.0469],[108.7733,-7.0468],[108.7803,-7.0483],[108.7855,-7.0573],[108.7834,-7.0606],[108.7848,-7.0612],[108.7832,-7.0651],[108.7655,-7.0677],[108.7641,-7.0638],[108.755,-7.0587],[108.758,-7.0501]]]}},{"type":"Feature","properties":{"name":"Cipondok","name_en":"Cipondok","admin_level":"7","osm_id":""},"geometry":{"type":"Polygon","coordinates":[[[108.7475,-7.1116],[108.7485,-7.1019],[108.7467,-7.096],[108.7498,-7.0883],[108.7477,-7.0828],[108.7492,-7.0816],[108.7488,-7.0749],[108.7512,-7.0719],[108.7538,-7.0713],[108.764,-7.0735],[108.7682,-7.0817],[108.7744,-7.0874],[108.7783,-7.0953],[108.7762,-7.0972],[108.7706,-7.112],[108.7556,-7.1151],[108.7513,-7.1144],[108.7475,-7.1116]]]}},{"type":"Feature","properties":{"name":"Cisaat","name_en":"Cisaat","admin_level":"7","osm_id":""},"geometry":{"type":"Polygon","coordinates":[[[108.744,-7.0483],[108.7416,-7.0417],[108.735,-7.0339],[108.7345,-7.0311],[108.7426,-7.0307],[108.7469,-7.0334],[108.7482,-7.0449],[108.75,-7.0468],[108.744,-7.0483]]]}},{"type":"Feature","properties":{"name":"Citenjo","name_en":"Citenjo","admin_level":"7","osm_id":""},"geometry":{"type":"Polygon","coordinates":[[[108.7803,-7.0483],[108.7733,-7.0468],[108.7596,-7.0469],[108.7579,-7.0474],[108.758,-7.0501],[108.7514,-7.0479],[108.7557,-7.0425],[108.7537,-7.0389],[108.754,-7.0324],[108.7662,-7.033],[108.7698,-7.0352],[108.7741,-7.0354],[108.7769,-7.0393],[108.7755,-7.0404],[108.7764,-7.0437],[108.7797,-7.0457],[108.7803,-7.0483]]]}},{"type":"Feature","properties":{"name":"Dukuhbadag","name_en":"Dukuhbadag","admin_level":"7","osm_id":""},"geometry":{"type":"Polygon","coordinates":[[[108.746,-7.011],[108.7504,-7.0147],[108.7576,-7.0169],[108.7726,-7.0153],[108.7781,-7.0205],[108.7887,-7.0214],[108.791,-7.0241],[108.7874,-7.0266],[108.7797,-7.0263],[108.7783,-7.0328],[108.7746,-7.0358],[108.7662,-7.033],[108.754,-7.0324],[108.7537,-7.0389],[108.7557,-7.0425],[108.7514,-7.0479],[108.7482,-7.0449],[108.7483,-7.0383],[108.7462,-7.0325],[108.7426,-7.0307],[108.7345,-7.0311],[108.746,-7.011]]]}},{"type":"Feature","properties":{"name":"Sindangjawa","name_en":"Sindangjawa","admin_level":"7","osm_id":""},"geometry":{"type":"Polygon","coordinates":[[[108.7489,-7.0747],[108.745,-7.0754],[108.745,-7.0693],[108.7406,-7.0658],[108.743,-7.0625],[108.7519,-7.0639],[108.7543,-7.0627],[108.7562,-7.0652],[108.7538,-7.0713],[108.7489,-7.0747]]]}},{"type":"Feature","properties":{"name":"Sukaharja","name_en":"Sukaharja","admin_level":"7","osm_id":""},"geometry":{"type":"Polygon","coordinates":[[[108.755,-7.0587],[108.7641,-7.0638],[108.7655,-7.0677],[108.7832,-7.0651],[108.7842,-7.0695],[108.7822,-7.0697],[108.7819,-7.0732],[108.7779,-7.0762],[108.7744,-7.0835],[108.7744,-7.0874],[108.7682,-7.0817],[108.764,-7.0735],[108.7538,-7.0713],[108.7562,-7.067],[108.755,-7.0587]]]}},{"type":"Feature","properties":{"name":"Sukamaju","name_en":"Sukamaju","admin_level":"7","osm_id":""},"geometry":{"type":"Polygon","coordinates":[[[108.7375,-7.0717],[108.744,-7.0483],[108.75,-7.0468],[108.7571,-7.0493],[108.7576,-7.0527],[108.755,-7.0563],[108.7549,-7.0631],[108.743,-7.0625],[108.7409,-7.0651],[108.745,-7.0693],[108.745,-7.0754],[108.7369,-7.0744],[108.7375,-7.0717]]]}}]}