{"type":"FeatureCollection","metadata":{"parent_osm_id":"gid_IDN_34_5_18_1","parent_name":"Penyinggahan","parent_name_1":"KalimantanTimur","parent_gid":"IDN.34.5.18_1","parent_level":"6","child_level":"7","count":6,"source":"GADM 4.1","generated":"2026-05-09"},"features":[{"type":"Feature","properties":{"name":"Bakung","name_en":"Bakung","admin_level":"7","osm_id":""},"geometry":{"type":"Polygon","coordinates":[[[116.2758,-0.4252],[116.2506,-0.4859],[116.2532,-0.4963],[116.245,-0.4942],[116.2301,-0.4819],[116.2215,-0.4831],[116.2227,-0.472],[116.2116,-0.467],[116.197,-0.4537],[116.2246,-0.4297],[116.2521,-0.3984],[116.2491,-0.3919],[116.2452,-0.3715],[116.2524,-0.3707],[116.2614,-0.3719],[116.2714,-0.3838],[116.2794,-0.3818],[116.2795,-0.3898],[116.284,-0.4],[116.2931,-0.3908],[116.2758,-0.4252]]]}},{"type":"Feature","properties":{"name":"LoaDeras","name_en":"LoaDeras","admin_level":"7","osm_id":""},"geometry":{"type":"Polygon","coordinates":[[[116.2229,-0.2766],[116.2243,-0.2736],[116.2424,-0.2845],[116.2548,-0.2899],[116.32,-0.2998],[116.3038,-0.3743],[116.2972,-0.386],[116.284,-0.4],[116.2795,-0.3898],[116.2791,-0.3795],[116.2756,-0.3778],[116.2756,-0.3671],[116.2718,-0.3401],[116.2692,-0.3328],[116.2379,-0.2925],[116.2229,-0.2766]]]}},{"type":"Feature","properties":{"name":"Minta","name_en":"Minta","admin_level":"7","osm_id":""},"geometry":{"type":"Polygon","coordinates":[[[116.2794,-0.3818],[116.2714,-0.3838],[116.2614,-0.3719],[116.2524,-0.3707],[116.2452,-0.3715],[116.2443,-0.3671],[116.2478,-0.3551],[116.2435,-0.3461],[116.2508,-0.3324],[116.2529,-0.3134],[116.2692,-0.3328],[116.2718,-0.3401],[116.2756,-0.3671],[116.2756,-0.3778],[116.2791,-0.3795],[116.2794,-0.3818]]]}},{"type":"Feature","properties":{"name":"PenyinggahanIlir","name_en":"PenyinggahanIlir","admin_level":"7","osm_id":""},"geometry":{"type":"Polygon","coordinates":[[[116.1729,-0.4369],[116.1537,-0.4247],[116.2169,-0.3819],[116.2218,-0.3819],[116.2298,-0.3742],[116.2444,-0.3326],[116.2509,-0.3313],[116.2435,-0.3461],[116.2478,-0.3551],[116.2443,-0.3671],[116.2494,-0.3926],[116.2362,-0.392],[116.2313,-0.3861],[116.2282,-0.385],[116.2249,-0.3861],[116.2136,-0.3935],[116.192,-0.4223],[116.1853,-0.429],[116.1729,-0.4369]]]}},{"type":"Feature","properties":{"name":"PenyinggahanUlu","name_en":"PenyinggahanUlu","admin_level":"7","osm_id":""},"geometry":{"type":"Polygon","coordinates":[[[116.1407,-0.4168],[116.1348,-0.4054],[116.1635,-0.3868],[116.1783,-0.3584],[116.2042,-0.3213],[116.2153,-0.2917],[116.2229,-0.2766],[116.2379,-0.2925],[116.2529,-0.3134],[116.2509,-0.3313],[116.2444,-0.3326],[116.2298,-0.3742],[116.2218,-0.3819],[116.2169,-0.3819],[116.1537,-0.4247],[116.1407,-0.4168]]]}},{"type":"Feature","properties":{"name":"TanjungHaur","name_en":"TanjungHaur","admin_level":"7","osm_id":""},"geometry":{"type":"Polygon","coordinates":[[[116.197,-0.4537],[116.1894,-0.446],[116.1729,-0.4369],[116.1853,-0.429],[116.192,-0.4223],[116.2136,-0.3935],[116.2249,-0.3861],[116.2282,-0.385],[116.2313,-0.3861],[116.2362,-0.392],[116.2494,-0.3926],[116.2521,-0.3984],[116.2456,-0.4061],[116.2246,-0.4297],[116.197,-0.4537]]]}}]}