{"type":"FeatureCollection","metadata":{"parent_osm_id":"10357480","parent_name":"Kelayang","parent_name_1":"Riau","parent_gid":"IDN.24.4.4_1","parent_level":"6","child_level":"7","count":17,"source":"GADM 4.1","generated":"2026-05-09"},"features":[{"type":"Feature","properties":{"name":"BongkalMalang","name_en":"BongkalMalang","admin_level":"7","osm_id":""},"geometry":{"type":"Polygon","coordinates":[[[102.1654,-0.4537],[102.1593,-0.4564],[102.1489,-0.4348],[102.1496,-0.4226],[102.1929,-0.4239],[102.207,-0.4481],[102.189,-0.448],[102.1654,-0.4537]]]}},{"type":"Feature","properties":{"name":"BukitSelanjut","name_en":"BukitSelanjut","admin_level":"7","osm_id":""},"geometry":{"type":"Polygon","coordinates":[[[102.0703,-0.3831],[102.0735,-0.4142],[102.0769,-0.431],[102.0867,-0.4524],[102.0987,-0.4708],[102.0925,-0.4735],[102.0862,-0.4796],[102.072,-0.4642],[102.0634,-0.4589],[102.0624,-0.4368],[102.0509,-0.3812],[102.0568,-0.3833],[102.0688,-0.3811],[102.0703,-0.3831]]]}},{"type":"Feature","properties":{"name":"DusunTua","name_en":"DusunTua","admin_level":"7","osm_id":""},"geometry":{"type":"Polygon","coordinates":[[[102.1597,-0.4562],[102.1654,-0.4537],[102.1754,-0.4712],[102.1748,-0.474],[102.1835,-0.4798],[102.1799,-0.4939],[102.1755,-0.4984],[102.1706,-0.5002],[102.1743,-0.4875],[102.1597,-0.4562]]]}},{"type":"Feature","properties":{"name":"DusunTuaPelang","name_en":"DusunTuaPelang","admin_level":"7","osm_id":""},"geometry":{"type":"Polygon","coordinates":[[[102.1654,-0.4537],[102.189,-0.448],[102.207,-0.4481],[102.2183,-0.4607],[102.2152,-0.462],[102.2134,-0.4648],[102.2149,-0.4749],[102.2115,-0.4777],[102.2076,-0.4783],[102.1998,-0.4698],[102.1886,-0.4691],[102.185,-0.4729],[102.1835,-0.4798],[102.1748,-0.474],[102.1754,-0.4712],[102.1654,-0.4537]]]}},{"type":"Feature","properties":{"name":"KotaMedan","name_en":"KotaMedan","admin_level":"7","osm_id":""},"geometry":{"type":"Polygon","coordinates":[[[102.0836,-0.4822],[102.0911,-0.5118],[102.0974,-0.5192],[102.0872,-0.5218],[102.0876,-0.529],[102.0839,-0.5324],[102.0798,-0.5313],[102.0752,-0.526],[102.0822,-0.5177],[102.0826,-0.5146],[102.0688,-0.4902],[102.0836,-0.4822]]]}},{"type":"Feature","properties":{"name":"PasirBeringin","name_en":"PasirBeringin","admin_level":"7","osm_id":""},"geometry":{"type":"Polygon","coordinates":[[[102.1171,-0.4962],[102.1156,-0.4858],[102.1172,-0.4817],[102.128,-0.4756],[102.1324,-0.4756],[102.1291,-0.4818],[102.1289,-0.4886],[102.1359,-0.5015],[102.1347,-0.5052],[102.1287,-0.5091],[102.123,-0.5003],[102.1171,-0.4962]]]}},{"type":"Feature","properties":{"name":"Pelangko","name_en":"Pelangko","admin_level":"7","osm_id":""},"geometry":{"type":"Polygon","coordinates":[[[102.0987,-0.4708],[102.0867,-0.4524],[102.0769,-0.431],[102.0735,-0.4142],[102.0703,-0.3831],[102.0745,-0.3839],[102.0745,-0.39],[102.0834,-0.3993],[102.0846,-0.4106],[102.0907,-0.4248],[102.1024,-0.4348],[102.1046,-0.4392],[102.1086,-0.4506],[102.1077,-0.4554],[102.1097,-0.4579],[102.1088,-0.4637],[102.1172,-0.4818],[102.1156,-0.4858],[102.1171,-0.4962],[102.0987,-0.4708]]]}},{"type":"Feature","properties":{"name":"PolakPisang","name_en":"PolakPisang","admin_level":"7","osm_id":""},"geometry":{"type":"Polygon","coordinates":[[[102.0862,-0.4796],[102.0925,-0.4735],[102.0987,-0.4708],[102.117,-0.4962],[102.1144,-0.4969],[102.1094,-0.5037],[102.108,-0.5084],[102.1087,-0.5159],[102.1071,-0.5179],[102.0974,-0.5192],[102.0911,-0.5118],[102.0836,-0.4822],[102.0862,-0.4796]]]}},{"type":"Feature","properties":{"name":"PulauSengkilo","name_en":"PulauSengkilo","admin_level":"7","osm_id":""},"geometry":{"type":"Polygon","coordinates":[[[102.0434,-0.5039],[102.057,-0.5111],[102.0711,-0.5268],[102.0661,-0.5359],[102.0597,-0.5413],[102.0564,-0.5494],[102.0527,-0.5518],[102.0487,-0.5506],[102.0412,-0.5431],[102.0298,-0.5402],[102.0285,-0.5135],[102.0434,-0.5039]]]}},{"type":"Feature","properties":{"name":"SimpangKelayang","name_en":"SimpangKelayang","admin_level":"7","osm_id":""},"geometry":{"type":"Polygon","coordinates":[[[102.1487,-0.4231],[102.1489,-0.4348],[102.1593,-0.4564],[102.1479,-0.4639],[102.1401,-0.473],[102.128,-0.4756],[102.1171,-0.4818],[102.1088,-0.4637],[102.1097,-0.4579],[102.1077,-0.4554],[102.1084,-0.4507],[102.1266,-0.437],[102.1487,-0.4231]]]}},{"type":"Feature","properties":{"name":"SimpangKotaMedan","name_en":"SimpangKotaMedan","admin_level":"7","osm_id":""},"geometry":{"type":"Polygon","coordinates":[[[102.0509,-0.3812],[102.0624,-0.4368],[102.0634,-0.4589],[102.072,-0.4642],[102.0862,-0.4796],[102.0595,-0.4952],[102.0505,-0.4685],[102.0502,-0.4593],[102.0472,-0.4546],[102.0212,-0.4514],[102.0044,-0.4552],[101.9968,-0.4309],[101.9901,-0.3953],[101.9858,-0.3887],[101.9819,-0.3871],[102.0188,-0.3501],[102.0316,-0.3298],[102.0364,-0.3384],[102.0412,-0.3562],[102.0509,-0.3812]]]}},{"type":"Feature","properties":{"name":"SungaiBanyakIkan","name_en":"SungaiBanyakIkan","admin_level":"7","osm_id":""},"geometry":{"type":"Polygon","coordinates":[[[102.1496,-0.4226],[102.1266,-0.437],[102.1086,-0.4506],[102.1024,-0.4348],[102.0979,-0.431],[102.1292,-0.413],[102.1417,-0.421],[102.1496,-0.4226]]]}},{"type":"Feature","properties":{"name":"SungaiGolang","name_en":"SungaiGolang","admin_level":"7","osm_id":""},"geometry":{"type":"Polygon","coordinates":[[[102.0688,-0.4902],[102.0828,-0.5156],[102.0752,-0.526],[102.0711,-0.5268],[102.057,-0.5111],[102.0434,-0.5039],[102.0688,-0.4902]]]}},{"type":"Feature","properties":{"name":"SungaiKuningBenio","name_en":"SungaiKuningBenio","admin_level":"7","osm_id":""},"geometry":{"type":"Polygon","coordinates":[[[102.0434,-0.5039],[102.0285,-0.5135],[102.0254,-0.4931],[102.0216,-0.4854],[102.0505,-0.4685],[102.0595,-0.4952],[102.0434,-0.5039]]]}},{"type":"Feature","properties":{"name":"SungaiPasirPutih","name_en":"SungaiPasirPutih","admin_level":"7","osm_id":""},"geometry":{"type":"Polygon","coordinates":[[[102.0979,-0.431],[102.0907,-0.4248],[102.0875,-0.4192],[102.0846,-0.4106],[102.0834,-0.3993],[102.1053,-0.4014],[102.1169,-0.4053],[102.1292,-0.413],[102.0979,-0.431]]]}},{"type":"Feature","properties":{"name":"TanjungBeludu","name_en":"TanjungBeludu","admin_level":"7","osm_id":""},"geometry":{"type":"Polygon","coordinates":[[[102.0044,-0.4552],[102.0212,-0.4514],[102.0472,-0.4546],[102.0502,-0.4593],[102.0505,-0.4685],[102.0216,-0.4854],[102.0044,-0.4552]]]}},{"type":"Feature","properties":{"name":"TelukSejuah","name_en":"TelukSejuah","admin_level":"7","osm_id":""},"geometry":{"type":"Polygon","coordinates":[[[102.1593,-0.4564],[102.1743,-0.4875],[102.1699,-0.5004],[102.1636,-0.4967],[102.149,-0.476],[102.1401,-0.473],[102.1479,-0.4639],[102.1593,-0.4564]]]}}]}