{"type":"FeatureCollection","metadata":{"parent_osm_id":"gid_IDN_11_8_8_1","parent_name":"Jenggawah","parent_name_1":"JawaTimur","parent_gid":"IDN.11.8.8_1","parent_level":"6","child_level":"7","count":8,"source":"GADM 4.1","generated":"2026-05-07"},"features":[{"type":"Feature","properties":{"name":"Cangkring","name_en":"Cangkring","admin_level":"7","osm_id":""},"geometry":{"type":"Polygon","coordinates":[[[113.6653,-8.2682],[113.6656,-8.2721],[113.6689,-8.274],[113.6694,-8.2772],[113.6778,-8.2772],[113.6766,-8.2825],[113.6798,-8.2858],[113.6745,-8.3018],[113.6704,-8.308],[113.6647,-8.3064],[113.657,-8.2973],[113.6437,-8.2915],[113.6453,-8.2899],[113.6441,-8.2871],[113.6454,-8.284],[113.6517,-8.2785],[113.6551,-8.278],[113.6628,-8.2682],[113.6653,-8.2682]]]}},{"type":"Feature","properties":{"name":"Jatimulyo","name_en":"Jatimulyo","admin_level":"7","osm_id":""},"geometry":{"type":"Polygon","coordinates":[[[113.6634,-8.3329],[113.6441,-8.3313],[113.6474,-8.3223],[113.6531,-8.3158],[113.6536,-8.313],[113.6735,-8.3259],[113.6732,-8.3296],[113.6706,-8.3315],[113.6712,-8.3369],[113.6634,-8.3329]]]}},{"type":"Feature","properties":{"name":"Jatisari","name_en":"Jatisari","admin_level":"7","osm_id":""},"geometry":{"type":"Polygon","coordinates":[[[113.6429,-8.3327],[113.6395,-8.3327],[113.6341,-8.3267],[113.6222,-8.3178],[113.623,-8.3115],[113.626,-8.3057],[113.6367,-8.3074],[113.6382,-8.3047],[113.6415,-8.3047],[113.6536,-8.3129],[113.6531,-8.3158],[113.649,-8.3193],[113.6462,-8.3285],[113.6429,-8.3327]]]}},{"type":"Feature","properties":{"name":"Jenggawah","name_en":"Jenggawah","admin_level":"7","osm_id":""},"geometry":{"type":"Polygon","coordinates":[[[113.6671,-8.2477],[113.6791,-8.2496],[113.6839,-8.2462],[113.6844,-8.2435],[113.6982,-8.2431],[113.6989,-8.2493],[113.697,-8.2519],[113.698,-8.2568],[113.6962,-8.2625],[113.6908,-8.2628],[113.6782,-8.2741],[113.6773,-8.2771],[113.6694,-8.2772],[113.6689,-8.274],[113.6656,-8.2721],[113.666,-8.2673],[113.6616,-8.2652],[113.6503,-8.2683],[113.6474,-8.2674],[113.643,-8.2728],[113.6395,-8.2725],[113.6447,-8.2611],[113.6473,-8.2611],[113.6478,-8.2544],[113.6548,-8.2543],[113.6578,-8.2509],[113.666,-8.2493],[113.6671,-8.2477]]]}},{"type":"Feature","properties":{"name":"KemuningsariKidul","name_en":"KemuningsariKidul","admin_level":"7","osm_id":""},"geometry":{"type":"Polygon","coordinates":[[[113.6001,-8.2833],[113.6098,-8.2811],[113.6132,-8.2833],[113.6212,-8.2841],[113.6252,-8.2873],[113.6292,-8.2879],[113.6292,-8.2898],[113.6226,-8.2969],[113.6186,-8.2945],[113.6092,-8.2932],[113.5953,-8.295],[113.5943,-8.297],[113.5919,-8.297],[113.5912,-8.3023],[113.5884,-8.3073],[113.5858,-8.307],[113.5795,-8.2967],[113.5836,-8.2908],[113.5847,-8.2843],[113.6001,-8.2833]]]}},{"type":"Feature","properties":{"name":"Kertonegoro","name_en":"Kertonegoro","admin_level":"7","osm_id":""},"geometry":{"type":"Polygon","coordinates":[[[113.6292,-8.2879],[113.6353,-8.2931],[113.6306,-8.3041],[113.626,-8.3057],[113.6228,-8.3127],[113.6082,-8.3076],[113.601,-8.3066],[113.5996,-8.3079],[113.5943,-8.3057],[113.5884,-8.3073],[113.5912,-8.3023],[113.5919,-8.297],[113.5943,-8.297],[113.5953,-8.295],[113.6092,-8.2932],[113.6186,-8.2945],[113.6226,-8.2969],[113.6261,-8.2917],[113.6279,-8.2921],[113.6292,-8.2879]]]}},{"type":"Feature","properties":{"name":"Sruni","name_en":"Sruni","admin_level":"7","osm_id":""},"geometry":{"type":"Polygon","coordinates":[[[113.6437,-8.2915],[113.657,-8.2973],[113.6647,-8.3064],[113.67,-8.3073],[113.6725,-8.3152],[113.6717,-8.3235],[113.6415,-8.3047],[113.6382,-8.3047],[113.6367,-8.3074],[113.6279,-8.3053],[113.6306,-8.3041],[113.6348,-8.2926],[113.6437,-8.2915]]]}},{"type":"Feature","properties":{"name":"Wonojati","name_en":"Wonojati","admin_level":"7","osm_id":""},"geometry":{"type":"Polygon","coordinates":[[[113.6295,-8.2881],[113.6328,-8.2846],[113.6326,-8.2793],[113.6371,-8.2735],[113.643,-8.2728],[113.6474,-8.2674],[113.6503,-8.2683],[113.6616,-8.2652],[113.666,-8.2673],[113.6625,-8.2685],[113.6551,-8.278],[113.6517,-8.2785],[113.6454,-8.284],[113.6441,-8.2871],[113.6453,-8.2899],[113.6434,-8.2921],[113.638,-8.2914],[113.6352,-8.2928],[113.6295,-8.2881]]]}}]}