{"type":"FeatureCollection","metadata":{"parent_osm_id":"gid_IDN_10_29_5_1","parent_name":"Kaliambe","parent_name_1":"JawaTengah","parent_gid":"IDN.10.29.5_1","parent_level":"6","child_level":"7","count":14,"source":"GADM 4.1","generated":"2026-05-09"},"features":[{"type":"Feature","properties":{"name":"Banaran","name_en":"Banaran","admin_level":"7","osm_id":""},"geometry":{"type":"Polygon","coordinates":[[[110.8252,-7.4389],[110.8217,-7.4436],[110.8119,-7.4469],[110.8063,-7.4446],[110.8083,-7.4337],[110.8112,-7.4279],[110.8137,-7.4288],[110.8136,-7.4305],[110.8283,-7.4317],[110.8252,-7.4389]]]}},{"type":"Feature","properties":{"name":"Bukuran","name_en":"Bukuran","admin_level":"7","osm_id":""},"geometry":{"type":"Polygon","coordinates":[[[110.8573,-7.4692],[110.8556,-7.4685],[110.8532,-7.4699],[110.8505,-7.4677],[110.8478,-7.4687],[110.8475,-7.4716],[110.8452,-7.4655],[110.8427,-7.4644],[110.8435,-7.457],[110.848,-7.4522],[110.8458,-7.4482],[110.8591,-7.4481],[110.863,-7.4559],[110.8634,-7.4598],[110.8573,-7.4692]]]}},{"type":"Feature","properties":{"name":"Donoyudan","name_en":"Donoyudan","admin_level":"7","osm_id":""},"geometry":{"type":"Polygon","coordinates":[[[110.769,-7.4173],[110.7734,-7.4189],[110.7817,-7.4149],[110.7842,-7.4108],[110.7932,-7.414],[110.7941,-7.4215],[110.7887,-7.4301],[110.7744,-7.429],[110.769,-7.4173]]]}},{"type":"Feature","properties":{"name":"JetisKarangpung","name_en":"JetisKarangpung","admin_level":"7","osm_id":""},"geometry":{"type":"Polygon","coordinates":[[[110.8048,-7.4593],[110.8063,-7.4446],[110.8119,-7.4469],[110.8217,-7.4436],[110.8252,-7.4389],[110.8292,-7.4401],[110.8292,-7.4422],[110.8339,-7.4446],[110.8239,-7.449],[110.8314,-7.4521],[110.8295,-7.4557],[110.8166,-7.4534],[110.8152,-7.4593],[110.8127,-7.4603],[110.8096,-7.4583],[110.8048,-7.4593]]]}},{"type":"Feature","properties":{"name":"Kalimacan","name_en":"Kalimacan","admin_level":"7","osm_id":""},"geometry":{"type":"Polygon","coordinates":[[[110.8046,-7.4592],[110.8016,-7.4592],[110.8001,-7.4608],[110.7974,-7.4598],[110.7966,-7.4616],[110.7938,-7.4608],[110.7946,-7.4558],[110.7962,-7.4566],[110.797,-7.4541],[110.7963,-7.4404],[110.8066,-7.4432],[110.8046,-7.4592]]]}},{"type":"Feature","properties":{"name":"Karangjati","name_en":"Karangjati","admin_level":"7","osm_id":""},"geometry":{"type":"Polygon","coordinates":[[[110.8168,-7.4171],[110.8279,-7.4171],[110.8275,-7.4243],[110.8287,-7.427],[110.8252,-7.4276],[110.828,-7.4316],[110.8136,-7.4305],[110.8137,-7.4288],[110.8112,-7.4279],[110.8168,-7.4171]]]}},{"type":"Feature","properties":{"name":"Keden","name_en":"Keden","admin_level":"7","osm_id":""},"geometry":{"type":"Polygon","coordinates":[[[110.7831,-7.4534],[110.7809,-7.4531],[110.7782,-7.4456],[110.7743,-7.4447],[110.7708,-7.4402],[110.7745,-7.4358],[110.7811,-7.4366],[110.7825,-7.4327],[110.7821,-7.4311],[110.7744,-7.429],[110.7912,-7.4304],[110.7925,-7.4321],[110.787,-7.4415],[110.7875,-7.4464],[110.7831,-7.4534]]]}},{"type":"Feature","properties":{"name":"Krikilan","name_en":"Krikilan","admin_level":"7","osm_id":""},"geometry":{"type":"Polygon","coordinates":[[[110.8425,-7.4639],[110.8408,-7.4596],[110.8281,-7.4575],[110.8259,-7.4585],[110.8245,-7.4561],[110.823,-7.4581],[110.8152,-7.4593],[110.8158,-7.4539],[110.8295,-7.4557],[110.8314,-7.4521],[110.8238,-7.4494],[110.8305,-7.445],[110.837,-7.4484],[110.8458,-7.4482],[110.848,-7.4522],[110.8435,-7.457],[110.8425,-7.4639]]]}},{"type":"Feature","properties":{"name":"Ngebung","name_en":"Ngebung","admin_level":"7","osm_id":""},"geometry":{"type":"Polygon","coordinates":[[[110.8439,-7.4269],[110.8466,-7.4263],[110.8491,-7.4284],[110.852,-7.4274],[110.8545,-7.4302],[110.8563,-7.4295],[110.8613,-7.433],[110.8616,-7.4346],[110.8575,-7.4381],[110.8591,-7.4481],[110.837,-7.4484],[110.8286,-7.4416],[110.8292,-7.4401],[110.8252,-7.4389],[110.8288,-7.4326],[110.8334,-7.4338],[110.8387,-7.4319],[110.8439,-7.4269]]]}},{"type":"Feature","properties":{"name":"Samberembe","name_en":"Samberembe","admin_level":"7","osm_id":""},"geometry":{"type":"Polygon","coordinates":[[[110.8107,-7.4289],[110.8083,-7.4337],[110.8066,-7.4432],[110.7895,-7.4378],[110.7926,-7.4325],[110.7917,-7.4306],[110.7887,-7.4301],[110.7941,-7.4215],[110.7947,-7.4267],[110.7972,-7.4274],[110.8014,-7.4255],[110.8067,-7.4285],[110.8107,-7.4289]]]}},{"type":"Feature","properties":{"name":"Saren","name_en":"Saren","admin_level":"7","osm_id":""},"geometry":{"type":"Polygon","coordinates":[[[110.7982,-7.4144],[110.8067,-7.4129],[110.8168,-7.4171],[110.8107,-7.4289],[110.8067,-7.4285],[110.8014,-7.4255],[110.7972,-7.4274],[110.7947,-7.4267],[110.7932,-7.414],[110.7982,-7.4144]]]}},{"type":"Feature","properties":{"name":"Tegalombo","name_en":"Tegalombo","admin_level":"7","osm_id":""},"geometry":{"type":"Polygon","coordinates":[[[110.8333,-7.4213],[110.8439,-7.4269],[110.8403,-7.4313],[110.8326,-7.4338],[110.8288,-7.4326],[110.8252,-7.4276],[110.8287,-7.427],[110.8275,-7.4243],[110.8279,-7.4171],[110.834,-7.4182],[110.8333,-7.4213]]]}},{"type":"Feature","properties":{"name":"Trobayan","name_en":"Trobayan","admin_level":"7","osm_id":""},"geometry":{"type":"Polygon","coordinates":[[[110.7938,-7.4608],[110.7921,-7.4574],[110.7892,-7.4586],[110.7831,-7.4534],[110.7875,-7.4464],[110.7869,-7.4422],[110.7892,-7.4377],[110.7962,-7.4406],[110.797,-7.4541],[110.7962,-7.4566],[110.7946,-7.4558],[110.7938,-7.4608]]]}},{"type":"Feature","properties":{"name":"Wonorejo","name_en":"Wonorejo","admin_level":"7","osm_id":""},"geometry":{"type":"Polygon","coordinates":[[[110.7746,-7.4175],[110.7728,-7.4133],[110.7727,-7.3936],[110.7911,-7.4018],[110.7972,-7.4019],[110.7982,-7.4144],[110.7838,-7.4108],[110.7809,-7.4155],[110.7746,-7.4175]]]}}]}