{"type":"FeatureCollection","metadata":{"parent_osm_id":"gid_IDN_34_5_11_1","parent_name":"LongIram","parent_name_1":"KalimantanTimur","parent_gid":"IDN.34.5.11_1","parent_level":"6","child_level":"7","count":11,"source":"GADM 4.1","generated":"2026-05-09"},"features":[{"type":"Feature","properties":{"name":"Anah","name_en":"Anah","admin_level":"7","osm_id":""},"geometry":{"type":"Polygon","coordinates":[[[115.6171,-0.0325],[115.6319,-0.0305],[115.6135,-0.045],[115.6069,-0.0469],[115.5833,-0.0465],[115.595,-0.0398],[115.6049,-0.0363],[115.6117,-0.0363],[115.6171,-0.0325]]]}},{"type":"Feature","properties":{"name":"KalianLuar","name_en":"KalianLuar","admin_level":"7","osm_id":""},"geometry":{"type":"Polygon","coordinates":[[[115.4874,-0.0467],[115.4818,-0.0294],[115.4719,-0.0109],[115.4586,0.0075],[115.4439,0.0217],[115.4378,0.0406],[115.4533,0.0373],[115.4571,0.0376],[115.4615,0.0417],[115.4693,0.0421],[115.4972,0.0272],[115.5042,0.0269],[115.5102,0.0291],[115.5176,0.0284],[115.5206,0.0258],[115.5295,0.0228],[115.5354,0.0228],[115.5384,0.0246],[115.5466,0.0258],[115.5521,0.0239],[115.5596,0.0183],[115.5677,0.0157],[115.5726,0.015],[115.5737,0.0165],[115.5852,0.0172],[115.5893,0.0154],[115.5911,0.0094],[115.5982,0.002],[115.5986,-0.0088],[115.5844,-0.0144],[115.5796,-0.0207],[115.5744,-0.0244],[115.5603,-0.0262],[115.538,-0.0259],[115.5302,-0.0288],[115.5213,-0.03],[115.5193,-0.0331],[115.5008,-0.0384],[115.4874,-0.0467]]]}},{"type":"Feature","properties":{"name":"Keliway","name_en":"Keliway","admin_level":"7","osm_id":""},"geometry":{"type":"Polygon","coordinates":[[[115.5989,-0.0007],[115.5982,0.002],[115.5911,0.0094],[115.5893,0.0154],[115.5871,0.0163],[115.5952,0.0191],[115.6075,0.0446],[115.6096,0.0415],[115.6112,0.0217],[115.6193,0.012],[115.6213,-0.0026],[115.6244,-0.0062],[115.6234,-0.0078],[115.6139,-0.0051],[115.6071,0.0],[115.5989,-0.0007]]]}},{"type":"Feature","properties":{"name":"LongDaliq","name_en":"LongDaliq","admin_level":"7","osm_id":""},"geometry":{"type":"Polygon","coordinates":[[[115.6244,-0.0062],[115.6213,-0.0026],[115.6193,0.012],[115.6112,0.0217],[115.6096,0.0415],[115.6075,0.0446],[115.6093,0.0477],[115.6368,0.0607],[115.6799,0.0607],[115.6765,0.0592],[115.6637,0.0459],[115.6517,0.0202],[115.6415,0.0138],[115.6385,0.0155],[115.6356,0.0149],[115.629,0.011],[115.6265,-0.0039],[115.6244,-0.0062]]]}},{"type":"Feature","properties":{"name":"LongIramBayan","name_en":"LongIramBayan","admin_level":"7","osm_id":""},"geometry":{"type":"Polygon","coordinates":[[[115.5981,-0.009],[115.5989,-0.0007],[115.602,0.0002],[115.6071,0.0],[115.6139,-0.0051],[115.6313,-0.0082],[115.6215,-0.018],[115.618,-0.0259],[115.6117,-0.0217],[115.6016,-0.0241],[115.5967,-0.0167],[115.5981,-0.009]]]}},{"type":"Feature","properties":{"name":"LongIramIlir","name_en":"LongIramIlir","admin_level":"7","osm_id":""},"geometry":{"type":"Polygon","coordinates":[[[115.6319,-0.0305],[115.6171,-0.0325],[115.6187,-0.028],[115.6204,-0.0274],[115.618,-0.0259],[115.6215,-0.018],[115.6291,-0.0114],[115.6284,-0.0239],[115.6322,-0.0259],[115.6319,-0.0305]]]}},{"type":"Feature","properties":{"name":"LongIramKota","name_en":"LongIramKota","admin_level":"7","osm_id":""},"geometry":{"type":"Polygon","coordinates":[[[115.6241,-0.0067],[115.6265,-0.0039],[115.629,0.011],[115.6356,0.0149],[115.6385,0.0155],[115.6415,0.0138],[115.6449,0.0168],[115.6368,-0.0088],[115.6425,-0.0188],[115.6372,-0.0228],[115.6328,-0.0293],[115.6322,-0.0259],[115.6284,-0.0239],[115.6282,-0.022],[115.6286,-0.0133],[115.6313,-0.0082],[115.6241,-0.0067]]]}},{"type":"Feature","properties":{"name":"LongiramSeberang","name_en":"LongiramSeberang","admin_level":"7","osm_id":""},"geometry":{"type":"Polygon","coordinates":[[[115.6171,-0.0325],[115.6117,-0.0363],[115.6045,-0.0364],[115.6016,-0.0241],[115.6117,-0.0217],[115.6169,-0.0244],[115.6204,-0.0274],[115.6187,-0.028],[115.6171,-0.0325]]]}},{"type":"Feature","properties":{"name":"MuaraLeban","name_en":"MuaraLeban","admin_level":"7","osm_id":""},"geometry":{"type":"Polygon","coordinates":[[[115.6045,-0.0364],[115.595,-0.0398],[115.5833,-0.0465],[115.5581,-0.0389],[115.5254,-0.0327],[115.5193,-0.0331],[115.5213,-0.03],[115.5302,-0.0288],[115.538,-0.0259],[115.5603,-0.0262],[115.5744,-0.0244],[115.5796,-0.0207],[115.5844,-0.0144],[115.5981,-0.009],[115.5967,-0.0167],[115.6017,-0.0243],[115.6045,-0.0364]]]}},{"type":"Feature","properties":{"name":"SukoMulyo","name_en":"SukoMulyo","admin_level":"7","osm_id":""},"geometry":{"type":"Polygon","coordinates":[[[115.6449,0.0168],[115.6517,0.0202],[115.6509,0.0042],[115.6471,-0.0143],[115.6425,-0.0188],[115.6368,-0.0088],[115.6449,0.0168]]]}},{"type":"Feature","properties":{"name":"UjohHalang","name_en":"UjohHalang","admin_level":"7","osm_id":""},"geometry":{"type":"Polygon","coordinates":[[[115.6806,0.1515],[115.6856,0.1565],[115.6992,0.154],[115.719,0.1479],[115.7535,0.1491],[115.7609,0.154],[115.7696,0.1491],[115.777,0.1491],[115.7989,0.1642],[115.8025,0.1629],[115.8105,0.1439],[115.8176,0.1326],[115.8058,0.1141],[115.8044,0.1065],[115.7982,0.0966],[115.7963,0.0885],[115.7973,0.0738],[115.7954,0.07],[115.7887,0.0677],[115.7845,0.0719],[115.767,0.0786],[115.7442,0.0819],[115.7281,0.0809],[115.7111,0.0833],[115.7026,0.08],[115.6992,0.0753],[115.6921,0.0696],[115.6864,0.0677],[115.6799,0.0607],[115.6368,0.0607],[115.6201,0.0536],[115.6093,0.0477],[115.5952,0.0191],[115.5871,0.0163],[115.5737,0.0165],[115.5726,0.015],[115.5596,0.0183],[115.5521,0.0239],[115.5466,0.0258],[115.5384,0.0246],[115.5354,0.0228],[115.5295,0.0228],[115.5206,0.0258],[115.5176,0.0284],[115.5102,0.0291],[115.5042,0.0269],[115.4972,0.0272],[115.4693,0.0421],[115.4615,0.0417],[115.4571,0.0376],[115.4533,0.0373],[115.4389,0.0409],[115.4411,0.0417],[115.4436,0.0516],[115.4424,0.0676],[115.4535,0.0886],[115.451,0.0972],[115.451,0.1071],[115.4658,0.1244],[115.472,0.138],[115.4782,0.1405],[115.4856,0.1343],[115.5041,0.1355],[115.5165,0.1343],[115.535,0.1392],[115.5782,0.1405],[115.6152,0.1516],[115.6523,0.1442],[115.6745,0.1454],[115.6806,0.1515]]]}}]}