{"type":"FeatureCollection","metadata":{"parent_osm_id":"gid_IDN_18_5_8_1","parent_name":"KaoUtara","parent_name_1":"MalukuUtara","parent_gid":"IDN.18.5.8_1","parent_level":"6","child_level":"7","count":12,"source":"GADM 4.1","generated":"2026-05-07"},"features":[{"type":"Feature","properties":{"name":"Bobale","name_en":"Bobale","admin_level":"7","osm_id":""},"geometry":{"type":"Polygon","coordinates":[[[128.0242,1.2998],[128.0275,1.2982],[128.028,1.2955],[128.0219,1.2887],[128.0195,1.2833],[128.0065,1.2813],[128.0077,1.2878],[128.0143,1.2915],[128.021,1.2989],[128.0242,1.2998]]]}},{"type":"Feature","properties":{"name":"Bori","name_en":"Bori","admin_level":"7","osm_id":""},"geometry":{"type":"Polygon","coordinates":[[[127.9453,1.4088],[127.9482,1.4202],[127.951,1.4159],[127.9529,1.4155],[127.9555,1.417],[127.9568,1.415],[127.9593,1.4151],[127.9656,1.4171],[127.969,1.4134],[127.9736,1.4128],[127.9736,1.4102],[127.9754,1.4112],[127.9751,1.4083],[127.9779,1.4062],[127.9765,1.4033],[127.9774,1.4004],[127.9801,1.3987],[127.9794,1.3972],[127.9817,1.3981],[127.9814,1.396],[127.9864,1.3953],[127.9891,1.3985],[127.9884,1.3998],[127.9906,1.3998],[127.9953,1.396],[127.9948,1.391],[127.9895,1.3792],[127.9886,1.3805],[127.9894,1.3683],[127.9875,1.3652],[127.9898,1.3554],[127.9403,1.3539],[127.9356,1.371],[127.9413,1.3855],[127.9453,1.4088]]]}},{"type":"Feature","properties":{"name":"Boulamo","name_en":"Boulamo","admin_level":"7","osm_id":""},"geometry":{"type":"Polygon","coordinates":[[[127.9418,1.3392],[127.9403,1.3539],[127.9793,1.3551],[127.9847,1.3305],[127.9832,1.3207],[127.9409,1.3237],[127.9418,1.3392]]]}},{"type":"Feature","properties":{"name":"Daru","name_en":"Daru","admin_level":"7","osm_id":""},"geometry":{"type":"Polygon","coordinates":[[[127.9281,1.2967],[127.9406,1.3198],[127.9409,1.3237],[128.0081,1.3189],[128.0103,1.3151],[128.0082,1.3111],[127.9994,1.3076],[127.9978,1.3086],[127.995,1.3071],[127.9889,1.3072],[127.9878,1.3094],[127.9848,1.3097],[127.9781,1.3068],[127.971,1.2924],[127.9717,1.2855],[127.9595,1.2872],[127.9521,1.295],[127.9406,1.2947],[127.9281,1.2967]]]}},{"type":"Feature","properties":{"name":"Doro","name_en":"Doro","admin_level":"7","osm_id":""},"geometry":{"type":"Polygon","coordinates":[[[127.9793,1.3551],[127.9898,1.3554],[127.9941,1.3319],[128.0081,1.3189],[127.9832,1.3207],[127.9847,1.3305],[127.9793,1.3551]]]}},{"type":"Feature","properties":{"name":"DowongiMaiti","name_en":"DowongiMaiti","admin_level":"7","osm_id":""},"geometry":{"type":"Polygon","coordinates":[[[128.0226,1.4808],[128.0244,1.4765],[128.0242,1.4686],[128.0219,1.4658],[128.0191,1.4477],[128.016,1.4408],[128.0143,1.4476],[128.0099,1.4484],[128.0046,1.457],[127.9953,1.4638],[128.0057,1.4831],[128.0077,1.4833],[128.0089,1.4794],[128.0133,1.475],[128.0165,1.4767],[128.0189,1.4826],[128.0226,1.4808]]]}},{"type":"Feature","properties":{"name":"Gamlaha","name_en":"Gamlaha","admin_level":"7","osm_id":""},"geometry":{"type":"Polygon","coordinates":[[[127.9193,1.2834],[127.9281,1.2967],[127.9406,1.2947],[127.9521,1.295],[127.9595,1.2872],[127.9717,1.2855],[127.9744,1.2797],[127.9618,1.2625],[127.958,1.2603],[127.953,1.2602],[127.936,1.2651],[127.9378,1.2698],[127.9365,1.2764],[127.9193,1.2834]]]}},{"type":"Feature","properties":{"name":"Gulo","name_en":"Gulo","admin_level":"7","osm_id":""},"geometry":{"type":"Polygon","coordinates":[[[127.9953,1.4638],[128.0046,1.457],[128.0099,1.4484],[128.015,1.4467],[128.0155,1.441],[128.014,1.4394],[128.0133,1.432],[128.0096,1.4252],[128.0165,1.4159],[128.0072,1.4163],[127.9977,1.4234],[127.9949,1.4203],[127.9927,1.4207],[127.9948,1.4224],[127.9944,1.4254],[127.9925,1.426],[127.9924,1.4285],[127.9879,1.4293],[127.9913,1.4321],[127.9886,1.4379],[127.9864,1.4377],[127.9834,1.4495],[127.9802,1.4509],[127.9801,1.453],[127.9773,1.4526],[127.9798,1.456],[127.9953,1.4638]]]}},{"type":"Feature","properties":{"name":"Pediwang","name_en":"Pediwang","admin_level":"7","osm_id":""},"geometry":{"type":"Polygon","coordinates":[[[127.9949,1.392],[127.9953,1.396],[127.9914,1.398],[127.9913,1.3997],[127.9884,1.3998],[127.9891,1.3985],[127.9866,1.3954],[127.9838,1.3953],[127.9814,1.396],[127.9817,1.3981],[127.9793,1.3973],[127.9801,1.3987],[127.9774,1.4004],[127.9765,1.4033],[127.977,1.4066],[127.9897,1.4168],[128.0145,1.3996],[128.011,1.3937],[128.0085,1.3954],[128.0049,1.3946],[128.0012,1.3959],[127.9949,1.392]]]}},{"type":"Feature","properties":{"name":"Tunuo","name_en":"Tunuo","admin_level":"7","osm_id":""},"geometry":{"type":"Polygon","coordinates":[[[127.9933,1.4202],[127.9977,1.4234],[128.0072,1.4163],[128.0221,1.415],[128.0242,1.4104],[128.0225,1.4016],[128.0183,1.4018],[128.0145,1.3996],[127.9897,1.4168],[127.9933,1.4202]]]}},{"type":"Feature","properties":{"name":"Warudu","name_en":"Warudu","admin_level":"7","osm_id":""},"geometry":{"type":"Polygon","coordinates":[[[127.9539,1.4451],[127.9559,1.4841],[127.991,1.4862],[128.0057,1.4831],[127.9953,1.4638],[127.9704,1.4512],[127.9706,1.4495],[127.9683,1.4499],[127.9666,1.4472],[127.9643,1.4486],[127.9615,1.446],[127.9539,1.4451]]]}},{"type":"Feature","properties":{"name":"Wateto","name_en":"Wateto","admin_level":"7","osm_id":""},"geometry":{"type":"Polygon","coordinates":[[[127.9482,1.4202],[127.9539,1.4451],[127.9615,1.446],[127.9643,1.4486],[127.9666,1.4472],[127.9683,1.4499],[127.9706,1.4495],[127.9704,1.4512],[127.9773,1.4539],[127.9776,1.4523],[127.9801,1.453],[127.9802,1.4509],[127.9834,1.4495],[127.9864,1.4377],[127.9886,1.4379],[127.9913,1.4321],[127.9879,1.4293],[127.9926,1.4283],[127.9948,1.4227],[127.9853,1.4126],[127.977,1.4066],[127.9751,1.4083],[127.9754,1.4112],[127.9736,1.4102],[127.9736,1.4128],[127.969,1.4134],[127.966,1.4169],[127.9573,1.415],[127.9555,1.417],[127.9529,1.4155],[127.951,1.4159],[127.9482,1.4202]]]}}]}