{"type":"FeatureCollection","metadata":{"parent_osm_id":"gid_IDN_21_15_5_1","parent_name":"Doreng","parent_name_1":"NusaTenggaraTimur","parent_gid":"IDN.21.15.5_1","parent_level":"6","child_level":"7","count":7,"source":"GADM 4.1","generated":"2026-05-08"},"features":[{"type":"Feature","properties":{"name":"Kloangpopot","name_en":"Kloangpopot","admin_level":"7","osm_id":""},"geometry":{"type":"Polygon","coordinates":[[[122.3327,-8.7395],[122.3342,-8.7323],[122.3387,-8.7293],[122.3433,-8.723],[122.3456,-8.723],[122.3543,-8.7166],[122.3556,-8.713],[122.3707,-8.6993],[122.3769,-8.6902],[122.3826,-8.6916],[122.3714,-8.7199],[122.3653,-8.7197],[122.3634,-8.7233],[122.3455,-8.7407],[122.3327,-8.7395]]]}},{"type":"Feature","properties":{"name":"NenBura","name_en":"NenBura","admin_level":"7","osm_id":""},"geometry":{"type":"Polygon","coordinates":[[[122.4108,-8.7455],[122.4084,-8.7442],[122.3959,-8.7442],[122.3972,-8.7334],[122.4008,-8.7233],[122.3979,-8.7193],[122.3935,-8.7207],[122.3953,-8.7102],[122.4016,-8.692],[122.4025,-8.6813],[122.409,-8.682],[122.409,-8.6943],[122.4123,-8.6999],[122.4132,-8.7101],[122.4203,-8.7172],[122.4144,-8.7215],[122.4108,-8.7455]]]}},{"type":"Feature","properties":{"name":"Waihawa","name_en":"Waihawa","admin_level":"7","osm_id":""},"geometry":{"type":"Polygon","coordinates":[[[122.3944,-8.7178],[122.3939,-8.7211],[122.3979,-8.7193],[122.4008,-8.7233],[122.3972,-8.7334],[122.3959,-8.7442],[122.382,-8.7449],[122.3768,-8.7523],[122.3716,-8.7513],[122.3685,-8.7527],[122.3666,-8.7504],[122.3672,-8.7479],[122.3693,-8.7464],[122.3691,-8.744],[122.3753,-8.7341],[122.3894,-8.719],[122.3944,-8.7178]]]}},{"type":"Feature","properties":{"name":"Watumerak","name_en":"Watumerak","admin_level":"7","osm_id":""},"geometry":{"type":"Polygon","coordinates":[[[122.3737,-8.7146],[122.3826,-8.6916],[122.39,-8.6865],[122.3885,-8.7004],[122.3828,-8.7156],[122.3737,-8.7146]]]}},{"type":"Feature","properties":{"name":"Wogalirit","name_en":"Wogalirit","admin_level":"7","osm_id":""},"geometry":{"type":"Polygon","coordinates":[[[122.4025,-8.6813],[122.4016,-8.692],[122.3953,-8.7102],[122.3944,-8.7178],[122.3894,-8.719],[122.3848,-8.7233],[122.3813,-8.721],[122.3885,-8.7004],[122.39,-8.6865],[122.396,-8.6817],[122.4025,-8.6813]]]}},{"type":"Feature","properties":{"name":"Wolomotong","name_en":"Wolomotong","admin_level":"7","osm_id":""},"geometry":{"type":"Polygon","coordinates":[[[122.3349,-8.7318],[122.3337,-8.731],[122.3348,-8.7295],[122.3319,-8.7293],[122.3332,-8.727],[122.3314,-8.7248],[122.3316,-8.722],[122.3238,-8.716],[122.322,-8.7165],[122.3209,-8.7096],[122.3355,-8.7135],[122.3346,-8.7121],[122.3368,-8.7109],[122.3355,-8.7099],[122.3366,-8.7048],[122.3397,-8.7037],[122.3409,-8.7008],[122.356,-8.6934],[122.3687,-8.6836],[122.3711,-8.6869],[122.3769,-8.6902],[122.3707,-8.6993],[122.3556,-8.713],[122.3543,-8.7166],[122.3456,-8.723],[122.3433,-8.723],[122.3349,-8.7318]]]}},{"type":"Feature","properties":{"name":"Wolonterang","name_en":"Wolonterang","admin_level":"7","osm_id":""},"geometry":{"type":"Polygon","coordinates":[[[122.3455,-8.7407],[122.3634,-8.7233],[122.3653,-8.7197],[122.3712,-8.7201],[122.3737,-8.7146],[122.3827,-8.7158],[122.3813,-8.721],[122.3848,-8.7233],[122.3753,-8.7341],[122.3666,-8.7504],[122.3642,-8.7501],[122.3615,-8.7468],[122.3455,-8.7407]]]}}]}