{"type":"FeatureCollection","metadata":{"parent_osm_id":"gid_IDN_17_4_4_1","parent_name":"BandarSurabaya","parent_name_1":"Lampung","parent_gid":"IDN.17.4.4_1","parent_level":"6","child_level":"7","count":10,"source":"GADM 4.1","generated":"2026-05-09"},"features":[{"type":"Feature","properties":{"name":"BeringinJaya","name_en":"BeringinJaya","admin_level":"7","osm_id":""},"geometry":{"type":"Polygon","coordinates":[[[105.7707,-4.6939],[105.7695,-4.7357],[105.7622,-4.7379],[105.7601,-4.7363],[105.7586,-4.7313],[105.7545,-4.7312],[105.7486,-4.6812],[105.7711,-4.6781],[105.7707,-4.6939]]]}},{"type":"Feature","properties":{"name":"Cabang","name_en":"Cabang","admin_level":"7","osm_id":""},"geometry":{"type":"Polygon","coordinates":[[[105.7854,-4.6561],[105.7847,-4.6541],[105.7809,-4.652],[105.7792,-4.6422],[105.7799,-4.6364],[105.783,-4.6335],[105.7911,-4.6357],[105.7999,-4.6445],[105.8042,-4.6536],[105.8119,-4.6529],[105.8166,-4.6496],[105.8174,-4.6635],[105.8077,-4.6647],[105.7999,-4.6688],[105.7854,-4.6561]]]}},{"type":"Feature","properties":{"name":"CempakaPutih","name_en":"CempakaPutih","admin_level":"7","osm_id":""},"geometry":{"type":"Polygon","coordinates":[[[105.7695,-4.7357],[105.7707,-4.6939],[105.7909,-4.6938],[105.8127,-4.6969],[105.8147,-4.6957],[105.8153,-4.6971],[105.8185,-4.6949],[105.8181,-4.701],[105.8129,-4.7028],[105.81,-4.706],[105.8069,-4.7197],[105.8047,-4.7234],[105.8089,-4.7256],[105.8124,-4.7312],[105.812,-4.7334],[105.8072,-4.7362],[105.8153,-4.7434],[105.8123,-4.7507],[105.8005,-4.7544],[105.7947,-4.7538],[105.7886,-4.7501],[105.7886,-4.744],[105.7844,-4.7395],[105.7811,-4.7392],[105.7786,-4.7423],[105.7746,-4.7416],[105.7695,-4.7357]]]}},{"type":"Feature","properties":{"name":"GayabaruV","name_en":"GayabaruV","admin_level":"7","osm_id":""},"geometry":{"type":"Polygon","coordinates":[[[105.711,-4.6948],[105.6931,-4.6941],[105.692,-4.7008],[105.6826,-4.7018],[105.6829,-4.6892],[105.6853,-4.6867],[105.6857,-4.6837],[105.6853,-4.6783],[105.6822,-4.6785],[105.6822,-4.6689],[105.6869,-4.6692],[105.7096,-4.681],[105.711,-4.6948]]]}},{"type":"Feature","properties":{"name":"RajaWali","name_en":"RajaWali","admin_level":"7","osm_id":""},"geometry":{"type":"Polygon","coordinates":[[[105.6826,-4.7018],[105.692,-4.7008],[105.6931,-4.6941],[105.7235,-4.6952],[105.7241,-4.7256],[105.7209,-4.7298],[105.7217,-4.7355],[105.6988,-4.7393],[105.6905,-4.7462],[105.6878,-4.7466],[105.6867,-4.718],[105.6823,-4.7172],[105.6826,-4.7018]]]}},{"type":"Feature","properties":{"name":"SidoDadi","name_en":"SidoDadi","admin_level":"7","osm_id":""},"geometry":{"type":"Polygon","coordinates":[[[105.7707,-4.6939],[105.7712,-4.6777],[105.7963,-4.6715],[105.8077,-4.6647],[105.8174,-4.6635],[105.8135,-4.6765],[105.8176,-4.6795],[105.8168,-4.6899],[105.8134,-4.6968],[105.7909,-4.6938],[105.7707,-4.6939]]]}},{"type":"Feature","properties":{"name":"SubangJaya","name_en":"SubangJaya","admin_level":"7","osm_id":""},"geometry":{"type":"Polygon","coordinates":[[[105.6984,-4.6399],[105.7003,-4.6414],[105.706,-4.6394],[105.7118,-4.6476],[105.715,-4.6599],[105.7021,-4.6768],[105.6845,-4.6684],[105.6868,-4.6631],[105.6858,-4.6589],[105.6881,-4.6576],[105.6984,-4.6399]]]}},{"type":"Feature","properties":{"name":"SumberAgung","name_en":"SumberAgung","admin_level":"7","osm_id":""},"geometry":{"type":"Polygon","coordinates":[[[105.7675,-4.6677],[105.7731,-4.6601],[105.7817,-4.6605],[105.7854,-4.6561],[105.7999,-4.6688],[105.7963,-4.6715],[105.7712,-4.6777],[105.7713,-4.6718],[105.7675,-4.6677]]]}},{"type":"Feature","properties":{"name":"SurabayaBaru","name_en":"SurabayaBaru","admin_level":"7","osm_id":""},"geometry":{"type":"Polygon","coordinates":[[[105.7525,-4.7117],[105.7545,-4.7312],[105.7471,-4.7317],[105.7433,-4.7394],[105.7371,-4.7459],[105.7288,-4.7459],[105.7262,-4.7379],[105.7217,-4.7355],[105.7219,-4.7278],[105.7239,-4.7258],[105.7303,-4.7262],[105.7345,-4.7235],[105.7363,-4.7132],[105.7455,-4.7102],[105.7525,-4.7117]]]}},{"type":"Feature","properties":{"name":"SurabayaIlir","name_en":"SurabayaIlir","admin_level":"7","osm_id":""},"geometry":{"type":"Polygon","coordinates":[[[105.715,-4.6599],[105.7194,-4.6653],[105.7258,-4.6695],[105.7301,-4.6697],[105.7436,-4.6636],[105.7467,-4.6653],[105.7514,-4.6728],[105.759,-4.6691],[105.7618,-4.665],[105.7651,-4.6688],[105.7675,-4.6677],[105.7713,-4.6718],[105.7711,-4.6781],[105.7486,-4.6812],[105.7525,-4.7117],[105.7455,-4.7102],[105.7363,-4.7132],[105.7345,-4.7235],[105.7303,-4.7262],[105.7239,-4.7258],[105.7235,-4.6952],[105.711,-4.6948],[105.71,-4.6815],[105.7021,-4.6768],[105.715,-4.6599]]]}}]}