{"type":"FeatureCollection","metadata":{"parent_osm_id":"gid_IDN_18_3_4_1","parent_name":"PulauGebe","parent_name_1":"MalukuUtara","parent_gid":"IDN.18.3.4_1","parent_level":"6","child_level":"7","count":7,"source":"GADM 4.1","generated":"2026-05-07"},"features":[{"type":"Feature","properties":{"name":"Kacepi","name_en":"Kacepi","admin_level":"7","osm_id":""},"geometry":{"type":"Polygon","coordinates":[[[129.4566,-0.0892],[129.4546,-0.0922],[129.4494,-0.0914],[129.4402,-0.0881],[129.4398,-0.0863],[129.4385,-0.0873],[129.4326,-0.0834],[129.4354,-0.0779],[129.4566,-0.0879],[129.4566,-0.0892]]]}},{"type":"Feature","properties":{"name":"Kapaleo","name_en":"Kapaleo","admin_level":"7","osm_id":""},"geometry":{"type":"Polygon","coordinates":[[[129.4511,-0.0854],[129.4354,-0.0779],[129.4326,-0.0834],[129.4264,-0.0758],[129.4145,-0.0713],[129.4022,-0.0707],[129.4016,-0.0721],[129.398,-0.0719],[129.3924,-0.0746],[129.3831,-0.0729],[129.3818,-0.0715],[129.3822,-0.0662],[129.3879,-0.0606],[129.382,-0.0524],[129.3849,-0.0419],[129.3811,-0.0363],[129.3818,-0.0306],[129.3747,-0.0202],[129.3727,-0.0196],[129.3627,-0.0032],[129.3598,-0.0024],[129.36,-0.0037],[129.3541,0.0025],[129.3475,0.0055],[129.3415,0.0143],[129.3298,0.0228],[129.3111,0.0259],[129.297,0.0312],[129.2903,0.0284],[129.2878,0.0298],[129.2793,0.0429],[129.28,0.0482],[129.2867,0.051],[129.3139,0.0355],[129.3379,0.0256],[129.3552,0.0122],[129.4014,-0.0132],[129.4128,-0.0249],[129.434,-0.0537],[129.4449,-0.0589],[129.4422,-0.0714],[129.4532,-0.0753],[129.4511,-0.0854]]]}},{"type":"Feature","properties":{"name":"PulauFao","name_en":"PulauFao","admin_level":"7","osm_id":""},"geometry":{"type":"Polygon","coordinates":[[[129.4225,-0.0788],[129.4223,-0.0828],[129.4267,-0.0883],[129.4249,-0.0963],[129.4214,-0.0966],[129.4235,-0.0993],[129.4222,-0.1019],[129.4261,-0.1018],[129.4303,-0.0936],[129.4268,-0.0898],[129.4279,-0.0877],[129.432,-0.0907],[129.4334,-0.0975],[129.4355,-0.0999],[129.4338,-0.105],[129.4346,-0.1161],[129.4324,-0.1181],[129.4161,-0.1027],[129.4105,-0.0919],[129.413,-0.0845],[129.4188,-0.0816],[129.4208,-0.0784],[129.4225,-0.0788]]]}},{"type":"Feature","properties":{"name":"Sanafi","name_en":"Sanafi","admin_level":"7","osm_id":""},"geometry":{"type":"Polygon","coordinates":[[[129.4566,-0.0892],[129.4511,-0.0854],[129.4532,-0.0753],[129.4422,-0.0714],[129.4449,-0.0589],[129.462,-0.0688],[129.4729,-0.0867],[129.4946,-0.0957],[129.4701,-0.1059],[129.4633,-0.1005],[129.4606,-0.0961],[129.4613,-0.0924],[129.4566,-0.0892]]]}},{"type":"Feature","properties":{"name":"SonofKacepo","name_en":"SonofKacepo","admin_level":"7","osm_id":""},"geometry":{"type":"Polygon","coordinates":[[[129.4701,-0.1059],[129.4946,-0.0957],[129.5054,-0.101],[129.512,-0.1079],[129.5325,-0.1189],[129.5352,-0.1229],[129.5466,-0.1296],[129.5582,-0.1493],[129.5161,-0.1625],[129.5063,-0.1603],[129.4989,-0.1549],[129.4998,-0.1539],[129.4973,-0.1502],[129.4933,-0.1499],[129.4881,-0.1471],[129.4856,-0.1419],[129.4805,-0.1404],[129.4763,-0.1432],[129.4695,-0.1395],[129.4739,-0.1279],[129.4779,-0.1241],[129.4799,-0.1253],[129.4754,-0.1129],[129.4701,-0.1059]]]}},{"type":"Feature","properties":{"name":"Umera","name_en":"Umera","admin_level":"7","osm_id":""},"geometry":{"type":"Polygon","coordinates":[[[129.5161,-0.1625],[129.5582,-0.1493],[129.5733,-0.1794],[129.5752,-0.1994],[129.5729,-0.2002],[129.5643,-0.1972],[129.5617,-0.1981],[129.5598,-0.202],[129.5606,-0.206],[129.5637,-0.2097],[129.5634,-0.2125],[129.5577,-0.2091],[129.5475,-0.1992],[129.5508,-0.2101],[129.5468,-0.2144],[129.5369,-0.2135],[129.5311,-0.2068],[129.521,-0.1996],[129.5195,-0.1859],[129.513,-0.1843],[129.5077,-0.1763],[129.5091,-0.172],[129.5128,-0.1692],[129.512,-0.1659],[129.5161,-0.1625]]]}},{"type":"Feature","properties":{"name":"Umiyal","name_en":"Umiyal","admin_level":"7","osm_id":""},"geometry":{"type":"Polygon","coordinates":[[[129.6332,-0.0339],[129.6537,-0.0478],[129.6575,-0.0591],[129.6564,-0.0668],[129.6537,-0.0708],[129.6495,-0.072],[129.6419,-0.0698],[129.6407,-0.0672],[129.6434,-0.0679],[129.6467,-0.0653],[129.6465,-0.0586],[129.6418,-0.054],[129.6311,-0.048],[129.6296,-0.0449],[129.6306,-0.0428],[129.627,-0.0434],[129.6278,-0.0399],[129.6317,-0.0413],[129.6284,-0.0388],[129.6255,-0.0314],[129.6238,-0.0343],[129.6257,-0.0347],[129.6264,-0.0381],[129.625,-0.038],[129.6253,-0.0365],[129.6222,-0.0373],[129.6193,-0.0357],[129.6162,-0.037],[129.6153,-0.0405],[129.6199,-0.0456],[129.6268,-0.048],[129.6271,-0.0517],[129.6353,-0.0557],[129.6321,-0.0568],[129.6321,-0.0585],[129.6234,-0.0583],[129.6233,-0.0618],[129.6265,-0.0655],[129.6195,-0.0657],[129.6239,-0.0669],[129.6257,-0.0694],[129.6287,-0.0674],[129.6299,-0.0697],[129.6254,-0.0715],[129.6198,-0.0685],[129.6148,-0.0684],[129.6078,-0.0648],[129.5972,-0.056],[129.5875,-0.0447],[129.5847,-0.0323],[129.5835,-0.0125],[129.5844,-0.0088],[129.5931,-0.0016],[129.6032,-0.0044],[129.6332,-0.0339]]]}}]}