{"type":"FeatureCollection","metadata":{"parent_osm_id":"gid_IDN_27_7_5_1","parent_name":"Mepanga","parent_name_1":"SulawesiTengah","parent_gid":"IDN.27.7.5_1","parent_level":"6","child_level":"7","count":10,"source":"GADM 4.1","generated":"2026-05-09"},"features":[{"type":"Feature","properties":{"name":"Bugis","name_en":"Bugis","admin_level":"7","osm_id":""},"geometry":{"type":"Polygon","coordinates":[[[120.6561,0.5154],[120.6491,0.5209],[120.6401,0.5174],[120.6401,0.5545],[120.6367,0.6042],[120.6422,0.612],[120.644,0.6118],[120.6455,0.6139],[120.6571,0.5959],[120.6681,0.5536],[120.6695,0.5414],[120.6677,0.5302],[120.6597,0.525],[120.6561,0.5154]]]}},{"type":"Feature","properties":{"name":"KayuAgung","name_en":"KayuAgung","admin_level":"7","osm_id":""},"geometry":{"type":"Polygon","coordinates":[[[120.7572,0.5613],[120.7523,0.5578],[120.7466,0.5617],[120.7456,0.5647],[120.7438,0.5651],[120.7427,0.5697],[120.7393,0.5718],[120.7354,0.5653],[120.7299,0.5602],[120.675,0.6453],[120.69,0.6421],[120.7004,0.6435],[120.7031,0.6453],[120.7122,0.6424],[120.7189,0.6428],[120.735,0.637],[120.736,0.6328],[120.7389,0.631],[120.7446,0.6198],[120.7513,0.6175],[120.756,0.6089],[120.7503,0.602],[120.7549,0.5996],[120.758,0.5947],[120.7565,0.5836],[120.7579,0.5827],[120.7572,0.5714],[120.7591,0.5641],[120.7572,0.5613]]]}},{"type":"Feature","properties":{"name":"Kotaraya","name_en":"Kotaraya","admin_level":"7","osm_id":""},"geometry":{"type":"Polygon","coordinates":[[[120.7216,0.5747],[120.7299,0.5602],[120.7402,0.5487],[120.7334,0.5406],[120.732,0.5418],[120.7272,0.5371],[120.7225,0.5201],[120.7197,0.5202],[120.7171,0.523],[120.7192,0.5291],[120.7146,0.5338],[120.7254,0.5452],[120.7192,0.554],[120.7209,0.5581],[120.7216,0.5747]]]}},{"type":"Feature","properties":{"name":"KotarayaTimur","name_en":"KotarayaTimur","admin_level":"7","osm_id":""},"geometry":{"type":"Polygon","coordinates":[[[120.757,0.5398],[120.7523,0.5134],[120.7431,0.5006],[120.7225,0.5201],[120.7272,0.5371],[120.732,0.5418],[120.7334,0.5406],[120.7402,0.5487],[120.757,0.5398]]]}},{"type":"Feature","properties":{"name":"Mensung","name_en":"Mensung","admin_level":"7","osm_id":""},"geometry":{"type":"Polygon","coordinates":[[[120.7146,0.5338],[120.7192,0.5291],[120.718,0.5248],[120.7062,0.5046],[120.7,0.5013],[120.6879,0.5111],[120.69,0.5192],[120.6866,0.5367],[120.6994,0.5438],[120.7013,0.5467],[120.7146,0.5338]]]}},{"type":"Feature","properties":{"name":"Mepanga","name_en":"Mepanga","admin_level":"7","osm_id":""},"geometry":{"type":"Polygon","coordinates":[[[120.6561,0.5154],[120.6597,0.525],[120.6647,0.529],[120.6738,0.5318],[120.6789,0.5317],[120.6866,0.5367],[120.69,0.5192],[120.6884,0.5133],[120.682,0.5099],[120.6692,0.5096],[120.6561,0.5154]]]}},{"type":"Feature","properties":{"name":"Moubang","name_en":"Moubang","admin_level":"7","osm_id":""},"geometry":{"type":"Polygon","coordinates":[[[120.675,0.6453],[120.7216,0.5747],[120.7209,0.5581],[120.7192,0.554],[120.7254,0.5452],[120.7146,0.5338],[120.7013,0.5467],[120.6937,0.5605],[120.7006,0.5718],[120.6742,0.6184],[120.6629,0.6188],[120.6609,0.6172],[120.6613,0.6236],[120.6663,0.6279],[120.6659,0.6338],[120.675,0.6453]]]}},{"type":"Feature","properties":{"name":"Ogobayas","name_en":"Ogobayas","admin_level":"7","osm_id":""},"geometry":{"type":"Polygon","coordinates":[[[120.6676,0.5301],[120.6695,0.5414],[120.6681,0.5536],[120.6571,0.5959],[120.6455,0.6139],[120.6502,0.617],[120.6565,0.6172],[120.6609,0.6156],[120.6629,0.6188],[120.6742,0.6184],[120.7006,0.5718],[120.6937,0.5605],[120.7013,0.5467],[120.6994,0.5438],[120.6789,0.5317],[120.6676,0.5301]]]}},{"type":"Feature","properties":{"name":"Ogotion","name_en":"Ogotion","admin_level":"7","osm_id":""},"geometry":{"type":"Polygon","coordinates":[[[120.7431,0.5006],[120.7317,0.4936],[120.714,0.4877],[120.7101,0.4915],[120.709,0.4963],[120.7003,0.5014],[120.7062,0.5046],[120.7171,0.523],[120.7197,0.5202],[120.7222,0.5205],[120.7431,0.5006]]]}},{"type":"Feature","properties":{"name":"SumberAgung","name_en":"SumberAgung","admin_level":"7","osm_id":""},"geometry":{"type":"Polygon","coordinates":[[[120.7523,0.5578],[120.7561,0.5517],[120.758,0.5448],[120.757,0.5398],[120.7432,0.5481],[120.7406,0.5482],[120.7299,0.5602],[120.7393,0.5718],[120.7427,0.5697],[120.7438,0.5651],[120.7456,0.5647],[120.7466,0.5617],[120.7523,0.5578]]]}}]}