{"type":"FeatureCollection","metadata":{"parent_osm_id":"gid_IDN_13_7_11_1","parent_name":"Pandawan","parent_name_1":"KalimantanSelatan","parent_gid":"IDN.13.7.11_1","parent_level":"6","child_level":"7","count":21,"source":"GADM 4.1","generated":"2026-05-09"},"features":[{"type":"Feature","properties":{"name":"BanuaAsam","name_en":"BanuaAsam","admin_level":"7","osm_id":""},"geometry":{"type":"Polygon","coordinates":[[[115.3536,-2.5917],[115.346,-2.5949],[115.3435,-2.5983],[115.3359,-2.5873],[115.343,-2.5867],[115.3522,-2.5803],[115.3535,-2.5823],[115.3536,-2.5917]]]}},{"type":"Feature","properties":{"name":"BanuaBatung","name_en":"BanuaBatung","admin_level":"7","osm_id":""},"geometry":{"type":"Polygon","coordinates":[[[115.3714,-2.5493],[115.365,-2.5537],[115.3627,-2.561],[115.3671,-2.5698],[115.3547,-2.5688],[115.3527,-2.5671],[115.3481,-2.55],[115.3526,-2.5478],[115.3685,-2.5473],[115.3714,-2.5493]]]}},{"type":"Feature","properties":{"name":"BanuaHanyar","name_en":"BanuaHanyar","admin_level":"7","osm_id":""},"geometry":{"type":"Polygon","coordinates":[[[115.3435,-2.5983],[115.343,-2.602],[115.3286,-2.6016],[115.3282,-2.5958],[115.3244,-2.5908],[115.325,-2.587],[115.3314,-2.5843],[115.336,-2.5874],[115.3435,-2.5983]]]}},{"type":"Feature","properties":{"name":"BanuaSupanggal","name_en":"BanuaSupanggal","admin_level":"7","osm_id":""},"geometry":{"type":"Polygon","coordinates":[[[115.3671,-2.5698],[115.3684,-2.5729],[115.3552,-2.5783],[115.3509,-2.5773],[115.3547,-2.5732],[115.3532,-2.5703],[115.3545,-2.5688],[115.3671,-2.5698]]]}},{"type":"Feature","properties":{"name":"Buluan","name_en":"Buluan","admin_level":"7","osm_id":""},"geometry":{"type":"Polygon","coordinates":[[[115.3419,-2.5537],[115.3437,-2.5576],[115.3444,-2.5694],[115.3419,-2.5684],[115.3401,-2.5716],[115.3273,-2.5605],[115.3363,-2.5575],[115.3419,-2.5537]]]}},{"type":"Feature","properties":{"name":"HilirBanua","name_en":"HilirBanua","admin_level":"7","osm_id":""},"geometry":{"type":"Polygon","coordinates":[[[115.3576,-2.5163],[115.3742,-2.5373],[115.3688,-2.5398],[115.3425,-2.5401],[115.3411,-2.5305],[115.3461,-2.5282],[115.3482,-2.5232],[115.3576,-2.5163]]]}},{"type":"Feature","properties":{"name":"HuluRasau","name_en":"HuluRasau","admin_level":"7","osm_id":""},"geometry":{"type":"Polygon","coordinates":[[[115.3684,-2.5729],[115.371,-2.5786],[115.3645,-2.5835],[115.3552,-2.5783],[115.3684,-2.5729]]]}},{"type":"Feature","properties":{"name":"Jaranih","name_en":"Jaranih","admin_level":"7","osm_id":""},"geometry":{"type":"Polygon","coordinates":[[[115.343,-2.602],[115.3475,-2.6062],[115.3446,-2.6116],[115.3323,-2.6165],[115.3326,-2.6019],[115.343,-2.602]]]}},{"type":"Feature","properties":{"name":"Jatuh","name_en":"Jatuh","admin_level":"7","osm_id":""},"geometry":{"type":"Polygon","coordinates":[[[115.3764,-2.5401],[115.3714,-2.5493],[115.3685,-2.5473],[115.3526,-2.5478],[115.3481,-2.55],[115.3489,-2.54],[115.3688,-2.5398],[115.3742,-2.5373],[115.3764,-2.5401]]]}},{"type":"Feature","properties":{"name":"KambatSelatan","name_en":"KambatSelatan","admin_level":"7","osm_id":""},"geometry":{"type":"Polygon","coordinates":[[[115.3481,-2.55],[115.3505,-2.5623],[115.3455,-2.5611],[115.3441,-2.5627],[115.3437,-2.5576],[115.3373,-2.544],[115.3376,-2.5409],[115.3489,-2.54],[115.3481,-2.55]]]}},{"type":"Feature","properties":{"name":"KambatUtara","name_en":"KambatUtara","admin_level":"7","osm_id":""},"geometry":{"type":"Polygon","coordinates":[[[115.3565,-2.5136],[115.3576,-2.5163],[115.3482,-2.5232],[115.3461,-2.5282],[115.3417,-2.5296],[115.3411,-2.5316],[115.3411,-2.522],[115.3263,-2.5207],[115.3219,-2.5121],[115.3327,-2.5098],[115.3305,-2.5015],[115.3507,-2.4922],[115.3526,-2.5039],[115.3565,-2.5136]]]}},{"type":"Feature","properties":{"name":"KayuRabah","name_en":"KayuRabah","admin_level":"7","osm_id":""},"geometry":{"type":"Polygon","coordinates":[[[115.2785,-2.5663],[115.2539,-2.5404],[115.2415,-2.5353],[115.2563,-2.5312],[115.2588,-2.529],[115.2728,-2.5299],[115.2832,-2.5277],[115.2866,-2.5135],[115.3012,-2.5125],[115.326,-2.5049],[115.3305,-2.5015],[115.3327,-2.5098],[115.3219,-2.5121],[115.3113,-2.5122],[115.3068,-2.5147],[115.3166,-2.5362],[115.3222,-2.5405],[115.322,-2.5442],[115.3106,-2.5454],[115.3046,-2.5413],[115.2815,-2.5584],[115.2787,-2.5618],[115.2785,-2.5663]]]}},{"type":"Feature","properties":{"name":"MahangMatangLandung","name_en":"MahangMatangLandung","admin_level":"7","osm_id":""},"geometry":{"type":"Polygon","coordinates":[[[115.3244,-2.5908],[115.3061,-2.5846],[115.2849,-2.5735],[115.2785,-2.5663],[115.2787,-2.5618],[115.2864,-2.5538],[115.3046,-2.5413],[115.3106,-2.5454],[115.313,-2.5653],[115.321,-2.5752],[115.324,-2.5815],[115.3298,-2.5841],[115.325,-2.587],[115.3244,-2.5908]]]}},{"type":"Feature","properties":{"name":"MahangPutat","name_en":"MahangPutat","admin_level":"7","osm_id":""},"geometry":{"type":"Polygon","coordinates":[[[115.3359,-2.5873],[115.3316,-2.5845],[115.3371,-2.5797],[115.3411,-2.5691],[115.3444,-2.5694],[115.3467,-2.5772],[115.342,-2.5777],[115.3359,-2.5873]]]}},{"type":"Feature","properties":{"name":"MahangSeiHanyar","name_en":"MahangSeiHanyar","admin_level":"7","osm_id":""},"geometry":{"type":"Polygon","coordinates":[[[115.3316,-2.5845],[115.324,-2.5815],[115.321,-2.5752],[115.313,-2.5653],[115.3125,-2.5624],[115.3187,-2.5597],[115.326,-2.5596],[115.3368,-2.5677],[115.3401,-2.5716],[115.3371,-2.5797],[115.3316,-2.5845]]]}},{"type":"Feature","properties":{"name":"Masiraan","name_en":"Masiraan","admin_level":"7","osm_id":""},"geometry":{"type":"Polygon","coordinates":[[[115.3323,-2.6165],[115.3148,-2.6239],[115.3128,-2.6226],[115.3159,-2.6115],[115.3259,-2.6059],[115.3286,-2.6016],[115.3326,-2.6019],[115.3323,-2.6165]]]}},{"type":"Feature","properties":{"name":"MatangGinalun","name_en":"MatangGinalun","admin_level":"7","osm_id":""},"geometry":{"type":"Polygon","coordinates":[[[115.371,-2.5787],[115.3767,-2.5854],[115.3747,-2.5882],[115.3727,-2.5871],[115.3676,-2.5906],[115.358,-2.5919],[115.3645,-2.5835],[115.371,-2.5787]]]}},{"type":"Feature","properties":{"name":"Palajau","name_en":"Palajau","admin_level":"7","osm_id":""},"geometry":{"type":"Polygon","coordinates":[[[115.358,-2.5919],[115.3536,-2.5917],[115.3535,-2.5823],[115.3522,-2.5803],[115.343,-2.5867],[115.3359,-2.5873],[115.342,-2.5777],[115.3541,-2.5777],[115.3645,-2.5835],[115.358,-2.5919]]]}},{"type":"Feature","properties":{"name":"Pandawan","name_en":"Pandawan","admin_level":"7","osm_id":""},"geometry":{"type":"Polygon","coordinates":[[[115.3505,-2.5623],[115.3547,-2.5688],[115.3532,-2.5703],[115.3547,-2.5732],[115.3509,-2.5773],[115.3467,-2.5772],[115.3446,-2.573],[115.3441,-2.5627],[115.3455,-2.5611],[115.3505,-2.5623]]]}},{"type":"Feature","properties":{"name":"Setiap","name_en":"Setiap","admin_level":"7","osm_id":""},"geometry":{"type":"Polygon","coordinates":[[[115.3411,-2.5316],[115.3411,-2.5333],[115.3341,-2.5388],[115.3222,-2.5405],[115.3166,-2.5362],[115.3068,-2.5147],[115.3113,-2.5122],[115.3219,-2.5121],[115.3263,-2.5207],[115.3411,-2.522],[115.3411,-2.5316]]]}},{"type":"Feature","properties":{"name":"Walatung","name_en":"Walatung","admin_level":"7","osm_id":""},"geometry":{"type":"Polygon","coordinates":[[[115.3419,-2.5537],[115.3332,-2.5588],[115.3273,-2.5605],[115.3187,-2.5597],[115.3126,-2.5623],[115.3102,-2.5455],[115.322,-2.5442],[115.3219,-2.5405],[115.3313,-2.5401],[115.3411,-2.5333],[115.3425,-2.5401],[115.3376,-2.5409],[115.3373,-2.544],[115.3419,-2.5537]]]}}]}