{"type":"FeatureCollection","metadata":{"parent_osm_id":"gid_IDN_4_5_33_1","parent_name":"Sobang","parent_name_1":"Banten","parent_gid":"IDN.4.5.33_1","parent_level":"6","child_level":"7","count":7,"source":"GADM 4.1","generated":"2026-05-08"},"features":[{"type":"Feature","properties":{"name":"Bojen","name_en":"Bojen","admin_level":"7","osm_id":""},"geometry":{"type":"Polygon","coordinates":[[[105.8076,-6.5499],[105.8105,-6.5595],[105.8034,-6.5591],[105.8045,-6.5638],[105.8023,-6.5646],[105.8026,-6.5707],[105.7979,-6.5815],[105.7944,-6.5836],[105.7872,-6.5837],[105.7878,-6.5808],[105.7863,-6.5787],[105.7827,-6.5786],[105.7813,-6.5771],[105.7829,-6.5693],[105.7802,-6.5675],[105.7787,-6.5634],[105.7805,-6.5587],[105.7775,-6.5567],[105.7722,-6.5459],[105.7749,-6.5481],[105.7799,-6.5481],[105.7797,-6.5384],[105.7864,-6.5376],[105.7863,-6.5394],[105.791,-6.5382],[105.7921,-6.541],[105.8014,-6.5406],[105.8038,-6.5476],[105.8076,-6.5499]]]}},{"type":"Feature","properties":{"name":"Cimanis","name_en":"Cimanis","admin_level":"7","osm_id":""},"geometry":{"type":"Polygon","coordinates":[[[105.7017,-6.5887],[105.7006,-6.5806],[105.7028,-6.5786],[105.7044,-6.5702],[105.7052,-6.569],[105.7079,-6.5698],[105.712,-6.562],[105.7152,-6.5643],[105.7182,-6.562],[105.7313,-6.5614],[105.7361,-6.5594],[105.7405,-6.5605],[105.7414,-6.5571],[105.7515,-6.5574],[105.7503,-6.558],[105.7513,-6.5631],[105.7492,-6.5627],[105.7485,-6.5648],[105.7464,-6.5641],[105.7442,-6.5668],[105.7465,-6.5673],[105.7463,-6.5691],[105.7435,-6.5696],[105.7448,-6.5714],[105.7472,-6.5709],[105.7486,-6.5762],[105.7481,-6.5816],[105.7507,-6.5855],[105.7489,-6.5849],[105.7475,-6.5876],[105.7441,-6.587],[105.7403,-6.5895],[105.7058,-6.586],[105.7017,-6.5887]]]}},{"type":"Feature","properties":{"name":"Kertaraharja","name_en":"Kertaraharja","admin_level":"7","osm_id":""},"geometry":{"type":"Polygon","coordinates":[[[105.8267,-6.5943],[105.8267,-6.5978],[105.8203,-6.6018],[105.8192,-6.6043],[105.8189,-6.6007],[105.8169,-6.6005],[105.8169,-6.5986],[105.8127,-6.5998],[105.8087,-6.5977],[105.8038,-6.5987],[105.8035,-6.6021],[105.8005,-6.6027],[105.7908,-6.5935],[105.7909,-6.5887],[105.7884,-6.5841],[105.7951,-6.5834],[105.7979,-6.5815],[105.8026,-6.5707],[105.8023,-6.5646],[105.8045,-6.5638],[105.8034,-6.5591],[105.8105,-6.5595],[105.8093,-6.5661],[105.8113,-6.5697],[105.816,-6.5716],[105.8145,-6.5777],[105.8151,-6.5901],[105.8236,-6.5946],[105.8267,-6.5943]]]}},{"type":"Feature","properties":{"name":"Kutamekar","name_en":"Kutamekar","admin_level":"7","osm_id":""},"geometry":{"type":"Polygon","coordinates":[[[105.7792,-6.5653],[105.7829,-6.5693],[105.7813,-6.5771],[105.7827,-6.5786],[105.7863,-6.5787],[105.7878,-6.5808],[105.7869,-6.5835],[105.7887,-6.5836],[105.7909,-6.5887],[105.7908,-6.5935],[105.7958,-6.5995],[105.801,-6.6028],[105.7999,-6.6099],[105.802,-6.6146],[105.7976,-6.6184],[105.7935,-6.6164],[105.787,-6.6171],[105.7825,-6.6122],[105.777,-6.6131],[105.7736,-6.6098],[105.7741,-6.6078],[105.7716,-6.6076],[105.7722,-6.6055],[105.767,-6.6043],[105.7677,-6.6009],[105.7625,-6.5999],[105.758,-6.5965],[105.7589,-6.5953],[105.7578,-6.5943],[105.7608,-6.5922],[105.7588,-6.5894],[105.7568,-6.5899],[105.7555,-6.5884],[105.7565,-6.5834],[105.7537,-6.5813],[105.7592,-6.5799],[105.7623,-6.5769],[105.7631,-6.575],[105.7608,-6.5707],[105.7617,-6.5656],[105.7792,-6.5653]]]}},{"type":"Feature","properties":{"name":"Pangkalan","name_en":"Pangkalan","admin_level":"7","osm_id":""},"geometry":{"type":"Polygon","coordinates":[[[105.7502,-6.5564],[105.749,-6.5542],[105.7501,-6.551],[105.7627,-6.5501],[105.7722,-6.5459],[105.7775,-6.5567],[105.7805,-6.5594],[105.7787,-6.5628],[105.7792,-6.5653],[105.7751,-6.5645],[105.7695,-6.5664],[105.7639,-6.5654],[105.7607,-6.5613],[105.7502,-6.5564]]]}},{"type":"Feature","properties":{"name":"Sobang","name_en":"Sobang","admin_level":"7","osm_id":""},"geometry":{"type":"Polygon","coordinates":[[[105.8199,-6.6034],[105.8215,-6.6049],[105.8214,-6.6102],[105.8192,-6.6124],[105.8227,-6.6157],[105.8252,-6.6217],[105.8249,-6.6269],[105.8234,-6.6279],[105.8258,-6.6403],[105.8243,-6.6447],[105.8246,-6.6517],[105.821,-6.6538],[105.8209,-6.6568],[105.8114,-6.6628],[105.8119,-6.665],[105.8098,-6.668],[105.8119,-6.6706],[105.811,-6.6735],[105.8125,-6.6773],[105.8024,-6.6822],[105.8008,-6.6876],[105.7973,-6.6862],[105.7948,-6.687],[105.7878,-6.6935],[105.7831,-6.6924],[105.7767,-6.6873],[105.7716,-6.6893],[105.7678,-6.688],[105.7599,-6.689],[105.756,-6.6737],[105.7592,-6.6678],[105.7587,-6.663],[105.762,-6.6512],[105.7597,-6.6475],[105.7606,-6.6455],[105.7569,-6.6415],[105.7539,-6.6407],[105.7535,-6.6327],[105.7498,-6.6263],[105.7472,-6.6144],[105.7457,-6.6141],[105.7465,-6.6118],[105.7422,-6.6062],[105.7456,-6.6023],[105.7452,-6.598],[105.747,-6.5978],[105.747,-6.5954],[105.7497,-6.5946],[105.7503,-6.5922],[105.7474,-6.5917],[105.7475,-6.59],[105.7448,-6.5887],[105.7489,-6.5849],[105.7507,-6.5855],[105.7481,-6.5816],[105.7473,-6.5711],[105.7445,-6.5713],[105.7435,-6.5696],[105.7463,-6.5691],[105.7465,-6.5673],[105.7442,-6.5668],[105.7464,-6.5641],[105.7485,-6.5648],[105.7492,-6.5627],[105.7513,-6.5631],[105.7503,-6.558],[105.7515,-6.5574],[105.7502,-6.5564],[105.7607,-6.5613],[105.7633,-6.565],[105.7617,-6.5656],[105.7607,-6.5699],[105.7631,-6.575],[105.7623,-6.5769],[105.7592,-6.5799],[105.7537,-6.5813],[105.7565,-6.5834],[105.7555,-6.5884],[105.7568,-6.5899],[105.7588,-6.5894],[105.7608,-6.5922],[105.7578,-6.5943],[105.7589,-6.5953],[105.758,-6.5965],[105.7625,-6.5999],[105.7677,-6.6009],[105.767,-6.6043],[105.7722,-6.6055],[105.7716,-6.6076],[105.7741,-6.6078],[105.7736,-6.6098],[105.777,-6.6131],[105.7825,-6.6122],[105.787,-6.6171],[105.7935,-6.6164],[105.7976,-6.6184],[105.802,-6.6146],[105.8001,-6.6066],[105.801,-6.6028],[105.8045,-6.6003],[105.8038,-6.5987],[105.8087,-6.5977],[105.8127,-6.5998],[105.8169,-6.5986],[105.8169,-6.6005],[105.8189,-6.6007],[105.819,-6.6042],[105.8199,-6.6034]]]}},{"type":"Feature","properties":{"name":"Teluklada","name_en":"Teluklada","admin_level":"7","osm_id":""},"geometry":{"type":"Polygon","coordinates":[[[105.809,-6.5488],[105.8076,-6.5499],[105.8038,-6.5476],[105.8013,-6.5402],[105.8025,-6.5328],[105.8073,-6.522],[105.8128,-6.5227],[105.818,-6.5187],[105.8193,-6.5192],[105.8224,-6.5144],[105.8264,-6.5136],[105.828,-6.5105],[105.8312,-6.5146],[105.8276,-6.5154],[105.8278,-6.5182],[105.8291,-6.5186],[105.828,-6.5205],[105.8324,-6.5238],[105.8312,-6.5237],[105.8303,-6.5269],[105.8322,-6.5266],[105.8315,-6.5274],[105.8341,-6.5298],[105.8347,-6.5288],[105.8356,-6.5287],[105.8369,-6.5314],[105.8338,-6.5334],[105.8267,-6.5328],[105.822,-6.5379],[105.8139,-6.5419],[105.8087,-6.5468],[105.809,-6.5488]]]}}]}