{"type":"FeatureCollection","metadata":{"parent_osm_id":"gid_IDN_13_9_17_1","parent_name":"PulauSebuku","parent_name_1":"KalimantanSelatan","parent_gid":"IDN.13.9.17_1","parent_level":"6","child_level":"7","count":8,"source":"GADM 4.1","generated":"2026-05-07"},"features":[{"type":"Feature","properties":{"name":"Belambus","name_en":"Belambus","admin_level":"7","osm_id":""},"geometry":{"type":"Polygon","coordinates":[[[116.3224,-3.5272],[116.3327,-3.5055],[116.3353,-3.5041],[116.3505,-3.5031],[116.3544,-3.5057],[116.3552,-3.5136],[116.3727,-3.5077],[116.3994,-3.5018],[116.4181,-3.5033],[116.4149,-3.5137],[116.4113,-3.513],[116.3934,-3.5174],[116.3801,-3.5241],[116.3704,-3.5316],[116.36,-3.5316],[116.3444,-3.5279],[116.334,-3.5316],[116.3317,-3.5297],[116.3288,-3.5311],[116.3224,-3.5272]]]}},{"type":"Feature","properties":{"name":"Kanibungan","name_en":"Kanibungan","admin_level":"7","osm_id":""},"geometry":{"type":"Polygon","coordinates":[[[116.4069,-3.5451],[116.4057,-3.5539],[116.4095,-3.5596],[116.4084,-3.5706],[116.4034,-3.5851],[116.4034,-3.5936],[116.3941,-3.5928],[116.3763,-3.595],[116.3481,-3.5923],[116.3494,-3.5877],[116.3436,-3.5702],[116.3492,-3.5678],[116.3502,-3.5662],[116.3512,-3.5685],[116.352,-3.5685],[116.3526,-3.5676],[116.3514,-3.5681],[116.35,-3.5658],[116.3433,-3.5685],[116.3389,-3.5623],[116.3325,-3.5584],[116.3226,-3.5563],[116.3145,-3.5586],[116.3126,-3.5564],[116.3295,-3.554],[116.3719,-3.5525],[116.4069,-3.5451]]]}},{"type":"Feature","properties":{"name":"Mandin","name_en":"Mandin","admin_level":"7","osm_id":""},"geometry":{"type":"Polygon","coordinates":[[[116.3224,-3.5272],[116.3288,-3.5311],[116.3317,-3.5297],[116.334,-3.5316],[116.3444,-3.5279],[116.36,-3.5316],[116.3704,-3.5316],[116.3801,-3.5241],[116.3934,-3.5174],[116.4113,-3.513],[116.4149,-3.5137],[116.4084,-3.5263],[116.4069,-3.5451],[116.3719,-3.5525],[116.3295,-3.554],[116.3126,-3.5564],[116.314,-3.551],[116.3195,-3.5418],[116.3224,-3.5272]]]}},{"type":"Feature","properties":{"name":"Rampa","name_en":"Rampa","admin_level":"7","osm_id":""},"geometry":{"type":"Polygon","coordinates":[[[116.435,-3.3916],[116.4322,-3.4028],[116.4195,-3.3995],[116.4099,-3.4053],[116.4058,-3.4058],[116.4008,-3.4031],[116.4006,-3.4],[116.3982,-3.3987],[116.3987,-3.3911],[116.4015,-3.3847],[116.4067,-3.3859],[116.4083,-3.3877],[116.4163,-3.3873],[116.4225,-3.3898],[116.435,-3.3916]]]}},{"type":"Feature","properties":{"name":"Sarakaman","name_en":"Sarakaman","admin_level":"7","osm_id":""},"geometry":{"type":"Polygon","coordinates":[[[116.4181,-3.5033],[116.3994,-3.5018],[116.3727,-3.5077],[116.3552,-3.5136],[116.3544,-3.5057],[116.3505,-3.5031],[116.3336,-3.5041],[116.3377,-3.4797],[116.3406,-3.4761],[116.3444,-3.4659],[116.3449,-3.4576],[116.3465,-3.4574],[116.3451,-3.4551],[116.3459,-3.4508],[116.3587,-3.435],[116.3731,-3.4237],[116.389,-3.4368],[116.4039,-3.4525],[116.4113,-3.457],[116.4158,-3.4645],[116.4206,-3.4678],[116.4209,-3.4811],[116.4192,-3.4889],[116.4202,-3.4929],[116.4179,-3.4986],[116.4181,-3.5033]]]}},{"type":"Feature","properties":{"name":"Sekapung","name_en":"Sekapung","admin_level":"7","osm_id":""},"geometry":{"type":"Polygon","coordinates":[[[116.3664,-3.5941],[116.3763,-3.595],[116.3941,-3.5928],[116.4034,-3.5936],[116.4023,-3.6071],[116.3991,-3.6133],[116.3991,-3.6265],[116.3945,-3.6275],[116.3909,-3.6259],[116.3864,-3.6275],[116.3838,-3.6372],[116.3845,-3.6474],[116.3796,-3.6522],[116.3739,-3.6499],[116.3703,-3.6515],[116.3623,-3.6508],[116.359,-3.6369],[116.3534,-3.6237],[116.3516,-3.6122],[116.3499,-3.6108],[116.3544,-3.6052],[116.3549,-3.6023],[116.3481,-3.5946],[116.3481,-3.5923],[116.3664,-3.5941]]]}},{"type":"Feature","properties":{"name":"SungaiBali","name_en":"SungaiBali","admin_level":"7","osm_id":""},"geometry":{"type":"Polygon","coordinates":[[[116.3985,-3.3996],[116.4006,-3.4],[116.4008,-3.4031],[116.4058,-3.4058],[116.4099,-3.4053],[116.4195,-3.3995],[116.4322,-3.4028],[116.432,-3.4126],[116.435,-3.4223],[116.4228,-3.4515],[116.4206,-3.4678],[116.4158,-3.4645],[116.4113,-3.457],[116.4039,-3.4525],[116.389,-3.4368],[116.3731,-3.4237],[116.3885,-3.4145],[116.3924,-3.4095],[116.3943,-3.4032],[116.3985,-3.3996]]]}},{"type":"Feature","properties":{"name":"TanjungMangkuk","name_en":"TanjungMangkuk","admin_level":"7","osm_id":""},"geometry":{"type":"Polygon","coordinates":[[[116.4352,-3.3913],[116.4292,-3.3913],[116.4163,-3.3873],[116.4083,-3.3877],[116.4067,-3.3859],[116.4015,-3.3847],[116.4056,-3.3794],[116.4058,-3.3739],[116.4094,-3.3706],[116.4068,-3.3667],[116.4093,-3.3606],[116.4229,-3.3652],[116.4273,-3.3636],[116.4294,-3.3647],[116.4328,-3.3716],[116.4358,-3.3859],[116.4352,-3.3913]]]}}]}