{"type":"FeatureCollection","metadata":{"parent_osm_id":"19893053","parent_name":"Kolang","parent_name_1":"SumateraUtara","parent_gid":"IDN.32.31.5_1","parent_level":"6","child_level":"7","count":12,"source":"GADM 4.1","generated":"2026-05-09"},"features":[{"type":"Feature","properties":{"name":"HudopaNauli","name_en":"HudopaNauli","admin_level":"7","osm_id":""},"geometry":{"type":"Polygon","coordinates":[[[98.7298,1.8458],[98.731,1.8497],[98.7358,1.8556],[98.743,1.8588],[98.7424,1.8666],[98.7361,1.8725],[98.7369,1.8784],[98.7438,1.8809],[98.7447,1.8835],[98.7125,1.902],[98.7281,1.9096],[98.7378,1.9164],[98.7546,1.923],[98.7592,1.9394],[98.768,1.9483],[98.7904,1.9609],[98.8035,1.9591],[98.8071,1.9565],[98.813,1.9446],[98.8181,1.9441],[98.8196,1.9354],[98.8236,1.926],[98.8228,1.919],[98.8249,1.9117],[98.8202,1.9042],[98.8213,1.8996],[98.8159,1.8925],[98.8138,1.8862],[98.8087,1.8842],[98.796,1.8891],[98.7909,1.8894],[98.7852,1.8781],[98.7855,1.8685],[98.7897,1.8572],[98.7825,1.8484],[98.7748,1.8503],[98.7703,1.8497],[98.7627,1.8421],[98.7493,1.8424],[98.7298,1.8458]]]}},{"type":"Feature","properties":{"name":"HurlangMuaraNauli","name_en":"HurlangMuaraNauli","admin_level":"7","osm_id":""},"geometry":{"type":"Polygon","coordinates":[[[98.6334,1.886],[98.6374,1.8819],[98.6525,1.876],[98.6474,1.8734],[98.6515,1.8709],[98.6486,1.8697],[98.644,1.8636],[98.6455,1.8589],[98.6394,1.8548],[98.6367,1.8573],[98.6211,1.8504],[98.6094,1.8536],[98.607,1.8556],[98.6127,1.8705],[98.6226,1.8796],[98.6334,1.886]]]}},{"type":"Feature","properties":{"name":"KolangNauli","name_en":"KolangNauli","admin_level":"7","osm_id":""},"geometry":{"type":"Polygon","coordinates":[[[98.6478,1.8775],[98.6374,1.8819],[98.6334,1.886],[98.6423,1.8991],[98.6555,1.8987],[98.6564,1.8897],[98.6609,1.8872],[98.6619,1.8838],[98.6529,1.8829],[98.6478,1.8775]]]}},{"type":"Feature","properties":{"name":"MakartiNauli","name_en":"MakartiNauli","admin_level":"7","osm_id":""},"geometry":{"type":"Polygon","coordinates":[[[98.6414,1.7975],[98.6462,1.802],[98.6644,1.8113],[98.6689,1.811],[98.6757,1.8134],[98.6685,1.8187],[98.6667,1.8224],[98.6733,1.8247],[98.6769,1.8204],[98.6817,1.8187],[98.6949,1.7989],[98.6957,1.7883],[98.6787,1.7849],[98.6581,1.7723],[98.6414,1.7975]]]}},{"type":"Feature","properties":{"name":"PasarOnanHurlang","name_en":"PasarOnanHurlang","admin_level":"7","osm_id":""},"geometry":{"type":"Polygon","coordinates":[[[98.6619,1.8838],[98.6609,1.8872],[98.6564,1.8897],[98.6555,1.8987],[98.6631,1.8974],[98.6739,1.9017],[98.6906,1.9011],[98.6923,1.8939],[98.6902,1.8876],[98.6929,1.8751],[98.6851,1.8774],[98.679,1.8829],[98.6619,1.8838]]]}},{"type":"Feature","properties":{"name":"RawaMakmur","name_en":"RawaMakmur","admin_level":"7","osm_id":""},"geometry":{"type":"Polygon","coordinates":[[[98.6667,1.8224],[98.6685,1.8187],[98.6757,1.8134],[98.6689,1.811],[98.6644,1.8113],[98.6462,1.802],[98.6414,1.7975],[98.6213,1.8192],[98.642,1.8366],[98.6492,1.8443],[98.6544,1.8541],[98.6562,1.8513],[98.6575,1.8526],[98.6583,1.8511],[98.659,1.8442],[98.666,1.8399],[98.6646,1.8355],[98.6609,1.8311],[98.6667,1.8224]]]}},{"type":"Feature","properties":{"name":"SatahiNauli","name_en":"SatahiNauli","admin_level":"7","osm_id":""},"geometry":{"type":"Polygon","coordinates":[[[98.7361,1.8725],[98.7424,1.8666],[98.743,1.8588],[98.7358,1.8556],[98.731,1.8497],[98.7298,1.8458],[98.6783,1.8761],[98.6562,1.8513],[98.6544,1.8541],[98.6492,1.8443],[98.642,1.8366],[98.6213,1.8192],[98.6069,1.8392],[98.5995,1.8457],[98.5948,1.8475],[98.6003,1.8499],[98.6021,1.8549],[98.607,1.8556],[98.6094,1.8536],[98.6211,1.8504],[98.6367,1.8573],[98.6394,1.8548],[98.6455,1.8589],[98.644,1.8636],[98.6486,1.8697],[98.6515,1.8709],[98.6474,1.8734],[98.6525,1.876],[98.6478,1.8775],[98.6529,1.8829],[98.6638,1.8842],[98.6663,1.8826],[98.679,1.8829],[98.6851,1.8774],[98.6929,1.8751],[98.6982,1.8752],[98.7003,1.8703],[98.7085,1.8663],[98.7168,1.866],[98.7361,1.8725]]]}},{"type":"Feature","properties":{"name":"SipakpahiAekLobu","name_en":"SipakpahiAekLobu","admin_level":"7","osm_id":""},"geometry":{"type":"Polygon","coordinates":[[[98.7125,1.902],[98.7447,1.8835],[98.7438,1.8809],[98.7369,1.8784],[98.7361,1.8725],[98.7168,1.866],[98.7085,1.8663],[98.7003,1.8703],[98.6982,1.8752],[98.6929,1.8751],[98.6902,1.8876],[98.6923,1.8939],[98.6906,1.9011],[98.7075,1.8993],[98.7125,1.902]]]}},{"type":"Feature","properties":{"name":"UnteMungkurI","name_en":"UnteMungkurI","admin_level":"7","osm_id":""},"geometry":{"type":"Polygon","coordinates":[[[98.666,1.8399],[98.659,1.8442],[98.6575,1.8526],[98.6783,1.8761],[98.6965,1.8651],[98.6833,1.8486],[98.67,1.8382],[98.666,1.8399]]]}},{"type":"Feature","properties":{"name":"UnteMungkurIi","name_en":"UnteMungkurIi","admin_level":"7","osm_id":""},"geometry":{"type":"Polygon","coordinates":[[[98.6891,1.808],[98.6817,1.8187],[98.6769,1.8204],[98.6733,1.8247],[98.6667,1.8224],[98.6609,1.8311],[98.6646,1.8355],[98.666,1.8399],[98.67,1.8382],[98.6833,1.8486],[98.6965,1.8651],[98.7045,1.8601],[98.6881,1.8335],[98.6891,1.808]]]}},{"type":"Feature","properties":{"name":"UnteMungkurIii","name_en":"UnteMungkurIii","admin_level":"7","osm_id":""},"geometry":{"type":"Polygon","coordinates":[[[98.6957,1.7883],[98.6949,1.7989],[98.6891,1.808],[98.6881,1.8335],[98.7045,1.8601],[98.7229,1.8491],[98.7091,1.8369],[98.7053,1.8305],[98.7101,1.8222],[98.7132,1.7953],[98.6957,1.7883]]]}},{"type":"Feature","properties":{"name":"UnteMungkurIv","name_en":"UnteMungkurIv","admin_level":"7","osm_id":""},"geometry":{"type":"Polygon","coordinates":[[[98.7298,1.8458],[98.7493,1.8424],[98.7627,1.8421],[98.7438,1.8178],[98.7311,1.8068],[98.7132,1.7953],[98.7101,1.8222],[98.7053,1.8305],[98.7091,1.8369],[98.7228,1.8491],[98.7298,1.8458]]]}}]}