{"type":"FeatureCollection","metadata":{"parent_osm_id":"gid_IDN_11_30_7_1","parent_name":"Kotaanyar","parent_name_1":"JawaTimur","parent_gid":"IDN.11.30.7_1","parent_level":"6","child_level":"7","count":13,"source":"GADM 4.1","generated":"2026-05-07"},"features":[{"type":"Feature","properties":{"name":"CurahTemu","name_en":"CurahTemu","admin_level":"7","osm_id":""},"geometry":{"type":"Polygon","coordinates":[[[113.5618,-7.7514],[113.5602,-7.7498],[113.5621,-7.7483],[113.5623,-7.7457],[113.5593,-7.745],[113.5589,-7.7432],[113.5732,-7.7444],[113.5762,-7.75],[113.5764,-7.7562],[113.5905,-7.7635],[113.5984,-7.771],[113.6027,-7.7819],[113.6015,-7.785],[113.5993,-7.7846],[113.5911,-7.7751],[113.5858,-7.7726],[113.5762,-7.7611],[113.572,-7.7606],[113.5731,-7.7535],[113.5707,-7.7573],[113.5679,-7.7537],[113.5618,-7.7514]]]}},{"type":"Feature","properties":{"name":"KedungRejoso","name_en":"KedungRejoso","admin_level":"7","osm_id":""},"geometry":{"type":"Polygon","coordinates":[[[113.5337,-7.7677],[113.5287,-7.7696],[113.5273,-7.7652],[113.5229,-7.7614],[113.5229,-7.7591],[113.5161,-7.76],[113.5145,-7.7561],[113.5173,-7.7518],[113.5151,-7.7508],[113.517,-7.7484],[113.5163,-7.7453],[113.5201,-7.7446],[113.5197,-7.7511],[113.5256,-7.7513],[113.525,-7.7546],[113.5269,-7.7566],[113.5285,-7.7634],[113.5325,-7.7643],[113.5322,-7.7671],[113.5337,-7.7677]]]}},{"type":"Feature","properties":{"name":"Kotaanyar","name_en":"Kotaanyar","admin_level":"7","osm_id":""},"geometry":{"type":"Polygon","coordinates":[[[113.5589,-7.7432],[113.5593,-7.745],[113.5623,-7.7457],[113.5621,-7.7483],[113.5602,-7.7498],[113.5617,-7.7516],[113.5561,-7.7486],[113.5489,-7.7519],[113.5437,-7.7467],[113.5403,-7.7461],[113.5385,-7.7477],[113.537,-7.7453],[113.5369,-7.7494],[113.5357,-7.7503],[113.5374,-7.7544],[113.5358,-7.7545],[113.5321,-7.749],[113.533,-7.7469],[113.5311,-7.7393],[113.5381,-7.7389],[113.5435,-7.736],[113.5402,-7.7269],[113.5452,-7.7217],[113.5451,-7.7277],[113.5474,-7.735],[113.5501,-7.7357],[113.5519,-7.7409],[113.5589,-7.7432]]]}},{"type":"Feature","properties":{"name":"Pasembon","name_en":"Pasembon","admin_level":"7","osm_id":""},"geometry":{"type":"Polygon","coordinates":[[[113.5618,-7.7514],[113.5679,-7.7537],[113.5707,-7.7573],[113.5731,-7.7535],[113.5734,-7.7572],[113.5714,-7.7592],[113.5754,-7.7637],[113.5744,-7.7685],[113.5552,-7.7591],[113.5553,-7.7561],[113.5527,-7.7558],[113.5523,-7.7575],[113.5493,-7.7565],[113.547,-7.7548],[113.5453,-7.7497],[113.5481,-7.75],[113.5489,-7.7519],[113.5572,-7.7487],[113.5618,-7.7514]]]}},{"type":"Feature","properties":{"name":"SambirampakKidul","name_en":"SambirampakKidul","admin_level":"7","osm_id":""},"geometry":{"type":"Polygon","coordinates":[[[113.5378,-7.7784],[113.5414,-7.7777],[113.5424,-7.7746],[113.5477,-7.7742],[113.5563,-7.7842],[113.5589,-7.7851],[113.5517,-7.7858],[113.5439,-7.7839],[113.5388,-7.7808],[113.5363,-7.782],[113.5359,-7.7786],[113.5378,-7.7784]]]}},{"type":"Feature","properties":{"name":"SambirampakLor","name_en":"SambirampakLor","admin_level":"7","osm_id":""},"geometry":{"type":"Polygon","coordinates":[[[113.5292,-7.7697],[113.534,-7.767],[113.5421,-7.7654],[113.5458,-7.7688],[113.5477,-7.7742],[113.5424,-7.7746],[113.5414,-7.7777],[113.5378,-7.7784],[113.5376,-7.773],[113.5307,-7.7715],[113.5292,-7.7697]]]}},{"type":"Feature","properties":{"name":"Sidomulyo","name_en":"Sidomulyo","admin_level":"7","osm_id":""},"geometry":{"type":"Polygon","coordinates":[[[113.5589,-7.7851],[113.5563,-7.7842],[113.5473,-7.7738],[113.5483,-7.7686],[113.5547,-7.77],[113.5553,-7.7663],[113.5603,-7.7656],[113.5669,-7.7677],[113.5693,-7.7724],[113.5736,-7.7734],[113.5736,-7.7768],[113.5789,-7.7799],[113.5808,-7.7842],[113.5791,-7.7867],[113.5753,-7.787],[113.5726,-7.7895],[113.562,-7.7841],[113.5589,-7.7851]]]}},{"type":"Feature","properties":{"name":"Sidorejo","name_en":"Sidorejo","admin_level":"7","osm_id":""},"geometry":{"type":"Polygon","coordinates":[[[113.5503,-7.7571],[113.5553,-7.7561],[113.5552,-7.7591],[113.5581,-7.7595],[113.567,-7.7659],[113.5553,-7.7663],[113.5547,-7.77],[113.5483,-7.7686],[113.5469,-7.7714],[113.5413,-7.7654],[113.5403,-7.7617],[113.5485,-7.7594],[113.5503,-7.7571]]]}},{"type":"Feature","properties":{"name":"Sukorejo","name_en":"Sukorejo","admin_level":"7","osm_id":""},"geometry":{"type":"Polygon","coordinates":[[[113.5337,-7.7677],[113.5322,-7.7671],[113.5325,-7.7643],[113.5344,-7.7645],[113.5342,-7.7563],[113.5281,-7.7545],[113.5279,-7.7522],[113.5372,-7.7545],[113.5357,-7.7503],[113.5369,-7.7494],[113.537,-7.7453],[113.5385,-7.7477],[113.5403,-7.7461],[113.5437,-7.7467],[113.55,-7.7582],[113.5403,-7.7617],[113.5412,-7.7661],[113.5337,-7.7677]]]}},{"type":"Feature","properties":{"name":"SumberCenteng","name_en":"SumberCenteng","admin_level":"7","osm_id":""},"geometry":{"type":"Polygon","coordinates":[[[113.516,-7.7598],[113.5229,-7.7591],[113.5229,-7.7614],[113.5278,-7.7659],[113.5278,-7.7692],[113.5307,-7.7715],[113.5376,-7.773],[113.5378,-7.7784],[113.536,-7.7782],[113.5356,-7.7801],[113.5275,-7.7788],[113.5281,-7.7755],[113.525,-7.775],[113.519,-7.7675],[113.516,-7.7598]]]}},{"type":"Feature","properties":{"name":"Talkandang","name_en":"Talkandang","admin_level":"7","osm_id":""},"geometry":{"type":"Polygon","coordinates":[[[113.5325,-7.7643],[113.5285,-7.7634],[113.5269,-7.7566],[113.525,-7.7546],[113.5256,-7.7513],[113.5197,-7.7511],[113.52,-7.7445],[113.5318,-7.7445],[113.5327,-7.7457],[113.532,-7.7487],[113.5348,-7.7539],[113.5303,-7.752],[113.5279,-7.7526],[113.5282,-7.7546],[113.5342,-7.7563],[113.5344,-7.7645],[113.5325,-7.7643]]]}},{"type":"Feature","properties":{"name":"Tambakukir","name_en":"Tambakukir","admin_level":"7","osm_id":""},"geometry":{"type":"Polygon","coordinates":[[[113.5747,-7.7616],[113.5762,-7.7611],[113.5858,-7.7726],[113.5911,-7.7751],[113.5993,-7.7846],[113.6015,-7.785],[113.6041,-7.7981],[113.5952,-7.7972],[113.5881,-7.7917],[113.5776,-7.7877],[113.5808,-7.7842],[113.5792,-7.7802],[113.5736,-7.7768],[113.5736,-7.7734],[113.5693,-7.7724],[113.567,-7.7678],[113.5638,-7.7665],[113.567,-7.766],[113.5666,-7.7647],[113.5744,-7.7685],[113.5756,-7.7648],[113.5747,-7.7616]]]}},{"type":"Feature","properties":{"name":"Triwungan","name_en":"Triwungan","admin_level":"7","osm_id":""},"geometry":{"type":"Polygon","coordinates":[[[113.5311,-7.7393],[113.5318,-7.7445],[113.52,-7.7445],[113.5169,-7.7384],[113.517,-7.7321],[113.5184,-7.73],[113.5204,-7.7305],[113.5206,-7.7289],[113.5206,-7.7306],[113.5261,-7.731],[113.5259,-7.7375],[113.5302,-7.7379],[113.5311,-7.7393]]]}}]}