{"type":"FeatureCollection","metadata":{"parent_osm_id":"13290231","parent_name":"Sukasari","parent_name_1":"JawaBarat","parent_gid":"IDN.9.22.14_1","parent_level":"6","child_level":"7","count":5,"source":"GADM 4.1","generated":"2026-05-09"},"features":[{"type":"Feature","properties":{"name":"Ciririp","name_en":"Ciririp","admin_level":"7","osm_id":""},"geometry":{"type":"Polygon","coordinates":[[[107.2205,-6.5907],[107.2238,-6.5857],[107.236,-6.5772],[107.2504,-6.5734],[107.2587,-6.5589],[107.2719,-6.5637],[107.2906,-6.5672],[107.2919,-6.571],[107.2905,-6.5765],[107.2925,-6.5773],[107.2907,-6.579],[107.2915,-6.5819],[107.2903,-6.5832],[107.2939,-6.5847],[107.2911,-6.5851],[107.2934,-6.5881],[107.2908,-6.5909],[107.2935,-6.5934],[107.2943,-6.592],[107.2964,-6.5948],[107.2904,-6.5961],[107.2876,-6.5984],[107.2856,-6.5974],[107.2786,-6.5993],[107.2736,-6.5977],[107.2713,-6.5936],[107.2633,-6.5906],[107.2548,-6.5901],[107.2502,-6.5945],[107.2455,-6.5956],[107.2205,-6.5907]]]}},{"type":"Feature","properties":{"name":"Kertamanah","name_en":"Kertamanah","admin_level":"7","osm_id":""},"geometry":{"type":"Polygon","coordinates":[[[107.2587,-6.5589],[107.265,-6.5553],[107.2672,-6.5464],[107.2726,-6.536],[107.2778,-6.5353],[107.2839,-6.5299],[107.286,-6.5222],[107.2843,-6.5157],[107.2915,-6.5159],[107.2957,-6.5139],[107.3027,-6.5148],[107.3148,-6.5196],[107.3208,-6.5277],[107.318,-6.5315],[107.3156,-6.5295],[107.3137,-6.5308],[107.3128,-6.529],[107.3101,-6.5298],[107.3019,-6.5275],[107.3006,-6.5244],[107.2971,-6.5267],[107.3005,-6.5302],[107.2996,-6.5312],[107.3021,-6.5312],[107.3041,-6.5381],[107.3032,-6.5389],[107.3028,-6.5353],[107.3002,-6.5325],[107.3007,-6.5345],[107.2977,-6.5355],[107.298,-6.5382],[107.2955,-6.5409],[107.2908,-6.5403],[107.2942,-6.5432],[107.293,-6.5443],[107.296,-6.5445],[107.2922,-6.5458],[107.2931,-6.547],[107.2914,-6.5486],[107.2879,-6.5467],[107.29,-6.5493],[107.2855,-6.5497],[107.2884,-6.5514],[107.2868,-6.5539],[107.2891,-6.5539],[107.2892,-6.5603],[107.2923,-6.5599],[107.295,-6.5618],[107.2951,-6.5639],[107.2906,-6.5672],[107.2719,-6.5637],[107.2587,-6.5589]]]}},{"type":"Feature","properties":{"name":"Kutamanah","name_en":"Kutamanah","admin_level":"7","osm_id":""},"geometry":{"type":"Polygon","coordinates":[[[107.2982,-6.4966],[107.3058,-6.491],[107.3275,-6.4845],[107.3358,-6.4854],[107.3403,-6.4881],[107.3511,-6.4857],[107.3667,-6.4967],[107.375,-6.4952],[107.3775,-6.4972],[107.3903,-6.4998],[107.3917,-6.5029],[107.3887,-6.5178],[107.3891,-6.5239],[107.381,-6.5231],[107.3695,-6.516],[107.3654,-6.5109],[107.3602,-6.5088],[107.3602,-6.5075],[107.3581,-6.5078],[107.3576,-6.5064],[107.3525,-6.5055],[107.3527,-6.5042],[107.3513,-6.5049],[107.3387,-6.5001],[107.3266,-6.4931],[107.3238,-6.4936],[107.3248,-6.495],[107.3234,-6.4967],[107.3309,-6.501],[107.329,-6.503],[107.327,-6.5009],[107.3246,-6.5021],[107.3238,-6.5],[107.3225,-6.5007],[107.322,-6.4992],[107.3188,-6.4986],[107.3175,-6.5016],[107.3177,-6.4987],[107.3156,-6.4999],[107.3135,-6.4987],[107.3093,-6.4991],[107.3065,-6.5023],[107.3085,-6.5077],[107.3111,-6.5065],[107.3122,-6.5081],[107.3131,-6.5067],[107.3165,-6.5072],[107.3181,-6.5114],[107.3214,-6.5105],[107.3233,-6.5156],[107.3254,-6.5148],[107.324,-6.5173],[107.3262,-6.5203],[107.3263,-6.5237],[107.3241,-6.5273],[107.3223,-6.5263],[107.3208,-6.5277],[107.3148,-6.5196],[107.3027,-6.5148],[107.2957,-6.5139],[107.2915,-6.5159],[107.2843,-6.5157],[107.2855,-6.5115],[107.2845,-6.5105],[107.2861,-6.5086],[107.2855,-6.5048],[107.289,-6.5044],[107.2891,-6.5017],[107.2982,-6.4966]]]}},{"type":"Feature","properties":{"name":"Parungbanteng","name_en":"Parungbanteng","admin_level":"7","osm_id":""},"geometry":{"type":"Polygon","coordinates":[[[107.2642,-6.6386],[107.2637,-6.6356],[107.2588,-6.6295],[107.2571,-6.6303],[107.2537,-6.6289],[107.2409,-6.6184],[107.2383,-6.6158],[107.2349,-6.6071],[107.2288,-6.6045],[107.2271,-6.6021],[107.2325,-6.5997],[107.2523,-6.5997],[107.2659,-6.6095],[107.2716,-6.6157],[107.2773,-6.6161],[107.2831,-6.6203],[107.2819,-6.622],[107.2823,-6.6227],[107.2845,-6.6218],[107.2846,-6.6233],[107.2883,-6.6232],[107.2883,-6.6245],[107.2863,-6.6247],[107.2878,-6.626],[107.2907,-6.6249],[107.2903,-6.6275],[107.294,-6.6273],[107.2924,-6.6244],[107.2968,-6.6275],[107.2943,-6.6299],[107.2923,-6.6292],[107.2924,-6.6305],[107.2866,-6.6292],[107.29,-6.6323],[107.2887,-6.6339],[107.2898,-6.6343],[107.2844,-6.6342],[107.2897,-6.6356],[107.2913,-6.6323],[107.2932,-6.6343],[107.2951,-6.6312],[107.2948,-6.6338],[107.2957,-6.6336],[107.2998,-6.6286],[107.3003,-6.6318],[107.2949,-6.6366],[107.2973,-6.6363],[107.2965,-6.6386],[107.2906,-6.6394],[107.2922,-6.6397],[107.2921,-6.6453],[107.2798,-6.6446],[107.2774,-6.6418],[107.279,-6.6403],[107.2784,-6.6386],[107.2741,-6.6416],[107.2726,-6.6379],[107.2697,-6.6415],[107.2671,-6.6414],[107.2642,-6.6386]]]}},{"type":"Feature","properties":{"name":"Sukasari","name_en":"Sukasari","admin_level":"7","osm_id":""},"geometry":{"type":"Polygon","coordinates":[[[107.2271,-6.6021],[107.2205,-6.5907],[107.2452,-6.5956],[107.2502,-6.5945],[107.255,-6.5901],[107.2653,-6.5909],[107.2713,-6.5936],[107.2736,-6.5977],[107.276,-6.5989],[107.2833,-6.5988],[107.2856,-6.5974],[107.2876,-6.5984],[107.2885,-6.597],[107.2946,-6.6004],[107.2927,-6.601],[107.2939,-6.6015],[107.2927,-6.6027],[107.297,-6.6004],[107.2917,-6.6066],[107.288,-6.606],[107.2906,-6.6085],[107.2914,-6.6077],[107.292,-6.6104],[107.2964,-6.6111],[107.2988,-6.6135],[107.295,-6.6118],[107.2966,-6.6148],[107.2925,-6.6134],[107.2914,-6.6112],[107.2891,-6.6118],[107.2897,-6.6097],[107.2882,-6.6114],[107.2862,-6.6091],[107.2841,-6.6098],[107.2881,-6.6121],[107.2878,-6.6141],[107.2893,-6.6131],[107.2895,-6.6157],[107.2908,-6.6144],[107.2957,-6.6167],[107.2914,-6.6208],[107.2893,-6.6208],[107.2882,-6.6175],[107.2839,-6.6177],[107.2873,-6.6184],[107.2906,-6.623],[107.28,-6.619],[107.2773,-6.6161],[107.2716,-6.6157],[107.2659,-6.6095],[107.2497,-6.5988],[107.2318,-6.5998],[107.2271,-6.6021]]]}}]}