{"type":"FeatureCollection","metadata":{"parent_osm_id":"gid_IDN_4_4_10_1","parent_name":"Cileles","parent_name_1":"Banten","parent_gid":"IDN.4.4.10_1","parent_level":"6","child_level":"7","count":12,"source":"GADM 4.1","generated":"2026-05-09"},"features":[{"type":"Feature","properties":{"name":"Banjarsari","name_en":"Banjarsari","admin_level":"7","osm_id":""},"geometry":{"type":"Polygon","coordinates":[[[106.0393,-6.4656],[106.0377,-6.4706],[106.0306,-6.4684],[106.0293,-6.4662],[106.0325,-6.4562],[106.0205,-6.4539],[106.0181,-6.4518],[106.0208,-6.4453],[106.0245,-6.4419],[106.0259,-6.4319],[106.0384,-6.4222],[106.0448,-6.4129],[106.0521,-6.4119],[106.0572,-6.4139],[106.0572,-6.4158],[106.0488,-6.4306],[106.0457,-6.4331],[106.0436,-6.441],[106.0452,-6.4436],[106.0436,-6.4526],[106.0456,-6.4534],[106.0458,-6.4562],[106.0442,-6.4574],[106.0445,-6.461],[106.0393,-6.4656]]]}},{"type":"Feature","properties":{"name":"Cikareo","name_en":"Cikareo","admin_level":"7","osm_id":""},"geometry":{"type":"Polygon","coordinates":[[[106.1027,-6.4833],[106.1114,-6.4848],[106.1156,-6.4932],[106.114,-6.4939],[106.1128,-6.4917],[106.1098,-6.4926],[106.1052,-6.4903],[106.0994,-6.4972],[106.0986,-6.5002],[106.0929,-6.5041],[106.0856,-6.5146],[106.0798,-6.5164],[106.0752,-6.5236],[106.0702,-6.5221],[106.0714,-6.5289],[106.0644,-6.5272],[106.0614,-6.5228],[106.063,-6.5193],[106.062,-6.5105],[106.0632,-6.5068],[106.0612,-6.5069],[106.0605,-6.5039],[106.0576,-6.5029],[106.058,-6.5008],[106.0555,-6.5003],[106.0544,-6.4896],[106.0647,-6.4897],[106.0776,-6.4796],[106.0798,-6.4723],[106.0894,-6.4812],[106.1027,-6.4833]]]}},{"type":"Feature","properties":{"name":"Cileles","name_en":"Cileles","admin_level":"7","osm_id":""},"geometry":{"type":"Polygon","coordinates":[[[106.1469,-6.491],[106.1476,-6.4924],[106.1446,-6.4946],[106.1443,-6.498],[106.1478,-6.5021],[106.1462,-6.5029],[106.1461,-6.5051],[106.1478,-6.5046],[106.1467,-6.5075],[106.1426,-6.5089],[106.1453,-6.5112],[106.1419,-6.5131],[106.1369,-6.5128],[106.128,-6.5032],[106.125,-6.4932],[106.1192,-6.4915],[106.1102,-6.484],[106.1027,-6.4833],[106.1042,-6.4707],[106.1078,-6.4689],[106.122,-6.4722],[106.134,-6.4817],[106.1382,-6.4801],[106.1429,-6.4881],[106.1469,-6.491]]]}},{"type":"Feature","properties":{"name":"Cipadang","name_en":"Cipadang","admin_level":"7","osm_id":""},"geometry":{"type":"Polygon","coordinates":[[[106.0462,-6.4833],[106.045,-6.4729],[106.0393,-6.4655],[106.0445,-6.461],[106.0442,-6.4574],[106.0458,-6.4562],[106.0449,-6.4515],[106.0553,-6.4511],[106.0622,-6.4528],[106.0643,-6.4586],[106.0704,-6.4588],[106.0742,-6.4694],[106.0798,-6.4723],[106.0769,-6.4805],[106.0633,-6.4904],[106.0533,-6.4893],[106.0462,-6.4833]]]}},{"type":"Feature","properties":{"name":"Daroyon","name_en":"Daroyon","admin_level":"7","osm_id":""},"geometry":{"type":"Polygon","coordinates":[[[106.1074,-6.4366],[106.1149,-6.4321],[106.1179,-6.4323],[106.1197,-6.4382],[106.123,-6.4409],[106.1225,-6.445],[106.1239,-6.4461],[106.1229,-6.4484],[106.1193,-6.4497],[106.1132,-6.4556],[106.1106,-6.4599],[106.1079,-6.4604],[106.1031,-6.4668],[106.0961,-6.4616],[106.0945,-6.456],[106.0899,-6.452],[106.0776,-6.4481],[106.0796,-6.4412],[106.0839,-6.4415],[106.084,-6.4432],[106.0868,-6.4442],[106.0895,-6.4429],[106.094,-6.4439],[106.095,-6.4384],[106.1011,-6.4399],[106.1074,-6.4366]]]}},{"type":"Feature","properties":{"name":"Gumuruh","name_en":"Gumuruh","admin_level":"7","osm_id":""},"geometry":{"type":"Polygon","coordinates":[[[106.1009,-6.4272],[106.1074,-6.4366],[106.1011,-6.4399],[106.095,-6.4384],[106.094,-6.4439],[106.0895,-6.4429],[106.0868,-6.4442],[106.084,-6.4432],[106.0839,-6.4415],[106.0796,-6.4412],[106.0792,-6.4377],[106.0735,-6.4353],[106.0734,-6.4252],[106.0716,-6.421],[106.0724,-6.411],[106.0784,-6.4114],[106.0793,-6.414],[106.0836,-6.4148],[106.0865,-6.4239],[106.0941,-6.4277],[106.1009,-6.4272]]]}},{"type":"Feature","properties":{"name":"Kujangsari","name_en":"Kujangsari","admin_level":"7","osm_id":""},"geometry":{"type":"Polygon","coordinates":[[[106.0714,-6.5289],[106.0702,-6.5221],[106.0752,-6.5236],[106.0798,-6.5164],[106.0856,-6.5146],[106.0929,-6.5041],[106.0986,-6.5002],[106.0994,-6.4972],[106.1052,-6.4903],[106.1108,-6.4928],[106.1095,-6.4972],[106.1118,-6.4988],[106.1109,-6.5008],[106.1141,-6.5026],[106.1101,-6.5049],[106.1132,-6.5053],[106.1128,-6.5096],[106.1043,-6.5072],[106.105,-6.5107],[106.1029,-6.5136],[106.1003,-6.5119],[106.0983,-6.5161],[106.0955,-6.5156],[106.0893,-6.5335],[106.0836,-6.5358],[106.0697,-6.5372],[106.0714,-6.5289]]]}},{"type":"Feature","properties":{"name":"Margamulya","name_en":"Margamulya","admin_level":"7","osm_id":""},"geometry":{"type":"Polygon","coordinates":[[[106.1027,-6.4833],[106.0894,-6.4812],[106.0821,-6.4731],[106.0742,-6.4694],[106.0704,-6.4588],[106.0765,-6.4519],[106.0776,-6.4481],[106.0899,-6.452],[106.0945,-6.456],[106.0961,-6.4616],[106.1031,-6.4668],[106.1042,-6.4717],[106.1027,-6.4833]]]}},{"type":"Feature","properties":{"name":"Mekarjaya","name_en":"Mekarjaya","admin_level":"7","osm_id":""},"geometry":{"type":"Polygon","coordinates":[[[106.0019,-6.5133],[106.0022,-6.5107],[106.0052,-6.5078],[106.019,-6.5007],[106.0229,-6.5002],[106.0286,-6.5044],[106.0305,-6.5124],[106.0375,-6.5197],[106.0377,-6.5217],[106.035,-6.5248],[106.0368,-6.5298],[106.0361,-6.5334],[106.0292,-6.5343],[106.0188,-6.5321],[106.0154,-6.5394],[106.0042,-6.5361],[105.9984,-6.5371],[105.9979,-6.5346],[106.001,-6.5324],[106.0029,-6.5246],[106.0006,-6.5185],[106.0019,-6.5133]]]}},{"type":"Feature","properties":{"name":"Parungkujang","name_en":"Parungkujang","admin_level":"7","osm_id":""},"geometry":{"type":"Polygon","coordinates":[[[106.1499,-6.5193],[106.1478,-6.5239],[106.1394,-6.532],[106.1396,-6.5368],[106.1352,-6.5405],[106.1325,-6.5389],[106.1321,-6.5434],[106.1203,-6.5513],[106.1171,-6.5612],[106.1111,-6.5646],[106.1055,-6.5643],[106.1015,-6.5615],[106.1016,-6.5509],[106.0963,-6.549],[106.0937,-6.5431],[106.0922,-6.5438],[106.0942,-6.5357],[106.0906,-6.5306],[106.093,-6.5253],[106.0924,-6.5222],[106.0942,-6.521],[106.0936,-6.5181],[106.0955,-6.5156],[106.0983,-6.5161],[106.1003,-6.5119],[106.1029,-6.5136],[106.105,-6.5107],[106.1043,-6.5072],[106.1128,-6.5096],[106.1132,-6.5053],[106.1101,-6.5049],[106.1141,-6.5026],[106.1108,-6.5006],[106.112,-6.4993],[106.1095,-6.4972],[106.1097,-6.4943],[106.1123,-6.4916],[106.114,-6.4939],[106.1159,-6.4928],[106.1123,-6.4874],[106.1134,-6.4865],[106.12,-6.4921],[106.125,-6.4932],[106.128,-6.5032],[106.136,-6.5123],[106.14,-6.5133],[106.1453,-6.5112],[106.1495,-6.5119],[106.1499,-6.5193]]]}},{"type":"Feature","properties":{"name":"Pasindangan","name_en":"Pasindangan","admin_level":"7","osm_id":""},"geometry":{"type":"Polygon","coordinates":[[[106.0232,-6.5],[106.0294,-6.4974],[106.0371,-6.4978],[106.0398,-6.4889],[106.0462,-6.4833],[106.0543,-6.4893],[106.0555,-6.5003],[106.058,-6.5008],[106.0576,-6.5029],[106.0605,-6.5039],[106.0612,-6.5069],[106.0632,-6.5068],[106.0619,-6.5242],[106.0657,-6.5279],[106.0714,-6.5289],[106.0668,-6.5482],[106.0652,-6.5451],[106.0634,-6.5448],[106.0551,-6.5447],[106.049,-6.5472],[106.0465,-6.5441],[106.0466,-6.5416],[106.0432,-6.5401],[106.0432,-6.5368],[106.0365,-6.5343],[106.0368,-6.5298],[106.035,-6.5248],[106.0377,-6.5217],[106.0375,-6.5197],[106.0305,-6.5124],[106.0286,-6.5044],[106.0232,-6.5]]]}},{"type":"Feature","properties":{"name":"Prabugantungan","name_en":"Prabugantungan","admin_level":"7","osm_id":""},"geometry":{"type":"Polygon","coordinates":[[[106.0447,-6.453],[106.0436,-6.4526],[106.0452,-6.4436],[106.0436,-6.441],[106.0457,-6.4331],[106.0488,-6.4306],[106.0569,-6.4167],[106.0572,-6.4139],[106.0612,-6.4131],[106.0658,-6.4086],[106.0698,-6.409],[106.0719,-6.4119],[106.0735,-6.4353],[106.0797,-6.4383],[106.0765,-6.4519],[106.0704,-6.4588],[106.0672,-6.4594],[106.0643,-6.4586],[106.063,-6.4535],[106.0601,-6.4518],[106.0449,-6.4515],[106.0447,-6.453]]]}}]}