{"type":"FeatureCollection","metadata":{"parent_osm_id":"gid_IDN_30_1_4_1","parent_name":"IvAngkatCandung","parent_name_1":"SumateraBarat","parent_gid":"IDN.30.1.4_1","parent_level":"6","child_level":"7","count":7,"source":"GADM 4.1","generated":"2026-05-08"},"features":[{"type":"Feature","properties":{"name":"AmpangGadang","name_en":"AmpangGadang","admin_level":"7","osm_id":""},"geometry":{"type":"Polygon","coordinates":[[[100.4224,-0.2926],[100.4225,-0.2984],[100.4205,-0.302],[100.412,-0.3054],[100.4043,-0.3138],[100.3966,-0.3066],[100.3966,-0.2938],[100.4097,-0.2942],[100.4224,-0.2926]]]}},{"type":"Feature","properties":{"name":"BalaiGurah","name_en":"BalaiGurah","admin_level":"7","osm_id":""},"geometry":{"type":"Polygon","coordinates":[[[100.4297,-0.3129],[100.4243,-0.316],[100.4244,-0.3118],[100.419,-0.3095],[100.4225,-0.2984],[100.4224,-0.2926],[100.432,-0.2913],[100.443,-0.2922],[100.4516,-0.2962],[100.4444,-0.3039],[100.4297,-0.3129]]]}},{"type":"Feature","properties":{"name":"BatuTaba","name_en":"BatuTaba","admin_level":"7","osm_id":""},"geometry":{"type":"Polygon","coordinates":[[[100.4078,-0.3225],[100.405,-0.3183],[100.4052,-0.3145],[100.4196,-0.3142],[100.419,-0.3095],[100.4244,-0.3118],[100.4243,-0.316],[100.4078,-0.3225]]]}},{"type":"Feature","properties":{"name":"BiaroGadang","name_en":"BiaroGadang","admin_level":"7","osm_id":""},"geometry":{"type":"Polygon","coordinates":[[[100.4224,-0.2926],[100.4097,-0.2942],[100.3966,-0.2938],[100.396,-0.2904],[100.3926,-0.2908],[100.388,-0.2845],[100.3909,-0.2816],[100.4146,-0.2738],[100.4173,-0.2793],[100.4359,-0.2885],[100.4397,-0.288],[100.4516,-0.2962],[100.443,-0.2922],[100.432,-0.2913],[100.4224,-0.2926]]]}},{"type":"Feature","properties":{"name":"Lambah","name_en":"Lambah","admin_level":"7","osm_id":""},"geometry":{"type":"Polygon","coordinates":[[[100.4613,-0.2859],[100.456,-0.2898],[100.4516,-0.2962],[100.4397,-0.288],[100.4359,-0.2885],[100.4173,-0.2793],[100.4146,-0.2738],[100.4203,-0.2684],[100.421,-0.2658],[100.4232,-0.2715],[100.427,-0.2736],[100.428,-0.2782],[100.434,-0.2814],[100.441,-0.2807],[100.4427,-0.2862],[100.4543,-0.2846],[100.4613,-0.2859]]]}},{"type":"Feature","properties":{"name":"Panampung","name_en":"Panampung","admin_level":"7","osm_id":""},"geometry":{"type":"Polygon","coordinates":[[[100.4324,-0.2575],[100.4456,-0.2665],[100.4494,-0.2669],[100.4623,-0.2851],[100.4427,-0.2862],[100.441,-0.2807],[100.434,-0.2814],[100.428,-0.2782],[100.427,-0.2736],[100.4232,-0.2715],[100.421,-0.2658],[100.4284,-0.2586],[100.4324,-0.2575]]]}},{"type":"Feature","properties":{"name":"Pasia","name_en":"Pasia","admin_level":"7","osm_id":""},"geometry":{"type":"Polygon","coordinates":[[[100.4035,-0.3142],[100.412,-0.3054],[100.4205,-0.302],[100.4188,-0.3076],[100.4196,-0.3142],[100.4097,-0.3139],[100.4044,-0.3157],[100.4035,-0.3142]]]}}]}