{"type":"FeatureCollection","metadata":{"parent_osm_id":"8921195","parent_name":"Teunom","parent_name_1":"Aceh","parent_gid":"IDN.1.4.6_1","parent_level":"6","child_level":"7","count":38,"source":"GADM 4.1","generated":"2026-05-09"},"features":[{"type":"Feature","properties":{"name":"AlueAmbang","name_en":"AlueAmbang","admin_level":"7","osm_id":""},"geometry":{"type":"Polygon","coordinates":[[[95.7958,4.4563],[95.7909,4.4617],[95.8072,4.4738],[95.8139,4.4691],[95.807,4.4641],[95.8061,4.461],[95.8008,4.4606],[95.7958,4.4563]]]}},{"type":"Feature","properties":{"name":"AlueJang","name_en":"AlueJang","admin_level":"7","osm_id":""},"geometry":{"type":"Polygon","coordinates":[[[95.9947,4.7563],[95.997,4.752],[96.0048,4.7465],[96.0082,4.7413],[96.0154,4.7247],[96.0115,4.7157],[96.0123,4.7127],[96.0098,4.7075],[96.0066,4.7048],[96.0102,4.6965],[96.0136,4.6931],[96.014,4.6899],[96.0114,4.6857],[96.0111,4.6711],[96.0133,4.6695],[96.0104,4.6578],[96.002,4.6575],[95.9978,4.6501],[95.994,4.6493],[95.9832,4.6417],[95.9798,4.6359],[95.9742,4.6321],[95.9638,4.631],[95.9614,4.6284],[95.9558,4.6304],[95.9464,4.6272],[95.9448,4.6289],[95.9396,4.6285],[95.9332,4.6217],[95.9236,4.6185],[95.9224,4.6127],[95.9243,4.6065],[95.9223,4.6019],[95.8839,4.6315],[95.8861,4.6405],[95.9069,4.6542],[95.921,4.6728],[95.9485,4.6801],[95.9947,4.7563]]]}},{"type":"Feature","properties":{"name":"AlueKrueng","name_en":"AlueKrueng","admin_level":"7","osm_id":""},"geometry":{"type":"Polygon","coordinates":[[[95.8493,4.5152],[95.8848,4.489],[95.885,4.4824],[95.8809,4.4863],[95.8757,4.4811],[95.8419,4.5069],[95.8493,4.5152]]]}},{"type":"Feature","properties":{"name":"AlueMeuraksa","name_en":"AlueMeuraksa","admin_level":"7","osm_id":""},"geometry":{"type":"Polygon","coordinates":[[[95.847,4.6029],[95.8839,4.6315],[95.9049,4.6153],[95.8985,4.6017],[95.9005,4.5846],[95.8849,4.5591],[95.8768,4.567],[95.8591,4.5742],[95.8393,4.5897],[95.847,4.6029]]]}},{"type":"Feature","properties":{"name":"AluePunti","name_en":"AluePunti","admin_level":"7","osm_id":""},"geometry":{"type":"Polygon","coordinates":[[[95.9005,4.5846],[95.8996,4.5927],[95.9228,4.5945],[95.9232,4.5787],[95.921,4.5739],[95.9005,4.5846]]]}},{"type":"Feature","properties":{"name":"Batee-roo","name_en":"Batee-roo","admin_level":"7","osm_id":""},"geometry":{"type":"Polygon","coordinates":[[[95.78,4.4726],[95.771,4.4835],[95.819,4.5308],[95.8298,4.5228],[95.78,4.4726]]]}},{"type":"Feature","properties":{"name":"Bintah","name_en":"Bintah","admin_level":"7","osm_id":""},"geometry":{"type":"Polygon","coordinates":[[[96.0114,4.5509],[96.0,4.5392],[95.9885,4.5363],[95.9687,4.5216],[95.9558,4.5062],[95.9144,4.5425],[95.9168,4.5445],[95.9117,4.5531],[95.9139,4.5589],[95.9232,4.5587],[95.9255,4.5613],[95.9213,4.5688],[95.921,4.5739],[95.9236,4.584],[95.9223,4.5988],[96.0114,4.5509]]]}},{"type":"Feature","properties":{"name":"BlangBaro","name_en":"BlangBaro","admin_level":"7","osm_id":""},"geometry":{"type":"Polygon","coordinates":[[[95.8561,4.4772],[95.8565,4.4723],[95.8599,4.4679],[95.858,4.4656],[95.8509,4.4669],[95.8478,4.4637],[95.8383,4.4694],[95.842,4.4785],[95.8438,4.4886],[95.8479,4.4894],[95.8528,4.4848],[95.8561,4.4772]]]}},{"type":"Feature","properties":{"name":"BlangRamee","name_en":"BlangRamee","admin_level":"7","osm_id":""},"geometry":{"type":"Polygon","coordinates":[[[95.8663,4.5712],[95.8768,4.567],[95.8849,4.5591],[95.8822,4.5537],[95.8651,4.5431],[95.8537,4.5474],[95.8663,4.5712]]]}},{"type":"Feature","properties":{"name":"BuketKemuneng","name_en":"BuketKemuneng","admin_level":"7","osm_id":""},"geometry":{"type":"Polygon","coordinates":[[[95.9734,4.7511],[95.9899,4.7534],[95.9947,4.7563],[95.9485,4.6801],[95.9215,4.6729],[95.9734,4.7511]]]}},{"type":"Feature","properties":{"name":"Ceuraceu","name_en":"Ceuraceu","admin_level":"7","osm_id":""},"geometry":{"type":"Polygon","coordinates":[[[95.9049,4.6153],[95.9223,4.6019],[95.9228,4.5945],[95.8996,4.5927],[95.8985,4.6017],[95.9049,4.6153]]]}},{"type":"Feature","properties":{"name":"CotTrap","name_en":"CotTrap","admin_level":"7","osm_id":""},"geometry":{"type":"Polygon","coordinates":[[[95.8599,4.3861],[95.8473,4.3998],[95.8545,4.4076],[95.8678,4.4104],[95.8804,4.4106],[95.8873,4.4163],[95.897,4.4084],[95.886,4.3999],[95.8599,4.3861]]]}},{"type":"Feature","properties":{"name":"GampongBaro","name_en":"GampongBaro","admin_level":"7","osm_id":""},"geometry":{"type":"Polygon","coordinates":[[[95.8226,4.4598],[95.8239,4.4659],[95.8274,4.4698],[95.8319,4.4708],[95.8383,4.4694],[95.8367,4.464],[95.84,4.4555],[95.8421,4.4526],[95.8459,4.4529],[95.8444,4.4492],[95.8351,4.4428],[95.8354,4.4509],[95.8226,4.4598]]]}},{"type":"Feature","properties":{"name":"KeudeTeunom","name_en":"KeudeTeunom","admin_level":"7","osm_id":""},"geometry":{"type":"Polygon","coordinates":[[[95.8061,4.461],[95.807,4.4641],[95.8139,4.4691],[95.8189,4.4637],[95.8105,4.4568],[95.8061,4.461]]]}},{"type":"Feature","properties":{"name":"KruengBeukah","name_en":"KruengBeukah","admin_level":"7","osm_id":""},"geometry":{"type":"Polygon","coordinates":[[[95.9202,4.5045],[95.9149,4.496],[95.867,4.5349],[95.8779,4.5388],[95.9202,4.5045]]]}},{"type":"Feature","properties":{"name":"Kubu","name_en":"Kubu","admin_level":"7","osm_id":""},"geometry":{"type":"Polygon","coordinates":[[[95.8191,4.5727],[95.8268,4.5849],[95.8393,4.5897],[95.8506,4.5805],[95.8382,4.5602],[95.8191,4.5727]]]}},{"type":"Feature","properties":{"name":"LhokGuci","name_en":"LhokGuci","admin_level":"7","osm_id":""},"geometry":{"type":"Polygon","coordinates":[[[95.9558,4.5062],[95.9505,4.4952],[95.9194,4.5231],[95.8917,4.5427],[95.8913,4.5477],[95.8822,4.5537],[95.8849,4.5591],[95.9004,4.5552],[95.9558,4.5062]]]}},{"type":"Feature","properties":{"name":"LuengGayo","name_en":"LuengGayo","admin_level":"7","osm_id":""},"geometry":{"type":"Polygon","coordinates":[[[95.9048,4.4011],[95.8901,4.3795],[95.8802,4.3724],[95.8767,4.3675],[95.8598,4.386],[95.8913,4.4036],[95.8975,4.409],[95.9067,4.4235],[95.9163,4.419],[95.9048,4.4011]]]}},{"type":"Feature","properties":{"name":"PadangKleng","name_en":"PadangKleng","admin_level":"7","osm_id":""},"geometry":{"type":"Polygon","coordinates":[[[95.8139,4.4691],[95.8072,4.4738],[95.8097,4.4748],[95.8145,4.4832],[95.8168,4.4843],[95.8297,4.4708],[95.8239,4.4659],[95.8226,4.4598],[95.8139,4.4691]]]}},{"type":"Feature","properties":{"name":"Panton","name_en":"Panton","admin_level":"7","osm_id":""},"geometry":{"type":"Polygon","coordinates":[[[95.7958,4.4563],[95.7979,4.4589],[95.8038,4.461],[95.8061,4.461],[95.8105,4.4568],[95.8189,4.4637],[95.8297,4.4554],[95.8243,4.4519],[95.826,4.4493],[95.8253,4.4454],[95.8189,4.431],[95.7958,4.4563]]]}},{"type":"Feature","properties":{"name":"PasiGeulima","name_en":"PasiGeulima","admin_level":"7","osm_id":""},"geometry":{"type":"Polygon","coordinates":[[[95.8478,4.4637],[95.8509,4.4669],[95.8562,4.4655],[95.8592,4.4663],[95.8597,4.4688],[95.8565,4.4723],[95.8561,4.4772],[95.8617,4.4774],[95.8639,4.4722],[95.8669,4.4705],[95.8732,4.4759],[95.8814,4.477],[95.9124,4.4579],[95.9033,4.4439],[95.888,4.4537],[95.882,4.443],[95.8874,4.4341],[95.9067,4.4235],[95.9022,4.4163],[95.8832,4.4287],[95.8736,4.4412],[95.8767,4.4528],[95.8633,4.4599],[95.8505,4.4577],[95.8477,4.4611],[95.8478,4.4637]]]}},{"type":"Feature","properties":{"name":"PasiPawang","name_en":"PasiPawang","admin_level":"7","osm_id":""},"geometry":{"type":"Polygon","coordinates":[[[95.8444,4.4492],[95.8487,4.4556],[95.8598,4.4599],[95.8633,4.4599],[95.8717,4.4549],[95.8678,4.4545],[95.8652,4.4498],[95.8627,4.4488],[95.8514,4.4526],[95.8491,4.4526],[95.8444,4.4492]]]}},{"type":"Feature","properties":{"name":"PasiTeubee","name_en":"PasiTeubee","admin_level":"7","osm_id":""},"geometry":{"type":"Polygon","coordinates":[[[95.8848,4.489],[95.8493,4.5152],[95.8597,4.5269],[95.9095,4.4875],[95.9005,4.4775],[95.8848,4.489]]]}},{"type":"Feature","properties":{"name":"PasiTimon","name_en":"PasiTimon","admin_level":"7","osm_id":""},"geometry":{"type":"Polygon","coordinates":[[[95.9465,4.4865],[95.9352,4.4657],[95.9278,4.4447],[95.9189,4.4328],[95.9163,4.419],[95.8874,4.4341],[95.882,4.443],[95.888,4.4537],[95.9033,4.4439],[95.9124,4.4579],[95.8814,4.477],[95.8795,4.4798],[95.8766,4.4799],[95.8757,4.4823],[95.8786,4.4852],[95.8825,4.4858],[95.8841,4.4819],[95.8848,4.489],[95.9005,4.4775],[95.9095,4.4875],[95.9202,4.5045],[95.9465,4.4865]]]}},{"type":"Feature","properties":{"name":"PasiTulakBala","name_en":"PasiTulakBala","admin_level":"7","osm_id":""},"geometry":{"type":"Polygon","coordinates":[[[95.8297,4.4554],[95.8354,4.4509],[95.8351,4.4428],[95.8272,4.439],[95.8233,4.4414],[95.826,4.4493],[95.8243,4.4519],[95.8297,4.4554]]]}},{"type":"Feature","properties":{"name":"PayaBaro","name_en":"PayaBaro","admin_level":"7","osm_id":""},"geometry":{"type":"Polygon","coordinates":[[[95.8873,4.4163],[95.8804,4.4106],[95.8678,4.4104],[95.8545,4.4076],[95.8475,4.4001],[95.819,4.4313],[95.8233,4.4414],[95.8272,4.439],[95.8444,4.4492],[95.8554,4.4334],[95.8661,4.4234],[95.883,4.4198],[95.8873,4.4163]]]}},{"type":"Feature","properties":{"name":"PuloTinggi","name_en":"PuloTinggi","admin_level":"7","osm_id":""},"geometry":{"type":"Polygon","coordinates":[[[95.8419,4.5069],[95.8766,4.4799],[95.8809,4.4788],[95.8814,4.477],[95.8732,4.4759],[95.8669,4.4705],[95.8639,4.4722],[95.8617,4.4774],[95.8561,4.4772],[95.8528,4.4848],[95.8479,4.4894],[95.8438,4.4886],[95.8363,4.4993],[95.8419,4.5069]]]}},{"type":"Feature","properties":{"name":"RambongPayong","name_en":"RambongPayong","admin_level":"7","osm_id":""},"geometry":{"type":"Polygon","coordinates":[[[95.8383,4.4694],[95.8478,4.4637],[95.8477,4.4611],[95.8505,4.4577],[95.853,4.4577],[95.8459,4.4529],[95.8411,4.4531],[95.8367,4.464],[95.8383,4.4694]]]}},{"type":"Feature","properties":{"name":"SarahRaya","name_en":"SarahRaya","admin_level":"7","osm_id":""},"geometry":{"type":"Polygon","coordinates":[[[96.047,4.5668],[96.0367,4.5624],[96.0279,4.5625],[96.0114,4.5509],[95.9223,4.5988],[95.9223,4.6031],[95.9243,4.6065],[95.9224,4.6127],[95.9236,4.6185],[95.9332,4.6217],[95.9396,4.6285],[95.9448,4.6289],[95.9464,4.6272],[95.9558,4.6304],[95.9614,4.6284],[95.9638,4.631],[95.9742,4.6321],[95.9798,4.6359],[95.9832,4.6417],[95.994,4.6493],[95.9978,4.6501],[96.002,4.6575],[96.0104,4.6578],[96.0133,4.6695],[96.0111,4.6711],[96.0114,4.6857],[96.014,4.6899],[96.0136,4.6931],[96.0102,4.6965],[96.0066,4.7048],[96.0098,4.7075],[96.0123,4.7127],[96.0115,4.7157],[96.0154,4.7247],[96.0315,4.6836],[96.0324,4.6693],[96.0424,4.6576],[96.0337,4.6422],[96.0325,4.6281],[96.0277,4.6165],[96.0374,4.6009],[96.0463,4.5973],[96.0511,4.5909],[96.0506,4.5837],[96.0479,4.5832],[96.0467,4.5798],[96.047,4.5668]]]}},{"type":"Feature","properties":{"name":"Seumira","name_en":"Seumira","admin_level":"7","osm_id":""},"geometry":{"type":"Polygon","coordinates":[[[95.805,4.5453],[95.8112,4.5504],[95.8191,4.5727],[95.8382,4.5602],[95.8427,4.5521],[95.8651,4.5431],[95.871,4.5462],[95.8779,4.5388],[95.867,4.5349],[95.8363,4.4993],[95.8267,4.5053],[95.8298,4.5228],[95.8031,4.5437],[95.805,4.5453]]]}},{"type":"Feature","properties":{"name":"SeuneubokPadang","name_en":"SeuneubokPadang","admin_level":"7","osm_id":""},"geometry":{"type":"Polygon","coordinates":[[[95.765,4.4939],[95.7674,4.4971],[95.7686,4.5074],[95.7767,4.5092],[95.7945,4.5217],[95.7968,4.5281],[95.7968,4.5355],[95.8031,4.5437],[95.819,4.5308],[95.771,4.4835],[95.7628,4.4925],[95.765,4.4939]]]}},{"type":"Feature","properties":{"name":"TanohAnou","name_en":"TanohAnou","admin_level":"7","osm_id":""},"geometry":{"type":"Polygon","coordinates":[[[95.8438,4.4886],[95.842,4.4785],[95.8383,4.4694],[95.8297,4.4708],[95.8168,4.4843],[95.818,4.4892],[95.8209,4.4909],[95.8183,4.4925],[95.8186,4.4943],[95.8211,4.4954],[95.8267,4.5053],[95.8363,4.4993],[95.8438,4.4886]]]}},{"type":"Feature","properties":{"name":"TanohManyang","name_en":"TanohManyang","admin_level":"7","osm_id":""},"geometry":{"type":"Polygon","coordinates":[[[95.8072,4.4738],[95.7909,4.4617],[95.78,4.4726],[95.8298,4.5228],[95.8267,4.5053],[95.8211,4.4954],[95.8186,4.4943],[95.8183,4.4925],[95.8209,4.4909],[95.818,4.4892],[95.8168,4.4843],[95.8145,4.4832],[95.8097,4.4748],[95.8072,4.4738]]]}},{"type":"Feature","properties":{"name":"TeupinAra","name_en":"TeupinAra","admin_level":"7","osm_id":""},"geometry":{"type":"Polygon","coordinates":[[[95.897,4.4084],[95.883,4.4198],[95.8661,4.4234],[95.8554,4.4334],[95.8444,4.4492],[95.8491,4.4526],[95.8627,4.4488],[95.8652,4.4498],[95.8678,4.4545],[95.8717,4.4549],[95.8767,4.4528],[95.8736,4.4412],[95.8832,4.4287],[95.9022,4.4163],[95.897,4.4084]]]}},{"type":"Feature","properties":{"name":"TimPleung","name_en":"TimPleung","admin_level":"7","osm_id":""},"geometry":{"type":"Polygon","coordinates":[[[95.867,4.5349],[95.9149,4.496],[95.9095,4.4875],[95.8597,4.5269],[95.867,4.5349]]]}},{"type":"Feature","properties":{"name":"TuwiKareungI","name_en":"TuwiKareungI","admin_level":"7","osm_id":""},"geometry":{"type":"Polygon","coordinates":[[[95.9505,4.4952],[95.9465,4.4865],[95.9236,4.5015],[95.8779,4.5388],[95.871,4.5462],[95.8822,4.5537],[95.8913,4.5477],[95.8917,4.5427],[95.9194,4.5231],[95.9505,4.4952]]]}},{"type":"Feature","properties":{"name":"TuwiPerya","name_en":"TuwiPerya","admin_level":"7","osm_id":""},"geometry":{"type":"Polygon","coordinates":[[[95.8849,4.5591],[95.9005,4.5846],[95.921,4.5739],[95.9213,4.5688],[95.9255,4.5613],[95.9232,4.5587],[95.9139,4.5589],[95.9117,4.5531],[95.9168,4.5445],[95.9144,4.5425],[95.9004,4.5552],[95.8849,4.5591]]]}},{"type":"Feature","properties":{"name":"WeuGajah","name_en":"WeuGajah","admin_level":"7","osm_id":""},"geometry":{"type":"Polygon","coordinates":[[[95.8506,4.5805],[95.8591,4.5742],[95.8663,4.5712],[95.8537,4.5474],[95.8427,4.5521],[95.8382,4.5602],[95.8506,4.5805]]]}}]}