{"type":"FeatureCollection","metadata":{"parent_osm_id":"gid_IDN_8_11_5_1","parent_name":"SeraiSerumpun","parent_name_1":"Jambi","parent_gid":"IDN.8.11.5_1","parent_level":"6","child_level":"7","count":8,"source":"GADM 4.1","generated":"2026-05-08"},"features":[{"type":"Feature","properties":{"name":"BukitPemuatan","name_en":"BukitPemuatan","admin_level":"7","osm_id":""},"geometry":{"type":"Polygon","coordinates":[[[102.2815,-1.209],[102.2872,-1.1989],[102.2915,-1.187],[102.2984,-1.1796],[102.3009,-1.18],[102.3137,-1.1722],[102.3245,-1.159],[102.3275,-1.1426],[102.3532,-1.1636],[102.3651,-1.18],[102.3706,-1.1958],[102.3741,-1.2244],[102.3522,-1.2268],[102.3408,-1.2308],[102.3154,-1.2444],[102.292,-1.2512],[102.291,-1.2478],[102.2803,-1.2434],[102.281,-1.239],[102.2851,-1.2321],[102.2904,-1.2307],[102.2963,-1.2242],[102.2815,-1.209]]]}},{"type":"Feature","properties":{"name":"NapalPutih","name_en":"NapalPutih","admin_level":"7","osm_id":""},"geometry":{"type":"Polygon","coordinates":[[[102.3275,-1.1426],[102.3245,-1.159],[102.3137,-1.1722],[102.3009,-1.18],[102.2984,-1.1796],[102.2915,-1.187],[102.2872,-1.1989],[102.2814,-1.2093],[102.2604,-1.2079],[102.2602,-1.2008],[102.2578,-1.1994],[102.2452,-1.1996],[102.2351,-1.2032],[102.2297,-1.1982],[102.2279,-1.1907],[102.2251,-1.1887],[102.2266,-1.1798],[102.2465,-1.1846],[102.2557,-1.1777],[102.2599,-1.1708],[102.2747,-1.1237],[102.2814,-1.1087],[102.2848,-1.1132],[102.2948,-1.1154],[102.2963,-1.119],[102.3045,-1.1253],[102.305,-1.1276],[102.3215,-1.1348],[102.3275,-1.1426]]]}},{"type":"Feature","properties":{"name":"PagarPudingLamo","name_en":"PagarPudingLamo","admin_level":"7","osm_id":""},"geometry":{"type":"Polygon","coordinates":[[[102.3206,-1.3439],[102.3312,-1.3317],[102.3755,-1.3351],[102.3685,-1.3481],[102.3556,-1.3588],[102.3472,-1.3632],[102.3552,-1.3716],[102.3556,-1.3795],[102.3516,-1.381],[102.3369,-1.3721],[102.3351,-1.3654],[102.3307,-1.3615],[102.3226,-1.3617],[102.3216,-1.3586],[102.3253,-1.3506],[102.3248,-1.3475],[102.3206,-1.3439]]]}},{"type":"Feature","properties":{"name":"PinangBelai","name_en":"PinangBelai","admin_level":"7","osm_id":""},"geometry":{"type":"Polygon","coordinates":[[[102.3755,-1.3351],[102.3312,-1.3317],[102.3206,-1.3439],[102.3157,-1.3413],[102.3093,-1.3335],[102.3127,-1.3258],[102.3196,-1.3203],[102.323,-1.3147],[102.3227,-1.3085],[102.3204,-1.3022],[102.3163,-1.2978],[102.339,-1.2746],[102.3486,-1.2614],[102.3766,-1.2493],[102.3828,-1.2946],[102.3794,-1.3279],[102.3755,-1.3351]]]}},{"type":"Feature","properties":{"name":"SakoMakmur","name_en":"SakoMakmur","admin_level":"7","osm_id":""},"geometry":{"type":"Polygon","coordinates":[[[102.2814,-1.1087],[102.2747,-1.1237],[102.2599,-1.1708],[102.2557,-1.1777],[102.2465,-1.1846],[102.2266,-1.1798],[102.227,-1.1782],[102.1778,-1.1586],[102.1799,-1.1416],[102.1894,-1.1207],[102.207,-1.0903],[102.213,-1.0633],[102.2041,-0.953],[102.2296,-0.9396],[102.2292,-0.9462],[102.2313,-0.9504],[102.2354,-0.9842],[102.2388,-0.9889],[102.2424,-0.9999],[102.2445,-1.0261],[102.251,-1.0311],[102.2525,-1.0389],[102.2505,-1.0421],[102.2559,-1.0469],[102.2588,-1.0525],[102.2683,-1.0567],[102.2726,-1.0609],[102.2702,-1.0701],[102.2679,-1.0708],[102.2628,-1.0797],[102.2577,-1.0841],[102.2643,-1.0954],[102.2645,-1.0992],[102.2707,-1.101],[102.2814,-1.1087]]]}},{"type":"Feature","properties":{"name":"SekuturJaya","name_en":"SekuturJaya","admin_level":"7","osm_id":""},"geometry":{"type":"Polygon","coordinates":[[[102.3154,-1.2444],[102.3408,-1.2308],[102.3522,-1.2268],[102.3741,-1.2244],[102.3766,-1.2493],[102.3486,-1.2614],[102.339,-1.2746],[102.3163,-1.2978],[102.3024,-1.2954],[102.2986,-1.2927],[102.2958,-1.2857],[102.2986,-1.2728],[102.3176,-1.2688],[102.3169,-1.2494],[102.3154,-1.2444]]]}},{"type":"Feature","properties":{"name":"TanjungAurSeberang","name_en":"TanjungAurSeberang","admin_level":"7","osm_id":""},"geometry":{"type":"Polygon","coordinates":[[[102.292,-1.2512],[102.3154,-1.2443],[102.3169,-1.2494],[102.3176,-1.2688],[102.2986,-1.2728],[102.2956,-1.2695],[102.2889,-1.2667],[102.2887,-1.271],[102.292,-1.2813],[102.2892,-1.284],[102.2853,-1.2837],[102.2779,-1.2786],[102.2755,-1.2695],[102.2779,-1.2661],[102.2889,-1.2589],[102.292,-1.2512]]]}},{"type":"Feature","properties":{"name":"TelukMelintang","name_en":"TelukMelintang","admin_level":"7","osm_id":""},"geometry":{"type":"Polygon","coordinates":[[[102.2815,-1.209],[102.2963,-1.2242],[102.2959,-1.2256],[102.2904,-1.2307],[102.2851,-1.2321],[102.2811,-1.2386],[102.2803,-1.2434],[102.2741,-1.2406],[102.2614,-1.2451],[102.2566,-1.249],[102.2511,-1.2487],[102.247,-1.2413],[102.2496,-1.2264],[102.2411,-1.2146],[102.2404,-1.2097],[102.2566,-1.211],[102.2594,-1.2106],[102.2604,-1.2079],[102.2815,-1.209]]]}}]}