{"type":"FeatureCollection","metadata":{"parent_osm_id":"gid_IDN_23_15_3_1","parent_name":"Edera","parent_name_1":"Papua","parent_gid":"IDN.23.15.3_1","parent_level":"6","child_level":"7","count":18,"source":"GADM 4.1","generated":"2026-05-08"},"features":[{"type":"Feature","properties":{"name":"Asset","name_en":"Asset","admin_level":"7","osm_id":""},"geometry":{"type":"Polygon","coordinates":[[[139.6473,-6.9384],[139.6558,-6.9404],[139.6684,-6.9379],[139.6858,-6.9386],[139.6926,-6.9342],[139.6981,-6.9331],[139.7075,-6.9454],[139.7084,-6.9564],[139.6788,-6.9623],[139.658,-6.9712],[139.645,-6.9736],[139.5821,-6.9712],[139.5732,-6.9695],[139.5673,-6.9505],[139.5538,-6.9376],[139.5582,-6.9358],[139.5678,-6.9358],[139.5868,-6.9393],[139.5944,-6.9361],[139.6291,-6.9402],[139.644,-6.9354],[139.6473,-6.9384]]]}},{"type":"Feature","properties":{"name":"Bade","name_en":"Bade","admin_level":"7","osm_id":""},"geometry":{"type":"Polygon","coordinates":[[[139.6331,-7.1726],[139.629,-7.1731],[139.6201,-7.179],[139.6177,-7.1737],[139.607,-7.1743],[139.6005,-7.179],[139.5892,-7.1956],[139.5821,-7.201],[139.5786,-7.2105],[139.5786,-7.2502],[139.5768,-7.2609],[139.5726,-7.268],[139.5673,-7.2727],[139.5578,-7.2777],[139.5419,-7.2781],[139.5262,-7.2755],[139.4974,-7.265],[139.4738,-7.2528],[139.4651,-7.2319],[139.4669,-7.2083],[139.4721,-7.1847],[139.473,-7.1647],[139.4581,-7.1472],[139.4537,-7.1445],[139.4665,-7.1328],[139.4748,-7.131],[139.4849,-7.1334],[139.4884,-7.1312],[139.495,-7.1402],[139.5015,-7.1438],[139.5056,-7.1485],[139.5098,-7.1467],[139.5222,-7.1515],[139.5305,-7.1485],[139.5442,-7.139],[139.5732,-7.1491],[139.5993,-7.1515],[139.61,-7.1556],[139.6165,-7.1657],[139.6331,-7.1726]]]}},{"type":"Feature","properties":{"name":"Banamepe","name_en":"Banamepe","admin_level":"7","osm_id":""},"geometry":{"type":"Polygon","coordinates":[[[139.5578,-7.2777],[139.5673,-7.2727],[139.5726,-7.268],[139.5768,-7.2609],[139.5791,-7.2383],[139.5786,-7.2105],[139.5821,-7.201],[139.5892,-7.1956],[139.6005,-7.179],[139.607,-7.1743],[139.6177,-7.1737],[139.6201,-7.179],[139.629,-7.1731],[139.6337,-7.1725],[139.6355,-7.1802],[139.6485,-7.1802],[139.6503,-7.1856],[139.6426,-7.2105],[139.6367,-7.2217],[139.6367,-7.2354],[139.6378,-7.2508],[139.6408,-7.2609],[139.6467,-7.2704],[139.6509,-7.2828],[139.6562,-7.2941],[139.6728,-7.2941],[139.6877,-7.2887],[139.6954,-7.2816],[139.6936,-7.2609],[139.6995,-7.2502],[139.7096,-7.2455],[139.7416,-7.2229],[139.7564,-7.1956],[139.7648,-7.1863],[139.7683,-7.177],[139.7665,-7.1574],[139.7616,-7.1481],[139.7665,-7.1183],[139.7819,-7.0999],[139.7908,-7.0928],[139.7938,-7.0863],[139.8027,-7.0821],[139.8187,-7.0845],[139.8382,-7.094],[139.8519,-7.0981],[139.8639,-7.1055],[139.857,-7.1132],[139.8553,-7.1472],[139.8457,-7.1743],[139.843,-7.2223],[139.8326,-7.3061],[139.8448,-7.3986],[139.8439,-7.4117],[139.8287,-7.4539],[139.53,-7.3922],[139.5335,-7.3753],[139.5317,-7.3676],[139.5258,-7.3551],[139.54,-7.3368],[139.5406,-7.3243],[139.5471,-7.297],[139.5477,-7.2846],[139.5578,-7.2777]]]}},{"type":"Feature","properties":{"name":"Bosma","name_en":"Bosma","admin_level":"7","osm_id":""},"geometry":{"type":"Polygon","coordinates":[[[139.7084,-6.9493],[139.7075,-6.9454],[139.6981,-6.9331],[139.6926,-6.9342],[139.6858,-6.9386],[139.6684,-6.9379],[139.6558,-6.9404],[139.6473,-6.9384],[139.6501,-6.9341],[139.6552,-6.9321],[139.6545,-6.9245],[139.6584,-6.9174],[139.6661,-6.9133],[139.6634,-6.9085],[139.6641,-6.9069],[139.6689,-6.9067],[139.6765,-6.8973],[139.6798,-6.8835],[139.6839,-6.8764],[139.6973,-6.8656],[139.7066,-6.8675],[139.7267,-6.8824],[139.735,-6.8865],[139.7666,-6.8943],[139.7797,-6.9029],[139.8267,-6.9181],[139.8236,-6.9202],[139.8229,-6.9364],[139.8277,-6.9412],[139.8318,-6.9492],[139.8245,-6.9616],[139.8195,-6.9663],[139.8062,-6.957],[139.7855,-6.9469],[139.7778,-6.9469],[139.7612,-6.9523],[139.7197,-6.9475],[139.7084,-6.9493]]]}},{"type":"Feature","properties":{"name":"Geturki","name_en":"Geturki","admin_level":"7","osm_id":""},"geometry":{"type":"Polygon","coordinates":[[[139.5538,-6.9376],[139.5673,-6.9505],[139.5708,-6.9594],[139.5732,-6.9695],[139.572,-6.9843],[139.5738,-6.9932],[139.5708,-7.0009],[139.5714,-7.0092],[139.5869,-7.0258],[139.5934,-7.0293],[139.5975,-7.0359],[139.5975,-7.0454],[139.5786,-7.0477],[139.5738,-7.0542],[139.5768,-7.0625],[139.5818,-7.0688],[139.5815,-7.0732],[139.5839,-7.0791],[139.578,-7.0892],[139.5768,-7.0946],[139.5732,-7.0975],[139.5667,-7.0952],[139.5606,-7.099],[139.5477,-7.0922],[139.5305,-7.0863],[139.5005,-7.0728],[139.5015,-7.0676],[139.4902,-7.0516],[139.4796,-7.0456],[139.4731,-7.0449],[139.4772,-7.0397],[139.4713,-7.0403],[139.4599,-7.0275],[139.479,-7.0255],[139.4861,-7.0166],[139.4867,-7.0041],[139.4772,-6.9858],[139.4605,-6.973],[139.4695,-6.9736],[139.4736,-6.9712],[139.476,-6.9677],[139.4825,-6.9706],[139.489,-6.9671],[139.4902,-6.9606],[139.4979,-6.9588],[139.5068,-6.9416],[139.5133,-6.9398],[139.5157,-6.9286],[139.5228,-6.9173],[139.5293,-6.9244],[139.5538,-6.9376]]]}},{"type":"Feature","properties":{"name":"Gimikia","name_en":"Gimikia","admin_level":"7","osm_id":""},"geometry":{"type":"Polygon","coordinates":[[[139.7929,-7.0883],[139.7908,-7.0928],[139.7742,-7.1082],[139.7665,-7.1183],[139.766,-7.1216],[139.7564,-7.1153],[139.7422,-7.1094],[139.6912,-7.1129],[139.6752,-7.1183],[139.6396,-7.1201],[139.6307,-7.1224],[139.6189,-7.1212],[139.5703,-7.1064],[139.5606,-7.099],[139.5667,-7.0952],[139.5732,-7.0975],[139.5768,-7.0946],[139.578,-7.0892],[139.5839,-7.0791],[139.5815,-7.0691],[139.5863,-7.0643],[139.5952,-7.0625],[139.6236,-7.0637],[139.6355,-7.062],[139.655,-7.0548],[139.6651,-7.0542],[139.6865,-7.0495],[139.7185,-7.0507],[139.7268,-7.0465],[139.7398,-7.0365],[139.7546,-7.0347],[139.7712,-7.0394],[139.776,-7.0454],[139.7807,-7.0459],[139.7863,-7.0386],[139.7855,-7.0418],[139.7926,-7.0519],[139.792,-7.0584],[139.789,-7.0655],[139.7837,-7.0685],[139.7778,-7.0685],[139.7736,-7.0726],[139.7748,-7.0756],[139.7867,-7.0738],[139.792,-7.078],[139.7929,-7.0883]]]}},{"type":"Feature","properties":{"name":"Homilikia","name_en":"Homilikia","admin_level":"7","osm_id":""},"geometry":{"type":"Polygon","coordinates":[[[139.5818,-7.0688],[139.5768,-7.0625],[139.5738,-7.0542],[139.5786,-7.0477],[139.5975,-7.0454],[139.5975,-7.0359],[139.5934,-7.0293],[139.5869,-7.0258],[139.5759,-7.0136],[139.623,-7.0151],[139.6367,-7.0122],[139.6509,-7.0122],[139.6645,-7.0086],[139.6894,-6.9961],[139.6948,-7.005],[139.696,-7.0222],[139.6859,-7.0436],[139.6878,-7.0497],[139.655,-7.0548],[139.6355,-7.062],[139.6236,-7.0637],[139.5952,-7.0625],[139.5863,-7.0643],[139.5818,-7.0688]]]}},{"type":"Feature","properties":{"name":"Isyaman","name_en":"Isyaman","admin_level":"7","osm_id":""},"geometry":{"type":"Polygon","coordinates":[[[139.4884,-7.1312],[139.4849,-7.1334],[139.4748,-7.131],[139.4665,-7.1328],[139.4537,-7.1445],[139.4363,-7.1341],[139.4136,-7.128],[139.3927,-7.1263],[139.375,-7.1267],[139.3822,-7.1119],[139.3484,-7.0491],[139.343,-7.0474],[139.358,-7.0368],[139.3693,-7.0344],[139.4078,-7.0332],[139.4541,-7.0433],[139.4796,-7.0456],[139.4902,-7.0516],[139.5015,-7.0676],[139.5003,-7.0741],[139.4879,-7.0794],[139.4855,-7.1138],[139.4896,-7.1304],[139.4884,-7.1312]]]}},{"type":"Feature","properties":{"name":"Kobeta","name_en":"Kobeta","admin_level":"7","osm_id":""},"geometry":{"type":"Polygon","coordinates":[[[139.5732,-6.9695],[139.5922,-6.9718],[139.645,-6.9736],[139.658,-6.9712],[139.6687,-6.9659],[139.6877,-6.96],[139.708,-6.9571],[139.7001,-6.9724],[139.69,-6.9861],[139.6887,-6.9965],[139.6645,-7.0086],[139.6509,-7.0122],[139.6367,-7.0122],[139.623,-7.0151],[139.5759,-7.0136],[139.5714,-7.0092],[139.5708,-7.0009],[139.5738,-6.9932],[139.572,-6.9843],[139.5732,-6.9695]]]}},{"type":"Feature","properties":{"name":"Konebi","name_en":"Konebi","admin_level":"7","osm_id":""},"geometry":{"type":"Polygon","coordinates":[[[139.4605,-6.973],[139.4772,-6.9858],[139.4867,-7.0041],[139.4861,-7.0166],[139.479,-7.0255],[139.4599,-7.0275],[139.457,-7.0225],[139.4588,-7.013],[139.4547,-7.0083],[139.4345,-7.0018],[139.4143,-7.003],[139.3894,-6.9964],[139.3728,-6.9953],[139.3029,-6.965],[139.2691,-6.9532],[139.2584,-6.9443],[139.2153,-6.916],[139.2151,-6.9144],[139.2807,-6.8996],[139.2828,-6.8918],[139.2786,-6.8798],[139.2814,-6.8686],[139.2877,-6.8587],[139.2983,-6.8559],[139.3061,-6.8615],[139.3181,-6.8622],[139.3294,-6.8678],[139.3308,-6.8764],[139.3227,-6.8834],[139.3227,-6.8927],[139.3308,-6.8973],[139.3401,-6.9055],[139.3436,-6.9253],[139.35,-6.9294],[139.3605,-6.9288],[139.364,-6.9177],[139.3634,-6.9072],[139.3698,-6.9014],[139.3832,-6.9061],[139.3905,-6.9056],[139.3983,-6.9223],[139.4072,-6.9354],[139.4214,-6.9484],[139.4286,-6.9532],[139.4452,-6.9603],[139.4605,-6.973]]]}},{"type":"Feature","properties":{"name":"Mememu","name_en":"Mememu","admin_level":"7","osm_id":""},"geometry":{"type":"Polygon","coordinates":[[[139.6331,-7.1726],[139.6165,-7.1657],[139.61,-7.1556],[139.5993,-7.1515],[139.5732,-7.1491],[139.5442,-7.139],[139.5305,-7.1485],[139.5222,-7.1515],[139.5098,-7.1467],[139.5056,-7.1485],[139.5015,-7.1438],[139.495,-7.1402],[139.4884,-7.1312],[139.4896,-7.1304],[139.4855,-7.1138],[139.4879,-7.0794],[139.495,-7.0771],[139.5005,-7.0728],[139.5572,-7.0963],[139.5703,-7.1064],[139.6189,-7.1212],[139.6307,-7.1224],[139.6396,-7.1201],[139.6752,-7.1183],[139.6912,-7.1129],[139.7422,-7.1094],[139.7564,-7.1153],[139.766,-7.1216],[139.7616,-7.1481],[139.7665,-7.1574],[139.7683,-7.177],[139.7648,-7.1863],[139.7564,-7.1956],[139.7416,-7.2229],[139.7096,-7.2455],[139.6995,-7.2502],[139.6936,-7.2609],[139.6954,-7.2816],[139.6877,-7.2887],[139.6728,-7.2941],[139.6562,-7.2941],[139.6509,-7.2828],[139.6467,-7.2704],[139.6408,-7.2609],[139.6378,-7.2508],[139.6367,-7.2354],[139.6367,-7.2217],[139.6426,-7.2105],[139.6503,-7.1856],[139.6485,-7.1802],[139.6355,-7.1802],[139.6331,-7.1726]]]}},{"type":"Feature","properties":{"name":"Ogoto","name_en":"Ogoto","admin_level":"7","osm_id":""},"geometry":{"type":"Polygon","coordinates":[[[139.6967,-6.8661],[139.6839,-6.8764],[139.6798,-6.8835],[139.6765,-6.8973],[139.6684,-6.9058],[139.6593,-6.8957],[139.6316,-6.8852],[139.6174,-6.8754],[139.6092,-6.8717],[139.5847,-6.8658],[139.5704,-6.8592],[139.5624,-6.8582],[139.5257,-6.8407],[139.5237,-6.8255],[139.5141,-6.8065],[139.5113,-6.7985],[139.5092,-6.784],[139.5043,-6.7739],[139.4974,-6.7704],[139.4863,-6.771],[139.4816,-6.7675],[139.4799,-6.7617],[139.4875,-6.7576],[139.491,-6.7523],[139.491,-6.7454],[139.4851,-6.7378],[139.4834,-6.7308],[139.4863,-6.7226],[139.4962,-6.7238],[139.5003,-6.7454],[139.5067,-6.75],[139.5203,-6.7516],[139.5255,-6.749],[139.5367,-6.7497],[139.5468,-6.7564],[139.5699,-6.759],[139.5963,-6.7743],[139.6113,-6.7788],[139.6228,-6.7859],[139.6358,-6.7967],[139.6403,-6.803],[139.647,-6.8071],[139.6578,-6.809],[139.6917,-6.8235],[139.7007,-6.8336],[139.713,-6.8403],[139.7107,-6.8496],[139.6967,-6.8661]]]}},{"type":"Feature","properties":{"name":"Osso","name_en":"Osso","admin_level":"7","osm_id":""},"geometry":{"type":"Polygon","coordinates":[[[139.6473,-6.9384],[139.644,-6.9354],[139.6291,-6.9402],[139.5944,-6.9361],[139.5868,-6.9393],[139.5678,-6.9358],[139.5582,-6.9358],[139.5538,-6.9376],[139.5346,-6.9278],[139.5376,-6.9229],[139.5386,-6.9163],[139.5334,-6.9028],[139.5362,-6.8697],[139.5257,-6.8407],[139.5624,-6.8582],[139.5704,-6.8592],[139.5909,-6.8678],[139.6092,-6.8717],[139.6174,-6.8754],[139.6316,-6.8852],[139.6593,-6.8957],[139.6673,-6.9033],[139.6689,-6.9067],[139.6641,-6.9069],[139.6634,-6.9085],[139.6661,-6.9133],[139.6584,-6.9174],[139.6545,-6.9245],[139.6552,-6.9321],[139.6501,-6.9341],[139.6473,-6.9384]]]}},{"type":"Feature","properties":{"name":"Sibi","name_en":"Sibi","admin_level":"7","osm_id":""},"geometry":{"type":"Polygon","coordinates":[[[139.7128,-6.8402],[139.7007,-6.8336],[139.6917,-6.8235],[139.6578,-6.809],[139.647,-6.8071],[139.6403,-6.803],[139.6358,-6.7967],[139.6228,-6.7859],[139.6113,-6.7788],[139.5963,-6.7743],[139.5699,-6.759],[139.5468,-6.7564],[139.5367,-6.7497],[139.5255,-6.749],[139.5203,-6.7516],[139.5143,-6.7512],[139.5218,-6.7366],[139.5329,-6.7279],[139.5329,-6.7215],[139.5276,-6.7162],[139.5207,-6.718],[139.5137,-6.7226],[139.5061,-6.7203],[139.5026,-6.7133],[139.5078,-6.7075],[139.5108,-6.6982],[139.5102,-6.6895],[139.5131,-6.6813],[139.5189,-6.6784],[139.5236,-6.683],[139.5294,-6.6964],[139.5387,-6.6982],[139.5451,-6.6912],[139.5533,-6.6865],[139.5626,-6.6836],[139.5719,-6.683],[139.5731,-6.6895],[139.5643,-6.7011],[139.5649,-6.7087],[139.5713,-6.7063],[139.5824,-6.6929],[139.5969,-6.6848],[139.6068,-6.6854],[139.6208,-6.6941],[139.6308,-6.6916],[139.6344,-6.6938],[139.6388,-6.6935],[139.6448,-6.6957],[139.6537,-6.7031],[139.6869,-6.7169],[139.7022,-6.7281],[139.7379,-6.7497],[139.7469,-6.7579],[139.7625,-6.7799],[139.7636,-6.7855],[139.7614,-6.7885],[139.7614,-6.7978],[139.7595,-6.8026],[139.7424,-6.8172],[139.7256,-6.8283],[139.7128,-6.8402]]]}},{"type":"Feature","properties":{"name":"TagaimonKorame","name_en":"TagaimonKorame","admin_level":"7","osm_id":""},"geometry":{"type":"Polygon","coordinates":[[[139.5236,-6.9182],[139.5228,-6.9173],[139.5157,-6.9286],[139.5133,-6.9398],[139.5068,-6.9416],[139.4979,-6.9588],[139.4902,-6.9606],[139.489,-6.9671],[139.4825,-6.9706],[139.476,-6.9677],[139.4736,-6.9712],[139.4695,-6.9736],[139.4605,-6.973],[139.4452,-6.9603],[139.4286,-6.9532],[139.4214,-6.9484],[139.4072,-6.9354],[139.3983,-6.9223],[139.3905,-6.9056],[139.4019,-6.902],[139.4217,-6.9014],[139.4224,-6.8963],[139.427,-6.898],[139.4384,-6.8935],[139.4788,-6.8911],[139.4933,-6.8928],[139.5006,-6.8956],[139.5127,-6.9032],[139.5236,-6.9182]]]}},{"type":"Feature","properties":{"name":"TagaimonSiwo","name_en":"TagaimonSiwo","admin_level":"7","osm_id":""},"geometry":{"type":"Polygon","coordinates":[[[139.5346,-6.9278],[139.5236,-6.9182],[139.5127,-6.9032],[139.4933,-6.8928],[139.4788,-6.8911],[139.4384,-6.8935],[139.427,-6.898],[139.4224,-6.8963],[139.4234,-6.8892],[139.4176,-6.8851],[139.4112,-6.8839],[139.3937,-6.8671],[139.3966,-6.8589],[139.4094,-6.8508],[139.4124,-6.8443],[139.4083,-6.8368],[139.3931,-6.8275],[139.3914,-6.8205],[139.3978,-6.8146],[139.4065,-6.8013],[139.4147,-6.803],[139.4298,-6.8123],[139.4327,-6.8176],[139.4281,-6.8222],[139.4153,-6.828],[139.4199,-6.8461],[139.4257,-6.8455],[139.4339,-6.842],[139.442,-6.8432],[139.456,-6.8496],[139.4624,-6.8467],[139.4665,-6.8397],[139.4688,-6.8222],[139.4747,-6.8158],[139.4816,-6.7914],[139.4962,-6.7902],[139.5043,-6.7873],[139.5078,-6.7815],[139.5071,-6.7798],[139.5092,-6.784],[139.5113,-6.7985],[139.5141,-6.8065],[139.5237,-6.8255],[139.5251,-6.8396],[139.5331,-6.8583],[139.5362,-6.8697],[139.5334,-6.9028],[139.5386,-6.9163],[139.5376,-6.9229],[139.5346,-6.9278]]]}},{"type":"Feature","properties":{"name":"Yeloba","name_en":"Yeloba","admin_level":"7","osm_id":""},"geometry":{"type":"Polygon","coordinates":[[[139.4599,-7.0275],[139.4713,-7.0403],[139.4772,-7.0397],[139.4731,-7.0449],[139.4541,-7.0433],[139.4078,-7.0332],[139.3871,-7.0332],[139.358,-7.0368],[139.343,-7.0474],[139.3392,-7.0463],[139.3124,-7.0505],[139.3025,-7.0442],[139.2856,-7.0378],[139.2757,-7.0251],[139.2602,-7.0209],[139.2348,-7.0145],[139.2285,-7.0209],[139.2186,-7.0251],[139.2158,-7.0152],[139.2257,-7.0033],[139.2236,-6.987],[139.2179,-6.9708],[139.2172,-6.932],[139.2153,-6.916],[139.2584,-6.9443],[139.2691,-6.9532],[139.3189,-6.9715],[139.3574,-6.9893],[139.3728,-6.9953],[139.3894,-6.9964],[139.4143,-7.003],[139.4345,-7.0018],[139.4547,-7.0083],[139.4588,-7.013],[139.457,-7.0225],[139.4599,-7.0275]]]}},{"type":"Feature","properties":{"name":"Yodom","name_en":"Yodom","admin_level":"7","osm_id":""},"geometry":{"type":"Polygon","coordinates":[[[139.4537,-7.1445],[139.4581,-7.1472],[139.473,-7.1647],[139.4721,-7.1847],[139.4669,-7.2083],[139.4651,-7.2319],[139.4738,-7.2528],[139.4974,-7.265],[139.5262,-7.2755],[139.5419,-7.2781],[139.5578,-7.2777],[139.5477,-7.2846],[139.5471,-7.297],[139.5406,-7.3243],[139.54,-7.3368],[139.5258,-7.3551],[139.5317,-7.3676],[139.5335,-7.3753],[139.53,-7.3922],[138.6673,-7.2142],[138.6669,-7.2122],[138.6674,-7.2073],[138.6708,-7.2012],[138.6731,-7.1979],[138.6774,-7.1956],[138.7131,-7.203],[138.7623,-7.2082],[138.7629,-7.2097],[138.7641,-7.2082],[138.7903,-7.2082],[138.7917,-7.2096],[138.7928,-7.2082],[138.8325,-7.2065],[138.8382,-7.203],[138.8921,-7.1937],[138.9626,-7.1894],[139.0127,-7.2014],[139.0332,-7.2141],[139.0677,-7.2205],[139.0959,-7.2176],[139.1735,-7.2212],[139.1862,-7.2127],[139.1946,-7.1901],[139.1996,-7.1669],[139.2116,-7.1513],[139.2207,-7.1436],[139.2398,-7.1415],[139.2532,-7.1471],[139.2602,-7.1563],[139.263,-7.1676],[139.2694,-7.2169],[139.2764,-7.2197],[139.299,-7.2099],[139.3131,-7.2078],[139.3427,-7.2176],[139.354,-7.2275],[139.3611,-7.2303],[139.3738,-7.2261],[139.3865,-7.224],[139.4161,-7.2254],[139.4288,-7.2226],[139.4309,-7.2127],[139.4203,-7.2078],[139.3879,-7.2113],[139.3745,-7.2056],[139.3582,-7.1958],[139.347,-7.1859],[139.3385,-7.1746],[139.3448,-7.1598],[139.3561,-7.1499],[139.375,-7.1267],[139.3927,-7.1263],[139.4136,-7.128],[139.4363,-7.1341],[139.4537,-7.1445]]]}}]}