{"type":"FeatureCollection","metadata":{"parent_osm_id":"gid_IDN_9_6_23_1","parent_name":"Panawangan","parent_name_1":"JawaBarat","parent_gid":"IDN.9.6.23_1","parent_level":"6","child_level":"7","count":14,"source":"GADM 4.1","generated":"2026-05-08"},"features":[{"type":"Feature","properties":{"name":"Bangunjaya","name_en":"Bangunjaya","admin_level":"7","osm_id":""},"geometry":{"type":"Polygon","coordinates":[[[108.3943,-7.0934],[108.3944,-7.0902],[108.3985,-7.091],[108.401,-7.0843],[108.4051,-7.0845],[108.407,-7.0878],[108.417,-7.0901],[108.4133,-7.0943],[108.4188,-7.0922],[108.4266,-7.0955],[108.429,-7.0985],[108.4256,-7.1025],[108.4162,-7.1019],[108.4096,-7.0998],[108.4046,-7.0958],[108.3943,-7.0934]]]}},{"type":"Feature","properties":{"name":"Cinyasag","name_en":"Cinyasag","admin_level":"7","osm_id":""},"geometry":{"type":"Polygon","coordinates":[[[108.3936,-7.0924],[108.3917,-7.099],[108.3862,-7.0978],[108.3779,-7.1062],[108.3728,-7.1073],[108.3694,-7.1068],[108.3703,-7.1026],[108.3615,-7.0935],[108.3607,-7.0883],[108.3616,-7.0893],[108.3723,-7.0875],[108.3719,-7.0896],[108.3762,-7.0898],[108.379,-7.0872],[108.3936,-7.0924]]]}},{"type":"Feature","properties":{"name":"Gardujaya","name_en":"Gardujaya","admin_level":"7","osm_id":""},"geometry":{"type":"Polygon","coordinates":[[[108.401,-7.0843],[108.4012,-7.0865],[108.3983,-7.0912],[108.3944,-7.0902],[108.3936,-7.0924],[108.379,-7.0872],[108.3774,-7.0896],[108.3719,-7.0896],[108.3748,-7.082],[108.3731,-7.0806],[108.3746,-7.0782],[108.373,-7.0739],[108.3803,-7.0671],[108.3824,-7.072],[108.3925,-7.0757],[108.3936,-7.0792],[108.3958,-7.0785],[108.4012,-7.081],[108.401,-7.0843]]]}},{"type":"Feature","properties":{"name":"Girilaya","name_en":"Girilaya","admin_level":"7","osm_id":""},"geometry":{"type":"Polygon","coordinates":[[[108.3723,-7.0875],[108.3616,-7.0893],[108.3609,-7.0877],[108.3615,-7.0935],[108.3537,-7.0879],[108.3526,-7.0809],[108.3541,-7.0819],[108.3561,-7.0794],[108.3658,-7.0763],[108.3714,-7.0769],[108.3733,-7.0747],[108.3746,-7.0787],[108.3731,-7.0806],[108.3748,-7.082],[108.3723,-7.0875]]]}},{"type":"Feature","properties":{"name":"Indragiri","name_en":"Indragiri","admin_level":"7","osm_id":""},"geometry":{"type":"Polygon","coordinates":[[[108.3615,-7.0935],[108.3703,-7.1026],[108.3694,-7.1068],[108.3719,-7.1082],[108.3698,-7.1101],[108.3713,-7.1108],[108.3694,-7.112],[108.3699,-7.1147],[108.3677,-7.1156],[108.3728,-7.1176],[108.3709,-7.119],[108.3578,-7.1165],[108.3518,-7.1114],[108.3532,-7.1115],[108.3514,-7.107],[108.355,-7.1043],[108.3568,-7.0941],[108.3548,-7.0887],[108.3615,-7.0935]]]}},{"type":"Feature","properties":{"name":"Jagabaya","name_en":"Jagabaya","admin_level":"7","osm_id":""},"geometry":{"type":"Polygon","coordinates":[[[108.3943,-7.0934],[108.4046,-7.0958],[108.4096,-7.0998],[108.4148,-7.1014],[108.4117,-7.1053],[108.4108,-7.1139],[108.412,-7.1167],[108.4093,-7.1174],[108.3905,-7.111],[108.3918,-7.1084],[108.39,-7.1018],[108.3943,-7.0934]]]}},{"type":"Feature","properties":{"name":"Karangpaningal","name_en":"Karangpaningal","admin_level":"7","osm_id":""},"geometry":{"type":"Polygon","coordinates":[[[108.3378,-7.117],[108.3335,-7.1175],[108.3312,-7.1139],[108.3264,-7.1145],[108.3188,-7.1118],[108.3173,-7.104],[108.319,-7.1001],[108.3207,-7.1005],[108.3218,-7.0981],[108.3233,-7.0993],[108.3241,-7.0969],[108.3281,-7.0978],[108.3275,-7.0957],[108.3385,-7.0977],[108.3412,-7.0999],[108.3493,-7.0992],[108.3526,-7.1007],[108.3555,-7.099],[108.355,-7.1043],[108.3514,-7.107],[108.3532,-7.1115],[108.3447,-7.1119],[108.3379,-7.1146],[108.3378,-7.117]]]}},{"type":"Feature","properties":{"name":"Kertayasa","name_en":"Kertayasa","admin_level":"7","osm_id":""},"geometry":{"type":"Polygon","coordinates":[[[108.3692,-7.1526],[108.3625,-7.1489],[108.3638,-7.146],[108.3596,-7.1426],[108.3562,-7.1436],[108.3505,-7.1423],[108.3417,-7.1311],[108.3365,-7.1284],[108.3395,-7.1193],[108.3376,-7.1173],[108.3379,-7.1146],[108.346,-7.1116],[108.3518,-7.1114],[108.3578,-7.1165],[108.3708,-7.1191],[108.3647,-7.122],[108.3677,-7.1233],[108.3684,-7.1281],[108.3718,-7.1339],[108.3719,-7.1367],[108.3702,-7.1371],[108.3694,-7.1397],[108.3732,-7.1436],[108.3722,-7.1457],[108.3702,-7.1456],[108.3696,-7.1483],[108.3674,-7.1488],[108.3692,-7.1526]]]}},{"type":"Feature","properties":{"name":"Nagarajati","name_en":"Nagarajati","admin_level":"7","osm_id":""},"geometry":{"type":"Polygon","coordinates":[[[108.4148,-7.1014],[108.4302,-7.1026],[108.4363,-7.1084],[108.4386,-7.1076],[108.4364,-7.1099],[108.437,-7.1126],[108.4424,-7.1188],[108.4495,-7.1187],[108.4478,-7.1233],[108.4349,-7.1235],[108.4316,-7.1205],[108.4271,-7.1208],[108.4272,-7.1193],[108.4245,-7.1202],[108.4229,-7.1186],[108.4213,-7.1201],[108.4205,-7.1179],[108.4116,-7.1161],[108.4118,-7.1047],[108.4148,-7.1014]]]}},{"type":"Feature","properties":{"name":"Nagarajaya","name_en":"Nagarajaya","admin_level":"7","osm_id":""},"geometry":{"type":"Polygon","coordinates":[[[108.4243,-7.15],[108.419,-7.1515],[108.4134,-7.1509],[108.4105,-7.1465],[108.4093,-7.1468],[108.41,-7.1428],[108.4138,-7.1421],[108.4123,-7.138],[108.4133,-7.1357],[108.417,-7.1348],[108.4164,-7.1331],[108.4265,-7.1209],[108.4316,-7.1205],[108.4349,-7.1235],[108.4467,-7.1236],[108.4454,-7.1275],[108.441,-7.1278],[108.4344,-7.1335],[108.4318,-7.1426],[108.4246,-7.1464],[108.4243,-7.15]]]}},{"type":"Feature","properties":{"name":"Nagarapageuh","name_en":"Nagarapageuh","admin_level":"7","osm_id":""},"geometry":{"type":"Polygon","coordinates":[[[108.4128,-7.1499],[108.4099,-7.152],[108.4054,-7.1513],[108.4022,-7.1442],[108.3984,-7.1447],[108.3935,-7.1412],[108.3975,-7.1341],[108.4005,-7.1343],[108.4029,-7.1279],[108.412,-7.1209],[108.4141,-7.1159],[108.4205,-7.1179],[108.4213,-7.1201],[108.4229,-7.1186],[108.4245,-7.1202],[108.4276,-7.1199],[108.4164,-7.1331],[108.417,-7.1348],[108.4133,-7.1357],[108.4123,-7.138],[108.4138,-7.1421],[108.4092,-7.1439],[108.4093,-7.1468],[108.4128,-7.1499]]]}},{"type":"Feature","properties":{"name":"Panawangan","name_en":"Panawangan","admin_level":"7","osm_id":""},"geometry":{"type":"Polygon","coordinates":[[[108.3812,-7.1322],[108.3771,-7.1322],[108.3753,-7.1368],[108.3801,-7.1428],[108.3765,-7.1421],[108.3733,-7.1437],[108.3694,-7.1397],[108.3702,-7.1371],[108.3719,-7.1367],[108.3714,-7.1324],[108.3684,-7.1281],[108.3677,-7.1233],[108.3647,-7.122],[108.3727,-7.1179],[108.3677,-7.1156],[108.3699,-7.1147],[108.3694,-7.112],[108.3713,-7.1108],[108.3698,-7.1101],[108.3719,-7.1072],[108.3779,-7.1062],[108.3812,-7.1035],[108.3813,-7.1016],[108.3835,-7.1019],[108.3846,-7.099],[108.3876,-7.0976],[108.3917,-7.099],[108.3899,-7.1025],[108.3918,-7.1084],[108.3905,-7.111],[108.3932,-7.112],[108.3891,-7.1135],[108.3869,-7.1163],[108.3838,-7.1161],[108.3842,-7.1182],[108.3822,-7.1197],[108.381,-7.1242],[108.3843,-7.1274],[108.3826,-7.1298],[108.3859,-7.1304],[108.3812,-7.1322]]]}},{"type":"Feature","properties":{"name":"Sadapaingan","name_en":"Sadapaingan","admin_level":"7","osm_id":""},"geometry":{"type":"Polygon","coordinates":[[[108.3805,-7.0674],[108.3714,-7.0769],[108.3658,-7.0763],[108.3561,-7.0794],[108.3541,-7.0819],[108.3512,-7.0809],[108.3478,-7.083],[108.3497,-7.0776],[108.3431,-7.0696],[108.34,-7.0694],[108.3452,-7.0646],[108.3481,-7.0554],[108.36,-7.0516],[108.3633,-7.0523],[108.3623,-7.0538],[108.3676,-7.0596],[108.3705,-7.0593],[108.3725,-7.0612],[108.3742,-7.0595],[108.3778,-7.0599],[108.3787,-7.0645],[108.3812,-7.0637],[108.3805,-7.0674]]]}},{"type":"Feature","properties":{"name":"Sagalaherang","name_en":"Sagalaherang","admin_level":"7","osm_id":""},"geometry":{"type":"Polygon","coordinates":[[[108.3935,-7.1412],[108.3913,-7.1433],[108.3916,-7.142],[108.3861,-7.1382],[108.3809,-7.1319],[108.3859,-7.1304],[108.3826,-7.1298],[108.3843,-7.1274],[108.381,-7.1242],[108.3822,-7.1197],[108.3842,-7.1182],[108.3838,-7.1161],[108.3869,-7.1163],[108.3891,-7.1135],[108.3932,-7.112],[108.4093,-7.1174],[108.4138,-7.1161],[108.412,-7.1209],[108.4029,-7.1279],[108.4005,-7.1343],[108.3975,-7.1341],[108.3935,-7.1412]]]}}]}