{"type":"FeatureCollection","metadata":{"parent_osm_id":"gid_IDN_23_21_22_1","parent_name":"Okhika","parent_name_1":"Papua","parent_gid":"IDN.23.21.22_1","parent_level":"6","child_level":"7","count":4,"source":"GADM 4.1","generated":"2026-05-09"},"features":[{"type":"Feature","properties":{"name":"Kotyobakon","name_en":"Kotyobakon","admin_level":"7","osm_id":""},"geometry":{"type":"Polygon","coordinates":[[[140.6821,-4.7239],[140.6686,-4.6952],[140.6662,-4.6844],[140.6774,-4.6818],[140.6965,-4.6727],[140.7078,-4.6867],[140.7091,-4.6933],[140.6994,-4.7036],[140.7093,-4.7122],[140.7128,-4.7201],[140.6821,-4.7239]]]}},{"type":"Feature","properties":{"name":"Okelwel","name_en":"Okelwel","admin_level":"7","osm_id":""},"geometry":{"type":"Polygon","coordinates":[[[140.7128,-4.7201],[140.7141,-4.7368],[140.702,-4.7395],[140.6997,-4.7348],[140.6984,-4.7224],[140.7128,-4.7201]]]}},{"type":"Feature","properties":{"name":"Okteneng","name_en":"Okteneng","admin_level":"7","osm_id":""},"geometry":{"type":"Polygon","coordinates":[[[140.6662,-4.6844],[140.6223,-4.6348],[140.6482,-4.6178],[140.6646,-4.614],[140.6837,-4.6064],[140.7043,-4.601],[140.7108,-4.6076],[140.7156,-4.6157],[140.7361,-4.6297],[140.7172,-4.6502],[140.7091,-4.6561],[140.6965,-4.6727],[140.6774,-4.6818],[140.6662,-4.6844]]]}},{"type":"Feature","properties":{"name":"Tengnong","name_en":"Tengnong","admin_level":"7","osm_id":""},"geometry":{"type":"Polygon","coordinates":[[[140.6905,-4.7439],[140.6821,-4.7239],[140.6984,-4.7224],[140.6997,-4.7348],[140.702,-4.7395],[140.6905,-4.7439]]]}}]}