{"type":"FeatureCollection","metadata":{"parent_osm_id":"gid_IDN_22_4_16_1","parent_name":"MomiWaren","parent_name_1":"PapuaBarat","parent_gid":"IDN.22.4.16_1","parent_level":"6","child_level":"7","count":7,"source":"GADM 4.1","generated":"2026-05-09"},"features":[{"type":"Feature","properties":{"name":"Dembek","name_en":"Dembek","admin_level":"7","osm_id":""},"geometry":{"type":"Polygon","coordinates":[[[134.1886,-1.552],[134.1906,-1.5559],[134.1897,-1.5582],[134.1881,-1.5597],[134.1834,-1.556],[134.1821,-1.5645],[134.1765,-1.5683],[134.164,-1.5837],[134.1483,-1.5945],[134.1379,-1.5902],[134.137,-1.5858],[134.1387,-1.5753],[134.1355,-1.5671],[134.1361,-1.5607],[134.1417,-1.5581],[134.1525,-1.5435],[134.1547,-1.5359],[134.1703,-1.5445],[134.1886,-1.552]]]}},{"type":"Feature","properties":{"name":"Demini","name_en":"Demini","admin_level":"7","osm_id":""},"geometry":{"type":"Polygon","coordinates":[[[134.1547,-1.5359],[134.1525,-1.5435],[134.1417,-1.5581],[134.1361,-1.5607],[134.1355,-1.5671],[134.1387,-1.5753],[134.137,-1.5858],[134.1379,-1.5902],[134.1483,-1.5945],[134.1423,-1.6005],[134.1374,-1.6096],[134.1107,-1.5925],[134.1031,-1.5849],[134.097,-1.5665],[134.0655,-1.5362],[134.0237,-1.5068],[134.0335,-1.4891],[134.0499,-1.4974],[134.085,-1.5114],[134.1201,-1.5214],[134.1302,-1.5294],[134.1502,-1.5334],[134.1547,-1.5359]]]}},{"type":"Feature","properties":{"name":"GayaBaru","name_en":"GayaBaru","admin_level":"7","osm_id":""},"geometry":{"type":"Polygon","coordinates":[[[134.102,-1.6356],[134.1,-1.6401],[134.0941,-1.641],[134.0928,-1.6439],[134.0881,-1.6465],[134.0754,-1.6492],[134.0705,-1.6533],[134.0698,-1.656],[134.0363,-1.6488],[134.0265,-1.6462],[134.0085,-1.6364],[133.9819,-1.6152],[133.9683,-1.6009],[133.9809,-1.58],[133.9875,-1.5869],[134.0265,-1.6107],[134.0839,-1.6282],[134.1003,-1.6287],[134.102,-1.6356]]]}},{"type":"Feature","properties":{"name":"NeneiPantai/Nij","name_en":"NeneiPantai/Nij","admin_level":"7","osm_id":""},"geometry":{"type":"Polygon","coordinates":[[[134.1003,-1.6287],[134.0839,-1.6282],[134.0265,-1.6107],[133.9875,-1.5869],[133.9809,-1.58],[133.9933,-1.5597],[134.0118,-1.5748],[134.0505,-1.5953],[134.0748,-1.6065],[134.0804,-1.6077],[134.0845,-1.6065],[134.1003,-1.6287]]]}},{"type":"Feature","properties":{"name":"Siwi","name_en":"Siwi","admin_level":"7","osm_id":""},"geometry":{"type":"Polygon","coordinates":[[[134.0237,-1.5068],[134.0655,-1.5362],[134.097,-1.5665],[134.1037,-1.5855],[134.0973,-1.5945],[134.0845,-1.6065],[134.0804,-1.6077],[134.0748,-1.6065],[134.0505,-1.5953],[134.0118,-1.5748],[133.9933,-1.5597],[134.0237,-1.5068]]]}},{"type":"Feature","properties":{"name":"Waren","name_en":"Waren","admin_level":"7","osm_id":""},"geometry":{"type":"Polygon","coordinates":[[[134.1037,-1.5855],[134.1107,-1.5925],[134.1374,-1.6096],[134.1307,-1.6232],[134.121,-1.6363],[134.117,-1.6387],[134.1034,-1.6373],[134.0999,-1.6275],[134.0844,-1.6063],[134.0973,-1.5945],[134.1037,-1.5855]]]}},{"type":"Feature","properties":{"name":"Yekwandi","name_en":"Yekwandi","admin_level":"7","osm_id":""},"geometry":{"type":"Polygon","coordinates":[[[133.9357,-1.6495],[133.9392,-1.641],[133.9603,-1.607],[133.959,-1.605],[133.9683,-1.6009],[133.9819,-1.6152],[134.0085,-1.6364],[134.0265,-1.6462],[134.0698,-1.656],[134.0707,-1.6586],[134.0752,-1.658],[134.0808,-1.6598],[134.0812,-1.6626],[134.0798,-1.6652],[134.0584,-1.665],[133.9853,-1.654],[133.9357,-1.6495]]]}}]}