{"type":"FeatureCollection","metadata":{"parent_osm_id":"gid_IDN_23_2_13_1","parent_name":"Padaido","parent_name_1":"Papua","parent_gid":"IDN.23.2.13_1","parent_level":"6","child_level":"7","count":8,"source":"GADM 4.1","generated":"2026-05-09"},"features":[{"type":"Feature","properties":{"name":"Auki","name_en":"Auki","admin_level":"7","osm_id":""},"geometry":{"type":"Polygon","coordinates":[[[136.3391,-1.2236],[136.3414,-1.2234],[136.3403,-1.2307],[136.3442,-1.2352],[136.3438,-1.2369],[136.3382,-1.2334],[136.3354,-1.2297],[136.3391,-1.2236]]]}},{"type":"Feature","properties":{"name":"Inbeyomi","name_en":"Inbeyomi","admin_level":"7","osm_id":""},"geometry":{"type":"Polygon","coordinates":[[[136.4483,-1.2121],[136.4507,-1.2211],[136.4477,-1.2314],[136.4479,-1.2403],[136.4426,-1.2274],[136.4371,-1.2212],[136.4483,-1.2121]]]}},{"type":"Feature","properties":{"name":"Nusi","name_en":"Nusi","admin_level":"7","osm_id":""},"geometry":{"type":"Polygon","coordinates":[[[136.4122,-1.2805],[136.4111,-1.2802],[136.4115,-1.278],[136.4151,-1.2708],[136.418,-1.268],[136.4223,-1.268],[136.4153,-1.2743],[136.4122,-1.2805]]]}},{"type":"Feature","properties":{"name":"NusiBabaruk","name_en":"NusiBabaruk","admin_level":"7","osm_id":""},"geometry":{"type":"Polygon","coordinates":[[[136.4122,-1.2805],[136.4107,-1.2889],[136.4144,-1.2996],[136.4134,-1.3094],[136.4099,-1.2866],[136.4109,-1.2805],[136.4122,-1.2805]]]}},{"type":"Feature","properties":{"name":"Pai","name_en":"Pai","admin_level":"7","osm_id":""},"geometry":{"type":"Polygon","coordinates":[[[136.4483,-1.2121],[136.4371,-1.2212],[136.43,-1.2127],[136.4369,-1.2026],[136.4431,-1.1992],[136.4483,-1.2121]]]}},{"type":"Feature","properties":{"name":"Sandidori","name_en":"Sandidori","admin_level":"7","osm_id":""},"geometry":{"type":"Polygon","coordinates":[[[136.3391,-1.2236],[136.3354,-1.2297],[136.3339,-1.2275],[136.3298,-1.2282],[136.3104,-1.2344],[136.3053,-1.2423],[136.3013,-1.2446],[136.2966,-1.2418],[136.292,-1.235],[136.2979,-1.229],[136.318,-1.218],[136.3339,-1.2188],[136.3374,-1.2198],[136.3391,-1.2236]]]}},{"type":"Feature","properties":{"name":"Sorina","name_en":"Sorina","admin_level":"7","osm_id":""},"geometry":{"type":"Polygon","coordinates":[[[136.3857,-1.2532],[136.3846,-1.2527],[136.3845,-1.2514],[136.3857,-1.2518],[136.3857,-1.2532]]]}},{"type":"Feature","properties":{"name":"Wundi","name_en":"Wundi","admin_level":"7","osm_id":""},"geometry":{"type":"Polygon","coordinates":[[[136.3859,-1.2621],[136.3846,-1.2613],[136.3845,-1.2607],[136.3865,-1.2612],[136.3859,-1.2621]]]}}]}