{"type":"FeatureCollection","metadata":{"parent_osm_id":"gid_IDN_32_20_3_1","parent_name":"Gido","parent_name_1":"SumateraUtara","parent_gid":"IDN.32.20.3_1","parent_level":"6","child_level":"7","count":25,"source":"GADM 4.1","generated":"2026-05-08"},"features":[{"type":"Feature","properties":{"name":"Akhelauwe","name_en":"Akhelauwe","admin_level":"7","osm_id":""},"geometry":{"type":"Polygon","coordinates":[[[97.6857,1.0871],[97.6918,1.0814],[97.6895,1.079],[97.6737,1.0708],[97.6673,1.0732],[97.6788,1.0891],[97.6829,1.0892],[97.6857,1.0871]]]}},{"type":"Feature","properties":{"name":"Baruzo","name_en":"Baruzo","admin_level":"7","osm_id":""},"geometry":{"type":"Polygon","coordinates":[[[97.7004,1.102],[97.6995,1.1112],[97.7035,1.1173],[97.71,1.1199],[97.7207,1.1186],[97.7121,1.111],[97.7091,1.1059],[97.7004,1.102]]]}},{"type":"Feature","properties":{"name":"HiliBadalu","name_en":"HiliBadalu","admin_level":"7","osm_id":""},"geometry":{"type":"Polygon","coordinates":[[[97.7012,1.0609],[97.713,1.0631],[97.7265,1.0689],[97.7429,1.0677],[97.7529,1.0638],[97.7276,1.0461],[97.7223,1.0546],[97.7152,1.0566],[97.7026,1.0558],[97.7033,1.058],[97.7012,1.0609]]]}},{"type":"Feature","properties":{"name":"Hilimbana","name_en":"Hilimbana","admin_level":"7","osm_id":""},"geometry":{"type":"Polygon","coordinates":[[[97.6886,1.085],[97.6857,1.0871],[97.6885,1.0899],[97.7009,1.0969],[97.7038,1.0942],[97.7059,1.0887],[97.6935,1.0873],[97.6886,1.085]]]}},{"type":"Feature","properties":{"name":"Hiliotalua","name_en":"Hiliotalua","admin_level":"7","osm_id":""},"geometry":{"type":"Polygon","coordinates":[[[97.7109,1.0628],[97.7012,1.0609],[97.6992,1.0637],[97.6882,1.0664],[97.6891,1.0702],[97.6956,1.0733],[97.7004,1.0801],[97.707,1.0773],[97.712,1.0721],[97.7109,1.0628]]]}},{"type":"Feature","properties":{"name":"Hilisebua","name_en":"Hilisebua","admin_level":"7","osm_id":""},"geometry":{"type":"Polygon","coordinates":[[[97.7063,1.1194],[97.6995,1.1112],[97.7004,1.102],[97.6921,1.0998],[97.6897,1.1028],[97.6882,1.1089],[97.6934,1.1121],[97.6976,1.118],[97.7079,1.1241],[97.7079,1.1207],[97.7063,1.1194]]]}},{"type":"Feature","properties":{"name":"HiliwetoGido","name_en":"HiliwetoGido","admin_level":"7","osm_id":""},"geometry":{"type":"Polygon","coordinates":[[[97.7079,1.1241],[97.6976,1.118],[97.6934,1.1121],[97.6882,1.1089],[97.6877,1.1138],[97.6971,1.1259],[97.7002,1.1364],[97.704,1.1412],[97.7108,1.1439],[97.7079,1.1241]]]}},{"type":"Feature","properties":{"name":"Ladea","name_en":"Ladea","admin_level":"7","osm_id":""},"geometry":{"type":"Polygon","coordinates":[[[97.6516,1.0886],[97.6473,1.1004],[97.6711,1.1086],[97.6855,1.1169],[97.6871,1.1122],[97.6805,1.1012],[97.6666,1.0964],[97.6516,1.0886]]]}},{"type":"Feature","properties":{"name":"Lahemo","name_en":"Lahemo","admin_level":"7","osm_id":""},"geometry":{"type":"Polygon","coordinates":[[[97.6882,1.1089],[97.6897,1.1028],[97.6921,1.0998],[97.6878,1.0986],[97.681,1.0935],[97.6795,1.1008],[97.685,1.1072],[97.6871,1.1122],[97.6882,1.1089]]]}},{"type":"Feature","properties":{"name":"LasaraIdanoi","name_en":"LasaraIdanoi","admin_level":"7","osm_id":""},"geometry":{"type":"Polygon","coordinates":[[[97.6643,1.1428],[97.6688,1.1525],[97.6868,1.1757],[97.6902,1.1785],[97.6933,1.1763],[97.6804,1.1479],[97.6762,1.1426],[97.646,1.1168],[97.6456,1.1192],[97.6436,1.1202],[97.6585,1.1335],[97.6634,1.139],[97.6643,1.1428]]]}},{"type":"Feature","properties":{"name":"Lauri","name_en":"Lauri","admin_level":"7","osm_id":""},"geometry":{"type":"Polygon","coordinates":[[[97.7529,1.0638],[97.7429,1.0677],[97.7265,1.0689],[97.7109,1.0628],[97.712,1.0721],[97.707,1.0773],[97.703,1.079],[97.705,1.0836],[97.7114,1.08],[97.7338,1.0849],[97.7561,1.0844],[97.7716,1.0808],[97.7529,1.0638]]]}},{"type":"Feature","properties":{"name":"LoloanaaGido","name_en":"LoloanaaGido","admin_level":"7","osm_id":""},"geometry":{"type":"Polygon","coordinates":[[[97.6857,1.0871],[97.6829,1.0892],[97.6788,1.0891],[97.6817,1.0948],[97.6878,1.0986],[97.7004,1.102],[97.7009,1.0969],[97.6857,1.0871]]]}},{"type":"Feature","properties":{"name":"Lolozasai","name_en":"Lolozasai","admin_level":"7","osm_id":""},"geometry":{"type":"Polygon","coordinates":[[[97.6702,1.1231],[97.6625,1.1189],[97.6553,1.1183],[97.6468,1.1125],[97.646,1.1168],[97.6762,1.1426],[97.6804,1.1479],[97.6933,1.1763],[97.7006,1.1739],[97.6987,1.1638],[97.691,1.1435],[97.6821,1.1394],[97.6764,1.1349],[97.6715,1.1283],[97.6702,1.1231]]]}},{"type":"Feature","properties":{"name":"SaetaGaramba","name_en":"SaetaGaramba","admin_level":"7","osm_id":""},"geometry":{"type":"Polygon","coordinates":[[[97.6918,1.0814],[97.6886,1.085],[97.6935,1.0873],[97.7059,1.0887],[97.7029,1.0789],[97.6935,1.0797],[97.6918,1.0814]]]}},{"type":"Feature","properties":{"name":"Saewe","name_en":"Saewe","admin_level":"7","osm_id":""},"geometry":{"type":"Polygon","coordinates":[[[97.6746,1.1212],[97.6702,1.1231],[97.6715,1.1283],[97.6821,1.1394],[97.691,1.1435],[97.6987,1.1638],[97.7006,1.1739],[97.7081,1.1737],[97.6929,1.1398],[97.6746,1.1212]]]}},{"type":"Feature","properties":{"name":"SihareoSogaeadu","name_en":"SihareoSogaeadu","admin_level":"7","osm_id":""},"geometry":{"type":"Polygon","coordinates":[[[97.6737,1.0708],[97.6918,1.0814],[97.6935,1.0797],[97.7004,1.0801],[97.6956,1.0733],[97.6891,1.0702],[97.6882,1.0664],[97.6737,1.0708]]]}},{"type":"Feature","properties":{"name":"Sirete","name_en":"Sirete","admin_level":"7","osm_id":""},"geometry":{"type":"Polygon","coordinates":[[[97.6851,1.1173],[97.6831,1.1194],[97.69,1.1283],[97.6938,1.1377],[97.7162,1.1735],[97.7212,1.1701],[97.7158,1.1617],[97.7108,1.1439],[97.704,1.1412],[97.7002,1.1364],[97.6971,1.1259],[97.6871,1.1122],[97.6851,1.1173]]]}},{"type":"Feature","properties":{"name":"SisarahiliSogaeadu","name_en":"SisarahiliSogaeadu","admin_level":"7","osm_id":""},"geometry":{"type":"Polygon","coordinates":[[[97.7716,1.0808],[97.7561,1.0844],[97.7338,1.0849],[97.7114,1.08],[97.705,1.0836],[97.7059,1.0887],[97.7235,1.0893],[97.7455,1.0944],[97.7616,1.0947],[97.7782,1.0917],[97.7716,1.0808]]]}},{"type":"Feature","properties":{"name":"Sisobahili","name_en":"Sisobahili","admin_level":"7","osm_id":""},"geometry":{"type":"Polygon","coordinates":[[[97.6553,1.0828],[97.6516,1.0886],[97.6666,1.0964],[97.6795,1.1008],[97.681,1.0935],[97.6673,1.0732],[97.6636,1.0743],[97.6553,1.0828]]]}},{"type":"Feature","properties":{"name":"Sogaeadu","name_en":"Sogaeadu","admin_level":"7","osm_id":""},"geometry":{"type":"Polygon","coordinates":[[[97.7004,1.102],[97.7091,1.106],[97.7213,1.1083],[97.723,1.1055],[97.7138,1.0989],[97.7065,1.0975],[97.7007,1.099],[97.7004,1.102]]]}},{"type":"Feature","properties":{"name":"Somi","name_en":"Somi","admin_level":"7","osm_id":""},"geometry":{"type":"Polygon","coordinates":[[[97.7207,1.1186],[97.7063,1.1194],[97.7079,1.1207],[97.7115,1.1473],[97.7158,1.1617],[97.7212,1.1701],[97.729,1.1666],[97.7352,1.1658],[97.7505,1.1689],[97.7555,1.1643],[97.7544,1.1622],[97.7393,1.1456],[97.7302,1.1258],[97.7207,1.1186]]]}},{"type":"Feature","properties":{"name":"Tuhembuasi","name_en":"Tuhembuasi","admin_level":"7","osm_id":""},"geometry":{"type":"Polygon","coordinates":[[[97.7026,1.0558],[97.7152,1.0566],[97.7223,1.0546],[97.7276,1.0461],[97.7173,1.035],[97.7158,1.0413],[97.7096,1.0454],[97.7024,1.0472],[97.6983,1.0464],[97.7026,1.0558]]]}},{"type":"Feature","properties":{"name":"Tulumbaho","name_en":"Tulumbaho","admin_level":"7","osm_id":""},"geometry":{"type":"Polygon","coordinates":[[[97.7059,1.0887],[97.7007,1.099],[97.7065,1.0975],[97.7138,1.0989],[97.7374,1.1145],[97.7536,1.12],[97.7708,1.1285],[97.7794,1.1341],[97.7977,1.1516],[97.8043,1.1473],[97.8117,1.1392],[97.8195,1.1264],[97.8051,1.1184],[97.7814,1.0973],[97.7782,1.0917],[97.7693,1.0939],[97.7527,1.0949],[97.7381,1.0933],[97.7235,1.0893],[97.7059,1.0887]]]}},{"type":"Feature","properties":{"name":"Umbu","name_en":"Umbu","admin_level":"7","osm_id":""},"geometry":{"type":"Polygon","coordinates":[[[97.6831,1.1194],[97.6807,1.1218],[97.6746,1.1212],[97.6929,1.1398],[97.7081,1.1737],[97.7157,1.1738],[97.6938,1.1377],[97.69,1.1283],[97.6831,1.1194]]]}},{"type":"Feature","properties":{"name":"WeaWea","name_en":"WeaWea","admin_level":"7","osm_id":""},"geometry":{"type":"Polygon","coordinates":[[[97.7091,1.106],[97.7179,1.117],[97.7302,1.1258],[97.7393,1.1456],[97.7555,1.1643],[97.7649,1.154],[97.7696,1.1511],[97.7757,1.1504],[97.7915,1.1531],[97.7977,1.1516],[97.7794,1.1341],[97.7615,1.1235],[97.7374,1.1145],[97.723,1.1055],[97.7213,1.1083],[97.7091,1.106]]]}}]}