{"type":"FeatureCollection","metadata":{"parent_osm_id":"gid_IDN_29_12_5_1","parent_name":"Kauditan","parent_name_1":"SulawesiUtara","parent_gid":"IDN.29.12.5_1","parent_level":"6","child_level":"7","count":12,"source":"GADM 4.1","generated":"2026-05-08"},"features":[{"type":"Feature","properties":{"name":"Kaasar","name_en":"Kaasar","admin_level":"7","osm_id":""},"geometry":{"type":"Polygon","coordinates":[[[125.0373,1.4546],[125.0419,1.4541],[125.0398,1.4467],[125.0306,1.4277],[125.0231,1.4049],[125.0164,1.395],[125.0144,1.3829],[125.0148,1.3696],[125.0112,1.3613],[125.0066,1.3378],[125.0029,1.331],[125.0018,1.3226],[124.9979,1.3278],[124.9911,1.3283],[124.9937,1.3358],[124.9911,1.3428],[124.9946,1.3521],[124.9959,1.3615],[125.0091,1.3801],[125.0107,1.3996],[125.0216,1.4171],[125.0317,1.4442],[125.0373,1.4546]]]}},{"type":"Feature","properties":{"name":"Kaima","name_en":"Kaima","admin_level":"7","osm_id":""},"geometry":{"type":"Polygon","coordinates":[[[125.0226,1.3645],[125.0177,1.368],[125.0216,1.3826],[125.0226,1.3945],[125.0281,1.4039],[125.0314,1.4197],[125.035,1.4259],[125.032,1.3975],[125.0218,1.3792],[125.0222,1.3765],[125.0201,1.3731],[125.0226,1.3645]]]}},{"type":"Feature","properties":{"name":"Karegesan","name_en":"Karegesan","admin_level":"7","osm_id":""},"geometry":{"type":"Polygon","coordinates":[[[125.0419,1.4541],[125.0462,1.4539],[125.045,1.4485],[125.0393,1.4339],[125.0318,1.4208],[125.0287,1.4053],[125.0226,1.3945],[125.0216,1.3826],[125.0177,1.368],[125.0226,1.3635],[125.0136,1.3522],[125.0165,1.3463],[125.0066,1.3378],[125.0112,1.3613],[125.0148,1.3696],[125.0144,1.3829],[125.0164,1.395],[125.0231,1.4049],[125.0299,1.4258],[125.0419,1.4541]]]}},{"type":"Feature","properties":{"name":"KauditanDua","name_en":"KauditanDua","admin_level":"7","osm_id":""},"geometry":{"type":"Polygon","coordinates":[[[125.0719,1.4529],[125.075,1.4511],[125.0759,1.4476],[125.0765,1.4354],[125.066,1.4177],[125.0612,1.4045],[125.0606,1.3975],[125.0582,1.3951],[125.0534,1.3829],[125.0498,1.3848],[125.0461,1.3911],[125.0476,1.3959],[125.0512,1.3975],[125.0529,1.4077],[125.0568,1.4135],[125.0515,1.4175],[125.0671,1.4334],[125.0719,1.4529]]]}},{"type":"Feature","properties":{"name":"KauditanSatu","name_en":"KauditanSatu","admin_level":"7","osm_id":""},"geometry":{"type":"Polygon","coordinates":[[[125.0515,1.4175],[125.0568,1.4135],[125.0529,1.4077],[125.0512,1.3975],[125.0476,1.3959],[125.0461,1.3911],[125.0498,1.3848],[125.0533,1.3829],[125.0518,1.3741],[125.0474,1.3734],[125.0419,1.3667],[125.0354,1.3663],[125.04,1.376],[125.0474,1.3807],[125.0448,1.385],[125.0433,1.3948],[125.0515,1.4175]]]}},{"type":"Feature","properties":{"name":"Kawilei","name_en":"Kawilei","admin_level":"7","osm_id":""},"geometry":{"type":"Polygon","coordinates":[[[125.07,1.4526],[125.0719,1.4529],[125.0713,1.4479],[125.0671,1.4334],[125.0543,1.4217],[125.0476,1.4091],[125.0433,1.3948],[125.0448,1.385],[125.0474,1.3807],[125.04,1.376],[125.0354,1.3663],[125.0282,1.3673],[125.0338,1.3926],[125.0399,1.4073],[125.0425,1.4231],[125.055,1.4543],[125.07,1.4526]]]}},{"type":"Feature","properties":{"name":"Lembean","name_en":"Lembean","admin_level":"7","osm_id":""},"geometry":{"type":"Polygon","coordinates":[[[125.0301,1.4545],[125.0373,1.4546],[125.0317,1.4442],[125.0216,1.4171],[125.0107,1.3996],[125.0091,1.3801],[124.9959,1.3615],[124.9946,1.3521],[124.9911,1.3428],[124.9937,1.3374],[124.9935,1.334],[124.9929,1.3304],[124.9884,1.3253],[124.9889,1.3196],[124.9825,1.313],[124.9818,1.3105],[124.9773,1.3097],[124.9765,1.3075],[124.9751,1.3075],[124.9828,1.3296],[124.9824,1.3382],[124.9868,1.346],[124.9924,1.3652],[125.0008,1.3837],[125.0009,1.3934],[125.0039,1.4046],[125.0127,1.4124],[125.0202,1.4303],[125.0194,1.4377],[125.025,1.4435],[125.0308,1.4529],[125.0301,1.4545]]]}},{"type":"Feature","properties":{"name":"Paslaten","name_en":"Paslaten","admin_level":"7","osm_id":""},"geometry":{"type":"Polygon","coordinates":[[[125.0196,1.4325],[125.0181,1.4241],[125.0127,1.4124],[125.0039,1.4046],[125.0029,1.4018],[125.0008,1.3837],[124.9924,1.3652],[124.9868,1.346],[124.9824,1.3382],[124.9828,1.3296],[124.9755,1.3115],[124.975,1.3066],[124.9737,1.3087],[124.9702,1.3086],[124.9701,1.3073],[124.9686,1.3121],[124.9774,1.3257],[124.9851,1.3554],[124.9855,1.3829],[125.0196,1.4325]]]}},{"type":"Feature","properties":{"name":"Treman","name_en":"Treman","admin_level":"7","osm_id":""},"geometry":{"type":"Polygon","coordinates":[[[125.0462,1.4539],[125.055,1.4543],[125.0425,1.4231],[125.0399,1.4073],[125.0338,1.3926],[125.0271,1.3662],[125.0247,1.3481],[125.0165,1.3463],[125.0136,1.3522],[125.0226,1.3635],[125.0201,1.3731],[125.0222,1.3765],[125.0218,1.3792],[125.032,1.3975],[125.035,1.4259],[125.0435,1.4443],[125.0462,1.4539]]]}},{"type":"Feature","properties":{"name":"Tumaluntung","name_en":"Tumaluntung","admin_level":"7","osm_id":""},"geometry":{"type":"Polygon","coordinates":[[[124.9898,1.4084],[124.9958,1.4108],[125.0044,1.4178],[125.0111,1.4249],[125.0191,1.4369],[125.0196,1.4325],[124.9855,1.3829],[124.9851,1.3554],[124.9774,1.3257],[124.9686,1.3121],[124.9644,1.3205],[124.9684,1.3218],[124.9736,1.328],[124.977,1.3335],[124.9772,1.3377],[124.9736,1.3421],[124.974,1.3484],[124.9631,1.358],[124.9627,1.3609],[124.9667,1.3695],[124.9716,1.3738],[124.9761,1.3821],[124.9792,1.384],[124.9801,1.3899],[124.9852,1.397],[124.9824,1.4011],[124.9875,1.4043],[124.9898,1.4084]]]}},{"type":"Feature","properties":{"name":"Watudambo","name_en":"Watudambo","admin_level":"7","osm_id":""},"geometry":{"type":"Polygon","coordinates":[[[125.0797,1.4153],[125.0702,1.4261],[125.0765,1.4354],[125.0782,1.4272],[125.0881,1.4106],[125.0812,1.4114],[125.0797,1.4153]]]}},{"type":"Feature","properties":{"name":"WatudamboDua","name_en":"WatudamboDua","admin_level":"7","osm_id":""},"geometry":{"type":"Polygon","coordinates":[[[125.0853,1.4271],[125.0904,1.4175],[125.0881,1.4106],[125.0842,1.4188],[125.0799,1.4237],[125.0853,1.4271]]]}}]}