{"type":"FeatureCollection","metadata":{"parent_osm_id":"gid_IDN_9_25_18_1","parent_name":"SumedangSelatan","parent_name_1":"JawaBarat","parent_gid":"IDN.9.25.18_1","parent_level":"6","child_level":"7","count":14,"source":"GADM 4.1","generated":"2026-05-09"},"features":[{"type":"Feature","properties":{"name":"Baginda","name_en":"Baginda","admin_level":"7","osm_id":""},"geometry":{"type":"Polygon","coordinates":[[[107.9308,-6.899],[107.9287,-6.8917],[107.9304,-6.8879],[107.9287,-6.8768],[107.9332,-6.8752],[107.9391,-6.8767],[107.9362,-6.8867],[107.938,-6.8886],[107.9387,-6.8939],[107.9384,-6.8966],[107.9308,-6.899]]]}},{"type":"Feature","properties":{"name":"Ciherang","name_en":"Ciherang","admin_level":"7","osm_id":""},"geometry":{"type":"Polygon","coordinates":[[[107.8642,-6.8817],[107.8636,-6.8797],[107.8696,-6.8738],[107.8652,-6.8742],[107.8646,-6.8715],[107.8693,-6.8708],[107.8724,-6.8686],[107.8722,-6.8672],[107.8669,-6.862],[107.8615,-6.8603],[107.858,-6.8519],[107.8542,-6.851],[107.8572,-6.8464],[107.8603,-6.8487],[107.8674,-6.8452],[107.8733,-6.8474],[107.875,-6.8538],[107.8781,-6.8526],[107.8839,-6.8555],[107.8942,-6.8642],[107.8872,-6.867],[107.8843,-6.865],[107.8805,-6.8657],[107.8802,-6.8672],[107.8731,-6.8713],[107.8737,-6.8784],[107.8642,-6.8817]]]}},{"type":"Feature","properties":{"name":"Cipameungpeuk","name_en":"Cipameungpeuk","admin_level":"7","osm_id":""},"geometry":{"type":"Polygon","coordinates":[[[107.9287,-6.8768],[107.9304,-6.8879],[107.9287,-6.8917],[107.9308,-6.899],[107.9272,-6.8983],[107.9226,-6.8893],[107.9241,-6.8783],[107.9211,-6.8742],[107.9215,-6.8686],[107.92,-6.8694],[107.9193,-6.8682],[107.9217,-6.8661],[107.9251,-6.8571],[107.9308,-6.8554],[107.9299,-6.8531],[107.9314,-6.8522],[107.9335,-6.8532],[107.9346,-6.859],[107.9296,-6.8639],[107.9309,-6.8696],[107.9287,-6.8768]]]}},{"type":"Feature","properties":{"name":"Cipancar","name_en":"Cipancar","admin_level":"7","osm_id":""},"geometry":{"type":"Polygon","coordinates":[[[107.955,-6.8948],[107.9581,-6.9034],[107.9557,-6.9073],[107.9441,-6.9086],[107.9391,-6.9106],[107.9316,-6.9103],[107.9308,-6.899],[107.938,-6.8966],[107.942,-6.8985],[107.9442,-6.8968],[107.9512,-6.8973],[107.955,-6.8948]]]}},{"type":"Feature","properties":{"name":"Citengah","name_en":"Citengah","admin_level":"7","osm_id":""},"geometry":{"type":"Polygon","coordinates":[[[107.9577,-6.9603],[107.9459,-6.9575],[107.9432,-6.9531],[107.939,-6.9563],[107.9301,-6.9553],[107.9259,-6.9486],[107.9304,-6.9445],[107.9255,-6.9372],[107.9195,-6.9379],[107.9171,-6.9355],[107.9188,-6.9275],[107.9165,-6.9235],[107.924,-6.9186],[107.9316,-6.9103],[107.9391,-6.9106],[107.9441,-6.9086],[107.9551,-6.9075],[107.9581,-6.9034],[107.9661,-6.9054],[107.9714,-6.9047],[107.9714,-6.9108],[107.973,-6.914],[107.9695,-6.9208],[107.9697,-6.9241],[107.9766,-6.9281],[107.9755,-6.9361],[107.9781,-6.9412],[107.971,-6.9473],[107.9719,-6.9528],[107.9705,-6.9555],[107.9654,-6.9592],[107.9577,-6.9603]]]}},{"type":"Feature","properties":{"name":"Gunasari","name_en":"Gunasari","admin_level":"7","osm_id":""},"geometry":{"type":"Polygon","coordinates":[[[107.9466,-6.8534],[107.9441,-6.8669],[107.9498,-6.8787],[107.9497,-6.8828],[107.9525,-6.8856],[107.955,-6.8948],[107.9512,-6.8973],[107.9442,-6.8968],[107.942,-6.8985],[107.9385,-6.8971],[107.938,-6.8886],[107.9362,-6.8871],[107.9399,-6.8745],[107.9349,-6.8738],[107.937,-6.8703],[107.9341,-6.8594],[107.9342,-6.8579],[107.9372,-6.859],[107.9392,-6.8566],[107.9466,-6.8534]]]}},{"type":"Feature","properties":{"name":"Kotakulon","name_en":"Kotakulon","admin_level":"7","osm_id":""},"geometry":{"type":"Polygon","coordinates":[[[107.9107,-6.8622],[107.9065,-6.8545],[107.9069,-6.8472],[107.9098,-6.8481],[107.9095,-6.8463],[107.9106,-6.8467],[107.9094,-6.8438],[107.9068,-6.8429],[107.9082,-6.8373],[107.9116,-6.8365],[107.9148,-6.8435],[107.9139,-6.8459],[107.9189,-6.8468],[107.9197,-6.8451],[107.9212,-6.8484],[107.9238,-6.8478],[107.9213,-6.8591],[107.9163,-6.8589],[107.9164,-6.8604],[107.9107,-6.8622]]]}},{"type":"Feature","properties":{"name":"Margalaksana","name_en":"Margalaksana","admin_level":"7","osm_id":""},"geometry":{"type":"Polygon","coordinates":[[[107.89,-6.9032],[107.888,-6.8916],[107.8894,-6.8829],[107.8878,-6.8836],[107.8874,-6.8869],[107.8862,-6.8777],[107.8878,-6.8765],[107.8891,-6.8704],[107.8922,-6.8713],[107.896,-6.8689],[107.8944,-6.871],[107.8964,-6.8706],[107.8949,-6.8717],[107.8958,-6.8731],[107.8979,-6.8723],[107.9003,-6.8738],[107.9016,-6.8726],[107.9026,-6.8748],[107.9038,-6.8731],[107.9047,-6.877],[107.8996,-6.8817],[107.8982,-6.8891],[107.8934,-6.8908],[107.893,-6.8966],[107.89,-6.9032]]]}},{"type":"Feature","properties":{"name":"Margamekar","name_en":"Margamekar","admin_level":"7","osm_id":""},"geometry":{"type":"Polygon","coordinates":[[[107.9171,-6.9355],[107.9101,-6.9354],[107.903,-6.944],[107.8932,-6.9388],[107.8993,-6.9356],[107.9005,-6.9301],[107.9074,-6.9241],[107.9051,-6.9138],[107.909,-6.8977],[107.9109,-6.8966],[107.9091,-6.8935],[107.9112,-6.89],[107.9117,-6.8807],[107.9149,-6.8762],[107.9221,-6.875],[107.9241,-6.8783],[107.9226,-6.8893],[107.9272,-6.8983],[107.9308,-6.899],[107.9319,-6.9101],[107.924,-6.9186],[107.9165,-6.9235],[107.9188,-6.9275],[107.9171,-6.9355]]]}},{"type":"Feature","properties":{"name":"Mekarrahayu","name_en":"Mekarrahayu","admin_level":"7","osm_id":""},"geometry":{"type":"Polygon","coordinates":[[[107.8741,-6.8806],[107.8733,-6.8711],[107.8802,-6.8672],[107.8853,-6.8704],[107.8859,-6.8678],[107.8873,-6.8681],[107.8888,-6.874],[107.8861,-6.8795],[107.8874,-6.8869],[107.8878,-6.8836],[107.8894,-6.8829],[107.888,-6.8916],[107.89,-6.9032],[107.8883,-6.9071],[107.8838,-6.9074],[107.8845,-6.8989],[107.8807,-6.8912],[107.8813,-6.8875],[107.8779,-6.8858],[107.8776,-6.8813],[107.8741,-6.8806]]]}},{"type":"Feature","properties":{"name":"PasanggrahanBaru","name_en":"PasanggrahanBaru","admin_level":"7","osm_id":""},"geometry":{"type":"Polygon","coordinates":[[[107.8802,-6.8672],[107.8828,-6.8649],[107.8872,-6.867],[107.8886,-6.8655],[107.8929,-6.8656],[107.8962,-6.8627],[107.8988,-6.8579],[107.8983,-6.856],[107.9027,-6.8544],[107.9044,-6.8555],[107.9065,-6.8532],[107.9075,-6.8573],[107.9112,-6.8625],[107.9117,-6.8669],[107.9026,-6.8748],[107.9016,-6.8726],[107.9003,-6.8738],[107.8979,-6.8723],[107.8958,-6.8731],[107.8949,-6.8717],[107.8964,-6.8706],[107.8944,-6.871],[107.896,-6.8689],[107.8922,-6.8713],[107.8891,-6.8704],[107.8888,-6.8723],[107.8869,-6.8677],[107.8853,-6.8704],[107.8802,-6.8672]]]}},{"type":"Feature","properties":{"name":"RegolWetan","name_en":"RegolWetan","admin_level":"7","osm_id":""},"geometry":{"type":"Polygon","coordinates":[[[107.9255,-6.857],[107.9221,-6.8637],[107.9107,-6.8622],[107.9164,-6.8604],[107.9163,-6.8589],[107.9213,-6.8591],[107.9238,-6.8478],[107.9243,-6.8503],[107.926,-6.85],[107.9246,-6.8514],[107.9262,-6.854],[107.9246,-6.8552],[107.9255,-6.857]]]}},{"type":"Feature","properties":{"name":"Sukagalih","name_en":"Sukagalih","admin_level":"7","osm_id":""},"geometry":{"type":"Polygon","coordinates":[[[107.9391,-6.8767],[107.9321,-6.8752],[107.9287,-6.8768],[107.9309,-6.8696],[107.9296,-6.8639],[107.9341,-6.8591],[107.937,-6.8703],[107.9349,-6.8738],[107.9399,-6.8745],[107.9391,-6.8767]]]}},{"type":"Feature","properties":{"name":"Sukajaya","name_en":"Sukajaya","admin_level":"7","osm_id":""},"geometry":{"type":"Polygon","coordinates":[[[107.8932,-6.9388],[107.89,-6.9378],[107.8858,-6.939],[107.8817,-6.9342],[107.8846,-6.9282],[107.8825,-6.9262],[107.8817,-6.9201],[107.8838,-6.9074],[107.8884,-6.907],[107.893,-6.8966],[107.8934,-6.8908],[107.8982,-6.8891],[107.8996,-6.8817],[107.9047,-6.877],[107.9038,-6.8731],[107.9116,-6.8671],[107.9112,-6.8625],[107.9221,-6.8637],[107.9193,-6.8682],[107.92,-6.8694],[107.9215,-6.8686],[107.9221,-6.875],[107.9149,-6.8762],[107.9112,-6.8818],[107.9112,-6.89],[107.9091,-6.8935],[107.9109,-6.8966],[107.909,-6.8977],[107.9051,-6.9138],[107.9072,-6.9245],[107.9005,-6.9301],[107.8993,-6.9356],[107.8932,-6.9388]]]}}]}