{"type":"FeatureCollection","metadata":{"parent_osm_id":"gid_IDN_29_6_15_1","parent_name":"Tatoareng","parent_name_1":"SulawesiUtara","parent_gid":"IDN.29.6.15_1","parent_level":"6","child_level":"7","count":7,"source":"GADM 4.1","generated":"2026-05-09"},"features":[{"type":"Feature","properties":{"name":"DalakoBembanahe","name_en":"DalakoBembanahe","admin_level":"7","osm_id":""},"geometry":{"type":"Polygon","coordinates":[[[125.5136,3.1688],[125.5004,3.1687],[125.4988,3.1719],[125.5069,3.1741],[125.5091,3.1718],[125.5158,3.1706],[125.5162,3.172],[125.5143,3.1732],[125.5156,3.1741],[125.513,3.1756],[125.5111,3.1748],[125.5081,3.1773],[125.5051,3.1759],[125.5029,3.177],[125.5092,3.1807],[125.5071,3.182],[125.5032,3.1812],[125.5037,3.1855],[125.5086,3.1845],[125.509,3.1865],[125.5128,3.1889],[125.5173,3.1774],[125.5158,3.1758],[125.517,3.1702],[125.5136,3.1688]]]}},{"type":"Feature","properties":{"name":"Kahakitang","name_en":"Kahakitang","admin_level":"7","osm_id":""},"geometry":{"type":"Polygon","coordinates":[[[125.5137,3.1688],[125.517,3.1702],[125.5168,3.1764],[125.5177,3.1732],[125.52,3.172],[125.5236,3.1721],[125.5242,3.1742],[125.5259,3.1734],[125.5274,3.1751],[125.5273,3.1794],[125.5234,3.1822],[125.5248,3.1837],[125.5242,3.1866],[125.5212,3.1914],[125.5272,3.1922],[125.5281,3.1895],[125.5297,3.1902],[125.5295,3.1867],[125.5312,3.1857],[125.5323,3.1876],[125.5348,3.1856],[125.5335,3.182],[125.5371,3.1803],[125.5395,3.1809],[125.5386,3.1791],[125.5349,3.1784],[125.5377,3.1748],[125.5197,3.1654],[125.5137,3.1688]]]}},{"type":"Feature","properties":{"name":"Kalama","name_en":"Kalama","admin_level":"7","osm_id":""},"geometry":{"type":"Polygon","coordinates":[[[125.4605,3.255],[125.4607,3.2535],[125.4624,3.2553],[125.4656,3.2545],[125.4695,3.2483],[125.4724,3.2469],[125.4711,3.2448],[125.4726,3.2438],[125.4686,3.2367],[125.4646,3.2338],[125.4546,3.2315],[125.4482,3.2388],[125.4463,3.2391],[125.4486,3.2425],[125.4475,3.2497],[125.4494,3.253],[125.4526,3.2518],[125.453,3.254],[125.4567,3.2534],[125.458,3.2553],[125.4605,3.255]]]}},{"type":"Feature","properties":{"name":"Mahengetang","name_en":"Mahengetang","admin_level":"7","osm_id":""},"geometry":{"type":"Polygon","coordinates":[[[125.4574,3.1412],[125.4528,3.1395],[125.448,3.1419],[125.4473,3.1464],[125.4494,3.1489],[125.4529,3.1495],[125.4556,3.1473],[125.4574,3.1412]]]}},{"type":"Feature","properties":{"name":"Para","name_en":"Para","admin_level":"7","osm_id":""},"geometry":{"type":"Polygon","coordinates":[[[125.506,3.079],[125.5096,3.0805],[125.5106,3.0788],[125.5123,3.0797],[125.5095,3.074],[125.5104,3.0712],[125.5052,3.0649],[125.505,3.0613],[125.5078,3.0591],[125.5053,3.058],[125.5012,3.0612],[125.4995,3.0646],[125.4999,3.0693],[125.5014,3.0695],[125.5027,3.0728],[125.5044,3.07],[125.5054,3.0731],[125.5044,3.0748],[125.5016,3.074],[125.5012,3.077],[125.506,3.079]]]}},{"type":"Feature","properties":{"name":"ParaI","name_en":"ParaI","admin_level":"7","osm_id":""},"geometry":{"type":"Polygon","coordinates":[[[125.506,3.079],[125.5012,3.077],[125.4988,3.0786],[125.4958,3.0773],[125.495,3.0803],[125.4974,3.0863],[125.5031,3.0937],[125.5033,3.0859],[125.5064,3.0842],[125.5095,3.0867],[125.5074,3.0833],[125.5096,3.0805],[125.506,3.079]]]}},{"type":"Feature","properties":{"name":"TalekoBatusaiki","name_en":"TalekoBatusaiki","admin_level":"7","osm_id":""},"geometry":{"type":"Polygon","coordinates":[[[125.5052,3.1679],[125.5137,3.1688],[125.5197,3.1654],[125.5321,3.1728],[125.5377,3.1748],[125.5403,3.173],[125.5387,3.1723],[125.5394,3.1689],[125.5369,3.1685],[125.5362,3.1657],[125.5347,3.166],[125.5337,3.1643],[125.5336,3.1596],[125.532,3.1603],[125.5309,3.1581],[125.5238,3.1634],[125.523,3.1623],[125.5255,3.1592],[125.5233,3.1564],[125.5209,3.1593],[125.5196,3.1576],[125.5167,3.1585],[125.516,3.1554],[125.5145,3.157],[125.5127,3.1563],[125.5128,3.1588],[125.5098,3.1583],[125.5086,3.1596],[125.5106,3.1644],[125.5047,3.1616],[125.5035,3.1644],[125.5015,3.1639],[125.5016,3.1656],[125.5052,3.1679]]]}}]}