{"type":"FeatureCollection","metadata":{"parent_osm_id":"gid_IDN_34_2_7_1","parent_name":"PulauDerawan","parent_name_1":"KalimantanTimur","parent_gid":"IDN.34.2.7_1","parent_level":"6","child_level":"7","count":5,"source":"GADM 4.1","generated":"2026-05-09"},"features":[{"type":"Feature","properties":{"name":"Kasai","name_en":"Kasai","admin_level":"7","osm_id":""},"geometry":{"type":"Polygon","coordinates":[[[117.8402,2.2162],[117.8254,2.2338],[117.8226,2.2541],[117.8308,2.273],[117.8292,2.2779],[117.8455,2.2818],[117.8692,2.2828],[117.9064,2.2892],[117.9341,2.2972],[117.9556,2.2999],[117.9665,2.2999],[117.9745,2.2964],[117.9839,2.2861],[117.9648,2.2779],[117.9502,2.262],[117.947,2.2481],[117.9462,2.2339],[117.9427,2.2283],[117.9379,2.2137],[117.9313,2.1822],[117.9201,2.1975],[117.9062,2.2098],[117.9026,2.2094],[117.8984,2.2067],[117.8956,2.1958],[117.8934,2.1947],[117.8689,2.1989],[117.8327,2.1993],[117.8402,2.2162]]]}},{"type":"Feature","properties":{"name":"Pegat","name_en":"Pegat","admin_level":"7","osm_id":""},"geometry":{"type":"Polygon","coordinates":[[[117.8238,2.0948],[117.8113,2.0896],[117.8098,2.0884],[117.8091,2.0846],[117.802,2.086],[117.8023,2.0878],[117.8057,2.0885],[117.8066,2.0894],[117.8064,2.091],[117.8046,2.0942],[117.8022,2.0942],[117.8014,2.093],[117.8007,2.0887],[117.8029,2.0941],[117.8064,2.0903],[117.8019,2.088],[117.8016,2.0855],[117.8092,2.084],[117.8077,2.0802],[117.8097,2.0834],[117.8116,2.082],[117.8135,2.0795],[117.8124,2.0754],[117.8057,2.0744],[117.8023,2.0763],[117.8005,2.0799],[117.7951,2.08],[117.7929,2.0787],[117.7919,2.0768],[117.7922,2.0735],[117.7947,2.0685],[117.7916,2.0607],[117.786,2.0585],[117.7819,2.062],[117.7835,2.0592],[117.7868,2.0579],[117.7928,2.0612],[117.7949,2.0674],[117.7948,2.0696],[117.7924,2.0749],[117.7939,2.0787],[117.7994,2.0795],[117.8028,2.0749],[117.8081,2.0735],[117.813,2.0751],[117.8143,2.0801],[117.8189,2.0803],[117.8227,2.0784],[117.8231,2.0716],[117.8192,2.0646],[117.8129,2.0589],[117.8051,2.057],[117.8056,2.0486],[117.8015,2.0419],[117.7973,2.0411],[117.7881,2.0359],[117.7871,2.0467],[117.7843,2.0512],[117.7804,2.0525],[117.7741,2.048],[117.7708,2.0554],[117.7689,2.0559],[117.7664,2.0507],[117.7645,2.0498],[117.761,2.0543],[117.7568,2.0544],[117.7521,2.0581],[117.752,2.0635],[117.7545,2.0654],[117.7577,2.0726],[117.7627,2.0713],[117.7665,2.0658],[117.7688,2.0651],[117.7738,2.0692],[117.775,2.0727],[117.7795,2.0724],[117.7801,2.0799],[117.7783,2.0832],[117.7785,2.092],[117.7762,2.0967],[117.7844,2.0963],[117.7882,2.0978],[117.7905,2.0994],[117.7956,2.1097],[117.8123,2.1103],[117.8258,2.107],[117.8309,2.0977],[117.8238,2.0948]]]}},{"type":"Feature","properties":{"name":"PulauDerawan","name_en":"PulauDerawan","admin_level":"7","osm_id":""},"geometry":{"type":"Polygon","coordinates":[[[118.3279,2.1296],[118.3233,2.1347],[118.3233,2.1368],[118.3291,2.1394],[118.3316,2.138],[118.3324,2.1302],[118.3299,2.1288],[118.3279,2.1296]]]}},{"type":"Feature","properties":{"name":"TanjungBatu","name_en":"TanjungBatu","admin_level":"7","osm_id":""},"geometry":{"type":"Polygon","coordinates":[[[117.8195,2.3062],[117.8065,2.326],[117.8116,2.3264],[117.8149,2.3307],[117.8215,2.3407],[117.8214,2.3451],[117.8244,2.3482],[117.8223,2.3519],[117.84,2.3742],[117.8628,2.3923],[117.8928,2.3984],[117.9067,2.3979],[117.9197,2.3929],[117.9327,2.3841],[117.9356,2.3902],[117.933,2.3978],[117.9346,2.4036],[117.9558,2.4156],[117.9587,2.4269],[117.9646,2.4273],[117.9708,2.4246],[117.9793,2.4265],[117.988,2.4341],[117.9993,2.4318],[118.0003,2.4213],[117.9939,2.4207],[117.9919,2.4187],[117.9956,2.4192],[117.9962,2.4142],[118.0081,2.4039],[118.0199,2.3885],[118.0184,2.385],[118.013,2.3808],[118.0155,2.3803],[118.0155,2.3772],[118.0115,2.3776],[118.0135,2.3744],[118.0176,2.3722],[118.0169,2.3711],[118.0095,2.3703],[118.003,2.3754],[118.001,2.3757],[117.9977,2.375],[117.9948,2.3706],[117.9908,2.3723],[117.9857,2.3713],[117.9861,2.3734],[117.9844,2.3747],[117.9851,2.3711],[117.9913,2.3717],[117.9956,2.3699],[117.999,2.3748],[118.0025,2.3748],[118.0086,2.37],[118.0166,2.3693],[118.0132,2.364],[118.0079,2.3645],[118.0009,2.3681],[118.0015,2.3666],[118.0085,2.3628],[118.0128,2.3628],[118.0219,2.3676],[118.023,2.3652],[118.0214,2.3609],[118.0221,2.3586],[118.0304,2.3561],[118.0349,2.3579],[118.0383,2.3623],[118.0411,2.3628],[118.038,2.3711],[118.0414,2.3755],[118.0458,2.3763],[118.0546,2.3642],[118.0662,2.3544],[118.0668,2.3507],[118.0646,2.3478],[118.0699,2.3338],[118.0718,2.3372],[118.0744,2.3366],[118.0779,2.3253],[118.0852,2.3242],[118.094,2.3077],[118.0934,2.299],[118.0889,2.297],[118.0832,2.2833],[118.0815,2.2823],[118.0843,2.2825],[118.0868,2.2879],[118.0901,2.2839],[118.0902,2.2888],[118.0926,2.2903],[118.0962,2.2889],[118.0977,2.2851],[118.0933,2.2741],[118.0858,2.2654],[118.0776,2.2602],[118.0763,2.2566],[118.0742,2.2563],[118.0779,2.2534],[118.0782,2.2495],[118.0734,2.2455],[118.0648,2.2431],[118.0634,2.2379],[118.0598,2.2361],[118.0548,2.2283],[118.0468,2.2335],[117.9863,2.2835],[117.9745,2.2964],[117.9665,2.2999],[117.9341,2.2972],[117.9064,2.2892],[117.8692,2.2828],[117.8455,2.2818],[117.8292,2.2779],[117.8195,2.3062]]]}},{"type":"Feature","properties":{"name":"TelukSemanting","name_en":"TelukSemanting","admin_level":"7","osm_id":""},"geometry":{"type":"Polygon","coordinates":[[[117.9312,2.1859],[117.9379,2.2137],[117.9427,2.2283],[117.9462,2.2339],[117.947,2.2481],[117.9502,2.262],[117.9648,2.2779],[117.9839,2.2861],[118.0468,2.2335],[118.0548,2.2283],[118.0489,2.2246],[118.0359,2.2106],[118.0189,2.196],[117.9909,2.1948],[117.9807,2.1892],[117.9629,2.1876],[117.9438,2.1802],[117.9329,2.1803],[117.9312,2.1859]]]}}]}