{"type":"FeatureCollection","metadata":{"parent_osm_id":"gid_IDN_5_7_1_1","parent_name":"Amen","parent_name_1":"Bengkulu","parent_gid":"IDN.5.7.1_1","parent_level":"6","child_level":"7","count":10,"source":"GADM 4.1","generated":"2026-05-09"},"features":[{"type":"Feature","properties":{"name":"Amen","name_en":"Amen","admin_level":"7","osm_id":""},"geometry":{"type":"Polygon","coordinates":[[[102.2129,-3.1201],[102.2144,-3.1217],[102.2041,-3.1289],[102.2012,-3.124],[102.201,-3.1184],[102.2044,-3.1182],[102.2066,-3.1213],[102.2129,-3.1201]]]}},{"type":"Feature","properties":{"name":"Garut","name_en":"Garut","admin_level":"7","osm_id":""},"geometry":{"type":"Polygon","coordinates":[[[102.2127,-3.123],[102.2144,-3.1217],[102.2129,-3.1201],[102.2201,-3.115],[102.2346,-3.1214],[102.2308,-3.1288],[102.2249,-3.1339],[102.2192,-3.1282],[102.2168,-3.1284],[102.2127,-3.123]]]}},{"type":"Feature","properties":{"name":"NangaiTayauSatu","name_en":"NangaiTayauSatu","admin_level":"7","osm_id":""},"geometry":{"type":"Polygon","coordinates":[[[102.203,-3.1564],[102.2213,-3.1408],[102.2257,-3.1359],[102.2291,-3.141],[102.2211,-3.1508],[102.209,-3.157],[102.2056,-3.1604],[102.203,-3.1564]]]}},{"type":"Feature","properties":{"name":"NangauTayau","name_en":"NangauTayau","admin_level":"7","osm_id":""},"geometry":{"type":"Polygon","coordinates":[[[102.221,-3.1307],[102.2257,-3.1359],[102.203,-3.1564],[102.1997,-3.1536],[102.221,-3.1307]]]}},{"type":"Feature","properties":{"name":"PyangMbik","name_en":"PyangMbik","admin_level":"7","osm_id":""},"geometry":{"type":"Polygon","coordinates":[[[102.2168,-3.1284],[102.2183,-3.1276],[102.221,-3.1307],[102.2111,-3.1411],[102.2077,-3.1379],[102.2168,-3.1284]]]}},{"type":"Feature","properties":{"name":"SelebarJaya","name_en":"SelebarJaya","admin_level":"7","osm_id":""},"geometry":{"type":"Polygon","coordinates":[[[102.2201,-3.115],[102.2171,-3.1167],[102.2134,-3.1112],[102.2021,-3.1065],[102.203,-3.1051],[102.1991,-3.098],[102.204,-3.0961],[102.2073,-3.1011],[102.2178,-3.1093],[102.2201,-3.115]]]}},{"type":"Feature","properties":{"name":"SukauMergo","name_en":"SukauMergo","admin_level":"7","osm_id":""},"geometry":{"type":"Polygon","coordinates":[[[102.2041,-3.1289],[102.2127,-3.123],[102.2168,-3.1284],[102.2108,-3.1353],[102.2041,-3.1289]]]}},{"type":"Feature","properties":{"name":"SukauRajo","name_en":"SukauRajo","admin_level":"7","osm_id":""},"geometry":{"type":"Polygon","coordinates":[[[102.2129,-3.1201],[102.2082,-3.1157],[102.2069,-3.1167],[102.2035,-3.1123],[102.199,-3.112],[102.2015,-3.1091],[102.2015,-3.1065],[102.2134,-3.1112],[102.2171,-3.1167],[102.2129,-3.1201]]]}},{"type":"Feature","properties":{"name":"SungaiGerong","name_en":"SungaiGerong","admin_level":"7","osm_id":""},"geometry":{"type":"Polygon","coordinates":[[[102.2116,-3.1196],[102.2066,-3.1213],[102.2044,-3.1182],[102.2052,-3.1155],[102.2069,-3.1167],[102.2082,-3.1157],[102.2116,-3.1196]]]}},{"type":"Feature","properties":{"name":"TalangBunut","name_en":"TalangBunut","admin_level":"7","osm_id":""},"geometry":{"type":"Polygon","coordinates":[[[102.2178,-3.1093],[102.2073,-3.1011],[102.204,-3.0961],[102.2089,-3.0932],[102.2118,-3.0956],[102.2163,-3.0938],[102.2147,-3.1017],[102.2177,-3.1053],[102.2178,-3.1093]]]}}]}