{"type":"FeatureCollection","metadata":{"parent_osm_id":"gid_IDN_8_2_1_1","parent_name":"BathinIiBabeko","parent_name_1":"Jambi","parent_gid":"IDN.8.2.1_1","parent_level":"6","child_level":"7","count":5,"source":"GADM 4.1","generated":"2026-05-08"},"features":[{"type":"Feature","properties":{"name":"Babeko","name_en":"Babeko","admin_level":"7","osm_id":""},"geometry":{"type":"Polygon","coordinates":[[[102.2156,-1.5051],[102.2148,-1.5151],[102.2174,-1.5237],[102.2217,-1.5297],[102.2146,-1.5402],[102.2132,-1.5476],[102.2037,-1.5529],[102.2016,-1.5516],[102.2005,-1.5437],[102.1955,-1.5423],[102.1904,-1.5378],[102.1882,-1.5314],[102.1825,-1.536],[102.1766,-1.5369],[102.1736,-1.5399],[102.1646,-1.5418],[102.1629,-1.5397],[102.1618,-1.5318],[102.1682,-1.5255],[102.1801,-1.5087],[102.1854,-1.4893],[102.2156,-1.5051]]]}},{"type":"Feature","properties":{"name":"Sepunggur","name_en":"Sepunggur","admin_level":"7","osm_id":""},"geometry":{"type":"Polygon","coordinates":[[[102.2037,-1.5529],[102.2132,-1.5476],[102.2146,-1.5402],[102.2217,-1.5297],[102.2174,-1.5237],[102.2148,-1.5151],[102.2156,-1.5051],[102.2239,-1.5089],[102.2482,-1.5136],[102.2515,-1.4784],[102.2553,-1.4784],[102.2586,-1.4737],[102.2701,-1.4713],[102.2764,-1.4683],[102.2781,-1.4658],[102.2824,-1.4657],[102.2962,-1.4577],[102.3001,-1.4624],[102.3052,-1.4627],[102.3048,-1.465],[102.3085,-1.4682],[102.3059,-1.469],[102.3043,-1.4732],[102.3056,-1.4795],[102.3088,-1.4802],[102.3078,-1.4828],[102.3148,-1.4914],[102.3137,-1.4958],[102.3154,-1.496],[102.3164,-1.4983],[102.3218,-1.4982],[102.3233,-1.5052],[102.3169,-1.5303],[102.3117,-1.5414],[102.3099,-1.5523],[102.272,-1.5538],[102.2679,-1.5518],[102.2657,-1.5572],[102.2585,-1.5506],[102.2612,-1.5611],[102.2599,-1.5624],[102.2473,-1.56],[102.2421,-1.567],[102.2226,-1.5806],[102.2192,-1.582],[102.204,-1.5825],[102.2037,-1.5529]]]}},{"type":"Feature","properties":{"name":"SimpangBabeko","name_en":"SimpangBabeko","admin_level":"7","osm_id":""},"geometry":{"type":"Polygon","coordinates":[[[102.2156,-1.5051],[102.1854,-1.4893],[102.1931,-1.4569],[102.2041,-1.4712],[102.2119,-1.4746],[102.2515,-1.4784],[102.2482,-1.5136],[102.2239,-1.5089],[102.2156,-1.5051]]]}},{"type":"Feature","properties":{"name":"SukaMakmur","name_en":"SukaMakmur","admin_level":"7","osm_id":""},"geometry":{"type":"Polygon","coordinates":[[[102.1931,-1.4569],[102.1887,-1.4737],[102.1763,-1.4732],[102.1755,-1.4717],[102.1712,-1.4708],[102.1699,-1.4729],[102.1632,-1.473],[102.1607,-1.4752],[102.1611,-1.477],[102.1588,-1.477],[102.1562,-1.4795],[102.1522,-1.4794],[102.1505,-1.4774],[102.1503,-1.4747],[102.1553,-1.4659],[102.1548,-1.4592],[102.1686,-1.4536],[102.1872,-1.4503],[102.1931,-1.4569]]]}},{"type":"Feature","properties":{"name":"TanjungMenanti","name_en":"TanjungMenanti","admin_level":"7","osm_id":""},"geometry":{"type":"Polygon","coordinates":[[[102.1854,-1.4893],[102.1801,-1.5087],[102.1682,-1.5255],[102.1618,-1.5318],[102.1567,-1.5224],[102.15,-1.5198],[102.1466,-1.5203],[102.1505,-1.4774],[102.1522,-1.4794],[102.1562,-1.4795],[102.1588,-1.477],[102.1611,-1.477],[102.1607,-1.4752],[102.1632,-1.473],[102.1699,-1.4729],[102.1712,-1.4708],[102.1755,-1.4717],[102.1763,-1.4732],[102.1887,-1.4737],[102.1854,-1.4893]]]}}]}