{"type":"FeatureCollection","metadata":{"parent_osm_id":"gid_IDN_18_5_15_1","parent_name":"TobeloTengah","parent_name_1":"MalukuUtara","parent_gid":"IDN.18.5.15_1","parent_level":"6","child_level":"7","count":10,"source":"GADM 4.1","generated":"2026-05-07"},"features":[{"type":"Feature","properties":{"name":"Kalipitu","name_en":"Kalipitu","admin_level":"7","osm_id":""},"geometry":{"type":"Polygon","coordinates":[[[127.9942,1.6948],[127.9942,1.6905],[127.9814,1.6904],[127.9814,1.7055],[127.995,1.7095],[127.9942,1.6948]]]}},{"type":"Feature","properties":{"name":"Kaliupa","name_en":"Kaliupa","admin_level":"7","osm_id":""},"geometry":{"type":"Polygon","coordinates":[[[127.8709,1.6376],[127.8724,1.6473],[127.9227,1.6653],[127.9938,1.6769],[128.0016,1.6753],[128.0038,1.6732],[128.0009,1.6693],[127.9968,1.6708],[127.9939,1.6741],[127.9804,1.6718],[127.9015,1.6488],[127.8709,1.6376]]]}},{"type":"Feature","properties":{"name":"LinaIno","name_en":"LinaIno","admin_level":"7","osm_id":""},"geometry":{"type":"Polygon","coordinates":[[[127.9942,1.6905],[127.9942,1.6948],[128.0081,1.6966],[128.0219,1.6963],[128.021,1.6881],[127.9942,1.6905]]]}},{"type":"Feature","properties":{"name":"Mahia","name_en":"Mahia","admin_level":"7","osm_id":""},"geometry":{"type":"Polygon","coordinates":[[[128.0193,1.709],[128.0219,1.7039],[128.0088,1.7014],[128.0077,1.7065],[128.0193,1.709]]]}},{"type":"Feature","properties":{"name":"Pitu","name_en":"Pitu","admin_level":"7","osm_id":""},"geometry":{"type":"Polygon","coordinates":[[[127.8684,1.656],[127.865,1.6606],[127.8722,1.6654],[127.8749,1.6697],[127.9044,1.6745],[127.9092,1.6798],[127.9219,1.6811],[127.9272,1.6842],[127.9678,1.6965],[127.9813,1.7054],[127.9814,1.6904],[128.021,1.6881],[128.0085,1.681],[128.007,1.6828],[127.994,1.6841],[127.9214,1.6726],[127.8684,1.656]]]}},{"type":"Feature","properties":{"name":"Pulau","name_en":"Pulau","admin_level":"7","osm_id":""},"geometry":{"type":"Polygon","coordinates":[[[128.0507,1.6623],[128.0499,1.6563],[128.0436,1.6575],[128.0467,1.6589],[128.0469,1.6617],[128.0494,1.6625],[128.0476,1.6649],[128.0488,1.667],[128.0507,1.6623]]]}},{"type":"Feature","properties":{"name":"TanjungNiara","name_en":"TanjungNiara","admin_level":"7","osm_id":""},"geometry":{"type":"Polygon","coordinates":[[[128.0219,1.6963],[128.0067,1.6965],[128.0067,1.701],[128.0219,1.7039],[128.0219,1.6963]]]}},{"type":"Feature","properties":{"name":"Upa","name_en":"Upa","admin_level":"7","osm_id":""},"geometry":{"type":"Polygon","coordinates":[[[127.8724,1.6473],[127.8721,1.6513],[127.8684,1.656],[127.9214,1.6726],[127.994,1.6841],[128.007,1.6828],[128.0086,1.6808],[128.0038,1.6732],[128.0016,1.6753],[127.9938,1.6769],[127.9227,1.6653],[127.8724,1.6473]]]}},{"type":"Feature","properties":{"name":"WKO","name_en":"WKO","admin_level":"7","osm_id":""},"geometry":{"type":"Polygon","coordinates":[[[127.9942,1.6948],[127.995,1.7097],[128.0071,1.7115],[128.0088,1.7014],[128.0067,1.701],[128.0067,1.6965],[127.9942,1.6948]]]}},{"type":"Feature","properties":{"name":"Wosia","name_en":"Wosia","admin_level":"7","osm_id":""},"geometry":{"type":"Polygon","coordinates":[[[128.0193,1.709],[128.0081,1.7065],[128.0071,1.7115],[128.0111,1.7122],[128.0104,1.7156],[128.0164,1.7162],[128.0193,1.709]]]}}]}