{"type":"FeatureCollection","metadata":{"parent_osm_id":"gid_IDN_26_14_8_1","parent_name":"WaraUtara","parent_name_1":"SulawesiSelatan","parent_gid":"IDN.26.14.8_1","parent_level":"6","child_level":"7","count":6,"source":"GADM 4.1","generated":"2026-05-08"},"features":[{"type":"Feature","properties":{"name":"Batupasi","name_en":"Batupasi","admin_level":"7","osm_id":""},"geometry":{"type":"Polygon","coordinates":[[[120.1908,-2.9956],[120.1928,-2.992],[120.1964,-2.9895],[120.1967,-2.9938],[120.1908,-2.9956]]]}},{"type":"Feature","properties":{"name":"Luminda","name_en":"Luminda","admin_level":"7","osm_id":""},"geometry":{"type":"Polygon","coordinates":[[[120.1907,-2.9956],[120.1877,-2.9961],[120.1879,-2.9908],[120.1926,-2.9924],[120.1907,-2.9956]]]}},{"type":"Feature","properties":{"name":"Pattene","name_en":"Pattene","admin_level":"7","osm_id":""},"geometry":{"type":"Polygon","coordinates":[[[120.1773,-2.9959],[120.176,-2.9939],[120.1798,-2.9914],[120.1878,-2.9929],[120.1877,-2.9961],[120.1817,-2.9985],[120.1773,-2.9959]]]}},{"type":"Feature","properties":{"name":"Penggoli","name_en":"Penggoli","admin_level":"7","osm_id":""},"geometry":{"type":"Polygon","coordinates":[[[120.2011,-2.9871],[120.1974,-2.988],[120.1936,-2.9916],[120.1969,-2.9816],[120.2011,-2.9871]]]}},{"type":"Feature","properties":{"name":"Sabbamparu","name_en":"Sabbamparu","admin_level":"7","osm_id":""},"geometry":{"type":"Polygon","coordinates":[[[120.1936,-2.9916],[120.1918,-2.9923],[120.1879,-2.9908],[120.1905,-2.9871],[120.1906,-2.9799],[120.1942,-2.9817],[120.1979,-2.9815],[120.1962,-2.9825],[120.1936,-2.9916]]]}},{"type":"Feature","properties":{"name":"Salobulo","name_en":"Salobulo","admin_level":"7","osm_id":""},"geometry":{"type":"Polygon","coordinates":[[[120.1692,-2.9761],[120.181,-2.9762],[120.183,-2.9786],[120.1872,-2.9768],[120.1899,-2.9781],[120.1905,-2.9871],[120.1887,-2.9883],[120.1878,-2.9929],[120.1798,-2.9914],[120.1763,-2.9938],[120.1692,-2.9761]]]}}]}