{"type":"FeatureCollection","metadata":{"parent_osm_id":"gid_IDN_4_5_18_1","parent_name":"Koroncong","parent_name_1":"Banten","parent_gid":"IDN.4.5.18_1","parent_level":"6","child_level":"7","count":12,"source":"GADM 4.1","generated":"2026-05-09"},"features":[{"type":"Feature","properties":{"name":"Awilega","name_en":"Awilega","admin_level":"7","osm_id":""},"geometry":{"type":"Polygon","coordinates":[[[106.1611,-6.2655],[106.1635,-6.2611],[106.169,-6.2613],[106.17,-6.2593],[106.1721,-6.2595],[106.1734,-6.2566],[106.1725,-6.254],[106.1751,-6.2531],[106.1748,-6.2725],[106.1732,-6.2733],[106.1705,-6.2719],[106.1723,-6.2677],[106.168,-6.2623],[106.1644,-6.2621],[106.1645,-6.2649],[106.1611,-6.2655]]]}},{"type":"Feature","properties":{"name":"Bangkonol","name_en":"Bangkonol","admin_level":"7","osm_id":""},"geometry":{"type":"Polygon","coordinates":[[[106.1369,-6.3255],[106.1309,-6.3274],[106.1288,-6.325],[106.1274,-6.3125],[106.1337,-6.3122],[106.1436,-6.3157],[106.1439,-6.3182],[106.1378,-6.3199],[106.1392,-6.3214],[106.1372,-6.3237],[106.1351,-6.3231],[106.1369,-6.3255]]]}},{"type":"Feature","properties":{"name":"Gerendong","name_en":"Gerendong","admin_level":"7","osm_id":""},"geometry":{"type":"Polygon","coordinates":[[[106.1544,-6.2719],[106.1567,-6.2695],[106.1585,-6.2709],[106.1587,-6.2666],[106.1643,-6.265],[106.1639,-6.2624],[106.1668,-6.2619],[106.1713,-6.2658],[106.1723,-6.268],[106.1705,-6.2719],[106.1732,-6.2733],[106.1716,-6.2775],[106.1667,-6.2748],[106.1661,-6.272],[106.1597,-6.2745],[106.1544,-6.2719]]]}},{"type":"Feature","properties":{"name":"Karangsetra","name_en":"Karangsetra","admin_level":"7","osm_id":""},"geometry":{"type":"Polygon","coordinates":[[[106.1498,-6.286],[106.1469,-6.2873],[106.1437,-6.2877],[106.138,-6.2864],[106.136,-6.2835],[106.1353,-6.2767],[106.1442,-6.2782],[106.1462,-6.2807],[106.1459,-6.2843],[106.1498,-6.286]]]}},{"type":"Feature","properties":{"name":"Koroncong","name_en":"Koroncong","admin_level":"7","osm_id":""},"geometry":{"type":"Polygon","coordinates":[[[106.1529,-6.2746],[106.1544,-6.2719],[106.1597,-6.2745],[106.1661,-6.272],[106.1667,-6.2748],[106.1707,-6.2772],[106.1705,-6.2838],[106.163,-6.2826],[106.1587,-6.2787],[106.1535,-6.2773],[106.1529,-6.2746]]]}},{"type":"Feature","properties":{"name":"Pakuluran","name_en":"Pakuluran","admin_level":"7","osm_id":""},"geometry":{"type":"Polygon","coordinates":[[[106.1353,-6.2767],[106.1359,-6.2725],[106.1402,-6.2733],[106.1412,-6.2681],[106.1442,-6.2686],[106.1496,-6.2752],[106.1529,-6.2746],[106.1536,-6.2778],[106.1514,-6.2803],[106.1526,-6.2833],[106.1508,-6.2832],[106.1491,-6.2861],[106.1459,-6.2843],[106.1462,-6.2807],[106.1442,-6.2782],[106.1353,-6.2767]]]}},{"type":"Feature","properties":{"name":"Paniis","name_en":"Paniis","admin_level":"7","osm_id":""},"geometry":{"type":"Polygon","coordinates":[[[106.1708,-6.29],[106.1676,-6.2929],[106.1651,-6.293],[106.1639,-6.2955],[106.1613,-6.2947],[106.1594,-6.2968],[106.1528,-6.2964],[106.1508,-6.2922],[106.1511,-6.2906],[106.1527,-6.2908],[106.1517,-6.2888],[106.1572,-6.2875],[106.1522,-6.2828],[106.1519,-6.2793],[106.1535,-6.2773],[106.1575,-6.2781],[106.163,-6.2826],[106.1698,-6.2836],[106.1693,-6.2889],[106.1708,-6.29]]]}},{"type":"Feature","properties":{"name":"Pasirjaksa","name_en":"Pasirjaksa","admin_level":"7","osm_id":""},"geometry":{"type":"Polygon","coordinates":[[[106.1516,-6.3246],[106.1491,-6.3253],[106.1482,-6.3242],[106.1403,-6.3266],[106.1349,-6.3236],[106.1388,-6.322],[106.1378,-6.3199],[106.1439,-6.3182],[106.1436,-6.3157],[106.1517,-6.3185],[106.1516,-6.3246]]]}},{"type":"Feature","properties":{"name":"Pasirkarag","name_en":"Pasirkarag","admin_level":"7","osm_id":""},"geometry":{"type":"Polygon","coordinates":[[[106.154,-6.3159],[106.1517,-6.3185],[106.144,-6.3161],[106.1464,-6.3154],[106.1471,-6.3108],[106.1504,-6.3082],[106.1524,-6.3008],[106.1549,-6.3006],[106.1544,-6.2967],[106.1574,-6.2967],[106.1563,-6.2986],[106.1591,-6.3019],[106.1566,-6.3092],[106.1581,-6.3133],[106.154,-6.3159]]]}},{"type":"Feature","properties":{"name":"Setrajaya","name_en":"Setrajaya","admin_level":"7","osm_id":""},"geometry":{"type":"Polygon","coordinates":[[[106.1314,-6.2764],[106.1353,-6.2767],[106.136,-6.2835],[106.1391,-6.2869],[106.1319,-6.2873],[106.1225,-6.2849],[106.1236,-6.2804],[106.1266,-6.2812],[106.1301,-6.2797],[106.1314,-6.2764]]]}},{"type":"Feature","properties":{"name":"Sukajaya","name_en":"Sukajaya","admin_level":"7","osm_id":""},"geometry":{"type":"Polygon","coordinates":[[[106.1635,-6.2611],[106.163,-6.2524],[106.1747,-6.2514],[106.1751,-6.2531],[106.1725,-6.254],[106.1734,-6.2566],[106.1721,-6.2595],[106.17,-6.2593],[106.169,-6.2613],[106.1635,-6.2611]]]}},{"type":"Feature","properties":{"name":"Tegalongok","name_en":"Tegalongok","admin_level":"7","osm_id":""},"geometry":{"type":"Polygon","coordinates":[[[106.1256,-6.3053],[106.1322,-6.3082],[106.1386,-6.3081],[106.1402,-6.3057],[106.1459,-6.3035],[106.1494,-6.3046],[106.1483,-6.2992],[106.1527,-6.3007],[106.1458,-6.316],[106.1337,-6.3122],[106.1274,-6.3125],[106.1256,-6.3053]]]}}]}