{"type":"FeatureCollection","metadata":{"parent_osm_id":"gid_IDN_30_13_8_1","parent_name":"RaoSelatan","parent_name_1":"SumateraBarat","parent_gid":"IDN.30.13.8_1","parent_level":"6","child_level":"7","count":3,"source":"GADM 4.1","generated":"2026-05-08"},"features":[{"type":"Feature","properties":{"name":"LansekKadok","name_en":"LansekKadok","admin_level":"7","osm_id":""},"geometry":{"type":"Polygon","coordinates":[[[99.9866,0.4673],[99.9767,0.4648],[99.9646,0.4756],[99.9629,0.4756],[99.9662,0.4798],[99.9678,0.4852],[99.9721,0.4876],[99.9734,0.4933],[99.979,0.4949],[99.9844,0.4989],[99.9852,0.5013],[100.0151,0.5037],[100.0303,0.515],[100.0354,0.5134],[100.0405,0.5158],[100.0439,0.5234],[100.0454,0.5339],[100.0483,0.5249],[100.0523,0.5229],[100.0642,0.5212],[100.0714,0.5219],[100.0721,0.5359],[100.0778,0.5359],[100.0787,0.5392],[100.0824,0.5382],[100.0969,0.5469],[100.105,0.5466],[100.1007,0.5449],[100.1005,0.5416],[100.1132,0.5321],[100.1159,0.5272],[100.1146,0.525],[100.0962,0.516],[100.096,0.509],[100.098,0.5082],[100.0939,0.5029],[100.088,0.5046],[100.084,0.5039],[100.0814,0.5016],[100.0787,0.5046],[100.0599,0.5046],[100.0559,0.5009],[100.0559,0.4982],[100.0523,0.4963],[100.0284,0.4963],[100.0261,0.4979],[100.0139,0.4963],[100.0082,0.4853],[100.0033,0.4799],[100.0023,0.4753],[100.0043,0.4669],[100.0025,0.4642],[99.9965,0.4686],[99.9866,0.4673]]]}},{"type":"Feature","properties":{"name":"LubuakLayang","name_en":"LubuakLayang","admin_level":"7","osm_id":""},"geometry":{"type":"Polygon","coordinates":[[[100.1228,0.5533],[100.1102,0.5514],[100.1091,0.5485],[100.105,0.5466],[100.0969,0.5469],[100.0824,0.5382],[100.0787,0.5392],[100.0778,0.5359],[100.0721,0.5359],[100.0714,0.5219],[100.0602,0.5216],[100.0483,0.5249],[100.0454,0.5339],[100.056,0.543],[100.0501,0.5483],[100.0429,0.551],[100.0389,0.5553],[100.0356,0.5563],[100.0297,0.5634],[100.0321,0.5696],[100.0354,0.5732],[100.04,0.5718],[100.0554,0.5726],[100.0565,0.576],[100.0638,0.5814],[100.0658,0.5861],[100.0771,0.5951],[100.0827,0.5936],[100.086,0.5948],[100.0872,0.5978],[100.1032,0.6042],[100.1055,0.6023],[100.11,0.6023],[100.1148,0.5978],[100.1247,0.5965],[100.1264,0.5729],[100.1229,0.5681],[100.1207,0.5576],[100.123,0.5557],[100.1228,0.5533]]]}},{"type":"Feature","properties":{"name":"TanjungBetung","name_en":"TanjungBetung","admin_level":"7","osm_id":""},"geometry":{"type":"Polygon","coordinates":[[[100.098,0.5082],[100.103,0.5058],[100.1078,0.4985],[100.1083,0.4943],[100.113,0.4906],[100.116,0.4835],[100.1102,0.4796],[100.1022,0.4772],[100.0961,0.4781],[100.0973,0.4752],[100.088,0.4738],[100.0836,0.4751],[100.0748,0.471],[100.0548,0.471],[100.0468,0.469],[100.045,0.4663],[100.0402,0.4639],[100.0269,0.464],[100.0253,0.4615],[100.0225,0.4628],[100.016,0.4614],[100.0156,0.4596],[100.012,0.459],[100.0101,0.4569],[100.0025,0.4642],[100.0043,0.4669],[100.0023,0.4753],[100.0033,0.4799],[100.0082,0.4853],[100.0139,0.4963],[100.0261,0.4979],[100.0284,0.4963],[100.0448,0.4963],[100.045,0.4895],[100.0515,0.4909],[100.0532,0.4968],[100.0559,0.4982],[100.0559,0.5009],[100.0599,0.5046],[100.0787,0.5046],[100.0814,0.5016],[100.084,0.5039],[100.088,0.5046],[100.0939,0.5029],[100.098,0.5082]]]}}]}