{"type":"FeatureCollection","metadata":{"parent_osm_id":"gid_IDN_30_15_2_1","parent_name":"BatangKapas","parent_name_1":"SumateraBarat","parent_gid":"IDN.30.15.2_1","parent_level":"6","child_level":"7","count":5,"source":"GADM 4.1","generated":"2026-05-08"},"features":[{"type":"Feature","properties":{"name":"IvKotoHilie","name_en":"IvKotoHilie","admin_level":"7","osm_id":""},"geometry":{"type":"Polygon","coordinates":[[[100.6253,-1.3677],[100.6292,-1.3781],[100.6309,-1.3985],[100.6168,-1.4256],[100.6155,-1.4312],[100.6162,-1.4368],[100.6205,-1.4455],[100.6242,-1.4479],[100.6013,-1.4627],[100.5987,-1.4701],[100.6022,-1.4737],[100.5974,-1.4788],[100.5986,-1.4826],[100.5979,-1.4889],[100.586,-1.4703],[100.5896,-1.4617],[100.595,-1.4543],[100.598,-1.4535],[100.5984,-1.4511],[100.5962,-1.4504],[100.5977,-1.4423],[100.5929,-1.442],[100.5913,-1.4403],[100.5912,-1.4324],[100.5941,-1.4237],[100.5929,-1.4187],[100.5726,-1.3949],[100.5838,-1.3943],[100.5892,-1.3967],[100.592,-1.3959],[100.5919,-1.392],[100.5873,-1.3894],[100.5863,-1.3819],[100.5836,-1.3805],[100.5798,-1.3816],[100.5869,-1.375],[100.5951,-1.3613],[100.5983,-1.36],[100.6064,-1.3677],[100.6164,-1.3692],[100.6253,-1.3677]]]}},{"type":"Feature","properties":{"name":"IvKotoMudiek","name_en":"IvKotoMudiek","admin_level":"7","osm_id":""},"geometry":{"type":"Polygon","coordinates":[[[100.6242,-1.4479],[100.6205,-1.4455],[100.6162,-1.4368],[100.6155,-1.4312],[100.6168,-1.4256],[100.6309,-1.3985],[100.6292,-1.3781],[100.6253,-1.3676],[100.6364,-1.3725],[100.6396,-1.3711],[100.6454,-1.372],[100.6632,-1.3668],[100.6711,-1.352],[100.6713,-1.3476],[100.6805,-1.3322],[100.6794,-1.328],[100.688,-1.3056],[100.7159,-1.2761],[100.7341,-1.2665],[100.7523,-1.2601],[100.793,-1.2391],[100.8066,-1.2352],[100.8085,-1.2403],[100.8086,-1.2477],[100.8012,-1.2561],[100.8017,-1.2654],[100.7982,-1.2741],[100.7822,-1.2831],[100.7561,-1.3016],[100.7459,-1.3108],[100.7353,-1.323],[100.7299,-1.3317],[100.7035,-1.3864],[100.7007,-1.3992],[100.6999,-1.4232],[100.6894,-1.4504],[100.6898,-1.4561],[100.6867,-1.4614],[100.6752,-1.472],[100.6514,-1.4729],[100.6404,-1.4775],[100.6286,-1.4795],[100.6371,-1.4543],[100.6321,-1.457],[100.6297,-1.4567],[100.6284,-1.4556],[100.63,-1.4532],[100.626,-1.4527],[100.6242,-1.4479]]]}},{"type":"Feature","properties":{"name":"KotoNanDuoIvKotoHili","name_en":"KotoNanDuoIvKotoHili","admin_level":"7","osm_id":""},"geometry":{"type":"Polygon","coordinates":[[[100.5726,-1.3949],[100.5929,-1.4187],[100.5941,-1.4237],[100.5912,-1.4324],[100.5913,-1.4403],[100.5929,-1.442],[100.5977,-1.4423],[100.5962,-1.4501],[100.5984,-1.4511],[100.598,-1.4535],[100.595,-1.4543],[100.5906,-1.4602],[100.586,-1.4703],[100.5772,-1.4612],[100.575,-1.4605],[100.5714,-1.4534],[100.5614,-1.441],[100.5637,-1.4381],[100.5677,-1.4394],[100.5698,-1.4383],[100.5784,-1.4264],[100.5839,-1.4226],[100.5815,-1.4157],[100.5736,-1.4174],[100.5689,-1.4118],[100.562,-1.4138],[100.5596,-1.4115],[100.5581,-1.4069],[100.5614,-1.4045],[100.5642,-1.3982],[100.5726,-1.3949]]]}},{"type":"Feature","properties":{"name":"KotoNanTigoIvKotoHil","name_en":"KotoNanTigoIvKotoHil","admin_level":"7","osm_id":""},"geometry":{"type":"Polygon","coordinates":[[[100.5979,-1.4889],[100.5986,-1.4826],[100.5974,-1.4788],[100.6022,-1.4737],[100.5987,-1.4701],[100.6016,-1.4622],[100.6242,-1.4479],[100.626,-1.4527],[100.63,-1.4532],[100.6284,-1.4556],[100.6297,-1.4567],[100.6321,-1.457],[100.6371,-1.4543],[100.6286,-1.4795],[100.6168,-1.4878],[100.614,-1.4941],[100.6126,-1.4948],[100.6029,-1.4899],[100.5976,-1.4924],[100.5979,-1.4889]]]}},{"type":"Feature","properties":{"name":"Taluk","name_en":"Taluk","admin_level":"7","osm_id":""},"geometry":{"type":"Polygon","coordinates":[[[100.6286,-1.4795],[100.6404,-1.4775],[100.6514,-1.4729],[100.6752,-1.472],[100.6751,-1.4824],[100.6708,-1.4943],[100.6716,-1.5045],[100.6634,-1.5108],[100.6629,-1.5149],[100.6563,-1.5181],[100.6521,-1.5229],[100.6444,-1.517],[100.635,-1.5165],[100.6205,-1.5186],[100.6204,-1.5117],[100.6236,-1.51],[100.6236,-1.5023],[100.6181,-1.495],[100.614,-1.4934],[100.6185,-1.4862],[100.6221,-1.4852],[100.6286,-1.4795]]]}}]}