{"type":"FeatureCollection","metadata":{"parent_osm_id":"gid_IDN_28_10_12_1","parent_name":"Meluhu","parent_name_1":"SulawesiTenggara","parent_gid":"IDN.28.10.12_1","parent_level":"6","child_level":"7","count":8,"source":"GADM 4.1","generated":"2026-05-09"},"features":[{"type":"Feature","properties":{"name":"Ahuhu","name_en":"Ahuhu","admin_level":"7","osm_id":""},"geometry":{"type":"Polygon","coordinates":[[[122.1978,-3.8385],[122.1856,-3.827],[122.1802,-3.8181],[122.186,-3.8156],[122.1902,-3.8223],[122.202,-3.8348],[122.1978,-3.8385]]]}},{"type":"Feature","properties":{"name":"Ahuloa","name_en":"Ahuloa","admin_level":"7","osm_id":""},"geometry":{"type":"Polygon","coordinates":[[[122.1802,-3.8181],[122.1856,-3.827],[122.1979,-3.8385],[122.1834,-3.8516],[122.1671,-3.8375],[122.1641,-3.8243],[122.1802,-3.8181]]]}},{"type":"Feature","properties":{"name":"Lamelay","name_en":"Lamelay","admin_level":"7","osm_id":""},"geometry":{"type":"Polygon","coordinates":[[[122.1616,-3.7538],[122.1658,-3.7555],[122.1783,-3.7682],[122.1758,-3.7985],[122.1777,-3.8126],[122.1805,-3.818],[122.1641,-3.8243],[122.1511,-3.8099],[122.1616,-3.7538]]]}},{"type":"Feature","properties":{"name":"Larowiu","name_en":"Larowiu","admin_level":"7","osm_id":""},"geometry":{"type":"Polygon","coordinates":[[[122.2925,-3.8223],[122.3037,-3.8295],[122.2145,-3.8344],[122.1903,-3.8137],[122.1967,-3.811],[122.2806,-3.8099],[122.2843,-3.8168],[122.2925,-3.8223]]]}},{"type":"Feature","properties":{"name":"Meluhu","name_en":"Meluhu","admin_level":"7","osm_id":""},"geometry":{"type":"Polygon","coordinates":[[[122.2422,-3.7537],[122.2692,-3.7694],[122.2767,-3.7774],[122.2767,-3.7898],[122.2806,-3.8099],[122.1967,-3.811],[122.1805,-3.818],[122.1777,-3.8126],[122.1758,-3.7985],[122.1783,-3.7682],[122.1813,-3.7679],[122.1875,-3.7626],[122.1898,-3.7565],[122.1965,-3.7484],[122.2031,-3.7442],[122.2125,-3.7442],[122.2338,-3.7489],[122.2422,-3.7537]]]}},{"type":"Feature","properties":{"name":"Sambasule","name_en":"Sambasule","admin_level":"7","osm_id":""},"geometry":{"type":"Polygon","coordinates":[[[122.202,-3.8348],[122.1902,-3.8223],[122.186,-3.8156],[122.1903,-3.8137],[122.2145,-3.8344],[122.202,-3.8348]]]}},{"type":"Feature","properties":{"name":"Tudameaso","name_en":"Tudameaso","admin_level":"7","osm_id":""},"geometry":{"type":"Polygon","coordinates":[[[122.2206,-3.855],[122.2185,-3.858],[122.1953,-3.8665],[122.1906,-3.8578],[122.2105,-3.8442],[122.2206,-3.855]]]}},{"type":"Feature","properties":{"name":"Woerahi","name_en":"Woerahi","admin_level":"7","osm_id":""},"geometry":{"type":"Polygon","coordinates":[[[122.3037,-3.8295],[122.3075,-3.8326],[122.2045,-3.838],[122.2105,-3.8442],[122.2028,-3.8502],[122.1906,-3.8578],[122.1834,-3.8516],[122.2021,-3.8348],[122.3037,-3.8295]]]}}]}