{"type":"FeatureCollection","metadata":{"parent_osm_id":"gid_IDN_8_5_17_1","parent_name":"TabirBarat","parent_name_1":"Jambi","parent_gid":"IDN.8.5.17_1","parent_level":"6","child_level":"7","count":14,"source":"GADM 4.1","generated":"2026-05-08"},"features":[{"type":"Feature","properties":{"name":"AirLiki","name_en":"AirLiki","admin_level":"7","osm_id":""},"geometry":{"type":"Polygon","coordinates":[[[101.7095,-1.8787],[101.7164,-1.8795],[101.7311,-1.8765],[101.7358,-1.8683],[101.758,-1.8609],[101.7679,-1.8528],[101.7947,-1.9045],[101.8127,-1.9874],[101.7952,-1.9936],[101.7845,-1.99],[101.7667,-1.9954],[101.7651,-1.9986],[101.7571,-1.9599],[101.7483,-1.9483],[101.7095,-1.8787]]]}},{"type":"Feature","properties":{"name":"AirLikiBaru","name_en":"AirLikiBaru","admin_level":"7","osm_id":""},"geometry":{"type":"Polygon","coordinates":[[[101.6313,-1.8915],[101.6385,-1.8903],[101.6412,-1.882],[101.6439,-1.8795],[101.6524,-1.8792],[101.6608,-1.8745],[101.6708,-1.874],[101.6769,-1.8759],[101.6805,-1.8816],[101.6944,-1.8766],[101.7095,-1.8785],[101.7483,-1.9483],[101.7571,-1.9599],[101.7651,-1.9986],[101.7578,-2.0133],[101.7524,-2.0186],[101.7312,-2.0345],[101.7211,-2.0253],[101.7224,-2.0089],[101.7187,-1.9978],[101.7091,-1.9875],[101.6883,-1.9775],[101.6722,-1.9732],[101.6685,-1.9708],[101.6557,-1.9549],[101.6568,-1.9454],[101.6449,-1.9275],[101.638,-1.8966],[101.6313,-1.8915]]]}},{"type":"Feature","properties":{"name":"BaruKibul","name_en":"BaruKibul","admin_level":"7","osm_id":""},"geometry":{"type":"Polygon","coordinates":[[[102.0275,-1.9074],[102.0338,-1.9069],[102.0389,-1.9023],[102.0423,-1.9014],[102.0413,-1.9929],[102.0331,-1.9914],[102.0245,-1.9935],[102.0241,-1.97],[102.0275,-1.9074]]]}},{"type":"Feature","properties":{"name":"BatangKibul","name_en":"BatangKibul","admin_level":"7","osm_id":""},"geometry":{"type":"Polygon","coordinates":[[[101.7679,-1.8528],[101.7723,-1.8491],[101.7812,-1.8357],[101.7906,-1.8316],[101.802,-1.8337],[101.8105,-1.8329],[101.8215,-1.8239],[101.8272,-1.8215],[101.8389,-1.8299],[101.8421,-1.8309],[101.8494,-1.8291],[101.8524,-1.8333],[101.8603,-1.8388],[101.8694,-1.8372],[101.8727,-1.84],[101.8757,-1.8394],[101.8852,-1.8484],[101.8871,-1.8484],[101.8899,-1.8424],[101.8936,-1.8396],[101.9007,-1.8381],[101.905,-1.8437],[101.9096,-1.8427],[101.9117,-1.8438],[101.9141,-1.8371],[101.919,-1.8362],[101.9217,-1.839],[101.9226,-1.8453],[101.925,-1.8477],[101.9292,-1.8465],[101.9319,-1.8491],[101.9361,-1.8494],[101.9446,-1.8612],[101.9471,-1.8628],[101.9502,-1.8609],[101.9525,-1.8622],[101.9563,-1.8583],[101.9592,-1.8579],[101.9673,-1.8718],[101.9727,-1.8715],[101.9784,-1.8747],[101.9801,-1.8772],[101.9788,-1.8821],[101.9852,-1.9007],[101.9905,-1.9053],[101.9602,-1.9045],[101.9275,-1.8999],[101.8771,-1.8957],[101.8349,-1.897],[101.7934,-1.9021],[101.7679,-1.8528]]]}},{"type":"Feature","properties":{"name":"MuaraKibul","name_en":"MuaraKibul","admin_level":"7","osm_id":""},"geometry":{"type":"Polygon","coordinates":[[[101.9987,-1.9092],[102.002,-1.9076],[102.0069,-1.9006],[102.0136,-1.9023],[102.017,-1.9075],[102.0195,-1.905],[102.0229,-1.9075],[102.0275,-1.9074],[102.0241,-1.97],[102.0245,-1.9935],[102.001,-1.9976],[101.9741,-1.9903],[101.9813,-1.9398],[101.9765,-1.9189],[101.9895,-1.9206],[101.999,-1.9186],[101.9987,-1.9092]]]}},{"type":"Feature","properties":{"name":"MuaroLangeh","name_en":"MuaroLangeh","admin_level":"7","osm_id":""},"geometry":{"type":"Polygon","coordinates":[[[102.0837,-1.8714],[102.0868,-1.8722],[102.1014,-1.8838],[102.1075,-1.8835],[102.115,-1.9864],[102.0989,-1.9884],[102.0967,-1.9451],[102.0882,-1.9397],[102.0837,-1.8714]]]}},{"type":"Feature","properties":{"name":"Ngaol","name_en":"Ngaol","admin_level":"7","osm_id":""},"geometry":{"type":"Polygon","coordinates":[[[101.8506,-1.9893],[101.8433,-1.9892],[101.8202,-1.9847],[101.8127,-1.9874],[101.7934,-1.9021],[101.8349,-1.897],[101.8577,-1.8963],[101.8626,-1.9196],[101.8812,-1.955],[101.8878,-1.9792],[101.8875,-1.9875],[101.8611,-1.9875],[101.8506,-1.9893]]]}},{"type":"Feature","properties":{"name":"NgaolIlir","name_en":"NgaolIlir","admin_level":"7","osm_id":""},"geometry":{"type":"Polygon","coordinates":[[[101.9023,-1.9911],[101.8875,-1.9875],[101.8878,-1.9792],[101.8812,-1.955],[101.8626,-1.9196],[101.8577,-1.8963],[101.8783,-1.8958],[101.9017,-1.959],[101.9023,-1.9911]]]}},{"type":"Feature","properties":{"name":"PulauLebar","name_en":"PulauLebar","admin_level":"7","osm_id":""},"geometry":{"type":"Polygon","coordinates":[[[101.9905,-1.9053],[101.995,-1.9099],[101.9987,-1.9092],[101.999,-1.9186],[101.9895,-1.9206],[101.9738,-1.9185],[101.9658,-1.9137],[101.9602,-1.9045],[101.9905,-1.9053]]]}},{"type":"Feature","properties":{"name":"PulauTerbakar","name_en":"PulauTerbakar","admin_level":"7","osm_id":""},"geometry":{"type":"Polygon","coordinates":[[[102.0711,-1.8721],[102.0745,-1.9082],[102.0654,-1.9175],[102.0648,-1.941],[102.0613,-1.9642],[102.0598,-1.996],[102.0571,-1.9959],[102.0413,-1.9929],[102.0425,-1.9437],[102.0415,-1.9164],[102.0429,-1.8948],[102.0462,-1.8897],[102.0545,-1.8889],[102.0579,-1.8792],[102.0615,-1.8762],[102.0711,-1.8721]]]}},{"type":"Feature","properties":{"name":"SungaiTabir","name_en":"SungaiTabir","admin_level":"7","osm_id":""},"geometry":{"type":"Polygon","coordinates":[[[101.9741,-1.9903],[101.9526,-1.9897],[101.9512,-1.9685],[101.9336,-1.9363],[101.9254,-1.913],[101.9263,-1.8998],[101.9602,-1.9045],[101.9658,-1.9137],[101.9765,-1.9189],[101.9813,-1.9398],[101.9741,-1.9903]]]}},{"type":"Feature","properties":{"name":"TanjungBeringin","name_en":"TanjungBeringin","admin_level":"7","osm_id":""},"geometry":{"type":"Polygon","coordinates":[[[102.0774,-1.9966],[102.0598,-1.996],[102.0613,-1.9642],[102.0648,-1.941],[102.0654,-1.9175],[102.0745,-1.9082],[102.0795,-1.9915],[102.0795,-1.9957],[102.0774,-1.9966]]]}},{"type":"Feature","properties":{"name":"TanjungPutus","name_en":"TanjungPutus","admin_level":"7","osm_id":""},"geometry":{"type":"Polygon","coordinates":[[[102.0712,-1.8725],[102.0775,-1.8732],[102.0837,-1.8714],[102.0882,-1.9397],[102.0967,-1.9451],[102.0989,-1.9884],[102.0795,-1.9957],[102.0774,-1.9413],[102.0712,-1.8725]]]}},{"type":"Feature","properties":{"name":"Telentam","name_en":"Telentam","admin_level":"7","osm_id":""},"geometry":{"type":"Polygon","coordinates":[[[101.9494,-1.9896],[101.9217,-1.9885],[101.9023,-1.9911],[101.9017,-1.959],[101.8783,-1.8958],[101.9263,-1.8998],[101.9254,-1.913],[101.9336,-1.9363],[101.9512,-1.9685],[101.9526,-1.9897],[101.9494,-1.9896]]]}}]}