{"type":"FeatureCollection","metadata":{"parent_osm_id":"gid_IDN_32_17_3_1","parent_name":"MandreheBarat","parent_name_1":"SumateraUtara","parent_gid":"IDN.32.17.3_1","parent_level":"6","child_level":"7","count":14,"source":"GADM 4.1","generated":"2026-05-08"},"features":[{"type":"Feature","properties":{"name":"FadoroSifuluBanua","name_en":"FadoroSifuluBanua","admin_level":"7","osm_id":""},"geometry":{"type":"Polygon","coordinates":[[[97.4458,1.0134],[97.4373,1.0193],[97.4413,1.025],[97.4574,1.0262],[97.4631,1.0222],[97.4589,1.0213],[97.4575,1.023],[97.4546,1.019],[97.4532,1.0205],[97.4529,1.0175],[97.4546,1.0172],[97.4536,1.0146],[97.4514,1.0153],[97.4493,1.0132],[97.4458,1.0134]]]}},{"type":"Feature","properties":{"name":"Hilidaura","name_en":"Hilidaura","admin_level":"7","osm_id":""},"geometry":{"type":"Polygon","coordinates":[[[97.4373,1.0193],[97.4458,1.0134],[97.4448,1.0091],[97.4432,1.0079],[97.4399,1.0085],[97.4393,1.0102],[97.4354,1.0077],[97.4374,1.0063],[97.4332,1.004],[97.4271,1.0065],[97.4255,1.0056],[97.4251,1.012],[97.4302,1.0177],[97.4373,1.0193]]]}},{"type":"Feature","properties":{"name":"Iraonogea","name_en":"Iraonogea","admin_level":"7","osm_id":""},"geometry":{"type":"Polygon","coordinates":[[[97.482,1.0037],[97.4738,0.9961],[97.4643,0.9917],[97.4588,0.9976],[97.4644,1.0015],[97.466,1.0085],[97.4755,1.0043],[97.482,1.0037]]]}},{"type":"Feature","properties":{"name":"LasaraBagawu","name_en":"LasaraBagawu","admin_level":"7","osm_id":""},"geometry":{"type":"Polygon","coordinates":[[[97.4299,1.0163],[97.4245,1.0111],[97.4251,1.0063],[97.4124,1.0065],[97.4004,1.0007],[97.3977,1.015],[97.3925,1.0248],[97.4166,1.026],[97.4242,1.0224],[97.4299,1.0163]]]}},{"type":"Feature","properties":{"name":"LasaraFaga","name_en":"LasaraFaga","admin_level":"7","osm_id":""},"geometry":{"type":"Polygon","coordinates":[[[97.4481,1.0389],[97.4377,1.0332],[97.4277,1.032],[97.4303,1.0383],[97.4295,1.045],[97.4339,1.0472],[97.4485,1.0473],[97.4494,1.0429],[97.4477,1.0424],[97.4481,1.0389]]]}},{"type":"Feature","properties":{"name":"Lolohia","name_en":"Lolohia","admin_level":"7","osm_id":""},"geometry":{"type":"Polygon","coordinates":[[[97.4844,1.0071],[97.482,1.0037],[97.4789,1.0038],[97.466,1.0085],[97.4648,1.022],[97.4733,1.017],[97.4844,1.0071]]]}},{"type":"Feature","properties":{"name":"Mazingo","name_en":"Mazingo","admin_level":"7","osm_id":""},"geometry":{"type":"Polygon","coordinates":[[[97.4489,1.0264],[97.4413,1.025],[97.4373,1.0193],[97.4302,1.0177],[97.4298,1.0264],[97.4277,1.032],[97.4377,1.0332],[97.4481,1.0389],[97.4489,1.0264]]]}},{"type":"Feature","properties":{"name":"OnolimbuRaya","name_en":"OnolimbuRaya","admin_level":"7","osm_id":""},"geometry":{"type":"Polygon","coordinates":[[[97.4063,0.982],[97.4118,0.9827],[97.4233,0.9875],[97.4289,0.9887],[97.4292,0.9874],[97.4208,0.9793],[97.4221,0.9699],[97.4189,0.9667],[97.4094,0.9686],[97.4063,0.982]]]}},{"type":"Feature","properties":{"name":"OnolimbuYou","name_en":"OnolimbuYou","admin_level":"7","osm_id":""},"geometry":{"type":"Polygon","coordinates":[[[97.4619,1.0233],[97.4582,1.026],[97.4529,1.0249],[97.4489,1.0264],[97.4494,1.0331],[97.4476,1.0405],[97.4494,1.0436],[97.4446,1.056],[97.4509,1.0537],[97.4516,1.0482],[97.4619,1.0233]]]}},{"type":"Feature","properties":{"name":"OnonamoloIii","name_en":"OnonamoloIii","admin_level":"7","osm_id":""},"geometry":{"type":"Polygon","coordinates":[[[97.4255,1.0056],[97.4271,1.0065],[97.4332,1.004],[97.4374,1.0063],[97.4401,1.0025],[97.4419,0.9925],[97.4446,0.9885],[97.4432,0.9805],[97.4337,0.9808],[97.4291,0.986],[97.4296,0.9989],[97.4255,1.0056]]]}},{"type":"Feature","properties":{"name":"OrahiliBadalu","name_en":"OrahiliBadalu","admin_level":"7","osm_id":""},"geometry":{"type":"Polygon","coordinates":[[[97.4485,1.0473],[97.4339,1.0472],[97.4295,1.045],[97.4262,1.0506],[97.4267,1.0592],[97.4314,1.0583],[97.4383,1.0596],[97.4419,1.062],[97.4485,1.0473]]]}},{"type":"Feature","properties":{"name":"SisarahiliIi","name_en":"SisarahiliIi","admin_level":"7","osm_id":""},"geometry":{"type":"Polygon","coordinates":[[[97.4251,1.0063],[97.4291,1.001],[97.4289,0.9887],[97.4063,0.982],[97.4004,1.0007],[97.4124,1.0065],[97.4251,1.0063]]]}},{"type":"Feature","properties":{"name":"Sisobandrao","name_en":"Sisobandrao","admin_level":"7","osm_id":""},"geometry":{"type":"Polygon","coordinates":[[[97.4302,1.0177],[97.4299,1.0163],[97.4242,1.0224],[97.4166,1.026],[97.3925,1.0248],[97.3888,1.0358],[97.3982,1.04],[97.4298,1.0395],[97.4276,1.0322],[97.4298,1.0264],[97.4302,1.0177]]]}},{"type":"Feature","properties":{"name":"Sisobaoho","name_en":"Sisobaoho","admin_level":"7","osm_id":""},"geometry":{"type":"Polygon","coordinates":[[[97.4588,0.9976],[97.4643,0.9917],[97.4473,0.9901],[97.4446,0.9885],[97.4429,0.9897],[97.442,0.9974],[97.4396,1.0003],[97.4401,1.0025],[97.4449,0.9989],[97.4545,0.9968],[97.4588,0.9976]]]}}]}