{"type":"FeatureCollection","metadata":{"parent_osm_id":"gid_IDN_32_16_7_1","parent_name":"LinggaBayu","parent_name_1":"SumateraUtara","parent_gid":"IDN.32.16.7_1","parent_level":"6","child_level":"7","count":18,"source":"GADM 4.1","generated":"2026-05-08"},"features":[{"type":"Feature","properties":{"name":"AekGaringging","name_en":"AekGaringging","admin_level":"7","osm_id":""},"geometry":{"type":"Polygon","coordinates":[[[99.2632,0.6136],[99.2633,0.6162],[99.266,0.6182],[99.2755,0.6203],[99.2818,0.6111],[99.2845,0.6101],[99.2849,0.607],[99.2933,0.6052],[99.2961,0.6007],[99.295,0.5977],[99.2862,0.5873],[99.2817,0.5921],[99.2803,0.5964],[99.2764,0.5998],[99.274,0.6089],[99.272,0.611],[99.2632,0.6136]]]}},{"type":"Feature","properties":{"name":"AekManyuruk","name_en":"AekManyuruk","admin_level":"7","osm_id":""},"geometry":{"type":"Polygon","coordinates":[[[99.2997,0.5507],[99.2831,0.557],[99.2813,0.5653],[99.2869,0.5705],[99.2891,0.5793],[99.3009,0.5801],[99.3091,0.5675],[99.3166,0.5632],[99.3178,0.5609],[99.3195,0.5475],[99.3152,0.5502],[99.2997,0.5507]]]}},{"type":"Feature","properties":{"name":"BandarLimabung","name_en":"BandarLimabung","admin_level":"7","osm_id":""},"geometry":{"type":"Polygon","coordinates":[[[99.2831,0.557],[99.2997,0.5507],[99.2953,0.535],[99.2939,0.5203],[99.2877,0.5126],[99.2859,0.5136],[99.285,0.5192],[99.2785,0.5258],[99.273,0.5468],[99.2646,0.5568],[99.2684,0.5594],[99.2731,0.5595],[99.275,0.5578],[99.2831,0.557]]]}},{"type":"Feature","properties":{"name":"BoncaBayuon","name_en":"BoncaBayuon","admin_level":"7","osm_id":""},"geometry":{"type":"Polygon","coordinates":[[[99.3183,0.5587],[99.3166,0.5632],[99.3123,0.5652],[99.3337,0.5905],[99.3379,0.5859],[99.3368,0.5783],[99.3183,0.5587]]]}},{"type":"Feature","properties":{"name":"DalanLidang","name_en":"DalanLidang","admin_level":"7","osm_id":""},"geometry":{"type":"Polygon","coordinates":[[[99.3238,0.604],[99.3376,0.6081],[99.3449,0.6035],[99.3387,0.5981],[99.3322,0.5878],[99.3201,0.5751],[99.3173,0.5767],[99.3099,0.5883],[99.3238,0.604]]]}},{"type":"Feature","properties":{"name":"KampungBaru","name_en":"KampungBaru","admin_level":"7","osm_id":""},"geometry":{"type":"Polygon","coordinates":[[[99.2612,0.6684],[99.2883,0.6567],[99.2966,0.6511],[99.2928,0.6386],[99.288,0.6325],[99.2844,0.6227],[99.266,0.6182],[99.2633,0.6162],[99.2626,0.611],[99.258,0.611],[99.2457,0.6043],[99.2335,0.6019],[99.2288,0.6053],[99.2302,0.6086],[99.2162,0.6153],[99.2169,0.6206],[99.2239,0.6286],[99.2217,0.6372],[99.2307,0.6421],[99.2538,0.6658],[99.2612,0.6684]]]}},{"type":"Feature","properties":{"name":"Lancat","name_en":"Lancat","admin_level":"7","osm_id":""},"geometry":{"type":"Polygon","coordinates":[[[99.2813,0.5653],[99.2831,0.557],[99.275,0.5578],[99.2731,0.5595],[99.2684,0.5594],[99.2646,0.5568],[99.2611,0.5616],[99.2472,0.5652],[99.2456,0.5668],[99.2491,0.5755],[99.2499,0.5831],[99.2474,0.5877],[99.2501,0.59],[99.2563,0.5892],[99.2638,0.5786],[99.2678,0.5777],[99.2698,0.5742],[99.2783,0.5719],[99.2813,0.5653]]]}},{"type":"Feature","properties":{"name":"Lobung","name_en":"Lobung","admin_level":"7","osm_id":""},"geometry":{"type":"Polygon","coordinates":[[[99.2862,0.606],[99.2845,0.6101],[99.2818,0.6111],[99.2743,0.6206],[99.2844,0.6227],[99.288,0.6325],[99.293,0.6393],[99.2958,0.6297],[99.2898,0.6206],[99.2898,0.6136],[99.2862,0.606]]]}},{"type":"Feature","properties":{"name":"Pangkalan","name_en":"Pangkalan","admin_level":"7","osm_id":""},"geometry":{"type":"Polygon","coordinates":[[[99.2288,0.6053],[99.2335,0.6019],[99.2374,0.6021],[99.2457,0.6043],[99.258,0.611],[99.2626,0.611],[99.2582,0.6004],[99.2582,0.5928],[99.2559,0.5894],[99.2501,0.59],[99.2474,0.5877],[99.2322,0.5906],[99.2226,0.597],[99.2288,0.6053]]]}},{"type":"Feature","properties":{"name":"Parbatasan:","name_en":"Parbatasan:","admin_level":"7","osm_id":""},"geometry":{"type":"Polygon","coordinates":[[[99.2226,0.597],[99.2289,0.5922],[99.234,0.5904],[99.2288,0.5728],[99.2129,0.5688],[99.21,0.5759],[99.2105,0.5804],[99.2226,0.597]]]}},{"type":"Feature","properties":{"name":"Perk.simpangGambir","name_en":"Perk.simpangGambir","admin_level":"7","osm_id":""},"geometry":{"type":"Polygon","coordinates":[[[99.3825,0.5929],[99.3879,0.5915],[99.3922,0.5874],[99.3897,0.5847],[99.3877,0.5785],[99.3829,0.5733],[99.3583,0.5764],[99.3512,0.5744],[99.3463,0.5697],[99.3459,0.5639],[99.3418,0.5589],[99.3359,0.5565],[99.3242,0.5451],[99.3195,0.5475],[99.3183,0.5587],[99.3368,0.5783],[99.3379,0.5859],[99.3336,0.5906],[99.3387,0.5981],[99.3449,0.6035],[99.3506,0.6021],[99.3528,0.6039],[99.3579,0.6037],[99.3621,0.5985],[99.3674,0.5975],[99.3718,0.5946],[99.3825,0.5929]]]}},{"type":"Feature","properties":{"name":"Sikumbu","name_en":"Sikumbu","admin_level":"7","osm_id":""},"geometry":{"type":"Polygon","coordinates":[[[99.2632,0.6136],[99.272,0.611],[99.274,0.6089],[99.2751,0.6021],[99.2803,0.5964],[99.2817,0.5921],[99.2884,0.5829],[99.2887,0.5739],[99.2813,0.5653],[99.2783,0.5719],[99.2698,0.5742],[99.2678,0.5777],[99.2638,0.5786],[99.2559,0.5894],[99.2582,0.5928],[99.2582,0.6004],[99.2632,0.6136]]]}},{"type":"Feature","properties":{"name":"SimpangBajole","name_en":"SimpangBajole","admin_level":"7","osm_id":""},"geometry":{"type":"Polygon","coordinates":[[[99.2997,0.5507],[99.3168,0.5499],[99.3286,0.5419],[99.3323,0.5378],[99.3313,0.5304],[99.3332,0.5286],[99.3377,0.515],[99.3279,0.5106],[99.3237,0.5066],[99.3173,0.5154],[99.3084,0.519],[99.3009,0.5254],[99.2996,0.5268],[99.2995,0.5375],[99.2967,0.5393],[99.2997,0.5507]]]}},{"type":"Feature","properties":{"name":"SimpangDuku","name_en":"SimpangDuku","admin_level":"7","osm_id":""},"geometry":{"type":"Polygon","coordinates":[[[99.3151,0.6182],[99.3013,0.6121],[99.3014,0.6102],[99.3114,0.6071],[99.2979,0.6039],[99.2961,0.6007],[99.2933,0.6052],[99.2862,0.606],[99.2898,0.6136],[99.2953,0.6169],[99.2967,0.616],[99.3014,0.6177],[99.3019,0.6141],[99.3037,0.6138],[99.3107,0.6182],[99.3151,0.6182]]]}},{"type":"Feature","properties":{"name":"SimpangDurian","name_en":"SimpangDurian","admin_level":"7","osm_id":""},"geometry":{"type":"Polygon","coordinates":[[[99.2646,0.5568],[99.273,0.5468],[99.2784,0.528],[99.2759,0.5019],[99.2721,0.4978],[99.2711,0.4939],[99.2667,0.505],[99.2672,0.5211],[99.2629,0.5225],[99.2523,0.5222],[99.2468,0.5303],[99.2409,0.5326],[99.2331,0.5401],[99.2288,0.554],[99.2424,0.5616],[99.2456,0.5668],[99.2611,0.5616],[99.2646,0.5568]]]}},{"type":"Feature","properties":{"name":"SimpangGambir","name_en":"SimpangGambir","admin_level":"7","osm_id":""},"geometry":{"type":"Polygon","coordinates":[[[99.3171,0.6293],[99.3193,0.6243],[99.3168,0.6228],[99.3151,0.6182],[99.3107,0.6182],[99.3037,0.6138],[99.3019,0.6141],[99.3014,0.6177],[99.2967,0.616],[99.2953,0.6169],[99.2898,0.6136],[99.2898,0.6206],[99.2958,0.6297],[99.293,0.6393],[99.2966,0.6511],[99.3094,0.6438],[99.3122,0.639],[99.3161,0.6373],[99.3138,0.6329],[99.3171,0.6293]]]}},{"type":"Feature","properties":{"name":"SimpangKoje","name_en":"SimpangKoje","admin_level":"7","osm_id":""},"geometry":{"type":"Polygon","coordinates":[[[99.2381,0.6913],[99.2499,0.6799],[99.2586,0.6746],[99.2612,0.6684],[99.2538,0.6658],[99.2307,0.6421],[99.2217,0.6372],[99.2007,0.6418],[99.1866,0.639],[99.1689,0.6467],[99.168,0.6504],[99.1738,0.663],[99.1802,0.667],[99.1817,0.6732],[99.1887,0.6769],[99.1906,0.6839],[99.1937,0.6861],[99.1979,0.6858],[99.2019,0.6895],[99.1999,0.6947],[99.2049,0.6932],[99.2138,0.6947],[99.2196,0.6932],[99.2242,0.6938],[99.2331,0.6891],[99.2381,0.6913]]]}},{"type":"Feature","properties":{"name":"Tapus","name_en":"Tapus","admin_level":"7","osm_id":""},"geometry":{"type":"Polygon","coordinates":[[[99.2474,0.5877],[99.2499,0.5831],[99.2491,0.5755],[99.2424,0.5616],[99.2288,0.554],[99.2245,0.5601],[99.2163,0.5644],[99.2135,0.5677],[99.2129,0.5688],[99.2288,0.5728],[99.234,0.5904],[99.2474,0.5877]]]}}]}