{"type":"FeatureCollection","metadata":{"parent_osm_id":"gid_IDN_19_6_12_1","parent_name":"Tehoru","parent_name_1":"Maluku","parent_gid":"IDN.19.6.12_1","parent_level":"6","child_level":"7","count":20,"source":"GADM 4.1","generated":"2026-05-09"},"features":[{"type":"Feature","properties":{"name":"Hatu","name_en":"Hatu","admin_level":"7","osm_id":""},"geometry":{"type":"Polygon","coordinates":[[[129.5849,-3.2303],[129.5779,-3.3068],[129.5711,-3.3044],[129.5663,-3.3055],[129.5623,-3.3044],[129.5504,-3.3089],[129.5543,-3.2782],[129.5504,-3.2611],[129.5407,-3.2352],[129.5849,-3.2303]]]}},{"type":"Feature","properties":{"name":"Hatumete","name_en":"Hatumete","admin_level":"7","osm_id":""},"geometry":{"type":"Polygon","coordinates":[[[129.5779,-3.3068],[129.5849,-3.2303],[129.6131,-3.2294],[129.5916,-3.3131],[129.5779,-3.3068]]]}},{"type":"Feature","properties":{"name":"Haya","name_en":"Haya","admin_level":"7","osm_id":""},"geometry":{"type":"Polygon","coordinates":[[[129.2943,-3.4127],[129.3104,-3.2],[129.396,-3.1956],[129.3968,-3.2437],[129.4936,-3.3902],[129.5432,-3.4218],[129.5664,-3.4218],[129.5693,-3.4304],[129.5672,-3.4394],[129.568,-3.4477],[129.5625,-3.453],[129.5592,-3.453],[129.5584,-3.4545],[129.5608,-3.4591],[129.5538,-3.4681],[129.5454,-3.4703],[129.542,-3.468],[129.5412,-3.4704],[129.5384,-3.4719],[129.5289,-3.4703],[129.5251,-3.4668],[129.5212,-3.4677],[129.5077,-3.4623],[129.5004,-3.4614],[129.4976,-3.4576],[129.4888,-3.4565],[129.4863,-3.458],[129.4797,-3.4551],[129.4759,-3.4477],[129.4683,-3.4453],[129.4588,-3.4386],[129.463,-3.432],[129.4675,-3.4148],[129.4672,-3.3929],[129.4521,-3.3702],[129.4297,-3.3693],[129.414,-3.3861],[129.4059,-3.4002],[129.4006,-3.4183],[129.3948,-3.4161],[129.3883,-3.4177],[129.3846,-3.4169],[129.3728,-3.4118],[129.367,-3.4146],[129.362,-3.4146],[129.3559,-3.4102],[129.3515,-3.4119],[129.3497,-3.4111],[129.3363,-3.4174],[129.3286,-3.412],[129.3192,-3.4155],[129.3087,-3.4108],[129.2943,-3.4127]]]}},{"type":"Feature","properties":{"name":"Hunisi","name_en":"Hunisi","admin_level":"7","osm_id":""},"geometry":{"type":"Polygon","coordinates":[[[129.7994,-3.2036],[129.8231,-3.2067],[129.8015,-3.3227],[129.7915,-3.3248],[129.783,-3.3286],[129.7994,-3.2036]]]}},{"type":"Feature","properties":{"name":"Lafa","name_en":"Lafa","admin_level":"7","osm_id":""},"geometry":{"type":"Polygon","coordinates":[[[129.6747,-3.187],[129.7032,-3.1908],[129.6851,-3.3223],[129.6787,-3.3236],[129.6714,-3.3225],[129.6662,-3.3176],[129.6606,-3.3177],[129.6747,-3.187]]]}},{"type":"Feature","properties":{"name":"Laha","name_en":"Laha","admin_level":"7","osm_id":""},"geometry":{"type":"Polygon","coordinates":[[[129.8408,-3.2091],[129.8648,-3.2121],[129.8175,-3.3235],[129.8097,-3.3217],[129.8408,-3.2091]]]}},{"type":"Feature","properties":{"name":"Lahakaba","name_en":"Lahakaba","admin_level":"7","osm_id":""},"geometry":{"type":"Polygon","coordinates":[[[129.8648,-3.2121],[129.8875,-3.2149],[129.8748,-3.2454],[129.8318,-3.3304],[129.8224,-3.3306],[129.8175,-3.3235],[129.8648,-3.2121]]]}},{"type":"Feature","properties":{"name":"Laimu","name_en":"Laimu","admin_level":"7","osm_id":""},"geometry":{"type":"Polygon","coordinates":[[[129.7722,-3.2],[129.7994,-3.2036],[129.783,-3.3286],[129.7744,-3.3279],[129.7628,-3.3321],[129.749,-3.3283],[129.7722,-3.2]]]}},{"type":"Feature","properties":{"name":"Maneoratu","name_en":"Maneoratu","admin_level":"7","osm_id":""},"geometry":{"type":"Polygon","coordinates":[[[129.7361,-3.1952],[129.7722,-3.2],[129.749,-3.3283],[129.7443,-3.3264],[129.7341,-3.3158],[129.7283,-3.3148],[129.721,-3.3158],[129.7361,-3.1952]]]}},{"type":"Feature","properties":{"name":"Mosso","name_en":"Mosso","admin_level":"7","osm_id":""},"geometry":{"type":"Polygon","coordinates":[[[129.5916,-3.3131],[129.6131,-3.2294],[129.6178,-3.22],[129.6204,-3.2037],[129.6268,-3.2139],[129.6292,-3.226],[129.6225,-3.2803],[129.6163,-3.3165],[129.6068,-3.3159],[129.6033,-3.3119],[129.5994,-3.3105],[129.5916,-3.3131]]]}},{"type":"Feature","properties":{"name":"Piliana","name_en":"Piliana","admin_level":"7","osm_id":""},"geometry":{"type":"Polygon","coordinates":[[[129.5152,-3.1834],[129.584,-3.175],[129.6163,-3.1793],[129.6194,-3.188],[129.6208,-3.2015],[129.6178,-3.22],[129.6131,-3.2294],[129.5625,-3.2318],[129.5407,-3.2352],[129.5152,-3.1834]]]}},{"type":"Feature","properties":{"name":"Salamahu","name_en":"Salamahu","admin_level":"7","osm_id":""},"geometry":{"type":"Polygon","coordinates":[[[129.4006,-3.4183],[129.4059,-3.4002],[129.414,-3.3861],[129.4297,-3.3693],[129.4521,-3.3702],[129.4672,-3.3929],[129.4675,-3.4148],[129.463,-3.432],[129.4588,-3.4386],[129.4402,-3.4314],[129.4318,-3.4319],[129.428,-3.4275],[129.4175,-3.4246],[129.4155,-3.4208],[129.4109,-3.4184],[129.4045,-3.417],[129.4006,-3.4183]]]}},{"type":"Feature","properties":{"name":"Saunulu","name_en":"Saunulu","admin_level":"7","osm_id":""},"geometry":{"type":"Polygon","coordinates":[[[129.4325,-3.1918],[129.468,-3.1882],[129.5201,-3.2994],[129.5103,-3.3059],[129.4995,-3.3197],[129.489,-3.3192],[129.4486,-3.2572],[129.4384,-3.2291],[129.4325,-3.1918]]]}},{"type":"Feature","properties":{"name":"Tehoru","name_en":"Tehoru","admin_level":"7","osm_id":""},"geometry":{"type":"Polygon","coordinates":[[[129.396,-3.1956],[129.4325,-3.1918],[129.4384,-3.2291],[129.4486,-3.2572],[129.489,-3.3192],[129.4995,-3.3197],[129.4973,-3.3255],[129.4986,-3.3288],[129.5063,-3.3298],[129.5092,-3.3343],[129.5141,-3.338],[129.5251,-3.3541],[129.5264,-3.3555],[129.5283,-3.3548],[129.5314,-3.3578],[129.5314,-3.3625],[129.5391,-3.3757],[129.5429,-3.378],[129.5442,-3.3759],[129.551,-3.3826],[129.5517,-3.3876],[129.5607,-3.3985],[129.5609,-3.4023],[129.566,-3.4129],[129.5645,-3.4165],[129.5668,-3.4195],[129.5664,-3.4218],[129.5432,-3.4218],[129.4936,-3.3902],[129.3968,-3.2437],[129.396,-3.1956]]]}},{"type":"Feature","properties":{"name":"Tehua","name_en":"Tehua","admin_level":"7","osm_id":""},"geometry":{"type":"Polygon","coordinates":[[[129.7032,-3.1908],[129.7361,-3.1952],[129.721,-3.3158],[129.7024,-3.318],[129.6851,-3.3223],[129.7032,-3.1908]]]}},{"type":"Feature","properties":{"name":"TelutiBaru","name_en":"TelutiBaru","admin_level":"7","osm_id":""},"geometry":{"type":"Polygon","coordinates":[[[129.6163,-3.1793],[129.6526,-3.1841],[129.6389,-3.3154],[129.6345,-3.3122],[129.6306,-3.3116],[129.6163,-3.3165],[129.6225,-3.2803],[129.6292,-3.226],[129.6268,-3.2139],[129.6204,-3.2037],[129.6194,-3.188],[129.6163,-3.1793]]]}},{"type":"Feature","properties":{"name":"Ulahahan","name_en":"Ulahahan","admin_level":"7","osm_id":""},"geometry":{"type":"Polygon","coordinates":[[[129.8875,-3.2149],[129.9036,-3.2176],[129.9002,-3.2217],[129.9059,-3.2334],[129.9031,-3.2386],[129.8997,-3.2593],[129.8948,-3.2611],[129.8844,-3.2693],[129.8828,-3.2783],[129.8837,-3.2865],[129.8798,-3.2949],[129.8763,-3.2977],[129.8738,-3.3063],[129.8562,-3.3219],[129.8552,-3.336],[129.8463,-3.3343],[129.84,-3.3308],[129.8318,-3.3304],[129.8748,-3.2454],[129.8875,-3.2149]]]}},{"type":"Feature","properties":{"name":"Wolu","name_en":"Wolu","admin_level":"7","osm_id":""},"geometry":{"type":"Polygon","coordinates":[[[129.6526,-3.1841],[129.6747,-3.187],[129.6606,-3.3177],[129.6529,-3.3181],[129.6389,-3.3154],[129.6526,-3.1841]]]}},{"type":"Feature","properties":{"name":"Yamalatu","name_en":"Yamalatu","admin_level":"7","osm_id":""},"geometry":{"type":"Polygon","coordinates":[[[129.8231,-3.2067],[129.8408,-3.2091],[129.8097,-3.3217],[129.8015,-3.3227],[129.8231,-3.2067]]]}},{"type":"Feature","properties":{"name":"Yaputih","name_en":"Yaputih","admin_level":"7","osm_id":""},"geometry":{"type":"Polygon","coordinates":[[[129.468,-3.1882],[129.5152,-3.1834],[129.543,-3.2399],[129.5532,-3.2707],[129.5543,-3.2782],[129.5534,-3.2911],[129.5504,-3.3089],[129.526,-3.2982],[129.5201,-3.2994],[129.468,-3.1882]]]}}]}