{"type":"FeatureCollection","metadata":{"parent_osm_id":"gid_IDN_11_8_6_1","parent_name":"GumukMas","parent_name_1":"JawaTimur","parent_gid":"IDN.11.8.6_1","parent_level":"6","child_level":"7","count":8,"source":"GADM 4.1","generated":"2026-05-09"},"features":[{"type":"Feature","properties":{"name":"Bagorejo","name_en":"Bagorejo","admin_level":"7","osm_id":""},"geometry":{"type":"Polygon","coordinates":[[[113.4455,-8.3275],[113.4381,-8.3246],[113.4375,-8.3229],[113.432,-8.3223],[113.427,-8.3189],[113.4193,-8.3168],[113.4233,-8.3128],[113.4278,-8.3122],[113.4266,-8.3068],[113.4276,-8.3007],[113.4311,-8.294],[113.4412,-8.2957],[113.4436,-8.2926],[113.4496,-8.2916],[113.4444,-8.3024],[113.4434,-8.3177],[113.4453,-8.3209],[113.4455,-8.3275]]]}},{"type":"Feature","properties":{"name":"Gumukmas","name_en":"Gumukmas","admin_level":"7","osm_id":""},"geometry":{"type":"Polygon","coordinates":[[[113.3812,-8.3271],[113.3699,-8.3168],[113.3805,-8.3048],[113.386,-8.3099],[113.3932,-8.2938],[113.3985,-8.2888],[113.4064,-8.294],[113.4056,-8.2969],[113.409,-8.3071],[113.4177,-8.3154],[113.4136,-8.3233],[113.4078,-8.3274],[113.4023,-8.3377],[113.3978,-8.3367],[113.3847,-8.3268],[113.3812,-8.3271]]]}},{"type":"Feature","properties":{"name":"Karangrejo","name_en":"Karangrejo","admin_level":"7","osm_id":""},"geometry":{"type":"Polygon","coordinates":[[[113.4193,-8.3168],[113.427,-8.3189],[113.432,-8.3223],[113.4375,-8.3229],[113.4381,-8.3246],[113.4455,-8.3275],[113.4476,-8.3352],[113.4448,-8.3402],[113.4454,-8.3464],[113.4443,-8.3478],[113.4417,-8.3439],[113.4397,-8.345],[113.438,-8.3428],[113.4336,-8.3417],[113.4313,-8.3429],[113.4309,-8.3392],[113.4282,-8.3381],[113.425,-8.3373],[113.4218,-8.3409],[113.4222,-8.338],[113.4205,-8.3348],[113.4156,-8.3312],[113.4142,-8.3282],[113.4145,-8.3247],[113.4168,-8.3245],[113.4164,-8.3222],[113.4193,-8.3168]]]}},{"type":"Feature","properties":{"name":"Kepanjen","name_en":"Kepanjen","admin_level":"7","osm_id":""},"geometry":{"type":"Polygon","coordinates":[[[113.3731,-8.3197],[113.3812,-8.3271],[113.3771,-8.3358],[113.3782,-8.3406],[113.3798,-8.3413],[113.3788,-8.3463],[113.385,-8.3529],[113.3862,-8.3571],[113.3957,-8.3717],[113.3948,-8.3755],[113.3963,-8.3778],[113.3948,-8.3809],[113.3923,-8.3792],[113.3922,-8.3836],[113.3962,-8.3858],[113.4001,-8.3837],[113.4014,-8.3852],[113.4009,-8.3943],[113.391,-8.4004],[113.3883,-8.4004],[113.3863,-8.3983],[113.3723,-8.3693],[113.3646,-8.3577],[113.3409,-8.3324],[113.3452,-8.3248],[113.3428,-8.3263],[113.3416,-8.3231],[113.3413,-8.319],[113.3438,-8.3189],[113.3411,-8.3158],[113.3424,-8.3126],[113.3488,-8.3152],[113.3492,-8.3126],[113.352,-8.3115],[113.3683,-8.3256],[113.3731,-8.3197]]]}},{"type":"Feature","properties":{"name":"Mayangan","name_en":"Mayangan","admin_level":"7","osm_id":""},"geometry":{"type":"Polygon","coordinates":[[[113.3812,-8.3271],[113.3834,-8.3261],[113.3859,-8.3274],[113.3965,-8.3359],[113.3916,-8.3391],[113.4062,-8.3575],[113.4135,-8.3613],[113.4134,-8.3666],[113.4081,-8.3681],[113.4068,-8.3717],[113.4072,-8.3888],[113.4009,-8.3943],[113.401,-8.384],[113.3965,-8.3859],[113.3922,-8.3835],[113.3923,-8.3792],[113.3948,-8.3809],[113.3963,-8.3778],[113.3948,-8.3755],[113.3955,-8.3709],[113.3862,-8.3571],[113.385,-8.3529],[113.3788,-8.3463],[113.3798,-8.3413],[113.3782,-8.3406],[113.3771,-8.3358],[113.3812,-8.3271]]]}},{"type":"Feature","properties":{"name":"Menampu","name_en":"Menampu","admin_level":"7","osm_id":""},"geometry":{"type":"Polygon","coordinates":[[[113.4266,-8.3068],[113.4278,-8.3122],[113.4233,-8.3128],[113.4188,-8.3166],[113.4168,-8.3245],[113.4145,-8.3247],[113.4143,-8.3288],[113.4205,-8.3348],[113.4222,-8.338],[113.4218,-8.3409],[113.4255,-8.3373],[113.4307,-8.339],[113.4313,-8.3429],[113.4336,-8.3417],[113.437,-8.343],[113.4279,-8.3488],[113.421,-8.3604],[113.4131,-8.3617],[113.4062,-8.3575],[113.3916,-8.3391],[113.3965,-8.3359],[113.4001,-8.3377],[113.4035,-8.3371],[113.4078,-8.3274],[113.4113,-8.3258],[113.4169,-8.3162],[113.4266,-8.3068]]]}},{"type":"Feature","properties":{"name":"Purwoasri","name_en":"Purwoasri","admin_level":"7","osm_id":""},"geometry":{"type":"Polygon","coordinates":[[[113.4294,-8.2964],[113.4272,-8.3062],[113.4179,-8.3154],[113.411,-8.3102],[113.4056,-8.2969],[113.4064,-8.294],[113.3985,-8.2888],[113.4026,-8.2829],[113.4047,-8.2835],[113.4048,-8.2728],[113.4173,-8.2751],[113.4181,-8.2782],[113.4237,-8.2823],[113.4236,-8.2855],[113.4294,-8.2964]]]}},{"type":"Feature","properties":{"name":"Tembokrejo","name_en":"Tembokrejo","admin_level":"7","osm_id":""},"geometry":{"type":"Polygon","coordinates":[[[113.4496,-8.2916],[113.4436,-8.2926],[113.4412,-8.2957],[113.4311,-8.294],[113.4294,-8.2964],[113.4236,-8.2855],[113.4237,-8.2823],[113.4181,-8.2782],[113.4173,-8.2751],[113.4048,-8.2728],[113.4063,-8.2696],[113.4268,-8.2697],[113.4329,-8.268],[113.44,-8.2695],[113.4494,-8.2751],[113.4615,-8.2792],[113.4601,-8.2837],[113.4568,-8.2855],[113.4566,-8.2881],[113.4496,-8.2916]]]}}]}