{"type":"FeatureCollection","metadata":{"parent_osm_id":"gid_IDN_10_29_11_1","parent_name":"Ngampal","parent_name_1":"JawaTengah","parent_gid":"IDN.10.29.11_1","parent_level":"6","child_level":"7","count":8,"source":"GADM 4.1","generated":"2026-05-09"},"features":[{"type":"Feature","properties":{"name":"Bandung","name_en":"Bandung","admin_level":"7","osm_id":""},"geometry":{"type":"Polygon","coordinates":[[[111.0379,-7.3776],[111.051,-7.3957],[111.0377,-7.3953],[111.0425,-7.4036],[111.0415,-7.404],[111.0362,-7.4038],[111.0333,-7.4012],[111.0275,-7.4015],[111.0239,-7.3991],[111.0245,-7.3967],[111.0225,-7.3952],[111.0226,-7.3914],[111.0281,-7.3882],[111.0226,-7.3783],[111.0317,-7.3781],[111.0337,-7.3809],[111.0379,-7.3776]]]}},{"type":"Feature","properties":{"name":"Bener","name_en":"Bener","admin_level":"7","osm_id":""},"geometry":{"type":"Polygon","coordinates":[[[111.072,-7.4026],[111.0737,-7.4041],[111.0721,-7.405],[111.0736,-7.4067],[111.0702,-7.4094],[111.071,-7.4171],[111.0542,-7.4216],[111.0543,-7.4114],[111.0567,-7.4082],[111.059,-7.4092],[111.0605,-7.4078],[111.0573,-7.4045],[111.0597,-7.4029],[111.0578,-7.3985],[111.0639,-7.393],[111.067,-7.3965],[111.0654,-7.3978],[111.0674,-7.3971],[111.0701,-7.4026],[111.072,-7.4026]]]}},{"type":"Feature","properties":{"name":"Gabus","name_en":"Gabus","admin_level":"7","osm_id":""},"geometry":{"type":"Polygon","coordinates":[[[111.0427,-7.3842],[111.0283,-7.3641],[111.0421,-7.3625],[111.0431,-7.3575],[111.0488,-7.3527],[111.0518,-7.3555],[111.0608,-7.3518],[111.058,-7.371],[111.0551,-7.3703],[111.0507,-7.3726],[111.0535,-7.3764],[111.0427,-7.3842]]]}},{"type":"Feature","properties":{"name":"Karangudi","name_en":"Karangudi","admin_level":"7","osm_id":""},"geometry":{"type":"Polygon","coordinates":[[[111.017,-7.3538],[111.0202,-7.3531],[111.0203,-7.3501],[111.0222,-7.3487],[111.0273,-7.3506],[111.0309,-7.3486],[111.0342,-7.3493],[111.0327,-7.3508],[111.0373,-7.3537],[111.0393,-7.3577],[111.0434,-7.3585],[111.0421,-7.3625],[111.0175,-7.3643],[111.017,-7.3538]]]}},{"type":"Feature","properties":{"name":"Kebonromo","name_en":"Kebonromo","admin_level":"7","osm_id":""},"geometry":{"type":"Polygon","coordinates":[[[111.074,-7.3906],[111.072,-7.3929],[111.0742,-7.3976],[111.072,-7.4026],[111.0701,-7.4026],[111.0674,-7.3971],[111.0654,-7.3978],[111.067,-7.3965],[111.0639,-7.393],[111.058,-7.3984],[111.0535,-7.3993],[111.0427,-7.3842],[111.0535,-7.3764],[111.0507,-7.3726],[111.0555,-7.3704],[111.0623,-7.372],[111.0621,-7.3743],[111.0596,-7.3759],[111.0711,-7.3891],[111.074,-7.3906]]]}},{"type":"Feature","properties":{"name":"Klandungan","name_en":"Klandungan","admin_level":"7","osm_id":""},"geometry":{"type":"Polygon","coordinates":[[[111.0617,-7.3393],[111.0608,-7.3518],[111.0593,-7.3525],[111.0518,-7.3555],[111.0488,-7.3527],[111.0416,-7.3591],[111.0357,-7.352],[111.0327,-7.3508],[111.0351,-7.3483],[111.0337,-7.3443],[111.0383,-7.3421],[111.0457,-7.3426],[111.0542,-7.3468],[111.0556,-7.3357],[111.0593,-7.3351],[111.0617,-7.3393]]]}},{"type":"Feature","properties":{"name":"Ngarum","name_en":"Ngarum","admin_level":"7","osm_id":""},"geometry":{"type":"Polygon","coordinates":[[[111.0733,-7.4414],[111.0753,-7.4509],[111.0717,-7.4512],[111.0691,-7.4439],[111.0595,-7.4456],[111.0587,-7.4432],[111.0608,-7.4385],[111.0587,-7.4323],[111.0551,-7.4297],[111.0542,-7.4216],[111.071,-7.4171],[111.0715,-7.4215],[111.0749,-7.4271],[111.0719,-7.433],[111.0733,-7.4414]]]}},{"type":"Feature","properties":{"name":"Pilangsari","name_en":"Pilangsari","admin_level":"7","osm_id":""},"geometry":{"type":"Polygon","coordinates":[[[111.0542,-7.4216],[111.0439,-7.4243],[111.0462,-7.4202],[111.0455,-7.4118],[111.0477,-7.4074],[111.0446,-7.4052],[111.0414,-7.4052],[111.0425,-7.4036],[111.0377,-7.3953],[111.051,-7.3957],[111.0535,-7.3993],[111.0578,-7.3985],[111.0597,-7.4029],[111.0573,-7.4045],[111.0605,-7.4078],[111.059,-7.4092],[111.0567,-7.4082],[111.0543,-7.4114],[111.0542,-7.4216]]]}}]}