{"type":"FeatureCollection","metadata":{"parent_osm_id":"gid_IDN_12_2_7_1","parent_name":"DanauSentarum","parent_name_1":"KalimantanBarat","parent_gid":"IDN.12.2.7_1","parent_level":"6","child_level":"7","count":5,"source":"GADM 4.1","generated":"2026-05-09"},"features":[{"type":"Feature","properties":{"name":"Mawan","name_en":"Mawan","admin_level":"7","osm_id":""},"geometry":{"type":"Polygon","coordinates":[[[112.1588,0.6946],[112.1737,0.704],[112.182,0.7036],[112.2012,0.6977],[112.208,0.6985],[112.2089,0.6899],[112.2061,0.6782],[112.2007,0.6663],[112.1979,0.667],[112.1937,0.672],[112.1782,0.667],[112.1699,0.672],[112.1607,0.6729],[112.1561,0.6702],[112.1588,0.6946]]]}},{"type":"Feature","properties":{"name":"NangaLeboyan","name_en":"NangaLeboyan","admin_level":"7","osm_id":""},"geometry":{"type":"Polygon","coordinates":[[[112.1772,0.8821],[112.1781,0.8783],[112.1826,0.8786],[112.1847,0.8739],[112.1872,0.874],[112.1927,0.8799],[112.1956,0.8793],[112.1977,0.8717],[112.202,0.8669],[112.2077,0.8677],[112.2105,0.8617],[112.2196,0.8525],[112.2281,0.8506],[112.2391,0.8328],[112.2377,0.8139],[112.2433,0.7988],[112.2444,0.7907],[112.2343,0.7825],[112.2317,0.7778],[112.2186,0.7778],[112.2049,0.7734],[112.1992,0.7678],[112.1987,0.765],[112.1962,0.7645],[112.1929,0.7683],[112.1862,0.767],[112.1804,0.7624],[112.1753,0.7607],[112.1687,0.7632],[112.1624,0.7687],[112.1553,0.7708],[112.1475,0.7783],[112.1444,0.8077],[112.1449,0.8169],[112.1412,0.821],[112.1238,0.8266],[112.1053,0.8375],[112.0944,0.8492],[112.079,0.874],[112.0844,0.886],[112.0902,0.8885],[112.0981,0.8877],[112.109,0.899],[112.1178,0.9011],[112.127,0.8961],[112.1374,0.8948],[112.1566,0.8834],[112.1772,0.8821]]]}},{"type":"Feature","properties":{"name":"Sekulat","name_en":"Sekulat","admin_level":"7","osm_id":""},"geometry":{"type":"Polygon","coordinates":[[[111.9977,0.8527],[111.9986,0.8556],[112.0022,0.8577],[112.0026,0.8677],[112.0075,0.8767],[112.0133,0.903],[112.0203,0.9046],[112.0251,0.9082],[112.0292,0.9153],[112.0293,0.9247],[112.0351,0.9218],[112.0444,0.9138],[112.0641,0.8944],[112.0758,0.8795],[112.0944,0.8492],[112.1053,0.8375],[112.1238,0.8266],[112.1412,0.821],[112.1449,0.8169],[112.1444,0.8077],[112.1472,0.7791],[112.1516,0.7649],[112.148,0.7125],[112.1494,0.6979],[112.1436,0.6927],[112.1394,0.6964],[112.1369,0.7031],[112.1269,0.7162],[112.1198,0.7158],[112.114,0.7124],[112.106,0.6985],[112.0902,0.6897],[112.0826,0.6906],[112.0751,0.6943],[112.0576,0.72],[112.0496,0.7277],[112.0501,0.7314],[112.0653,0.761],[112.0663,0.7742],[112.0528,0.7866],[112.034,0.7993],[112.0215,0.8188],[112.0253,0.8347],[112.0302,0.8367],[112.0294,0.8407],[112.0213,0.8431],[112.0171,0.8516],[111.9977,0.8527]]]}},{"type":"Feature","properties":{"name":"Semalah","name_en":"Semalah","admin_level":"7","osm_id":""},"geometry":{"type":"Polygon","coordinates":[[[112.0293,0.9247],[112.0271,0.9319],[112.0255,0.952],[112.0257,0.9596],[112.0288,0.9699],[112.0337,0.9764],[112.0402,0.9808],[112.0501,0.9848],[112.0612,0.9856],[112.0779,0.9821],[112.0868,0.9706],[112.0967,0.9624],[112.1119,0.9609],[112.1179,0.9589],[112.1382,0.9477],[112.1504,0.9502],[112.1621,0.943],[112.1766,0.9428],[112.179,0.9416],[112.1795,0.9371],[112.1826,0.9325],[112.1876,0.931],[112.1959,0.9251],[112.1964,0.9225],[112.1916,0.921],[112.188,0.9167],[112.1875,0.9141],[112.1919,0.9118],[112.1907,0.9073],[112.1855,0.9045],[112.1844,0.8999],[112.1778,0.896],[112.1766,0.8931],[112.1772,0.8821],[112.1566,0.8834],[112.1374,0.8948],[112.127,0.8961],[112.1178,0.9011],[112.109,0.899],[112.0981,0.8877],[112.0902,0.8885],[112.0844,0.886],[112.079,0.874],[112.0641,0.8944],[112.0544,0.9045],[112.0351,0.9218],[112.0293,0.9247]]]}},{"type":"Feature","properties":{"name":"Vega","name_en":"Vega","admin_level":"7","osm_id":""},"geometry":{"type":"Polygon","coordinates":[[[112.208,0.6985],[112.2012,0.6977],[112.182,0.7036],[112.1737,0.704],[112.1588,0.6946],[112.1549,0.6996],[112.1494,0.6979],[112.148,0.7125],[112.1516,0.7649],[112.1475,0.7783],[112.1553,0.7708],[112.1624,0.7687],[112.1687,0.7632],[112.1753,0.7607],[112.1804,0.7624],[112.1862,0.767],[112.1929,0.7683],[112.1962,0.7645],[112.1987,0.765],[112.1956,0.7496],[112.2025,0.7165],[112.208,0.6985]]]}}]}