{"type":"FeatureCollection","metadata":{"parent_osm_id":"gid_IDN_13_8_5_1","parent_name":"Banjang","parent_name_1":"KalimantanSelatan","parent_gid":"IDN.13.8.5_1","parent_level":"6","child_level":"7","count":20,"source":"GADM 4.1","generated":"2026-05-09"},"features":[{"type":"Feature","properties":{"name":"Banjang","name_en":"Banjang","admin_level":"7","osm_id":""},"geometry":{"type":"Polygon","coordinates":[[[115.3147,-2.4045],[115.3162,-2.4112],[115.3246,-2.4109],[115.3284,-2.4158],[115.311,-2.4272],[115.3091,-2.4254],[115.3111,-2.4245],[115.3137,-2.4164],[115.3085,-2.4032],[115.3147,-2.4045]]]}},{"type":"Feature","properties":{"name":"BaruhTabing","name_en":"BaruhTabing","admin_level":"7","osm_id":""},"geometry":{"type":"Polygon","coordinates":[[[115.2953,-2.4022],[115.2977,-2.4017],[115.3045,-2.4066],[115.2977,-2.4113],[115.2965,-2.4083],[115.2931,-2.4084],[115.2953,-2.4022]]]}},{"type":"Feature","properties":{"name":"Beringin","name_en":"Beringin","admin_level":"7","osm_id":""},"geometry":{"type":"Polygon","coordinates":[[[115.3163,-2.4009],[115.3188,-2.4024],[115.3203,-2.4015],[115.3362,-2.4111],[115.3284,-2.4158],[115.3246,-2.4109],[115.3162,-2.4112],[115.3147,-2.4045],[115.315,-2.4014],[115.3163,-2.4009]]]}},{"type":"Feature","properties":{"name":"DanauTerate","name_en":"DanauTerate","admin_level":"7","osm_id":""},"geometry":{"type":"Polygon","coordinates":[[[115.2671,-2.408],[115.2725,-2.4015],[115.2797,-2.3981],[115.2831,-2.3977],[115.2953,-2.4022],[115.2929,-2.4067],[115.2876,-2.4078],[115.2853,-2.4102],[115.27,-2.4102],[115.2671,-2.408]]]}},{"type":"Feature","properties":{"name":"Garunggang","name_en":"Garunggang","admin_level":"7","osm_id":""},"geometry":{"type":"Polygon","coordinates":[[[115.2929,-2.4067],[115.2936,-2.4093],[115.2965,-2.4083],[115.2977,-2.4113],[115.2876,-2.417],[115.2853,-2.4094],[115.2929,-2.4067]]]}},{"type":"Feature","properties":{"name":"Kalintamui","name_en":"Kalintamui","admin_level":"7","osm_id":""},"geometry":{"type":"Polygon","coordinates":[[[115.3085,-2.4032],[115.3137,-2.4164],[115.3111,-2.4245],[115.3026,-2.4082],[115.3085,-2.4032]]]}},{"type":"Feature","properties":{"name":"KaludanBesar","name_en":"KaludanBesar","admin_level":"7","osm_id":""},"geometry":{"type":"Polygon","coordinates":[[[115.3091,-2.4254],[115.311,-2.4272],[115.2966,-2.4362],[115.287,-2.419],[115.2892,-2.4186],[115.2901,-2.415],[115.2939,-2.4138],[115.2984,-2.4204],[115.3009,-2.42],[115.3048,-2.4232],[115.3059,-2.4263],[115.3091,-2.4254]]]}},{"type":"Feature","properties":{"name":"KaludanKecil","name_en":"KaludanKecil","admin_level":"7","osm_id":""},"geometry":{"type":"Polygon","coordinates":[[[115.2872,-2.4195],[115.2966,-2.4362],[115.2892,-2.441],[115.2799,-2.4197],[115.2872,-2.4195]]]}},{"type":"Feature","properties":{"name":"KariasDalam","name_en":"KariasDalam","admin_level":"7","osm_id":""},"geometry":{"type":"Polygon","coordinates":[[[115.2765,-2.4369],[115.2617,-2.4407],[115.266,-2.436],[115.2665,-2.4273],[115.271,-2.4224],[115.274,-2.4222],[115.2765,-2.4369]]]}},{"type":"Feature","properties":{"name":"LokBangkai","name_en":"LokBangkai","admin_level":"7","osm_id":""},"geometry":{"type":"Polygon","coordinates":[[[115.2655,-2.4187],[115.2652,-2.4138],[115.2664,-2.4133],[115.2684,-2.4141],[115.2673,-2.4158],[115.2692,-2.417],[115.278,-2.4191],[115.28,-2.4162],[115.2828,-2.4154],[115.2827,-2.4192],[115.2872,-2.4195],[115.2655,-2.4187]]]}},{"type":"Feature","properties":{"name":"MurungPadang","name_en":"MurungPadang","admin_level":"7","osm_id":""},"geometry":{"type":"Polygon","coordinates":[[[115.3155,-2.3972],[115.3163,-2.4009],[115.3148,-2.4033],[115.3132,-2.4032],[115.3125,-2.4],[115.2998,-2.3983],[115.3026,-2.3952],[115.3155,-2.3972]]]}},{"type":"Feature","properties":{"name":"PalanjunganSari","name_en":"PalanjunganSari","admin_level":"7","osm_id":""},"geometry":{"type":"Polygon","coordinates":[[[115.3111,-2.4245],[115.3059,-2.4263],[115.3027,-2.4213],[115.2984,-2.4204],[115.2939,-2.4138],[115.2948,-2.4125],[115.3026,-2.4082],[115.3111,-2.4245]]]}},{"type":"Feature","properties":{"name":"Pandulangan","name_en":"Pandulangan","admin_level":"7","osm_id":""},"geometry":{"type":"Polygon","coordinates":[[[115.2781,-2.41],[115.2853,-2.4102],[115.2892,-2.4186],[115.2831,-2.4195],[115.283,-2.4158],[115.2806,-2.4159],[115.2781,-2.41]]]}},{"type":"Feature","properties":{"name":"Patarikan","name_en":"Patarikan","admin_level":"7","osm_id":""},"geometry":{"type":"Polygon","coordinates":[[[115.2645,-2.4181],[115.263,-2.4171],[115.2633,-2.4122],[115.2671,-2.408],[115.27,-2.4102],[115.2701,-2.4157],[115.2673,-2.4158],[115.2684,-2.4141],[115.2656,-2.4133],[115.2645,-2.4181]]]}},{"type":"Feature","properties":{"name":"Pawalutan","name_en":"Pawalutan","admin_level":"7","osm_id":""},"geometry":{"type":"Polygon","coordinates":[[[115.3709,-2.494],[115.3618,-2.4929],[115.3491,-2.4828],[115.3507,-2.4922],[115.3316,-2.501],[115.2826,-2.4452],[115.3025,-2.4325],[115.391,-2.4711],[115.3791,-2.4923],[115.3755,-2.4943],[115.3709,-2.494]]]}},{"type":"Feature","properties":{"name":"PulauDamar","name_en":"PulauDamar","admin_level":"7","osm_id":""},"geometry":{"type":"Polygon","coordinates":[[[115.3725,-2.4265],[115.3854,-2.435],[115.4037,-2.4427],[115.391,-2.4711],[115.3025,-2.4325],[115.3362,-2.4111],[115.3725,-2.4265]]]}},{"type":"Feature","properties":{"name":"RantauBujur","name_en":"RantauBujur","admin_level":"7","osm_id":""},"geometry":{"type":"Polygon","coordinates":[[[115.2826,-2.4452],[115.2762,-2.4386],[115.274,-2.4222],[115.271,-2.4224],[115.2732,-2.4187],[115.2799,-2.4197],[115.2891,-2.441],[115.2826,-2.4452]]]}},{"type":"Feature","properties":{"name":"SungaiBahadangan","name_en":"SungaiBahadangan","admin_level":"7","osm_id":""},"geometry":{"type":"Polygon","coordinates":[[[115.2686,-2.4245],[115.2655,-2.421],[115.2655,-2.4187],[115.2732,-2.4187],[115.2686,-2.4245]]]}},{"type":"Feature","properties":{"name":"TelukBuluh","name_en":"TelukBuluh","admin_level":"7","osm_id":""},"geometry":{"type":"Polygon","coordinates":[[[115.27,-2.4102],[115.2781,-2.41],[115.2806,-2.4159],[115.2787,-2.4187],[115.2676,-2.4162],[115.2701,-2.4157],[115.27,-2.4102]]]}},{"type":"Feature","properties":{"name":"TelukSarikat","name_en":"TelukSarikat","admin_level":"7","osm_id":""},"geometry":{"type":"Polygon","coordinates":[[[115.2977,-2.4017],[115.2998,-2.3983],[115.3106,-2.3996],[115.3125,-2.4],[115.3149,-2.4042],[115.3139,-2.4053],[115.3083,-2.4033],[115.3045,-2.4066],[115.2977,-2.4017]]]}}]}