{"type":"FeatureCollection","metadata":{"parent_osm_id":"gid_IDN_30_7_6_1","parent_name":"KapurIx","parent_name_1":"SumateraBarat","parent_gid":"IDN.30.7.6_1","parent_level":"6","child_level":"7","count":7,"source":"GADM 4.1","generated":"2026-05-08"},"features":[{"type":"Feature","properties":{"name":"DurianTinggi","name_en":"DurianTinggi","admin_level":"7","osm_id":""},"geometry":{"type":"Polygon","coordinates":[[[100.4612,0.3462],[100.4629,0.3312],[100.4676,0.3199],[100.473,0.3135],[100.4852,0.3083],[100.4936,0.3079],[100.5029,0.3113],[100.5185,0.3213],[100.5274,0.3451],[100.534,0.3406],[100.5381,0.3338],[100.509,0.2652],[100.502,0.2268],[100.4936,0.226],[100.485,0.2225],[100.4665,0.2557],[100.4624,0.2736],[100.4584,0.3156],[100.457,0.345],[100.4612,0.3462]]]}},{"type":"Feature","properties":{"name":"Galugua","name_en":"Galugua","admin_level":"7","osm_id":""},"geometry":{"type":"Polygon","coordinates":[[[100.4502,0.4074],[100.454,0.3951],[100.4572,0.3616],[100.4612,0.3507],[100.4612,0.3462],[100.457,0.345],[100.4589,0.3079],[100.4444,0.3063],[100.4189,0.3095],[100.4086,0.3074],[100.3632,0.3052],[100.3135,0.3091],[100.32,0.3147],[100.329,0.3329],[100.3321,0.3359],[100.3322,0.338],[100.328,0.3438],[100.3334,0.3515],[100.3242,0.3576],[100.3232,0.3609],[100.3262,0.3642],[100.3256,0.3665],[100.3195,0.3676],[100.3116,0.3778],[100.303,0.3843],[100.3005,0.3966],[100.3134,0.3982],[100.3196,0.403],[100.3376,0.3907],[100.3442,0.3845],[100.3472,0.3843],[100.3641,0.3903],[100.3661,0.3948],[100.3758,0.3893],[100.3892,0.399],[100.4025,0.4059],[100.4099,0.4147],[100.4165,0.4178],[100.4198,0.4239],[100.4221,0.4244],[100.431,0.4218],[100.4382,0.4131],[100.4502,0.4074]]]}},{"type":"Feature","properties":{"name":"KotoBangun","name_en":"KotoBangun","admin_level":"7","osm_id":""},"geometry":{"type":"Polygon","coordinates":[[[100.5318,0.3186],[100.5359,0.3118],[100.5415,0.3074],[100.5546,0.3028],[100.5643,0.2971],[100.5757,0.2808],[100.5515,0.2602],[100.5432,0.2492],[100.5349,0.2439],[100.5318,0.2378],[100.5291,0.2206],[100.5102,0.2269],[100.502,0.2268],[100.509,0.2652],[100.5318,0.3186]]]}},{"type":"Feature","properties":{"name":"KotoLamo","name_en":"KotoLamo","admin_level":"7","osm_id":""},"geometry":{"type":"Polygon","coordinates":[[[100.3971,0.0878],[100.3937,0.0797],[100.3869,0.1379],[100.394,0.171],[100.4047,0.1868],[100.4209,0.1976],[100.4468,0.1992],[100.457,0.2042],[100.4786,0.2199],[100.499,0.2268],[100.5102,0.2269],[100.5291,0.2206],[100.5331,0.216],[100.5431,0.2101],[100.5522,0.2002],[100.5484,0.1702],[100.5497,0.1404],[100.5472,0.1267],[100.5448,0.121],[100.5402,0.1205],[100.5331,0.1156],[100.5304,0.1108],[100.5233,0.1042],[100.5126,0.1038],[100.4882,0.1161],[100.4737,0.1126],[100.4613,0.116],[100.4534,0.1165],[100.4468,0.1204],[100.4305,0.1226],[100.4199,0.1187],[100.4091,0.1104],[100.3971,0.0878]]]}},{"type":"Feature","properties":{"name":"LubuakAlai","name_en":"LubuakAlai","admin_level":"7","osm_id":""},"geometry":{"type":"Polygon","coordinates":[[[100.6227,0.2314],[100.6301,0.219],[100.6285,0.2138],[100.6205,0.2107],[100.6235,0.1989],[100.6186,0.1927],[100.622,0.1821],[100.6207,0.1776],[100.6038,0.1596],[100.5979,0.1562],[100.5497,0.1404],[100.5484,0.1702],[100.5528,0.205],[100.5618,0.2214],[100.5693,0.2281],[100.5934,0.2427],[100.6088,0.2498],[100.6227,0.2314]]]}},{"type":"Feature","properties":{"name":"MuaroPaiti","name_en":"MuaroPaiti","admin_level":"7","osm_id":""},"geometry":{"type":"Polygon","coordinates":[[[100.5914,0.2692],[100.5958,0.266],[100.6088,0.2498],[100.5946,0.2433],[100.5693,0.2281],[100.5592,0.2181],[100.554,0.2092],[100.5522,0.2002],[100.5431,0.2101],[100.5331,0.216],[100.5291,0.2206],[100.5327,0.2404],[100.5365,0.2456],[100.5432,0.2492],[100.5555,0.264],[100.5757,0.2808],[100.5841,0.2727],[100.5914,0.2692]]]}},{"type":"Feature","properties":{"name":"Sialang","name_en":"Sialang","admin_level":"7","osm_id":""},"geometry":{"type":"Polygon","coordinates":[[[100.3937,0.0797],[100.3911,0.0748],[100.3827,0.0683],[100.3748,0.0519],[100.3704,0.0467],[100.3611,0.0432],[100.3376,0.0428],[100.3302,0.0523],[100.3274,0.0637],[100.3167,0.0835],[100.3158,0.0878],[100.3249,0.102],[100.324,0.1075],[100.3209,0.1112],[100.3204,0.1143],[100.3208,0.1186],[100.324,0.1232],[100.324,0.1367],[100.328,0.145],[100.3282,0.1497],[100.3495,0.1706],[100.3515,0.1804],[100.342,0.205],[100.3366,0.2108],[100.3327,0.2194],[100.3325,0.2275],[100.3294,0.2345],[100.3321,0.2527],[100.3193,0.2741],[100.3158,0.2744],[100.3198,0.2865],[100.3153,0.2881],[100.3087,0.3002],[100.3101,0.3057],[100.3135,0.3091],[100.3632,0.3052],[100.4086,0.3074],[100.4189,0.3095],[100.4444,0.3063],[100.4589,0.3079],[100.4629,0.2696],[100.4665,0.2557],[100.485,0.2225],[100.4786,0.2199],[100.457,0.2042],[100.4468,0.1992],[100.4209,0.1976],[100.4047,0.1868],[100.394,0.171],[100.3869,0.1379],[100.3937,0.0797]]]}}]}