{"type":"FeatureCollection","metadata":{"parent_osm_id":"gid_IDN_23_10_6_1","parent_name":"TelukAmpimoi","parent_name_1":"Papua","parent_gid":"IDN.23.10.6_1","parent_level":"6","child_level":"7","count":9,"source":"GADM 4.1","generated":"2026-05-08"},"features":[{"type":"Feature","properties":{"name":"Ampimoi","name_en":"Ampimoi","admin_level":"7","osm_id":""},"geometry":{"type":"Polygon","coordinates":[[[136.5069,-1.8489],[136.5029,-1.8495],[136.5025,-1.8576],[136.509,-1.8595],[136.5161,-1.8692],[136.5222,-1.8735],[136.5225,-1.8761],[136.5145,-1.8807],[136.4933,-1.8641],[136.4834,-1.8611],[136.4858,-1.8469],[136.4856,-1.8379],[136.4809,-1.7952],[136.503,-1.7962],[136.5064,-1.811],[136.5069,-1.8489]]]}},{"type":"Feature","properties":{"name":"Ayari","name_en":"Ayari","admin_level":"7","osm_id":""},"geometry":{"type":"Polygon","coordinates":[[[136.5069,-1.8489],[136.5064,-1.811],[136.503,-1.7962],[136.5206,-1.7969],[136.5205,-1.849],[136.5171,-1.8578],[136.5143,-1.8565],[136.5153,-1.8552],[136.5109,-1.8517],[136.5105,-1.849],[136.5069,-1.8489]]]}},{"type":"Feature","properties":{"name":"Bareraipi","name_en":"Bareraipi","admin_level":"7","osm_id":""},"geometry":{"type":"Polygon","coordinates":[[[136.4703,-1.8847],[136.4692,-1.8849],[136.4687,-1.8787],[136.4668,-1.8767],[136.4698,-1.8742],[136.4669,-1.8729],[136.4665,-1.8605],[136.4634,-1.8578],[136.4618,-1.8531],[136.4628,-1.8507],[136.4612,-1.8489],[136.4622,-1.8474],[136.4599,-1.8452],[136.4611,-1.8389],[136.467,-1.8318],[136.4659,-1.8294],[136.4611,-1.829],[136.4505,-1.822],[136.4521,-1.8153],[136.4497,-1.8121],[136.4442,-1.7937],[136.4809,-1.7952],[136.4856,-1.8379],[136.4858,-1.8469],[136.4834,-1.8611],[136.4933,-1.8641],[136.5145,-1.8807],[136.5096,-1.8832],[136.5039,-1.8837],[136.5027,-1.881],[136.4987,-1.8796],[136.4949,-1.8823],[136.4973,-1.8837],[136.4958,-1.8857],[136.4938,-1.8835],[136.4907,-1.8829],[136.4915,-1.8816],[136.4895,-1.8799],[136.4857,-1.8792],[136.4806,-1.8843],[136.4703,-1.8847]]]}},{"type":"Feature","properties":{"name":"Karoaipi","name_en":"Karoaipi","admin_level":"7","osm_id":""},"geometry":{"type":"Polygon","coordinates":[[[136.5292,-1.8812],[136.5348,-1.8818],[136.531,-1.8853],[136.5357,-1.8877],[136.537,-1.8902],[136.5384,-1.8892],[136.5385,-1.8924],[136.5438,-1.8929],[136.5444,-1.889],[136.5461,-1.8902],[136.5481,-1.8893],[136.5468,-1.8965],[136.5371,-1.8976],[136.5364,-1.8993],[136.535,-1.8979],[136.5323,-1.8981],[136.531,-1.895],[136.5294,-1.8955],[136.5269,-1.8933],[136.5238,-1.8943],[136.5191,-1.8924],[136.5167,-1.8955],[136.5118,-1.8923],[136.5113,-1.89],[136.5166,-1.8891],[136.5292,-1.8812]]]}},{"type":"Feature","properties":{"name":"Randawaya","name_en":"Randawaya","admin_level":"7","osm_id":""},"geometry":{"type":"Polygon","coordinates":[[[136.5183,-1.8549],[136.5205,-1.849],[136.5206,-1.7969],[136.5364,-1.7976],[136.5355,-1.8536],[136.5334,-1.8617],[136.5183,-1.8549]]]}},{"type":"Feature","properties":{"name":"Tarei","name_en":"Tarei","admin_level":"7","osm_id":""},"geometry":{"type":"Polygon","coordinates":[[[136.5997,-1.8643],[136.597,-1.8631],[136.5951,-1.865],[136.5865,-1.8635],[136.5755,-1.8649],[136.5698,-1.8629],[136.5626,-1.868],[136.5586,-1.8633],[136.5564,-1.8493],[136.5556,-1.7984],[136.5972,-1.798],[136.6,-1.8019],[136.5996,-1.8381],[136.6016,-1.8432],[136.6015,-1.859],[136.5987,-1.8615],[136.5997,-1.8643]]]}},{"type":"Feature","properties":{"name":"Wabuayar","name_en":"Wabuayar","admin_level":"7","osm_id":""},"geometry":{"type":"Polygon","coordinates":[[[136.5145,-1.8807],[136.5225,-1.8761],[136.5272,-1.8781],[136.5287,-1.8809],[136.5166,-1.8891],[136.5113,-1.89],[136.5042,-1.8851],[136.5039,-1.8837],[136.5096,-1.8832],[136.5145,-1.8807]]]}},{"type":"Feature","properties":{"name":"Waita","name_en":"Waita","admin_level":"7","osm_id":""},"geometry":{"type":"Polygon","coordinates":[[[136.5334,-1.8617],[136.5355,-1.8536],[136.5364,-1.7976],[136.5556,-1.7984],[136.5564,-1.8493],[136.5586,-1.8633],[136.5626,-1.868],[136.5508,-1.8705],[136.5492,-1.8672],[136.5449,-1.8655],[136.5376,-1.8696],[136.5347,-1.8693],[136.5328,-1.8677],[136.5334,-1.8617]]]}},{"type":"Feature","properties":{"name":"Warironi","name_en":"Warironi","admin_level":"7","osm_id":""},"geometry":{"type":"Polygon","coordinates":[[[136.5171,-1.8578],[136.5183,-1.8549],[136.5334,-1.8617],[136.5328,-1.8677],[136.5302,-1.8674],[136.5282,-1.8637],[136.5171,-1.8578]]]}}]}