{"type":"FeatureCollection","metadata":{"parent_osm_id":"gid_IDN_9_4_6_1","parent_name":"CikarangBarat","parent_name_1":"JawaBarat","parent_gid":"IDN.9.4.6_1","parent_level":"6","child_level":"7","count":11,"source":"GADM 4.1","generated":"2026-05-09"},"features":[{"type":"Feature","properties":{"name":"Cikedokan","name_en":"Cikedokan","admin_level":"7","osm_id":""},"geometry":{"type":"Polygon","coordinates":[[[107.0732,-6.3242],[107.0801,-6.3261],[107.084,-6.3222],[107.0861,-6.3245],[107.0913,-6.326],[107.0916,-6.3276],[107.1021,-6.3294],[107.1032,-6.3311],[107.0973,-6.3354],[107.0957,-6.3341],[107.0952,-6.3356],[107.0921,-6.3363],[107.0927,-6.339],[107.0911,-6.3383],[107.0907,-6.3409],[107.089,-6.3406],[107.0898,-6.3423],[107.0857,-6.3414],[107.0855,-6.3449],[107.0839,-6.342],[107.079,-6.3468],[107.0764,-6.3471],[107.0765,-6.3395],[107.0696,-6.3389],[107.0676,-6.3329],[107.0732,-6.3242]]]}},{"type":"Feature","properties":{"name":"Danauindah","name_en":"Danauindah","admin_level":"7","osm_id":""},"geometry":{"type":"Polygon","coordinates":[[[107.0943,-6.3037],[107.093,-6.301],[107.0999,-6.2921],[107.1151,-6.3006],[107.1112,-6.3038],[107.1169,-6.3056],[107.1161,-6.307],[107.118,-6.3096],[107.1153,-6.3111],[107.1119,-6.3103],[107.1114,-6.3127],[107.1066,-6.3116],[107.1078,-6.3091],[107.1026,-6.3064],[107.0955,-6.3062],[107.0943,-6.3037]]]}},{"type":"Feature","properties":{"name":"Gandamekar","name_en":"Gandamekar","admin_level":"7","osm_id":""},"geometry":{"type":"Polygon","coordinates":[[[107.0696,-6.3063],[107.0685,-6.3037],[107.0732,-6.3001],[107.0727,-6.2967],[107.0776,-6.2973],[107.0808,-6.2915],[107.0842,-6.29],[107.0835,-6.2871],[107.0864,-6.2839],[107.0896,-6.2814],[107.0973,-6.2825],[107.0975,-6.2885],[107.0962,-6.2904],[107.0999,-6.2921],[107.093,-6.301],[107.0943,-6.3037],[107.0886,-6.3064],[107.0696,-6.3063]]]}},{"type":"Feature","properties":{"name":"Gandasari","name_en":"Gandasari","admin_level":"7","osm_id":""},"geometry":{"type":"Polygon","coordinates":[[[107.0703,-6.3026],[107.068,-6.3004],[107.0704,-6.297],[107.0692,-6.2942],[107.0704,-6.2871],[107.0732,-6.2875],[107.0729,-6.2836],[107.0743,-6.2829],[107.0794,-6.2845],[107.0812,-6.2758],[107.0831,-6.2738],[107.0808,-6.2723],[107.0811,-6.27],[107.0826,-6.2681],[107.0914,-6.2712],[107.0911,-6.274],[107.0941,-6.2751],[107.0927,-6.2762],[107.0923,-6.2817],[107.0896,-6.2814],[107.0864,-6.2839],[107.0835,-6.2871],[107.0842,-6.29],[107.0808,-6.2915],[107.0773,-6.2976],[107.0727,-6.2967],[107.0732,-6.3001],[107.0703,-6.3026]]]}},{"type":"Feature","properties":{"name":"Jatiwangi","name_en":"Jatiwangi","admin_level":"7","osm_id":""},"geometry":{"type":"Polygon","coordinates":[[[107.1021,-6.3294],[107.0916,-6.3276],[107.0913,-6.326],[107.0861,-6.3245],[107.084,-6.3222],[107.0801,-6.3261],[107.0769,-6.326],[107.0732,-6.3242],[107.0735,-6.3208],[107.0814,-6.3169],[107.0912,-6.317],[107.0954,-6.3099],[107.0955,-6.3062],[107.1026,-6.3064],[107.1078,-6.3091],[107.1066,-6.3116],[107.1152,-6.3139],[107.1161,-6.3171],[107.1099,-6.3184],[107.1126,-6.3188],[107.1115,-6.3204],[107.1077,-6.3195],[107.11,-6.3242],[107.1055,-6.3231],[107.1073,-6.326],[107.1053,-6.3251],[107.1021,-6.3294]]]}},{"type":"Feature","properties":{"name":"Kalijaya","name_en":"Kalijaya","admin_level":"7","osm_id":""},"geometry":{"type":"Polygon","coordinates":[[[107.1298,-6.2428],[107.1457,-6.2498],[107.1433,-6.2519],[107.1418,-6.2512],[107.1426,-6.2536],[107.1409,-6.2566],[107.1426,-6.2568],[107.1421,-6.2593],[107.1371,-6.2653],[107.137,-6.268],[107.1329,-6.268],[107.1329,-6.2693],[107.1299,-6.2697],[107.1282,-6.2732],[107.1248,-6.2731],[107.1219,-6.2759],[107.1195,-6.2746],[107.1197,-6.2686],[107.1271,-6.2663],[107.1258,-6.2643],[107.1298,-6.2428]]]}},{"type":"Feature","properties":{"name":"Mekarwangi","name_en":"Mekarwangi","admin_level":"7","osm_id":""},"geometry":{"type":"Polygon","coordinates":[[[107.0584,-6.3062],[107.0886,-6.3064],[107.0943,-6.3037],[107.0961,-6.3073],[107.0912,-6.317],[107.0781,-6.3177],[107.0736,-6.3206],[107.0732,-6.3225],[107.0689,-6.3214],[107.0662,-6.3159],[107.0563,-6.3135],[107.0584,-6.3062]]]}},{"type":"Feature","properties":{"name":"Sukadanau","name_en":"Sukadanau","admin_level":"7","osm_id":""},"geometry":{"type":"Polygon","coordinates":[[[107.1151,-6.3006],[107.0962,-6.2904],[107.0975,-6.2885],[107.0973,-6.2825],[107.0923,-6.2817],[107.0927,-6.2762],[107.0941,-6.2751],[107.0911,-6.274],[107.0913,-6.2713],[107.1007,-6.274],[107.1197,-6.2694],[107.1195,-6.2746],[107.1163,-6.2779],[107.119,-6.2776],[107.1178,-6.2797],[107.1197,-6.2849],[107.1194,-6.2896],[107.1162,-6.2934],[107.117,-6.2969],[107.1143,-6.2983],[107.1151,-6.3006]]]}},{"type":"Feature","properties":{"name":"TelagaAsih","name_en":"TelagaAsih","admin_level":"7","osm_id":""},"geometry":{"type":"Polygon","coordinates":[[[107.0918,-6.2605],[107.1063,-6.2588],[107.1083,-6.2643],[107.107,-6.2699],[107.1085,-6.2724],[107.0998,-6.274],[107.083,-6.2683],[107.0857,-6.2659],[107.0852,-6.2616],[107.0918,-6.2605]]]}},{"type":"Feature","properties":{"name":"Telagamurni","name_en":"Telagamurni","admin_level":"7","osm_id":""},"geometry":{"type":"Polygon","coordinates":[[[107.1056,-6.2583],[107.1058,-6.2533],[107.1078,-6.2501],[107.117,-6.2529],[107.1184,-6.2471],[107.1291,-6.2474],[107.1258,-6.2643],[107.1271,-6.2663],[107.1254,-6.2672],[107.1085,-6.2724],[107.107,-6.2699],[107.1083,-6.2643],[107.1056,-6.2583]]]}},{"type":"Feature","properties":{"name":"Telajung","name_en":"Telajung","admin_level":"7","osm_id":""},"geometry":{"type":"Polygon","coordinates":[[[107.0732,-6.3242],[107.0708,-6.3261],[107.0682,-6.3323],[107.0644,-6.335],[107.0607,-6.3422],[107.0524,-6.3406],[107.0518,-6.3429],[107.0414,-6.3397],[107.0406,-6.3375],[107.0451,-6.3359],[107.0617,-6.3156],[107.0662,-6.3159],[107.0689,-6.3214],[107.0732,-6.3225],[107.0732,-6.3242]]]}}]}