{"type":"FeatureCollection","metadata":{"parent_osm_id":"gid_IDN_29_10_17_1","parent_name":"Tumpaan","parent_name_1":"SulawesiUtara","parent_gid":"IDN.29.10.17_1","parent_level":"6","child_level":"7","count":10,"source":"GADM 4.1","generated":"2026-05-08"},"features":[{"type":"Feature","properties":{"name":"Lelema","name_en":"Lelema","admin_level":"7","osm_id":""},"geometry":{"type":"Polygon","coordinates":[[[124.6591,1.2765],[124.6533,1.271],[124.6445,1.277],[124.6387,1.2775],[124.6298,1.284],[124.6386,1.2831],[124.6453,1.2852],[124.6498,1.2897],[124.659,1.2928],[124.6601,1.2948],[124.6669,1.2956],[124.6678,1.2887],[124.6697,1.2877],[124.6709,1.2834],[124.6591,1.2765]]]}},{"type":"Feature","properties":{"name":"Matani","name_en":"Matani","admin_level":"7","osm_id":""},"geometry":{"type":"Polygon","coordinates":[[[124.6501,1.2665],[124.6479,1.2638],[124.6415,1.2624],[124.637,1.2645],[124.6273,1.2633],[124.6228,1.2595],[124.615,1.2584],[124.6101,1.2549],[124.6023,1.2572],[124.5937,1.2627],[124.5959,1.2657],[124.5964,1.2636],[124.5988,1.2642],[124.6003,1.2674],[124.603,1.2667],[124.6017,1.271],[124.6054,1.2723],[124.6042,1.2758],[124.6108,1.2791],[124.6181,1.2751],[124.6185,1.2721],[124.6213,1.269],[124.6373,1.2694],[124.651,1.2679],[124.6501,1.2665]]]}},{"type":"Feature","properties":{"name":"MataniSatu","name_en":"MataniSatu","admin_level":"7","osm_id":""},"geometry":{"type":"Polygon","coordinates":[[[124.6497,1.2658],[124.6477,1.262],[124.6276,1.2574],[124.6207,1.2534],[124.6197,1.2514],[124.6126,1.2498],[124.6101,1.2549],[124.615,1.2584],[124.6228,1.2595],[124.6273,1.2633],[124.637,1.2645],[124.6415,1.2624],[124.6479,1.2638],[124.6497,1.2658]]]}},{"type":"Feature","properties":{"name":"Munte","name_en":"Munte","admin_level":"7","osm_id":""},"geometry":{"type":"Polygon","coordinates":[[[124.6298,1.284],[124.6305,1.2945],[124.6259,1.3088],[124.6272,1.3115],[124.6254,1.3198],[124.6251,1.3356],[124.6371,1.3346],[124.6444,1.3384],[124.6518,1.3381],[124.6581,1.3374],[124.6738,1.331],[124.682,1.3323],[124.6933,1.3294],[124.7039,1.3306],[124.7084,1.3273],[124.7038,1.3193],[124.6992,1.3179],[124.6974,1.315],[124.6843,1.3077],[124.6751,1.3041],[124.6664,1.295],[124.6601,1.2948],[124.659,1.2928],[124.6498,1.2897],[124.648,1.2865],[124.6386,1.2831],[124.6298,1.284]]]}},{"type":"Feature","properties":{"name":"Popontolen","name_en":"Popontolen","admin_level":"7","osm_id":""},"geometry":{"type":"Polygon","coordinates":[[[124.6533,1.271],[124.651,1.2679],[124.6286,1.2701],[124.6213,1.269],[124.6185,1.2721],[124.6188,1.2768],[124.6155,1.2775],[124.6151,1.2793],[124.621,1.2814],[124.626,1.2769],[124.6296,1.2765],[124.6307,1.2778],[124.6299,1.2828],[124.6314,1.2827],[124.6387,1.2775],[124.6445,1.277],[124.6533,1.271]]]}},{"type":"Feature","properties":{"name":"Tangkuney","name_en":"Tangkuney","admin_level":"7","osm_id":""},"geometry":{"type":"Polygon","coordinates":[[[124.681,1.2875],[124.6709,1.2834],[124.6697,1.2877],[124.6678,1.2887],[124.6669,1.2956],[124.6751,1.3041],[124.6843,1.3077],[124.6974,1.315],[124.6992,1.3179],[124.7038,1.3193],[124.7084,1.3273],[124.7177,1.3255],[124.7227,1.3166],[124.7222,1.3109],[124.7253,1.3011],[124.7092,1.2954],[124.6993,1.2878],[124.6885,1.2897],[124.681,1.2875]]]}},{"type":"Feature","properties":{"name":"Tumpaan","name_en":"Tumpaan","admin_level":"7","osm_id":""},"geometry":{"type":"Polygon","coordinates":[[[124.6416,1.2402],[124.6407,1.2376],[124.6335,1.2349],[124.6119,1.2369],[124.6122,1.2389],[124.6185,1.24],[124.6222,1.2389],[124.6416,1.2402]]]}},{"type":"Feature","properties":{"name":"TumpaanBaru","name_en":"TumpaanBaru","admin_level":"7","osm_id":""},"geometry":{"type":"Polygon","coordinates":[[[124.6477,1.262],[124.6435,1.2508],[124.6377,1.2511],[124.6348,1.249],[124.631,1.2491],[124.6263,1.2461],[124.6232,1.246],[124.6209,1.2415],[124.6172,1.2401],[124.6143,1.2409],[124.6151,1.251],[124.6197,1.2514],[124.6207,1.2534],[124.6276,1.2574],[124.6477,1.262]]]}},{"type":"Feature","properties":{"name":"TumpaanDua","name_en":"TumpaanDua","admin_level":"7","osm_id":""},"geometry":{"type":"Polygon","coordinates":[[[124.6158,1.2281],[124.612,1.2294],[124.6096,1.2285],[124.6087,1.2301],[124.6119,1.2369],[124.6322,1.2349],[124.6407,1.2376],[124.6366,1.2327],[124.6258,1.2293],[124.6158,1.2281]]]}},{"type":"Feature","properties":{"name":"TumpaanSatu","name_en":"TumpaanSatu","admin_level":"7","osm_id":""},"geometry":{"type":"Polygon","coordinates":[[[124.644,1.2512],[124.6417,1.2404],[124.6122,1.2389],[124.6126,1.2443],[124.6141,1.2447],[124.6129,1.2452],[124.6126,1.2498],[124.6143,1.2504],[124.6143,1.2409],[124.6172,1.2401],[124.6209,1.2415],[124.6235,1.2462],[124.6263,1.2461],[124.631,1.2491],[124.6348,1.249],[124.6377,1.2511],[124.644,1.2512]]]}}]}