{"type":"FeatureCollection","metadata":{"parent_osm_id":"gid_IDN_9_22_6_1","parent_name":"Darangdan","parent_name_1":"JawaBarat","parent_gid":"IDN.9.22.6_1","parent_level":"6","child_level":"7","count":15,"source":"GADM 4.1","generated":"2026-05-09"},"features":[{"type":"Feature","properties":{"name":"Cilingga","name_en":"Cilingga","admin_level":"7","osm_id":""},"geometry":{"type":"Polygon","coordinates":[[[107.4771,-6.6819],[107.4796,-6.685],[107.4777,-6.6873],[107.4783,-6.6895],[107.4746,-6.6917],[107.4724,-6.6913],[107.4706,-6.6954],[107.4673,-6.6915],[107.4616,-6.691],[107.4607,-6.6885],[107.4581,-6.688],[107.4568,-6.6793],[107.4574,-6.6701],[107.4554,-6.6648],[107.4579,-6.6543],[107.4644,-6.6583],[107.4702,-6.6594],[107.4678,-6.6734],[107.4728,-6.6766],[107.4771,-6.6819]]]}},{"type":"Feature","properties":{"name":"Darangdan","name_en":"Darangdan","admin_level":"7","osm_id":""},"geometry":{"type":"Polygon","coordinates":[[[107.4191,-6.678],[107.4231,-6.6802],[107.4256,-6.6731],[107.4241,-6.6701],[107.429,-6.663],[107.4317,-6.671],[107.4311,-6.6744],[107.4343,-6.6765],[107.4378,-6.6828],[107.431,-6.686],[107.431,-6.6908],[107.4267,-6.689],[107.4268,-6.6871],[107.4191,-6.678]]]}},{"type":"Feature","properties":{"name":"Depok","name_en":"Depok","admin_level":"7","osm_id":""},"geometry":{"type":"Polygon","coordinates":[[[107.4051,-6.6933],[107.4017,-6.693],[107.396,-6.6957],[107.3873,-6.6939],[107.3901,-6.6866],[107.3894,-6.6846],[107.395,-6.6866],[107.397,-6.6834],[107.399,-6.6835],[107.399,-6.6851],[107.3996,-6.6841],[107.3992,-6.6815],[107.3938,-6.6766],[107.3941,-6.6743],[107.396,-6.6758],[107.3997,-6.6745],[107.4042,-6.6755],[107.4152,-6.679],[107.4126,-6.6811],[107.4099,-6.6805],[107.4062,-6.6825],[107.4097,-6.6871],[107.4116,-6.6863],[107.4116,-6.6874],[107.4062,-6.6899],[107.4051,-6.6933]]]}},{"type":"Feature","properties":{"name":"Gununghejo","name_en":"Gununghejo","admin_level":"7","osm_id":""},"geometry":{"type":"Polygon","coordinates":[[[107.4303,-6.6646],[107.4293,-6.6653],[107.4287,-6.663],[107.4248,-6.6681],[107.4256,-6.6731],[107.4231,-6.6802],[107.4202,-6.6778],[107.4164,-6.6794],[107.405,-6.676],[107.4074,-6.6717],[107.4041,-6.6678],[107.4051,-6.66],[107.4111,-6.6601],[107.415,-6.6622],[107.4161,-6.6607],[107.4286,-6.6587],[107.4333,-6.6526],[107.4438,-6.655],[107.4432,-6.6605],[107.4409,-6.6592],[107.4367,-6.6628],[107.4333,-6.6622],[107.4303,-6.6646]]]}},{"type":"Feature","properties":{"name":"Legoksari","name_en":"Legoksari","admin_level":"7","osm_id":""},"geometry":{"type":"Polygon","coordinates":[[[107.3873,-6.6939],[107.3801,-6.6903],[107.3848,-6.6881],[107.3854,-6.6832],[107.3874,-6.6819],[107.3855,-6.6738],[107.3879,-6.6753],[107.388,-6.6734],[107.3925,-6.6734],[107.3997,-6.6838],[107.399,-6.6851],[107.399,-6.6835],[107.397,-6.6834],[107.395,-6.6866],[107.3894,-6.6846],[107.3901,-6.6866],[107.3873,-6.6939]]]}},{"type":"Feature","properties":{"name":"Linggamukti","name_en":"Linggamukti","admin_level":"7","osm_id":""},"geometry":{"type":"Polygon","coordinates":[[[107.4579,-6.6543],[107.4554,-6.6648],[107.4574,-6.6701],[107.4568,-6.6793],[107.4581,-6.6881],[107.4536,-6.6893],[107.448,-6.6838],[107.446,-6.677],[107.444,-6.676],[107.4445,-6.673],[107.448,-6.6708],[107.4431,-6.6613],[107.4438,-6.655],[107.447,-6.6535],[107.4517,-6.6518],[107.4579,-6.6543]]]}},{"type":"Feature","properties":{"name":"Linggasari","name_en":"Linggasari","admin_level":"7","osm_id":""},"geometry":{"type":"Polygon","coordinates":[[[107.4575,-6.7056],[107.4535,-6.7017],[107.4551,-6.6994],[107.4526,-6.6923],[107.4546,-6.6928],[107.4536,-6.6893],[107.4594,-6.6878],[107.4616,-6.691],[107.4673,-6.6915],[107.4706,-6.6954],[107.4717,-6.693],[107.4728,-6.6934],[107.4708,-6.6962],[107.4728,-6.6967],[107.4709,-6.698],[107.4725,-6.7013],[107.4749,-6.7022],[107.4745,-6.7054],[107.4662,-6.7065],[107.4636,-6.7035],[107.4596,-6.7024],[107.4604,-6.7048],[107.4575,-6.7056]]]}},{"type":"Feature","properties":{"name":"Mekarsari","name_en":"Mekarsari","admin_level":"7","osm_id":""},"geometry":{"type":"Polygon","coordinates":[[[107.3801,-6.6903],[107.3729,-6.6903],[107.3734,-6.6812],[107.3696,-6.6789],[107.3716,-6.6745],[107.3794,-6.6746],[107.3828,-6.6717],[107.3873,-6.6778],[107.3874,-6.6819],[107.3854,-6.6832],[107.3848,-6.6881],[107.3801,-6.6903]]]}},{"type":"Feature","properties":{"name":"Nagrak","name_en":"Nagrak","admin_level":"7","osm_id":""},"geometry":{"type":"Polygon","coordinates":[[[107.4243,-6.6596],[107.4161,-6.6607],[107.415,-6.6622],[107.4111,-6.6601],[107.4019,-6.6603],[107.4004,-6.6533],[107.3972,-6.6489],[107.4008,-6.6444],[107.4014,-6.6399],[107.4084,-6.6447],[107.4168,-6.6445],[107.4181,-6.6466],[107.4197,-6.6462],[107.4243,-6.6596]]]}},{"type":"Feature","properties":{"name":"Nangewer","name_en":"Nangewer","admin_level":"7","osm_id":""},"geometry":{"type":"Polygon","coordinates":[[[107.4594,-6.707],[107.4575,-6.7056],[107.4604,-6.7048],[107.4591,-6.7037],[107.4598,-6.7024],[107.4636,-6.7035],[107.4662,-6.7065],[107.4742,-6.7054],[107.4775,-6.7088],[107.4837,-6.7084],[107.4915,-6.722],[107.4897,-6.7287],[107.4839,-6.7308],[107.4799,-6.7289],[107.4738,-6.7205],[107.4705,-6.7192],[107.4698,-6.717],[107.4666,-6.7163],[107.4641,-6.7108],[107.4619,-6.7107],[107.4594,-6.707]]]}},{"type":"Feature","properties":{"name":"Neglasari","name_en":"Neglasari","admin_level":"7","osm_id":""},"geometry":{"type":"Polygon","coordinates":[[[107.479,-6.6867],[107.4828,-6.6887],[107.4864,-6.6946],[107.49,-6.6967],[107.4907,-6.7011],[107.4933,-6.7034],[107.4935,-6.7079],[107.4775,-6.7088],[107.4745,-6.7061],[107.4749,-6.7022],[107.472,-6.7006],[107.4709,-6.698],[107.4728,-6.6967],[107.4708,-6.6962],[107.4727,-6.6943],[107.4724,-6.6913],[107.4746,-6.6917],[107.4783,-6.6895],[107.4777,-6.6873],[107.479,-6.6867]]]}},{"type":"Feature","properties":{"name":"Pasirangin","name_en":"Pasirangin","admin_level":"7","osm_id":""},"geometry":{"type":"Polygon","coordinates":[[[107.541,-6.7645],[107.5339,-6.7639],[107.5298,-6.7616],[107.5224,-6.7477],[107.5176,-6.7439],[107.5145,-6.7422],[107.5094,-6.7424],[107.5071,-6.7392],[107.5023,-6.7382],[107.5014,-6.7365],[107.4946,-6.7349],[107.4874,-6.7353],[107.4844,-6.7305],[107.4897,-6.7287],[107.4923,-6.7214],[107.4981,-6.7242],[107.4959,-6.7252],[107.4964,-6.7266],[107.4981,-6.7255],[107.5052,-6.7266],[107.5074,-6.7305],[107.5147,-6.7348],[107.5158,-6.7366],[107.5149,-6.7379],[107.5213,-6.7465],[107.5374,-6.7567],[107.541,-6.7645]]]}},{"type":"Feature","properties":{"name":"Sadarkarya","name_en":"Sadarkarya","admin_level":"7","osm_id":""},"geometry":{"type":"Polygon","coordinates":[[[107.4312,-6.6862],[107.4378,-6.6828],[107.4343,-6.6765],[107.4311,-6.6744],[107.4303,-6.6646],[107.4333,-6.6622],[107.4367,-6.6628],[107.4416,-6.6593],[107.448,-6.6708],[107.4445,-6.673],[107.444,-6.676],[107.446,-6.677],[107.448,-6.6838],[107.455,-6.6909],[107.4546,-6.6928],[107.4506,-6.6923],[107.4505,-6.6951],[107.4418,-6.6898],[107.4395,-6.6904],[107.4376,-6.6879],[107.4312,-6.6862]]]}},{"type":"Feature","properties":{"name":"Sawit","name_en":"Sawit","admin_level":"7","osm_id":""},"geometry":{"type":"Polygon","coordinates":[[[107.4536,-6.701],[107.4506,-6.7],[107.4478,-6.7015],[107.4414,-6.6995],[107.4418,-6.7013],[107.4396,-6.7028],[107.438,-6.7002],[107.4356,-6.7005],[107.4355,-6.7021],[107.4307,-6.7011],[107.4325,-6.696],[107.4306,-6.6927],[107.4312,-6.6862],[107.4376,-6.6879],[107.4395,-6.6904],[107.4418,-6.6898],[107.4505,-6.6951],[107.4506,-6.6923],[107.4526,-6.6923],[107.4551,-6.6994],[107.4536,-6.701]]]}},{"type":"Feature","properties":{"name":"Sirnamanah","name_en":"Sirnamanah","admin_level":"7","osm_id":""},"geometry":{"type":"Polygon","coordinates":[[[107.43,-6.7002],[107.4251,-6.7],[107.4167,-6.6907],[107.4119,-6.6899],[107.4116,-6.6863],[107.4097,-6.6871],[107.4062,-6.6825],[107.4191,-6.678],[107.4268,-6.6871],[107.4267,-6.689],[107.431,-6.6908],[107.4308,-6.6942],[107.4325,-6.696],[107.43,-6.7002]]]}}]}