{"type":"FeatureCollection","metadata":{"parent_osm_id":"gid_IDN_14_1_2_1","parent_name":"DusunSelatan","parent_name_1":"KalimantanTengah","parent_gid":"IDN.14.1.2_1","parent_level":"6","child_level":"7","count":27,"source":"GADM 4.1","generated":"2026-05-09"},"features":[{"type":"Feature","properties":{"name":"Baru","name_en":"Baru","admin_level":"7","osm_id":""},"geometry":{"type":"Polygon","coordinates":[[[114.823,-1.7744],[114.8107,-1.7977],[114.7884,-1.7952],[114.7448,-1.7669],[114.6899,-1.7598],[114.6264,-1.758],[114.6216,-1.7438],[114.6149,-1.731],[114.6436,-1.7248],[114.7036,-1.7286],[114.7235,-1.7262],[114.7379,-1.7313],[114.7506,-1.7214],[114.7687,-1.7142],[114.779,-1.715],[114.7869,-1.7228],[114.7898,-1.7413],[114.7886,-1.7519],[114.7935,-1.7643],[114.823,-1.7744]]]}},{"type":"Feature","properties":{"name":"BuntokKota","name_en":"BuntokKota","admin_level":"7","osm_id":""},"geometry":{"type":"Polygon","coordinates":[[[114.8658,-1.7291],[114.8412,-1.7213],[114.8363,-1.725],[114.7936,-1.7078],[114.8209,-1.701],[114.8344,-1.6959],[114.8428,-1.6845],[114.8653,-1.6956],[114.8671,-1.7013],[114.8658,-1.7291]]]}},{"type":"Feature","properties":{"name":"DanauGanting","name_en":"DanauGanting","admin_level":"7","osm_id":""},"geometry":{"type":"Polygon","coordinates":[[[114.8496,-1.8021],[114.8497,-1.7869],[114.846,-1.7649],[114.8425,-1.7576],[114.8429,-1.7455],[114.9323,-1.7563],[114.9424,-1.7754],[114.9378,-1.8428],[114.877,-1.8069],[114.8496,-1.8021]]]}},{"type":"Feature","properties":{"name":"DanauMasura","name_en":"DanauMasura","admin_level":"7","osm_id":""},"geometry":{"type":"Polygon","coordinates":[[[114.754,-1.6789],[114.7656,-1.674],[114.7992,-1.6688],[114.8001,-1.6882],[114.794,-1.6954],[114.781,-1.7035],[114.7677,-1.7093],[114.7628,-1.687],[114.754,-1.6789]]]}},{"type":"Feature","properties":{"name":"DanauSadar","name_en":"DanauSadar","admin_level":"7","osm_id":""},"geometry":{"type":"Polygon","coordinates":[[[114.8107,-1.7977],[114.8232,-1.774],[114.8283,-1.7605],[114.8352,-1.758],[114.8426,-1.7577],[114.846,-1.7649],[114.8497,-1.7869],[114.8496,-1.8021],[114.8107,-1.7977]]]}},{"type":"Feature","properties":{"name":"Dangka","name_en":"Dangka","admin_level":"7","osm_id":""},"geometry":{"type":"Polygon","coordinates":[[[115.0188,-1.6619],[115.0199,-1.6492],[115.027,-1.6138],[115.0645,-1.6399],[115.0824,-1.6791],[115.0494,-1.684],[115.0364,-1.6905],[115.0188,-1.6619]]]}},{"type":"Feature","properties":{"name":"HilirSper","name_en":"HilirSper","admin_level":"7","osm_id":""},"geometry":{"type":"Polygon","coordinates":[[[114.7886,-1.7519],[114.7898,-1.7413],[114.7869,-1.7228],[114.779,-1.715],[114.7936,-1.7078],[114.8363,-1.725],[114.8412,-1.7213],[114.8885,-1.7364],[114.9233,-1.7387],[114.9323,-1.7563],[114.8369,-1.7448],[114.7886,-1.7519]]]}},{"type":"Feature","properties":{"name":"Jelapat","name_en":"Jelapat","admin_level":"7","osm_id":""},"geometry":{"type":"Polygon","coordinates":[[[114.823,-1.7744],[114.7935,-1.7643],[114.7886,-1.7519],[114.8369,-1.7448],[114.8429,-1.7455],[114.8426,-1.7577],[114.8352,-1.758],[114.8283,-1.7605],[114.823,-1.7744]]]}},{"type":"Feature","properties":{"name":"Kalahien","name_en":"Kalahien","admin_level":"7","osm_id":""},"geometry":{"type":"Polygon","coordinates":[[[114.7992,-1.6688],[114.7656,-1.674],[114.754,-1.6789],[114.7274,-1.6774],[114.7313,-1.6434],[114.7537,-1.6465],[114.7917,-1.6449],[114.8033,-1.6471],[114.8044,-1.6426],[114.8123,-1.6304],[114.8165,-1.6275],[114.8224,-1.6271],[114.8428,-1.6638],[114.7992,-1.6688]]]}},{"type":"Feature","properties":{"name":"Lembeng","name_en":"Lembeng","admin_level":"7","osm_id":""},"geometry":{"type":"Polygon","coordinates":[[[114.8653,-1.6956],[114.8428,-1.6845],[114.8428,-1.6638],[114.8278,-1.6388],[114.8657,-1.6376],[114.8755,-1.6357],[114.8767,-1.6556],[114.8728,-1.6726],[114.8729,-1.6835],[114.8704,-1.6899],[114.8653,-1.6956]]]}},{"type":"Feature","properties":{"name":"Mabuan","name_en":"Mabuan","admin_level":"7","osm_id":""},"geometry":{"type":"Polygon","coordinates":[[[114.8428,-1.6845],[114.8358,-1.6941],[114.8266,-1.6922],[114.8179,-1.6847],[114.8101,-1.6676],[114.8428,-1.6638],[114.8428,-1.6845]]]}},{"type":"Feature","properties":{"name":"Madara","name_en":"Madara","admin_level":"7","osm_id":""},"geometry":{"type":"Polygon","coordinates":[[[114.7313,-1.6434],[114.7257,-1.695],[114.7058,-1.6963],[114.6212,-1.6603],[114.6111,-1.6518],[114.6146,-1.6439],[114.634,-1.6194],[114.6538,-1.5769],[114.6744,-1.522],[114.7076,-1.5237],[114.7382,-1.5205],[114.733,-1.5725],[114.7289,-1.5877],[114.7323,-1.6352],[114.7313,-1.6434]]]}},{"type":"Feature","properties":{"name":"Mangaris","name_en":"Mangaris","admin_level":"7","osm_id":""},"geometry":{"type":"Polygon","coordinates":[[[114.9378,-1.8428],[114.9424,-1.7754],[114.9233,-1.7387],[114.9734,-1.7141],[115.0003,-1.7444],[114.9711,-1.7964],[114.9636,-1.8258],[114.9596,-1.8524],[114.9378,-1.8428]]]}},{"type":"Feature","properties":{"name":"MuaraRipung","name_en":"MuaraRipung","admin_level":"7","osm_id":""},"geometry":{"type":"Polygon","coordinates":[[[114.779,-1.715],[114.7688,-1.7142],[114.7677,-1.7093],[114.781,-1.7035],[114.794,-1.6954],[114.8001,-1.6882],[114.7992,-1.6688],[114.8101,-1.6676],[114.8179,-1.6847],[114.8266,-1.6922],[114.8358,-1.6941],[114.8344,-1.6959],[114.8209,-1.701],[114.794,-1.7076],[114.779,-1.715]]]}},{"type":"Feature","properties":{"name":"MuaraTalang","name_en":"MuaraTalang","admin_level":"7","osm_id":""},"geometry":{"type":"Polygon","coordinates":[[[114.7147,-1.7823],[114.7375,-1.7884],[114.7784,-1.8073],[114.7972,-1.8085],[114.8495,-1.8193],[114.8495,-1.83],[114.8356,-1.8324],[114.8114,-1.8317],[114.8021,-1.8362],[114.7982,-1.8363],[114.7533,-1.8195],[114.7147,-1.7823]]]}},{"type":"Feature","properties":{"name":"MurungPaken","name_en":"MurungPaken","admin_level":"7","osm_id":""},"geometry":{"type":"Polygon","coordinates":[[[114.7688,-1.7142],[114.7506,-1.7214],[114.7379,-1.7313],[114.7235,-1.7262],[114.7036,-1.7286],[114.6436,-1.7248],[114.6149,-1.731],[114.6011,-1.7058],[114.5993,-1.6783],[114.6111,-1.6518],[114.6212,-1.6603],[114.7058,-1.6963],[114.7257,-1.695],[114.7274,-1.6774],[114.754,-1.6789],[114.7628,-1.687],[114.7688,-1.7142]]]}},{"type":"Feature","properties":{"name":"Pamait","name_en":"Pamait","admin_level":"7","osm_id":""},"geometry":{"type":"Polygon","coordinates":[[[114.8658,-1.7291],[114.8671,-1.7013],[114.8653,-1.6956],[114.8704,-1.6899],[114.8882,-1.6935],[114.9125,-1.7024],[114.9195,-1.7203],[114.9233,-1.7387],[114.8885,-1.7364],[114.8658,-1.7291]]]}},{"type":"Feature","properties":{"name":"Pamangka","name_en":"Pamangka","admin_level":"7","osm_id":""},"geometry":{"type":"Polygon","coordinates":[[[115.0003,-1.7444],[114.944,-1.681],[114.944,-1.6809],[114.9792,-1.6681],[115.014,-1.7059],[115.0176,-1.7112],[115.0117,-1.7201],[115.0003,-1.7444]]]}},{"type":"Feature","properties":{"name":"Pararapak","name_en":"Pararapak","admin_level":"7","osm_id":""},"geometry":{"type":"Polygon","coordinates":[[[114.8224,-1.6271],[114.8165,-1.6275],[114.8123,-1.6304],[114.8044,-1.6426],[114.8033,-1.6471],[114.7917,-1.6449],[114.7537,-1.6465],[114.7313,-1.6434],[114.7323,-1.6352],[114.7311,-1.6192],[114.7694,-1.616],[114.8232,-1.6041],[114.8331,-1.628],[114.8224,-1.6271]]]}},{"type":"Feature","properties":{"name":"PendaAsam","name_en":"PendaAsam","admin_level":"7","osm_id":""},"geometry":{"type":"Polygon","coordinates":[[[114.8278,-1.6388],[114.8224,-1.6271],[114.8331,-1.628],[114.8232,-1.6041],[114.843,-1.5959],[114.8577,-1.5953],[114.8805,-1.5895],[114.9017,-1.5872],[114.9244,-1.5879],[114.9282,-1.5924],[114.9382,-1.5976],[114.9616,-1.6186],[114.9402,-1.6256],[114.9062,-1.63],[114.8657,-1.6376],[114.8278,-1.6388]]]}},{"type":"Feature","properties":{"name":"Sababilah","name_en":"Sababilah","admin_level":"7","osm_id":""},"geometry":{"type":"Polygon","coordinates":[[[114.9734,-1.7141],[114.9233,-1.7387],[114.9195,-1.7203],[114.9125,-1.7023],[114.923,-1.6575],[114.9429,-1.6721],[114.944,-1.681],[114.9734,-1.7141]]]}},{"type":"Feature","properties":{"name":"Sanggu","name_en":"Sanggu","admin_level":"7","osm_id":""},"geometry":{"type":"Polygon","coordinates":[[[114.8704,-1.6899],[114.8729,-1.6835],[114.8728,-1.6726],[114.8767,-1.6556],[114.8755,-1.6357],[114.9297,-1.6272],[114.9289,-1.642],[114.9224,-1.6591],[114.9125,-1.7024],[114.8882,-1.6935],[114.8704,-1.6899]]]}},{"type":"Feature","properties":{"name":"TanjungJawa","name_en":"TanjungJawa","admin_level":"7","osm_id":""},"geometry":{"type":"Polygon","coordinates":[[[114.729,-1.5875],[114.733,-1.5725],[114.7382,-1.5205],[114.7815,-1.5191],[114.7939,-1.5151],[114.8112,-1.5149],[114.8234,-1.5232],[114.8309,-1.5342],[114.8488,-1.551],[114.8888,-1.5654],[114.8807,-1.5752],[114.8545,-1.5847],[114.8294,-1.5853],[114.809,-1.5821],[114.729,-1.5875]]]}},{"type":"Feature","properties":{"name":"TelangAndrau","name_en":"TelangAndrau","admin_level":"7","osm_id":""},"geometry":{"type":"Polygon","coordinates":[[[115.027,-1.6138],[115.0199,-1.6492],[115.0188,-1.6619],[114.9797,-1.6679],[114.944,-1.6809],[114.9429,-1.6721],[114.923,-1.6575],[114.9289,-1.642],[114.9297,-1.6272],[114.9402,-1.6256],[114.9735,-1.6147],[114.992,-1.6074],[115.0074,-1.5986],[115.027,-1.6138]]]}},{"type":"Feature","properties":{"name":"TelukMampun","name_en":"TelukMampun","admin_level":"7","osm_id":""},"geometry":{"type":"Polygon","coordinates":[[[114.7311,-1.6192],[114.729,-1.5875],[114.809,-1.5821],[114.8294,-1.5853],[114.8545,-1.5847],[114.8807,-1.5752],[114.8888,-1.5654],[114.9193,-1.5819],[114.9244,-1.5879],[114.9017,-1.5872],[114.8805,-1.5895],[114.8577,-1.5953],[114.843,-1.5959],[114.8232,-1.6041],[114.7694,-1.616],[114.7311,-1.6192]]]}},{"type":"Feature","properties":{"name":"TelukTelaga","name_en":"TelukTelaga","admin_level":"7","osm_id":""},"geometry":{"type":"Polygon","coordinates":[[[114.6264,-1.758],[114.6899,-1.7598],[114.7448,-1.7669],[114.7884,-1.7952],[114.8496,-1.8021],[114.8495,-1.8193],[114.7972,-1.8085],[114.7784,-1.8073],[114.7375,-1.7884],[114.6813,-1.7735],[114.6356,-1.7836],[114.6264,-1.758]]]}},{"type":"Feature","properties":{"name":"TeteiLanan","name_en":"TeteiLanan","admin_level":"7","osm_id":""},"geometry":{"type":"Polygon","coordinates":[[[115.0188,-1.6619],[115.0364,-1.6905],[115.0335,-1.6919],[115.0176,-1.7112],[114.9792,-1.6681],[115.0188,-1.6619]]]}}]}