{"type":"FeatureCollection","metadata":{"parent_osm_id":"gid_IDN_32_21_6_1","parent_name":"PadangBolakJulu","parent_name_1":"SumateraUtara","parent_gid":"IDN.32.21.6_1","parent_level":"6","child_level":"7","count":23,"source":"GADM 4.1","generated":"2026-05-09"},"features":[{"type":"Feature","properties":{"name":"AekBargot","name_en":"AekBargot","admin_level":"7","osm_id":""},"geometry":{"type":"Polygon","coordinates":[[[99.4459,1.4074],[99.4399,1.4199],[99.4402,1.4288],[99.4443,1.4452],[99.4428,1.4502],[99.4589,1.4512],[99.4609,1.455],[99.4655,1.4553],[99.4683,1.4615],[99.4742,1.4545],[99.4819,1.4566],[99.4844,1.4532],[99.4828,1.4494],[99.4873,1.4479],[99.4833,1.4423],[99.478,1.4374],[99.467,1.4359],[99.4604,1.4311],[99.4584,1.417],[99.4512,1.4127],[99.4505,1.4089],[99.4459,1.4074]]]}},{"type":"Feature","properties":{"name":"Balangka","name_en":"Balangka","admin_level":"7","osm_id":""},"geometry":{"type":"Polygon","coordinates":[[[99.4696,1.4613],[99.4627,1.4663],[99.4622,1.4683],[99.4668,1.4683],[99.4747,1.4736],[99.4946,1.4815],[99.4956,1.4856],[99.5014,1.4895],[99.5027,1.4991],[99.5104,1.4966],[99.5136,1.4916],[99.5083,1.4892],[99.4991,1.4759],[99.4836,1.4703],[99.4798,1.4675],[99.4788,1.4645],[99.4696,1.4613]]]}},{"type":"Feature","properties":{"name":"BalimbingJae","name_en":"BalimbingJae","admin_level":"7","osm_id":""},"geometry":{"type":"Polygon","coordinates":[[[99.5323,1.3911],[99.5321,1.3933],[99.5227,1.3935],[99.5186,1.3904],[99.5152,1.3909],[99.5175,1.3958],[99.521,1.398],[99.5255,1.3982],[99.5294,1.4019],[99.5349,1.4036],[99.5371,1.3926],[99.5323,1.3911]]]}},{"type":"Feature","properties":{"name":"BalimbingJulu","name_en":"BalimbingJulu","admin_level":"7","osm_id":""},"geometry":{"type":"Polygon","coordinates":[[[99.5191,1.3647],[99.507,1.3641],[99.5122,1.3717],[99.5116,1.388],[99.5152,1.3909],[99.5186,1.3904],[99.5227,1.3935],[99.5321,1.3933],[99.5323,1.3911],[99.5294,1.3894],[99.5282,1.3811],[99.5218,1.3782],[99.5191,1.3647]]]}},{"type":"Feature","properties":{"name":"BatuGana","name_en":"BatuGana","admin_level":"7","osm_id":""},"geometry":{"type":"Polygon","coordinates":[[[99.4819,1.4566],[99.4742,1.4545],[99.4696,1.4613],[99.4788,1.4645],[99.4798,1.4675],[99.4836,1.4703],[99.4991,1.4759],[99.5083,1.4892],[99.5131,1.4908],[99.5089,1.4816],[99.5062,1.4681],[99.4997,1.4632],[99.4819,1.4566]]]}},{"type":"Feature","properties":{"name":"BatuRancang","name_en":"BatuRancang","admin_level":"7","osm_id":""},"geometry":{"type":"Polygon","coordinates":[[[99.4494,1.5446],[99.4382,1.5397],[99.4209,1.5362],[99.4168,1.5482],[99.4114,1.5545],[99.4221,1.5583],[99.4438,1.5532],[99.455,1.5616],[99.4785,1.5654],[99.4816,1.5687],[99.4902,1.571],[99.4923,1.5851],[99.4949,1.589],[99.4992,1.5854],[99.51,1.5682],[99.4946,1.5611],[99.4907,1.5557],[99.4841,1.5517],[99.468,1.5529],[99.4629,1.5501],[99.4604,1.546],[99.4494,1.5446]]]}},{"type":"Feature","properties":{"name":"Gariang","name_en":"Gariang","admin_level":"7","osm_id":""},"geometry":{"type":"Polygon","coordinates":[[[99.4683,1.4615],[99.4655,1.4553],[99.4609,1.455],[99.4589,1.4512],[99.4428,1.4502],[99.4397,1.4552],[99.4335,1.4604],[99.4321,1.4661],[99.4454,1.464],[99.4525,1.4647],[99.4622,1.4683],[99.4627,1.4663],[99.4683,1.4615]]]}},{"type":"Feature","properties":{"name":"Hasambi","name_en":"Hasambi","admin_level":"7","osm_id":""},"geometry":{"type":"Polygon","coordinates":[[[99.4209,1.5362],[99.4382,1.5397],[99.4494,1.5446],[99.4515,1.5389],[99.4645,1.5366],[99.4716,1.5381],[99.4879,1.5379],[99.4935,1.5412],[99.5035,1.543],[99.5134,1.5425],[99.5259,1.5489],[99.53,1.5367],[99.5269,1.5343],[99.4963,1.5297],[99.4925,1.5272],[99.4846,1.5269],[99.4826,1.5287],[99.477,1.5292],[99.4668,1.5231],[99.4561,1.5236],[99.4413,1.519],[99.438,1.519],[99.4332,1.5232],[99.4268,1.526],[99.4215,1.5319],[99.4209,1.5362]]]}},{"type":"Feature","properties":{"name":"LantosanIi","name_en":"LantosanIi","admin_level":"7","osm_id":""},"geometry":{"type":"Polygon","coordinates":[[[99.4873,1.4479],[99.4828,1.4494],[99.4844,1.4532],[99.4819,1.4566],[99.4997,1.4632],[99.5062,1.4681],[99.5031,1.4586],[99.506,1.4528],[99.4946,1.4461],[99.491,1.4459],[99.4873,1.4479]]]}},{"type":"Feature","properties":{"name":"PadangBaruas","name_en":"PadangBaruas","admin_level":"7","osm_id":""},"geometry":{"type":"Polygon","coordinates":[[[99.4591,1.3904],[99.4559,1.3959],[99.4518,1.3975],[99.4667,1.411],[99.469,1.4149],[99.478,1.4193],[99.4811,1.4237],[99.4817,1.4309],[99.4842,1.4331],[99.493,1.4357],[99.4938,1.4385],[99.497,1.4413],[99.5028,1.4409],[99.5098,1.4484],[99.5201,1.4473],[99.5237,1.4426],[99.5264,1.4419],[99.5056,1.4332],[99.5052,1.4307],[99.4994,1.4323],[99.495,1.4298],[99.4919,1.4248],[99.4809,1.4143],[99.479,1.4082],[99.4723,1.3993],[99.4651,1.3963],[99.4591,1.3904]]]}},{"type":"Feature","properties":{"name":"PadangBujur","name_en":"PadangBujur","admin_level":"7","osm_id":""},"geometry":{"type":"Polygon","coordinates":[[[99.4822,1.416],[99.4919,1.4248],[99.495,1.4298],[99.4994,1.4323],[99.5044,1.4305],[99.5053,1.4259],[99.5094,1.4243],[99.5283,1.4293],[99.5331,1.4328],[99.535,1.4168],[99.5291,1.4113],[99.5186,1.4077],[99.5005,1.4063],[99.4963,1.4116],[99.4939,1.4121],[99.4936,1.414],[99.4822,1.416]]]}},{"type":"Feature","properties":{"name":"Pamuntaran","name_en":"Pamuntaran","admin_level":"7","osm_id":""},"geometry":{"type":"Polygon","coordinates":[[[99.4909,1.3687],[99.4761,1.3707],[99.467,1.3742],[99.4606,1.3846],[99.4591,1.3904],[99.4651,1.3963],[99.4723,1.3993],[99.479,1.4082],[99.4822,1.416],[99.4917,1.4149],[99.5005,1.4063],[99.5038,1.4063],[99.5042,1.3938],[99.4909,1.3687]]]}},{"type":"Feature","properties":{"name":"PancurPangko","name_en":"PancurPangko","admin_level":"7","osm_id":""},"geometry":{"type":"Polygon","coordinates":[[[99.5136,1.4916],[99.5104,1.4966],[99.5058,1.4991],[99.4994,1.4991],[99.494,1.5025],[99.4905,1.5178],[99.4966,1.519],[99.4991,1.5218],[99.5068,1.5167],[99.515,1.5162],[99.5206,1.5121],[99.5229,1.5124],[99.5254,1.5188],[99.5307,1.5195],[99.5286,1.5112],[99.5136,1.4916]]]}},{"type":"Feature","properties":{"name":"ParanGadung","name_en":"ParanGadung","admin_level":"7","osm_id":""},"geometry":{"type":"Polygon","coordinates":[[[99.5044,1.4305],[99.5056,1.4332],[99.5261,1.4409],[99.527,1.4437],[99.5329,1.4347],[99.5331,1.4328],[99.5299,1.4299],[99.5094,1.4243],[99.5053,1.4259],[99.5044,1.4305]]]}},{"type":"Feature","properties":{"name":"ParanNangka","name_en":"ParanNangka","admin_level":"7","osm_id":""},"geometry":{"type":"Polygon","coordinates":[[[99.4688,1.524],[99.4716,1.5251],[99.4721,1.5274],[99.477,1.5292],[99.4826,1.5287],[99.4846,1.5269],[99.4925,1.5272],[99.4963,1.5297],[99.5269,1.5343],[99.53,1.5367],[99.5319,1.5232],[99.5307,1.5195],[99.5254,1.5188],[99.5239,1.517],[99.5229,1.5124],[99.518,1.5129],[99.515,1.5162],[99.5068,1.5167],[99.4991,1.5218],[99.4966,1.519],[99.4905,1.5178],[99.4925,1.5121],[99.4923,1.5058],[99.4942,1.5023],[99.493,1.4984],[99.4828,1.4976],[99.4772,1.5045],[99.4767,1.5101],[99.4726,1.5152],[99.4721,1.519],[99.4688,1.524]]]}},{"type":"Feature","properties":{"name":"ParupukJae","name_en":"ParupukJae","admin_level":"7","osm_id":""},"geometry":{"type":"Polygon","coordinates":[[[99.4367,1.4754],[99.4398,1.4784],[99.4482,1.4764],[99.4556,1.4767],[99.4719,1.4803],[99.4762,1.4821],[99.4826,1.4907],[99.4828,1.4976],[99.493,1.4984],[99.4942,1.5023],[99.4994,1.4991],[99.5027,1.4991],[99.5014,1.4895],[99.4956,1.4856],[99.4946,1.4815],[99.4747,1.4736],[99.4668,1.4683],[99.4454,1.464],[99.4324,1.466],[99.4326,1.4702],[99.4367,1.4754]]]}},{"type":"Feature","properties":{"name":"ParupukJulu","name_en":"ParupukJulu","admin_level":"7","osm_id":""},"geometry":{"type":"Polygon","coordinates":[[[99.4539,1.4948],[99.4533,1.4989],[99.4572,1.5021],[99.4398,1.5101],[99.438,1.519],[99.4561,1.5236],[99.4688,1.524],[99.4721,1.519],[99.4726,1.5152],[99.4767,1.5101],[99.4772,1.5045],[99.4823,1.4991],[99.4836,1.4948],[99.4826,1.4907],[99.4762,1.4821],[99.4719,1.4803],[99.4556,1.4767],[99.4482,1.4764],[99.441,1.4784],[99.4496,1.4819],[99.4502,1.4861],[99.4538,1.4908],[99.4539,1.4948]]]}},{"type":"Feature","properties":{"name":"Sialang","name_en":"Sialang","admin_level":"7","osm_id":""},"geometry":{"type":"Polygon","coordinates":[[[99.4494,1.5446],[99.4604,1.546],[99.4629,1.5501],[99.468,1.5529],[99.4841,1.5517],[99.4907,1.5557],[99.4946,1.5611],[99.51,1.5682],[99.5108,1.5643],[99.5217,1.5564],[99.5259,1.5489],[99.5134,1.5425],[99.5035,1.543],[99.4935,1.5412],[99.4879,1.5379],[99.4716,1.5381],[99.4645,1.5366],[99.4515,1.5389],[99.4494,1.5446]]]}},{"type":"Feature","properties":{"name":"SipupusLombang","name_en":"SipupusLombang","admin_level":"7","osm_id":""},"geometry":{"type":"Polygon","coordinates":[[[99.507,1.3641],[99.4909,1.3687],[99.5042,1.3938],[99.505,1.3966],[99.503,1.4054],[99.5186,1.4077],[99.5291,1.4113],[99.535,1.4168],[99.5349,1.4036],[99.5294,1.4019],[99.5255,1.3982],[99.521,1.398],[99.5175,1.3958],[99.5158,1.3913],[99.5116,1.388],[99.5122,1.3717],[99.507,1.3641]]]}},{"type":"Feature","properties":{"name":"Sitanggoru","name_en":"Sitanggoru","admin_level":"7","osm_id":""},"geometry":{"type":"Polygon","coordinates":[[[99.4765,1.6004],[99.4722,1.5879],[99.4637,1.5758],[99.4446,1.5709],[99.4385,1.5709],[99.4318,1.5756],[99.4492,1.5859],[99.4547,1.5946],[99.4542,1.6034],[99.4506,1.6138],[99.444,1.6192],[99.437,1.622],[99.435,1.6248],[99.4372,1.6468],[99.44,1.6438],[99.4492,1.6422],[99.4534,1.6381],[99.4597,1.6265],[99.4587,1.6225],[99.4627,1.6142],[99.4625,1.6111],[99.4765,1.6004]]]}},{"type":"Feature","properties":{"name":"SiunggamDolok","name_en":"SiunggamDolok","admin_level":"7","osm_id":""},"geometry":{"type":"Polygon","coordinates":[[[99.4949,1.589],[99.4923,1.5851],[99.4902,1.571],[99.4816,1.5687],[99.4785,1.5654],[99.455,1.5616],[99.4438,1.5532],[99.4221,1.5583],[99.4114,1.5545],[99.4094,1.5577],[99.404,1.559],[99.3906,1.5721],[99.3977,1.5751],[99.4058,1.5757],[99.4109,1.5777],[99.419,1.5771],[99.4266,1.5743],[99.4318,1.5756],[99.4385,1.5709],[99.4446,1.5709],[99.4637,1.5758],[99.4722,1.5879],[99.4765,1.6004],[99.4909,1.5927],[99.4949,1.589]]]}},{"type":"Feature","properties":{"name":"Sobar","name_en":"Sobar","admin_level":"7","osm_id":""},"geometry":{"type":"Polygon","coordinates":[[[99.5251,1.3615],[99.5191,1.3647],[99.5218,1.3782],[99.5282,1.3811],[99.53,1.3907],[99.5371,1.3926],[99.5386,1.3815],[99.562,1.3598],[99.5638,1.346],[99.544,1.3498],[99.5403,1.3483],[99.5364,1.3493],[99.5251,1.3615]]]}},{"type":"Feature","properties":{"name":"Ubar","name_en":"Ubar","admin_level":"7","osm_id":""},"geometry":{"type":"Polygon","coordinates":[[[99.4518,1.3975],[99.4486,1.3998],[99.4459,1.4074],[99.4505,1.4089],[99.4512,1.4127],[99.4584,1.417],[99.4604,1.4311],[99.467,1.4359],[99.478,1.4374],[99.4873,1.4479],[99.491,1.4459],[99.4946,1.4461],[99.506,1.4528],[99.5091,1.4501],[99.5098,1.4484],[99.5028,1.4409],[99.497,1.4413],[99.4938,1.4385],[99.493,1.4357],[99.4842,1.4331],[99.4817,1.4309],[99.4811,1.4237],[99.478,1.4193],[99.469,1.4149],[99.4667,1.411],[99.4518,1.3975]]]}}]}