{"type":"FeatureCollection","metadata":{"parent_osm_id":"gid_IDN_10_11_12_1","parent_name":"Kerjo","parent_name_1":"JawaTengah","parent_gid":"IDN.10.11.12_1","parent_level":"6","child_level":"7","count":10,"source":"GADM 4.1","generated":"2026-05-09"},"features":[{"type":"Feature","properties":{"name":"Botok","name_en":"Botok","admin_level":"7","osm_id":""},"geometry":{"type":"Polygon","coordinates":[[[111.0508,-7.5303],[111.0467,-7.5303],[111.0422,-7.5226],[111.0403,-7.5113],[111.0451,-7.5089],[111.0482,-7.5096],[111.0523,-7.5078],[111.0528,-7.5131],[111.0577,-7.518],[111.0574,-7.5216],[111.0545,-7.5188],[111.0511,-7.5202],[111.0521,-7.5225],[111.0497,-7.5244],[111.0487,-7.5281],[111.0508,-7.5303]]]}},{"type":"Feature","properties":{"name":"Ganten","name_en":"Ganten","admin_level":"7","osm_id":""},"geometry":{"type":"Polygon","coordinates":[[[111.065,-7.5543],[111.0707,-7.5582],[111.0736,-7.5643],[111.0802,-7.568],[111.0774,-7.5758],[111.0714,-7.5738],[111.0716,-7.5763],[111.0678,-7.5774],[111.0656,-7.5768],[111.0626,-7.5729],[111.0615,-7.5614],[111.0581,-7.558],[111.0625,-7.5538],[111.065,-7.5543]]]}},{"type":"Feature","properties":{"name":"Gempolan","name_en":"Gempolan","admin_level":"7","osm_id":""},"geometry":{"type":"Polygon","coordinates":[[[111.0802,-7.5694],[111.08,-7.5678],[111.0736,-7.5643],[111.0707,-7.5582],[111.0651,-7.5545],[111.065,-7.552],[111.0601,-7.5486],[111.0597,-7.5458],[111.0617,-7.5443],[111.0653,-7.5504],[111.069,-7.5512],[111.0692,-7.5535],[111.0723,-7.5521],[111.0725,-7.5505],[111.0762,-7.5524],[111.0783,-7.5525],[111.0795,-7.5508],[111.084,-7.5526],[111.0862,-7.5549],[111.0857,-7.5594],[111.0911,-7.5624],[111.095,-7.5697],[111.1008,-7.5707],[111.1039,-7.5738],[111.1023,-7.5737],[111.1009,-7.5761],[111.1016,-7.5804],[111.0955,-7.5812],[111.0918,-7.5784],[111.0879,-7.5789],[111.0862,-7.5764],[111.0841,-7.5766],[111.0844,-7.5747],[111.0802,-7.5694]]]}},{"type":"Feature","properties":{"name":"Karangrejo","name_en":"Karangrejo","admin_level":"7","osm_id":""},"geometry":{"type":"Polygon","coordinates":[[[111.082,-7.5281],[111.0847,-7.5308],[111.085,-7.5344],[111.0788,-7.5384],[111.0786,-7.5412],[111.0813,-7.543],[111.08,-7.5498],[111.0783,-7.5525],[111.0725,-7.5505],[111.0723,-7.5521],[111.0687,-7.5533],[111.069,-7.5512],[111.0653,-7.5504],[111.062,-7.5454],[111.061,-7.5365],[111.0655,-7.5343],[111.0682,-7.5356],[111.0734,-7.5268],[111.0699,-7.5223],[111.0728,-7.5152],[111.08,-7.5179],[111.0808,-7.5219],[111.0788,-7.5248],[111.082,-7.5281]]]}},{"type":"Feature","properties":{"name":"Kuto","name_en":"Kuto","admin_level":"7","osm_id":""},"geometry":{"type":"Polygon","coordinates":[[[111.0494,-7.5373],[111.0564,-7.545],[111.0545,-7.5484],[111.0546,-7.5535],[111.0506,-7.555],[111.0473,-7.5541],[111.0444,-7.552],[111.0447,-7.5492],[111.0403,-7.5482],[111.0368,-7.5511],[111.0339,-7.5496],[111.0357,-7.5527],[111.032,-7.5555],[111.0248,-7.5488],[111.017,-7.5363],[111.0174,-7.5353],[111.0223,-7.5372],[111.0233,-7.5363],[111.0234,-7.5331],[111.0222,-7.5339],[111.0211,-7.5319],[111.0243,-7.5277],[111.0318,-7.5341],[111.0494,-7.5373]]]}},{"type":"Feature","properties":{"name":"Kwadungan","name_en":"Kwadungan","admin_level":"7","osm_id":""},"geometry":{"type":"Polygon","coordinates":[[[111.0467,-7.5303],[111.056,-7.531],[111.0554,-7.5354],[111.0613,-7.5417],[111.0598,-7.5481],[111.065,-7.552],[111.0646,-7.555],[111.0625,-7.5538],[111.0605,-7.5569],[111.0549,-7.5578],[111.0545,-7.5484],[111.0564,-7.545],[111.0507,-7.5402],[111.0467,-7.5303]]]}},{"type":"Feature","properties":{"name":"Plosorejo","name_en":"Plosorejo","admin_level":"7","osm_id":""},"geometry":{"type":"Polygon","coordinates":[[[111.1043,-7.5573],[111.1087,-7.5599],[111.1089,-7.5662],[111.1042,-7.5699],[111.095,-7.5697],[111.0911,-7.5624],[111.0857,-7.5594],[111.086,-7.5543],[111.0795,-7.5508],[111.0813,-7.544],[111.0786,-7.5412],[111.0799,-7.5368],[111.0816,-7.5372],[111.085,-7.5344],[111.0871,-7.5361],[111.0992,-7.5493],[111.1003,-7.554],[111.1043,-7.5573]]]}},{"type":"Feature","properties":{"name":"Sumberejo","name_en":"Sumberejo","admin_level":"7","osm_id":""},"geometry":{"type":"Polygon","coordinates":[[[111.0508,-7.5303],[111.0487,-7.5281],[111.0497,-7.5244],[111.0521,-7.5225],[111.0511,-7.5202],[111.0545,-7.5188],[111.0574,-7.5216],[111.0577,-7.5176],[111.0528,-7.5131],[111.0532,-7.509],[111.0577,-7.5093],[111.0602,-7.5136],[111.0656,-7.5137],[111.0686,-7.5083],[111.0716,-7.512],[111.071,-7.5136],[111.0729,-7.5134],[111.0699,-7.5223],[111.0734,-7.5266],[111.0682,-7.5356],[111.0655,-7.5343],[111.0611,-7.5362],[111.0604,-7.5416],[111.0554,-7.5354],[111.056,-7.531],[111.0508,-7.5303]]]}},{"type":"Feature","properties":{"name":"Tamansari","name_en":"Tamansari","admin_level":"7","osm_id":""},"geometry":{"type":"Polygon","coordinates":[[[111.0613,-7.5869],[111.0531,-7.5811],[111.0519,-7.573],[111.0573,-7.57],[111.0496,-7.5623],[111.0481,-7.5542],[111.0506,-7.555],[111.0546,-7.5535],[111.0549,-7.5578],[111.0584,-7.5574],[111.0615,-7.5614],[111.0628,-7.5681],[111.0619,-7.5711],[111.0651,-7.5748],[111.0611,-7.5824],[111.0613,-7.5869]]]}},{"type":"Feature","properties":{"name":"Tawangsari","name_en":"Tawangsari","admin_level":"7","osm_id":""},"geometry":{"type":"Polygon","coordinates":[[[111.0793,-7.5172],[111.0728,-7.5152],[111.0729,-7.5134],[111.071,-7.5136],[111.0716,-7.512],[111.0682,-7.5081],[111.0657,-7.5136],[111.0602,-7.5136],[111.0568,-7.5082],[111.0583,-7.5038],[111.063,-7.5028],[111.0619,-7.5016],[111.0629,-7.4964],[111.0655,-7.4958],[111.0723,-7.4987],[111.073,-7.4966],[111.0748,-7.4967],[111.0791,-7.4992],[111.0789,-7.508],[111.0812,-7.5082],[111.0802,-7.5114],[111.0829,-7.5131],[111.0793,-7.5172]]]}}]}