{"type":"FeatureCollection","metadata":{"parent_osm_id":"gid_IDN_24_12_10_1","parent_name":"SabakAuh","parent_name_1":"Riau","parent_gid":"IDN.24.12.10_1","parent_level":"6","child_level":"7","count":8,"source":"GADM 4.1","generated":"2026-05-09"},"features":[{"type":"Feature","properties":{"name":"BandarPedada","name_en":"BandarPedada","admin_level":"7","osm_id":""},"geometry":{"type":"Polygon","coordinates":[[[102.0866,1.1137],[102.0943,1.1249],[102.1082,1.1178],[102.1052,1.1117],[102.112,1.1087],[102.1044,1.1042],[102.0808,1.105],[102.0866,1.1137]]]}},{"type":"Feature","properties":{"name":"BandarSungai","name_en":"BandarSungai","admin_level":"7","osm_id":""},"geometry":{"type":"Polygon","coordinates":[[[102.0711,1.0907],[102.0808,1.105],[102.1043,1.1042],[102.1022,1.0993],[102.1029,1.0966],[102.1066,1.0921],[102.1115,1.0911],[102.0711,1.0907]]]}},{"type":"Feature","properties":{"name":"Belading","name_en":"Belading","admin_level":"7","osm_id":""},"geometry":{"type":"Polygon","coordinates":[[[102.0943,1.1249],[102.1067,1.137],[102.1303,1.1417],[102.1373,1.1417],[102.1556,1.1304],[102.1472,1.1278],[102.1255,1.1257],[102.1168,1.1121],[102.112,1.1087],[102.1052,1.1117],[102.1082,1.1178],[102.0943,1.1249]]]}},{"type":"Feature","properties":{"name":"Laksamana","name_en":"Laksamana","admin_level":"7","osm_id":""},"geometry":{"type":"Polygon","coordinates":[[[102.1067,1.137],[102.1098,1.1474],[102.1319,1.1769],[102.1358,1.1783],[102.1428,1.1685],[102.1443,1.1528],[102.1378,1.1414],[102.1303,1.1417],[102.1067,1.137]]]}},{"type":"Feature","properties":{"name":"Rempak","name_en":"Rempak","admin_level":"7","osm_id":""},"geometry":{"type":"Polygon","coordinates":[[[102.1556,1.1304],[102.1378,1.1414],[102.1443,1.1528],[102.1438,1.1585],[102.1475,1.1585],[102.1502,1.1635],[102.155,1.1635],[102.1542,1.1599],[102.1571,1.1541],[102.1556,1.1417],[102.1585,1.1336],[102.1556,1.1304]]]}},{"type":"Feature","properties":{"name":"SabakPermai","name_en":"SabakPermai","admin_level":"7","osm_id":""},"geometry":{"type":"Polygon","coordinates":[[[102.0589,1.0736],[102.0711,1.0907],[102.1144,1.0905],[102.1073,1.0864],[102.1,1.0791],[102.0589,1.0736]]]}},{"type":"Feature","properties":{"name":"SelatGuntung","name_en":"SelatGuntung","admin_level":"7","osm_id":""},"geometry":{"type":"Polygon","coordinates":[[[102.1358,1.1783],[102.1426,1.1806],[102.1463,1.1867],[102.151,1.1869],[102.1586,1.1901],[102.1634,1.1912],[102.1676,1.1858],[102.1662,1.1791],[102.1573,1.1709],[102.155,1.1635],[102.1502,1.1635],[102.1475,1.1585],[102.1438,1.1585],[102.1428,1.1685],[102.1358,1.1783]]]}},{"type":"Feature","properties":{"name":"SungaiTengah","name_en":"SungaiTengah","admin_level":"7","osm_id":""},"geometry":{"type":"Polygon","coordinates":[[[102.0562,1.0699],[102.0589,1.0736],[102.1,1.0791],[102.1073,1.0864],[102.1144,1.0905],[102.1281,1.0876],[102.1313,1.0847],[102.132,1.0812],[102.1308,1.0649],[102.1288,1.0597],[102.1239,1.0567],[102.1111,1.0598],[102.0948,1.0531],[102.0666,1.0695],[102.0562,1.0699]]]}}]}