{"type":"FeatureCollection","metadata":{"parent_osm_id":"gid_IDN_14_8_3_1","parent_name":"BukitSantuai","parent_name_1":"KalimantanTengah","parent_gid":"IDN.14.8.3_1","parent_level":"6","child_level":"7","count":14,"source":"GADM 4.1","generated":"2026-05-07"},"features":[{"type":"Feature","properties":{"name":"LunukBagantung","name_en":"LunukBagantung","admin_level":"7","osm_id":""},"geometry":{"type":"Polygon","coordinates":[[[112.3205,-1.6067],[112.3403,-1.6283],[112.3587,-1.6631],[112.3681,-1.6729],[112.3124,-1.6754],[112.3099,-1.6766],[112.3075,-1.6875],[112.2999,-1.6873],[112.2871,-1.6915],[112.2826,-1.6884],[112.2773,-1.6918],[112.2502,-1.6538],[112.3023,-1.6222],[112.3205,-1.6067]]]}},{"type":"Feature","properties":{"name":"TanahHaluan","name_en":"TanahHaluan","admin_level":"7","osm_id":""},"geometry":{"type":"Polygon","coordinates":[[[112.4993,-1.8281],[112.5072,-1.8525],[112.5153,-1.8569],[112.4761,-1.8646],[112.3786,-1.8965],[112.2775,-1.9269],[112.2716,-1.8946],[112.3599,-1.8719],[112.4083,-1.8562],[112.4391,-1.843],[112.4993,-1.8281]]]}},{"type":"Feature","properties":{"name":"TeweiHara","name_en":"TeweiHara","admin_level":"7","osm_id":""},"geometry":{"type":"Polygon","coordinates":[[[112.2935,-1.7235],[112.3185,-1.7626],[112.3303,-1.7773],[112.3456,-1.8202],[112.3098,-1.831],[112.2536,-1.8419],[112.2512,-1.8312],[112.2473,-1.8281],[112.2389,-1.8266],[112.2337,-1.8206],[112.2781,-1.8102],[112.281,-1.8007],[112.2799,-1.7764],[112.2573,-1.7315],[112.2935,-1.7235]]]}},{"type":"Feature","properties":{"name":"TumbangBatu","name_en":"TumbangBatu","admin_level":"7","osm_id":""},"geometry":{"type":"Polygon","coordinates":[[[112.4492,-1.5916],[112.4623,-1.6147],[112.4664,-1.6425],[112.4791,-1.6898],[112.4841,-1.744],[112.4839,-1.7788],[112.4853,-1.7839],[112.4669,-1.7861],[112.435,-1.7931],[112.4264,-1.7969],[112.4051,-1.7692],[112.3858,-1.7482],[112.3709,-1.7037],[112.3715,-1.6763],[112.3587,-1.6631],[112.3403,-1.6283],[112.2986,-1.5819],[112.2851,-1.5465],[112.2999,-1.5475],[112.3154,-1.5517],[112.3325,-1.56],[112.3619,-1.5532],[112.3955,-1.5533],[112.4204,-1.559],[112.4366,-1.5715],[112.4492,-1.5916]]]}},{"type":"Feature","properties":{"name":"TumbangGetas","name_en":"TumbangGetas","admin_level":"7","osm_id":""},"geometry":{"type":"Polygon","coordinates":[[[112.3456,-1.8202],[112.3303,-1.7773],[112.3185,-1.7626],[112.2935,-1.7235],[112.3723,-1.7091],[112.3858,-1.7482],[112.4017,-1.7654],[112.3885,-1.7679],[112.3861,-1.7703],[112.382,-1.7821],[112.3806,-1.7981],[112.3718,-1.8099],[112.3456,-1.8202]]]}},{"type":"Feature","properties":{"name":"TumbangKaminting","name_en":"TumbangKaminting","admin_level":"7","osm_id":""},"geometry":{"type":"Polygon","coordinates":[[[112.5153,-1.8569],[112.5202,-1.8595],[112.527,-1.8595],[112.5216,-1.8665],[112.5176,-1.8762],[112.5162,-1.9045],[112.4818,-1.9113],[112.4057,-1.9463],[112.2854,-1.9934],[112.285,-1.9746],[112.2775,-1.9269],[112.3786,-1.8965],[112.4761,-1.8646],[112.5153,-1.8569]]]}},{"type":"Feature","properties":{"name":"TumbangKania","name_en":"TumbangKania","admin_level":"7","osm_id":""},"geometry":{"type":"Polygon","coordinates":[[[112.2573,-1.7315],[112.2799,-1.7764],[112.281,-1.8007],[112.2781,-1.8102],[112.2337,-1.8206],[112.2345,-1.8112],[112.2316,-1.8062],[112.2018,-1.7862],[112.1981,-1.7703],[112.1923,-1.758],[112.1843,-1.748],[112.2573,-1.7315]]]}},{"type":"Feature","properties":{"name":"TumbangPayang","name_en":"TumbangPayang","admin_level":"7","osm_id":""},"geometry":{"type":"Polygon","coordinates":[[[112.2504,-1.6537],[112.2773,-1.6918],[112.2832,-1.7068],[112.2935,-1.7235],[112.1843,-1.748],[112.1411,-1.6953],[112.0894,-1.6437],[112.1648,-1.6614],[112.2226,-1.6334],[112.2504,-1.6537]]]}},{"type":"Feature","properties":{"name":"TumbangPenyahuan","name_en":"TumbangPenyahuan","admin_level":"7","osm_id":""},"geometry":{"type":"Polygon","coordinates":[[[112.4853,-1.7839],[112.4993,-1.8281],[112.4391,-1.843],[112.4083,-1.8562],[112.3599,-1.8719],[112.2716,-1.8946],[112.2694,-1.8859],[112.261,-1.8809],[112.2572,-1.8732],[112.261,-1.8664],[112.2607,-1.8615],[112.2536,-1.8554],[112.3303,-1.843],[112.3815,-1.8315],[112.3975,-1.8258],[112.4145,-1.8022],[112.435,-1.7931],[112.4669,-1.7861],[112.4853,-1.7839]]]}},{"type":"Feature","properties":{"name":"TumbangSaluang","name_en":"TumbangSaluang","admin_level":"7","osm_id":""},"geometry":{"type":"Polygon","coordinates":[[[112.1264,-1.4425],[112.1392,-1.4425],[112.1727,-1.451],[112.2009,-1.4622],[112.2311,-1.479],[112.2635,-1.4986],[112.2926,-1.5224],[112.3154,-1.5517],[112.2999,-1.5475],[112.2849,-1.5464],[112.2579,-1.5553],[112.2255,-1.5763],[112.2194,-1.6038],[112.2226,-1.6334],[112.1648,-1.6614],[112.0894,-1.6437],[112.0727,-1.5987],[112.0709,-1.5698],[112.0787,-1.5438],[112.1122,-1.495],[112.1254,-1.4522],[112.1264,-1.4425]]]}},{"type":"Feature","properties":{"name":"TumbangSapia","name_en":"TumbangSapia","admin_level":"7","osm_id":""},"geometry":{"type":"Polygon","coordinates":[[[112.2536,-1.8419],[112.3098,-1.831],[112.3567,-1.8169],[112.3697,-1.8115],[112.3806,-1.7981],[112.382,-1.7821],[112.3861,-1.7703],[112.3885,-1.7679],[112.4017,-1.7654],[112.4264,-1.7969],[112.4145,-1.8022],[112.3975,-1.8258],[112.3815,-1.8315],[112.3303,-1.843],[112.2536,-1.8554],[112.2557,-1.851],[112.2536,-1.8419]]]}},{"type":"Feature","properties":{"name":"TumbangTawan","name_en":"TumbangTawan","admin_level":"7","osm_id":""},"geometry":{"type":"Polygon","coordinates":[[[112.3205,-1.6067],[112.3023,-1.6222],[112.2504,-1.6537],[112.2226,-1.6334],[112.2194,-1.6038],[112.2255,-1.5763],[112.2579,-1.5553],[112.2849,-1.5464],[112.2986,-1.5819],[112.3205,-1.6067]]]}},{"type":"Feature","properties":{"name":"TumbangTilap","name_en":"TumbangTilap","admin_level":"7","osm_id":""},"geometry":{"type":"Polygon","coordinates":[[[112.2854,-1.9934],[112.4057,-1.9463],[112.419,-1.9391],[112.4871,-1.9098],[112.5162,-1.9045],[112.52,-1.9221],[112.5276,-1.9272],[112.5248,-1.9492],[112.4924,-1.9531],[112.421,-1.9701],[112.3798,-1.9846],[112.2848,-2.0265],[112.2854,-1.9934]]]}},{"type":"Feature","properties":{"name":"TumbangTurung","name_en":"TumbangTurung","admin_level":"7","osm_id":""},"geometry":{"type":"Polygon","coordinates":[[[112.2773,-1.6918],[112.2826,-1.6884],[112.2871,-1.6915],[112.2999,-1.6873],[112.3075,-1.6875],[112.3099,-1.6766],[112.3124,-1.6754],[112.3681,-1.6729],[112.3715,-1.6763],[112.3705,-1.6969],[112.3723,-1.7091],[112.2935,-1.7235],[112.2832,-1.7068],[112.2773,-1.6918]]]}}]}