{"type":"FeatureCollection","metadata":{"parent_osm_id":"gid_IDN_23_16_18_1","parent_name":"Tubang","parent_name_1":"Papua","parent_gid":"IDN.23.16.18_1","parent_level":"6","child_level":"7","count":6,"source":"GADM 4.1","generated":"2026-05-09"},"features":[{"type":"Feature","properties":{"name":"Dodalim","name_en":"Dodalim","admin_level":"7","osm_id":""},"geometry":{"type":"Polygon","coordinates":[[[139.1071,-7.8876],[139.1494,-7.8122],[139.1652,-7.8227],[139.1665,-7.8246],[139.1668,-7.8351],[139.17,-7.8424],[139.169,-7.851],[139.162,-7.8535],[139.1598,-7.856],[139.1595,-7.871],[139.1655,-7.8805],[139.1785,-7.8836],[139.1804,-7.8919],[139.1909,-7.9027],[139.1849,-7.9079],[139.196,-7.932],[139.1953,-7.9365],[139.189,-7.9408],[139.1796,-7.936],[139.1788,-7.9415],[139.1911,-7.9554],[139.1956,-7.9527],[139.1983,-7.9467],[139.2003,-7.9461],[139.202,-7.9477],[139.2036,-7.9575],[139.1995,-7.9647],[139.2045,-7.9649],[139.2068,-7.961],[139.2169,-7.9717],[139.2187,-7.9831],[139.2137,-7.9948],[139.2153,-8.0008],[139.2201,-8.0031],[139.2231,-8.0024],[139.2333,-7.989],[139.2397,-7.9898],[139.2409,-7.9925],[139.2397,-8.0004],[139.2325,-8.0157],[139.2307,-8.0335],[139.2267,-8.0425],[139.2283,-8.0516],[139.2405,-8.0622],[139.2409,-8.0666],[139.2379,-8.0707],[139.224,-8.0637],[139.2201,-8.0597],[139.213,-8.0415],[139.1955,-8.0251],[139.1916,-8.0158],[139.1894,-8.0023],[139.1808,-7.993],[139.1726,-7.9891],[139.1712,-7.9869],[139.1716,-7.9794],[139.1669,-7.9698],[139.1512,-7.9605],[139.148,-7.9566],[139.1444,-7.9473],[139.138,-7.9409],[139.1359,-7.9316],[139.1273,-7.9216],[139.118,-7.9152],[139.1166,-7.9113],[139.1173,-7.8952],[139.1159,-7.8923],[139.1071,-7.8876]]]}},{"type":"Feature","properties":{"name":"Dokib","name_en":"Dokib","admin_level":"7","osm_id":""},"geometry":{"type":"Polygon","coordinates":[[[139.0741,-8.0441],[139.0813,-8.0161],[139.0813,-7.9714],[139.0846,-7.9599],[139.1004,-7.9793],[139.1084,-7.9868],[139.1223,-8.0113],[139.126,-8.0142],[139.137,-8.0174],[139.1448,-8.0218],[139.165,-8.044],[139.167,-8.0633],[139.1794,-8.0767],[139.1853,-8.0874],[139.1868,-8.0979],[139.1892,-8.1027],[139.1591,-8.1129],[139.1605,-8.1006],[139.1646,-8.0944],[139.1632,-8.0898],[139.1497,-8.0804],[139.1288,-8.0752],[139.0909,-8.0596],[139.0825,-8.0492],[139.0741,-8.0441]]]}},{"type":"Feature","properties":{"name":"Wamal","name_en":"Wamal","admin_level":"7","osm_id":""},"geometry":{"type":"Polygon","coordinates":[[[139.0671,-8.1361],[139.0707,-8.1244],[139.066,-8.1188],[139.07,-8.1099],[139.0678,-8.1078],[139.0629,-8.1071],[139.0608,-8.104],[139.0653,-8.0937],[139.0622,-8.0865],[139.062,-8.0764],[139.0741,-8.0441],[139.0825,-8.0492],[139.0909,-8.0596],[139.1288,-8.0752],[139.1497,-8.0804],[139.1646,-8.092],[139.1646,-8.0944],[139.1605,-8.1006],[139.1605,-8.1088],[139.1585,-8.1132],[139.1346,-8.1193],[139.0994,-8.1328],[139.0836,-8.1372],[139.0671,-8.1361]]]}},{"type":"Feature","properties":{"name":"Welbuti","name_en":"Welbuti","admin_level":"7","osm_id":""},"geometry":{"type":"Polygon","coordinates":[[[139.2062,-7.711],[139.3138,-7.5192],[139.3594,-7.5362],[139.4243,-7.5343],[139.441,-7.5436],[139.4559,-7.5547],[139.467,-7.5696],[139.4781,-7.5788],[139.4874,-7.59],[139.5023,-7.6122],[139.5282,-7.6419],[139.5511,-7.6714],[139.6116,-7.698],[139.5999,-7.738],[139.5868,-7.7915],[139.569,-7.8223],[139.5536,-7.8425],[139.5287,-7.8663],[139.512,-7.8888],[139.5078,-7.8927],[139.5072,-7.8796],[139.5045,-7.8779],[139.4985,-7.8763],[139.4874,-7.8763],[139.4856,-7.8793],[139.4865,-7.8889],[139.4849,-7.8907],[139.4753,-7.8952],[139.4648,-7.8939],[139.4494,-7.905],[139.4428,-7.9062],[139.4374,-7.9052],[139.4355,-7.9062],[139.4348,-7.9141],[139.4289,-7.9182],[139.4223,-7.9171],[139.4174,-7.9095],[139.4132,-7.9057],[139.4014,-7.9191],[139.4017,-7.9309],[139.4055,-7.9437],[139.4115,-7.9499],[139.4119,-7.9543],[139.4085,-7.9641],[139.4051,-7.9654],[139.3961,-7.9628],[139.3919,-7.9573],[139.3903,-7.95],[139.3873,-7.9466],[139.3851,-7.9471],[139.3759,-7.9582],[139.3759,-7.9602],[139.3827,-7.9677],[139.3823,-7.9693],[139.3717,-7.9696],[139.3621,-7.9669],[139.3613,-7.9649],[139.3649,-7.9571],[139.3637,-7.9539],[139.3551,-7.9531],[139.3489,-7.9571],[139.3461,-7.9649],[139.3499,-7.976],[139.3473,-7.9795],[139.3429,-7.9803],[139.3393,-7.9787],[139.3381,-7.9681],[139.3353,-7.9652],[139.3267,-7.9641],[139.3185,-7.9688],[139.3093,-7.9717],[139.3093,-7.9779],[139.3133,-7.9862],[139.3109,-7.989],[139.3039,-7.9901],[139.2979,-7.987],[139.2979,-7.9787],[139.3055,-7.974],[139.3071,-7.9693],[139.3051,-7.9661],[139.2991,-7.9634],[139.2929,-7.9638],[139.2819,-7.9701],[139.2723,-7.972],[139.2669,-7.9842],[139.2613,-7.9839],[139.2511,-7.9594],[139.2476,-7.9546],[139.2492,-7.9438],[139.2404,-7.9268],[139.2311,-7.917],[139.2303,-7.9129],[139.2361,-7.9119],[139.2396,-7.9064],[139.2429,-7.9048],[139.2489,-7.8884],[139.2493,-7.8763],[139.2447,-7.8652],[139.2482,-7.847],[139.2443,-7.8324],[139.2447,-7.8195],[139.2432,-7.817],[139.2375,-7.8142],[139.2343,-7.8145],[139.2304,-7.8224],[139.2261,-7.8238],[139.2107,-7.8156],[139.2097,-7.7928],[139.21,-7.7878],[139.2136,-7.7788],[139.2137,-7.764],[139.2118,-7.7537],[139.2032,-7.7399],[139.2031,-7.7337],[139.206,-7.7227],[139.2062,-7.711]]]}},{"type":"Feature","properties":{"name":"Woboyo","name_en":"Woboyo","admin_level":"7","osm_id":""},"geometry":{"type":"Polygon","coordinates":[[[139.1494,-7.8122],[139.2062,-7.711],[139.206,-7.7227],[139.2031,-7.7337],[139.2032,-7.7399],[139.2118,-7.7537],[139.2137,-7.764],[139.2136,-7.7788],[139.21,-7.7878],[139.2097,-7.7928],[139.2107,-7.8156],[139.2261,-7.8238],[139.2304,-7.8224],[139.2343,-7.8145],[139.2404,-7.8153],[139.2447,-7.8195],[139.2443,-7.8324],[139.2482,-7.847],[139.2447,-7.8652],[139.2493,-7.8763],[139.2496,-7.8849],[139.2429,-7.9048],[139.2396,-7.9064],[139.2361,-7.9119],[139.2303,-7.9129],[139.2301,-7.9142],[139.2311,-7.917],[139.2404,-7.9268],[139.2492,-7.9438],[139.2476,-7.9546],[139.2441,-7.9535],[139.2339,-7.9582],[139.2259,-7.9508],[139.2165,-7.9511],[139.2073,-7.9551],[139.2057,-7.9574],[139.2068,-7.961],[139.2054,-7.9638],[139.2004,-7.9654],[139.1994,-7.9636],[139.2036,-7.9575],[139.202,-7.9477],[139.2003,-7.9461],[139.1983,-7.9467],[139.1956,-7.9527],[139.1911,-7.9554],[139.1801,-7.9436],[139.1785,-7.9372],[139.1796,-7.936],[139.189,-7.9408],[139.1936,-7.9383],[139.196,-7.9343],[139.1938,-7.9251],[139.1867,-7.914],[139.1849,-7.9079],[139.1909,-7.9027],[139.1804,-7.8919],[139.1785,-7.8836],[139.1655,-7.8805],[139.1595,-7.871],[139.1598,-7.856],[139.162,-7.8535],[139.169,-7.851],[139.17,-7.8424],[139.1668,-7.8351],[139.1665,-7.8246],[139.1652,-7.8227],[139.1494,-7.8122]]]}},{"type":"Feature","properties":{"name":"Yowied","name_en":"Yowied","admin_level":"7","osm_id":""},"geometry":{"type":"Polygon","coordinates":[[[139.1006,-7.8991],[139.1071,-7.8876],[139.1159,-7.8923],[139.1177,-7.8984],[139.1166,-7.9113],[139.118,-7.9152],[139.1273,-7.9216],[139.1359,-7.9316],[139.138,-7.9409],[139.1444,-7.9473],[139.148,-7.9566],[139.1512,-7.9605],[139.1669,-7.9698],[139.1716,-7.9794],[139.1712,-7.9869],[139.1726,-7.9891],[139.1808,-7.993],[139.1894,-8.0023],[139.1916,-8.0158],[139.1955,-8.0251],[139.213,-8.0415],[139.2201,-8.0597],[139.224,-8.0637],[139.2379,-8.0707],[139.2283,-8.0788],[139.2239,-8.0949],[139.2076,-8.0973],[139.1892,-8.1027],[139.1868,-8.0979],[139.1853,-8.0874],[139.1794,-8.0767],[139.167,-8.0633],[139.165,-8.044],[139.1448,-8.0218],[139.137,-8.0174],[139.126,-8.0142],[139.1223,-8.0113],[139.1084,-7.9868],[139.1004,-7.9793],[139.0846,-7.9599],[139.0885,-7.9464],[139.0885,-7.9267],[139.1006,-7.8991]]]}}]}