{"type":"FeatureCollection","metadata":{"parent_osm_id":"15985854","parent_name":"Purwadadi","parent_name_1":"JawaBarat","parent_gid":"IDN.9.23.22_1","parent_level":"6","child_level":"7","count":10,"source":"GADM 4.1","generated":"2026-05-09"},"features":[{"type":"Feature","properties":{"name":"Belendung","name_en":"Belendung","admin_level":"7","osm_id":""},"geometry":{"type":"Polygon","coordinates":[[[107.6659,-6.4842],[107.6651,-6.4823],[107.6677,-6.4799],[107.6691,-6.4752],[107.6697,-6.463],[107.6726,-6.4587],[107.68,-6.4557],[107.678,-6.4609],[107.6831,-6.4622],[107.6901,-6.4611],[107.6926,-6.4662],[107.6904,-6.4751],[107.6878,-6.4788],[107.6755,-6.4802],[107.6659,-6.4842]]]}},{"type":"Feature","properties":{"name":"Koranji","name_en":"Koranji","admin_level":"7","osm_id":""},"geometry":{"type":"Polygon","coordinates":[[[107.6593,-6.4709],[107.6594,-6.4679],[107.6535,-6.4611],[107.6521,-6.4557],[107.664,-6.4467],[107.6693,-6.4475],[107.6735,-6.4399],[107.6716,-6.4399],[107.6728,-6.4318],[107.675,-6.428],[107.674,-6.4249],[107.6765,-6.4252],[107.6773,-6.4312],[107.6751,-6.4309],[107.6746,-6.4349],[107.6753,-6.4373],[107.6814,-6.4424],[107.6778,-6.4514],[107.6817,-6.4508],[107.6806,-6.4544],[107.672,-6.4592],[107.6697,-6.463],[107.6693,-6.4711],[107.6631,-6.4736],[107.6593,-6.4709]]]}},{"type":"Feature","properties":{"name":"Pagon","name_en":"Pagon","admin_level":"7","osm_id":""},"geometry":{"type":"Polygon","coordinates":[[[107.7234,-6.4803],[107.7234,-6.483],[107.7018,-6.4838],[107.6977,-6.4779],[107.6982,-6.4705],[107.6955,-6.4697],[107.6981,-6.4667],[107.6983,-6.4631],[107.7038,-6.4668],[107.7178,-6.4678],[107.7234,-6.4803]]]}},{"type":"Feature","properties":{"name":"Panyingkiran","name_en":"Panyingkiran","admin_level":"7","osm_id":""},"geometry":{"type":"Polygon","coordinates":[[[107.648,-6.453],[107.643,-6.4481],[107.6438,-6.44],[107.639,-6.4324],[107.6396,-6.4304],[107.6446,-6.4298],[107.6593,-6.4305],[107.6617,-6.4254],[107.6602,-6.4211],[107.6633,-6.4175],[107.6621,-6.4139],[107.6601,-6.4132],[107.6558,-6.4004],[107.6637,-6.3996],[107.6645,-6.4061],[107.663,-6.4114],[107.6665,-6.4217],[107.6633,-6.4282],[107.6611,-6.4285],[107.6612,-6.4334],[107.6592,-6.4353],[107.6604,-6.4414],[107.6631,-6.4433],[107.664,-6.4467],[107.6543,-6.4548],[107.6521,-6.4557],[107.6496,-6.4521],[107.648,-6.453]]]}},{"type":"Feature","properties":{"name":"Parapatan","name_en":"Parapatan","admin_level":"7","osm_id":""},"geometry":{"type":"Polygon","coordinates":[[[107.718,-6.434],[107.7286,-6.436],[107.7299,-6.4421],[107.7289,-6.4517],[107.7227,-6.4556],[107.7178,-6.4678],[107.7035,-6.4667],[107.7,-6.463],[107.704,-6.4525],[107.7026,-6.4496],[107.7048,-6.4391],[107.7065,-6.4423],[107.7096,-6.4429],[107.7163,-6.4336],[107.718,-6.434]]]}},{"type":"Feature","properties":{"name":"Pasirbungur","name_en":"Pasirbungur","admin_level":"7","osm_id":""},"geometry":{"type":"Polygon","coordinates":[[[107.7105,-6.3835],[107.7133,-6.3938],[107.7127,-6.3967],[107.7154,-6.3993],[107.7074,-6.4082],[107.7032,-6.4102],[107.703,-6.4082],[107.6992,-6.4093],[107.7008,-6.4254],[107.6951,-6.427],[107.695,-6.433],[107.7032,-6.4321],[107.7022,-6.4336],[107.7048,-6.4391],[107.7026,-6.4496],[107.6965,-6.4496],[107.69,-6.4464],[107.6914,-6.4407],[107.6892,-6.4403],[107.6888,-6.4426],[107.6793,-6.441],[107.6753,-6.4373],[107.6747,-6.4316],[107.6773,-6.4312],[107.6773,-6.4292],[107.675,-6.4189],[107.677,-6.4173],[107.6748,-6.4167],[107.6738,-6.4137],[107.6801,-6.4076],[107.6782,-6.4039],[107.6797,-6.4024],[107.6778,-6.401],[107.6791,-6.3977],[107.6766,-6.3936],[107.6796,-6.3883],[107.6843,-6.3874],[107.684,-6.3842],[107.6867,-6.3782],[107.6922,-6.3799],[107.6949,-6.3833],[107.6977,-6.3822],[107.7105,-6.3835]]]}},{"type":"Feature","properties":{"name":"PurwadadiBarat","name_en":"PurwadadiBarat","admin_level":"7","osm_id":""},"geometry":{"type":"Polygon","coordinates":[[[107.6901,-6.4611],[107.6831,-6.4622],[107.678,-6.4609],[107.6817,-6.4508],[107.6778,-6.4514],[107.6807,-6.4466],[107.6814,-6.4427],[107.68,-6.4406],[107.6888,-6.4426],[107.6892,-6.4403],[107.6916,-6.4409],[107.6873,-6.4549],[107.6901,-6.4611]]]}},{"type":"Feature","properties":{"name":"PurwadadiTimur","name_en":"PurwadadiTimur","admin_level":"7","osm_id":""},"geometry":{"type":"Polygon","coordinates":[[[107.6915,-6.4711],[107.6923,-6.4646],[107.6873,-6.4549],[107.6891,-6.4458],[107.6965,-6.4496],[107.7026,-6.4496],[107.704,-6.4523],[107.7,-6.4636],[107.6986,-6.4628],[107.6978,-6.4643],[107.6981,-6.4667],[107.6955,-6.4697],[107.6915,-6.4711]]]}},{"type":"Feature","properties":{"name":"Rancamahi","name_en":"Rancamahi","admin_level":"7","osm_id":""},"geometry":{"type":"Polygon","coordinates":[[[107.6637,-6.4001],[107.6686,-6.4021],[107.6713,-6.3943],[107.6766,-6.3938],[107.6791,-6.3977],[107.6778,-6.401],[107.6797,-6.4024],[107.6782,-6.4039],[107.6801,-6.4076],[107.6738,-6.4136],[107.6748,-6.4167],[107.677,-6.4172],[107.675,-6.4192],[107.6765,-6.4252],[107.674,-6.4249],[107.675,-6.428],[107.6728,-6.4318],[107.6716,-6.4399],[107.6735,-6.4399],[107.6693,-6.4475],[107.664,-6.4467],[107.6631,-6.4433],[107.6604,-6.4414],[107.6592,-6.4353],[107.6612,-6.4334],[107.6611,-6.4285],[107.6633,-6.4282],[107.6665,-6.4217],[107.663,-6.4114],[107.6645,-6.4061],[107.6637,-6.4001]]]}},{"type":"Feature","properties":{"name":"Wanakerta","name_en":"Wanakerta","admin_level":"7","osm_id":""},"geometry":{"type":"Polygon","coordinates":[[[107.7041,-6.484],[107.7006,-6.4987],[107.6956,-6.5037],[107.6784,-6.5016],[107.6738,-6.4955],[107.6695,-6.4934],[107.666,-6.4865],[107.6659,-6.4842],[107.6755,-6.4802],[107.6878,-6.4788],[107.6915,-6.4711],[107.6967,-6.4695],[107.6982,-6.4705],[107.6977,-6.4779],[107.7018,-6.4838],[107.7041,-6.484]]]}}]}