{"type":"FeatureCollection","metadata":{"parent_osm_id":"gid_IDN_10_22_10_1","parent_name":"Lebakbarang","parent_name_1":"JawaTengah","parent_gid":"IDN.10.22.10_1","parent_level":"6","child_level":"7","count":11,"source":"GADM 4.1","generated":"2026-05-09"},"features":[{"type":"Feature","properties":{"name":"BantarKulon","name_en":"BantarKulon","admin_level":"7","osm_id":""},"geometry":{"type":"Polygon","coordinates":[[[109.6656,-7.0979],[109.6732,-7.1007],[109.6749,-7.1033],[109.6744,-7.1127],[109.6685,-7.1191],[109.664,-7.118],[109.6609,-7.119],[109.6574,-7.1109],[109.6536,-7.1066],[109.6531,-7.0958],[109.659,-7.0979],[109.6656,-7.0979]]]}},{"type":"Feature","properties":{"name":"Depok","name_en":"Depok","admin_level":"7","osm_id":""},"geometry":{"type":"Polygon","coordinates":[[[109.683,-7.1733],[109.6761,-7.1725],[109.6733,-7.174],[109.6657,-7.1641],[109.6652,-7.1573],[109.6749,-7.1541],[109.6752,-7.1561],[109.6826,-7.164],[109.6864,-7.1643],[109.6884,-7.1671],[109.683,-7.1733]]]}},{"type":"Feature","properties":{"name":"Kapundutan","name_en":"Kapundutan","admin_level":"7","osm_id":""},"geometry":{"type":"Polygon","coordinates":[[[109.6744,-7.1127],[109.677,-7.1131],[109.679,-7.1167],[109.6828,-7.1179],[109.6833,-7.1199],[109.6861,-7.1211],[109.6917,-7.118],[109.7016,-7.1197],[109.7082,-7.1266],[109.7037,-7.1288],[109.6936,-7.1297],[109.6823,-7.1351],[109.674,-7.1348],[109.6642,-7.1274],[109.6647,-7.1254],[109.6631,-7.1246],[109.664,-7.1227],[109.6609,-7.119],[109.664,-7.118],[109.6685,-7.1191],[109.6744,-7.1127]]]}},{"type":"Feature","properties":{"name":"Kutorembet","name_en":"Kutorembet","admin_level":"7","osm_id":""},"geometry":{"type":"Polygon","coordinates":[[[109.6199,-7.1216],[109.6219,-7.1162],[109.6219,-7.1099],[109.636,-7.1084],[109.6408,-7.1099],[109.6399,-7.1132],[109.6416,-7.1203],[109.646,-7.1231],[109.6469,-7.1276],[109.6463,-7.1334],[109.6409,-7.1386],[109.638,-7.1456],[109.6284,-7.1335],[109.6282,-7.1313],[109.6207,-7.1263],[109.6199,-7.1216]]]}},{"type":"Feature","properties":{"name":"Lebakbarang","name_en":"Lebakbarang","admin_level":"7","osm_id":""},"geometry":{"type":"Polygon","coordinates":[[[109.6545,-7.1078],[109.664,-7.1227],[109.6631,-7.1246],[109.6647,-7.1254],[109.6642,-7.1274],[109.668,-7.1296],[109.6653,-7.1302],[109.6643,-7.1368],[109.6545,-7.1364],[109.6454,-7.1464],[109.6388,-7.146],[109.6409,-7.1386],[109.6463,-7.1334],[109.6469,-7.1276],[109.646,-7.1231],[109.6416,-7.1203],[109.6399,-7.1132],[109.6408,-7.1099],[109.6498,-7.1114],[109.6545,-7.1078]]]}},{"type":"Feature","properties":{"name":"Mendolo","name_en":"Mendolo","admin_level":"7","osm_id":""},"geometry":{"type":"Polygon","coordinates":[[[109.6219,-7.1099],[109.6212,-7.1073],[109.6225,-7.1055],[109.6182,-7.0943],[109.6227,-7.0901],[109.6228,-7.0825],[109.6273,-7.0801],[109.6305,-7.0829],[109.6378,-7.084],[109.6401,-7.0864],[109.647,-7.0879],[109.649,-7.092],[109.6537,-7.0957],[109.6545,-7.1078],[109.6515,-7.1109],[109.6442,-7.1108],[109.6384,-7.1084],[109.6219,-7.1099]]]}},{"type":"Feature","properties":{"name":"Pamutuh","name_en":"Pamutuh","admin_level":"7","osm_id":""},"geometry":{"type":"Polygon","coordinates":[[[109.6519,-7.1751],[109.6476,-7.1712],[109.6463,-7.1671],[109.6476,-7.1647],[109.6544,-7.1588],[109.6597,-7.1511],[109.668,-7.1504],[109.6748,-7.1471],[109.6749,-7.1541],[109.6652,-7.1573],[109.6657,-7.1641],[109.6733,-7.174],[109.672,-7.1768],[109.6638,-7.1785],[109.6519,-7.1751]]]}},{"type":"Feature","properties":{"name":"Sidomulyo","name_en":"Sidomulyo","admin_level":"7","osm_id":""},"geometry":{"type":"Polygon","coordinates":[[[109.6678,-7.1299],[109.674,-7.1348],[109.6819,-7.1348],[109.6851,-7.1389],[109.6799,-7.1438],[109.668,-7.1504],[109.6604,-7.1517],[109.6532,-7.1492],[109.636,-7.1488],[109.638,-7.1456],[109.6454,-7.1464],[109.6545,-7.1364],[109.6643,-7.1368],[109.6653,-7.1302],[109.6678,-7.1299]]]}},{"type":"Feature","properties":{"name":"TembelangGunung","name_en":"TembelangGunung","admin_level":"7","osm_id":""},"geometry":{"type":"Polygon","coordinates":[[[109.648,-7.1721],[109.6426,-7.1743],[109.6381,-7.1733],[109.6366,-7.1715],[109.6385,-7.1687],[109.6379,-7.1669],[109.6324,-7.1653],[109.6307,-7.1563],[109.636,-7.1488],[109.6474,-7.1486],[109.6597,-7.1511],[109.6544,-7.1588],[109.6466,-7.1662],[109.648,-7.1721]]]}},{"type":"Feature","properties":{"name":"Timbangsari","name_en":"Timbangsari","admin_level":"7","osm_id":""},"geometry":{"type":"Polygon","coordinates":[[[109.6826,-7.164],[109.6752,-7.1561],[109.6748,-7.1471],[109.6851,-7.1389],[109.6897,-7.1414],[109.6911,-7.148],[109.6842,-7.1577],[109.6853,-7.1601],[109.6826,-7.164]]]}},{"type":"Feature","properties":{"name":"Wonosido","name_en":"Wonosido","admin_level":"7","osm_id":""},"geometry":{"type":"Polygon","coordinates":[[[109.6884,-7.1671],[109.6862,-7.1642],[109.6826,-7.164],[109.6853,-7.1601],[109.6842,-7.1577],[109.6921,-7.1447],[109.6994,-7.15],[109.7003,-7.1599],[109.6981,-7.1643],[109.6951,-7.1649],[109.6905,-7.1703],[109.6884,-7.1671]]]}}]}