{"type":"FeatureCollection","metadata":{"parent_osm_id":"gid_IDN_21_8_7_1","parent_name":"Welak","parent_name_1":"NusaTenggaraTimur","parent_gid":"IDN.21.8.7_1","parent_level":"6","child_level":"7","count":11,"source":"GADM 4.1","generated":"2026-05-09"},"features":[{"type":"Feature","properties":{"name":"Dunta","name_en":"Dunta","admin_level":"7","osm_id":""},"geometry":{"type":"Polygon","coordinates":[[[120.2349,-8.595],[120.2311,-8.5983],[120.229,-8.6048],[120.2237,-8.6062],[120.2221,-8.6098],[120.2177,-8.6127],[120.2161,-8.612],[120.2151,-8.5804],[120.2205,-8.58],[120.2248,-8.5731],[120.2266,-8.5728],[120.2298,-8.5808],[120.233,-8.5829],[120.2349,-8.595]]]}},{"type":"Feature","properties":{"name":"Galang","name_en":"Galang","admin_level":"7","osm_id":""},"geometry":{"type":"Polygon","coordinates":[[[120.2373,-8.6608],[120.2343,-8.6642],[120.2258,-8.6675],[120.2217,-8.6633],[120.2183,-8.6657],[120.2147,-8.6652],[120.2133,-8.6672],[120.2137,-8.6639],[120.2112,-8.6634],[120.2096,-8.6653],[120.2085,-8.6624],[120.206,-8.6677],[120.2028,-8.6676],[120.204,-8.6712],[120.1996,-8.6718],[120.1969,-8.6714],[120.1961,-8.6693],[120.1911,-8.6688],[120.188,-8.6653],[120.1916,-8.659],[120.1942,-8.6592],[120.197,-8.6571],[120.199,-8.6514],[120.2114,-8.6456],[120.2134,-8.6469],[120.2138,-8.6416],[120.2164,-8.6448],[120.2169,-8.6426],[120.2185,-8.6429],[120.2201,-8.6492],[120.2257,-8.6526],[120.2265,-8.6551],[120.2312,-8.6564],[120.2325,-8.6589],[120.2373,-8.6608]]]}},{"type":"Feature","properties":{"name":"GoloRonggot","name_en":"GoloRonggot","admin_level":"7","osm_id":""},"geometry":{"type":"Polygon","coordinates":[[[120.1679,-8.6683],[120.1656,-8.6688],[120.1648,-8.6744],[120.1626,-8.6713],[120.1615,-8.6717],[120.1606,-8.6778],[120.1584,-8.6742],[120.1556,-8.6735],[120.1499,-8.6765],[120.15,-8.6799],[120.1476,-8.6793],[120.1455,-8.6809],[120.144,-8.6788],[120.1399,-8.6777],[120.1422,-8.6816],[120.1384,-8.6861],[120.1339,-8.6815],[120.1251,-8.6793],[120.1318,-8.6771],[120.1293,-8.6705],[120.1302,-8.6655],[120.1329,-8.662],[120.131,-8.6581],[120.1348,-8.6582],[120.1349,-8.6523],[120.1394,-8.6509],[120.1359,-8.6438],[120.1365,-8.6415],[120.145,-8.6345],[120.1457,-8.6291],[120.1501,-8.6249],[120.1485,-8.62],[120.1518,-8.6161],[120.1467,-8.6158],[120.1474,-8.6094],[120.1455,-8.6075],[120.142,-8.6072],[120.1381,-8.6031],[120.1405,-8.5993],[120.1402,-8.5961],[120.1436,-8.5951],[120.1497,-8.5888],[120.1556,-8.5883],[120.1598,-8.5941],[120.1642,-8.6061],[120.1668,-8.6063],[120.1692,-8.6105],[120.1725,-8.6119],[120.1697,-8.6442],[120.1668,-8.6594],[120.1679,-8.6683]]]}},{"type":"Feature","properties":{"name":"Gurung","name_en":"Gurung","admin_level":"7","osm_id":""},"geometry":{"type":"Polygon","coordinates":[[[120.2324,-8.5972],[120.236,-8.6011],[120.2452,-8.604],[120.2458,-8.6059],[120.2405,-8.6249],[120.2344,-8.6301],[120.2303,-8.6404],[120.2311,-8.6425],[120.2256,-8.6438],[120.2185,-8.6416],[120.2164,-8.6448],[120.213,-8.6414],[120.2154,-8.6385],[120.2149,-8.6356],[120.2167,-8.6312],[120.2114,-8.625],[120.2104,-8.6178],[120.212,-8.6173],[120.2115,-8.6148],[120.2139,-8.6154],[120.2134,-8.6129],[120.2176,-8.6128],[120.2221,-8.6098],[120.2237,-8.6062],[120.229,-8.6048],[120.2324,-8.5972]]]}},{"type":"Feature","properties":{"name":"Lale","name_en":"Lale","admin_level":"7","osm_id":""},"geometry":{"type":"Polygon","coordinates":[[[120.1837,-8.6674],[120.1815,-8.6662],[120.1817,-8.6636],[120.1771,-8.6639],[120.1761,-8.6657],[120.1736,-8.6635],[120.1717,-8.668],[120.1679,-8.6683],[120.1668,-8.6594],[120.1697,-8.6442],[120.1725,-8.6119],[120.1928,-8.6232],[120.1995,-8.6197],[120.2103,-8.6225],[120.2167,-8.6312],[120.2149,-8.6356],[120.2154,-8.6385],[120.213,-8.6414],[120.2134,-8.6469],[120.2114,-8.6456],[120.199,-8.6514],[120.197,-8.6571],[120.1942,-8.6592],[120.1916,-8.659],[120.188,-8.6653],[120.1837,-8.6674]]]}},{"type":"Feature","properties":{"name":"Orong","name_en":"Orong","admin_level":"7","osm_id":""},"geometry":{"type":"Polygon","coordinates":[[[120.2584,-8.602],[120.2654,-8.6011],[120.2669,-8.6025],[120.2725,-8.603],[120.2791,-8.5967],[120.2909,-8.5906],[120.2852,-8.5975],[120.2851,-8.605],[120.2822,-8.6094],[120.2741,-8.6141],[120.2573,-8.6154],[120.2493,-8.6176],[120.2495,-8.6243],[120.2457,-8.6282],[120.2448,-8.6386],[120.2417,-8.6414],[120.2409,-8.6498],[120.2374,-8.6608],[120.2358,-8.6603],[120.2325,-8.6589],[120.2312,-8.6564],[120.2265,-8.6551],[120.2257,-8.6526],[120.2201,-8.6492],[120.2185,-8.6416],[120.2256,-8.6438],[120.2311,-8.6425],[120.2303,-8.6404],[120.2344,-8.6301],[120.2405,-8.6249],[120.2406,-8.621],[120.2457,-8.6077],[120.2452,-8.604],[120.2549,-8.604],[120.2584,-8.602]]]}},{"type":"Feature","properties":{"name":"Pengka","name_en":"Pengka","admin_level":"7","osm_id":""},"geometry":{"type":"Polygon","coordinates":[[[120.1581,-8.5618],[120.1684,-8.5683],[120.1773,-8.5658],[120.1832,-8.5677],[120.1863,-8.5905],[120.1908,-8.6039],[120.1859,-8.608],[120.1842,-8.607],[120.1836,-8.6091],[120.1852,-8.6098],[120.1834,-8.61],[120.1837,-8.6123],[120.179,-8.6114],[120.1763,-8.6148],[120.1735,-8.6118],[120.1692,-8.6105],[120.1668,-8.6063],[120.1642,-8.6061],[120.1622,-8.6028],[120.1598,-8.5941],[120.1556,-8.5883],[120.1497,-8.5888],[120.1436,-8.5951],[120.1417,-8.595],[120.1439,-8.5867],[120.1416,-8.5862],[120.1414,-8.5762],[120.1373,-8.5748],[120.1366,-8.57],[120.1315,-8.5679],[120.1321,-8.564],[120.1307,-8.5614],[120.1493,-8.5601],[120.1581,-8.5618]]]}},{"type":"Feature","properties":{"name":"PongWelak","name_en":"PongWelak","admin_level":"7","osm_id":""},"geometry":{"type":"Polygon","coordinates":[[[120.255,-8.6496],[120.2525,-8.6514],[120.2483,-8.6502],[120.2476,-8.658],[120.2456,-8.6594],[120.2403,-8.6615],[120.2374,-8.6608],[120.241,-8.6493],[120.2417,-8.6414],[120.2448,-8.6386],[120.2457,-8.6282],[120.2495,-8.6243],[120.2492,-8.6178],[120.2573,-8.6154],[120.2741,-8.6141],[120.2822,-8.6094],[120.2809,-8.6185],[120.2607,-8.6346],[120.2553,-8.6445],[120.255,-8.6496]]]}},{"type":"Feature","properties":{"name":"Rehak","name_en":"Rehak","admin_level":"7","osm_id":""},"geometry":{"type":"Polygon","coordinates":[[[120.2797,-8.6473],[120.2776,-8.6482],[120.2748,-8.645],[120.2707,-8.6467],[120.2681,-8.6442],[120.2669,-8.6462],[120.2586,-8.6474],[120.2568,-8.6497],[120.2549,-8.6486],[120.2553,-8.6445],[120.2607,-8.6346],[120.2809,-8.6185],[120.2806,-8.6255],[120.2889,-8.6331],[120.2902,-8.6372],[120.2895,-8.6421],[120.2877,-8.6426],[120.2874,-8.6446],[120.2818,-8.645],[120.2797,-8.6473]]]}},{"type":"Feature","properties":{"name":"Semang","name_en":"Semang","admin_level":"7","osm_id":""},"geometry":{"type":"Polygon","coordinates":[[[120.2224,-8.5518],[120.225,-8.5566],[120.2248,-8.5687],[120.2266,-8.5728],[120.2243,-8.5734],[120.2205,-8.58],[120.2128,-8.5806],[120.2032,-8.587],[120.1986,-8.5866],[120.1998,-8.5905],[120.1946,-8.5948],[120.1954,-8.5982],[120.1936,-8.5993],[120.1923,-8.5982],[120.1908,-8.6039],[120.1863,-8.5905],[120.1832,-8.5677],[120.1883,-8.5697],[120.1946,-8.5658],[120.196,-8.5627],[120.207,-8.5602],[120.2077,-8.5584],[120.216,-8.5533],[120.2183,-8.5539],[120.2224,-8.5518]]]}},{"type":"Feature","properties":{"name":"WatuUmpu","name_en":"WatuUmpu","admin_level":"7","osm_id":""},"geometry":{"type":"Polygon","coordinates":[[[120.2151,-8.5804],[120.2161,-8.612],[120.2134,-8.6129],[120.2138,-8.6156],[120.2114,-8.615],[120.2103,-8.6225],[120.1995,-8.6197],[120.1928,-8.6232],[120.1804,-8.6169],[120.1773,-8.6137],[120.179,-8.6114],[120.1838,-8.6123],[120.1834,-8.61],[120.1852,-8.6098],[120.1836,-8.6091],[120.1842,-8.607],[120.1858,-8.608],[120.1896,-8.6058],[120.1923,-8.5982],[120.1936,-8.5993],[120.1954,-8.5982],[120.1946,-8.5948],[120.1998,-8.5905],[120.1986,-8.5866],[120.2032,-8.587],[120.2128,-8.5806],[120.2151,-8.5804]]]}}]}