{"type":"FeatureCollection","metadata":{"parent_osm_id":"gid_IDN_17_5_13_1","parent_name":"MataramBaru","parent_name_1":"Lampung","parent_gid":"IDN.17.5.13_1","parent_level":"6","child_level":"7","count":7,"source":"GADM 4.1","generated":"2026-05-09"},"features":[{"type":"Feature","properties":{"name":"KebonDamar","name_en":"KebonDamar","admin_level":"7","osm_id":""},"geometry":{"type":"Polygon","coordinates":[[[105.8015,-5.2413],[105.8052,-5.2437],[105.796,-5.2514],[105.7975,-5.2538],[105.7964,-5.2585],[105.7982,-5.2601],[105.797,-5.2616],[105.7994,-5.2762],[105.7932,-5.2791],[105.791,-5.2779],[105.7778,-5.2788],[105.7776,-5.2754],[105.7731,-5.2684],[105.7735,-5.2615],[105.7741,-5.2598],[105.7837,-5.2552],[105.7831,-5.2436],[105.7862,-5.2446],[105.7936,-5.24],[105.8015,-5.2413]]]}},{"type":"Feature","properties":{"name":"MandalaSari","name_en":"MandalaSari","admin_level":"7","osm_id":""},"geometry":{"type":"Polygon","coordinates":[[[105.8085,-5.2817],[105.8018,-5.3013],[105.7782,-5.2927],[105.7775,-5.2788],[105.791,-5.2779],[105.7932,-5.2791],[105.8008,-5.2761],[105.8032,-5.2766],[105.8036,-5.2794],[105.8085,-5.2817]]]}},{"type":"Feature","properties":{"name":"MataramBaru","name_en":"MataramBaru","admin_level":"7","osm_id":""},"geometry":{"type":"Polygon","coordinates":[[[105.7582,-5.3075],[105.7519,-5.2966],[105.7564,-5.2946],[105.7558,-5.2931],[105.7511,-5.2938],[105.7481,-5.2837],[105.7405,-5.2857],[105.7398,-5.2828],[105.7461,-5.2764],[105.7638,-5.2707],[105.7775,-5.2787],[105.7782,-5.2927],[105.7647,-5.3045],[105.7582,-5.3075]]]}},{"type":"Feature","properties":{"name":"RajabasaBaru","name_en":"RajabasaBaru","admin_level":"7","osm_id":""},"geometry":{"type":"Polygon","coordinates":[[[105.722,-5.2874],[105.7177,-5.2803],[105.7154,-5.2704],[105.7128,-5.2675],[105.7264,-5.262],[105.7325,-5.2627],[105.7403,-5.261],[105.7422,-5.2668],[105.7441,-5.2663],[105.7463,-5.2722],[105.745,-5.2786],[105.7401,-5.2828],[105.7321,-5.2857],[105.7314,-5.2913],[105.7297,-5.2923],[105.7265,-5.2882],[105.722,-5.2874]]]}},{"type":"Feature","properties":{"name":"TelukDalem","name_en":"TelukDalem","admin_level":"7","osm_id":""},"geometry":{"type":"Polygon","coordinates":[[[105.7125,-5.2561],[105.7135,-5.2539],[105.7273,-5.2514],[105.7364,-5.2362],[105.7474,-5.2342],[105.7547,-5.2374],[105.7508,-5.2457],[105.7529,-5.2505],[105.7523,-5.2549],[105.7472,-5.2589],[105.7343,-5.2625],[105.7264,-5.262],[105.7166,-5.2664],[105.7125,-5.2561]]]}},{"type":"Feature","properties":{"name":"Tulungpasik","name_en":"Tulungpasik","admin_level":"7","osm_id":""},"geometry":{"type":"Polygon","coordinates":[[[105.7609,-5.3137],[105.7582,-5.3075],[105.7647,-5.3045],[105.7778,-5.2929],[105.7949,-5.2998],[105.789,-5.3049],[105.7672,-5.317],[105.7609,-5.3137]]]}},{"type":"Feature","properties":{"name":"WaiArang","name_en":"WaiArang","admin_level":"7","osm_id":""},"geometry":{"type":"Polygon","coordinates":[[[105.7135,-5.2539],[105.712,-5.253],[105.7108,-5.2455],[105.7085,-5.2451],[105.7093,-5.239],[105.7189,-5.2346],[105.7273,-5.2349],[105.7324,-5.2323],[105.7358,-5.234],[105.7365,-5.2365],[105.7339,-5.242],[105.7273,-5.2514],[105.7135,-5.2539]]]}}]}