{"type":"FeatureCollection","metadata":{"parent_osm_id":"gid_IDN_8_6_8_1","parent_name":"SungaiGelam","parent_name_1":"Jambi","parent_gid":"IDN.8.6.8_1","parent_level":"6","child_level":"7","count":14,"source":"GADM 4.1","generated":"2026-05-08"},"features":[{"type":"Feature","properties":{"name":"GambutJaya","name_en":"GambutJaya","admin_level":"7","osm_id":""},"geometry":{"type":"Polygon","coordinates":[[[103.9122,-1.6756],[103.944,-1.6758],[103.9337,-1.7107],[103.9334,-1.7388],[103.8976,-1.7385],[103.9028,-1.7235],[103.9073,-1.7258],[103.9122,-1.6756]]]}},{"type":"Feature","properties":{"name":"KebonSembilan","name_en":"KebonSembilan","admin_level":"7","osm_id":""},"geometry":{"type":"Polygon","coordinates":[[[103.6495,-1.6572],[103.654,-1.6558],[103.6549,-1.6517],[103.6598,-1.6505],[103.6586,-1.6441],[103.6627,-1.6431],[103.6732,-1.6482],[103.6825,-1.6666],[103.7094,-1.6823],[103.7047,-1.6919],[103.6985,-1.6938],[103.6786,-1.6784],[103.6594,-1.6895],[103.6495,-1.6572]]]}},{"type":"Feature","properties":{"name":"LadangPanjang","name_en":"LadangPanjang","admin_level":"7","osm_id":""},"geometry":{"type":"Polygon","coordinates":[[[103.6492,-1.8278],[103.6477,-1.8223],[103.6485,-1.8072],[103.6525,-1.7982],[103.6506,-1.7783],[103.634,-1.7557],[103.6317,-1.7444],[103.6327,-1.7303],[103.6514,-1.74],[103.6622,-1.7302],[103.6891,-1.7266],[103.6963,-1.729],[103.7521,-1.7356],[103.8012,-1.7509],[103.7908,-1.8171],[103.7771,-1.8203],[103.7661,-1.816],[103.7428,-1.8234],[103.7177,-1.8282],[103.6626,-1.8458],[103.6547,-1.8449],[103.6496,-1.8397],[103.6508,-1.8325],[103.6492,-1.8278]]]}},{"type":"Feature","properties":{"name":"MekarJaya","name_en":"MekarJaya","admin_level":"7","osm_id":""},"geometry":{"type":"Polygon","coordinates":[[[103.6247,-1.6635],[103.6267,-1.6644],[103.6279,-1.6564],[103.6309,-1.6533],[103.6323,-1.656],[103.6398,-1.6551],[103.6408,-1.6566],[103.6439,-1.6552],[103.6495,-1.6572],[103.6579,-1.683],[103.6263,-1.6831],[103.6309,-1.6764],[103.6272,-1.6764],[103.6262,-1.6722],[103.6183,-1.6685],[103.6188,-1.666],[103.6124,-1.6659],[103.608,-1.6596],[103.6138,-1.6564],[103.6247,-1.6635]]]}},{"type":"Feature","properties":{"name":"MingkungJaya","name_en":"MingkungJaya","admin_level":"7","osm_id":""},"geometry":{"type":"Polygon","coordinates":[[[103.8401,-1.7921],[103.84,-1.7636],[103.8807,-1.7611],[103.8874,-1.7726],[103.8936,-1.7778],[103.8946,-1.7827],[103.8919,-1.7927],[103.8407,-1.8047],[103.8401,-1.7921]]]}},{"type":"Feature","properties":{"name":"Parit","name_en":"Parit","admin_level":"7","osm_id":""},"geometry":{"type":"Polygon","coordinates":[[[103.784,-1.6557],[103.7859,-1.6678],[103.798,-1.6731],[103.8071,-1.6804],[103.8148,-1.6882],[103.8313,-1.7114],[103.8337,-1.7119],[103.84,-1.7094],[103.8593,-1.7088],[103.8637,-1.707],[103.8621,-1.7243],[103.791,-1.7234],[103.7668,-1.7051],[103.7598,-1.7013],[103.7717,-1.6687],[103.7717,-1.6611],[103.784,-1.6557]]]}},{"type":"Feature","properties":{"name":"PetalingJaya","name_en":"PetalingJaya","admin_level":"7","osm_id":""},"geometry":{"type":"Polygon","coordinates":[[[103.84,-1.7636],[103.8401,-1.7921],[103.8173,-1.7919],[103.8175,-1.7563],[103.84,-1.7636]]]}},{"type":"Feature","properties":{"name":"SumberAgung","name_en":"SumberAgung","admin_level":"7","osm_id":""},"geometry":{"type":"Polygon","coordinates":[[[103.8709,-1.6771],[103.9122,-1.6756],[103.9073,-1.7258],[103.9028,-1.7235],[103.8975,-1.7387],[103.8959,-1.7398],[103.8897,-1.738],[103.8817,-1.7401],[103.8725,-1.7386],[103.8621,-1.724],[103.864,-1.7004],[103.8629,-1.6776],[103.8709,-1.6771]]]}},{"type":"Feature","properties":{"name":"SungaiGelam","name_en":"SungaiGelam","admin_level":"7","osm_id":""},"geometry":{"type":"Polygon","coordinates":[[[103.7741,-1.6333],[103.7763,-1.6407],[103.784,-1.6557],[103.7717,-1.6611],[103.7717,-1.6687],[103.7598,-1.7013],[103.7668,-1.7051],[103.791,-1.7234],[103.8621,-1.724],[103.8725,-1.7386],[103.8752,-1.7398],[103.8861,-1.7398],[103.8897,-1.738],[103.8959,-1.7398],[103.8998,-1.7383],[103.9334,-1.7388],[103.9337,-1.7107],[103.944,-1.6758],[103.9667,-1.6769],[103.975,-1.6862],[103.9823,-1.6977],[103.9896,-1.7042],[103.9993,-1.7074],[104.0074,-1.708],[104.003,-1.727],[104.0023,-1.7384],[104.0038,-1.7542],[103.9126,-1.7782],[103.9109,-1.7874],[103.8919,-1.7927],[103.8946,-1.7827],[103.8936,-1.7778],[103.8874,-1.7726],[103.8807,-1.7611],[103.8398,-1.7636],[103.7991,-1.7493],[103.7521,-1.7356],[103.715,-1.7312],[103.7146,-1.7246],[103.7129,-1.7219],[103.7154,-1.714],[103.7139,-1.7082],[103.7111,-1.7025],[103.6985,-1.6938],[103.7047,-1.6919],[103.7094,-1.6823],[103.6969,-1.6744],[103.7442,-1.6308],[103.7741,-1.6333]]]}},{"type":"Feature","properties":{"name":"TalangBelido","name_en":"TalangBelido","admin_level":"7","osm_id":""},"geometry":{"type":"Polygon","coordinates":[[[103.6209,-1.6946],[103.6208,-1.6912],[103.6263,-1.6831],[103.6579,-1.683],[103.6643,-1.7102],[103.6789,-1.7106],[103.6903,-1.7158],[103.6891,-1.7266],[103.6622,-1.7302],[103.6514,-1.74],[103.6335,-1.7308],[103.6341,-1.7246],[103.6295,-1.7168],[103.6224,-1.7128],[103.6209,-1.6946]]]}},{"type":"Feature","properties":{"name":"TalangKerinci","name_en":"TalangKerinci","admin_level":"7","osm_id":""},"geometry":{"type":"Polygon","coordinates":[[[103.6594,-1.6895],[103.6786,-1.6784],[103.7111,-1.7025],[103.7154,-1.714],[103.7129,-1.7219],[103.7146,-1.7246],[103.715,-1.7312],[103.6963,-1.729],[103.6891,-1.7266],[103.6903,-1.7158],[103.6789,-1.7106],[103.6643,-1.7102],[103.6594,-1.6895]]]}},{"type":"Feature","properties":{"name":"Tangkit","name_en":"Tangkit","admin_level":"7","osm_id":""},"geometry":{"type":"Polygon","coordinates":[[[103.6707,-1.6306],[103.6747,-1.629],[103.6765,-1.6217],[103.6807,-1.6179],[103.6984,-1.638],[103.7043,-1.6316],[103.7093,-1.6314],[103.7202,-1.626],[103.7329,-1.6412],[103.6969,-1.6746],[103.6825,-1.6666],[103.6732,-1.6482],[103.6627,-1.6431],[103.6659,-1.6399],[103.6701,-1.6405],[103.6692,-1.6328],[103.6707,-1.6306]]]}},{"type":"Feature","properties":{"name":"TangkitBaru","name_en":"TangkitBaru","admin_level":"7","osm_id":""},"geometry":{"type":"Polygon","coordinates":[[[103.6807,-1.6179],[103.6808,-1.6163],[103.679,-1.6154],[103.6789,-1.6076],[103.6834,-1.6092],[103.6838,-1.6121],[103.6878,-1.6145],[103.692,-1.6112],[103.689,-1.607],[103.6888,-1.6041],[103.6908,-1.6024],[103.6936,-1.6051],[103.6991,-1.6008],[103.6991,-1.5966],[103.7074,-1.5987],[103.7116,-1.5965],[103.7189,-1.6045],[103.7257,-1.5981],[103.7337,-1.607],[103.7317,-1.6209],[103.7472,-1.6217],[103.7468,-1.628],[103.733,-1.6413],[103.7202,-1.626],[103.7093,-1.6314],[103.7043,-1.6316],[103.6984,-1.638],[103.6807,-1.6179]]]}},{"type":"Feature","properties":{"name":"Trimulya","name_en":"Trimulya","admin_level":"7","osm_id":""},"geometry":{"type":"Polygon","coordinates":[[[103.7909,-1.817],[103.7969,-1.7783],[103.8012,-1.7509],[103.8175,-1.7564],[103.8173,-1.7919],[103.8402,-1.7921],[103.8407,-1.8047],[103.7909,-1.817]]]}}]}