{"type":"FeatureCollection","metadata":{"parent_osm_id":"gid_IDN_26_2_7_1","parent_name":"TaneteRilau","parent_name_1":"SulawesiSelatan","parent_gid":"IDN.26.2.7_1","parent_level":"6","child_level":"7","count":10,"source":"GADM 4.1","generated":"2026-05-08"},"features":[{"type":"Feature","properties":{"name":"Corawali","name_en":"Corawali","admin_level":"7","osm_id":""},"geometry":{"type":"Polygon","coordinates":[[[119.6307,-4.5052],[119.6348,-4.5094],[119.6257,-4.5151],[119.6148,-4.5179],[119.6034,-4.5125],[119.6028,-4.5164],[119.5988,-4.5169],[119.5981,-4.5229],[119.5959,-4.5228],[119.5944,-4.5246],[119.5926,-4.5221],[119.5928,-4.5267],[119.5903,-4.527],[119.5889,-4.5248],[119.5883,-4.5271],[119.5844,-4.5242],[119.5901,-4.5063],[119.6013,-4.5076],[119.6012,-4.5064],[119.6307,-4.5052]]]}},{"type":"Feature","properties":{"name":"Garessi","name_en":"Garessi","admin_level":"7","osm_id":""},"geometry":{"type":"Polygon","coordinates":[[[119.6008,-4.4264],[119.6052,-4.4322],[119.6102,-4.4326],[119.612,-4.4301],[119.6183,-4.4346],[119.6292,-4.4353],[119.637,-4.4397],[119.6243,-4.4471],[119.6179,-4.4466],[119.6174,-4.448],[119.6158,-4.444],[119.6121,-4.4418],[119.6034,-4.4422],[119.6013,-4.4453],[119.5991,-4.4449],[119.5971,-4.441],[119.5985,-4.4349],[119.6005,-4.4327],[119.6008,-4.4264]]]}},{"type":"Feature","properties":{"name":"Lalabata","name_en":"Lalabata","admin_level":"7","osm_id":""},"geometry":{"type":"Polygon","coordinates":[[[119.6469,-4.5473],[119.6414,-4.5533],[119.639,-4.5604],[119.6322,-4.5511],[119.6302,-4.551],[119.6285,-4.5549],[119.6227,-4.5529],[119.6209,-4.5505],[119.6211,-4.5441],[119.6173,-4.5413],[119.6176,-4.5392],[119.6105,-4.5342],[119.6128,-4.529],[119.6092,-4.5292],[119.6064,-4.5256],[119.6027,-4.5263],[119.5981,-4.5229],[119.5988,-4.5169],[119.6028,-4.5164],[119.6034,-4.5125],[119.6148,-4.5179],[119.6257,-4.5151],[119.6346,-4.5094],[119.6471,-4.5269],[119.6499,-4.5391],[119.6469,-4.5473]]]}},{"type":"Feature","properties":{"name":"Lalolang","name_en":"Lalolang","admin_level":"7","osm_id":""},"geometry":{"type":"Polygon","coordinates":[[[119.5991,-4.4772],[119.6,-4.4707],[119.6012,-4.4705],[119.6049,-4.4712],[119.6061,-4.4738],[119.6088,-4.474],[119.6091,-4.4759],[119.6139,-4.4768],[119.613,-4.4825],[119.6072,-4.4904],[119.5992,-4.4879],[119.6034,-4.4865],[119.5991,-4.4772]]]}},{"type":"Feature","properties":{"name":"Lasitae","name_en":"Lasitae","admin_level":"7","osm_id":""},"geometry":{"type":"Polygon","coordinates":[[[119.6377,-4.5638],[119.6324,-4.5742],[119.6262,-4.5798],[119.6246,-4.5755],[119.6198,-4.5707],[119.6194,-4.5666],[119.6064,-4.559],[119.6024,-4.5589],[119.598,-4.5558],[119.5938,-4.5567],[119.5914,-4.5525],[119.5918,-4.5483],[119.5901,-4.5431],[119.5962,-4.5442],[119.5978,-4.547],[119.6012,-4.5478],[119.6047,-4.5458],[119.6084,-4.5459],[119.6121,-4.5503],[119.6149,-4.5486],[119.619,-4.5496],[119.6227,-4.5529],[119.6282,-4.5549],[119.6302,-4.551],[119.6322,-4.5511],[119.639,-4.5604],[119.6377,-4.5638]]]}},{"type":"Feature","properties":{"name":"Lipukasi","name_en":"Lipukasi","admin_level":"7","osm_id":""},"geometry":{"type":"Polygon","coordinates":[[[119.637,-4.4397],[119.6446,-4.4506],[119.6526,-4.453],[119.656,-4.4559],[119.6581,-4.4637],[119.6535,-4.4705],[119.6475,-4.4759],[119.6441,-4.4817],[119.6396,-4.4782],[119.6405,-4.4749],[119.6352,-4.4734],[119.6328,-4.4673],[119.6188,-4.4683],[119.6153,-4.4738],[119.6107,-4.4743],[119.6095,-4.4713],[119.6127,-4.4674],[119.5976,-4.4491],[119.5978,-4.4454],[119.6013,-4.4453],[119.6034,-4.4422],[119.609,-4.4416],[119.6148,-4.443],[119.6174,-4.448],[119.6179,-4.4466],[119.6243,-4.4471],[119.637,-4.4397]]]}},{"type":"Feature","properties":{"name":"Pancana","name_en":"Pancana","admin_level":"7","osm_id":""},"geometry":{"type":"Polygon","coordinates":[[[119.5846,-4.5245],[119.5883,-4.5271],[119.5889,-4.5248],[119.5903,-4.527],[119.5928,-4.5267],[119.5929,-4.5221],[119.5944,-4.5246],[119.5978,-4.5229],[119.6027,-4.5263],[119.6064,-4.5256],[119.6092,-4.5292],[119.6125,-4.5288],[119.6105,-4.5342],[119.6176,-4.5392],[119.6173,-4.5413],[119.6211,-4.5441],[119.621,-4.5508],[119.6155,-4.5486],[119.6121,-4.5503],[119.6084,-4.5459],[119.5994,-4.5474],[119.5962,-4.5442],[119.5906,-4.5427],[119.5861,-4.5347],[119.5838,-4.5342],[119.5812,-4.5304],[119.5846,-4.5245]]]}},{"type":"Feature","properties":{"name":"Pao-pao","name_en":"Pao-pao","admin_level":"7","osm_id":""},"geometry":{"type":"Polygon","coordinates":[[[119.6254,-4.4968],[119.627,-4.5015],[119.6307,-4.5052],[119.6012,-4.5064],[119.6013,-4.5076],[119.5901,-4.5063],[119.5958,-4.4869],[119.6254,-4.4968]]]}},{"type":"Feature","properties":{"name":"Tanete","name_en":"Tanete","admin_level":"7","osm_id":""},"geometry":{"type":"Polygon","coordinates":[[[119.6136,-4.4807],[119.6139,-4.4768],[119.6091,-4.4759],[119.6088,-4.474],[119.6061,-4.4738],[119.6049,-4.4712],[119.6,-4.4707],[119.5998,-4.4606],[119.5967,-4.4514],[119.5976,-4.4491],[119.6113,-4.4648],[119.6127,-4.4674],[119.6095,-4.4713],[119.6107,-4.4743],[119.6143,-4.4744],[119.6188,-4.4683],[119.6208,-4.4682],[119.6205,-4.479],[119.6178,-4.4811],[119.6136,-4.4807]]]}},{"type":"Feature","properties":{"name":"Tellumpanua","name_en":"Tellumpanua","admin_level":"7","osm_id":""},"geometry":{"type":"Polygon","coordinates":[[[119.6365,-4.474],[119.6314,-4.4793],[119.6322,-4.4854],[119.6264,-4.4916],[119.6254,-4.4968],[119.6072,-4.4904],[119.6136,-4.4807],[119.6178,-4.4811],[119.6205,-4.479],[119.6208,-4.4682],[119.6328,-4.4673],[119.6365,-4.474]]]}}]}