{"type":"FeatureCollection","metadata":{"parent_osm_id":"gid_IDN_18_7_5_1","parent_name":"MorotaiUtara","parent_name_1":"MalukuUtara","parent_gid":"IDN.18.7.5_1","parent_level":"6","child_level":"7","count":10,"source":"GADM 4.1","generated":"2026-05-07"},"features":[{"type":"Feature","properties":{"name":"BereBere","name_en":"BereBere","admin_level":"7","osm_id":""},"geometry":{"type":"Polygon","coordinates":[[[128.5281,2.4541],[128.5944,2.4613],[128.6286,2.4312],[128.6561,2.4212],[128.6918,2.4197],[128.6885,2.4175],[128.6881,2.4116],[128.6836,2.4062],[128.6763,2.4001],[128.6684,2.3984],[128.6637,2.3914],[128.6006,2.4089],[128.564,2.4262],[128.5474,2.4374],[128.5281,2.4541]]]}},{"type":"Feature","properties":{"name":"Bido","name_en":"Bido","admin_level":"7","osm_id":""},"geometry":{"type":"Polygon","coordinates":[[[128.4274,2.3599],[128.4332,2.4135],[128.4743,2.3795],[128.5277,2.3407],[128.5883,2.3132],[128.6478,2.2992],[128.6487,2.2928],[128.6457,2.2878],[128.6442,2.2877],[128.6411,2.277],[128.639,2.2759],[128.6301,2.26],[128.6275,2.2477],[128.6089,2.2477],[128.5739,2.2617],[128.4927,2.3014],[128.4787,2.3063],[128.4274,2.3599]]]}},{"type":"Feature","properties":{"name":"Gorua","name_en":"Gorua","admin_level":"7","osm_id":""},"geometry":{"type":"Polygon","coordinates":[[[128.6918,2.4197],[128.6561,2.4212],[128.6286,2.4312],[128.6057,2.4514],[128.6267,2.4686],[128.6671,2.5081],[128.6699,2.5043],[128.67,2.4993],[128.6717,2.4984],[128.6733,2.4986],[128.678,2.5059],[128.6879,2.5018],[128.6926,2.4732],[128.6927,2.4608],[128.692,2.459],[128.6885,2.4594],[128.6876,2.4573],[128.6923,2.4444],[128.6917,2.4403],[128.6869,2.4318],[128.6888,2.4302],[128.6899,2.4314],[128.6897,2.4296],[128.6936,2.426],[128.6939,2.4224],[128.6918,2.4197]]]}},{"type":"Feature","properties":{"name":"Kenari","name_en":"Kenari","admin_level":"7","osm_id":""},"geometry":{"type":"Polygon","coordinates":[[[128.5281,2.4541],[128.5474,2.4374],[128.564,2.4262],[128.6006,2.4089],[128.6637,2.3914],[128.6661,2.385],[128.6653,2.3795],[128.5927,2.3938],[128.5632,2.4043],[128.5114,2.4304],[128.4975,2.4395],[128.491,2.4468],[128.4996,2.45],[128.5281,2.4541]]]}},{"type":"Feature","properties":{"name":"Korago","name_en":"Korago","admin_level":"7","osm_id":""},"geometry":{"type":"Polygon","coordinates":[[[128.6057,2.4514],[128.5944,2.4613],[128.6459,2.5315],[128.6516,2.5238],[128.6535,2.5242],[128.6538,2.5268],[128.6584,2.5252],[128.6613,2.5215],[128.6615,2.513],[128.664,2.5123],[128.6671,2.5081],[128.6267,2.4686],[128.6057,2.4514]]]}},{"type":"Feature","properties":{"name":"LeleoJaya","name_en":"LeleoJaya","admin_level":"7","osm_id":""},"geometry":{"type":"Polygon","coordinates":[[[128.4603,2.4354],[128.4846,2.4444],[128.5077,2.4236],[128.5761,2.3928],[128.6183,2.3837],[128.6535,2.3793],[128.6576,2.3769],[128.6517,2.371],[128.6481,2.3616],[128.6013,2.3621],[128.5518,2.3818],[128.5033,2.4113],[128.4793,2.4226],[128.4603,2.4354]]]}},{"type":"Feature","properties":{"name":"Losuo","name_en":"Losuo","admin_level":"7","osm_id":""},"geometry":{"type":"Polygon","coordinates":[[[128.5426,2.4562],[128.5501,2.4643],[128.6317,2.5533],[128.6361,2.5431],[128.6357,2.5403],[128.6317,2.5368],[128.6327,2.5339],[128.634,2.5342],[128.6365,2.5309],[128.644,2.5338],[128.6459,2.5315],[128.5944,2.4613],[128.5426,2.4562]]]}},{"type":"Feature","properties":{"name":"Sakita","name_en":"Sakita","admin_level":"7","osm_id":""},"geometry":{"type":"Polygon","coordinates":[[[128.4846,2.4444],[128.491,2.4468],[128.4975,2.4395],[128.5114,2.4304],[128.5632,2.4043],[128.5927,2.3938],[128.6649,2.379],[128.6626,2.3772],[128.6576,2.3769],[128.6535,2.3793],[128.6183,2.3837],[128.5761,2.3928],[128.5077,2.4236],[128.4846,2.4444]]]}},{"type":"Feature","properties":{"name":"Tawakali","name_en":"Tawakali","admin_level":"7","osm_id":""},"geometry":{"type":"Polygon","coordinates":[[[128.4485,2.431],[128.4603,2.4354],[128.4793,2.4226],[128.5033,2.4113],[128.5518,2.3818],[128.6013,2.3621],[128.6481,2.3616],[128.6474,2.3521],[128.6449,2.3455],[128.6452,2.3408],[128.6191,2.3415],[128.5768,2.3497],[128.5136,2.3783],[128.4842,2.3975],[128.4448,2.4296],[128.4485,2.431]]]}},{"type":"Feature","properties":{"name":"Yao","name_en":"Yao","admin_level":"7","osm_id":""},"geometry":{"type":"Polygon","coordinates":[[[128.4332,2.4135],[128.4347,2.4258],[128.4448,2.4296],[128.4842,2.3975],[128.5136,2.3783],[128.5768,2.3497],[128.6191,2.3415],[128.6452,2.3408],[128.6422,2.3372],[128.6414,2.331],[128.6457,2.3198],[128.6541,2.3114],[128.6535,2.3092],[128.6493,2.3043],[128.6478,2.2992],[128.5883,2.3132],[128.5277,2.3407],[128.4743,2.3795],[128.4332,2.4135]]]}}]}