{"type":"FeatureCollection","metadata":{"parent_osm_id":"gid_IDN_35_14_3","parent_name":"TarakanTimur","parent_name_1":"KalimantanUtara","parent_gid":"IDN.35.14.3","parent_level":"6","child_level":"7","count":7,"source":"GADM 4.1","generated":"2026-05-08"},"features":[{"type":"Feature","properties":{"name":"GunungLingkas","name_en":"GunungLingkas","admin_level":"7","osm_id":""},"geometry":{"type":"Polygon","coordinates":[[[117.5983,3.3007],[117.6031,3.3003],[117.6061,3.2941],[117.6094,3.2915],[117.6083,3.2879],[117.6119,3.2835],[117.6101,3.2799],[117.6063,3.279],[117.6021,3.2825],[117.6012,3.2807],[117.5972,3.2818],[117.5943,3.2795],[117.5888,3.2854],[117.594,3.2892],[117.5929,3.2917],[117.5953,3.296],[117.5986,3.2979],[117.5983,3.3007]]]}},{"type":"Feature","properties":{"name":"KampungEmpat","name_en":"KampungEmpat","admin_level":"7","osm_id":""},"geometry":{"type":"Polygon","coordinates":[[[117.6094,3.2915],[117.6132,3.2948],[117.6139,3.3029],[117.6168,3.3025],[117.6225,3.3067],[117.6289,3.3076],[117.6349,3.3107],[117.6373,3.3036],[117.6364,3.2944],[117.6333,3.2995],[117.63,3.3016],[117.6239,3.2954],[117.6232,3.2883],[117.6198,3.2872],[117.6191,3.2839],[117.6122,3.28],[117.6117,3.2843],[117.6083,3.2879],[117.6094,3.2915]]]}},{"type":"Feature","properties":{"name":"KampungEnam","name_en":"KampungEnam","admin_level":"7","osm_id":""},"geometry":{"type":"Polygon","coordinates":[[[117.6115,3.3085],[117.6182,3.3184],[117.6386,3.3388],[117.6189,3.3545],[117.6151,3.3591],[117.6146,3.362],[117.6224,3.3649],[117.6478,3.3627],[117.6468,3.3591],[117.648,3.3578],[117.6448,3.3546],[117.6461,3.3535],[117.6435,3.3508],[117.6469,3.3381],[117.6385,3.3277],[117.6356,3.3297],[117.6339,3.3229],[117.6349,3.3107],[117.6289,3.3076],[117.6225,3.3067],[117.6168,3.3025],[117.6139,3.3029],[117.6115,3.3085]]]}},{"type":"Feature","properties":{"name":"LingkasUjung","name_en":"LingkasUjung","admin_level":"7","osm_id":""},"geometry":{"type":"Polygon","coordinates":[[[117.5858,3.2893],[117.5905,3.2931],[117.5938,3.2928],[117.5928,3.2913],[117.594,3.2892],[117.5888,3.2854],[117.5858,3.2893]]]}},{"type":"Feature","properties":{"name":"Mamburungan","name_en":"Mamburungan","admin_level":"7","osm_id":""},"geometry":{"type":"Polygon","coordinates":[[[117.6097,3.2797],[117.6113,3.2818],[117.6122,3.28],[117.6191,3.2839],[117.6198,3.2872],[117.6232,3.2883],[117.6256,3.2986],[117.6307,3.3019],[117.6333,3.2995],[117.6349,3.2931],[117.6286,3.2881],[117.6224,3.2785],[117.6205,3.2662],[117.6375,3.2483],[117.6553,3.2561],[117.6571,3.2545],[117.6566,3.2501],[117.6498,3.24],[117.6419,3.2373],[117.6287,3.2417],[117.6186,3.2531],[117.6131,3.266],[117.6097,3.2797]]]}},{"type":"Feature","properties":{"name":"MamburunganTimur","name_en":"MamburunganTimur","admin_level":"7","osm_id":""},"geometry":{"type":"Polygon","coordinates":[[[117.6353,3.2949],[117.6408,3.2902],[117.6421,3.2869],[117.6467,3.2597],[117.6568,3.2568],[117.657,3.2546],[117.6536,3.2563],[117.6507,3.2532],[117.6375,3.2483],[117.6203,3.2678],[117.6224,3.2785],[117.6286,3.2881],[117.6336,3.2913],[117.6353,3.2949]]]}},{"type":"Feature","properties":{"name":"PantaiAmal","name_en":"PantaiAmal","admin_level":"7","osm_id":""},"geometry":{"type":"Polygon","coordinates":[[[117.6478,3.3627],[117.6679,3.3687],[117.6689,3.3619],[117.665,3.3585],[117.6637,3.3548],[117.6615,3.347],[117.6618,3.3401],[117.6581,3.3293],[117.659,3.317],[117.655,3.2908],[117.6574,3.2904],[117.6568,3.2568],[117.6467,3.2597],[117.6433,3.2828],[117.6408,3.2902],[117.6365,3.2945],[117.6373,3.3036],[117.6336,3.3156],[117.6356,3.3297],[117.6385,3.3277],[117.6469,3.3381],[117.6435,3.3508],[117.6461,3.3535],[117.6448,3.3546],[117.648,3.3578],[117.6468,3.3591],[117.6478,3.3627]]]}}]}