{"type":"FeatureCollection","metadata":{"parent_osm_id":"gid_IDN_32_12_8_1","parent_name":"NaIx-X","parent_name_1":"SumateraUtara","parent_gid":"IDN.32.12.8_1","parent_level":"6","child_level":"7","count":13,"source":"GADM 4.1","generated":"2026-05-08"},"features":[{"type":"Feature","properties":{"name":"AekKotaBatu","name_en":"AekKotaBatu","admin_level":"7","osm_id":""},"geometry":{"type":"Polygon","coordinates":[[[99.7742,2.2485],[99.7745,2.2473],[99.7299,2.2416],[99.7162,2.242],[99.7251,2.2496],[99.7259,2.262],[99.7228,2.2734],[99.7239,2.2767],[99.7406,2.2904],[99.7466,2.2923],[99.7489,2.2924],[99.7611,2.2813],[99.7696,2.2539],[99.7742,2.2485]]]}},{"type":"Feature","properties":{"name":"BangunRejo","name_en":"BangunRejo","admin_level":"7","osm_id":""},"geometry":{"type":"Polygon","coordinates":[[[99.6682,2.2879],[99.6858,2.296],[99.6899,2.3048],[99.6955,2.3105],[99.7044,2.3134],[99.7223,2.3277],[99.7327,2.3271],[99.738,2.3152],[99.7103,2.298],[99.6934,2.2892],[99.6761,2.2857],[99.6682,2.2879]]]}},{"type":"Feature","properties":{"name":"BatuTunggal","name_en":"BatuTunggal","admin_level":"7","osm_id":""},"geometry":{"type":"Polygon","coordinates":[[[99.599,2.1162],[99.6077,2.1473],[99.6109,2.1542],[99.6367,2.1631],[99.6478,2.1711],[99.6549,2.179],[99.6685,2.1551],[99.6777,2.143],[99.6872,2.1437],[99.7078,2.1559],[99.7161,2.1624],[99.7201,2.1755],[99.7243,2.1766],[99.742,2.1755],[99.7718,2.1715],[99.7712,2.1599],[99.7663,2.1379],[99.7608,2.1357],[99.7479,2.1342],[99.7445,2.1251],[99.7352,2.1201],[99.7303,2.1155],[99.727,2.1034],[99.7178,2.0861],[99.7102,2.0825],[99.693,2.0791],[99.6829,2.1043],[99.6774,2.1135],[99.671,2.1222],[99.6598,2.1263],[99.6516,2.1259],[99.6298,2.1151],[99.6197,2.1117],[99.6097,2.1127],[99.599,2.1162]]]}},{"type":"Feature","properties":{"name":"Hatapang","name_en":"Hatapang","admin_level":"7","osm_id":""},"geometry":{"type":"Polygon","coordinates":[[[99.5419,2.0871],[99.5431,2.0973],[99.5471,2.1002],[99.551,2.108],[99.5523,2.1218],[99.5515,2.133],[99.5462,2.1422],[99.538,2.1483],[99.5348,2.1533],[99.5357,2.1569],[99.5315,2.1718],[99.5315,2.1814],[99.539,2.1839],[99.554,2.1951],[99.5558,2.2014],[99.5602,2.2063],[99.563,2.2071],[99.569,2.2074],[99.5719,2.2047],[99.5716,2.1973],[99.5739,2.1852],[99.5778,2.1823],[99.5987,2.1864],[99.6098,2.1926],[99.6357,2.2122],[99.6468,2.2037],[99.6525,2.198],[99.6565,2.1892],[99.657,2.1837],[99.6549,2.179],[99.6478,2.1711],[99.6367,2.1631],[99.6109,2.1542],[99.6077,2.1473],[99.599,2.1162],[99.5865,2.0926],[99.5529,2.0511],[99.5462,2.0627],[99.5509,2.0781],[99.5419,2.0871]]]}},{"type":"Feature","properties":{"name":"KampungPajak","name_en":"KampungPajak","admin_level":"7","osm_id":""},"geometry":{"type":"Polygon","coordinates":[[[99.743,2.309],[99.7459,2.3089],[99.7518,2.3052],[99.7594,2.3058],[99.767,2.3113],[99.7735,2.3111],[99.7779,2.3135],[99.7813,2.3128],[99.7824,2.3153],[99.7851,2.3157],[99.7893,2.3134],[99.7891,2.2864],[99.7795,2.2775],[99.7727,2.262],[99.7742,2.2485],[99.7696,2.2539],[99.7611,2.2813],[99.7567,2.2853],[99.7516,2.297],[99.743,2.309]]]}},{"type":"Feature","properties":{"name":"MerantiOmas","name_en":"MerantiOmas","admin_level":"7","osm_id":""},"geometry":{"type":"Polygon","coordinates":[[[99.6456,2.2844],[99.6682,2.2879],[99.6761,2.2857],[99.6934,2.2892],[99.7103,2.298],[99.7239,2.2767],[99.7227,2.2732],[99.7073,2.2581],[99.6912,2.252],[99.6898,2.2565],[99.6903,2.2701],[99.6881,2.2697],[99.6714,2.2443],[99.6567,2.2339],[99.6357,2.2122],[99.6098,2.1926],[99.5987,2.1864],[99.5778,2.1823],[99.5739,2.1852],[99.5716,2.1973],[99.5719,2.2047],[99.5744,2.201],[99.5812,2.2003],[99.5916,2.2141],[99.5939,2.2234],[99.606,2.228],[99.6164,2.2388],[99.6203,2.25],[99.622,2.2609],[99.6305,2.2756],[99.6405,2.2838],[99.6456,2.2844]]]}},{"type":"Feature","properties":{"name":"PasangLela","name_en":"PasangLela","admin_level":"7","osm_id":""},"geometry":{"type":"Polygon","coordinates":[[[99.7616,2.1729],[99.742,2.1755],[99.7243,2.1766],[99.7201,2.1755],[99.7216,2.1792],[99.7206,2.1885],[99.7264,2.1858],[99.7463,2.1855],[99.754,2.1867],[99.7547,2.1899],[99.7616,2.1729]]]}},{"type":"Feature","properties":{"name":"Pematang","name_en":"Pematang","admin_level":"7","osm_id":""},"geometry":{"type":"Polygon","coordinates":[[[99.599,2.1162],[99.6177,2.1115],[99.6298,2.1151],[99.6516,2.1259],[99.6598,2.1263],[99.671,2.1222],[99.6829,2.1043],[99.693,2.0791],[99.6715,2.069],[99.6701,2.0548],[99.6631,2.0462],[99.6615,2.0367],[99.6555,2.0293],[99.6403,2.0366],[99.6366,2.0421],[99.6169,2.0411],[99.6172,2.0227],[99.6239,2.0143],[99.6271,2.0021],[99.6267,1.9992],[99.6233,1.9964],[99.6083,1.9969],[99.5982,2.0032],[99.5969,2.0091],[99.5931,2.011],[99.5911,2.0149],[99.5803,2.0219],[99.5734,2.029],[99.5678,2.0282],[99.5651,2.0302],[99.556,2.0418],[99.5529,2.0511],[99.5865,2.0926],[99.599,2.1162]]]}},{"type":"Feature","properties":{"name":"PerkebunanBerangir","name_en":"PerkebunanBerangir","admin_level":"7","osm_id":""},"geometry":{"type":"Polygon","coordinates":[[[99.7162,2.242],[99.7299,2.2416],[99.7525,2.2447],[99.7548,2.2376],[99.7617,2.2294],[99.7606,2.2236],[99.7629,2.2131],[99.7624,2.2081],[99.7594,2.2046],[99.7527,2.2034],[99.7514,2.2018],[99.7519,2.1943],[99.7547,2.1899],[99.754,2.1867],[99.7264,2.1858],[99.7175,2.1895],[99.7139,2.1867],[99.708,2.1871],[99.7073,2.2338],[99.7101,2.2383],[99.7162,2.242]]]}},{"type":"Feature","properties":{"name":"PuloJantan","name_en":"PuloJantan","admin_level":"7","osm_id":""},"geometry":{"type":"Polygon","coordinates":[[[99.7405,2.3108],[99.7516,2.297],[99.7567,2.2853],[99.7489,2.2924],[99.7435,2.2918],[99.7239,2.2767],[99.7103,2.298],[99.738,2.3152],[99.7405,2.3108]]]}},{"type":"Feature","properties":{"name":"Silumajang","name_en":"Silumajang","admin_level":"7","osm_id":""},"geometry":{"type":"Polygon","coordinates":[[[99.7228,2.2734],[99.7259,2.262],[99.7251,2.2496],[99.7214,2.2454],[99.7101,2.2383],[99.7073,2.2338],[99.708,2.1871],[99.7044,2.1854],[99.6658,2.191],[99.6564,2.1894],[99.6525,2.198],[99.6357,2.2122],[99.6567,2.2339],[99.6714,2.2443],[99.6881,2.2697],[99.6903,2.2701],[99.6898,2.2565],[99.6912,2.252],[99.7073,2.2581],[99.7228,2.2734]]]}},{"type":"Feature","properties":{"name":"SimpangMarbau","name_en":"SimpangMarbau","admin_level":"7","osm_id":""},"geometry":{"type":"Polygon","coordinates":[[[99.776,2.2403],[99.7764,2.2176],[99.7739,2.1818],[99.7716,2.177],[99.7718,2.1715],[99.7616,2.1729],[99.7583,2.1837],[99.7519,2.1943],[99.7511,2.2004],[99.7527,2.2034],[99.758,2.2039],[99.7624,2.2081],[99.7629,2.2131],[99.7606,2.2236],[99.7617,2.2294],[99.7548,2.2376],[99.7525,2.2447],[99.7745,2.2473],[99.776,2.2403]]]}},{"type":"Feature","properties":{"name":"SungaiRaja","name_en":"SungaiRaja","admin_level":"7","osm_id":""},"geometry":{"type":"Polygon","coordinates":[[[99.7201,2.1755],[99.7161,2.1624],[99.7078,2.1559],[99.6872,2.1437],[99.6777,2.143],[99.6685,2.1551],[99.6549,2.179],[99.657,2.1837],[99.6564,2.1894],[99.6628,2.1911],[99.7044,2.1854],[99.708,2.1871],[99.7139,2.1867],[99.7175,2.1895],[99.7206,2.1885],[99.7216,2.1792],[99.7201,2.1755]]]}}]}