{"type":"FeatureCollection","metadata":{"parent_osm_id":"gid_IDN_9_26_18_1","parent_name":"Karangnunggal","parent_name_1":"JawaBarat","parent_gid":"IDN.9.26.18_1","parent_level":"6","child_level":"7","count":14,"source":"GADM 4.1","generated":"2026-05-08"},"features":[{"type":"Feature","properties":{"name":"Ciawi","name_en":"Ciawi","admin_level":"7","osm_id":""},"geometry":{"type":"Polygon","coordinates":[[[108.1596,-7.6753],[108.1541,-7.6813],[108.1508,-7.6884],[108.1481,-7.6875],[108.1447,-7.6806],[108.1362,-7.6772],[108.1304,-7.6784],[108.1255,-7.6884],[108.1222,-7.6913],[108.118,-7.6911],[108.1131,-7.6864],[108.1201,-7.6651],[108.119,-7.6583],[108.1244,-7.6517],[108.1282,-7.6497],[108.1311,-7.6492],[108.1434,-7.6652],[108.1596,-7.6753]]]}},{"type":"Feature","properties":{"name":"Cibatu","name_en":"Cibatu","admin_level":"7","osm_id":""},"geometry":{"type":"Polygon","coordinates":[[[108.2224,-7.6466],[108.2143,-7.6489],[108.213,-7.6556],[108.21,-7.6566],[108.2084,-7.6599],[108.2039,-7.6619],[108.201,-7.6659],[108.1892,-7.666],[108.1822,-7.6686],[108.1767,-7.6669],[108.1693,-7.669],[108.1681,-7.6667],[108.1692,-7.663],[108.1743,-7.6615],[108.1747,-7.66],[108.1772,-7.6619],[108.1799,-7.6582],[108.179,-7.6568],[108.1811,-7.6564],[108.1816,-7.6451],[108.1875,-7.6384],[108.1845,-7.6348],[108.19,-7.629],[108.1929,-7.6281],[108.1956,-7.6302],[108.198,-7.6286],[108.1998,-7.6297],[108.2011,-7.6267],[108.2032,-7.6262],[108.2081,-7.6308],[108.2088,-7.636],[108.2108,-7.6378],[108.2157,-7.6384],[108.2201,-7.6411],[108.2227,-7.6406],[108.2224,-7.6466]]]}},{"type":"Feature","properties":{"name":"Cibatuireng","name_en":"Cibatuireng","admin_level":"7","osm_id":""},"geometry":{"type":"Polygon","coordinates":[[[108.1693,-7.669],[108.1658,-7.6729],[108.1617,-7.6629],[108.1565,-7.6616],[108.1552,-7.663],[108.1532,-7.6585],[108.1558,-7.6491],[108.1567,-7.65],[108.1583,-7.6485],[108.1597,-7.626],[108.1713,-7.6256],[108.1805,-7.6279],[108.1837,-7.63],[108.1825,-7.6345],[108.1874,-7.638],[108.1816,-7.6451],[108.1811,-7.6564],[108.179,-7.6568],[108.1799,-7.6582],[108.1772,-7.6619],[108.1747,-7.66],[108.1743,-7.6615],[108.1692,-7.663],[108.1681,-7.6664],[108.1693,-7.669]]]}},{"type":"Feature","properties":{"name":"Cidadap","name_en":"Cidadap","admin_level":"7","osm_id":""},"geometry":{"type":"Polygon","coordinates":[[[108.1543,-7.7492],[108.1564,-7.7534],[108.1553,-7.7627],[108.1606,-7.7632],[108.1647,-7.7684],[108.1646,-7.7723],[108.1629,-7.7742],[108.1608,-7.7741],[108.1582,-7.7692],[108.1556,-7.7685],[108.1529,-7.7711],[108.1499,-7.7799],[108.1413,-7.7851],[108.1126,-7.7769],[108.1151,-7.7749],[108.1178,-7.7681],[108.1154,-7.7621],[108.1191,-7.754],[108.129,-7.761],[108.1321,-7.7611],[108.1391,-7.76],[108.1429,-7.7551],[108.1476,-7.7546],[108.1543,-7.7492]]]}},{"type":"Feature","properties":{"name":"Cikapinis","name_en":"Cikapinis","admin_level":"7","osm_id":""},"geometry":{"type":"Polygon","coordinates":[[[108.0801,-7.6879],[108.0769,-7.6887],[108.0777,-7.684],[108.0819,-7.6809],[108.0829,-7.6831],[108.0852,-7.6823],[108.0877,-7.6745],[108.0899,-7.6733],[108.0911,-7.6664],[108.0938,-7.6665],[108.0956,-7.6641],[108.1048,-7.6655],[108.1105,-7.6638],[108.1139,-7.6608],[108.1185,-7.6604],[108.1201,-7.6651],[108.1042,-7.7081],[108.0987,-7.7112],[108.0959,-7.7081],[108.0984,-7.7015],[108.0981,-7.6979],[108.0891,-7.694],[108.0873,-7.6888],[108.0801,-7.6879]]]}},{"type":"Feature","properties":{"name":"Cikukulu","name_en":"Cikukulu","admin_level":"7","osm_id":""},"geometry":{"type":"Polygon","coordinates":[[[108.1487,-7.5999],[108.1599,-7.5989],[108.1718,-7.5936],[108.177,-7.5986],[108.1752,-7.6029],[108.1789,-7.6123],[108.1768,-7.6198],[108.1805,-7.6279],[108.1713,-7.6256],[108.1597,-7.626],[108.1596,-7.6227],[108.1586,-7.6252],[108.1573,-7.625],[108.1483,-7.616],[108.1475,-7.613],[108.1509,-7.6075],[108.1487,-7.5999]]]}},{"type":"Feature","properties":{"name":"Cikupa","name_en":"Cikupa","admin_level":"7","osm_id":""},"geometry":{"type":"Polygon","coordinates":[[[108.099,-7.6382],[108.1073,-7.6408],[108.1104,-7.6373],[108.114,-7.6367],[108.1148,-7.6342],[108.1169,-7.6365],[108.1177,-7.6341],[108.1197,-7.6343],[108.127,-7.637],[108.1279,-7.6448],[108.1311,-7.6492],[108.1244,-7.6517],[108.1185,-7.6604],[108.1139,-7.6608],[108.1099,-7.6641],[108.1048,-7.6655],[108.0947,-7.6644],[108.0959,-7.6568],[108.1026,-7.6486],[108.1025,-7.6455],[108.0987,-7.6446],[108.099,-7.6382]]]}},{"type":"Feature","properties":{"name":"Cintawangi","name_en":"Cintawangi","admin_level":"7","osm_id":""},"geometry":{"type":"Polygon","coordinates":[[[108.177,-7.5986],[108.1864,-7.604],[108.1996,-7.6062],[108.1947,-7.6126],[108.1957,-7.6151],[108.1937,-7.6183],[108.1939,-7.622],[108.1922,-7.6235],[108.1925,-7.6283],[108.1899,-7.629],[108.1844,-7.6354],[108.1825,-7.6345],[108.1835,-7.6296],[108.1782,-7.6247],[108.1768,-7.6198],[108.1789,-7.6123],[108.1752,-7.6029],[108.177,-7.5986]]]}},{"type":"Feature","properties":{"name":"Karangmekar","name_en":"Karangmekar","admin_level":"7","osm_id":""},"geometry":{"type":"Polygon","coordinates":[[[108.1597,-7.626],[108.1583,-7.6485],[108.1567,-7.65],[108.1558,-7.6491],[108.1535,-7.6599],[108.1487,-7.6571],[108.1486,-7.649],[108.1453,-7.6437],[108.1426,-7.644],[108.1401,-7.6405],[108.1398,-7.6369],[108.142,-7.6338],[108.1412,-7.6303],[108.1267,-7.6202],[108.1299,-7.6194],[108.1323,-7.6168],[108.1342,-7.6184],[108.1367,-7.618],[108.1475,-7.613],[108.1494,-7.6175],[108.1573,-7.625],[108.1599,-7.6228],[108.1597,-7.626]]]}},{"type":"Feature","properties":{"name":"Karangnunggal","name_en":"Karangnunggal","admin_level":"7","osm_id":""},"geometry":{"type":"Polygon","coordinates":[[[108.1115,-7.6295],[108.1125,-7.6263],[108.1182,-7.6256],[108.1257,-7.6202],[108.1367,-7.6263],[108.1412,-7.6303],[108.142,-7.6338],[108.1395,-7.6389],[108.1426,-7.644],[108.1453,-7.6437],[108.1486,-7.649],[108.1491,-7.6578],[108.1532,-7.6595],[108.1552,-7.663],[108.1565,-7.6616],[108.1614,-7.6626],[108.1658,-7.6729],[108.1596,-7.6753],[108.1455,-7.6669],[108.1398,-7.6617],[108.1287,-7.6466],[108.127,-7.637],[108.1121,-7.6323],[108.1098,-7.6329],[108.1115,-7.6295]]]}},{"type":"Feature","properties":{"name":"Kujang","name_en":"Kujang","admin_level":"7","osm_id":""},"geometry":{"type":"Polygon","coordinates":[[[108.1532,-7.7476],[108.1543,-7.7492],[108.1476,-7.7546],[108.1429,-7.7551],[108.1391,-7.76],[108.1296,-7.7613],[108.1191,-7.754],[108.1204,-7.7512],[108.1197,-7.7466],[108.1265,-7.7505],[108.1283,-7.75],[108.1296,-7.7419],[108.124,-7.7425],[108.1214,-7.7398],[108.1291,-7.7364],[108.1279,-7.7318],[108.1312,-7.732],[108.135,-7.7278],[108.1343,-7.7227],[108.1264,-7.7155],[108.1359,-7.7108],[108.1443,-7.6991],[108.1506,-7.7024],[108.1498,-7.7079],[108.1531,-7.7131],[108.1433,-7.7233],[108.1448,-7.7279],[108.1417,-7.7317],[108.1443,-7.7404],[108.1409,-7.7451],[108.1454,-7.7449],[108.1532,-7.7476]]]}},{"type":"Feature","properties":{"name":"Sarimanggu","name_en":"Sarimanggu","admin_level":"7","osm_id":""},"geometry":{"type":"Polygon","coordinates":[[[108.116,-7.6257],[108.1163,-7.6216],[108.1134,-7.6174],[108.1096,-7.619],[108.1078,-7.6178],[108.111,-7.6107],[108.1131,-7.6098],[108.1144,-7.6113],[108.1152,-7.6062],[108.1197,-7.6058],[108.1197,-7.6007],[108.1225,-7.5954],[108.1284,-7.5948],[108.1273,-7.5932],[108.13,-7.5927],[108.1333,-7.5889],[108.1367,-7.5893],[108.1385,-7.5915],[108.1403,-7.5902],[108.1447,-7.5908],[108.1456,-7.5964],[108.1487,-7.5999],[108.1509,-7.6075],[108.1499,-7.611],[108.1367,-7.618],[108.1342,-7.6184],[108.1323,-7.6168],[108.1299,-7.6194],[108.1254,-7.6203],[108.1182,-7.6256],[108.116,-7.6257]]]}},{"type":"Feature","properties":{"name":"Sarimukti","name_en":"Sarimukti","admin_level":"7","osm_id":""},"geometry":{"type":"Polygon","coordinates":[[[108.1508,-7.6884],[108.156,-7.7002],[108.1506,-7.7024],[108.1456,-7.6992],[108.1433,-7.6995],[108.1386,-7.7081],[108.1293,-7.7146],[108.1264,-7.7155],[108.1197,-7.7107],[108.1167,-7.7119],[108.1127,-7.7064],[108.1042,-7.7081],[108.1088,-7.6929],[108.1131,-7.6864],[108.118,-7.6911],[108.1222,-7.6913],[108.1255,-7.6884],[108.1304,-7.6784],[108.1362,-7.6772],[108.1447,-7.6806],[108.1481,-7.6875],[108.1508,-7.6884]]]}},{"type":"Feature","properties":{"name":"Sukawangun","name_en":"Sukawangun","admin_level":"7","osm_id":""},"geometry":{"type":"Polygon","coordinates":[[[108.208,-7.6043],[108.2185,-7.6075],[108.2207,-7.606],[108.2224,-7.6088],[108.2306,-7.6138],[108.238,-7.616],[108.2377,-7.6185],[108.2321,-7.6254],[108.2377,-7.6294],[108.2327,-7.6368],[108.2328,-7.6404],[108.2279,-7.64],[108.2233,-7.642],[108.2223,-7.6403],[108.2201,-7.6411],[108.2157,-7.6384],[108.2108,-7.6378],[108.2088,-7.636],[108.2081,-7.6308],[108.203,-7.6261],[108.2011,-7.6267],[108.1998,-7.6297],[108.198,-7.6286],[108.1956,-7.6302],[108.1925,-7.6283],[108.1922,-7.6235],[108.1939,-7.622],[108.1937,-7.6183],[108.1957,-7.6151],[108.1948,-7.6124],[108.1996,-7.6062],[108.2037,-7.6073],[108.208,-7.6043]]]}}]}