{"type":"FeatureCollection","metadata":{"parent_osm_id":"gid_IDN_10_32_10_1","parent_name":"Lebaksiu","parent_name_1":"JawaTengah","parent_gid":"IDN.10.32.10_1","parent_level":"6","child_level":"7","count":15,"source":"GADM 4.1","generated":"2026-05-09"},"features":[{"type":"Feature","properties":{"name":"Balaradin","name_en":"Balaradin","admin_level":"7","osm_id":""},"geometry":{"type":"Polygon","coordinates":[[[109.095,-7.0336],[109.0923,-7.0232],[109.1046,-7.0183],[109.1033,-7.024],[109.1059,-7.0239],[109.1061,-7.0255],[109.1073,-7.0233],[109.1096,-7.0234],[109.1102,-7.0278],[109.1145,-7.0363],[109.1144,-7.0436],[109.1118,-7.0449],[109.1089,-7.042],[109.1066,-7.0446],[109.104,-7.0438],[109.102,-7.0393],[109.095,-7.0336]]]}},{"type":"Feature","properties":{"name":"Dukuhdamu","name_en":"Dukuhdamu","admin_level":"7","osm_id":""},"geometry":{"type":"Polygon","coordinates":[[[109.0966,-6.9908],[109.1017,-6.9909],[109.1023,-6.9884],[109.1087,-6.9897],[109.1093,-6.9937],[109.106,-6.9935],[109.1036,-6.9993],[109.1063,-7.0099],[109.1021,-7.0121],[109.1015,-7.0139],[109.0987,-7.0115],[109.0987,-7.0024],[109.0965,-7.0032],[109.0966,-6.9908]]]}},{"type":"Feature","properties":{"name":"Dukuhlo","name_en":"Dukuhlo","admin_level":"7","osm_id":""},"geometry":{"type":"Polygon","coordinates":[[[109.1318,-7.0232],[109.135,-7.0179],[109.1394,-7.02],[109.1483,-7.0204],[109.1483,-7.0145],[109.1496,-7.0205],[109.1526,-7.0202],[109.1508,-7.0262],[109.1519,-7.0292],[109.1335,-7.0297],[109.1339,-7.0246],[109.1318,-7.0232]]]}},{"type":"Feature","properties":{"name":"Jatimulyo","name_en":"Jatimulyo","admin_level":"7","osm_id":""},"geometry":{"type":"Polygon","coordinates":[[[109.1343,-7.0192],[109.1318,-7.0232],[109.1287,-7.0214],[109.1235,-7.0219],[109.1239,-7.0246],[109.1219,-7.0254],[109.1201,-7.0245],[109.1187,-7.0198],[109.1199,-7.0145],[109.1227,-7.0148],[109.1255,-7.0085],[109.1253,-7.0114],[109.1339,-7.0119],[109.1343,-7.0192]]]}},{"type":"Feature","properties":{"name":"Kajen","name_en":"Kajen","admin_level":"7","osm_id":""},"geometry":{"type":"Polygon","coordinates":[[[109.1424,-7.0291],[109.153,-7.0287],[109.1606,-7.0301],[109.1613,-7.0331],[109.159,-7.0359],[109.1603,-7.0368],[109.1599,-7.0414],[109.1533,-7.0413],[109.1532,-7.0393],[109.1513,-7.0393],[109.1512,-7.0425],[109.1478,-7.0426],[109.1471,-7.0376],[109.1415,-7.0359],[109.1409,-7.0319],[109.1424,-7.0291]]]}},{"type":"Feature","properties":{"name":"Kambangan","name_en":"Kambangan","admin_level":"7","osm_id":""},"geometry":{"type":"Polygon","coordinates":[[[109.1122,-7.0302],[109.1102,-7.0278],[109.1096,-7.0234],[109.1112,-7.0201],[109.1089,-7.0198],[109.1076,-7.0145],[109.1107,-7.0105],[109.1135,-7.0105],[109.1141,-7.0135],[109.1196,-7.0166],[109.1187,-7.0198],[109.1207,-7.0251],[109.1186,-7.0256],[109.1161,-7.0297],[109.1122,-7.0302]]]}},{"type":"Feature","properties":{"name":"Kesuben","name_en":"Kesuben","admin_level":"7","osm_id":""},"geometry":{"type":"Polygon","coordinates":[[[109.146,-7.0378],[109.1471,-7.0376],[109.1474,-7.0408],[109.1462,-7.0409],[109.146,-7.0378]]]}},{"type":"Feature","properties":{"name":"LebakGoah","name_en":"LebakGoah","admin_level":"7","osm_id":""},"geometry":{"type":"Polygon","coordinates":[[[109.1318,-7.0232],[109.1339,-7.0246],[109.1333,-7.0356],[109.127,-7.0416],[109.1234,-7.0374],[109.1207,-7.0251],[109.1239,-7.0246],[109.1235,-7.0219],[109.1249,-7.0214],[109.1318,-7.0232]]]}},{"type":"Feature","properties":{"name":"LebaksiuKidul","name_en":"LebaksiuKidul","admin_level":"7","osm_id":""},"geometry":{"type":"Polygon","coordinates":[[[109.1609,-7.07],[109.1524,-7.0638],[109.128,-7.0631],[109.1275,-7.0622],[109.1376,-7.0633],[109.1423,-7.0578],[109.1419,-7.0555],[109.1347,-7.0562],[109.1362,-7.0458],[109.1419,-7.0464],[109.1422,-7.048],[109.1453,-7.0468],[109.1461,-7.0489],[109.1483,-7.0496],[109.1628,-7.0515],[109.1719,-7.0573],[109.1609,-7.07]]]}},{"type":"Feature","properties":{"name":"LebaksiuLor","name_en":"LebaksiuLor","admin_level":"7","osm_id":""},"geometry":{"type":"Polygon","coordinates":[[[109.162,-7.0422],[109.1635,-7.0442],[109.1628,-7.0493],[109.1582,-7.0501],[109.1483,-7.0496],[109.1461,-7.0489],[109.1453,-7.0468],[109.1417,-7.048],[109.1419,-7.0464],[109.1369,-7.0459],[109.1391,-7.0378],[109.1414,-7.0353],[109.1459,-7.0376],[109.1462,-7.0409],[109.1486,-7.0429],[109.1512,-7.0425],[109.1513,-7.0393],[109.1532,-7.0393],[109.1533,-7.0413],[109.162,-7.0422]]]}},{"type":"Feature","properties":{"name":"Pendawa","name_en":"Pendawa","admin_level":"7","osm_id":""},"geometry":{"type":"Polygon","coordinates":[[[109.1483,-7.0145],[109.1483,-7.0204],[109.1394,-7.02],[109.1346,-7.0181],[109.1339,-7.0119],[109.1367,-7.0124],[109.1404,-7.0084],[109.1462,-7.0081],[109.1483,-7.0145]]]}},{"type":"Feature","properties":{"name":"SlarangKidul","name_en":"SlarangKidul","admin_level":"7","osm_id":""},"geometry":{"type":"Polygon","coordinates":[[[109.0874,-7.0083],[109.0882,-7.0072],[109.0861,-7.003],[109.0919,-7.003],[109.0913,-6.9988],[109.0962,-6.9981],[109.0965,-7.0032],[109.0987,-7.0024],[109.0987,-7.0115],[109.1015,-7.0139],[109.1021,-7.0121],[109.1063,-7.0099],[109.1085,-7.0191],[109.1112,-7.0201],[109.1114,-7.0218],[109.1097,-7.0217],[109.1104,-7.0234],[109.1073,-7.0233],[109.1061,-7.0255],[109.1059,-7.0239],[109.1033,-7.024],[109.1046,-7.0183],[109.0923,-7.0232],[109.0874,-7.0083]]]}},{"type":"Feature","properties":{"name":"Tegalandong","name_en":"Tegalandong","admin_level":"7","osm_id":""},"geometry":{"type":"Polygon","coordinates":[[[109.1063,-7.0099],[109.1036,-6.9993],[109.106,-6.9935],[109.1248,-6.9982],[109.126,-6.9997],[109.1262,-7.0075],[109.1227,-7.0148],[109.1199,-7.0145],[109.1196,-7.0166],[109.1141,-7.0135],[109.1135,-7.0105],[109.1107,-7.0105],[109.1092,-7.0133],[109.1067,-7.013],[109.1063,-7.0099]]]}},{"type":"Feature","properties":{"name":"Timbangreja","name_en":"Timbangreja","admin_level":"7","osm_id":""},"geometry":{"type":"Polygon","coordinates":[[[109.1275,-7.0622],[109.1158,-7.062],[109.1142,-7.0584],[109.1229,-7.0514],[109.1277,-7.052],[109.1301,-7.0507],[109.135,-7.0512],[109.1348,-7.0563],[109.1415,-7.0554],[109.1428,-7.0566],[109.1376,-7.0633],[109.1275,-7.0622]]]}},{"type":"Feature","properties":{"name":"Yamansari","name_en":"Yamansari","admin_level":"7","osm_id":""},"geometry":{"type":"Polygon","coordinates":[[[109.1335,-7.0297],[109.1424,-7.0291],[109.1409,-7.0319],[109.1419,-7.0346],[109.1391,-7.0378],[109.1379,-7.0443],[109.1347,-7.0509],[109.1234,-7.052],[109.1246,-7.0468],[109.1236,-7.0378],[109.1274,-7.0414],[109.1293,-7.038],[109.1333,-7.0356],[109.1335,-7.0297]]]}}]}