{"type":"FeatureCollection","metadata":{"parent_osm_id":"gid_IDN_4_5_28_1","parent_name":"Patia","parent_name_1":"Banten","parent_gid":"IDN.4.5.28_1","parent_level":"6","child_level":"7","count":9,"source":"GADM 4.1","generated":"2026-05-08"},"features":[{"type":"Feature","properties":{"name":"Babakankeusik","name_en":"Babakankeusik","admin_level":"7","osm_id":""},"geometry":{"type":"Polygon","coordinates":[[[105.872,-6.4716],[105.8712,-6.4667],[105.8732,-6.4619],[105.8788,-6.4657],[105.8793,-6.4742],[105.8867,-6.485],[105.8853,-6.4914],[105.8768,-6.4934],[105.8767,-6.4959],[105.8723,-6.4929],[105.8715,-6.4902],[105.8736,-6.486],[105.8714,-6.4842],[105.872,-6.4716]]]}},{"type":"Feature","properties":{"name":"Ciawi","name_en":"Ciawi","admin_level":"7","osm_id":""},"geometry":{"type":"Polygon","coordinates":[[[105.8635,-6.4456],[105.8659,-6.4478],[105.8654,-6.4502],[105.8714,-6.4495],[105.874,-6.4526],[105.873,-6.4556],[105.8741,-6.4592],[105.8712,-6.4667],[105.872,-6.4716],[105.8615,-6.4708],[105.856,-6.4637],[105.8591,-6.455],[105.8594,-6.448],[105.8635,-6.4456]]]}},{"type":"Feature","properties":{"name":"Cimoyan","name_en":"Cimoyan","admin_level":"7","osm_id":""},"geometry":{"type":"Polygon","coordinates":[[[105.8852,-6.4819],[105.8788,-6.4731],[105.8797,-6.47],[105.8788,-6.4657],[105.8774,-6.4654],[105.8812,-6.4625],[105.891,-6.4602],[105.8965,-6.4668],[105.9043,-6.4682],[105.9059,-6.4629],[105.9082,-6.4644],[105.9108,-6.47],[105.9094,-6.4794],[105.9072,-6.4812],[105.9082,-6.4875],[105.8999,-6.4808],[105.8966,-6.4825],[105.8947,-6.4803],[105.8852,-6.4819]]]}},{"type":"Feature","properties":{"name":"Idaman","name_en":"Idaman","admin_level":"7","osm_id":""},"geometry":{"type":"Polygon","coordinates":[[[105.8811,-6.449],[105.8809,-6.4504],[105.8855,-6.4518],[105.8871,-6.4497],[105.8877,-6.4528],[105.8894,-6.4506],[105.8924,-6.4526],[105.8971,-6.4506],[105.8997,-6.4533],[105.9024,-6.4504],[105.9018,-6.4485],[105.9032,-6.4486],[105.9026,-6.4557],[105.9059,-6.4582],[105.907,-6.4626],[105.9056,-6.4634],[105.9053,-6.4677],[105.8965,-6.4668],[105.8903,-6.4601],[105.8833,-6.4612],[105.8774,-6.4654],[105.8725,-6.4613],[105.8741,-6.4593],[105.873,-6.4556],[105.8742,-6.4542],[105.8715,-6.4488],[105.8737,-6.4461],[105.875,-6.4495],[105.8758,-6.4473],[105.8784,-6.4486],[105.8787,-6.4468],[105.8818,-6.4461],[105.8811,-6.449]]]}},{"type":"Feature","properties":{"name":"Pasirgadung","name_en":"Pasirgadung","admin_level":"7","osm_id":""},"geometry":{"type":"Polygon","coordinates":[[[105.8767,-6.4959],[105.8768,-6.4934],[105.8853,-6.4914],[105.8868,-6.4853],[105.8852,-6.4819],[105.8901,-6.4804],[105.8952,-6.4803],[105.8966,-6.4825],[105.8998,-6.4808],[105.9031,-6.4823],[105.9034,-6.4845],[105.9077,-6.4864],[105.9107,-6.4922],[105.908,-6.498],[105.9028,-6.5],[105.896,-6.4967],[105.8867,-6.4956],[105.8842,-6.4988],[105.8798,-6.4981],[105.877,-6.4993],[105.8767,-6.4959]]]}},{"type":"Feature","properties":{"name":"Patia","name_en":"Patia","admin_level":"7","osm_id":""},"geometry":{"type":"Polygon","coordinates":[[[105.872,-6.4716],[105.8714,-6.4842],[105.8736,-6.486],[105.8715,-6.4902],[105.8723,-6.4929],[105.8767,-6.4959],[105.877,-6.4993],[105.8513,-6.4971],[105.8506,-6.4766],[105.861,-6.475],[105.8619,-6.471],[105.872,-6.4716]]]}},{"type":"Feature","properties":{"name":"Rahayu","name_en":"Rahayu","admin_level":"7","osm_id":""},"geometry":{"type":"Polygon","coordinates":[[[105.8481,-6.4399],[105.8572,-6.4375],[105.8568,-6.446],[105.8506,-6.4523],[105.8464,-6.4677],[105.8409,-6.4645],[105.8405,-6.4565],[105.8431,-6.4475],[105.8458,-6.4463],[105.8481,-6.4399]]]}},{"type":"Feature","properties":{"name":"Surianeun","name_en":"Surianeun","admin_level":"7","osm_id":""},"geometry":{"type":"Polygon","coordinates":[[[105.857,-6.4432],[105.8587,-6.4438],[105.86,-6.4396],[105.8637,-6.4447],[105.8629,-6.447],[105.8621,-6.4461],[105.8594,-6.448],[105.8591,-6.455],[105.856,-6.4637],[105.8619,-6.471],[105.861,-6.475],[105.8468,-6.4768],[105.8401,-6.4757],[105.8441,-6.4668],[105.8464,-6.4677],[105.8506,-6.4523],[105.8567,-6.4462],[105.857,-6.4432]]]}},{"type":"Feature","properties":{"name":"Turus","name_en":"Turus","admin_level":"7","osm_id":""},"geometry":{"type":"Polygon","coordinates":[[[105.877,-6.4993],[105.8849,-6.4985],[105.8859,-6.4956],[105.896,-6.4967],[105.9027,-6.4999],[105.903,-6.5034],[105.908,-6.5062],[105.9071,-6.5094],[105.9036,-6.5115],[105.904,-6.5176],[105.9006,-6.5192],[105.8882,-6.5173],[105.8838,-6.5247],[105.8721,-6.5272],[105.8681,-6.5145],[105.871,-6.51],[105.8722,-6.4988],[105.877,-6.4993]]]}}]}