{"type":"FeatureCollection","metadata":{"parent_osm_id":"gid_IDN_32_12_6_1","parent_name":"KualuhSelatan","parent_name_1":"SumateraUtara","parent_gid":"IDN.32.12.6_1","parent_level":"6","child_level":"7","count":12,"source":"GADM 4.1","generated":"2026-05-08"},"features":[{"type":"Feature","properties":{"name":"BandarLama","name_en":"BandarLama","admin_level":"7","osm_id":""},"geometry":{"type":"Polygon","coordinates":[[[99.5315,2.5245],[99.5309,2.5327],[99.5397,2.5334],[99.5446,2.5303],[99.5475,2.5333],[99.548,2.5425],[99.5527,2.5434],[99.5585,2.5382],[99.5856,2.542],[99.5919,2.5392],[99.5976,2.5441],[99.6091,2.5401],[99.6114,2.541],[99.6116,2.5382],[99.6072,2.5319],[99.6045,2.5228],[99.6069,2.5171],[99.5774,2.4904],[99.5582,2.5004],[99.5406,2.5144],[99.5315,2.5245]]]}},{"type":"Feature","properties":{"name":"DamuliPekan","name_en":"DamuliPekan","admin_level":"7","osm_id":""},"geometry":{"type":"Polygon","coordinates":[[[99.5943,2.5056],[99.6055,2.5158],[99.6115,2.5142],[99.6286,2.5176],[99.6564,2.5125],[99.6781,2.4989],[99.6768,2.4939],[99.6807,2.484],[99.6804,2.4681],[99.6765,2.4643],[99.6627,2.4783],[99.6575,2.4814],[99.6505,2.4846],[99.6346,2.4864],[99.6141,2.4941],[99.5943,2.5056]]]}},{"type":"Feature","properties":{"name":"GuntingSaga","name_en":"GuntingSaga","admin_level":"7","osm_id":""},"geometry":{"type":"Polygon","coordinates":[[[99.6575,2.534],[99.6647,2.5333],[99.6764,2.5275],[99.6885,2.5244],[99.6941,2.5262],[99.7031,2.5354],[99.7164,2.527],[99.7176,2.5029],[99.71,2.5048],[99.6819,2.5012],[99.6781,2.4989],[99.6564,2.5125],[99.6582,2.5272],[99.6575,2.534]]]}},{"type":"Feature","properties":{"name":"GunungMelayu","name_en":"GunungMelayu","admin_level":"7","osm_id":""},"geometry":{"type":"Polygon","coordinates":[[[99.6346,2.4864],[99.6505,2.4846],[99.6575,2.4814],[99.6627,2.4783],[99.6765,2.4643],[99.671,2.4599],[99.6702,2.4561],[99.6652,2.4486],[99.6624,2.4475],[99.6397,2.4485],[99.6305,2.4666],[99.6362,2.4732],[99.6346,2.4864]]]}},{"type":"Feature","properties":{"name":"Hasang","name_en":"Hasang","admin_level":"7","osm_id":""},"geometry":{"type":"Polygon","coordinates":[[[99.5233,2.4602],[99.5229,2.4671],[99.5144,2.4731],[99.5147,2.4896],[99.5176,2.4929],[99.5222,2.4946],[99.5243,2.5017],[99.5311,2.5105],[99.5315,2.5245],[99.5406,2.5144],[99.5582,2.5004],[99.5784,2.4899],[99.5744,2.4828],[99.5839,2.4683],[99.5225,2.3812],[99.5211,2.3871],[99.5241,2.3885],[99.5232,2.3948],[99.5264,2.4037],[99.527,2.4136],[99.5256,2.4174],[99.5276,2.4322],[99.5231,2.4349],[99.5197,2.4409],[99.5225,2.4461],[99.528,2.4501],[99.5233,2.4602]]]}},{"type":"Feature","properties":{"name":"LobuHuala","name_en":"LobuHuala","admin_level":"7","osm_id":""},"geometry":{"type":"Polygon","coordinates":[[[99.6181,2.4044],[99.5968,2.401],[99.5732,2.3887],[99.5705,2.3804],[99.5744,2.3712],[99.5714,2.359],[99.5704,2.3422],[99.5671,2.3318],[99.5331,2.3435],[99.5198,2.3513],[99.5211,2.3558],[99.5196,2.3595],[99.5202,2.3642],[99.5174,2.3676],[99.5183,2.3754],[99.5229,2.3783],[99.5225,2.3812],[99.5839,2.4683],[99.5999,2.4597],[99.6044,2.4643],[99.6106,2.4663],[99.621,2.4733],[99.6305,2.4666],[99.6439,2.4369],[99.6387,2.4306],[99.6307,2.4274],[99.6375,2.4202],[99.6336,2.4103],[99.6181,2.4044]]]}},{"type":"Feature","properties":{"name":"Perk.Damuli","name_en":"Perk.Damuli","admin_level":"7","osm_id":""},"geometry":{"type":"Polygon","coordinates":[[[99.5774,2.4904],[99.5943,2.5056],[99.6141,2.4941],[99.6346,2.4864],[99.6362,2.4732],[99.6305,2.4666],[99.621,2.4733],[99.6106,2.4663],[99.6044,2.4643],[99.5999,2.4597],[99.5839,2.4683],[99.5744,2.4828],[99.5784,2.4899],[99.5774,2.4904]]]}},{"type":"Feature","properties":{"name":"SialangTaji","name_en":"SialangTaji","admin_level":"7","osm_id":""},"geometry":{"type":"Polygon","coordinates":[[[99.8737,2.5407],[99.8717,2.5343],[99.8675,2.5313],[99.8666,2.5262],[99.8604,2.5188],[99.8497,2.5187],[99.8452,2.5102],[99.8353,2.5045],[99.8216,2.5046],[99.8093,2.5073],[99.8086,2.5172],[99.7715,2.5129],[99.767,2.5454],[99.7773,2.5514],[99.7927,2.5539],[99.805,2.5429],[99.8171,2.5382],[99.8157,2.5362],[99.8216,2.5296],[99.8423,2.5344],[99.8531,2.539],[99.8737,2.5407]]]}},{"type":"Feature","properties":{"name":"Siamporik","name_en":"Siamporik","admin_level":"7","osm_id":""},"geometry":{"type":"Polygon","coordinates":[[[99.6848,2.4247],[99.6336,2.4103],[99.6375,2.4202],[99.6307,2.4274],[99.6387,2.4306],[99.6439,2.4369],[99.6397,2.4485],[99.6624,2.4475],[99.6652,2.4486],[99.6702,2.4561],[99.671,2.4599],[99.6804,2.4681],[99.6807,2.484],[99.6931,2.4502],[99.6984,2.442],[99.7072,2.4345],[99.6979,2.4282],[99.6848,2.4247]]]}},{"type":"Feature","properties":{"name":"SiduaDua","name_en":"SiduaDua","admin_level":"7","osm_id":""},"geometry":{"type":"Polygon","coordinates":[[[99.6116,2.5382],[99.6162,2.537],[99.6257,2.5304],[99.6324,2.5337],[99.6382,2.5333],[99.6419,2.5349],[99.6506,2.532],[99.6575,2.534],[99.6582,2.5272],[99.6564,2.5125],[99.6286,2.5176],[99.6115,2.5142],[99.6055,2.5158],[99.6069,2.5171],[99.6045,2.5228],[99.6072,2.5319],[99.6116,2.5382]]]}},{"type":"Feature","properties":{"name":"Simangalam","name_en":"Simangalam","admin_level":"7","osm_id":""},"geometry":{"type":"Polygon","coordinates":[[[99.7492,2.4585],[99.7314,2.437],[99.7239,2.4387],[99.717,2.4486],[99.7134,2.4503],[99.7118,2.4411],[99.7072,2.4345],[99.6984,2.442],[99.6931,2.4502],[99.6768,2.4939],[99.6781,2.4989],[99.6819,2.5012],[99.71,2.5048],[99.7236,2.5015],[99.7624,2.4867],[99.761,2.4707],[99.7492,2.4585]]]}},{"type":"Feature","properties":{"name":"TanjungPasir","name_en":"TanjungPasir","admin_level":"7","osm_id":""},"geometry":{"type":"Polygon","coordinates":[[[99.8346,2.4833],[99.8225,2.4808],[99.8151,2.4825],[99.802,2.4739],[99.7995,2.4791],[99.7936,2.4819],[99.7847,2.4828],[99.7754,2.4863],[99.7624,2.4867],[99.7176,2.5029],[99.7164,2.527],[99.7293,2.5253],[99.7334,2.5264],[99.7453,2.547],[99.7486,2.5495],[99.767,2.5454],[99.7715,2.5129],[99.8086,2.5172],[99.8093,2.5073],[99.8216,2.5046],[99.8353,2.5045],[99.8337,2.4973],[99.8346,2.4833]]]}}]}