{"type":"FeatureCollection","metadata":{"parent_osm_id":"gid_IDN_17_7_1_1","parent_name":"Hutan","parent_name_1":"Lampung","parent_gid":"IDN.17.7.1_1","parent_level":"6","child_level":"7","count":1,"source":"GADM 4.1","generated":"2026-05-07"},"features":[{"type":"Feature","properties":{"name":"Hutan","name_en":"Hutan","admin_level":"7","osm_id":""},"geometry":{"type":"Polygon","coordinates":[[[105.297,-3.9533],[105.2698,-3.9545],[105.2846,-3.9364],[105.2853,-3.9217],[105.2977,-3.9201],[105.2991,-3.9074],[105.3002,-3.9074],[105.3001,-3.892],[105.2904,-3.892],[105.2878,-3.8933],[105.2858,-3.8932],[105.2849,-3.891],[105.2799,-3.8934],[105.2657,-3.9053],[105.265,-3.91],[105.2597,-3.9092],[105.2532,-3.911],[105.2533,-3.9226],[105.179,-3.9231],[105.1785,-3.9178],[105.1701,-3.9178],[105.1699,-3.9167],[105.1802,-3.9038],[105.1948,-3.898],[105.2063,-3.8907],[105.2181,-3.8946],[105.2277,-3.8902],[105.2321,-3.8906],[105.2341,-3.8934],[105.2359,-3.9028],[105.2419,-3.9071],[105.2536,-3.9016],[105.2657,-3.8838],[105.2748,-3.8802],[105.2788,-3.8744],[105.285,-3.8576],[105.2925,-3.8494],[105.294,-3.8414],[105.2909,-3.8356],[105.2836,-3.8312],[105.2817,-3.8277],[105.2845,-3.7972],[105.2886,-3.7937],[105.2966,-3.7965],[105.3046,-3.7932],[105.3091,-3.778],[105.3083,-3.7581],[105.315,-3.7496],[105.3187,-3.7319],[105.3253,-3.7267],[105.3348,-3.724],[105.3423,-3.7308],[105.3512,-3.7501],[105.3527,-3.7562],[105.3515,-3.7831],[105.3573,-3.7964],[105.3552,-3.7948],[105.3291,-3.7977],[105.335,-3.8583],[105.3422,-3.8725],[105.3403,-3.8774],[105.3344,-3.8777],[105.3471,-3.9023],[105.3575,-3.9092],[105.3568,-3.917],[105.3519,-3.9138],[105.3388,-3.9205],[105.3363,-3.9267],[105.3114,-3.9261],[105.3008,-3.9317],[105.3008,-3.9358],[105.2974,-3.9442],[105.297,-3.9533]]]}}]}