{"type":"FeatureCollection","metadata":{"parent_osm_id":"gid_IDN_32_34_11_1","parent_name":"Porsea","parent_name_1":"SumateraUtara","parent_gid":"IDN.32.34.11_1","parent_level":"6","child_level":"7","count":15,"source":"GADM 4.1","generated":"2026-05-08"},"features":[{"type":"Feature","properties":{"name":"Amborgang","name_en":"Amborgang","admin_level":"7","osm_id":""},"geometry":{"type":"Polygon","coordinates":[[[99.0902,2.4793],[99.0722,2.4936],[99.0635,2.5061],[99.0612,2.5204],[99.0648,2.5249],[99.0714,2.5255],[99.0808,2.5206],[99.1072,2.5013],[99.0969,2.474],[99.0902,2.4793]]]}},{"type":"Feature","properties":{"name":"GalaGalaPangkailan","name_en":"GalaGalaPangkailan","admin_level":"7","osm_id":""},"geometry":{"type":"Polygon","coordinates":[[[99.1755,2.4453],[99.1952,2.4574],[99.2014,2.459],[99.1954,2.4411],[99.1859,2.4382],[99.1755,2.4453]]]}},{"type":"Feature","properties":{"name":"LumbanGurning","name_en":"LumbanGurning","admin_level":"7","osm_id":""},"geometry":{"type":"Polygon","coordinates":[[[99.1631,2.5035],[99.179,2.5077],[99.1795,2.4954],[99.1778,2.4929],[99.1696,2.49],[99.1681,2.4848],[99.1619,2.4844],[99.1631,2.5035]]]}},{"type":"Feature","properties":{"name":"Nalela","name_en":"Nalela","admin_level":"7","osm_id":""},"geometry":{"type":"Polygon","coordinates":[[[99.1072,2.5013],[99.115,2.4969],[99.1178,2.4969],[99.1143,2.4777],[99.0984,2.4791],[99.1072,2.5013]]]}},{"type":"Feature","properties":{"name":"ParpareanI","name_en":"ParpareanI","admin_level":"7","osm_id":""},"geometry":{"type":"Polygon","coordinates":[[[99.1512,2.4304],[99.1531,2.434],[99.1587,2.4382],[99.1665,2.4385],[99.1607,2.4369],[99.161,2.4334],[99.1576,2.4305],[99.1512,2.4304]]]}},{"type":"Feature","properties":{"name":"ParpareanIi","name_en":"ParpareanIi","admin_level":"7","osm_id":""},"geometry":{"type":"Polygon","coordinates":[[[99.1503,2.4305],[99.1466,2.4331],[99.1579,2.4414],[99.1583,2.4438],[99.17,2.4451],[99.1688,2.4402],[99.1665,2.4385],[99.1587,2.4382],[99.1503,2.4305]]]}},{"type":"Feature","properties":{"name":"ParpareanIii","name_en":"ParpareanIii","admin_level":"7","osm_id":""},"geometry":{"type":"Polygon","coordinates":[[[99.1466,2.4331],[99.1444,2.4359],[99.1486,2.4403],[99.1583,2.4438],[99.1579,2.4414],[99.1466,2.4331]]]}},{"type":"Feature","properties":{"name":"ParpareanIv","name_en":"ParpareanIv","admin_level":"7","osm_id":""},"geometry":{"type":"Polygon","coordinates":[[[99.1615,2.4496],[99.1702,2.4483],[99.17,2.4451],[99.1584,2.4439],[99.1562,2.4485],[99.1615,2.4496]]]}},{"type":"Feature","properties":{"name":"PasarPorsea","name_en":"PasarPorsea","admin_level":"7","osm_id":""},"geometry":{"type":"Polygon","coordinates":[[[99.1584,2.4439],[99.1543,2.4425],[99.1525,2.4472],[99.1563,2.448],[99.1584,2.4439]]]}},{"type":"Feature","properties":{"name":"PataneI","name_en":"PataneI","admin_level":"7","osm_id":""},"geometry":{"type":"Polygon","coordinates":[[[99.1214,2.4675],[99.1275,2.4743],[99.1277,2.4824],[99.1387,2.4885],[99.1407,2.4931],[99.142,2.493],[99.1438,2.4841],[99.1487,2.4751],[99.1438,2.4724],[99.1386,2.4612],[99.1337,2.4577],[99.1298,2.4679],[99.1214,2.4675]]]}},{"type":"Feature","properties":{"name":"PataneIi","name_en":"PataneIi","admin_level":"7","osm_id":""},"geometry":{"type":"Polygon","coordinates":[[[99.1145,2.4595],[99.1214,2.4675],[99.1298,2.4679],[99.1337,2.4577],[99.1192,2.4524],[99.1145,2.4595]]]}},{"type":"Feature","properties":{"name":"PataneIii","name_en":"PataneIii","admin_level":"7","osm_id":""},"geometry":{"type":"Polygon","coordinates":[[[99.1444,2.4359],[99.1383,2.4341],[99.136,2.4349],[99.1355,2.4454],[99.1527,2.4519],[99.1607,2.4568],[99.1615,2.4496],[99.1525,2.4472],[99.1542,2.4429],[99.1486,2.4403],[99.1444,2.4359]]]}},{"type":"Feature","properties":{"name":"PataneIv","name_en":"PataneIv","admin_level":"7","osm_id":""},"geometry":{"type":"Polygon","coordinates":[[[99.1349,2.4379],[99.1322,2.4363],[99.13,2.438],[99.123,2.4332],[99.1225,2.4413],[99.1192,2.4524],[99.1337,2.4577],[99.1355,2.4507],[99.1349,2.4379]]]}},{"type":"Feature","properties":{"name":"PataneV","name_en":"PataneV","admin_level":"7","osm_id":""},"geometry":{"type":"Polygon","coordinates":[[[99.1487,2.4751],[99.1546,2.4685],[99.1607,2.4568],[99.1527,2.4519],[99.1355,2.4454],[99.1337,2.4577],[99.1386,2.4612],[99.1438,2.4724],[99.1487,2.4751]]]}},{"type":"Feature","properties":{"name":"SilamosikI","name_en":"SilamosikI","admin_level":"7","osm_id":""},"geometry":{"type":"Polygon","coordinates":[[[99.1178,2.4969],[99.1241,2.4996],[99.1261,2.4931],[99.1316,2.4855],[99.1277,2.4824],[99.1233,2.4855],[99.1156,2.4873],[99.1178,2.4969]]]}}]}