{"type":"FeatureCollection","metadata":{"parent_osm_id":"gid_IDN_23_21_20_1","parent_name":"Okbemta","parent_name_1":"Papua","parent_gid":"IDN.23.21.20_1","parent_level":"6","child_level":"7","count":9,"source":"GADM 4.1","generated":"2026-05-09"},"features":[{"type":"Feature","properties":{"name":"AtangDoki","name_en":"AtangDoki","admin_level":"7","osm_id":""},"geometry":{"type":"Polygon","coordinates":[[[140.6315,-4.5643],[140.6282,-4.5416],[140.647,-4.5385],[140.666,-4.5331],[140.6803,-4.5079],[140.689,-4.496],[140.7028,-4.514],[140.7273,-4.5304],[140.7166,-4.5541],[140.7123,-4.5562],[140.698,-4.5583],[140.681,-4.5658],[140.6627,-4.5832],[140.6511,-4.5746],[140.6315,-4.5643]]]}},{"type":"Feature","properties":{"name":"Bemhimiku","name_en":"Bemhimiku","admin_level":"7","osm_id":""},"geometry":{"type":"Polygon","coordinates":[[[140.6267,-4.5271],[140.6216,-4.5095],[140.625,-4.4711],[140.6219,-4.4579],[140.6647,-4.4651],[140.7073,-4.4681],[140.7069,-4.4705],[140.6953,-4.4753],[140.683,-4.4882],[140.689,-4.496],[140.6803,-4.5079],[140.666,-4.5331],[140.647,-4.5385],[140.6282,-4.5416],[140.6267,-4.5271]]]}},{"type":"Feature","properties":{"name":"BilipBayo","name_en":"BilipBayo","admin_level":"7","osm_id":""},"geometry":{"type":"Polygon","coordinates":[[[140.6178,-4.435],[140.6381,-4.4215],[140.6583,-4.3843],[140.6741,-4.3426],[140.6899,-4.3144],[140.6977,-4.3062],[140.7103,-4.3133],[140.7177,-4.3208],[140.7171,-4.3317],[140.7007,-4.3358],[140.7048,-4.3548],[140.6967,-4.3698],[140.6839,-4.4043],[140.6762,-4.4093],[140.6722,-4.4161],[140.6653,-4.4651],[140.6219,-4.4579],[140.6178,-4.435]]]}},{"type":"Feature","properties":{"name":"Kaep","name_en":"Kaep","admin_level":"7","osm_id":""},"geometry":{"type":"Polygon","coordinates":[[[140.7304,-4.5805],[140.7156,-4.5861],[140.7039,-4.588],[140.7014,-4.5828],[140.6777,-4.5687],[140.681,-4.5658],[140.698,-4.5583],[140.7123,-4.5562],[140.7166,-4.5541],[140.7225,-4.5739],[140.7304,-4.5805]]]}},{"type":"Feature","properties":{"name":"OkalutKumal","name_en":"OkalutKumal","admin_level":"7","osm_id":""},"geometry":{"type":"Polygon","coordinates":[[[140.6977,-4.3062],[140.7102,-4.293],[140.7282,-4.2829],[140.7485,-4.2784],[140.7989,-4.2781],[140.8221,-4.3383],[140.8221,-4.3627],[140.8169,-4.3907],[140.8094,-4.4501],[140.8042,-4.5379],[140.7994,-4.5439],[140.7883,-4.5451],[140.7727,-4.5494],[140.7662,-4.5532],[140.7603,-4.5597],[140.7409,-4.5753],[140.7304,-4.5805],[140.7225,-4.5739],[140.7164,-4.5535],[140.7273,-4.5304],[140.7028,-4.514],[140.683,-4.4882],[140.6953,-4.4753],[140.7069,-4.4705],[140.7109,-4.4474],[140.6946,-4.4317],[140.6837,-4.4038],[140.6967,-4.3698],[140.7048,-4.3548],[140.7007,-4.3358],[140.7171,-4.3317],[140.7177,-4.3208],[140.7103,-4.3133],[140.6977,-4.3062]]]}},{"type":"Feature","properties":{"name":"Okben","name_en":"Okben","admin_level":"7","osm_id":""},"geometry":{"type":"Polygon","coordinates":[[[140.8074,-4.4907],[140.8483,-4.4985],[140.8655,-4.4985],[140.8842,-4.4963],[140.9016,-4.4901],[140.9652,-4.4755],[141.0,-4.4736],[141.0,-4.6442],[140.9637,-4.6459],[140.9532,-4.6407],[140.9322,-4.6407],[140.9235,-4.6442],[140.9095,-4.6564],[140.8833,-4.6616],[140.8606,-4.6616],[140.8221,-4.6389],[140.8134,-4.6249],[140.8064,-4.5952],[140.8046,-4.5655],[140.7994,-4.548],[140.7994,-4.5439],[140.8042,-4.5379],[140.8074,-4.4907]]]}},{"type":"Feature","properties":{"name":"Okngan","name_en":"Okngan","admin_level":"7","osm_id":""},"geometry":{"type":"Polygon","coordinates":[[[140.7073,-4.4681],[140.6653,-4.4651],[140.6722,-4.4161],[140.6762,-4.4093],[140.6839,-4.4043],[140.6946,-4.4317],[140.7109,-4.4474],[140.7073,-4.4681]]]}},{"type":"Feature","properties":{"name":"Oktaru","name_en":"Oktaru","admin_level":"7","osm_id":""},"geometry":{"type":"Polygon","coordinates":[[[140.7039,-4.588],[140.7043,-4.601],[140.6871,-4.6055],[140.683,-4.5984],[140.6627,-4.5832],[140.6777,-4.5687],[140.7014,-4.5828],[140.7039,-4.588]]]}},{"type":"Feature","properties":{"name":"Oktau","name_en":"Oktau","admin_level":"7","osm_id":""},"geometry":{"type":"Polygon","coordinates":[[[140.6223,-4.6348],[140.6219,-4.6196],[140.6283,-4.5915],[140.6315,-4.5643],[140.6511,-4.5746],[140.6667,-4.5862],[140.683,-4.5984],[140.6871,-4.6055],[140.6646,-4.614],[140.6482,-4.6178],[140.6223,-4.6348]]]}}]}