{"type":"FeatureCollection","metadata":{"parent_osm_id":"gid_IDN_17_13_15_1","parent_name":"RawajituTimur","parent_name_1":"Lampung","parent_gid":"IDN.17.13.15_1","parent_level":"6","child_level":"7","count":8,"source":"GADM 4.1","generated":"2026-05-07"},"features":[{"type":"Feature","properties":{"name":"BumiDipasenaAbadi","name_en":"BumiDipasenaAbadi","admin_level":"7","osm_id":""},"geometry":{"type":"Polygon","coordinates":[[[105.7552,-4.1657],[105.7547,-4.1609],[105.7516,-4.1545],[105.753,-4.1471],[105.7659,-4.1397],[105.772,-4.1311],[105.7702,-4.1199],[105.7767,-4.1125],[105.7808,-4.1182],[105.7899,-4.1216],[105.8083,-4.1235],[105.8157,-4.1349],[105.8186,-4.1416],[105.8214,-4.1583],[105.8193,-4.1621],[105.7552,-4.1657]]]}},{"type":"Feature","properties":{"name":"BumiDipasenaAgung","name_en":"BumiDipasenaAgung","admin_level":"7","osm_id":""},"geometry":{"type":"Polygon","coordinates":[[[105.764,-4.2749],[105.7609,-4.2446],[105.8191,-4.2475],[105.8181,-4.2748],[105.764,-4.2749]]]}},{"type":"Feature","properties":{"name":"BumiDipasenaJaya","name_en":"BumiDipasenaJaya","admin_level":"7","osm_id":""},"geometry":{"type":"Polygon","coordinates":[[[105.7609,-4.2446],[105.7614,-4.2354],[105.7729,-4.2366],[105.7725,-4.2316],[105.8176,-4.2312],[105.8206,-4.2333],[105.8191,-4.2475],[105.7609,-4.2446]]]}},{"type":"Feature","properties":{"name":"BumiDipasenaMakmur","name_en":"BumiDipasenaMakmur","admin_level":"7","osm_id":""},"geometry":{"type":"Polygon","coordinates":[[[105.7591,-4.2174],[105.7576,-4.1942],[105.8262,-4.1849],[105.8271,-4.1903],[105.8224,-4.2126],[105.7713,-4.2212],[105.7708,-4.2171],[105.7591,-4.2174]]]}},{"type":"Feature","properties":{"name":"BumiDipasenaMulya","name_en":"BumiDipasenaMulya","admin_level":"7","osm_id":""},"geometry":{"type":"Polygon","coordinates":[[[105.7599,-4.2247],[105.7591,-4.2174],[105.7708,-4.2171],[105.7713,-4.2212],[105.8224,-4.2126],[105.8197,-4.2275],[105.8203,-4.2319],[105.7725,-4.2316],[105.7729,-4.2366],[105.7614,-4.2354],[105.7599,-4.2247]]]}},{"type":"Feature","properties":{"name":"BumiDipasenaSejahtera","name_en":"BumiDipasenaSejahtera","admin_level":"7","osm_id":""},"geometry":{"type":"Polygon","coordinates":[[[105.7576,-4.194],[105.7552,-4.1657],[105.8193,-4.1621],[105.8262,-4.1849],[105.7576,-4.194]]]}},{"type":"Feature","properties":{"name":"BumiDipasenaSentosa","name_en":"BumiDipasenaSentosa","admin_level":"7","osm_id":""},"geometry":{"type":"Polygon","coordinates":[[[105.8526,-4.4068],[105.8306,-4.4057],[105.8249,-4.4026],[105.8184,-4.3709],[105.8094,-4.3611],[105.7996,-4.354],[105.7883,-4.3249],[105.7812,-4.3184],[105.7825,-4.3154],[105.7795,-4.3101],[105.8192,-4.3086],[105.8224,-4.3324],[105.8298,-4.3536],[105.8377,-4.3621],[105.8538,-4.372],[105.8588,-4.3779],[105.8593,-4.3885],[105.8544,-4.4001],[105.8512,-4.4036],[105.8526,-4.4068]]]}},{"type":"Feature","properties":{"name":"BumiDipasenaUtama","name_en":"BumiDipasenaUtama","admin_level":"7","osm_id":""},"geometry":{"type":"Polygon","coordinates":[[[105.7795,-4.3101],[105.7759,-4.2988],[105.7643,-4.2788],[105.764,-4.2749],[105.8181,-4.2748],[105.8192,-4.3086],[105.7795,-4.3101]]]}}]}