{"type":"FeatureCollection","metadata":{"parent_osm_id":"gid_IDN_23_22_3_1","parent_name":"Jigonikme","parent_name_1":"Papua","parent_gid":"IDN.23.22.3_1","parent_level":"6","child_level":"7","count":7,"source":"GADM 4.1","generated":"2026-05-08"},"features":[{"type":"Feature","properties":{"name":"Gibaga","name_en":"Gibaga","admin_level":"7","osm_id":""},"geometry":{"type":"Polygon","coordinates":[[[138.2193,-3.6773],[138.2181,-3.6731],[138.2499,-3.6669],[138.2551,-3.6644],[138.2621,-3.6883],[138.2507,-3.6908],[138.2243,-3.6912],[138.2193,-3.6773]]]}},{"type":"Feature","properties":{"name":"Gubume","name_en":"Gubume","admin_level":"7","osm_id":""},"geometry":{"type":"Polygon","coordinates":[[[138.2181,-3.6731],[138.2137,-3.663],[138.2115,-3.6527],[138.2344,-3.6511],[138.2419,-3.6484],[138.2468,-3.6502],[138.2512,-3.6486],[138.2551,-3.6644],[138.2499,-3.6669],[138.2181,-3.6731]]]}},{"type":"Feature","properties":{"name":"Guna","name_en":"Guna","admin_level":"7","osm_id":""},"geometry":{"type":"Polygon","coordinates":[[[138.2525,-3.7685],[138.2385,-3.7558],[138.2468,-3.7477],[138.249,-3.7424],[138.2635,-3.7243],[138.2753,-3.7173],[138.2823,-3.7325],[138.2715,-3.7499],[138.2675,-3.7632],[138.2635,-3.768],[138.2578,-3.7693],[138.2525,-3.7685]]]}},{"type":"Feature","properties":{"name":"Jigokme/Jigonilume","name_en":"Jigokme/Jigonilume","admin_level":"7","osm_id":""},"geometry":{"type":"Polygon","coordinates":[[[138.2385,-3.7558],[138.2327,-3.7464],[138.2296,-3.7368],[138.241,-3.7318],[138.2481,-3.7221],[138.2494,-3.7049],[138.2647,-3.696],[138.2733,-3.7108],[138.2753,-3.7173],[138.2635,-3.7243],[138.249,-3.7424],[138.2468,-3.7477],[138.2385,-3.7558]]]}},{"type":"Feature","properties":{"name":"Jinggi","name_en":"Jinggi","admin_level":"7","osm_id":""},"geometry":{"type":"Polygon","coordinates":[[[138.3046,-3.7729],[138.2959,-3.7837],[138.2695,-3.8131],[138.2631,-3.8029],[138.2605,-3.787],[138.2525,-3.7685],[138.2578,-3.7693],[138.2635,-3.768],[138.2675,-3.7632],[138.2715,-3.7499],[138.2823,-3.7325],[138.2907,-3.7422],[138.3046,-3.7729]]]}},{"type":"Feature","properties":{"name":"Nioga","name_en":"Nioga","admin_level":"7","osm_id":""},"geometry":{"type":"Polygon","coordinates":[[[138.2255,-3.7197],[138.2229,-3.7098],[138.2243,-3.6912],[138.2507,-3.6908],[138.2621,-3.6883],[138.2647,-3.696],[138.2494,-3.7049],[138.2481,-3.7221],[138.241,-3.7318],[138.2296,-3.7368],[138.2255,-3.7197]]]}},{"type":"Feature","properties":{"name":"Tinggerege","name_en":"Tinggerege","admin_level":"7","osm_id":""},"geometry":{"type":"Polygon","coordinates":[[[138.2115,-3.6527],[138.2079,-3.6352],[138.2076,-3.6103],[138.2363,-3.6167],[138.245,-3.6289],[138.2512,-3.6486],[138.2468,-3.6502],[138.2419,-3.6484],[138.2344,-3.6511],[138.2115,-3.6527]]]}}]}