{"type":"FeatureCollection","metadata":{"parent_osm_id":"gid_IDN_11_23_4_1","parent_name":"Gedek","parent_name_1":"JawaTimur","parent_gid":"IDN.11.23.4_1","parent_level":"6","child_level":"7","count":14,"source":"GADM 4.1","generated":"2026-05-07"},"features":[{"type":"Feature","properties":{"name":"Balongsari","name_en":"Balongsari","admin_level":"7","osm_id":""},"geometry":{"type":"Polygon","coordinates":[[[112.4242,-7.4368],[112.4212,-7.4371],[112.4218,-7.4305],[112.4189,-7.4308],[112.419,-7.4262],[112.4226,-7.4223],[112.4291,-7.4224],[112.4285,-7.4195],[112.4297,-7.419],[112.432,-7.4299],[112.4292,-7.43],[112.4287,-7.4357],[112.4242,-7.4368]]]}},{"type":"Feature","properties":{"name":"Bandung","name_en":"Bandung","admin_level":"7","osm_id":""},"geometry":{"type":"Polygon","coordinates":[[[112.3887,-7.4387],[112.389,-7.4314],[112.3915,-7.4309],[112.3915,-7.4334],[112.4001,-7.4362],[112.4002,-7.4402],[112.3987,-7.4408],[112.3993,-7.4471],[112.3919,-7.4468],[112.3918,-7.4534],[112.3889,-7.453],[112.3891,-7.4419],[112.3907,-7.439],[112.3887,-7.4387]]]}},{"type":"Feature","properties":{"name":"Batankrajan","name_en":"Batankrajan","admin_level":"7","osm_id":""},"geometry":{"type":"Polygon","coordinates":[[[112.4187,-7.4273],[112.4189,-7.4308],[112.4218,-7.4305],[112.4212,-7.4371],[112.4241,-7.4375],[112.4234,-7.4409],[112.4158,-7.4414],[112.4149,-7.4353],[112.4078,-7.4324],[112.4081,-7.4285],[112.4168,-7.4287],[112.4187,-7.4273]]]}},{"type":"Feature","properties":{"name":"Beratwetan","name_en":"Beratwetan","admin_level":"7","osm_id":""},"geometry":{"type":"Polygon","coordinates":[[[112.389,-7.4314],[112.3887,-7.4387],[112.3866,-7.4384],[112.3854,-7.44],[112.378,-7.4386],[112.3761,-7.4474],[112.3704,-7.4469],[112.3702,-7.4379],[112.3739,-7.4307],[112.3806,-7.4285],[112.3834,-7.429],[112.3852,-7.4324],[112.389,-7.4314]]]}},{"type":"Feature","properties":{"name":"Gedek","name_en":"Gedek","admin_level":"7","osm_id":""},"geometry":{"type":"Polygon","coordinates":[[[112.3999,-7.4583],[112.3923,-7.4577],[112.3919,-7.4468],[112.4009,-7.4472],[112.4005,-7.4515],[112.4023,-7.4514],[112.3999,-7.4583]]]}},{"type":"Feature","properties":{"name":"Gembongan","name_en":"Gembongan","admin_level":"7","osm_id":""},"geometry":{"type":"Polygon","coordinates":[[[112.3798,-7.4588],[112.3695,-7.4566],[112.3704,-7.4469],[112.3761,-7.4474],[112.378,-7.4386],[112.3858,-7.4401],[112.3798,-7.4588]]]}},{"type":"Feature","properties":{"name":"Gempolkrep","name_en":"Gempolkrep","admin_level":"7","osm_id":""},"geometry":{"type":"Polygon","coordinates":[[[112.3923,-7.4577],[112.3798,-7.4588],[112.3866,-7.4384],[112.3907,-7.439],[112.3891,-7.4419],[112.3889,-7.453],[112.3918,-7.4534],[112.3923,-7.4577]]]}},{"type":"Feature","properties":{"name":"Jerukseger","name_en":"Jerukseger","admin_level":"7","osm_id":""},"geometry":{"type":"Polygon","coordinates":[[[112.4001,-7.4362],[112.3915,-7.4334],[112.3915,-7.4309],[112.3852,-7.4324],[112.385,-7.4303],[112.3883,-7.4277],[112.3962,-7.4252],[112.4037,-7.426],[112.4081,-7.4285],[112.4077,-7.4326],[112.4058,-7.4327],[112.4054,-7.436],[112.4001,-7.4362]]]}},{"type":"Feature","properties":{"name":"Kemantren","name_en":"Kemantren","admin_level":"7","osm_id":""},"geometry":{"type":"Polygon","coordinates":[[[112.4167,-7.4572],[112.4086,-7.458],[112.4083,-7.4404],[112.418,-7.4414],[112.4167,-7.4572]]]}},{"type":"Feature","properties":{"name":"Ngareskidul","name_en":"Ngareskidul","admin_level":"7","osm_id":""},"geometry":{"type":"Polygon","coordinates":[[[112.3695,-7.4566],[112.3582,-7.4576],[112.3551,-7.4564],[112.3555,-7.4477],[112.359,-7.4459],[112.3622,-7.4461],[112.3632,-7.448],[112.3704,-7.4471],[112.3695,-7.4566]]]}},{"type":"Feature","properties":{"name":"Pagerjo","name_en":"Pagerjo","admin_level":"7","osm_id":""},"geometry":{"type":"Polygon","coordinates":[[[112.4002,-7.4402],[112.4001,-7.4362],[112.4054,-7.436],[112.4058,-7.4327],[112.409,-7.4324],[112.4149,-7.4353],[112.4159,-7.4402],[112.4152,-7.4416],[112.4102,-7.4402],[112.4014,-7.4413],[112.4002,-7.4402]]]}},{"type":"Feature","properties":{"name":"Pagerluyung","name_en":"Pagerluyung","admin_level":"7","osm_id":""},"geometry":{"type":"Polygon","coordinates":[[[112.402,-7.4594],[112.3999,-7.4583],[112.4023,-7.4514],[112.4005,-7.4515],[112.4009,-7.4472],[112.3993,-7.4471],[112.3987,-7.4404],[112.4084,-7.4411],[112.4086,-7.458],[112.402,-7.4594]]]}},{"type":"Feature","properties":{"name":"Sidoharjo","name_en":"Sidoharjo","admin_level":"7","osm_id":""},"geometry":{"type":"Polygon","coordinates":[[[112.4242,-7.4368],[112.4287,-7.4357],[112.4292,-7.43],[112.436,-7.4289],[112.4362,-7.4434],[112.4332,-7.452],[112.4346,-7.4547],[112.4305,-7.4547],[112.4287,-7.4511],[112.425,-7.4506],[112.4253,-7.4452],[112.4234,-7.4458],[112.4242,-7.4368]]]}},{"type":"Feature","properties":{"name":"Terusan","name_en":"Terusan","admin_level":"7","osm_id":""},"geometry":{"type":"Polygon","coordinates":[[[112.4375,-7.4576],[112.4317,-7.4602],[112.4229,-7.4571],[112.4167,-7.4572],[112.418,-7.4414],[112.4234,-7.4409],[112.4234,-7.4458],[112.4253,-7.4455],[112.425,-7.4506],[112.4287,-7.4511],[112.4305,-7.4547],[112.436,-7.4547],[112.4375,-7.4576]]]}}]}