{"type":"FeatureCollection","metadata":{"parent_osm_id":"18187197","parent_name":"Leles","parent_name_1":"JawaBarat","parent_gid":"IDN.9.7.20_1","parent_level":"6","child_level":"7","count":11,"source":"GADM 4.1","generated":"2026-05-09"},"features":[{"type":"Feature","properties":{"name":"Karyamukti","name_en":"Karyamukti","admin_level":"7","osm_id":""},"geometry":{"type":"Polygon","coordinates":[[[107.049,-7.3757],[107.05,-7.3781],[107.0466,-7.3853],[107.0476,-7.3908],[107.0431,-7.3889],[107.0015,-7.3853],[106.9942,-7.3881],[106.9893,-7.3868],[106.9843,-7.39],[106.9806,-7.3878],[106.9829,-7.3836],[106.9808,-7.3806],[106.9842,-7.3733],[106.9884,-7.3727],[106.9917,-7.3675],[106.9963,-7.3722],[107.0013,-7.3746],[107.008,-7.3735],[107.0147,-7.3758],[107.0174,-7.3741],[107.0265,-7.376],[107.049,-7.3757]]]}},{"type":"Feature","properties":{"name":"Mandalawangi","name_en":"Mandalawangi","admin_level":"7","osm_id":""},"geometry":{"type":"Polygon","coordinates":[[[107.0724,-7.3413],[107.0662,-7.3422],[107.0493,-7.3325],[107.0493,-7.3295],[107.0517,-7.3276],[107.0499,-7.3231],[107.0569,-7.3232],[107.0606,-7.3177],[107.0759,-7.3188],[107.0698,-7.3226],[107.0668,-7.3279],[107.0683,-7.3375],[107.0717,-7.3376],[107.0724,-7.3413]]]}},{"type":"Feature","properties":{"name":"Nagasari","name_en":"Nagasari","admin_level":"7","osm_id":""},"geometry":{"type":"Polygon","coordinates":[[[106.9663,-7.3904],[106.9611,-7.3863],[106.9601,-7.3796],[106.9572,-7.3776],[106.9557,-7.3686],[106.9573,-7.3663],[106.9698,-7.3663],[106.9761,-7.373],[106.9762,-7.3772],[106.9734,-7.3816],[106.9706,-7.3828],[106.9714,-7.3879],[106.969,-7.3906],[106.9663,-7.3872],[106.9663,-7.3904]]]}},{"type":"Feature","properties":{"name":"Puncakwangi","name_en":"Puncakwangi","admin_level":"7","osm_id":""},"geometry":{"type":"Polygon","coordinates":[[[107.0766,-7.2833],[107.083,-7.3005],[107.0798,-7.3068],[107.0796,-7.3108],[107.0769,-7.3134],[107.0759,-7.3188],[107.0608,-7.3179],[107.0614,-7.3111],[107.0556,-7.3065],[107.0471,-7.2856],[107.0546,-7.2835],[107.0631,-7.2847],[107.0766,-7.2833]]]}},{"type":"Feature","properties":{"name":"Purabaya","name_en":"Purabaya","admin_level":"7","osm_id":""},"geometry":{"type":"Polygon","coordinates":[[[106.9985,-7.332],[107.0048,-7.3313],[107.0101,-7.3285],[107.024,-7.3326],[107.0342,-7.3375],[107.0336,-7.3434],[107.0211,-7.3604],[107.0223,-7.3672],[107.0138,-7.367],[107.0108,-7.3523],[107.001,-7.3464],[106.994,-7.3478],[106.989,-7.3518],[106.982,-7.3542],[106.9762,-7.3543],[106.9889,-7.3419],[106.9938,-7.34],[106.996,-7.3407],[106.9989,-7.3357],[106.9985,-7.332]]]}},{"type":"Feature","properties":{"name":"Pusakasari","name_en":"Pusakasari","admin_level":"7","osm_id":""},"geometry":{"type":"Polygon","coordinates":[[[106.9613,-7.3966],[106.9605,-7.3925],[106.9653,-7.3921],[106.9663,-7.3872],[106.9699,-7.3905],[106.9697,-7.3885],[106.9714,-7.3879],[106.9707,-7.3824],[106.9734,-7.3816],[106.9766,-7.3762],[106.9759,-7.3727],[106.9692,-7.3648],[106.9723,-7.3606],[106.9707,-7.3555],[106.9741,-7.3534],[106.9762,-7.3543],[106.9754,-7.3565],[106.9777,-7.3615],[106.9804,-7.3599],[106.984,-7.3642],[106.9917,-7.3675],[106.9884,-7.3727],[106.9842,-7.3733],[106.9808,-7.3806],[106.9829,-7.3836],[106.9806,-7.3878],[106.9872,-7.392],[106.9846,-7.3968],[106.9771,-7.3952],[106.9613,-7.3966]]]}},{"type":"Feature","properties":{"name":"Sirnasari","name_en":"Sirnasari","admin_level":"7","osm_id":""},"geometry":{"type":"Polygon","coordinates":[[[107.0344,-7.2919],[107.0373,-7.2919],[107.0393,-7.2894],[107.04,-7.2905],[107.0382,-7.2948],[107.0396,-7.2957],[107.0386,-7.3021],[107.0304,-7.3154],[107.0301,-7.3227],[107.0338,-7.3292],[107.0342,-7.3375],[107.024,-7.3326],[107.0101,-7.3285],[107.0048,-7.3313],[106.9985,-7.332],[106.9986,-7.3089],[106.9954,-7.3048],[106.9963,-7.3037],[107.0104,-7.2943],[107.0173,-7.2972],[107.0344,-7.2919]]]}},{"type":"Feature","properties":{"name":"Sukajaya","name_en":"Sukajaya","admin_level":"7","osm_id":""},"geometry":{"type":"Polygon","coordinates":[[[106.9538,-7.3411],[106.9521,-7.3328],[106.9538,-7.3293],[106.9741,-7.3223],[106.9766,-7.3195],[106.981,-7.3201],[106.9824,-7.3225],[106.9863,-7.3215],[106.9916,-7.3148],[106.995,-7.3053],[106.9977,-7.3068],[106.9989,-7.335],[106.996,-7.3407],[106.9938,-7.34],[106.9889,-7.3419],[106.9762,-7.3543],[106.9736,-7.3534],[106.9707,-7.3555],[106.9589,-7.3441],[106.9538,-7.3411]]]}},{"type":"Feature","properties":{"name":"Sukamulya","name_en":"Sukamulya","admin_level":"7","osm_id":""},"geometry":{"type":"Polygon","coordinates":[[[107.0136,-7.3754],[107.008,-7.3735],[107.0013,-7.3746],[106.9963,-7.3722],[106.9941,-7.3688],[106.984,-7.3642],[106.9804,-7.3599],[106.9777,-7.3615],[106.9758,-7.355],[106.9886,-7.3521],[106.9933,-7.3482],[106.9997,-7.3464],[107.008,-7.3499],[107.0112,-7.3534],[107.0138,-7.367],[107.0136,-7.3754]]]}},{"type":"Feature","properties":{"name":"Sukasirna","name_en":"Sukasirna","admin_level":"7","osm_id":""},"geometry":{"type":"Polygon","coordinates":[[[107.0662,-7.3422],[107.0645,-7.3435],[107.0619,-7.3541],[107.0584,-7.3554],[107.053,-7.3548],[107.0505,-7.3582],[107.0487,-7.3666],[107.049,-7.3757],[107.0265,-7.376],[107.0174,-7.3741],[107.0165,-7.3756],[107.0136,-7.3754],[107.0138,-7.367],[107.0223,-7.3672],[107.0211,-7.3604],[107.0336,-7.3434],[107.034,-7.33],[107.0473,-7.3305],[107.0662,-7.3422]]]}},{"type":"Feature","properties":{"name":"Walahir","name_en":"Walahir","admin_level":"7","osm_id":""},"geometry":{"type":"Polygon","coordinates":[[[107.0393,-7.2894],[107.0448,-7.2885],[107.0473,-7.2865],[107.0556,-7.3065],[107.0614,-7.3111],[107.0606,-7.3177],[107.0569,-7.3232],[107.0499,-7.3231],[107.0517,-7.3276],[107.0493,-7.3295],[107.0492,-7.3323],[107.0457,-7.33],[107.034,-7.33],[107.0301,-7.3227],[107.0305,-7.3152],[107.0387,-7.3017],[107.0393,-7.2894]]]}}]}