{"type":"FeatureCollection","metadata":{"parent_osm_id":"16192944","parent_name":"Kemiri","parent_name_1":"Banten","parent_gid":"IDN.4.8.10_1","parent_level":"6","child_level":"7","count":7,"source":"GADM 4.1","generated":"2026-05-09"},"features":[{"type":"Feature","properties":{"name":"KarangAnyar","name_en":"KarangAnyar","admin_level":"7","osm_id":""},"geometry":{"type":"Polygon","coordinates":[[[106.4708,-6.0436],[106.4734,-6.0448],[106.472,-6.0509],[106.4743,-6.0592],[106.4722,-6.0596],[106.4747,-6.0743],[106.4721,-6.0879],[106.4681,-6.0927],[106.4654,-6.09],[106.464,-6.085],[106.4613,-6.0851],[106.4613,-6.0819],[106.4675,-6.0624],[106.4677,-6.0494],[106.4708,-6.0436]]]}},{"type":"Feature","properties":{"name":"Kelebet","name_en":"Kelebet","admin_level":"7","osm_id":""},"geometry":{"type":"Polygon","coordinates":[[[106.4613,-6.0817],[106.4596,-6.0918],[106.4618,-6.0954],[106.4616,-6.0999],[106.4643,-6.0998],[106.467,-6.102],[106.4638,-6.1062],[106.4639,-6.1107],[106.4664,-6.1109],[106.4665,-6.1128],[106.4631,-6.116],[106.4591,-6.1159],[106.4561,-6.1125],[106.4539,-6.1127],[106.4528,-6.1104],[106.4546,-6.1079],[106.4509,-6.1073],[106.449,-6.1044],[106.4466,-6.0955],[106.4495,-6.0915],[106.4456,-6.0866],[106.4437,-6.0807],[106.4456,-6.0752],[106.4563,-6.0812],[106.4613,-6.0817]]]}},{"type":"Feature","properties":{"name":"Kemiri","name_en":"Kemiri","admin_level":"7","osm_id":""},"geometry":{"type":"Polygon","coordinates":[[[106.4613,-6.0851],[106.464,-6.085],[106.4666,-6.0921],[106.4797,-6.0954],[106.4806,-6.1044],[106.4731,-6.1172],[106.4631,-6.116],[106.4665,-6.1128],[106.4664,-6.1109],[106.4639,-6.1107],[106.4638,-6.1062],[106.467,-6.102],[106.4643,-6.0998],[106.4616,-6.0999],[106.4618,-6.0954],[106.4596,-6.0918],[106.4613,-6.0851]]]}},{"type":"Feature","properties":{"name":"LegokSukamaju","name_en":"LegokSukamaju","admin_level":"7","osm_id":""},"geometry":{"type":"Polygon","coordinates":[[[106.4485,-6.1022],[106.4509,-6.1073],[106.4546,-6.1079],[106.4528,-6.1104],[106.4537,-6.1125],[106.4518,-6.1144],[106.4528,-6.1224],[106.46,-6.1282],[106.4592,-6.1336],[106.4648,-6.1406],[106.4618,-6.1433],[106.4565,-6.1428],[106.4532,-6.1358],[106.4505,-6.1344],[106.4507,-6.1324],[106.4489,-6.1309],[106.4455,-6.132],[106.4444,-6.1296],[106.4445,-6.125],[106.4488,-6.1202],[106.4474,-6.1098],[106.4448,-6.1077],[106.446,-6.104],[106.4485,-6.1022]]]}},{"type":"Feature","properties":{"name":"Lontar","name_en":"Lontar","admin_level":"7","osm_id":""},"geometry":{"type":"Polygon","coordinates":[[[106.4708,-6.0436],[106.4677,-6.0494],[106.4675,-6.0624],[106.4613,-6.0817],[106.4579,-6.0819],[106.4456,-6.0752],[106.4466,-6.0683],[106.4503,-6.0632],[106.4481,-6.0596],[106.453,-6.0554],[106.4588,-6.0373],[106.4612,-6.0368],[106.4708,-6.0436]]]}},{"type":"Feature","properties":{"name":"PatraManggala","name_en":"PatraManggala","admin_level":"7","osm_id":""},"geometry":{"type":"Polygon","coordinates":[[[106.4681,-6.0927],[106.4719,-6.0884],[106.4744,-6.0781],[106.4747,-6.0698],[106.4722,-6.0596],[106.4743,-6.0592],[106.472,-6.0509],[106.4734,-6.0447],[106.4824,-6.0456],[106.4805,-6.0556],[106.484,-6.0705],[106.4857,-6.0738],[106.4884,-6.075],[106.4862,-6.0809],[106.4893,-6.0819],[106.4809,-6.0839],[106.4817,-6.0864],[106.4797,-6.0954],[106.4681,-6.0927]]]}},{"type":"Feature","properties":{"name":"RancaLabuh","name_en":"RancaLabuh","admin_level":"7","osm_id":""},"geometry":{"type":"Polygon","coordinates":[[[106.4537,-6.1125],[106.4561,-6.1125],[106.4591,-6.1159],[106.4704,-6.1178],[106.4691,-6.1251],[106.4659,-6.1292],[106.4682,-6.1293],[106.468,-6.1319],[106.4659,-6.1319],[106.4659,-6.1335],[106.4593,-6.1339],[106.4599,-6.1279],[106.4528,-6.1224],[106.4518,-6.1144],[106.4537,-6.1125]]]}}]}