{"type":"FeatureCollection","metadata":{"parent_osm_id":"gid_IDN_6_7_9_1","parent_name":"PopayatoTimur","parent_name_1":"Gorontalo","parent_gid":"IDN.6.7.9_1","parent_level":"6","child_level":"7","count":7,"source":"GADM 4.1","generated":"2026-05-09"},"features":[{"type":"Feature","properties":{"name":"Bunto","name_en":"Bunto","admin_level":"7","osm_id":""},"geometry":{"type":"Polygon","coordinates":[[[121.4791,0.5082],[121.4951,0.5192],[121.5039,0.5166],[121.5044,0.5124],[121.5074,0.5087],[121.507,0.5037],[121.5105,0.4891],[121.5069,0.4866],[121.5018,0.4887],[121.4992,0.4837],[121.4949,0.4801],[121.496,0.4845],[121.4947,0.4852],[121.4961,0.4858],[121.4953,0.4881],[121.4937,0.4875],[121.495,0.4911],[121.4938,0.4917],[121.4952,0.492],[121.4895,0.4964],[121.4903,0.5011],[121.4886,0.5024],[121.487,0.5006],[121.4835,0.5026],[121.4817,0.5066],[121.48,0.5062],[121.4791,0.5082]]]}},{"type":"Feature","properties":{"name":"KelapaLima","name_en":"KelapaLima","admin_level":"7","osm_id":""},"geometry":{"type":"Polygon","coordinates":[[[121.5406,0.5734],[121.5354,0.5739],[121.5136,0.5696],[121.514,0.5554],[121.4947,0.5444],[121.4903,0.5681],[121.4821,0.683],[121.4758,0.8278],[121.4766,0.8376],[121.4808,0.8376],[121.4826,0.8397],[121.4937,0.8395],[121.4994,0.8432],[121.5012,0.8429],[121.5014,0.8461],[121.5059,0.8459],[121.5159,0.8495],[121.516,0.7031],[121.509,0.6993],[121.5057,0.6872],[121.5012,0.6839],[121.5003,0.6794],[121.5059,0.6763],[121.5066,0.6631],[121.5178,0.645],[121.5257,0.6462],[121.5282,0.6426],[121.5284,0.6301],[121.5239,0.6248],[121.5297,0.6211],[121.5308,0.618],[121.5308,0.6147],[121.5279,0.6126],[121.5282,0.6091],[121.5458,0.5961],[121.5476,0.593],[121.5467,0.5775],[121.5443,0.5741],[121.5406,0.5734]]]}},{"type":"Feature","properties":{"name":"Londoun","name_en":"Londoun","admin_level":"7","osm_id":""},"geometry":{"type":"Polygon","coordinates":[[[121.5102,0.4923],[121.5085,0.4945],[121.5095,0.4974],[121.5075,0.5011],[121.5074,0.5087],[121.5044,0.5124],[121.5039,0.5166],[121.4948,0.5191],[121.4832,0.5394],[121.4808,0.5517],[121.4772,0.5518],[121.4636,0.8457],[121.4661,0.8474],[121.472,0.8422],[121.4753,0.8415],[121.4766,0.8376],[121.4774,0.7779],[121.4813,0.6964],[121.4921,0.5544],[121.4969,0.534],[121.5097,0.5164],[121.5168,0.5116],[121.5201,0.5035],[121.5183,0.4955],[121.5137,0.4951],[121.5102,0.4923]]]}},{"type":"Feature","properties":{"name":"Maleo","name_en":"Maleo","admin_level":"7","osm_id":""},"geometry":{"type":"Polygon","coordinates":[[[121.4951,0.5192],[121.4791,0.5082],[121.4792,0.511],[121.477,0.5089],[121.4736,0.5132],[121.4734,0.5164],[121.4696,0.5192],[121.472,0.5257],[121.4864,0.5263],[121.492,0.5256],[121.4951,0.5192]]]}},{"type":"Feature","properties":{"name":"Marisa","name_en":"Marisa","admin_level":"7","osm_id":""},"geometry":{"type":"Polygon","coordinates":[[[121.4636,0.8457],[121.4716,0.6548],[121.4766,0.5818],[121.4772,0.5518],[121.4751,0.5503],[121.4724,0.5513],[121.4719,0.5531],[121.4701,0.5517],[121.4648,0.5559],[121.458,0.5577],[121.455,0.5612],[121.4528,0.5593],[121.4519,0.5619],[121.4565,0.5652],[121.4565,0.5688],[121.4624,0.5697],[121.4632,0.572],[121.4598,0.5732],[121.4636,0.5793],[121.4639,0.584],[121.4617,0.5867],[121.4578,0.588],[121.4585,0.5904],[121.4621,0.5898],[121.4599,0.5931],[121.4549,0.5948],[121.4525,0.5936],[121.4372,0.847],[121.4553,0.8476],[121.4619,0.8451],[121.4636,0.8457]]]}},{"type":"Feature","properties":{"name":"Milangodaa","name_en":"Milangodaa","admin_level":"7","osm_id":""},"geometry":{"type":"Polygon","coordinates":[[[121.5148,0.553],[121.5179,0.5507],[121.5172,0.5462],[121.5211,0.5427],[121.5216,0.5398],[121.5212,0.5336],[121.515,0.533],[121.5133,0.5294],[121.5131,0.5256],[121.5159,0.5228],[121.5181,0.5233],[121.5194,0.5194],[121.5181,0.5153],[121.5153,0.5128],[121.5097,0.5164],[121.4969,0.534],[121.4947,0.5444],[121.514,0.5554],[121.5148,0.553]]]}},{"type":"Feature","properties":{"name":"Tahele","name_en":"Tahele","admin_level":"7","osm_id":""},"geometry":{"type":"Polygon","coordinates":[[[121.4772,0.5518],[121.4808,0.5517],[121.4832,0.5394],[121.4905,0.5254],[121.472,0.5257],[121.4722,0.5294],[121.4755,0.5337],[121.4723,0.5378],[121.4781,0.5387],[121.4738,0.5437],[121.4756,0.5482],[121.4738,0.5485],[121.4724,0.5513],[121.4751,0.5503],[121.4772,0.5518]]]}}]}