{"type":"FeatureCollection","metadata":{"parent_osm_id":"gid_IDN_21_21_12_1","parent_name":"InsanaFafinesu","parent_name_1":"NusaTenggaraTimur","parent_gid":"IDN.21.21.12_1","parent_level":"6","child_level":"7","count":6,"source":"GADM 4.1","generated":"2026-05-09"},"features":[{"type":"Feature","properties":{"name":"Banuan","name_en":"Banuan","admin_level":"7","osm_id":""},"geometry":{"type":"Polygon","coordinates":[[[124.5745,-9.343],[124.5566,-9.3431],[124.5443,-9.3316],[124.5393,-9.3288],[124.5421,-9.3207],[124.548,-9.311],[124.5636,-9.3102],[124.5794,-9.3056],[124.5884,-9.3054],[124.5943,-9.3086],[124.6037,-9.3338],[124.6023,-9.3379],[124.5995,-9.338],[124.5935,-9.3425],[124.5888,-9.3482],[124.5842,-9.3476],[124.5781,-9.3429],[124.5745,-9.343]]]}},{"type":"Feature","properties":{"name":"Fafinesu","name_en":"Fafinesu","admin_level":"7","osm_id":""},"geometry":{"type":"Polygon","coordinates":[[[124.5891,-9.3797],[124.5873,-9.3808],[124.5869,-9.3844],[124.5846,-9.3858],[124.5802,-9.3977],[124.5705,-9.3953],[124.5635,-9.3862],[124.5599,-9.375],[124.5641,-9.3682],[124.5697,-9.3647],[124.5759,-9.3568],[124.5786,-9.3665],[124.5868,-9.374],[124.5891,-9.3797]]]}},{"type":"Feature","properties":{"name":"FafinesuA","name_en":"FafinesuA","admin_level":"7","osm_id":""},"geometry":{"type":"Polygon","coordinates":[[[124.5705,-9.3953],[124.5802,-9.3977],[124.5846,-9.3858],[124.5869,-9.3844],[124.5873,-9.3808],[124.5916,-9.3782],[124.6027,-9.3806],[124.6083,-9.3774],[124.6131,-9.3798],[124.6123,-9.3764],[124.6141,-9.3774],[124.6202,-9.3736],[124.6191,-9.3749],[124.62,-9.381],[124.6189,-9.3879],[124.6159,-9.3931],[124.6134,-9.3941],[124.609,-9.4074],[124.6085,-9.4151],[124.6112,-9.4227],[124.6072,-9.4239],[124.6051,-9.4215],[124.6057,-9.4204],[124.6034,-9.4193],[124.6045,-9.4243],[124.6004,-9.4219],[124.5965,-9.4229],[124.5951,-9.4199],[124.5928,-9.4198],[124.5914,-9.4218],[124.5888,-9.4187],[124.5886,-9.4115],[124.5836,-9.41],[124.5778,-9.4013],[124.5729,-9.4015],[124.5705,-9.3953]]]}},{"type":"Feature","properties":{"name":"FafinesuB","name_en":"FafinesuB","admin_level":"7","osm_id":""},"geometry":{"type":"Polygon","coordinates":[[[124.5484,-9.3359],[124.5533,-9.3412],[124.5593,-9.3439],[124.5743,-9.3428],[124.5796,-9.3468],[124.5802,-9.3527],[124.579,-9.3565],[124.5756,-9.3571],[124.5697,-9.3647],[124.5641,-9.3682],[124.5598,-9.3764],[124.551,-9.3771],[124.5503,-9.3844],[124.5481,-9.3878],[124.5327,-9.4006],[124.5234,-9.3964],[124.5247,-9.3951],[124.5233,-9.391],[124.5247,-9.3899],[124.5239,-9.3859],[124.5263,-9.3746],[124.5269,-9.3769],[124.5305,-9.3795],[124.5359,-9.3787],[124.5374,-9.3812],[124.5405,-9.3787],[124.5422,-9.3727],[124.5453,-9.3685],[124.5451,-9.3633],[124.5473,-9.3622],[124.5463,-9.3608],[124.5481,-9.3585],[124.5466,-9.3556],[124.5444,-9.3558],[124.5428,-9.3532],[124.5475,-9.3448],[124.5484,-9.3359]]]}},{"type":"Feature","properties":{"name":"FafinesuC","name_en":"FafinesuC","admin_level":"7","osm_id":""},"geometry":{"type":"Polygon","coordinates":[[[124.5745,-9.343],[124.5781,-9.3429],[124.5842,-9.3476],[124.5888,-9.3482],[124.5917,-9.3449],[124.5918,-9.3534],[124.5941,-9.3579],[124.5917,-9.3664],[124.5926,-9.3756],[124.5915,-9.3788],[124.5891,-9.3797],[124.5868,-9.374],[124.5786,-9.3665],[124.5759,-9.3568],[124.579,-9.3565],[124.5805,-9.3491],[124.5788,-9.3458],[124.5745,-9.343]]]}},{"type":"Feature","properties":{"name":"Oenain","name_en":"Oenain","admin_level":"7","osm_id":""},"geometry":{"type":"Polygon","coordinates":[[[124.5393,-9.3288],[124.5484,-9.3359],[124.5475,-9.3448],[124.5428,-9.3532],[124.5444,-9.3558],[124.5466,-9.3556],[124.5481,-9.3585],[124.5463,-9.3608],[124.5473,-9.3622],[124.5451,-9.3633],[124.5444,-9.3709],[124.5422,-9.3727],[124.5405,-9.3787],[124.5374,-9.3812],[124.5359,-9.3787],[124.5305,-9.3795],[124.5269,-9.3769],[124.5259,-9.372],[124.527,-9.3696],[124.5351,-9.3647],[124.5375,-9.3406],[124.5338,-9.338],[124.5331,-9.3357],[124.5297,-9.3355],[124.5277,-9.3304],[124.5239,-9.3285],[124.5267,-9.329],[124.5286,-9.3265],[124.5318,-9.3275],[124.533,-9.3261],[124.5393,-9.3288]]]}}]}