{"type":"FeatureCollection","metadata":{"parent_osm_id":"gid_IDN_9_25_10_1","parent_name":"Jatigede","parent_name_1":"JawaBarat","parent_gid":"IDN.9.25.10_1","parent_level":"6","child_level":"7","count":12,"source":"GADM 4.1","generated":"2026-05-09"},"features":[{"type":"Feature","properties":{"name":"Cijeungjing","name_en":"Cijeungjing","admin_level":"7","osm_id":""},"geometry":{"type":"Polygon","coordinates":[[[108.096,-6.861],[108.0961,-6.8534],[108.1,-6.8533],[108.1043,-6.8508],[108.1121,-6.8386],[108.1141,-6.8291],[108.1117,-6.8261],[108.1144,-6.8211],[108.1271,-6.8244],[108.128,-6.8263],[108.1217,-6.8328],[108.1224,-6.837],[108.1173,-6.8411],[108.1184,-6.8438],[108.1159,-6.848],[108.1154,-6.8564],[108.1132,-6.8569],[108.1118,-6.8603],[108.1052,-6.8609],[108.1014,-6.8671],[108.0989,-6.8645],[108.0979,-6.8654],[108.0954,-6.8621],[108.096,-6.861]]]}},{"type":"Feature","properties":{"name":"Cintajaya","name_en":"Cintajaya","admin_level":"7","osm_id":""},"geometry":{"type":"Polygon","coordinates":[[[108.1612,-6.8282],[108.1643,-6.8342],[108.1599,-6.8347],[108.1609,-6.8371],[108.1645,-6.8383],[108.1635,-6.8394],[108.1659,-6.8417],[108.1659,-6.8462],[108.1681,-6.8479],[108.1687,-6.8512],[108.1668,-6.8529],[108.1672,-6.8552],[108.1641,-6.8558],[108.164,-6.8572],[108.1627,-6.8565],[108.1625,-6.8587],[108.1593,-6.8573],[108.1579,-6.861],[108.1539,-6.8607],[108.1533,-6.8648],[108.1586,-6.8704],[108.157,-6.8724],[108.1574,-6.8755],[108.1611,-6.8784],[108.156,-6.8825],[108.1505,-6.8788],[108.1496,-6.8725],[108.1439,-6.8668],[108.1454,-6.8568],[108.1371,-6.8439],[108.1371,-6.8394],[108.1387,-6.8348],[108.1441,-6.8292],[108.1612,-6.8282]]]}},{"type":"Feature","properties":{"name":"Cipicung","name_en":"Cipicung","admin_level":"7","osm_id":""},"geometry":{"type":"Polygon","coordinates":[[[108.1118,-6.8603],[108.1132,-6.8569],[108.1154,-6.8564],[108.1159,-6.848],[108.1184,-6.8438],[108.1173,-6.8411],[108.1224,-6.837],[108.1218,-6.8327],[108.1284,-6.8261],[108.1296,-6.8295],[108.1281,-6.8361],[108.1329,-6.8399],[108.1372,-6.8385],[108.1371,-6.8439],[108.1454,-6.8568],[108.1439,-6.8668],[108.1496,-6.8725],[108.1505,-6.8788],[108.156,-6.8825],[108.147,-6.886],[108.1365,-6.8839],[108.1319,-6.8797],[108.1325,-6.8784],[108.1349,-6.8794],[108.1334,-6.8767],[108.1334,-6.8719],[108.1265,-6.8684],[108.1223,-6.8681],[108.1195,-6.8631],[108.1155,-6.8627],[108.1118,-6.8603]]]}},{"type":"Feature","properties":{"name":"Ciranggem","name_en":"Ciranggem","admin_level":"7","osm_id":""},"geometry":{"type":"Polygon","coordinates":[[[108.1315,-6.8849],[108.1331,-6.8885],[108.1355,-6.8879],[108.1341,-6.8907],[108.1367,-6.8971],[108.1439,-6.8966],[108.1433,-6.8993],[108.1466,-6.9076],[108.1517,-6.9119],[108.15,-6.9169],[108.1474,-6.9173],[108.1491,-6.9256],[108.1376,-6.9208],[108.1331,-6.9155],[108.1308,-6.9163],[108.1292,-6.9123],[108.1267,-6.9104],[108.1151,-6.9084],[108.1141,-6.8994],[108.1098,-6.8946],[108.1108,-6.8929],[108.1087,-6.8878],[108.1143,-6.8835],[108.1186,-6.8847],[108.1258,-6.8835],[108.1283,-6.8857],[108.1315,-6.8849]]]}},{"type":"Feature","properties":{"name":"Cisampih","name_en":"Cisampih","admin_level":"7","osm_id":""},"geometry":{"type":"Polygon","coordinates":[[[108.156,-6.8825],[108.1611,-6.8784],[108.1763,-6.8871],[108.1764,-6.8898],[108.1701,-6.8904],[108.1723,-6.8927],[108.1722,-6.8957],[108.1748,-6.8978],[108.1766,-6.9068],[108.1709,-6.9052],[108.1679,-6.9079],[108.1611,-6.91],[108.161,-6.9119],[108.1559,-6.9098],[108.1513,-6.9112],[108.1466,-6.9076],[108.1433,-6.8993],[108.1439,-6.8966],[108.1367,-6.8971],[108.1341,-6.8907],[108.1355,-6.8879],[108.1331,-6.8885],[108.1315,-6.8849],[108.1333,-6.8813],[108.1365,-6.8839],[108.1465,-6.886],[108.1522,-6.885],[108.156,-6.8825]]]}},{"type":"Feature","properties":{"name":"Jemah","name_en":"Jemah","admin_level":"7","osm_id":""},"geometry":{"type":"Polygon","coordinates":[[[108.0813,-6.8632],[108.0934,-6.8668],[108.0952,-6.8661],[108.0938,-6.8636],[108.096,-6.861],[108.0954,-6.8621],[108.0979,-6.8654],[108.0989,-6.8645],[108.1014,-6.8671],[108.1052,-6.8609],[108.1115,-6.8601],[108.1155,-6.8627],[108.1195,-6.8631],[108.1223,-6.8681],[108.1265,-6.8684],[108.1334,-6.8719],[108.1334,-6.8767],[108.1349,-6.8794],[108.1321,-6.8787],[108.1333,-6.8829],[108.131,-6.8851],[108.1283,-6.8857],[108.1258,-6.8835],[108.1186,-6.8847],[108.1143,-6.8835],[108.1038,-6.8895],[108.1027,-6.8917],[108.0982,-6.8911],[108.0958,-6.8936],[108.0934,-6.8925],[108.092,-6.8936],[108.0918,-6.8908],[108.0881,-6.8899],[108.0897,-6.8864],[108.0929,-6.8864],[108.0895,-6.8824],[108.0948,-6.8824],[108.0951,-6.8806],[108.0928,-6.8776],[108.0958,-6.8752],[108.0827,-6.8727],[108.0794,-6.8737],[108.0874,-6.8688],[108.0861,-6.8672],[108.0823,-6.8682],[108.0813,-6.8632]]]}},{"type":"Feature","properties":{"name":"Kadu","name_en":"Kadu","admin_level":"7","osm_id":""},"geometry":{"type":"Polygon","coordinates":[[[108.1992,-6.8724],[108.1946,-6.8784],[108.1931,-6.8834],[108.1971,-6.8893],[108.1994,-6.8886],[108.2015,-6.89],[108.2021,-6.895],[108.1879,-6.9009],[108.1813,-6.8973],[108.1723,-6.8958],[108.1723,-6.8927],[108.1702,-6.89],[108.1764,-6.8898],[108.1763,-6.8871],[108.1723,-6.885],[108.1769,-6.8688],[108.1817,-6.8629],[108.187,-6.8604],[108.1899,-6.8634],[108.1896,-6.8655],[108.1923,-6.8658],[108.194,-6.8637],[108.1992,-6.8724]]]}},{"type":"Feature","properties":{"name":"Kadujaya","name_en":"Kadujaya","admin_level":"7","osm_id":""},"geometry":{"type":"Polygon","coordinates":[[[108.0967,-6.8529],[108.0993,-6.8487],[108.0932,-6.8442],[108.1038,-6.8316],[108.1057,-6.8271],[108.1133,-6.8226],[108.1117,-6.8261],[108.1141,-6.8291],[108.1121,-6.8386],[108.1043,-6.8508],[108.0996,-6.8534],[108.0967,-6.8529]]]}},{"type":"Feature","properties":{"name":"Karedok","name_en":"Karedok","admin_level":"7","osm_id":""},"geometry":{"type":"Polygon","coordinates":[[[108.0747,-6.8342],[108.0712,-6.8258],[108.0638,-6.8213],[108.0656,-6.8186],[108.0704,-6.8159],[108.0718,-6.8125],[108.0758,-6.8127],[108.078,-6.8089],[108.0817,-6.8088],[108.0841,-6.8108],[108.0876,-6.8103],[108.0901,-6.8126],[108.0913,-6.8081],[108.0902,-6.8056],[108.0932,-6.8029],[108.0967,-6.8036],[108.0978,-6.8016],[108.1015,-6.8012],[108.1025,-6.8039],[108.0994,-6.8113],[108.1017,-6.8122],[108.103,-6.8154],[108.1087,-6.8139],[108.1105,-6.8176],[108.1133,-6.8185],[108.1138,-6.8222],[108.1057,-6.8271],[108.1038,-6.8316],[108.0939,-6.8433],[108.0922,-6.8421],[108.0936,-6.838],[108.0931,-6.8316],[108.0809,-6.8359],[108.0747,-6.8342]]]}},{"type":"Feature","properties":{"name":"Lebaksiuh","name_en":"Lebaksiuh","admin_level":"7","osm_id":""},"geometry":{"type":"Polygon","coordinates":[[[108.1809,-6.8451],[108.1821,-6.8476],[108.1794,-6.8497],[108.1798,-6.8523],[108.1851,-6.8552],[108.1888,-6.853],[108.1895,-6.8582],[108.1864,-6.859],[108.187,-6.8604],[108.1817,-6.8629],[108.177,-6.8685],[108.1723,-6.8851],[108.1664,-6.8804],[108.1578,-6.8764],[108.157,-6.8724],[108.1586,-6.8704],[108.1532,-6.8646],[108.1539,-6.8607],[108.1579,-6.861],[108.1593,-6.8573],[108.1625,-6.8587],[108.1627,-6.8565],[108.164,-6.8572],[108.1641,-6.8558],[108.1672,-6.8552],[108.1668,-6.8529],[108.1687,-6.8512],[108.1681,-6.8479],[108.1659,-6.8462],[108.1659,-6.8417],[108.1635,-6.8394],[108.1645,-6.8383],[108.1609,-6.8371],[108.1602,-6.834],[108.1668,-6.8352],[108.1667,-6.8297],[108.1706,-6.8331],[108.1754,-6.8315],[108.1787,-6.8327],[108.1799,-6.8349],[108.1779,-6.8387],[108.1818,-6.8426],[108.1809,-6.8451]]]}},{"type":"Feature","properties":{"name":"Mekarasih","name_en":"Mekarasih","admin_level":"7","osm_id":""},"geometry":{"type":"Polygon","coordinates":[[[108.1151,-6.9084],[108.1267,-6.9104],[108.1292,-6.9123],[108.1308,-6.9163],[108.1331,-6.9155],[108.1376,-6.9208],[108.1491,-6.9256],[108.1468,-6.9342],[108.1412,-6.9346],[108.1379,-6.9309],[108.1366,-6.932],[108.1338,-6.9311],[108.1316,-6.9285],[108.1295,-6.9301],[108.1278,-6.9294],[108.1256,-6.9332],[108.1161,-6.9282],[108.1115,-6.9226],[108.1128,-6.9206],[108.1111,-6.9191],[108.1151,-6.9084]]]}},{"type":"Feature","properties":{"name":"Sukakersa","name_en":"Sukakersa","admin_level":"7","osm_id":""},"geometry":{"type":"Polygon","coordinates":[[[108.1011,-6.9087],[108.0994,-6.9043],[108.0951,-6.9042],[108.0967,-6.8988],[108.0934,-6.8968],[108.0922,-6.8936],[108.0934,-6.8925],[108.0958,-6.8936],[108.0982,-6.8911],[108.1027,-6.8917],[108.1038,-6.8895],[108.1087,-6.8878],[108.1108,-6.8929],[108.1098,-6.8946],[108.1127,-6.8969],[108.1149,-6.9021],[108.1148,-6.9101],[108.1111,-6.9191],[108.1063,-6.918],[108.1069,-6.9154],[108.1011,-6.9087]]]}}]}