{"type":"FeatureCollection","metadata":{"parent_osm_id":"gid_IDN_30_18_5_1","parent_name":"SangirJujuan","parent_name_1":"SumateraBarat","parent_gid":"IDN.30.18.5_1","parent_level":"6","child_level":"7","count":5,"source":"GADM 4.1","generated":"2026-05-09"},"features":[{"type":"Feature","properties":{"name":"BidarAlam","name_en":"BidarAlam","admin_level":"7","osm_id":""},"geometry":{"type":"Polygon","coordinates":[[[101.4193,-1.4114],[101.4159,-1.4118],[101.402,-1.4232],[101.3971,-1.4358],[101.3914,-1.4405],[101.3672,-1.4283],[101.3599,-1.4277],[101.3538,-1.4235],[101.3493,-1.4234],[101.3557,-1.4179],[101.3569,-1.4131],[101.3575,-1.4038],[101.356,-1.3964],[101.3579,-1.3905],[101.3575,-1.3834],[101.3805,-1.3938],[101.4132,-1.3978],[101.4193,-1.4114]]]}},{"type":"Feature","properties":{"name":"LubukMalako","name_en":"LubukMalako","admin_level":"7","osm_id":""},"geometry":{"type":"Polygon","coordinates":[[[101.3914,-1.4405],[101.4147,-1.4464],[101.4181,-1.4487],[101.4298,-1.441],[101.4261,-1.4444],[101.4269,-1.448],[101.4246,-1.4517],[101.4259,-1.4546],[101.424,-1.4616],[101.4274,-1.4798],[101.4139,-1.4943],[101.3879,-1.5001],[101.3774,-1.5005],[101.3571,-1.4839],[101.341,-1.4543],[101.3345,-1.4517],[101.3419,-1.4496],[101.3501,-1.4438],[101.3534,-1.4337],[101.3537,-1.4239],[101.3599,-1.4277],[101.3672,-1.4283],[101.3733,-1.4308],[101.3914,-1.4405]]]}},{"type":"Feature","properties":{"name":"PadangAirDingin","name_en":"PadangAirDingin","admin_level":"7","osm_id":""},"geometry":{"type":"Polygon","coordinates":[[[101.2147,-1.4277],[101.2018,-1.4253],[101.2067,-1.4166],[101.2064,-1.4136],[101.2102,-1.4105],[101.2109,-1.4077],[101.2148,-1.4093],[101.2242,-1.4093],[101.232,-1.4112],[101.2943,-1.4288],[101.3138,-1.4389],[101.3209,-1.4479],[101.3253,-1.4505],[101.338,-1.4524],[101.341,-1.4543],[101.3571,-1.4839],[101.3777,-1.501],[101.3767,-1.503],[101.3807,-1.5109],[101.3807,-1.5149],[101.3877,-1.5304],[101.3763,-1.532],[101.343,-1.5161],[101.3208,-1.5098],[101.3105,-1.4979],[101.3002,-1.4701],[101.2811,-1.4526],[101.2534,-1.4368],[101.2359,-1.4304],[101.2147,-1.4277]]]}},{"type":"Feature","properties":{"name":"PadangGantiang","name_en":"PadangGantiang","admin_level":"7","osm_id":""},"geometry":{"type":"Polygon","coordinates":[[[101.1992,-1.3912],[101.2024,-1.3805],[101.2022,-1.3698],[101.3168,-1.4139],[101.3469,-1.4231],[101.3537,-1.4239],[101.3523,-1.4387],[101.3501,-1.4438],[101.3419,-1.4496],[101.3345,-1.4517],[101.3253,-1.4505],[101.3209,-1.4479],[101.3138,-1.4389],[101.2943,-1.4288],[101.232,-1.4112],[101.2242,-1.4093],[101.2148,-1.4093],[101.2107,-1.4076],[101.203,-1.4011],[101.1993,-1.3945],[101.1992,-1.3912]]]}},{"type":"Feature","properties":{"name":"PadangLimauSundai","name_en":"PadangLimauSundai","admin_level":"7","osm_id":""},"geometry":{"type":"Polygon","coordinates":[[[101.2002,-1.35],[101.2009,-1.3404],[101.2078,-1.3374],[101.2075,-1.331],[101.2558,-1.3409],[101.2719,-1.3477],[101.2958,-1.354],[101.3575,-1.3834],[101.3579,-1.3905],[101.356,-1.3964],[101.3575,-1.4038],[101.3557,-1.4179],[101.3493,-1.4234],[101.3168,-1.4139],[101.2022,-1.3698],[101.2038,-1.3617],[101.2004,-1.3539],[101.2002,-1.35]]]}}]}