{"type":"FeatureCollection","metadata":{"parent_osm_id":"gid_IDN_11_9_12_1","parent_name":"Mojowarno","parent_name_1":"JawaTimur","parent_gid":"IDN.11.9.12_1","parent_level":"6","child_level":"7","count":20,"source":"GADM 4.1","generated":"2026-05-09"},"features":[{"type":"Feature","properties":{"name":"CatakGayam","name_en":"CatakGayam","admin_level":"7","osm_id":""},"geometry":{"type":"Polygon","coordinates":[[[112.3185,-7.5823],[112.3231,-7.5851],[112.3249,-7.5822],[112.329,-7.5819],[112.329,-7.583],[112.3276,-7.5863],[112.3225,-7.5887],[112.3202,-7.5967],[112.32,-7.5983],[112.3204,-7.5995],[112.3212,-7.5961],[112.3239,-7.5976],[112.3229,-7.5994],[112.3263,-7.599],[112.3244,-7.6056],[112.3212,-7.6066],[112.3197,-7.6108],[112.3227,-7.6136],[112.3231,-7.6165],[112.321,-7.6186],[112.3182,-7.6174],[112.3164,-7.62],[112.314,-7.6194],[112.3146,-7.6168],[112.3134,-7.6158],[112.3155,-7.6094],[112.3119,-7.6072],[112.3158,-7.6003],[112.3141,-7.5991],[112.3156,-7.595],[112.3079,-7.5908],[112.3115,-7.5874],[112.3127,-7.588],[112.3145,-7.5842],[112.3167,-7.5852],[112.3185,-7.5823]]]}},{"type":"Feature","properties":{"name":"Gedangan","name_en":"Gedangan","admin_level":"7","osm_id":""},"geometry":{"type":"Polygon","coordinates":[[[112.2802,-7.6045],[112.2849,-7.6018],[112.2896,-7.6048],[112.2963,-7.6129],[112.2949,-7.6181],[112.2836,-7.6157],[112.2846,-7.6129],[112.2834,-7.6109],[112.2782,-7.6099],[112.2801,-7.6079],[112.2802,-7.6045]]]}},{"type":"Feature","properties":{"name":"Gondek","name_en":"Gondek","admin_level":"7","osm_id":""},"geometry":{"type":"Polygon","coordinates":[[[112.2769,-7.6223],[112.2756,-7.6201],[112.27,-7.6194],[112.2699,-7.611],[112.2811,-7.6124],[112.2815,-7.6104],[112.2846,-7.6129],[112.2836,-7.6157],[112.2954,-7.6182],[112.2953,-7.623],[112.2892,-7.6309],[112.2834,-7.6309],[112.2825,-7.6295],[112.2842,-7.625],[112.2769,-7.6223]]]}},{"type":"Feature","properties":{"name":"Grobogan","name_en":"Grobogan","admin_level":"7","osm_id":""},"geometry":{"type":"Polygon","coordinates":[[[112.3406,-7.5916],[112.3448,-7.5926],[112.3443,-7.5968],[112.3461,-7.5971],[112.3478,-7.595],[112.3544,-7.5967],[112.3553,-7.6103],[112.3531,-7.6121],[112.3517,-7.6174],[112.3455,-7.6224],[112.3429,-7.6207],[112.3414,-7.6156],[112.3361,-7.6136],[112.3347,-7.6159],[112.3305,-7.6147],[112.3316,-7.6129],[112.33,-7.6123],[112.3366,-7.6049],[112.3394,-7.6077],[112.3414,-7.6065],[112.34,-7.6056],[112.3412,-7.5974],[112.339,-7.5956],[112.3406,-7.5916]]]}},{"type":"Feature","properties":{"name":"Hutan","name_en":"Hutan","admin_level":"7","osm_id":""},"geometry":{"type":"Polygon","coordinates":[[[112.3534,-7.6595],[112.3482,-7.657],[112.3442,-7.6581],[112.3416,-7.6574],[112.3415,-7.6557],[112.3372,-7.6557],[112.3308,-7.653],[112.3316,-7.6459],[112.3288,-7.6435],[112.3291,-7.6418],[112.3261,-7.6394],[112.3264,-7.6369],[112.3247,-7.6351],[112.3261,-7.6339],[112.3243,-7.6314],[112.329,-7.6267],[112.3303,-7.6267],[112.3283,-7.6316],[112.3299,-7.6343],[112.3291,-7.6362],[112.3369,-7.6388],[112.3362,-7.6349],[112.3391,-7.6331],[112.3399,-7.6301],[112.3426,-7.6329],[112.3404,-7.6285],[112.341,-7.627],[112.3426,-7.6275],[112.3405,-7.6225],[112.3405,-7.6155],[112.3429,-7.6207],[112.3455,-7.6224],[112.3465,-7.6282],[112.3499,-7.6317],[112.3466,-7.6333],[112.3477,-7.6421],[112.353,-7.6543],[112.3534,-7.6595]]]}},{"type":"Feature","properties":{"name":"Japanan","name_en":"Japanan","admin_level":"7","osm_id":""},"geometry":{"type":"Polygon","coordinates":[[[112.3164,-7.62],[112.3182,-7.6173],[112.3278,-7.6198],[112.3303,-7.6147],[112.3347,-7.6159],[112.3361,-7.6136],[112.338,-7.6138],[112.3405,-7.6155],[112.3405,-7.6225],[112.3426,-7.6275],[112.341,-7.627],[112.3404,-7.6285],[112.3426,-7.6329],[112.3399,-7.6301],[112.3391,-7.6331],[112.3362,-7.6349],[112.3369,-7.6388],[112.3291,-7.6362],[112.3299,-7.6343],[112.3283,-7.6316],[112.3303,-7.6267],[112.3257,-7.6289],[112.3246,-7.6325],[112.3212,-7.6322],[112.3222,-7.6296],[112.3201,-7.6288],[112.3211,-7.6226],[112.3164,-7.62]]]}},{"type":"Feature","properties":{"name":"Karanglo","name_en":"Karanglo","admin_level":"7","osm_id":""},"geometry":{"type":"Polygon","coordinates":[[[112.2834,-7.6309],[112.2892,-7.6309],[112.2876,-7.6399],[112.2837,-7.6457],[112.2833,-7.6519],[112.2827,-7.6532],[112.2749,-7.6507],[112.2736,-7.6537],[112.2693,-7.6505],[112.2703,-7.6424],[112.2721,-7.6383],[112.2782,-7.6385],[112.2798,-7.6335],[112.2819,-7.6339],[112.2834,-7.6309]]]}},{"type":"Feature","properties":{"name":"Kedungpari","name_en":"Kedungpari","admin_level":"7","osm_id":""},"geometry":{"type":"Polygon","coordinates":[[[112.2642,-7.6324],[112.267,-7.6284],[112.2752,-7.6279],[112.2769,-7.6223],[112.2842,-7.625],[112.2819,-7.6339],[112.2798,-7.6335],[112.2782,-7.6385],[112.2721,-7.6383],[112.2692,-7.644],[112.2643,-7.6414],[112.2668,-7.6352],[112.2664,-7.6329],[112.2642,-7.6324]]]}},{"type":"Feature","properties":{"name":"Latsari","name_en":"Latsari","admin_level":"7","osm_id":""},"geometry":{"type":"Polygon","coordinates":[[[112.294,-7.6728],[112.2877,-7.6726],[112.2857,-7.6673],[112.281,-7.666],[112.2842,-7.6639],[112.2824,-7.6566],[112.2848,-7.6537],[112.283,-7.6514],[112.2838,-7.6477],[112.2913,-7.6493],[112.2928,-7.6529],[112.2894,-7.664],[112.2906,-7.6696],[112.2935,-7.67],[112.294,-7.6728]]]}},{"type":"Feature","properties":{"name":"Menganto","name_en":"Menganto","admin_level":"7","osm_id":""},"geometry":{"type":"Polygon","coordinates":[[[112.2865,-7.6022],[112.2908,-7.6025],[112.2903,-7.5988],[112.2937,-7.5946],[112.2978,-7.596],[112.2974,-7.5992],[112.3012,-7.5995],[112.3036,-7.5965],[112.306,-7.5973],[112.2996,-7.6108],[112.2963,-7.6129],[112.294,-7.6114],[112.2925,-7.6075],[112.2867,-7.604],[112.2865,-7.6022]]]}},{"type":"Feature","properties":{"name":"Mojoduwur","name_en":"Mojoduwur","admin_level":"7","osm_id":""},"geometry":{"type":"Polygon","coordinates":[[[112.3288,-7.6435],[112.3103,-7.6405],[112.308,-7.6326],[112.3132,-7.6266],[112.3123,-7.6238],[112.314,-7.6194],[112.3211,-7.6226],[112.3201,-7.6288],[112.3222,-7.6296],[112.3212,-7.6322],[112.3261,-7.6338],[112.3247,-7.6351],[112.3264,-7.6369],[112.3261,-7.6394],[112.3291,-7.6418],[112.3288,-7.6435]]]}},{"type":"Feature","properties":{"name":"Mojojejer","name_en":"Mojojejer","admin_level":"7","osm_id":""},"geometry":{"type":"Polygon","coordinates":[[[112.2949,-7.6181],[112.2964,-7.6127],[112.2996,-7.6105],[112.3046,-7.6136],[112.3076,-7.6123],[112.3101,-7.6141],[112.3075,-7.6217],[112.309,-7.6222],[112.3082,-7.6241],[112.3058,-7.6274],[112.3023,-7.6268],[112.3007,-7.6305],[112.2974,-7.6288],[112.2972,-7.6257],[112.2942,-7.6241],[112.2953,-7.6229],[112.2949,-7.6181]]]}},{"type":"Feature","properties":{"name":"Mojowangi","name_en":"Mojowangi","admin_level":"7","osm_id":""},"geometry":{"type":"Polygon","coordinates":[[[112.3142,-7.6138],[112.3134,-7.6158],[112.3146,-7.6171],[112.3123,-7.6238],[112.3132,-7.6266],[112.308,-7.6326],[112.3102,-7.6404],[112.2991,-7.6355],[112.2947,-7.6373],[112.2933,-7.6357],[112.2884,-7.6362],[112.2894,-7.6298],[112.2942,-7.6241],[112.2972,-7.6257],[112.2974,-7.6288],[112.3007,-7.6305],[112.3023,-7.6268],[112.3058,-7.6274],[112.3082,-7.6241],[112.309,-7.6222],[112.3076,-7.6214],[112.3109,-7.6127],[112.3142,-7.6138]]]}},{"type":"Feature","properties":{"name":"Mojowarno","name_en":"Mojowarno","admin_level":"7","osm_id":""},"geometry":{"type":"Polygon","coordinates":[[[112.3019,-7.6509],[112.2921,-7.6473],[112.2916,-7.6493],[112.2837,-7.6477],[112.2883,-7.6362],[112.2933,-7.6357],[112.2947,-7.6373],[112.2991,-7.6355],[112.3061,-7.6383],[112.3037,-7.6433],[112.3051,-7.6447],[112.303,-7.6456],[112.3019,-7.6509]]]}},{"type":"Feature","properties":{"name":"Penggaron","name_en":"Penggaron","admin_level":"7","osm_id":""},"geometry":{"type":"Polygon","coordinates":[[[112.3126,-7.655],[112.3063,-7.6515],[112.3055,-7.6535],[112.3033,-7.653],[112.3019,-7.6509],[112.303,-7.6456],[112.3051,-7.6447],[112.3037,-7.6433],[112.3061,-7.6383],[112.3253,-7.6443],[112.3222,-7.6473],[112.3186,-7.6468],[112.3126,-7.655]]]}},{"type":"Feature","properties":{"name":"Rejoslamet","name_en":"Rejoslamet","admin_level":"7","osm_id":""},"geometry":{"type":"Polygon","coordinates":[[[112.3364,-7.5885],[112.3375,-7.5894],[112.3389,-7.5859],[112.3437,-7.5859],[112.3412,-7.5878],[112.339,-7.5956],[112.3412,-7.5974],[112.34,-7.6056],[112.3414,-7.6065],[112.3394,-7.6077],[112.3366,-7.6049],[112.3348,-7.6078],[112.333,-7.6076],[112.3302,-7.6116],[112.3316,-7.6129],[112.3278,-7.6198],[112.3214,-7.6178],[112.3231,-7.6165],[112.3227,-7.6136],[112.3198,-7.6111],[112.3205,-7.6078],[112.3228,-7.6051],[112.3266,-7.6047],[112.3278,-7.6013],[112.3351,-7.6018],[112.3375,-7.5953],[112.3356,-7.5944],[112.3358,-7.5914],[112.3341,-7.5905],[112.3364,-7.5885]]]}},{"type":"Feature","properties":{"name":"Selorejo","name_en":"Selorejo","admin_level":"7","osm_id":""},"geometry":{"type":"Polygon","coordinates":[[[112.3141,-7.5991],[112.3158,-7.6003],[112.3119,-7.6072],[112.3155,-7.6094],[112.3142,-7.6138],[112.3109,-7.6127],[112.3101,-7.6141],[112.3054,-7.6122],[112.3046,-7.6136],[112.3,-7.6111],[112.2996,-7.6087],[112.3069,-7.5954],[112.3103,-7.5972],[112.3094,-7.5987],[112.3111,-7.6002],[112.3141,-7.5991]]]}},{"type":"Feature","properties":{"name":"Sidokerto","name_en":"Sidokerto","admin_level":"7","osm_id":""},"geometry":{"type":"Polygon","coordinates":[[[112.2861,-7.5861],[112.2908,-7.5842],[112.3011,-7.5863],[112.303,-7.5828],[112.3063,-7.5851],[112.3049,-7.5894],[112.3156,-7.595],[112.3141,-7.5991],[112.3111,-7.6002],[112.3094,-7.5987],[112.3103,-7.5972],[112.3069,-7.5954],[112.306,-7.5973],[112.302,-7.597],[112.3001,-7.5996],[112.2969,-7.5991],[112.2978,-7.596],[112.2937,-7.5946],[112.2926,-7.5974],[112.2881,-7.5959],[112.2898,-7.5899],[112.2861,-7.5861]]]}},{"type":"Feature","properties":{"name":"Sukomulyo","name_en":"Sukomulyo","admin_level":"7","osm_id":""},"geometry":{"type":"Polygon","coordinates":[[[112.303,-7.5828],[112.3045,-7.5816],[112.3077,-7.5821],[112.3114,-7.5724],[112.3212,-7.5748],[112.3167,-7.5852],[112.3145,-7.5842],[112.3129,-7.5878],[112.3115,-7.5874],[112.3091,-7.5903],[112.3049,-7.5894],[112.3063,-7.5851],[112.303,-7.5828]]]}},{"type":"Feature","properties":{"name":"Wringinpitu","name_en":"Wringinpitu","admin_level":"7","osm_id":""},"geometry":{"type":"Polygon","coordinates":[[[112.329,-7.5819],[112.3324,-7.575],[112.3341,-7.5762],[112.3316,-7.5801],[112.3368,-7.5798],[112.3342,-7.5839],[112.3364,-7.5885],[112.3341,-7.5905],[112.3374,-7.5956],[112.3351,-7.6018],[112.3278,-7.6013],[112.325,-7.6058],[112.3237,-7.6047],[112.3263,-7.599],[112.3229,-7.5994],[112.3239,-7.5976],[112.3212,-7.5961],[112.3204,-7.5995],[112.3202,-7.5967],[112.3225,-7.5887],[112.3276,-7.5863],[112.329,-7.5819]]]}}]}