{"type":"FeatureCollection","metadata":{"parent_osm_id":"gid_IDN_21_1_6_1","parent_name":"AlorTimur","parent_name_1":"NusaTenggaraTimur","parent_gid":"IDN.21.1.6_1","parent_level":"6","child_level":"7","count":10,"source":"GADM 4.1","generated":"2026-05-09"},"features":[{"type":"Feature","properties":{"name":"Belemana","name_en":"Belemana","admin_level":"7","osm_id":""},"geometry":{"type":"Polygon","coordinates":[[[124.8844,-8.2809],[124.893,-8.2516],[124.9072,-8.2454],[124.9181,-8.2452],[124.9357,-8.2409],[124.9271,-8.258],[124.9284,-8.2588],[124.9256,-8.2645],[124.9258,-8.2676],[124.9201,-8.2797],[124.9078,-8.2815],[124.8844,-8.2809]]]}},{"type":"Feature","properties":{"name":"Elok","name_en":"Elok","admin_level":"7","osm_id":""},"geometry":{"type":"Polygon","coordinates":[[[125.1086,-8.3434],[125.0953,-8.3443],[125.0875,-8.348],[125.0772,-8.3476],[125.0622,-8.357],[125.05,-8.3537],[125.0434,-8.3562],[125.0382,-8.3554],[125.0356,-8.3532],[125.0314,-8.3554],[125.0288,-8.3535],[125.0241,-8.3566],[125.0223,-8.354],[125.0187,-8.3568],[125.0143,-8.3531],[125.0104,-8.3572],[125.0085,-8.354],[124.9963,-8.3556],[124.996,-8.3436],[124.9941,-8.3385],[124.9882,-8.3323],[124.9871,-8.3273],[124.9717,-8.313],[124.9709,-8.2994],[125.0054,-8.2913],[125.0366,-8.2949],[125.0686,-8.295],[125.0742,-8.3071],[125.0957,-8.3129],[125.1083,-8.337],[125.1086,-8.3434]]]}},{"type":"Feature","properties":{"name":"KolanaSelatan","name_en":"KolanaSelatan","admin_level":"7","osm_id":""},"geometry":{"type":"Polygon","coordinates":[[[125.0686,-8.295],[125.0366,-8.2949],[125.0054,-8.2913],[124.9715,-8.2993],[124.9684,-8.2744],[124.9773,-8.2719],[125.0005,-8.2596],[125.0013,-8.2403],[125.0224,-8.2372],[125.0638,-8.2363],[125.0636,-8.2377],[125.0789,-8.2386],[125.0817,-8.2469],[125.0882,-8.256],[125.1026,-8.2674],[125.0883,-8.2661],[125.0798,-8.2671],[125.0782,-8.2689],[125.08,-8.2733],[125.0697,-8.2877],[125.0686,-8.295]]]}},{"type":"Feature","properties":{"name":"KolanaUtara","name_en":"KolanaUtara","admin_level":"7","osm_id":""},"geometry":{"type":"Polygon","coordinates":[[[125.1026,-8.2674],[125.0882,-8.256],[125.0817,-8.2469],[125.0789,-8.2386],[125.0636,-8.2377],[125.0641,-8.2348],[125.0752,-8.2228],[125.1114,-8.2047],[125.1169,-8.1985],[125.1228,-8.2037],[125.125,-8.2089],[125.1345,-8.2188],[125.1372,-8.2239],[125.1416,-8.2384],[125.1425,-8.2523],[125.1402,-8.2557],[125.1391,-8.2638],[125.1362,-8.2708],[125.1282,-8.2822],[125.117,-8.2734],[125.1179,-8.2673],[125.1026,-8.2674]]]}},{"type":"Feature","properties":{"name":"Maritaing","name_en":"Maritaing","admin_level":"7","osm_id":""},"geometry":{"type":"Polygon","coordinates":[[[125.1086,-8.3434],[125.1083,-8.337],[125.0957,-8.3129],[125.0742,-8.3071],[125.0699,-8.3],[125.0686,-8.295],[125.0697,-8.2877],[125.08,-8.2733],[125.0782,-8.2689],[125.0798,-8.2671],[125.0883,-8.2661],[125.1031,-8.2678],[125.1179,-8.2673],[125.117,-8.2734],[125.1283,-8.2821],[125.1296,-8.2968],[125.1357,-8.315],[125.1409,-8.3192],[125.1293,-8.3313],[125.1259,-8.3371],[125.1086,-8.3434]]]}},{"type":"Feature","properties":{"name":"Maukuru","name_en":"Maukuru","admin_level":"7","osm_id":""},"geometry":{"type":"Polygon","coordinates":[[[124.8784,-8.2051],[124.8756,-8.165],[124.8874,-8.1651],[124.8973,-8.1621],[124.9198,-8.1632],[124.9307,-8.1522],[124.9437,-8.1477],[124.9468,-8.144],[124.9493,-8.1457],[124.955,-8.1452],[124.9571,-8.1513],[124.9961,-8.2086],[124.9892,-8.2127],[124.9723,-8.2158],[124.944,-8.2139],[124.9228,-8.2158],[124.8943,-8.214],[124.8791,-8.2042],[124.8784,-8.2051]]]}},{"type":"Feature","properties":{"name":"Mausamang","name_en":"Mausamang","admin_level":"7","osm_id":""},"geometry":{"type":"Polygon","coordinates":[[[125.0638,-8.2363],[125.0224,-8.2372],[124.9953,-8.2091],[124.9571,-8.1513],[124.955,-8.1452],[124.9577,-8.1404],[124.9624,-8.1404],[124.9658,-8.1421],[124.9655,-8.1461],[124.9675,-8.1487],[124.9717,-8.1485],[124.9765,-8.1515],[124.9823,-8.1523],[124.9894,-8.1506],[124.9974,-8.157],[125.0082,-8.157],[125.0251,-8.1492],[125.0408,-8.1464],[125.0479,-8.1462],[125.0529,-8.1496],[125.0575,-8.1496],[125.0687,-8.1478],[125.0794,-8.1489],[125.0847,-8.1455],[125.0907,-8.1451],[125.0991,-8.1499],[125.1009,-8.1618],[125.1043,-8.1697],[125.1073,-8.1688],[125.1111,-8.1716],[125.1074,-8.1739],[125.1073,-8.181],[125.1127,-8.1931],[125.1177,-8.1992],[125.1169,-8.1985],[125.1114,-8.2047],[125.0752,-8.2228],[125.0638,-8.2363]]]}},{"type":"Feature","properties":{"name":"PadangPanjang","name_en":"PadangPanjang","admin_level":"7","osm_id":""},"geometry":{"type":"Polygon","coordinates":[[[124.8617,-8.2506],[124.8647,-8.2389],[124.8743,-8.2205],[124.8791,-8.2042],[124.8943,-8.214],[124.9228,-8.2158],[124.944,-8.2139],[124.9694,-8.216],[124.9402,-8.2399],[124.9181,-8.2452],[124.9072,-8.2454],[124.893,-8.2516],[124.8844,-8.2809],[124.8826,-8.2816],[124.8538,-8.2841],[124.862,-8.2596],[124.8617,-8.2506]]]}},{"type":"Feature","properties":{"name":"Tanglapui","name_en":"Tanglapui","admin_level":"7","osm_id":""},"geometry":{"type":"Polygon","coordinates":[[[124.9201,-8.2797],[124.9258,-8.2676],[124.9256,-8.2645],[124.9284,-8.2588],[124.9271,-8.258],[124.9357,-8.2409],[124.9402,-8.2399],[124.9489,-8.233],[124.9639,-8.2404],[124.961,-8.2586],[124.9691,-8.2604],[124.9681,-8.2754],[124.9714,-8.2962],[124.9718,-8.3125],[124.9553,-8.3431],[124.9445,-8.3353],[124.9379,-8.3254],[124.9329,-8.3126],[124.9243,-8.2994],[124.9143,-8.2923],[124.9201,-8.2797]]]}},{"type":"Feature","properties":{"name":"TanglapuiTimur","name_en":"TanglapuiTimur","admin_level":"7","osm_id":""},"geometry":{"type":"Polygon","coordinates":[[[125.0224,-8.2372],[125.0013,-8.2403],[125.0005,-8.2596],[124.9773,-8.2719],[124.9684,-8.2744],[124.9686,-8.2755],[124.9681,-8.2754],[124.9691,-8.2604],[124.961,-8.2586],[124.9639,-8.2404],[124.9489,-8.233],[124.9694,-8.216],[124.9892,-8.2127],[124.9953,-8.2091],[125.0224,-8.2372]]]}}]}