{"type":"FeatureCollection","metadata":{"parent_osm_id":"gid_IDN_9_7_31_1","parent_name":"Tanggeung","parent_name_1":"JawaBarat","parent_gid":"IDN.9.7.31_1","parent_level":"6","child_level":"7","count":12,"source":"GADM 4.1","generated":"2026-05-09"},"features":[{"type":"Feature","properties":{"name":"Bojongpetir","name_en":"Bojongpetir","admin_level":"7","osm_id":""},"geometry":{"type":"Polygon","coordinates":[[[107.1002,-7.2365],[107.101,-7.2344],[107.0996,-7.2302],[107.1025,-7.2276],[107.1045,-7.2283],[107.1041,-7.2247],[107.1074,-7.2199],[107.1105,-7.2213],[107.1185,-7.2164],[107.1245,-7.2176],[107.1294,-7.229],[107.1247,-7.2357],[107.1208,-7.2464],[107.1187,-7.2479],[107.1193,-7.2553],[107.1132,-7.2558],[107.1121,-7.2521],[107.1077,-7.2523],[107.1074,-7.2474],[107.1017,-7.2363],[107.1002,-7.2365]]]}},{"type":"Feature","properties":{"name":"Cilongsong","name_en":"Cilongsong","admin_level":"7","osm_id":""},"geometry":{"type":"Polygon","coordinates":[[[107.1391,-7.2443],[107.1389,-7.25],[107.1437,-7.2529],[107.1465,-7.2584],[107.1407,-7.2614],[107.1383,-7.2646],[107.1317,-7.2663],[107.1298,-7.2645],[107.1269,-7.2648],[107.1224,-7.2551],[107.1193,-7.2553],[107.1187,-7.2479],[107.1213,-7.2447],[107.125,-7.2458],[107.129,-7.2429],[107.1391,-7.2443]]]}},{"type":"Feature","properties":{"name":"Karangtengah","name_en":"Karangtengah","admin_level":"7","osm_id":""},"geometry":{"type":"Polygon","coordinates":[[[107.0881,-7.284],[107.0766,-7.2833],[107.0766,-7.2767],[107.0744,-7.2702],[107.0764,-7.2586],[107.0874,-7.2637],[107.0874,-7.2683],[107.0844,-7.2726],[107.088,-7.2774],[107.0881,-7.284]]]}},{"type":"Feature","properties":{"name":"Kertajaya","name_en":"Kertajaya","admin_level":"7","osm_id":""},"geometry":{"type":"Polygon","coordinates":[[[107.143,-7.2929],[107.1353,-7.2951],[107.1236,-7.291],[107.1243,-7.2767],[107.1277,-7.271],[107.1247,-7.2673],[107.1258,-7.2618],[107.1264,-7.2645],[107.1355,-7.272],[107.1348,-7.2763],[107.137,-7.2769],[107.1373,-7.2794],[107.1401,-7.2799],[107.1415,-7.285],[107.1474,-7.2864],[107.1551,-7.2924],[107.1603,-7.294],[107.1568,-7.2945],[107.1488,-7.2921],[107.143,-7.2929]]]}},{"type":"Feature","properties":{"name":"Margaluyu","name_en":"Margaluyu","admin_level":"7","osm_id":""},"geometry":{"type":"Polygon","coordinates":[[[107.1077,-7.2523],[107.1116,-7.2519],[107.1132,-7.2558],[107.1172,-7.2559],[107.1181,-7.2671],[107.1108,-7.2724],[107.0998,-7.2738],[107.0955,-7.2708],[107.096,-7.2642],[107.0985,-7.2618],[107.0993,-7.2548],[107.1015,-7.2528],[107.1077,-7.2523]]]}},{"type":"Feature","properties":{"name":"Padaluyu","name_en":"Padaluyu","admin_level":"7","osm_id":""},"geometry":{"type":"Polygon","coordinates":[[[107.1228,-7.2164],[107.123,-7.2149],[107.1261,-7.2143],[107.1281,-7.2166],[107.1302,-7.2151],[107.133,-7.2181],[107.1351,-7.2163],[107.1431,-7.2192],[107.1437,-7.2254],[107.1469,-7.2276],[107.1451,-7.2303],[107.1433,-7.2291],[107.1439,-7.2318],[107.1412,-7.231],[107.1411,-7.2411],[107.1391,-7.2443],[107.129,-7.2429],[107.125,-7.2458],[107.1216,-7.2449],[107.1247,-7.2357],[107.1294,-7.229],[107.1228,-7.2164]]]}},{"type":"Feature","properties":{"name":"Pagermaneuh","name_en":"Pagermaneuh","admin_level":"7","osm_id":""},"geometry":{"type":"Polygon","coordinates":[[[107.0764,-7.2586],[107.0755,-7.251],[107.0792,-7.2516],[107.0792,-7.2442],[107.0774,-7.239],[107.0747,-7.2385],[107.0753,-7.2311],[107.0734,-7.2283],[107.075,-7.2241],[107.08,-7.2235],[107.0886,-7.2266],[107.0968,-7.2356],[107.1017,-7.2363],[107.1074,-7.2474],[107.1077,-7.2523],[107.0999,-7.2536],[107.0985,-7.2618],[107.0967,-7.2639],[107.0936,-7.2593],[107.0884,-7.2609],[107.0856,-7.2636],[107.0764,-7.2586]]]}},{"type":"Feature","properties":{"name":"PasirJambu","name_en":"PasirJambu","admin_level":"7","osm_id":""},"geometry":{"type":"Polygon","coordinates":[[[107.18,-7.2396],[107.1792,-7.2494],[107.1603,-7.2651],[107.1557,-7.2593],[107.1511,-7.2606],[107.1459,-7.259],[107.1522,-7.2475],[107.1625,-7.2396],[107.1664,-7.2417],[107.1778,-7.2381],[107.18,-7.2396]]]}},{"type":"Feature","properties":{"name":"Rawagede","name_en":"Rawagede","admin_level":"7","osm_id":""},"geometry":{"type":"Polygon","coordinates":[[[107.0968,-7.2866],[107.0881,-7.284],[107.088,-7.2774],[107.0844,-7.2726],[107.0879,-7.266],[107.0867,-7.263],[107.0925,-7.2593],[107.0944,-7.2597],[107.0962,-7.2639],[107.0956,-7.2715],[107.0994,-7.2736],[107.0969,-7.2791],[107.0968,-7.2866]]]}},{"type":"Feature","properties":{"name":"Sirnajaya","name_en":"Sirnajaya","admin_level":"7","osm_id":""},"geometry":{"type":"Polygon","coordinates":[[[107.163,-7.2945],[107.156,-7.2929],[107.1474,-7.2864],[107.1415,-7.285],[107.1401,-7.2799],[107.1373,-7.2794],[107.137,-7.2769],[107.1348,-7.2763],[107.1355,-7.272],[107.1335,-7.2716],[107.128,-7.2648],[107.1317,-7.2663],[107.1383,-7.2646],[107.1416,-7.2606],[107.1459,-7.259],[107.1498,-7.2605],[107.1549,-7.259],[107.157,-7.2603],[107.1603,-7.2648],[107.16,-7.2846],[107.163,-7.2945]]]}},{"type":"Feature","properties":{"name":"Sukajaya","name_en":"Sukajaya","admin_level":"7","osm_id":""},"geometry":{"type":"Polygon","coordinates":[[[107.1173,-7.2836],[107.0968,-7.2866],[107.0969,-7.2791],[107.0994,-7.2736],[107.1112,-7.2722],[107.1175,-7.2797],[107.1173,-7.2836]]]}},{"type":"Feature","properties":{"name":"Tanggeung","name_en":"Tanggeung","admin_level":"7","osm_id":""},"geometry":{"type":"Polygon","coordinates":[[[107.1221,-7.2893],[107.1188,-7.2837],[107.1173,-7.2836],[107.1175,-7.2797],[107.1112,-7.2722],[107.1181,-7.2671],[107.1172,-7.2559],[107.122,-7.255],[107.1258,-7.2618],[107.1248,-7.2676],[107.1277,-7.2706],[107.1243,-7.2767],[107.1234,-7.2904],[107.1221,-7.2893]]]}}]}