{"type":"FeatureCollection","metadata":{"parent_osm_id":"8225133","parent_name":"Lakarsantri","parent_name_1":"JawaTimur","parent_gid":"IDN.11.35.14_1","parent_level":"6","child_level":"7","count":6,"source":"GADM 4.1","generated":"2026-05-09"},"features":[{"type":"Feature","properties":{"name":"Bangkingan","name_en":"Bangkingan","admin_level":"7","osm_id":""},"geometry":{"type":"Polygon","coordinates":[[[112.6563,-7.3568],[112.6544,-7.3562],[112.6558,-7.3426],[112.6538,-7.339],[112.6485,-7.3353],[112.6509,-7.3215],[112.6483,-7.319],[112.6494,-7.3146],[112.6673,-7.3168],[112.664,-7.3322],[112.6663,-7.3314],[112.6672,-7.335],[112.6651,-7.336],[112.6621,-7.3346],[112.6609,-7.336],[112.6653,-7.3404],[112.6646,-7.3514],[112.6624,-7.3513],[112.6563,-7.3568]]]}},{"type":"Feature","properties":{"name":"Jeruk","name_en":"Jeruk","admin_level":"7","osm_id":""},"geometry":{"type":"Polygon","coordinates":[[[112.6424,-7.3136],[112.6365,-7.3129],[112.6367,-7.3045],[112.6396,-7.3019],[112.639,-7.2952],[112.6412,-7.2886],[112.6477,-7.2885],[112.6502,-7.3004],[112.6481,-7.3009],[112.648,-7.3131],[112.6476,-7.3143],[112.6424,-7.3136]]]}},{"type":"Feature","properties":{"name":"Lakarsantri","name_en":"Lakarsantri","admin_level":"7","osm_id":""},"geometry":{"type":"Polygon","coordinates":[[[112.6366,-7.3115],[112.6294,-7.3116],[112.6287,-7.3013],[112.6262,-7.3001],[112.6287,-7.2896],[112.6412,-7.2886],[112.639,-7.2952],[112.6396,-7.3019],[112.6367,-7.3045],[112.6366,-7.3115]]]}},{"type":"Feature","properties":{"name":"LidahKulon","name_en":"LidahKulon","admin_level":"7","osm_id":""},"geometry":{"type":"Polygon","coordinates":[[[112.6494,-7.3146],[112.6476,-7.3143],[112.6481,-7.3009],[112.6502,-7.3004],[112.6484,-7.2915],[112.6559,-7.2896],[112.6625,-7.291],[112.6615,-7.2967],[112.6637,-7.3005],[112.6617,-7.3163],[112.6494,-7.3146]]]}},{"type":"Feature","properties":{"name":"LidahWetan","name_en":"LidahWetan","admin_level":"7","osm_id":""},"geometry":{"type":"Polygon","coordinates":[[[112.6673,-7.3168],[112.6615,-7.3161],[112.6637,-7.3005],[112.6615,-7.2967],[112.6625,-7.291],[112.6756,-7.2943],[112.673,-7.3141],[112.6716,-7.3175],[112.6673,-7.3168]]]}},{"type":"Feature","properties":{"name":"SumurWelut","name_en":"SumurWelut","admin_level":"7","osm_id":""},"geometry":{"type":"Polygon","coordinates":[[[112.675,-7.3331],[112.6746,-7.3347],[112.6716,-7.3342],[112.6713,-7.3366],[112.6672,-7.335],[112.6663,-7.3314],[112.664,-7.3325],[112.6673,-7.3168],[112.6792,-7.3194],[112.6793,-7.3288],[112.6763,-7.3303],[112.675,-7.3331]]]}}]}