{"type":"FeatureCollection","metadata":{"parent_osm_id":"gid_IDN_22_5_11_1","parent_name":"Mare","parent_name_1":"PapuaBarat","parent_gid":"IDN.22.5.11_1","parent_level":"6","child_level":"7","count":7,"source":"GADM 4.1","generated":"2026-05-09"},"features":[{"type":"Feature","properties":{"name":"Kombif","name_en":"Kombif","admin_level":"7","osm_id":""},"geometry":{"type":"Polygon","coordinates":[[[132.1247,-1.1242],[132.1604,-1.0912],[132.2285,-1.0924],[132.2672,-1.0976],[132.2489,-1.1284],[132.1247,-1.1242]]]}},{"type":"Feature","properties":{"name":"Renis","name_en":"Renis","admin_level":"7","osm_id":""},"geometry":{"type":"Polygon","coordinates":[[[132.3633,-1.1676],[132.3631,-1.1921],[132.3467,-1.1912],[132.3085,-1.1839],[132.2653,-1.1655],[132.3188,-1.1568],[132.3608,-1.1554],[132.3633,-1.1676]]]}},{"type":"Feature","properties":{"name":"Seni","name_en":"Seni","admin_level":"7","osm_id":""},"geometry":{"type":"Polygon","coordinates":[[[132.2369,-1.1613],[132.2164,-1.1644],[132.1936,-1.1733],[132.1335,-1.1587],[132.1262,-1.1445],[132.1304,-1.1349],[132.1247,-1.1242],[132.2486,-1.1278],[132.2653,-1.1656],[132.2504,-1.1593],[132.2369,-1.1613]]]}},{"type":"Feature","properties":{"name":"Seya","name_en":"Seya","admin_level":"7","osm_id":""},"geometry":{"type":"Polygon","coordinates":[[[132.3621,-1.0828],[132.3601,-1.1108],[132.2813,-1.1203],[132.2489,-1.1284],[132.2812,-1.0741],[132.3112,-1.0769],[132.3307,-1.0747],[132.3442,-1.0795],[132.3621,-1.0828]]]}},{"type":"Feature","properties":{"name":"Sire","name_en":"Sire","admin_level":"7","osm_id":""},"geometry":{"type":"Polygon","coordinates":[[[132.3589,-1.1268],[132.3577,-1.1436],[132.3608,-1.1554],[132.3188,-1.1568],[132.2653,-1.1655],[132.2492,-1.1291],[132.2813,-1.1203],[132.3601,-1.1108],[132.3589,-1.1268]]]}},{"type":"Feature","properties":{"name":"Suswa","name_en":"Suswa","admin_level":"7","osm_id":""},"geometry":{"type":"Polygon","coordinates":[[[132.2672,-1.0976],[132.2285,-1.0924],[132.1608,-1.0918],[132.1452,-1.0673],[132.1601,-1.0683],[132.1828,-1.067],[132.2255,-1.0716],[132.2276,-1.0695],[132.2546,-1.0743],[132.2812,-1.0741],[132.2672,-1.0976]]]}},{"type":"Feature","properties":{"name":"Waban","name_en":"Waban","admin_level":"7","osm_id":""},"geometry":{"type":"Polygon","coordinates":[[[132.1245,-1.1237],[132.121,-1.1157],[132.1201,-1.1002],[132.1096,-1.0676],[132.1452,-1.0673],[132.1604,-1.0912],[132.1245,-1.1237]]]}}]}