{"type":"FeatureCollection","metadata":{"parent_osm_id":"19402067","parent_name":"Sadu","parent_name_1":"Jambi","parent_gid":"IDN.8.10.12_1","parent_level":"6","child_level":"7","count":9,"source":"GADM 4.1","generated":"2026-05-09"},"features":[{"type":"Feature","properties":{"name":"AirHitamLaut","name_en":"AirHitamLaut","admin_level":"7","osm_id":""},"geometry":{"type":"Polygon","coordinates":[[[104.3601,-1.3654],[104.343,-1.2704],[104.4156,-1.2654],[104.4222,-1.2783],[104.4394,-1.3034],[104.443,-1.3128],[104.4394,-1.3128],[104.4561,-1.3333],[104.4552,-1.3629],[104.3601,-1.3654]]]}},{"type":"Feature","properties":{"name":"LabuhanPering","name_en":"LabuhanPering","admin_level":"7","osm_id":""},"geometry":{"type":"Polygon","coordinates":[[[104.3665,-1.5821],[104.3577,-1.5232],[104.3532,-1.4516],[104.4476,-1.4415],[104.4384,-1.4848],[104.44,-1.5158],[104.4523,-1.551],[104.4523,-1.5667],[104.4556,-1.5771],[104.432,-1.5759],[104.3665,-1.5821]]]}},{"type":"Feature","properties":{"name":"RemauBakuTuo","name_en":"RemauBakuTuo","admin_level":"7","osm_id":""},"geometry":{"type":"Polygon","coordinates":[[[104.343,-1.2704],[104.3292,-1.1906],[104.3807,-1.1948],[104.3913,-1.1878],[104.3897,-1.1983],[104.3928,-1.2166],[104.4009,-1.2381],[104.4156,-1.2654],[104.343,-1.2704]]]}},{"type":"Feature","properties":{"name":"SungaiBenuh","name_en":"SungaiBenuh","admin_level":"7","osm_id":""},"geometry":{"type":"Polygon","coordinates":[[[104.3689,-1.6354],[104.3665,-1.5821],[104.432,-1.5759],[104.4556,-1.5771],[104.4699,-1.6271],[104.488,-1.6574],[104.4944,-1.6628],[104.4974,-1.6729],[104.486,-1.6574],[104.4841,-1.656],[104.4792,-1.6577],[104.4744,-1.6564],[104.471,-1.6453],[104.4604,-1.642],[104.4527,-1.6332],[104.4369,-1.6363],[104.4221,-1.6264],[104.4159,-1.6283],[104.4076,-1.6254],[104.3965,-1.6318],[104.3754,-1.6334],[104.3689,-1.6354]]]}},{"type":"Feature","properties":{"name":"SungaiCemara","name_en":"SungaiCemara","admin_level":"7","osm_id":""},"geometry":{"type":"Polygon","coordinates":[[[104.3532,-1.4516],[104.3508,-1.4248],[104.3579,-1.4167],[104.3604,-1.4071],[104.3675,-1.4033],[104.3661,-1.3864],[104.3601,-1.3654],[104.4552,-1.3629],[104.4503,-1.3875],[104.4574,-1.403],[104.458,-1.4258],[104.4499,-1.4338],[104.4476,-1.4415],[104.3532,-1.4516]]]}},{"type":"Feature","properties":{"name":"SungaiItik","name_en":"SungaiItik","admin_level":"7","osm_id":""},"geometry":{"type":"Polygon","coordinates":[[[104.3342,-1.0517],[104.3356,-1.0507],[104.3331,-1.0473],[104.3331,-1.0436],[104.3377,-1.043],[104.3435,-1.0378],[104.3495,-1.0354],[104.35,-1.0332],[104.3561,-1.0273],[104.3596,-1.0179],[104.3641,-1.0188],[104.3772,-1.0382],[104.3914,-1.0663],[104.3807,-1.0744],[104.3727,-1.0771],[104.3666,-1.0831],[104.3516,-1.0901],[104.3478,-1.0813],[104.3479,-1.0728],[104.3404,-1.0591],[104.3342,-1.0517]]]}},{"type":"Feature","properties":{"name":"SungaiJambat","name_en":"SungaiJambat","admin_level":"7","osm_id":""},"geometry":{"type":"Polygon","coordinates":[[[104.3317,-1.1327],[104.332,-1.1292],[104.3281,-1.121],[104.3192,-1.1138],[104.3094,-1.1156],[104.3076,-1.1137],[104.3069,-1.1075],[104.3254,-1.1079],[104.3346,-1.1035],[104.3426,-1.094],[104.3666,-1.0831],[104.3727,-1.0771],[104.3801,-1.0747],[104.3913,-1.0664],[104.399,-1.0898],[104.4061,-1.1265],[104.3882,-1.1294],[104.3317,-1.1327]]]}},{"type":"Feature","properties":{"name":"SungaiLokan","name_en":"SungaiLokan","admin_level":"7","osm_id":""},"geometry":{"type":"Polygon","coordinates":[[[104.3069,-1.1075],[104.3019,-1.108],[104.2979,-1.105],[104.2919,-1.0966],[104.2912,-1.0917],[104.3035,-1.0797],[104.3058,-1.0756],[104.3113,-1.0737],[104.3146,-1.0697],[104.3153,-1.0646],[104.3211,-1.0655],[104.3233,-1.0576],[104.326,-1.0543],[104.3335,-1.0522],[104.3404,-1.0591],[104.3479,-1.0728],[104.3478,-1.0813],[104.3516,-1.0901],[104.3426,-1.094],[104.3346,-1.1035],[104.3254,-1.1079],[104.3069,-1.1075]]]}},{"type":"Feature","properties":{"name":"SungaiSayang","name_en":"SungaiSayang","admin_level":"7","osm_id":""},"geometry":{"type":"Polygon","coordinates":[[[104.327,-1.1804],[104.3263,-1.1695],[104.33,-1.152],[104.3317,-1.1327],[104.3882,-1.1294],[104.4061,-1.1265],[104.4055,-1.1402],[104.4088,-1.159],[104.4046,-1.1667],[104.4036,-1.1798],[104.3926,-1.179],[104.3913,-1.1878],[104.3807,-1.1948],[104.3282,-1.1905],[104.327,-1.1804]]]}}]}