{"type":"FeatureCollection","metadata":{"parent_osm_id":"gid_IDN_9_25_24_1","parent_name":"Tomo","parent_name_1":"JawaBarat","parent_gid":"IDN.9.25.24_1","parent_level":"6","child_level":"7","count":9,"source":"GADM 4.1","generated":"2026-05-09"},"features":[{"type":"Feature","properties":{"name":"Bugel","name_en":"Bugel","admin_level":"7","osm_id":""},"geometry":{"type":"Polygon","coordinates":[[[108.0508,-6.7803],[108.0566,-6.7744],[108.0748,-6.766],[108.0753,-6.7628],[108.08,-6.7572],[108.0836,-6.7574],[108.0851,-6.7577],[108.0844,-6.767],[108.0934,-6.7871],[108.0893,-6.7896],[108.0832,-6.7897],[108.0822,-6.7916],[108.0835,-6.7952],[108.0793,-6.7963],[108.0774,-6.799],[108.0637,-6.7935],[108.0636,-6.7966],[108.0589,-6.7952],[108.056,-6.7987],[108.0505,-6.7861],[108.0508,-6.7803]]]}},{"type":"Feature","properties":{"name":"Cicarimanah","name_en":"Cicarimanah","admin_level":"7","osm_id":""},"geometry":{"type":"Polygon","coordinates":[[[108.0638,-6.8213],[108.0502,-6.8153],[108.0479,-6.8125],[108.047,-6.8024],[108.0539,-6.7932],[108.0557,-6.7986],[108.0589,-6.7952],[108.0636,-6.7966],[108.0637,-6.7935],[108.0774,-6.799],[108.0773,-6.8107],[108.0758,-6.8127],[108.0716,-6.8126],[108.0704,-6.8159],[108.0673,-6.8171],[108.0638,-6.8213]]]}},{"type":"Feature","properties":{"name":"Cipeles","name_en":"Cipeles","admin_level":"7","osm_id":""},"geometry":{"type":"Polygon","coordinates":[[[108.1201,-6.8222],[108.114,-6.8217],[108.1133,-6.8185],[108.1105,-6.8176],[108.1087,-6.8139],[108.1022,-6.8151],[108.102,-6.8125],[108.0993,-6.8109],[108.1025,-6.8039],[108.1013,-6.8011],[108.0978,-6.8016],[108.0967,-6.8036],[108.0932,-6.8029],[108.0902,-6.8056],[108.0913,-6.8081],[108.0901,-6.8126],[108.0876,-6.8103],[108.0778,-6.8092],[108.0774,-6.799],[108.0793,-6.7963],[108.0835,-6.7952],[108.0827,-6.7901],[108.0893,-6.7896],[108.0941,-6.7869],[108.0958,-6.7896],[108.097,-6.7888],[108.0955,-6.7843],[108.0969,-6.7834],[108.1001,-6.7849],[108.1009,-6.7888],[108.1023,-6.7865],[108.1071,-6.7844],[108.1038,-6.7804],[108.1044,-6.7781],[108.1109,-6.7823],[108.1119,-6.7851],[108.1091,-6.7925],[108.1196,-6.8032],[108.1159,-6.8107],[108.1199,-6.8186],[108.1201,-6.8222]]]}},{"type":"Feature","properties":{"name":"Darmawangi","name_en":"Darmawangi","admin_level":"7","osm_id":""},"geometry":{"type":"Polygon","coordinates":[[[108.1576,-6.796],[108.1543,-6.7979],[108.1528,-6.8026],[108.154,-6.8052],[108.1605,-6.8098],[108.1613,-6.8131],[108.1583,-6.8172],[108.1519,-6.8127],[108.1461,-6.8158],[108.1443,-6.8128],[108.1422,-6.8134],[108.14,-6.8171],[108.1395,-6.8153],[108.1386,-6.8158],[108.1398,-6.8184],[108.1372,-6.8199],[108.1376,-6.8216],[108.1357,-6.8206],[108.1332,-6.8222],[108.1332,-6.8252],[108.1281,-6.8262],[108.1256,-6.8235],[108.1201,-6.8222],[108.1199,-6.8186],[108.1159,-6.8107],[108.1196,-6.8032],[108.1274,-6.8016],[108.1332,-6.7959],[108.136,-6.8005],[108.1426,-6.8038],[108.15,-6.8046],[108.152,-6.8032],[108.1536,-6.7957],[108.1559,-6.7948],[108.1576,-6.796]]]}},{"type":"Feature","properties":{"name":"Jembarwangi","name_en":"Jembarwangi","admin_level":"7","osm_id":""},"geometry":{"type":"Polygon","coordinates":[[[108.16,-6.8172],[108.159,-6.8234],[108.1609,-6.8288],[108.1527,-6.8279],[108.1441,-6.8292],[108.135,-6.84],[108.1301,-6.8387],[108.1281,-6.8361],[108.1296,-6.8295],[108.1285,-6.8258],[108.1335,-6.825],[108.1332,-6.8222],[108.135,-6.8208],[108.1379,-6.8214],[108.1372,-6.8199],[108.1399,-6.8181],[108.1384,-6.8161],[108.1395,-6.8153],[108.1403,-6.8169],[108.1422,-6.8134],[108.1445,-6.8128],[108.1461,-6.8158],[108.1519,-6.8127],[108.1581,-6.8172],[108.1613,-6.8131],[108.16,-6.8172]]]}},{"type":"Feature","properties":{"name":"Karyamukti","name_en":"Karyamukti","admin_level":"7","osm_id":""},"geometry":{"type":"Polygon","coordinates":[[[108.0934,-6.7871],[108.0844,-6.767],[108.0851,-6.7577],[108.0921,-6.7593],[108.0961,-6.7573],[108.1012,-6.7601],[108.1082,-6.7673],[108.1104,-6.7733],[108.1164,-6.7784],[108.1217,-6.7775],[108.1263,-6.7803],[108.1309,-6.7809],[108.135,-6.7791],[108.1366,-6.7815],[108.1385,-6.7808],[108.1399,-6.7825],[108.1345,-6.7879],[108.1332,-6.7959],[108.1276,-6.8015],[108.1208,-6.8034],[108.1115,-6.7963],[108.1091,-6.7926],[108.1118,-6.7839],[108.1063,-6.7786],[108.1044,-6.7781],[108.1037,-6.7799],[108.1071,-6.7844],[108.1023,-6.7865],[108.1009,-6.7888],[108.1001,-6.7849],[108.0973,-6.7834],[108.0955,-6.7843],[108.0968,-6.789],[108.0953,-6.7897],[108.0952,-6.7874],[108.0934,-6.7871]]]}},{"type":"Feature","properties":{"name":"Marongge","name_en":"Marongge","admin_level":"7","osm_id":""},"geometry":{"type":"Polygon","coordinates":[[[108.1642,-6.7748],[108.1688,-6.7812],[108.1699,-6.7863],[108.1667,-6.7861],[108.1648,-6.7888],[108.1665,-6.7942],[108.1652,-6.7971],[108.1544,-6.795],[108.1523,-6.7973],[108.152,-6.8032],[108.15,-6.8046],[108.1426,-6.8038],[108.136,-6.8005],[108.1333,-6.7964],[108.1333,-6.7916],[108.135,-6.7871],[108.1399,-6.7825],[108.1385,-6.7808],[108.1366,-6.7815],[108.135,-6.778],[108.1389,-6.7772],[108.1419,-6.7795],[108.1452,-6.7859],[108.1487,-6.7867],[108.1538,-6.7829],[108.1536,-6.7783],[108.1603,-6.7735],[108.1642,-6.7748]]]}},{"type":"Feature","properties":{"name":"Tolengas","name_en":"Tolengas","admin_level":"7","osm_id":""},"geometry":{"type":"Polygon","coordinates":[[[108.1514,-6.7481],[108.1532,-6.7513],[108.1488,-6.7545],[108.149,-6.759],[108.1541,-6.7623],[108.1596,-6.7589],[108.164,-6.761],[108.1642,-6.7748],[108.16,-6.7737],[108.1536,-6.7783],[108.1531,-6.7838],[108.1473,-6.7868],[108.1452,-6.7859],[108.1418,-6.7807],[108.1426,-6.7787],[108.1474,-6.7763],[108.146,-6.7761],[108.145,-6.7722],[108.1475,-6.7695],[108.1455,-6.7636],[108.1415,-6.7632],[108.1408,-6.7594],[108.144,-6.758],[108.1514,-6.7481]]]}},{"type":"Feature","properties":{"name":"Tomo","name_en":"Tomo","admin_level":"7","osm_id":""},"geometry":{"type":"Polygon","coordinates":[[[108.135,-6.7791],[108.1309,-6.7809],[108.1263,-6.7803],[108.1217,-6.7775],[108.1164,-6.7784],[108.1104,-6.7733],[108.1082,-6.7673],[108.1035,-6.7618],[108.0965,-6.7576],[108.1044,-6.7506],[108.1083,-6.7511],[108.1135,-6.755],[108.1205,-6.7527],[108.1284,-6.7581],[108.1351,-6.7577],[108.1372,-6.7546],[108.139,-6.7588],[108.1408,-6.7594],[108.1415,-6.7632],[108.1458,-6.7643],[108.1475,-6.7695],[108.1451,-6.7738],[108.1474,-6.7763],[108.1429,-6.7794],[108.1406,-6.7795],[108.1388,-6.7772],[108.135,-6.7791]]]}}]}