{"type":"FeatureCollection","metadata":{"parent_osm_id":"gid_IDN_22_7_2_1","parent_name":"Inanwatan","parent_name_1":"PapuaBarat","parent_gid":"IDN.22.7.2_1","parent_level":"6","child_level":"7","count":8,"source":"GADM 4.1","generated":"2026-05-09"},"features":[{"type":"Feature","properties":{"name":"Isogo","name_en":"Isogo","admin_level":"7","osm_id":""},"geometry":{"type":"Polygon","coordinates":[[[132.2119,-2.0475],[132.1971,-2.0766],[132.1493,-2.0533],[132.1626,-2.0239],[132.2119,-2.0475]]]}},{"type":"Feature","properties":{"name":"Mate","name_en":"Mate","admin_level":"7","osm_id":""},"geometry":{"type":"Polygon","coordinates":[[[132.1935,-2.1611],[132.1815,-2.1468],[132.1466,-2.1479],[132.1443,-2.1472],[132.1425,-2.1438],[132.1397,-2.1434],[132.1378,-2.1387],[132.134,-2.135],[132.1267,-2.1339],[132.1484,-2.0955],[132.2105,-2.1271],[132.1935,-2.1611]]]}},{"type":"Feature","properties":{"name":"Nogibi","name_en":"Nogibi","admin_level":"7","osm_id":""},"geometry":{"type":"Polygon","coordinates":[[[132.2126,-2.0479],[132.2119,-2.0475],[132.312,-2.0006],[132.3125,-2.0586],[132.2892,-2.0497],[132.2788,-2.0795],[132.2126,-2.0479]]]}},{"type":"Feature","properties":{"name":"Odeare","name_en":"Odeare","admin_level":"7","osm_id":""},"geometry":{"type":"Polygon","coordinates":[[[132.2788,-2.0795],[132.2892,-2.0497],[132.3125,-2.0586],[132.3002,-2.0897],[132.2788,-2.0795]]]}},{"type":"Feature","properties":{"name":"Serkos","name_en":"Serkos","admin_level":"7","osm_id":""},"geometry":{"type":"Polygon","coordinates":[[[132.1935,-2.1611],[132.2106,-2.1269],[132.2684,-2.1558],[132.2622,-2.1671],[132.2389,-2.1916],[132.2205,-2.1751],[132.1935,-2.1611]]]}},{"type":"Feature","properties":{"name":"Sibae","name_en":"Sibae","admin_level":"7","osm_id":""},"geometry":{"type":"Polygon","coordinates":[[[132.1493,-2.0533],[132.2233,-2.0895],[132.2036,-2.1235],[132.1484,-2.0955],[132.1548,-2.0843],[132.1389,-2.0762],[132.1493,-2.0533]]]}},{"type":"Feature","properties":{"name":"SoltaBaru","name_en":"SoltaBaru","admin_level":"7","osm_id":""},"geometry":{"type":"Polygon","coordinates":[[[132.1971,-2.0766],[132.2126,-2.0479],[132.3002,-2.0897],[132.2876,-2.121],[132.1971,-2.0766]]]}},{"type":"Feature","properties":{"name":"Wadoi","name_en":"Wadoi","admin_level":"7","osm_id":""},"geometry":{"type":"Polygon","coordinates":[[[132.2105,-2.1271],[132.2036,-2.1235],[132.2233,-2.0895],[132.2876,-2.121],[132.2684,-2.1558],[132.2105,-2.1271]]]}}]}