{"type":"FeatureCollection","metadata":{"parent_osm_id":"gid_IDN_32_1_7_1","parent_name":"BandarPulau","parent_name_1":"SumateraUtara","parent_gid":"IDN.32.1.7_1","parent_level":"6","child_level":"7","count":10,"source":"GADM 4.1","generated":"2026-05-09"},"features":[{"type":"Feature","properties":{"name":"AekNagali","name_en":"AekNagali","admin_level":"7","osm_id":""},"geometry":{"type":"Polygon","coordinates":[[[99.3498,2.7259],[99.3531,2.7287],[99.36,2.7278],[99.371,2.7077],[99.3746,2.7061],[99.3475,2.6989],[99.3327,2.6981],[99.3268,2.6958],[99.3202,2.6885],[99.303,2.6812],[99.301,2.6944],[99.3036,2.6993],[99.3102,2.7038],[99.3137,2.7019],[99.3134,2.7044],[99.3163,2.7053],[99.3189,2.7088],[99.3275,2.7125],[99.3323,2.7128],[99.332,2.7162],[99.3336,2.7179],[99.3471,2.7193],[99.3498,2.7259]]]}},{"type":"Feature","properties":{"name":"BandarPulauPekan","name_en":"BandarPulauPekan","admin_level":"7","osm_id":""},"geometry":{"type":"Polygon","coordinates":[[[99.5344,2.6816],[99.5276,2.6815],[99.5143,2.668],[99.514,2.6719],[99.51,2.6736],[99.5035,2.681],[99.5143,2.6851],[99.5217,2.6835],[99.5269,2.6865],[99.5312,2.6922],[99.5365,2.6934],[99.5393,2.6894],[99.5452,2.6912],[99.5506,2.6884],[99.5487,2.6814],[99.5344,2.6816]]]}},{"type":"Feature","properties":{"name":"BuntuMaraja","name_en":"BuntuMaraja","admin_level":"7","osm_id":""},"geometry":{"type":"Polygon","coordinates":[[[99.4032,2.6111],[99.4003,2.6107],[99.3942,2.6059],[99.3848,2.6039],[99.3547,2.6015],[99.3535,2.604],[99.3537,2.6104],[99.3601,2.6201],[99.3595,2.6384],[99.3622,2.6531],[99.3614,2.6564],[99.3923,2.6729],[99.4032,2.6111]]]}},{"type":"Feature","properties":{"name":"GajahSakti","name_en":"GajahSakti","admin_level":"7","osm_id":""},"geometry":{"type":"Polygon","coordinates":[[[99.4383,2.6074],[99.4105,2.612],[99.4032,2.6111],[99.3923,2.6729],[99.399,2.6734],[99.4191,2.6806],[99.4383,2.6074]]]}},{"type":"Feature","properties":{"name":"GontingMalaha","name_en":"GontingMalaha","admin_level":"7","osm_id":""},"geometry":{"type":"Polygon","coordinates":[[[99.3923,2.6729],[99.3806,2.6659],[99.378,2.694],[99.3786,2.7031],[99.3813,2.7047],[99.3845,2.705],[99.3876,2.7003],[99.3915,2.6995],[99.3938,2.7021],[99.3964,2.7003],[99.4008,2.7011],[99.4018,2.7032],[99.4052,2.7019],[99.4114,2.7071],[99.4195,2.7079],[99.4273,2.7141],[99.4324,2.7159],[99.4439,2.7172],[99.447,2.7144],[99.4493,2.7144],[99.4545,2.7209],[99.4586,2.7172],[99.4625,2.7193],[99.4677,2.718],[99.4695,2.7206],[99.4719,2.718],[99.4721,2.7198],[99.4786,2.7237],[99.4846,2.7227],[99.4856,2.7308],[99.496,2.7282],[99.4947,2.7266],[99.502,2.724],[99.5025,2.7269],[99.5045,2.7279],[99.5116,2.7271],[99.5139,2.7295],[99.5183,2.73],[99.5331,2.7295],[99.5364,2.7331],[99.5406,2.7346],[99.546,2.7318],[99.541,2.7308],[99.5379,2.7265],[99.5316,2.7265],[99.53,2.7226],[99.5206,2.723],[99.5195,2.7222],[99.5206,2.7186],[99.5159,2.7167],[99.5108,2.7112],[99.5038,2.7092],[99.4975,2.7096],[99.4937,2.7063],[99.4725,2.7001],[99.4568,2.6917],[99.4465,2.6911],[99.4343,2.6878],[99.432,2.6854],[99.4258,2.6843],[99.4222,2.6817],[99.399,2.6734],[99.3923,2.6729]]]}},{"type":"Feature","properties":{"name":"GunungBerkat","name_en":"GunungBerkat","admin_level":"7","osm_id":""},"geometry":{"type":"Polygon","coordinates":[[[99.2965,2.5987],[99.301,2.6163],[99.3151,2.6181],[99.324,2.627],[99.3367,2.6364],[99.339,2.643],[99.3432,2.6471],[99.3531,2.6482],[99.3614,2.6564],[99.3622,2.6531],[99.3595,2.6384],[99.3601,2.6201],[99.3537,2.6104],[99.3547,2.6015],[99.349,2.6],[99.3482,2.6011],[99.3376,2.5931],[99.3247,2.5936],[99.2965,2.5987]]]}},{"type":"Feature","properties":{"name":"HutaRao","name_en":"HutaRao","admin_level":"7","osm_id":""},"geometry":{"type":"Polygon","coordinates":[[[99.3081,2.6673],[99.298,2.6679],[99.2946,2.6707],[99.2797,2.6734],[99.2702,2.6659],[99.2614,2.6625],[99.2594,2.6632],[99.2553,2.6693],[99.2533,2.6775],[99.248,2.6804],[99.2499,2.6839],[99.2572,2.6867],[99.2687,2.685],[99.2731,2.6868],[99.2818,2.6861],[99.2854,2.6921],[99.284,2.6961],[99.289,2.6973],[99.2908,2.692],[99.301,2.6944],[99.3038,2.6779],[99.3081,2.6673]]]}},{"type":"Feature","properties":{"name":"PadangPulau","name_en":"PadangPulau","admin_level":"7","osm_id":""},"geometry":{"type":"Polygon","coordinates":[[[99.5127,2.6724],[99.5091,2.6692],[99.5027,2.6567],[99.5042,2.6553],[99.5033,2.6514],[99.5066,2.6364],[99.4851,2.6353],[99.4784,2.6589],[99.4772,2.6614],[99.4727,2.6599],[99.4604,2.6523],[99.4611,2.6498],[99.4479,2.6375],[99.4452,2.6198],[99.4465,2.6169],[99.4529,2.6208],[99.4568,2.6198],[99.4608,2.6266],[99.4626,2.623],[99.46,2.6168],[99.4586,2.6066],[99.455,2.6037],[99.4485,2.6052],[99.4426,2.604],[99.4383,2.6074],[99.4191,2.6806],[99.4258,2.6843],[99.432,2.6854],[99.4343,2.6878],[99.4465,2.6911],[99.4568,2.6917],[99.4725,2.7001],[99.4937,2.7063],[99.4924,2.7032],[99.4964,2.6943],[99.4969,2.6853],[99.5127,2.6724]]]}},{"type":"Feature","properties":{"name":"PerkebunanAekTarum","name_en":"PerkebunanAekTarum","admin_level":"7","osm_id":""},"geometry":{"type":"Polygon","coordinates":[[[99.3175,2.6204],[99.317,2.6311],[99.3224,2.6632],[99.3204,2.6652],[99.3081,2.6673],[99.303,2.6812],[99.3202,2.6885],[99.3268,2.6958],[99.3327,2.6981],[99.3475,2.6989],[99.3753,2.7057],[99.3786,2.7031],[99.378,2.694],[99.3806,2.6659],[99.3614,2.6564],[99.3531,2.6482],[99.3432,2.6471],[99.339,2.643],[99.3367,2.6364],[99.3175,2.6204]]]}},{"type":"Feature","properties":{"name":"PerkebunanPadangPulau","name_en":"PerkebunanPadangPulau","admin_level":"7","osm_id":""},"geometry":{"type":"Polygon","coordinates":[[[99.4851,2.6353],[99.471,2.6351],[99.4626,2.623],[99.4608,2.6266],[99.4568,2.6198],[99.4529,2.6208],[99.4465,2.6169],[99.4452,2.6198],[99.4479,2.6375],[99.4611,2.6498],[99.4604,2.6523],[99.4727,2.6599],[99.4772,2.6614],[99.4784,2.6589],[99.4851,2.6353]]]}}]}