{"type":"FeatureCollection","metadata":{"parent_osm_id":"gid_IDN_23_27_8_1","parent_name":"Walani","parent_name_1":"Papua","parent_gid":"IDN.23.27.8_1","parent_level":"6","child_level":"7","count":16,"source":"GADM 4.1","generated":"2026-05-09"},"features":[{"type":"Feature","properties":{"name":"Daboto","name_en":"Daboto","admin_level":"7","osm_id":""},"geometry":{"type":"Polygon","coordinates":[[[136.9625,-2.9831],[136.9623,-2.9814],[136.9575,-2.9786],[136.9595,-2.9763],[136.9557,-2.9735],[136.9581,-2.9726],[136.9563,-2.9699],[136.9499,-2.9701],[136.9501,-2.9681],[136.9469,-2.9663],[136.9493,-2.9654],[136.9485,-2.9626],[136.9441,-2.9622],[136.9437,-2.9601],[136.9465,-2.958],[136.9475,-2.9527],[136.9501,-2.9496],[137.0383,-2.9544],[137.0633,-2.9521],[137.0753,-2.9776],[137.087,-2.9942],[137.0753,-2.9996],[137.0483,-3.0003],[137.027,-3.0096],[137.0014,-3.0121],[137.0031,-3.0028],[136.9929,-2.9872],[136.9805,-2.9801],[136.9743,-2.9801],[136.9625,-2.9831]]]}},{"type":"Feature","properties":{"name":"Dapiyaga","name_en":"Dapiyaga","admin_level":"7","osm_id":""},"geometry":{"type":"Polygon","coordinates":[[[137.2668,-2.7963],[137.2691,-2.8241],[137.2735,-2.8327],[137.2256,-2.8463],[137.2218,-2.8233],[137.2213,-2.8088],[137.2361,-2.8089],[137.2395,-2.8045],[137.2405,-2.7998],[137.2435,-2.797],[137.2668,-2.7963]]]}},{"type":"Feature","properties":{"name":"Didiwoi","name_en":"Didiwoi","admin_level":"7","osm_id":""},"geometry":{"type":"Polygon","coordinates":[[[137.0904,-2.8249],[137.0899,-2.8095],[137.0927,-2.8047],[137.1055,-2.8001],[137.1115,-2.8046],[137.1289,-2.8054],[137.1308,-2.7988],[137.1256,-2.7915],[137.1257,-2.7896],[137.1312,-2.7881],[137.1353,-2.7826],[137.1475,-2.7772],[137.1507,-2.7829],[137.1499,-2.7885],[137.1477,-2.7889],[137.1482,-2.797],[137.1555,-2.7955],[137.1557,-2.799],[137.1616,-2.8005],[137.1648,-2.8042],[137.1684,-2.8038],[137.1723,-2.7997],[137.1752,-2.8001],[137.1701,-2.8186],[137.1706,-2.863],[137.1158,-2.8799],[137.1155,-2.874],[137.1178,-2.8631],[137.1272,-2.8444],[137.1241,-2.8397],[137.1116,-2.8373],[137.0999,-2.8319],[137.0904,-2.8249]]]}},{"type":"Feature","properties":{"name":"Dimba","name_en":"Dimba","admin_level":"7","osm_id":""},"geometry":{"type":"Polygon","coordinates":[[[137.1761,-3.0691],[137.1523,-3.0779],[137.1267,-3.0835],[137.1237,-3.0693],[137.1016,-3.0209],[137.0888,-2.9968],[137.0753,-2.9776],[137.0633,-2.9521],[137.0817,-2.9345],[137.0921,-2.9349],[137.1031,-2.9388],[137.1195,-2.9497],[137.1265,-2.9583],[137.1295,-2.9684],[137.1295,-2.9786],[137.1365,-2.988],[137.1373,-3.0012],[137.1405,-3.0114],[137.1545,-3.0223],[137.1647,-3.034],[137.1693,-3.0426],[137.1693,-3.0535],[137.1717,-3.0613],[137.1761,-3.0691]]]}},{"type":"Feature","properties":{"name":"Ebawaida","name_en":"Ebawaida","admin_level":"7","osm_id":""},"geometry":{"type":"Polygon","coordinates":[[[136.9501,-2.9496],[136.9523,-2.9485],[136.9505,-2.9469],[136.9517,-2.9446],[136.9501,-2.9431],[136.9505,-2.939],[136.9523,-2.9377],[136.9509,-2.9369],[136.9527,-2.9338],[136.9557,-2.9343],[136.9545,-2.9307],[136.9579,-2.9298],[136.9595,-2.9269],[136.9611,-2.9131],[136.967,-2.8988],[137.0042,-2.9022],[137.0277,-2.8965],[137.0461,-2.89],[137.0577,-2.9084],[137.0719,-2.9193],[137.0817,-2.9345],[137.0633,-2.9521],[137.0383,-2.9544],[136.9501,-2.9496]]]}},{"type":"Feature","properties":{"name":"Maiyapo","name_en":"Maiyapo","admin_level":"7","osm_id":""},"geometry":{"type":"Polygon","coordinates":[[[137.3653,-2.9337],[137.3681,-2.9347],[137.3673,-2.9372],[137.3689,-2.938],[137.372,-2.9377],[137.3793,-2.9328],[137.3803,-2.9397],[137.3776,-2.9421],[137.3779,-2.9439],[137.3829,-2.9435],[137.3841,-2.9463],[137.3751,-2.9497],[137.37,-2.9479],[137.3705,-2.951],[137.3057,-2.9733],[137.2651,-2.9911],[137.2324,-3.0131],[137.1919,-3.033],[137.1688,-3.0417],[137.1647,-3.034],[137.1531,-3.0211],[137.1771,-3.0136],[137.1951,-3.0012],[137.2225,-2.9856],[137.2561,-2.9762],[137.2849,-2.963],[137.3137,-2.945],[137.3309,-2.9396],[137.3653,-2.9337]]]}},{"type":"Feature","properties":{"name":"Malewoya","name_en":"Malewoya","admin_level":"7","osm_id":""},"geometry":{"type":"Polygon","coordinates":[[[137.0139,-2.8459],[137.0109,-2.8373],[137.0123,-2.8119],[137.0229,-2.8031],[137.0285,-2.8048],[137.0307,-2.8073],[137.0347,-2.8069],[137.0353,-2.8092],[137.0379,-2.8067],[137.0397,-2.807],[137.0423,-2.813],[137.0442,-2.8126],[137.0504,-2.829],[137.0625,-2.8524],[137.0858,-2.892],[137.0551,-2.9035],[137.0321,-2.8684],[137.0289,-2.8568],[137.0203,-2.8474],[137.0139,-2.8459]]]}},{"type":"Feature","properties":{"name":"Maolagi","name_en":"Maolagi","admin_level":"7","osm_id":""},"geometry":{"type":"Polygon","coordinates":[[[137.3515,-2.8775],[137.3519,-2.8796],[137.3578,-2.8773],[137.3599,-2.8789],[137.3588,-2.8937],[137.3633,-2.9013],[137.3548,-2.9038],[137.3544,-2.9063],[137.3442,-2.9068],[137.3028,-2.9169],[137.1329,-2.9832],[137.1295,-2.9786],[137.1295,-2.9684],[137.1244,-2.9557],[137.1764,-2.9318],[137.2763,-2.8982],[137.3122,-2.892],[137.3515,-2.8775]]]}},{"type":"Feature","properties":{"name":"Matadi","name_en":"Matadi","admin_level":"7","osm_id":""},"geometry":{"type":"Polygon","coordinates":[[[137.0269,-3.0853],[137.0243,-3.0816],[137.0085,-3.0777],[136.9977,-3.0722],[136.9953,-3.0559],[137.0014,-3.0121],[137.027,-3.0096],[137.0483,-3.0003],[137.0753,-2.9996],[137.087,-2.9942],[137.1016,-3.0209],[137.1237,-3.0693],[137.1267,-3.0835],[137.1195,-3.0777],[137.1069,-3.0722],[137.0383,-3.0785],[137.0269,-3.0853]]]}},{"type":"Feature","properties":{"name":"Mbaindotadi","name_en":"Mbaindotadi","admin_level":"7","osm_id":""},"geometry":{"type":"Polygon","coordinates":[[[137.3372,-2.8566],[137.3369,-2.8581],[137.3413,-2.86],[137.3443,-2.8567],[137.344,-2.8641],[137.3457,-2.8691],[137.3499,-2.8647],[137.3535,-2.87],[137.3515,-2.8775],[137.3122,-2.892],[137.2763,-2.8982],[137.1764,-2.9318],[137.1244,-2.9557],[137.1195,-2.9497],[137.101,-2.9381],[137.1623,-2.9115],[137.2185,-2.8951],[137.3138,-2.874],[137.3309,-2.8654],[137.3372,-2.8566]]]}},{"type":"Feature","properties":{"name":"Meniupi","name_en":"Meniupi","admin_level":"7","osm_id":""},"geometry":{"type":"Polygon","coordinates":[[[137.0682,-2.8087],[137.0706,-2.8097],[137.0702,-2.8144],[137.0757,-2.8154],[137.0776,-2.8254],[137.0825,-2.8241],[137.0805,-2.8351],[137.083,-2.8376],[137.0856,-2.8366],[137.0829,-2.8329],[137.0874,-2.8308],[137.0904,-2.8249],[137.0999,-2.8319],[137.1116,-2.8373],[137.1241,-2.8397],[137.1272,-2.8444],[137.1178,-2.8631],[137.1155,-2.874],[137.1158,-2.8799],[137.0858,-2.892],[137.0625,-2.8524],[137.0504,-2.829],[137.0442,-2.8126],[137.0463,-2.8139],[137.0473,-2.8127],[137.0453,-2.8081],[137.0479,-2.8075],[137.0507,-2.8094],[137.0521,-2.8081],[137.0553,-2.8142],[137.0561,-2.8101],[137.0613,-2.8114],[137.0651,-2.808],[137.0682,-2.8087]]]}},{"type":"Feature","properties":{"name":"Mpominatadi","name_en":"Mpominatadi","admin_level":"7","osm_id":""},"geometry":{"type":"Polygon","coordinates":[[[137.3705,-2.951],[137.3771,-2.9513],[137.3821,-2.954],[137.3825,-2.956],[137.3786,-2.9559],[137.3771,-2.9581],[137.3804,-2.9658],[137.3637,-2.9699],[137.2935,-3.0034],[137.2611,-3.0153],[137.2493,-3.0313],[137.2277,-3.0465],[137.2095,-3.0573],[137.1761,-3.0691],[137.1693,-3.0535],[137.1688,-3.0417],[137.1919,-3.033],[137.2324,-3.0131],[137.2651,-2.9911],[137.3057,-2.9733],[137.3705,-2.951]]]}},{"type":"Feature","properties":{"name":"Nabuya","name_en":"Nabuya","admin_level":"7","osm_id":""},"geometry":{"type":"Polygon","coordinates":[[[137.2735,-2.8327],[137.2755,-2.8366],[137.2849,-2.8431],[137.319,-2.8478],[137.3231,-2.8531],[137.3247,-2.8527],[137.3233,-2.8492],[137.3269,-2.8517],[137.3306,-2.8508],[137.3331,-2.8557],[137.3372,-2.8566],[137.3309,-2.8654],[137.3138,-2.874],[137.2185,-2.8951],[137.1623,-2.9115],[137.101,-2.9381],[137.0921,-2.9349],[137.0819,-2.9349],[137.0719,-2.9193],[137.0577,-2.9084],[137.0551,-2.9035],[137.1147,-2.8803],[137.2735,-2.8327]]]}},{"type":"Feature","properties":{"name":"Oyetadi","name_en":"Oyetadi","admin_level":"7","osm_id":""},"geometry":{"type":"Polygon","coordinates":[[[137.3544,-2.9063],[137.3563,-2.9095],[137.3605,-2.911],[137.3695,-2.9115],[137.3693,-2.9135],[137.3634,-2.917],[137.3639,-2.9189],[137.3685,-2.9188],[137.3727,-2.9225],[137.3662,-2.9229],[137.3657,-2.925],[137.3704,-2.9302],[137.3647,-2.9305],[137.3653,-2.9337],[137.3309,-2.9396],[137.3137,-2.945],[137.2849,-2.963],[137.2561,-2.9762],[137.2225,-2.9856],[137.1951,-3.0012],[137.1771,-3.0136],[137.1531,-3.0211],[137.1405,-3.0114],[137.1373,-3.0012],[137.1365,-2.988],[137.1329,-2.9832],[137.3028,-2.9169],[137.3442,-2.9068],[137.3544,-2.9063]]]}},{"type":"Feature","properties":{"name":"Tunggamba","name_en":"Tunggamba","admin_level":"7","osm_id":""},"geometry":{"type":"Polygon","coordinates":[[[136.967,-2.8988],[136.9675,-2.8568],[136.9651,-2.8452],[136.9721,-2.8408],[136.9765,-2.8424],[136.9873,-2.859],[137.0009,-2.8577],[137.0095,-2.8485],[137.0139,-2.8459],[137.0203,-2.8474],[137.0289,-2.8568],[137.0321,-2.8684],[137.0461,-2.89],[137.0277,-2.8965],[137.0042,-2.9022],[136.967,-2.8988]]]}},{"type":"Feature","properties":{"name":"WalampaButu","name_en":"WalampaButu","admin_level":"7","osm_id":""},"geometry":{"type":"Polygon","coordinates":[[[137.1752,-2.8001],[137.1777,-2.8048],[137.1802,-2.8045],[137.1807,-2.8018],[137.1878,-2.8035],[137.1923,-2.8117],[137.199,-2.8118],[137.1998,-2.8157],[137.2021,-2.818],[137.2087,-2.8174],[137.2127,-2.8088],[137.2213,-2.8088],[137.2218,-2.8233],[137.2256,-2.8463],[137.1706,-2.863],[137.1701,-2.8186],[137.1752,-2.8001]]]}}]}