{"type":"FeatureCollection","metadata":{"parent_osm_id":"18459868","parent_name":"Binangun","parent_name_1":"JawaTengah","parent_gid":"IDN.10.7.3_1","parent_level":"6","child_level":"7","count":17,"source":"GADM 4.1","generated":"2026-05-09"},"features":[{"type":"Feature","properties":{"name":"Alangamba","name_en":"Alangamba","admin_level":"7","osm_id":""},"geometry":{"type":"Polygon","coordinates":[[[109.2746,-7.6513],[109.2791,-7.6491],[109.2781,-7.6549],[109.2799,-7.6553],[109.2801,-7.6592],[109.284,-7.6633],[109.2831,-7.6772],[109.2722,-7.6754],[109.2736,-7.666],[109.276,-7.6658],[109.2737,-7.6653],[109.2746,-7.6575],[109.2733,-7.653],[109.2746,-7.6513]]]}},{"type":"Feature","properties":{"name":"Bangkal","name_en":"Bangkal","admin_level":"7","osm_id":""},"geometry":{"type":"Polygon","coordinates":[[[109.2772,-7.6491],[109.276,-7.6515],[109.2697,-7.6501],[109.2694,-7.6538],[109.2663,-7.6545],[109.2497,-7.6533],[109.2499,-7.646],[109.2772,-7.6491]]]}},{"type":"Feature","properties":{"name":"Binangun","name_en":"Binangun","admin_level":"7","osm_id":""},"geometry":{"type":"Polygon","coordinates":[[[109.2746,-7.6513],[109.2733,-7.653],[109.2746,-7.6575],[109.2737,-7.6653],[109.276,-7.6658],[109.2736,-7.666],[109.2723,-7.6755],[109.2619,-7.6746],[109.2626,-7.655],[109.2694,-7.6538],[109.2697,-7.6501],[109.2746,-7.6513]]]}},{"type":"Feature","properties":{"name":"Jati","name_en":"Jati","admin_level":"7","osm_id":""},"geometry":{"type":"Polygon","coordinates":[[[109.1905,-7.6597],[109.1986,-7.6548],[109.2047,-7.657],[109.2112,-7.6569],[109.2122,-7.6613],[109.2111,-7.6686],[109.1986,-7.6697],[109.1955,-7.6687],[109.1958,-7.6668],[109.1921,-7.6662],[109.1931,-7.6615],[109.1905,-7.6597]]]}},{"type":"Feature","properties":{"name":"JeparaKulon","name_en":"JeparaKulon","admin_level":"7","osm_id":""},"geometry":{"type":"Polygon","coordinates":[[[109.2222,-7.6703],[109.224,-7.6607],[109.2267,-7.6573],[109.245,-7.6599],[109.2436,-7.6772],[109.2399,-7.6778],[109.2221,-7.6743],[109.2222,-7.6703]]]}},{"type":"Feature","properties":{"name":"JeparaWetan","name_en":"JeparaWetan","admin_level":"7","osm_id":""},"geometry":{"type":"Polygon","coordinates":[[[109.2499,-7.646],[109.2497,-7.6533],[109.2626,-7.655],[109.2611,-7.6741],[109.2441,-7.6722],[109.2473,-7.6457],[109.2499,-7.646]]]}},{"type":"Feature","properties":{"name":"Karangnangka","name_en":"Karangnangka","admin_level":"7","osm_id":""},"geometry":{"type":"Polygon","coordinates":[[[109.3063,-7.6655],[109.3081,-7.6615],[109.3222,-7.6626],[109.3238,-7.6655],[109.3235,-7.6709],[109.3146,-7.6665],[109.3063,-7.6655]]]}},{"type":"Feature","properties":{"name":"Kemojing","name_en":"Kemojing","admin_level":"7","osm_id":""},"geometry":{"type":"Polygon","coordinates":[[[109.3133,-7.6615],[109.3081,-7.6615],[109.3063,-7.6655],[109.2977,-7.6645],[109.2902,-7.6613],[109.2887,-7.6577],[109.3133,-7.6615]]]}},{"type":"Feature","properties":{"name":"Kepudang","name_en":"Kepudang","admin_level":"7","osm_id":""},"geometry":{"type":"Polygon","coordinates":[[[109.2223,-7.6686],[109.2183,-7.6663],[109.2159,-7.6683],[109.2111,-7.6686],[109.2117,-7.6575],[109.2267,-7.6573],[109.2241,-7.6604],[109.2239,-7.6664],[109.2223,-7.6686]]]}},{"type":"Feature","properties":{"name":"Pagubugan","name_en":"Pagubugan","admin_level":"7","osm_id":""},"geometry":{"type":"Polygon","coordinates":[[[109.3073,-7.7031],[109.3121,-7.6796],[109.3172,-7.6793],[109.3178,-7.6807],[109.3193,-7.681],[109.3184,-7.6791],[109.322,-7.6801],[109.3217,-7.6864],[109.317,-7.6922],[109.3141,-7.7041],[109.3073,-7.7031]]]}},{"type":"Feature","properties":{"name":"PagubuganKulon","name_en":"PagubuganKulon","admin_level":"7","osm_id":""},"geometry":{"type":"Polygon","coordinates":[[[109.3121,-7.6796],[109.3073,-7.7031],[109.3002,-7.7021],[109.2997,-7.6983],[109.2946,-7.6941],[109.2976,-7.6793],[109.3121,-7.6796]]]}},{"type":"Feature","properties":{"name":"Pasuruhan","name_en":"Pasuruhan","admin_level":"7","osm_id":""},"geometry":{"type":"Polygon","coordinates":[[[109.3223,-7.6803],[109.3193,-7.6793],[109.3217,-7.6718],[109.3235,-7.6709],[109.3293,-7.6741],[109.3294,-7.6755],[109.333,-7.6759],[109.3382,-7.6795],[109.3372,-7.6823],[109.329,-7.6794],[109.3223,-7.6803]]]}},{"type":"Feature","properties":{"name":"Pesawahan","name_en":"Pesawahan","admin_level":"7","osm_id":""},"geometry":{"type":"Polygon","coordinates":[[[109.3063,-7.6655],[109.3146,-7.6665],[109.3235,-7.6709],[109.3217,-7.6718],[109.3184,-7.6791],[109.3193,-7.681],[109.3172,-7.6793],[109.2997,-7.6792],[109.2996,-7.6666],[109.3011,-7.6647],[109.3063,-7.6655]]]}},{"type":"Feature","properties":{"name":"Sidaurip","name_en":"Sidaurip","admin_level":"7","osm_id":""},"geometry":{"type":"Polygon","coordinates":[[[109.2757,-7.6764],[109.2976,-7.6793],[109.2946,-7.6941],[109.2997,-7.6983],[109.3002,-7.7021],[109.2805,-7.6999],[109.2808,-7.6884],[109.2744,-7.6841],[109.2757,-7.6764]]]}},{"type":"Feature","properties":{"name":"Sidayu","name_en":"Sidayu","admin_level":"7","osm_id":""},"geometry":{"type":"Polygon","coordinates":[[[109.2534,-7.673],[109.2611,-7.6741],[109.2593,-7.6879],[109.265,-7.6886],[109.264,-7.6984],[109.2532,-7.6978],[109.2534,-7.673]]]}},{"type":"Feature","properties":{"name":"WidarapayungKulon","name_en":"WidarapayungKulon","admin_level":"7","osm_id":""},"geometry":{"type":"Polygon","coordinates":[[[109.2415,-7.6965],[109.2441,-7.6722],[109.2534,-7.673],[109.2532,-7.6978],[109.2415,-7.6965]]]}},{"type":"Feature","properties":{"name":"WidarapayungWetan","name_en":"WidarapayungWetan","admin_level":"7","osm_id":""},"geometry":{"type":"Polygon","coordinates":[[[109.2723,-7.6755],[109.2757,-7.6764],[109.2744,-7.6841],[109.2808,-7.6884],[109.2805,-7.6999],[109.264,-7.6984],[109.265,-7.6886],[109.2593,-7.6879],[109.2611,-7.6741],[109.2723,-7.6755]]]}}]}