{"type":"FeatureCollection","metadata":{"parent_osm_id":"gid_IDN_31_5_13_1","parent_name":"RambangDangku","parent_name_1":"SumateraSelatan","parent_gid":"IDN.31.5.13_1","parent_level":"6","child_level":"7","count":25,"source":"GADM 4.1","generated":"2026-05-08"},"features":[{"type":"Feature","properties":{"name":"AirCekdam","name_en":"AirCekdam","admin_level":"7","osm_id":""},"geometry":{"type":"Polygon","coordinates":[[[103.9671,-3.5121],[103.9676,-3.4972],[103.9857,-3.4803],[104.0203,-3.4822],[104.0025,-3.513],[103.9671,-3.5121]]]}},{"type":"Feature","properties":{"name":"AirEnauUptXi","name_en":"AirEnauUptXi","admin_level":"7","osm_id":""},"geometry":{"type":"Polygon","coordinates":[[[104.0792,-3.5844],[104.0326,-3.5825],[104.037,-3.5369],[104.0862,-3.5393],[104.0981,-3.5447],[104.0985,-3.5493],[104.0926,-3.5587],[104.0818,-3.561],[104.0818,-3.5648],[104.0843,-3.5678],[104.083,-3.5727],[104.0787,-3.5754],[104.0792,-3.5844]]]}},{"type":"Feature","properties":{"name":"AirLimau","name_en":"AirLimau","admin_level":"7","osm_id":""},"geometry":{"type":"Polygon","coordinates":[[[104.0765,-3.4479],[104.0758,-3.4322],[104.097,-3.4195],[104.1221,-3.4184],[104.1506,-3.4202],[104.151,-3.4304],[104.1489,-3.436],[104.1513,-3.4448],[104.1475,-3.4493],[104.1385,-3.4508],[104.1086,-3.4489],[104.0759,-3.4535],[104.0765,-3.4479]]]}},{"type":"Feature","properties":{"name":"AirTalas","name_en":"AirTalas","admin_level":"7","osm_id":""},"geometry":{"type":"Polygon","coordinates":[[[104.0812,-3.5228],[104.0803,-3.5174],[104.0729,-3.5031],[104.0669,-3.4831],[104.0915,-3.4838],[104.0917,-3.4943],[104.1428,-3.4944],[104.1447,-3.496],[104.1417,-3.5059],[104.1368,-3.5108],[104.1339,-3.5181],[104.1276,-3.5221],[104.0921,-3.5177],[104.0812,-3.5228]]]}},{"type":"Feature","properties":{"name":"AurDuri","name_en":"AurDuri","admin_level":"7","osm_id":""},"geometry":{"type":"Polygon","coordinates":[[[103.938,-3.6784],[103.9397,-3.6599],[103.9443,-3.6509],[103.9586,-3.6097],[103.9624,-3.6051],[103.964,-3.5909],[103.9613,-3.572],[103.9636,-3.5522],[103.9909,-3.5531],[103.9945,-3.5584],[103.9936,-3.5605],[103.9957,-3.5605],[103.9971,-3.5631],[103.9935,-3.5665],[103.9967,-3.5725],[103.9959,-3.5775],[103.9972,-3.5785],[103.9936,-3.5837],[103.9964,-3.5853],[103.994,-3.5864],[103.9917,-3.5925],[103.99,-3.5933],[103.9916,-3.5952],[103.9908,-3.5968],[103.9938,-3.5993],[103.9904,-3.6021],[103.991,-3.6084],[103.9884,-3.608],[103.9875,-3.6111],[103.9851,-3.6108],[103.9828,-3.6134],[103.9832,-3.6156],[103.981,-3.616],[103.9788,-3.6198],[103.977,-3.6193],[103.9752,-3.6209],[103.9748,-3.6232],[103.9777,-3.6241],[103.9774,-3.6299],[103.9794,-3.6318],[103.9755,-3.6353],[103.9733,-3.6345],[103.9728,-3.6377],[103.9736,-3.6404],[103.9797,-3.6464],[103.9757,-3.6469],[103.9758,-3.6557],[103.9664,-3.6623],[103.9666,-3.6661],[103.9643,-3.6644],[103.9634,-3.6691],[103.9507,-3.6698],[103.9466,-3.6753],[103.9438,-3.675],[103.9423,-3.6785],[103.938,-3.6784]]]}},{"type":"Feature","properties":{"name":"Banuayu","name_en":"Banuayu","admin_level":"7","osm_id":""},"geometry":{"type":"Polygon","coordinates":[[[104.0431,-3.4188],[104.0187,-3.4137],[104.0217,-3.3949],[104.0233,-3.3647],[104.0248,-3.3625],[104.0274,-3.3642],[104.0357,-3.3648],[104.0399,-3.3635],[104.0552,-3.3634],[104.0555,-3.3932],[104.0537,-3.3984],[104.0569,-3.4143],[104.0527,-3.4162],[104.0486,-3.4144],[104.048,-3.4119],[104.051,-3.4084],[104.0505,-3.4063],[104.0473,-3.4073],[104.045,-3.4095],[104.0431,-3.4188]]]}},{"type":"Feature","properties":{"name":"BatuRaja","name_en":"BatuRaja","admin_level":"7","osm_id":""},"geometry":{"type":"Polygon","coordinates":[[[104.0555,-3.3932],[104.0552,-3.3634],[104.0718,-3.363],[104.072,-3.3859],[104.0753,-3.3897],[104.0754,-3.3936],[104.0708,-3.3948],[104.0637,-3.3918],[104.0555,-3.3932]]]}},{"type":"Feature","properties":{"name":"Dangku","name_en":"Dangku","admin_level":"7","osm_id":""},"geometry":{"type":"Polygon","coordinates":[[[104.0728,-3.3839],[104.0718,-3.363],[104.0864,-3.3619],[104.0894,-3.3661],[104.1131,-3.3665],[104.1169,-3.3693],[104.1124,-3.3833],[104.1076,-3.3855],[104.0984,-3.3869],[104.0966,-3.3852],[104.094,-3.388],[104.0893,-3.3833],[104.0818,-3.3814],[104.0728,-3.3839]]]}},{"type":"Feature","properties":{"name":"Gemawang","name_en":"Gemawang","admin_level":"7","osm_id":""},"geometry":{"type":"Polygon","coordinates":[[[103.9275,-3.6942],[103.9278,-3.6853],[103.9302,-3.682],[103.938,-3.6784],[103.9423,-3.6785],[103.9438,-3.675],[103.9466,-3.6753],[103.9507,-3.6698],[103.9634,-3.6691],[103.9643,-3.6644],[103.9666,-3.6661],[103.9664,-3.6623],[103.9758,-3.6557],[103.9757,-3.6469],[103.9797,-3.6464],[103.9736,-3.6404],[103.9728,-3.6377],[103.9733,-3.6345],[103.9755,-3.6353],[103.9794,-3.6318],[103.9774,-3.6299],[103.9777,-3.6241],[103.9748,-3.6232],[103.9752,-3.6209],[103.977,-3.6193],[103.9788,-3.6198],[103.981,-3.616],[103.9832,-3.6156],[103.9828,-3.6134],[103.9851,-3.6108],[103.9875,-3.6111],[103.9884,-3.608],[103.991,-3.6084],[103.9904,-3.6021],[103.9938,-3.5993],[103.9908,-3.5968],[103.9916,-3.5952],[103.99,-3.5933],[103.9917,-3.5925],[103.994,-3.5864],[103.9964,-3.5853],[103.9936,-3.5837],[103.9939,-3.5822],[103.9965,-3.5807],[104.0792,-3.5844],[104.0826,-3.5949],[104.0804,-3.5962],[104.0801,-3.5998],[104.084,-3.6025],[104.086,-3.607],[104.084,-3.6125],[104.0789,-3.6138],[104.0754,-3.6291],[104.0671,-3.6374],[104.0661,-3.6581],[104.0611,-3.6622],[104.063,-3.6778],[104.0528,-3.6925],[104.0521,-3.696],[104.0536,-3.6986],[104.0452,-3.7157],[104.0419,-3.7178],[104.0369,-3.7174],[104.0353,-3.7198],[103.9275,-3.6942]]]}},{"type":"Feature","properties":{"name":"Gerinam","name_en":"Gerinam","admin_level":"7","osm_id":""},"geometry":{"type":"Polygon","coordinates":[[[104.0376,-3.4476],[104.0359,-3.4277],[104.0749,-3.4288],[104.0765,-3.4479],[104.0668,-3.4495],[104.0376,-3.4476]]]}},{"type":"Feature","properties":{"name":"GunungRaja","name_en":"GunungRaja","admin_level":"7","osm_id":""},"geometry":{"type":"Polygon","coordinates":[[[104.1506,-3.4202],[104.1221,-3.4184],[104.0994,-3.4188],[104.0984,-3.4109],[104.0906,-3.3899],[104.0966,-3.3852],[104.0984,-3.3869],[104.1019,-3.3869],[104.1124,-3.3833],[104.1194,-3.3583],[104.1206,-3.3578],[104.1217,-3.3631],[104.1234,-3.3644],[104.1271,-3.3634],[104.1313,-3.3588],[104.1319,-3.3783],[104.1515,-3.3961],[104.1506,-3.4202]]]}},{"type":"Feature","properties":{"name":"Jemenang","name_en":"Jemenang","admin_level":"7","osm_id":""},"geometry":{"type":"Polygon","coordinates":[[[104.0862,-3.5393],[104.0148,-3.535],[104.0212,-3.5162],[104.0354,-3.5004],[104.0236,-3.4855],[104.0253,-3.4836],[104.0274,-3.484],[104.0305,-3.4805],[104.0321,-3.4818],[104.0333,-3.478],[104.0371,-3.4772],[104.0484,-3.479],[104.0534,-3.4703],[104.0708,-3.4731],[104.0669,-3.4828],[104.0729,-3.5031],[104.0803,-3.5174],[104.0803,-3.5286],[104.0822,-3.5363],[104.0862,-3.5393]]]}},{"type":"Feature","properties":{"name":"KasihDewa","name_en":"KasihDewa","admin_level":"7","osm_id":""},"geometry":{"type":"Polygon","coordinates":[[[104.0262,-3.4624],[104.0316,-3.4588],[104.0746,-3.4637],[104.0708,-3.4731],[104.0255,-3.466],[104.0262,-3.4624]]]}},{"type":"Feature","properties":{"name":"Kuripan","name_en":"Kuripan","admin_level":"7","osm_id":""},"geometry":{"type":"Polygon","coordinates":[[[104.0569,-3.4143],[104.0537,-3.3984],[104.0555,-3.3932],[104.0637,-3.3918],[104.0737,-3.3946],[104.0743,-3.3983],[104.0765,-3.3994],[104.077,-3.4038],[104.0745,-3.4144],[104.0569,-3.4143]]]}},{"type":"Feature","properties":{"name":"KuripanBaru","name_en":"KuripanBaru","admin_level":"7","osm_id":""},"geometry":{"type":"Polygon","coordinates":[[[104.0994,-3.4188],[104.0758,-3.4322],[104.0745,-3.4144],[104.077,-3.4038],[104.0765,-3.3994],[104.0906,-3.3899],[104.0984,-3.4109],[104.0994,-3.4188]]]}},{"type":"Feature","properties":{"name":"LubukRaman","name_en":"LubukRaman","admin_level":"7","osm_id":""},"geometry":{"type":"Polygon","coordinates":[[[104.0759,-3.4535],[104.1086,-3.4489],[104.1385,-3.4508],[104.1361,-3.4543],[104.1357,-3.458],[104.14,-3.4666],[104.1397,-3.471],[104.1334,-3.4856],[104.1285,-3.4915],[104.1366,-3.492],[104.1427,-3.49],[104.1428,-3.4944],[104.0917,-3.4943],[104.0915,-3.4838],[104.0669,-3.4831],[104.0747,-3.4636],[104.0759,-3.4535]]]}},{"type":"Feature","properties":{"name":"ManunggalJaya","name_en":"ManunggalJaya","admin_level":"7","osm_id":""},"geometry":{"type":"Polygon","coordinates":[[[103.9649,-3.5216],[103.9671,-3.5121],[104.0025,-3.513],[103.9901,-3.5322],[103.9887,-3.5371],[103.9932,-3.5428],[103.9909,-3.5531],[103.9636,-3.5522],[103.9619,-3.5309],[103.9649,-3.5216]]]}},{"type":"Feature","properties":{"name":"ManunggalMakmur","name_en":"ManunggalMakmur","admin_level":"7","osm_id":""},"geometry":{"type":"Polygon","coordinates":[[[104.037,-3.5369],[104.0326,-3.5825],[103.9965,-3.5807],[103.9967,-3.5725],[103.9935,-3.5665],[103.9971,-3.5631],[103.9957,-3.5605],[103.9936,-3.5605],[103.9945,-3.5584],[103.9909,-3.5531],[103.9932,-3.5428],[103.9887,-3.5371],[103.9901,-3.5322],[104.037,-3.5369]]]}},{"type":"Feature","properties":{"name":"MuaraEmburung","name_en":"MuaraEmburung","admin_level":"7","osm_id":""},"geometry":{"type":"Polygon","coordinates":[[[104.0025,-3.513],[104.0097,-3.502],[104.0202,-3.4824],[104.0354,-3.5004],[104.0212,-3.5162],[104.0148,-3.535],[103.9901,-3.5322],[104.0025,-3.513]]]}},{"type":"Feature","properties":{"name":"MuaraNiru","name_en":"MuaraNiru","admin_level":"7","osm_id":""},"geometry":{"type":"Polygon","coordinates":[[[104.0359,-3.4277],[104.0411,-3.4225],[104.0443,-3.416],[104.045,-3.4095],[104.0473,-3.4073],[104.0505,-3.4063],[104.051,-3.4084],[104.048,-3.4119],[104.0486,-3.4144],[104.0527,-3.4162],[104.0569,-3.4143],[104.0745,-3.4144],[104.0759,-3.4275],[104.0749,-3.4288],[104.0359,-3.4277]]]}},{"type":"Feature","properties":{"name":"PangkalanBabat","name_en":"PangkalanBabat","admin_level":"7","osm_id":""},"geometry":{"type":"Polygon","coordinates":[[[104.0737,-3.3946],[104.0759,-3.3915],[104.072,-3.3859],[104.0728,-3.3839],[104.0818,-3.3814],[104.0893,-3.3833],[104.094,-3.388],[104.0765,-3.3994],[104.0743,-3.3983],[104.0737,-3.3946]]]}},{"type":"Feature","properties":{"name":"Siku","name_en":"Siku","admin_level":"7","osm_id":""},"geometry":{"type":"Polygon","coordinates":[[[104.1095,-3.3662],[104.1082,-3.3674],[104.0894,-3.3661],[104.0864,-3.3619],[104.0937,-3.3535],[104.1095,-3.3662]]]}},{"type":"Feature","properties":{"name":"SubanJeriji","name_en":"SubanJeriji","admin_level":"7","osm_id":""},"geometry":{"type":"Polygon","coordinates":[[[103.9159,-3.7334],[103.9153,-3.7276],[103.9198,-3.7096],[103.919,-3.7052],[103.9265,-3.6987],[103.9275,-3.6942],[104.0353,-3.7198],[104.0334,-3.7337],[104.0315,-3.7352],[104.0327,-3.7402],[104.0306,-3.7435],[104.0306,-3.75],[104.0272,-3.7556],[104.025,-3.7556],[104.0215,-3.762],[104.0173,-3.7627],[104.0151,-3.7725],[104.0192,-3.7754],[104.0188,-3.777],[104.0144,-3.7803],[104.0137,-3.7841],[104.009,-3.7873],[104.0061,-3.7987],[104.0086,-3.8072],[104.0048,-3.8251],[103.9922,-3.8484],[103.9792,-3.8675],[103.9725,-3.8689],[103.9602,-3.8668],[103.9458,-3.8555],[103.9444,-3.8453],[103.9467,-3.8345],[103.9493,-3.8328],[103.9485,-3.8234],[103.951,-3.8201],[103.9509,-3.8162],[103.9561,-3.8109],[103.9588,-3.805],[103.9568,-3.8026],[103.9556,-3.7966],[103.9446,-3.7786],[103.9406,-3.7664],[103.9367,-3.7604],[103.9279,-3.7541],[103.9248,-3.7443],[103.9168,-3.7362],[103.9159,-3.7334]]]}},{"type":"Feature","properties":{"name":"TanjungMenang","name_en":"TanjungMenang","admin_level":"7","osm_id":""},"geometry":{"type":"Polygon","coordinates":[[[103.994,-3.4663],[103.9998,-3.4566],[104.0049,-3.4595],[104.0087,-3.4574],[104.0213,-3.4604],[104.0262,-3.4624],[104.0255,-3.466],[104.0534,-3.4703],[104.0484,-3.479],[104.0371,-3.4772],[104.0333,-3.478],[104.0321,-3.4818],[104.0305,-3.4805],[104.0233,-3.486],[104.0203,-3.4822],[103.9857,-3.4803],[103.994,-3.4663]]]}},{"type":"Feature","properties":{"name":"TebatAgung","name_en":"TebatAgung","admin_level":"7","osm_id":""},"geometry":{"type":"Polygon","coordinates":[[[104.0316,-3.4588],[104.0349,-3.4565],[104.0376,-3.4476],[104.0668,-3.4495],[104.0765,-3.4479],[104.0746,-3.4637],[104.0316,-3.4588]]]}}]}