{"type":"FeatureCollection","metadata":{"parent_osm_id":"gid_IDN_8_3_6_1","parent_name":"PasarJambi","parent_name_1":"Jambi","parent_gid":"IDN.8.3.6_1","parent_level":"6","child_level":"7","count":4,"source":"GADM 4.1","generated":"2026-05-09"},"features":[{"type":"Feature","properties":{"name":"Beringin","name_en":"Beringin","admin_level":"7","osm_id":""},"geometry":{"type":"Polygon","coordinates":[[[103.6117,-1.6007],[103.6083,-1.5987],[103.6063,-1.6001],[103.6102,-1.5917],[103.6097,-1.5878],[103.6127,-1.5878],[103.6131,-1.5891],[103.6117,-1.6007]]]}},{"type":"Feature","properties":{"name":"OrangKayoHitam","name_en":"OrangKayoHitam","admin_level":"7","osm_id":""},"geometry":{"type":"Polygon","coordinates":[[[103.6177,-1.5934],[103.6156,-1.5945],[103.6122,-1.5937],[103.6127,-1.5878],[103.6177,-1.5934]]]}},{"type":"Feature","properties":{"name":"PasarJambi","name_en":"PasarJambi","admin_level":"7","osm_id":""},"geometry":{"type":"Polygon","coordinates":[[[103.6157,-1.5864],[103.6189,-1.59],[103.6177,-1.5934],[103.6156,-1.5925],[103.6134,-1.5877],[103.6157,-1.5864]]]}},{"type":"Feature","properties":{"name":"SungaiAsam","name_en":"SungaiAsam","admin_level":"7","osm_id":""},"geometry":{"type":"Polygon","coordinates":[[[103.6177,-1.5938],[103.6207,-1.5978],[103.6183,-1.6023],[103.6162,-1.5994],[103.6117,-1.6007],[103.6122,-1.5937],[103.6177,-1.5938]]]}}]}