{"type":"FeatureCollection","metadata":{"parent_osm_id":"gid_IDN_29_12_1_1","parent_name":"Airmadidi","parent_name_1":"SulawesiUtara","parent_gid":"IDN.29.12.1_1","parent_level":"6","child_level":"7","count":9,"source":"GADM 4.1","generated":"2026-05-09"},"features":[{"type":"Feature","properties":{"name":"AirmadidiAtas","name_en":"AirmadidiAtas","admin_level":"7","osm_id":""},"geometry":{"type":"Polygon","coordinates":[[[124.9898,1.4084],[124.9866,1.4113],[124.9861,1.4193],[124.9792,1.4242],[124.9819,1.4279],[124.9783,1.432],[124.9714,1.4474],[124.9702,1.4556],[124.9744,1.4574],[124.9733,1.4614],[124.9872,1.4602],[124.9947,1.4639],[125.0103,1.4529],[125.0302,1.4545],[125.0308,1.4529],[125.025,1.4435],[125.02,1.4387],[125.0111,1.4249],[124.9968,1.4114],[124.9898,1.4084]]]}},{"type":"Feature","properties":{"name":"AirmadidiBawah","name_en":"AirmadidiBawah","admin_level":"7","osm_id":""},"geometry":{"type":"Polygon","coordinates":[[[124.9792,1.4242],[124.9861,1.4193],[124.9866,1.4113],[124.9898,1.4084],[124.9875,1.4043],[124.983,1.4016],[124.9686,1.414],[124.9666,1.4195],[124.9758,1.4201],[124.9782,1.4248],[124.9792,1.4242]]]}},{"type":"Feature","properties":{"name":"Rap-rap","name_en":"Rap-rap","admin_level":"7","osm_id":""},"geometry":{"type":"Polygon","coordinates":[[[124.9774,1.4236],[124.9758,1.4201],[124.9723,1.4191],[124.9562,1.4181],[124.9602,1.4307],[124.9663,1.4339],[124.9735,1.4295],[124.9774,1.4236]]]}},{"type":"Feature","properties":{"name":"Sampiri","name_en":"Sampiri","admin_level":"7","osm_id":""},"geometry":{"type":"Polygon","coordinates":[[[124.9505,1.4058],[124.9498,1.3948],[124.9457,1.3864],[124.9339,1.3824],[124.9347,1.3913],[124.9303,1.392],[124.9272,1.3951],[124.9197,1.3985],[124.9198,1.4078],[124.9169,1.416],[124.9505,1.4058]]]}},{"type":"Feature","properties":{"name":"SarongsongDua","name_en":"SarongsongDua","admin_level":"7","osm_id":""},"geometry":{"type":"Polygon","coordinates":[[[124.974,1.4413],[124.9779,1.4332],[124.9727,1.4293],[124.9662,1.4339],[124.974,1.4413]]]}},{"type":"Feature","properties":{"name":"SarongsongSatu","name_en":"SarongsongSatu","admin_level":"7","osm_id":""},"geometry":{"type":"Polygon","coordinates":[[[124.9779,1.4332],[124.9819,1.4279],[124.9774,1.4236],[124.9734,1.4296],[124.9779,1.4332]]]}},{"type":"Feature","properties":{"name":"Sawangan","name_en":"Sawangan","admin_level":"7","osm_id":""},"geometry":{"type":"Polygon","coordinates":[[[124.9686,1.414],[124.983,1.4016],[124.9821,1.3999],[124.9852,1.397],[124.9801,1.3899],[124.9792,1.384],[124.9761,1.3821],[124.9744,1.3777],[124.9642,1.3648],[124.9339,1.3824],[124.9457,1.3864],[124.9485,1.3913],[124.9509,1.4131],[124.9686,1.414]]]}},{"type":"Feature","properties":{"name":"Sukur","name_en":"Sukur","admin_level":"7","osm_id":""},"geometry":{"type":"Polygon","coordinates":[[[124.9733,1.4614],[124.9744,1.4574],[124.9702,1.4556],[124.974,1.4413],[124.9692,1.4359],[124.9602,1.4307],[124.9561,1.4195],[124.9562,1.4181],[124.9595,1.4179],[124.9666,1.4195],[124.9686,1.414],[124.9509,1.4131],[124.9506,1.4207],[124.9529,1.4252],[124.951,1.4428],[124.958,1.4621],[124.9591,1.4644],[124.9666,1.4607],[124.9709,1.4622],[124.9733,1.4614]]]}},{"type":"Feature","properties":{"name":"Tanggari","name_en":"Tanggari","admin_level":"7","osm_id":""},"geometry":{"type":"Polygon","coordinates":[[[124.9339,1.3824],[124.9642,1.3648],[124.9631,1.358],[124.974,1.3484],[124.9736,1.3421],[124.977,1.3385],[124.977,1.3335],[124.9673,1.3212],[124.9648,1.3202],[124.951,1.3322],[124.9391,1.3385],[124.9341,1.3475],[124.9164,1.3513],[124.9182,1.3577],[124.9301,1.3726],[124.9339,1.3824]]]}}]}