{"type":"FeatureCollection","metadata":{"parent_osm_id":"18202215","parent_name":"Cigedug","parent_name_1":"JawaBarat","parent_gid":"IDN.9.11.10_1","parent_level":"6","child_level":"7","count":5,"source":"GADM 4.1","generated":"2026-05-09"},"features":[{"type":"Feature","properties":{"name":"Barusuda","name_en":"Barusuda","admin_level":"7","osm_id":""},"geometry":{"type":"Polygon","coordinates":[[[107.8599,-7.3226],[107.8579,-7.3293],[107.8587,-7.3353],[107.8461,-7.3472],[107.8425,-7.3478],[107.8373,-7.3519],[107.8305,-7.3611],[107.8196,-7.3629],[107.8171,-7.3652],[107.8175,-7.3588],[107.8112,-7.3579],[107.8093,-7.3548],[107.8079,-7.3557],[107.8074,-7.354],[107.8068,-7.3553],[107.8049,-7.3539],[107.803,-7.3497],[107.8063,-7.3478],[107.8107,-7.3505],[107.8291,-7.3401],[107.8457,-7.3386],[107.8544,-7.3304],[107.8599,-7.3226]]]}},{"type":"Feature","properties":{"name":"Cigedug","name_en":"Cigedug","admin_level":"7","osm_id":""},"geometry":{"type":"Polygon","coordinates":[[[107.8599,-7.3226],[107.8544,-7.3304],[107.8457,-7.3386],[107.8291,-7.3401],[107.817,-7.348],[107.8102,-7.3506],[107.8046,-7.3461],[107.8054,-7.344],[107.8035,-7.3385],[107.7988,-7.332],[107.801,-7.3297],[107.805,-7.3329],[107.81,-7.3337],[107.8273,-7.3323],[107.8524,-7.3276],[107.8599,-7.3226]]]}},{"type":"Feature","properties":{"name":"Cintanagara","name_en":"Cintanagara","admin_level":"7","osm_id":""},"geometry":{"type":"Polygon","coordinates":[[[107.8085,-7.2852],[107.809,-7.2868],[107.8162,-7.2882],[107.8318,-7.3084],[107.8373,-7.3131],[107.8462,-7.3185],[107.8599,-7.3226],[107.8542,-7.3231],[107.8294,-7.3157],[107.8184,-7.3097],[107.8099,-7.3012],[107.8046,-7.299],[107.8066,-7.2983],[107.8065,-7.2952],[107.808,-7.294],[107.8052,-7.2895],[107.804,-7.2899],[107.8085,-7.2852]]]}},{"type":"Feature","properties":{"name":"Sindangsari","name_en":"Sindangsari","admin_level":"7","osm_id":""},"geometry":{"type":"Polygon","coordinates":[[[107.8599,-7.3226],[107.8584,-7.3239],[107.8486,-7.3247],[107.8158,-7.3219],[107.805,-7.3164],[107.8044,-7.3116],[107.8063,-7.3059],[107.805,-7.3056],[107.8061,-7.3049],[107.8052,-7.3003],[107.8099,-7.3012],[107.8184,-7.3097],[107.8285,-7.3155],[107.8542,-7.3231],[107.8599,-7.3226]]]}},{"type":"Feature","properties":{"name":"Sukahurip","name_en":"Sukahurip","admin_level":"7","osm_id":""},"geometry":{"type":"Polygon","coordinates":[[[107.8584,-7.3239],[107.8468,-7.3292],[107.8162,-7.3335],[107.805,-7.3329],[107.801,-7.3297],[107.8012,-7.3278],[107.8026,-7.3276],[107.8022,-7.3247],[107.8043,-7.3249],[107.8037,-7.322],[107.8051,-7.3216],[107.8036,-7.3199],[107.805,-7.3164],[107.8163,-7.3221],[107.8222,-7.3229],[107.8303,-7.3224],[107.8486,-7.3247],[107.8584,-7.3239]]]}}]}