{"type":"FeatureCollection","metadata":{"parent_osm_id":"9680033","parent_name":"Taman","parent_name_1":"JawaTimur","parent_gid":"IDN.11.13.3_1","parent_level":"6","child_level":"7","count":9,"source":"GADM 4.1","generated":"2026-05-09"},"features":[{"type":"Feature","properties":{"name":"Banjarejo","name_en":"Banjarejo","admin_level":"7","osm_id":""},"geometry":{"type":"Polygon","coordinates":[[[111.5333,-7.6602],[111.5297,-7.6587],[111.5255,-7.6519],[111.5259,-7.6503],[111.528,-7.6508],[111.5287,-7.648],[111.5323,-7.6516],[111.5362,-7.6468],[111.539,-7.6486],[111.5388,-7.6511],[111.5415,-7.6518],[111.5424,-7.6573],[111.5415,-7.6592],[111.5333,-7.6602]]]}},{"type":"Feature","properties":{"name":"Demangan","name_en":"Demangan","admin_level":"7","osm_id":""},"geometry":{"type":"Polygon","coordinates":[[[111.5259,-7.6503],[111.5254,-7.6522],[111.5281,-7.6548],[111.5275,-7.6563],[111.5333,-7.6601],[111.5329,-7.6633],[111.5261,-7.6641],[111.5197,-7.6616],[111.513,-7.6612],[111.5138,-7.6582],[111.5214,-7.6586],[111.5205,-7.6491],[111.5229,-7.6511],[111.5237,-7.6497],[111.5259,-7.6503]]]}},{"type":"Feature","properties":{"name":"Josenan","name_en":"Josenan","admin_level":"7","osm_id":""},"geometry":{"type":"Polygon","coordinates":[[[111.5125,-7.6504],[111.5147,-7.6497],[111.5178,-7.6519],[111.5182,-7.6482],[111.5205,-7.6491],[111.5214,-7.6586],[111.5152,-7.6582],[111.5162,-7.6547],[111.5124,-7.6545],[111.5115,-7.6579],[111.5138,-7.6582],[111.5123,-7.661],[111.5099,-7.6577],[111.5125,-7.6504]]]}},{"type":"Feature","properties":{"name":"Kejuron","name_en":"Kejuron","admin_level":"7","osm_id":""},"geometry":{"type":"Polygon","coordinates":[[[111.5032,-7.6342],[111.5025,-7.6362],[111.5081,-7.6369],[111.5074,-7.641],[111.5032,-7.6392],[111.4998,-7.6396],[111.4997,-7.6408],[111.4971,-7.6401],[111.4981,-7.6396],[111.4959,-7.6371],[111.4981,-7.6342],[111.5032,-7.6342]]]}},{"type":"Feature","properties":{"name":"Kuncen","name_en":"Kuncen","admin_level":"7","osm_id":""},"geometry":{"type":"Polygon","coordinates":[[[111.5148,-7.6582],[111.5115,-7.6579],[111.5124,-7.6545],[111.5162,-7.6547],[111.5148,-7.6582]]]}},{"type":"Feature","properties":{"name":"Manisrejo","name_en":"Manisrejo","admin_level":"7","osm_id":""},"geometry":{"type":"Polygon","coordinates":[[[111.5395,-7.6377],[111.5434,-7.6383],[111.5446,-7.6347],[111.5508,-7.6361],[111.5514,-7.642],[111.546,-7.6476],[111.5397,-7.6463],[111.539,-7.6486],[111.5351,-7.6463],[111.5395,-7.6377]]]}},{"type":"Feature","properties":{"name":"Mojorejo","name_en":"Mojorejo","admin_level":"7","osm_id":""},"geometry":{"type":"Polygon","coordinates":[[[111.5393,-7.6337],[111.5381,-7.6335],[111.5374,-7.6368],[111.5395,-7.6379],[111.5367,-7.6446],[111.5298,-7.6434],[111.5288,-7.6404],[111.5309,-7.6404],[111.5303,-7.6376],[111.5327,-7.6342],[111.5285,-7.6335],[111.5282,-7.6318],[111.5331,-7.6326],[111.5361,-7.6295],[111.5394,-7.6314],[111.5393,-7.6337]]]}},{"type":"Feature","properties":{"name":"Pandean","name_en":"Pandean","admin_level":"7","osm_id":""},"geometry":{"type":"Polygon","coordinates":[[[111.5362,-7.6473],[111.5323,-7.6516],[111.5287,-7.648],[111.528,-7.6508],[111.523,-7.6494],[111.5227,-7.6461],[111.5252,-7.6465],[111.5255,-7.6452],[111.5291,-7.6471],[111.5298,-7.6434],[111.533,-7.6435],[111.5362,-7.6473]]]}},{"type":"Feature","properties":{"name":"Taman","name_en":"Taman","admin_level":"7","osm_id":""},"geometry":{"type":"Polygon","coordinates":[[[111.5214,-7.6496],[111.5195,-7.6394],[111.5221,-7.6379],[111.5223,-7.6333],[111.5245,-7.6335],[111.5253,-7.6358],[111.531,-7.6359],[111.5309,-7.6404],[111.5288,-7.6404],[111.5301,-7.642],[111.5291,-7.6471],[111.5255,-7.6452],[111.5252,-7.6465],[111.5227,-7.6459],[111.5237,-7.6498],[111.5214,-7.6496]]]}}]}