{"type":"FeatureCollection","metadata":{"parent_osm_id":"gid_IDN_11_19_21_1","parent_name":"Yosowilangun","parent_name_1":"JawaTimur","parent_gid":"IDN.11.19.21_1","parent_level":"6","child_level":"7","count":12,"source":"GADM 4.1","generated":"2026-05-07"},"features":[{"type":"Feature","properties":{"name":"Darungan","name_en":"Darungan","admin_level":"7","osm_id":""},"geometry":{"type":"Polygon","coordinates":[[[113.2429,-8.2702],[113.2447,-8.2596],[113.2423,-8.2584],[113.2425,-8.2559],[113.2405,-8.2547],[113.246,-8.2556],[113.2523,-8.2368],[113.2634,-8.2398],[113.2652,-8.2423],[113.2649,-8.2482],[113.2612,-8.2575],[113.2572,-8.2603],[113.2475,-8.273],[113.2429,-8.2702]]]}},{"type":"Feature","properties":{"name":"Kalipepe","name_en":"Kalipepe","admin_level":"7","osm_id":""},"geometry":{"type":"Polygon","coordinates":[[[113.3052,-8.2008],[113.307,-8.2059],[113.306,-8.2191],[113.3075,-8.2191],[113.3108,-8.228],[113.3058,-8.2283],[113.3049,-8.227],[113.3035,-8.2297],[113.2954,-8.2294],[113.2954,-8.2274],[113.2937,-8.2272],[113.2935,-8.223],[113.2891,-8.2229],[113.2896,-8.2033],[113.2915,-8.2009],[113.2982,-8.1993],[113.3009,-8.2016],[113.304,-8.2],[113.3052,-8.2008]]]}},{"type":"Feature","properties":{"name":"Karangayar","name_en":"Karangayar","admin_level":"7","osm_id":""},"geometry":{"type":"Polygon","coordinates":[[[113.2618,-8.2317],[113.2585,-8.23],[113.2609,-8.2206],[113.2686,-8.2236],[113.2713,-8.2286],[113.2696,-8.2311],[113.2682,-8.2301],[113.2618,-8.2317]]]}},{"type":"Feature","properties":{"name":"Karangrejo","name_en":"Karangrejo","admin_level":"7","osm_id":""},"geometry":{"type":"Polygon","coordinates":[[[113.2585,-8.23],[113.2554,-8.2284],[113.2558,-8.2231],[113.254,-8.222],[113.2554,-8.2178],[113.253,-8.2119],[113.264,-8.215],[113.2644,-8.2133],[113.2672,-8.2125],[113.2717,-8.2144],[113.2702,-8.2205],[113.2735,-8.221],[113.2733,-8.2258],[113.2696,-8.2267],[113.2701,-8.2248],[113.2686,-8.2236],[113.2609,-8.2206],[113.2585,-8.23]]]}},{"type":"Feature","properties":{"name":"Kebonsari","name_en":"Kebonsari","admin_level":"7","osm_id":""},"geometry":{"type":"Polygon","coordinates":[[[113.2768,-8.2054],[113.2812,-8.2094],[113.2818,-8.2017],[113.2843,-8.2018],[113.2851,-8.2099],[113.2897,-8.2104],[113.2901,-8.2119],[113.2891,-8.2229],[113.2935,-8.223],[113.2937,-8.2277],[113.2873,-8.2271],[113.2872,-8.2117],[113.2806,-8.2112],[113.28,-8.2157],[113.2764,-8.2149],[113.2768,-8.2054]]]}},{"type":"Feature","properties":{"name":"Krai","name_en":"Krai","admin_level":"7","osm_id":""},"geometry":{"type":"Polygon","coordinates":[[[113.2633,-8.2399],[113.2636,-8.2351],[113.2612,-8.2337],[113.2618,-8.2317],[113.2682,-8.2301],[113.2696,-8.2311],[113.2714,-8.2254],[113.2797,-8.2277],[113.2805,-8.2291],[113.2787,-8.2318],[113.28,-8.235],[113.2787,-8.2372],[113.2822,-8.2392],[113.2832,-8.2486],[113.2867,-8.2495],[113.2857,-8.2538],[113.2891,-8.2553],[113.2846,-8.262],[113.2736,-8.2598],[113.2745,-8.2575],[113.265,-8.2558],[113.2625,-8.2535],[113.2652,-8.2452],[113.2633,-8.2399]]]}},{"type":"Feature","properties":{"name":"Kraton","name_en":"Kraton","admin_level":"7","osm_id":""},"geometry":{"type":"Polygon","coordinates":[[[113.2475,-8.273],[113.2572,-8.2603],[113.2604,-8.2587],[113.2625,-8.2535],[113.265,-8.2558],[113.2745,-8.2575],[113.2719,-8.2782],[113.259,-8.2736],[113.2475,-8.273]]]}},{"type":"Feature","properties":{"name":"Munder","name_en":"Munder","admin_level":"7","osm_id":""},"geometry":{"type":"Polygon","coordinates":[[[113.2741,-8.2044],[113.2768,-8.2054],[113.2759,-8.2127],[113.2773,-8.2156],[113.28,-8.2157],[113.2806,-8.2112],[113.2872,-8.2117],[113.2875,-8.2301],[113.2906,-8.2302],[113.2921,-8.2343],[113.2912,-8.2511],[113.2892,-8.2554],[113.2857,-8.2538],[113.2867,-8.2495],[113.2832,-8.2486],[113.2822,-8.2392],[113.2787,-8.2372],[113.2802,-8.2283],[113.2733,-8.2259],[113.2735,-8.221],[113.2702,-8.2205],[113.2741,-8.2044]]]}},{"type":"Feature","properties":{"name":"Tunjungrejo","name_en":"Tunjungrejo","admin_level":"7","osm_id":""},"geometry":{"type":"Polygon","coordinates":[[[113.3078,-8.2874],[113.2863,-8.2811],[113.2905,-8.2637],[113.3013,-8.2668],[113.3027,-8.2613],[113.3114,-8.2628],[113.3088,-8.2747],[113.3113,-8.2755],[113.308,-8.2812],[113.3078,-8.2874]]]}},{"type":"Feature","properties":{"name":"Wotgalih","name_en":"Wotgalih","admin_level":"7","osm_id":""},"geometry":{"type":"Polygon","coordinates":[[[113.3119,-8.2924],[113.3086,-8.3006],[113.3034,-8.3075],[113.2824,-8.2962],[113.26,-8.2886],[113.2421,-8.2846],[113.2434,-8.2779],[113.2412,-8.274],[113.2429,-8.2702],[113.2462,-8.2726],[113.259,-8.2736],[113.2719,-8.2782],[113.2743,-8.26],[113.2846,-8.262],[113.2905,-8.2637],[113.2863,-8.2811],[113.3073,-8.2871],[113.31,-8.2886],[113.3119,-8.2924]]]}},{"type":"Feature","properties":{"name":"YosowilangunKidul","name_en":"YosowilangunKidul","admin_level":"7","osm_id":""},"geometry":{"type":"Polygon","coordinates":[[[113.3152,-8.2427],[113.3153,-8.2485],[113.3201,-8.2623],[113.317,-8.2782],[113.3119,-8.2924],[113.3078,-8.2874],[113.308,-8.2812],[113.3113,-8.2755],[113.3088,-8.2747],[113.3114,-8.2628],[113.3019,-8.2609],[113.303,-8.2369],[113.3047,-8.2432],[113.3112,-8.2427],[113.3108,-8.2418],[113.3152,-8.2427]]]}},{"type":"Feature","properties":{"name":"YosowilangunLor","name_en":"YosowilangunLor","admin_level":"7","osm_id":""},"geometry":{"type":"Polygon","coordinates":[[[113.3127,-8.2315],[113.3117,-8.2336],[113.3155,-8.2381],[113.3154,-8.2418],[113.3047,-8.2432],[113.303,-8.2369],[113.3013,-8.255],[113.3027,-8.2613],[113.3013,-8.2668],[113.2846,-8.262],[113.2915,-8.249],[113.292,-8.2341],[113.2906,-8.2302],[113.2875,-8.2301],[113.2877,-8.2271],[113.2951,-8.2273],[113.2954,-8.2294],[113.3,-8.2296],[113.3035,-8.2297],[113.3049,-8.227],[113.3058,-8.2283],[113.3108,-8.228],[113.3127,-8.2315]]]}}]}