{"type":"FeatureCollection","metadata":{"parent_osm_id":"gid_IDN_22_6_9_1","parent_name":"SalawatiUtara","parent_name_1":"PapuaBarat","parent_gid":"IDN.22.6.9_1","parent_level":"6","child_level":"7","count":10,"source":"GADM 4.1","generated":"2026-05-09"},"features":[{"type":"Feature","properties":{"name":"Jefman","name_en":"Jefman","admin_level":"7","osm_id":""},"geometry":{"type":"Polygon","coordinates":[[[131.0926,-0.9528],[131.0942,-0.9461],[131.0987,-0.9406],[131.1083,-0.9363],[131.1079,-0.9402],[131.1038,-0.9435],[131.099,-0.9446],[131.0967,-0.9465],[131.095,-0.9522],[131.0926,-0.9528]]]}},{"type":"Feature","properties":{"name":"Kaliam","name_en":"Kaliam","admin_level":"7","osm_id":""},"geometry":{"type":"Polygon","coordinates":[[[130.7976,-0.9824],[130.7643,-1.1214],[130.7569,-1.1671],[130.7427,-1.1724],[130.7399,-1.1747],[130.734,-1.1844],[130.7342,-1.187],[130.7295,-1.1853],[130.7277,-1.1819],[130.7344,-1.1736],[130.7363,-1.1635],[130.7258,-1.1534],[130.7078,-1.141],[130.7036,-1.1353],[130.6946,-1.1316],[130.6976,-1.1226],[130.6788,-1.1106],[130.6924,-1.0944],[130.7077,-1.0979],[130.7141,-1.0984],[130.7172,-1.0967],[130.7194,-1.0903],[130.7182,-1.0873],[130.7154,-1.0857],[130.7075,-1.0876],[130.7087,-1.0851],[130.7185,-1.0799],[130.7181,-1.0779],[130.7158,-1.0776],[130.7146,-1.0754],[130.7104,-1.0748],[130.7012,-1.0676],[130.7016,-1.0646],[130.7079,-1.0603],[130.7069,-1.0556],[130.7055,-1.0533],[130.6975,-1.0514],[130.6943,-1.0479],[130.6853,-1.0265],[130.6794,-1.0234],[130.6768,-1.0142],[130.6738,-1.0116],[130.6621,-1.0081],[130.6499,-0.9966],[130.6433,-0.9928],[130.635,-0.9795],[130.6358,-0.9753],[130.6397,-0.9726],[130.6396,-0.9704],[130.6384,-0.967],[130.636,-0.9673],[130.6343,-0.9618],[130.636,-0.9602],[130.6434,-0.9604],[130.6483,-0.9551],[130.6846,-0.9531],[130.6914,-0.9511],[130.7051,-0.943],[130.7201,-0.9435],[130.7403,-0.9303],[130.7471,-0.9294],[130.7553,-0.9318],[130.7632,-0.9319],[130.7783,-0.929],[130.7798,-0.9371],[130.7978,-0.978],[130.7976,-0.9824]]]}},{"type":"Feature","properties":{"name":"Kalobo","name_en":"Kalobo","admin_level":"7","osm_id":""},"geometry":{"type":"Polygon","coordinates":[[[131.0617,-1.0072],[131.0706,-1.0092],[131.0788,-1.0036],[131.0833,-1.01],[131.0774,-1.0115],[131.08,-1.0145],[131.0771,-1.0222],[131.0769,-1.0305],[131.0717,-1.0421],[131.0647,-1.0443],[131.0633,-1.0517],[131.036,-1.0276],[131.0617,-1.0072]]]}},{"type":"Feature","properties":{"name":"Kapatlap","name_en":"Kapatlap","admin_level":"7","osm_id":""},"geometry":{"type":"Polygon","coordinates":[[[130.7643,-1.1214],[130.7975,-0.9846],[130.7978,-0.978],[130.822,-0.9646],[130.8528,-0.9575],[130.8926,-0.9523],[130.9163,-0.9371],[130.9258,-0.9329],[130.9359,-0.9425],[130.9449,-0.9403],[130.9502,-0.9337],[130.9549,-0.9325],[130.9592,-0.9366],[130.962,-0.9371],[130.9686,-0.9321],[130.9666,-0.931],[130.9694,-0.9262],[130.9764,-0.9245],[130.9831,-0.9192],[130.9853,-0.9194],[130.9872,-0.9232],[130.9905,-0.9256],[130.994,-0.9259],[131.0111,-0.9207],[131.0266,-0.9118],[131.0304,-0.9124],[131.038,-0.9202],[131.0401,-0.9275],[131.0477,-0.9287],[131.0527,-0.9383],[131.0505,-0.944],[131.055,-0.9481],[131.0078,-0.9587],[130.9982,-0.964],[130.9778,-0.9623],[130.9556,-0.9565],[130.9356,-0.9781],[130.8996,-1.0479],[130.859,-1.1461],[130.8355,-1.1975],[130.831,-1.1906],[130.8219,-1.1868],[130.8156,-1.1791],[130.8084,-1.1774],[130.7939,-1.1706],[130.7801,-1.1661],[130.772,-1.1679],[130.7569,-1.1671],[130.7643,-1.1214]]]}},{"type":"Feature","properties":{"name":"Sakabu","name_en":"Sakabu","admin_level":"7","osm_id":""},"geometry":{"type":"Polygon","coordinates":[[[131.0766,-1.0731],[131.0756,-1.0509],[131.0839,-1.0365],[131.0845,-1.0344],[131.0816,-1.0306],[131.0824,-1.0282],[131.0885,-1.0246],[131.0903,-1.0199],[131.1293,-1.0631],[131.1308,-1.067],[131.1266,-1.071],[131.1182,-1.0742],[131.1165,-1.0718],[131.1172,-1.0692],[131.112,-1.0602],[131.1086,-1.0587],[131.1126,-1.0656],[131.1116,-1.0694],[131.0996,-1.063],[131.0976,-1.0634],[131.1018,-1.0711],[131.1067,-1.072],[131.1091,-1.0741],[131.107,-1.0802],[131.105,-1.0809],[131.0948,-1.0794],[131.0943,-1.0743],[131.0918,-1.0737],[131.0851,-1.0752],[131.0817,-1.0789],[131.079,-1.0786],[131.0763,-1.0762],[131.0766,-1.0731]]]}},{"type":"Feature","properties":{"name":"Samate","name_en":"Samate","admin_level":"7","osm_id":""},"geometry":{"type":"Polygon","coordinates":[[[130.8355,-1.1975],[130.859,-1.1461],[130.8996,-1.0479],[130.9356,-0.9781],[130.9556,-0.9565],[130.9778,-0.9623],[130.9982,-0.964],[131.0078,-0.9587],[131.055,-0.9481],[131.0568,-0.95],[131.0561,-0.9615],[131.0653,-0.9635],[131.0696,-0.9676],[131.0778,-0.9667],[131.0778,-0.9753],[131.0754,-0.9806],[131.0672,-0.9796],[131.0641,-0.9851],[130.978,-1.015],[130.9317,-1.1825],[130.9219,-1.1926],[130.9181,-1.2014],[130.9027,-1.1974],[130.8918,-1.1971],[130.8853,-1.2012],[130.8734,-1.1983],[130.868,-1.1987],[130.8613,-1.2027],[130.8532,-1.2027],[130.8478,-1.2059],[130.8375,-1.2034],[130.8355,-1.1975]]]}},{"type":"Feature","properties":{"name":"Solol","name_en":"Solol","admin_level":"7","osm_id":""},"geometry":{"type":"Polygon","coordinates":[[[130.7978,-0.978],[130.7798,-0.9371],[130.7783,-0.929],[130.7825,-0.9263],[130.7848,-0.9305],[130.7905,-0.9307],[130.7972,-0.9176],[130.7967,-0.9155],[130.8053,-0.9138],[130.8121,-0.9087],[130.8186,-0.9108],[130.8259,-0.9077],[130.8304,-0.9021],[130.83,-0.8976],[130.8322,-0.897],[130.8379,-0.9014],[130.8402,-0.9016],[130.8459,-0.8964],[130.8484,-0.8978],[130.8504,-0.9026],[130.858,-0.9054],[130.8639,-0.8954],[130.8844,-0.897],[130.8955,-0.8907],[130.9003,-0.8914],[130.8974,-0.8956],[130.9005,-0.8988],[130.9084,-0.8949],[130.9182,-0.8953],[130.9185,-0.8903],[130.925,-0.8935],[130.9249,-0.8981],[130.9205,-0.9048],[130.9187,-0.9134],[130.9227,-0.9168],[130.9224,-0.9196],[130.9243,-0.9208],[130.9224,-0.9271],[130.9258,-0.9329],[130.9163,-0.9371],[130.8926,-0.9523],[130.8528,-0.9575],[130.822,-0.9646],[130.7978,-0.978]]]}},{"type":"Feature","properties":{"name":"Waibu","name_en":"Waibu","admin_level":"7","osm_id":""},"geometry":{"type":"Polygon","coordinates":[[[131.0493,-1.0393],[131.0633,-1.0517],[131.0603,-1.0687],[131.064,-1.0764],[131.0681,-1.0788],[131.0653,-1.0859],[131.0671,-1.0971],[131.0663,-1.1016],[131.0612,-1.1112],[131.0565,-1.1148],[131.052,-1.1233],[131.0497,-1.141],[131.0449,-1.154],[131.0417,-1.1693],[131.0439,-1.1807],[131.0433,-1.187],[131.0313,-1.1955],[131.0237,-1.1955],[131.007,-1.1839],[130.9986,-1.1812],[130.9794,-1.1835],[130.9592,-1.1744],[130.9461,-1.1775],[130.9404,-1.1812],[130.9317,-1.1825],[130.978,-1.015],[131.0093,-1.0042],[131.0493,-1.0393]]]}},{"type":"Feature","properties":{"name":"Waijan","name_en":"Waijan","admin_level":"7","osm_id":""},"geometry":{"type":"Polygon","coordinates":[[[131.0617,-1.0072],[131.036,-1.0276],[131.0093,-1.0042],[131.0641,-0.9851],[131.0625,-0.9934],[131.0633,-0.9972],[131.0599,-1.0001],[131.0625,-1.0035],[131.0587,-1.007],[131.0617,-1.0072]]]}},{"type":"Feature","properties":{"name":"Wamega","name_en":"Wamega","admin_level":"7","osm_id":""},"geometry":{"type":"Polygon","coordinates":[[[131.0902,-1.0167],[131.0903,-1.0048],[131.0937,-1.0001],[131.1084,-0.9978],[131.1191,-0.9986],[131.13,-0.9953],[131.1322,-0.997],[131.1389,-0.9939],[131.1431,-0.9956],[131.1449,-1.0001],[131.1437,-1.0023],[131.1382,-1.0044],[131.1393,-1.0067],[131.144,-1.0072],[131.1472,-1.0159],[131.1432,-1.0213],[131.1387,-1.022],[131.1373,-1.0239],[131.1318,-1.0221],[131.1289,-1.0269],[131.1303,-1.0313],[131.1281,-1.0314],[131.1274,-1.0334],[131.1309,-1.0366],[131.1298,-1.0448],[131.1281,-1.0466],[131.1256,-1.0471],[131.1221,-1.0438],[131.117,-1.0438],[131.1195,-1.0465],[131.1175,-1.0484],[131.1227,-1.0485],[131.1291,-1.0528],[131.136,-1.0436],[131.1387,-1.0564],[131.1307,-1.0545],[131.1335,-1.0584],[131.1291,-1.0591],[131.1293,-1.0631],[131.0903,-1.0199],[131.0902,-1.0167]]]}}]}