{"type":"FeatureCollection","metadata":{"parent_osm_id":"gid_IDN_21_6_1_1","parent_name":"AmabiOefetoTimur","parent_name_1":"NusaTenggaraTimur","parent_gid":"IDN.21.6.1_1","parent_level":"6","child_level":"7","count":10,"source":"GADM 4.1","generated":"2026-05-08"},"features":[{"type":"Feature","properties":{"name":"Enolanan","name_en":"Enolanan","admin_level":"7","osm_id":""},"geometry":{"type":"Polygon","coordinates":[[[124.1348,-10.0866],[124.1341,-10.061],[124.1489,-10.0529],[124.1519,-10.0487],[124.1566,-10.0488],[124.163,-10.0431],[124.1764,-10.0556],[124.1816,-10.0582],[124.1888,-10.0707],[124.1548,-10.0819],[124.1348,-10.0866]]]}},{"type":"Feature","properties":{"name":"Muke","name_en":"Muke","admin_level":"7","osm_id":""},"geometry":{"type":"Polygon","coordinates":[[[124.0739,-10.102],[124.0937,-10.0999],[124.1064,-10.1066],[124.1151,-10.1079],[124.1221,-10.1046],[124.1321,-10.1129],[124.1272,-10.1159],[124.123,-10.1156],[124.1196,-10.1207],[124.114,-10.1225],[124.1117,-10.1322],[124.1093,-10.135],[124.1059,-10.1328],[124.1012,-10.1348],[124.098,-10.1321],[124.0942,-10.1331],[124.0842,-10.1305],[124.079,-10.1313],[124.0755,-10.1223],[124.0732,-10.1218],[124.0712,-10.1172],[124.0746,-10.1112],[124.0739,-10.102]]]}},{"type":"Feature","properties":{"name":"Nunmafo","name_en":"Nunmafo","admin_level":"7","osm_id":""},"geometry":{"type":"Polygon","coordinates":[[[124.1088,-10.1069],[124.0937,-10.0999],[124.0739,-10.102],[124.0741,-10.0941],[124.0768,-10.0912],[124.0655,-10.0832],[124.0689,-10.0786],[124.0704,-10.0711],[124.07,-10.0675],[124.0658,-10.0635],[124.0689,-10.063],[124.0754,-10.0711],[124.0773,-10.0694],[124.0801,-10.0726],[124.0829,-10.0708],[124.0796,-10.066],[124.0827,-10.0652],[124.0874,-10.0695],[124.0895,-10.0696],[124.0928,-10.0661],[124.0996,-10.0651],[124.103,-10.0616],[124.1009,-10.0595],[124.1065,-10.0572],[124.1294,-10.0604],[124.1215,-10.0638],[124.1108,-10.0655],[124.104,-10.0693],[124.0975,-10.0761],[124.0965,-10.0812],[124.0992,-10.0855],[124.1146,-10.093],[124.1088,-10.1069]]]}},{"type":"Feature","properties":{"name":"Oemofa","name_en":"Oemofa","admin_level":"7","osm_id":""},"geometry":{"type":"Polygon","coordinates":[[[124.1341,-10.061],[124.1345,-10.0852],[124.1364,-10.0902],[124.1438,-10.0993],[124.1457,-10.1068],[124.1402,-10.1105],[124.1347,-10.1095],[124.1321,-10.1129],[124.1221,-10.1046],[124.1154,-10.1079],[124.1088,-10.1069],[124.1146,-10.093],[124.0992,-10.0855],[124.0965,-10.0812],[124.0975,-10.0761],[124.104,-10.0693],[124.1108,-10.0655],[124.1215,-10.0638],[124.1294,-10.0604],[124.1341,-10.061]]]}},{"type":"Feature","properties":{"name":"Oemolo","name_en":"Oemolo","admin_level":"7","osm_id":""},"geometry":{"type":"Polygon","coordinates":[[[124.1348,-10.0866],[124.1548,-10.0819],[124.1888,-10.0707],[124.1964,-10.079],[124.207,-10.0847],[124.2088,-10.0876],[124.208,-10.0904],[124.1989,-10.0994],[124.1884,-10.1057],[124.147,-10.1068],[124.1457,-10.1068],[124.142,-10.0961],[124.1348,-10.0866]]]}},{"type":"Feature","properties":{"name":"Oenaunu","name_en":"Oenaunu","admin_level":"7","osm_id":""},"geometry":{"type":"Polygon","coordinates":[[[124.163,-10.0431],[124.1566,-10.0488],[124.1519,-10.0487],[124.1489,-10.0529],[124.1357,-10.0607],[124.1195,-10.0588],[124.1228,-10.0423],[124.1386,-10.039],[124.1479,-10.035],[124.1525,-10.0413],[124.163,-10.0431]]]}},{"type":"Feature","properties":{"name":"Oeniko","name_en":"Oeniko","admin_level":"7","osm_id":""},"geometry":{"type":"Polygon","coordinates":[[[124.0373,-10.0896],[124.0376,-10.1079],[124.0407,-10.1325],[124.0324,-10.1389],[124.026,-10.1401],[124.0237,-10.1421],[123.9951,-10.1459],[123.9935,-10.1432],[123.996,-10.1388],[123.9947,-10.1369],[123.9956,-10.1343],[123.992,-10.1311],[123.9905,-10.1245],[123.9937,-10.1206],[123.9953,-10.0987],[124.0008,-10.0937],[124.0021,-10.0893],[124.0042,-10.0874],[124.0104,-10.0871],[124.0147,-10.0807],[124.0176,-10.08],[124.0253,-10.0828],[124.0307,-10.0897],[124.0373,-10.0896]]]}},{"type":"Feature","properties":{"name":"Oenunutono","name_en":"Oenunutono","admin_level":"7","osm_id":""},"geometry":{"type":"Polygon","coordinates":[[[124.0739,-10.102],[124.0746,-10.1112],[124.0712,-10.1172],[124.0732,-10.1218],[124.0755,-10.1223],[124.0786,-10.1281],[124.0783,-10.1306],[124.0723,-10.1291],[124.0668,-10.1303],[124.0598,-10.1361],[124.0572,-10.1357],[124.0534,-10.1402],[124.0439,-10.132],[124.0407,-10.1325],[124.0376,-10.1079],[124.0378,-10.089],[124.0411,-10.0882],[124.0433,-10.0911],[124.0484,-10.0905],[124.0507,-10.0879],[124.0611,-10.0892],[124.067,-10.084],[124.0766,-10.0904],[124.0741,-10.0941],[124.0739,-10.102]]]}},{"type":"Feature","properties":{"name":"Pathau","name_en":"Pathau","admin_level":"7","osm_id":""},"geometry":{"type":"Polygon","coordinates":[[[124.0782,-10.1307],[124.0856,-10.1307],[124.0908,-10.1329],[124.098,-10.1321],[124.1012,-10.1348],[124.0996,-10.1389],[124.0978,-10.1389],[124.0918,-10.1458],[124.075,-10.1517],[124.0748,-10.1548],[124.071,-10.1596],[124.0683,-10.1574],[124.0665,-10.1577],[124.0576,-10.1657],[124.049,-10.1617],[124.0274,-10.1608],[124.0187,-10.1656],[124.0183,-10.1675],[124.017,-10.1665],[124.0122,-10.1688],[124.0103,-10.1707],[124.0107,-10.1743],[124.0065,-10.1783],[124.0012,-10.1769],[124.006,-10.1755],[124.0051,-10.1705],[124.0077,-10.1702],[124.0058,-10.169],[124.0065,-10.1627],[124.0034,-10.1612],[124.0054,-10.1577],[123.9981,-10.1529],[123.9993,-10.1494],[123.9974,-10.1458],[124.0237,-10.1421],[124.026,-10.1401],[124.0324,-10.1389],[124.0416,-10.1321],[124.0467,-10.134],[124.0534,-10.1402],[124.0572,-10.1357],[124.0598,-10.1361],[124.0668,-10.1303],[124.0723,-10.1291],[124.0782,-10.1307]]]}},{"type":"Feature","properties":{"name":"Seki","name_en":"Seki","admin_level":"7","osm_id":""},"geometry":{"type":"Polygon","coordinates":[[[124.1195,-10.0588],[124.1065,-10.0572],[124.1009,-10.0595],[124.103,-10.0616],[124.0996,-10.0651],[124.0928,-10.0661],[124.0895,-10.0696],[124.0815,-10.0651],[124.0796,-10.0668],[124.0829,-10.0716],[124.0801,-10.0726],[124.0773,-10.0694],[124.0754,-10.0711],[124.0689,-10.063],[124.0658,-10.0635],[124.0664,-10.0579],[124.0688,-10.0564],[124.0711,-10.0462],[124.076,-10.0431],[124.0774,-10.0386],[124.0801,-10.0362],[124.0817,-10.0368],[124.0939,-10.0316],[124.1058,-10.0303],[124.115,-10.0374],[124.1148,-10.0339],[124.1188,-10.0344],[124.1198,-10.0324],[124.1216,-10.0356],[124.129,-10.0294],[124.1319,-10.0296],[124.1348,-10.0273],[124.139,-10.0284],[124.1378,-10.0302],[124.1394,-10.031],[124.1426,-10.0292],[124.1455,-10.03],[124.1479,-10.035],[124.1386,-10.039],[124.1228,-10.0423],[124.1195,-10.0588]]]}}]}