{"type":"FeatureCollection","metadata":{"parent_osm_id":"gid_IDN_18_7_3_1","parent_name":"MorotaiSelatan","parent_name_1":"MalukuUtara","parent_gid":"IDN.18.7.3_1","parent_level":"6","child_level":"7","count":20,"source":"GADM 4.1","generated":"2026-05-07"},"features":[{"type":"Feature","properties":{"name":"Aha","name_en":"Aha","admin_level":"7","osm_id":""},"geometry":{"type":"Polygon","coordinates":[[[128.2623,2.1226],[128.2785,2.1385],[128.2943,2.1562],[128.2988,2.098],[128.2896,2.0995],[128.2623,2.1226]]]}},{"type":"Feature","properties":{"name":"Daeo","name_en":"Daeo","admin_level":"7","osm_id":""},"geometry":{"type":"Polygon","coordinates":[[[128.3976,2.1786],[128.3977,2.1965],[128.4783,2.2203],[128.4767,2.1934],[128.4784,2.1861],[128.4924,2.1707],[128.5026,2.1499],[128.51,2.1247],[128.5069,2.1019],[128.5002,2.0806],[128.5033,2.0589],[128.4944,2.0578],[128.4888,2.0624],[128.4848,2.0625],[128.4815,2.0609],[128.4789,2.0569],[128.4707,2.0545],[128.4551,2.0558],[128.4464,2.0613],[128.4381,2.0607],[128.4355,2.062],[128.4352,2.0653],[128.4363,2.0655],[128.4204,2.0903],[128.4087,2.1269],[128.3915,2.1605],[128.3973,2.1607],[128.3976,2.1786]]]}},{"type":"Feature","properties":{"name":"Darame","name_en":"Darame","admin_level":"7","osm_id":""},"geometry":{"type":"Polygon","coordinates":[[[128.2876,2.0305],[128.2876,2.0372],[128.2943,2.0505],[128.3018,2.0525],[128.3125,2.0608],[128.3405,2.0767],[128.3418,2.053],[128.3151,2.0522],[128.3065,2.0423],[128.2947,2.0371],[128.2957,2.0342],[128.2918,2.0302],[128.2876,2.0305]]]}},{"type":"Feature","properties":{"name":"Daruba","name_en":"Daruba","admin_level":"7","osm_id":""},"geometry":{"type":"Polygon","coordinates":[[[128.2942,2.0503],[128.2909,2.0505],[128.2932,2.0544],[128.2914,2.0618],[128.2845,2.0702],[128.2841,2.0745],[128.2858,2.0766],[128.291,2.0767],[128.3011,2.0812],[128.3073,2.0767],[128.3224,2.0778],[128.3401,2.0816],[128.3405,2.0767],[128.3375,2.075],[128.3262,2.0742],[128.3031,2.0654],[128.3006,2.0636],[128.2985,2.0552],[128.2939,2.0538],[128.2928,2.0519],[128.2942,2.0503]]]}},{"type":"Feature","properties":{"name":"Dehegila","name_en":"Dehegila","admin_level":"7","osm_id":""},"geometry":{"type":"Polygon","coordinates":[[[128.2943,2.1562],[128.3419,2.1586],[128.3443,2.1227],[128.3401,2.0816],[128.3224,2.0778],[128.3073,2.0767],[128.3004,2.081],[128.2943,2.1562]]]}},{"type":"Feature","properties":{"name":"GaloGalo","name_en":"GaloGalo","admin_level":"7","osm_id":""},"geometry":{"type":"Polygon","coordinates":[[[128.1951,2.1271],[128.1967,2.1262],[128.1947,2.1259],[128.1927,2.1217],[128.1877,2.125],[128.1895,2.1268],[128.1951,2.1271]]]}},{"type":"Feature","properties":{"name":"Gotalamo","name_en":"Gotalamo","admin_level":"7","osm_id":""},"geometry":{"type":"Polygon","coordinates":[[[128.3375,2.075],[128.3125,2.0608],[128.3018,2.0525],[128.2977,2.0509],[128.2932,2.0526],[128.2964,2.0555],[128.2985,2.0552],[128.3006,2.0636],[128.3031,2.0654],[128.3262,2.0742],[128.3375,2.075]]]}},{"type":"Feature","properties":{"name":"Joubela","name_en":"Joubela","admin_level":"7","osm_id":""},"geometry":{"type":"Polygon","coordinates":[[[128.3416,2.053],[128.34,2.0809],[128.3415,2.0924],[128.3618,2.0444],[128.346,2.0377],[128.3415,2.0383],[128.3416,2.053]]]}},{"type":"Feature","properties":{"name":"Juanga","name_en":"Juanga","admin_level":"7","osm_id":""},"geometry":{"type":"Polygon","coordinates":[[[128.2944,2.0142],[128.2923,2.0116],[128.2925,2.0088],[128.2805,1.9983],[128.2769,1.9929],[128.2691,1.9859],[128.2598,1.9805],[128.2706,1.9976],[128.2758,2.0021],[128.2807,2.0161],[128.2838,2.0197],[128.2944,2.0171],[128.2944,2.0142]]]}},{"type":"Feature","properties":{"name":"Kolorai","name_en":"Kolorai","admin_level":"7","osm_id":""},"geometry":{"type":"Polygon","coordinates":[[[128.1858,2.0927],[128.1895,2.0946],[128.1936,2.0902],[128.1959,2.0733],[128.1933,2.0771],[128.1937,2.0821],[128.1916,2.0864],[128.186,2.0882],[128.183,2.0947],[128.1858,2.0927]]]}},{"type":"Feature","properties":{"name":"Mandiri","name_en":"Mandiri","admin_level":"7","osm_id":""},"geometry":{"type":"Polygon","coordinates":[[[128.343,2.1044],[128.3437,2.111],[128.3669,2.0662],[128.3736,2.0561],[128.3754,2.048],[128.3662,2.0452],[128.343,2.1044]]]}},{"type":"Feature","properties":{"name":"Momojiu","name_en":"Momojiu","admin_level":"7","osm_id":""},"geometry":{"type":"Polygon","coordinates":[[[128.3437,2.111],[128.3441,2.1176],[128.354,2.1093],[128.3652,2.0955],[128.381,2.0799],[128.3864,2.0673],[128.3883,2.0658],[128.3877,2.0613],[128.3924,2.055],[128.3761,2.0484],[128.3736,2.0561],[128.3669,2.0662],[128.3437,2.111]]]}},{"type":"Feature","properties":{"name":"Muhajirin","name_en":"Muhajirin","admin_level":"7","osm_id":""},"geometry":{"type":"Polygon","coordinates":[[[128.2967,2.051],[128.2943,2.0505],[128.2928,2.0519],[128.2953,2.0525],[128.2967,2.051]]]}},{"type":"Feature","properties":{"name":"Pandanga","name_en":"Pandanga","admin_level":"7","osm_id":""},"geometry":{"type":"Polygon","coordinates":[[[128.2876,2.0305],[128.2933,2.0296],[128.2944,2.0171],[128.2838,2.0197],[128.2876,2.0305]]]}},{"type":"Feature","properties":{"name":"Pilowo","name_en":"Pilowo","admin_level":"7","osm_id":""},"geometry":{"type":"Polygon","coordinates":[[[128.2496,2.1102],[128.2623,2.1226],[128.2896,2.0995],[128.2988,2.098],[128.3004,2.081],[128.291,2.0767],[128.2858,2.0766],[128.2789,2.0876],[128.2751,2.0866],[128.2715,2.0822],[128.2685,2.0829],[128.2534,2.0936],[128.2544,2.1021],[128.2496,2.1102]]]}},{"type":"Feature","properties":{"name":"SabataiBaru","name_en":"SabataiBaru","admin_level":"7","osm_id":""},"geometry":{"type":"Polygon","coordinates":[[[128.3419,2.1586],[128.3475,2.1588],[128.3949,2.1037],[128.4022,2.0931],[128.4116,2.0575],[128.4006,2.0572],[128.3924,2.055],[128.3877,2.0613],[128.3883,2.0658],[128.3864,2.0673],[128.381,2.0799],[128.3652,2.0955],[128.354,2.1093],[128.3441,2.1176],[128.3419,2.1586]]]}},{"type":"Feature","properties":{"name":"SabataiTua","name_en":"SabataiTua","admin_level":"7","osm_id":""},"geometry":{"type":"Polygon","coordinates":[[[128.3475,2.1588],[128.3915,2.1605],[128.4087,2.1269],[128.4204,2.0903],[128.4363,2.0655],[128.4352,2.0653],[128.4355,2.062],[128.437,2.0609],[128.426,2.0583],[128.4116,2.0575],[128.4022,2.0931],[128.3949,2.1037],[128.3475,2.1588]]]}},{"type":"Feature","properties":{"name":"Totodoku","name_en":"Totodoku","admin_level":"7","osm_id":""},"geometry":{"type":"Polygon","coordinates":[[[128.3415,2.0924],[128.343,2.1044],[128.3662,2.0452],[128.3618,2.0444],[128.3612,2.0455],[128.3415,2.0924]]]}},{"type":"Feature","properties":{"name":"Wawama","name_en":"Wawama","admin_level":"7","osm_id":""},"geometry":{"type":"Polygon","coordinates":[[[128.2917,2.0301],[128.2957,2.0342],[128.2947,2.0371],[128.3065,2.0423],[128.3151,2.0522],[128.3416,2.053],[128.3415,2.0383],[128.3336,2.0378],[128.3238,2.0344],[128.3094,2.0341],[128.3007,2.036],[128.2955,2.0333],[128.2933,2.0296],[128.2917,2.0301]]]}},{"type":"Feature","properties":{"name":"Yayasan","name_en":"Yayasan","admin_level":"7","osm_id":""},"geometry":{"type":"Polygon","coordinates":[[[128.2941,2.0502],[128.2927,2.0464],[128.2911,2.0495],[128.2892,2.0495],[128.2941,2.0502]]]}}]}