{"type":"FeatureCollection","metadata":{"parent_osm_id":"gid_IDN_20_2_3_1","parent_name":"Kempo","parent_name_1":"NusaTenggaraBarat","parent_gid":"IDN.20.2.3_1","parent_level":"6","child_level":"7","count":7,"source":"GADM 4.1","generated":"2026-05-07"},"features":[{"type":"Feature","properties":{"name":"DoroKobo","name_en":"DoroKobo","admin_level":"7","osm_id":""},"geometry":{"type":"Polygon","coordinates":[[[118.2933,-8.5194],[118.2923,-8.5209],[118.2756,-8.5256],[118.2743,-8.5135],[118.27,-8.5068],[118.2695,-8.503],[118.2815,-8.504],[118.2929,-8.5026],[118.2955,-8.5046],[118.2997,-8.5043],[118.3011,-8.5073],[118.2973,-8.509],[118.2933,-8.5194]]]}},{"type":"Feature","properties":{"name":"Kempo","name_en":"Kempo","admin_level":"7","osm_id":""},"geometry":{"type":"Polygon","coordinates":[[[118.2005,-8.4331],[118.2052,-8.4367],[118.2086,-8.4453],[118.2131,-8.4463],[118.2213,-8.4527],[118.2227,-8.4589],[118.2312,-8.4681],[118.2338,-8.4735],[118.2337,-8.4786],[118.256,-8.5168],[118.2541,-8.5211],[118.2546,-8.5283],[118.2534,-8.5292],[118.2553,-8.5328],[118.2538,-8.5336],[118.2529,-8.5398],[118.2492,-8.5426],[118.25,-8.5481],[118.2525,-8.5488],[118.2564,-8.5472],[118.2661,-8.5377],[118.2709,-8.535],[118.2763,-8.5248],[118.2873,-8.5225],[118.2925,-8.5208],[118.2931,-8.5193],[118.2972,-8.5245],[118.2906,-8.5286],[118.2848,-8.5355],[118.2762,-8.552],[118.2741,-8.56],[118.2678,-8.5656],[118.2671,-8.574],[118.2623,-8.5684],[118.2553,-8.5671],[118.2507,-8.5574],[118.2386,-8.5505],[118.2403,-8.548],[118.2347,-8.5427],[118.2347,-8.5306],[118.2296,-8.5234],[118.2301,-8.5218],[118.2272,-8.5162],[118.2276,-8.5089],[118.2245,-8.5034],[118.2239,-8.4785],[118.2122,-8.4595],[118.2104,-8.4526],[118.2016,-8.4397],[118.2005,-8.4331]]]}},{"type":"Feature","properties":{"name":"Konte","name_en":"Konte","admin_level":"7","osm_id":""},"geometry":{"type":"Polygon","coordinates":[[[118.2005,-8.4331],[118.2016,-8.4397],[118.2104,-8.4526],[118.2122,-8.4595],[118.2174,-8.4667],[118.2211,-8.4757],[118.2237,-8.478],[118.2234,-8.4889],[118.2253,-8.4936],[118.2245,-8.503],[118.2276,-8.5089],[118.2272,-8.5165],[118.2301,-8.5218],[118.2296,-8.5234],[118.2347,-8.5306],[118.2347,-8.5427],[118.2403,-8.5482],[118.2386,-8.5505],[118.2301,-8.5478],[118.2225,-8.5429],[118.2109,-8.5445],[118.2043,-8.5486],[118.2006,-8.5531],[118.1956,-8.5663],[118.1953,-8.5713],[118.1872,-8.5632],[118.1865,-8.5569],[118.1885,-8.554],[118.1844,-8.5472],[118.1846,-8.5404],[118.1956,-8.5391],[118.2013,-8.5409],[118.2024,-8.5447],[118.206,-8.544],[118.2079,-8.5412],[118.2063,-8.535],[118.2086,-8.5295],[118.2079,-8.5272],[118.217,-8.5238],[118.219,-8.5187],[118.2163,-8.5152],[118.2175,-8.5103],[118.2141,-8.4987],[118.2151,-8.4971],[118.2121,-8.4941],[118.2105,-8.4835],[118.2074,-8.4803],[118.2049,-8.4726],[118.2055,-8.4702],[118.2028,-8.4669],[118.1949,-8.4446],[118.1957,-8.4397],[118.2005,-8.4331]]]}},{"type":"Feature","properties":{"name":"SoNggajah","name_en":"SoNggajah","admin_level":"7","osm_id":""},"geometry":{"type":"Polygon","coordinates":[[[118.2141,-8.4986],[118.2175,-8.51],[118.2163,-8.5154],[118.219,-8.5192],[118.2161,-8.5245],[118.2079,-8.5272],[118.2086,-8.5295],[118.2063,-8.535],[118.2075,-8.5422],[118.2024,-8.5447],[118.2013,-8.5409],[118.1956,-8.5391],[118.1846,-8.5404],[118.1803,-8.5328],[118.1751,-8.5296],[118.1889,-8.5226],[118.1869,-8.5091],[118.2141,-8.4986]]]}},{"type":"Feature","properties":{"name":"Soro","name_en":"Soro","admin_level":"7","osm_id":""},"geometry":{"type":"Polygon","coordinates":[[[118.239,-8.5506],[118.25,-8.5566],[118.2553,-8.5671],[118.2612,-8.568],[118.2651,-8.5711],[118.2671,-8.574],[118.2678,-8.588],[118.2634,-8.5854],[118.2506,-8.5871],[118.2492,-8.5674],[118.2298,-8.5513],[118.2229,-8.5525],[118.2207,-8.5557],[118.216,-8.5524],[118.2091,-8.5522],[118.2067,-8.5544],[118.2066,-8.5593],[118.2031,-8.5623],[118.2037,-8.5693],[118.2021,-8.571],[118.1953,-8.5713],[118.1956,-8.5663],[118.2018,-8.5511],[118.2127,-8.5437],[118.2225,-8.5429],[118.2301,-8.5478],[118.239,-8.5506]]]}},{"type":"Feature","properties":{"name":"Ta'a","name_en":"Ta'a","admin_level":"7","osm_id":""},"geometry":{"type":"Polygon","coordinates":[[[118.2052,-8.4367],[118.214,-8.4384],[118.2145,-8.4433],[118.2352,-8.4534],[118.238,-8.4584],[118.2433,-8.4628],[118.2409,-8.4704],[118.2449,-8.4822],[118.2588,-8.4906],[118.2616,-8.4955],[118.2695,-8.503],[118.27,-8.5068],[118.2743,-8.5135],[118.2756,-8.5256],[118.2747,-8.5288],[118.2709,-8.535],[118.2545,-8.5482],[118.2511,-8.5489],[118.2489,-8.5456],[118.2495,-8.5421],[118.2529,-8.5398],[118.2538,-8.5336],[118.2553,-8.5328],[118.2534,-8.5292],[118.2546,-8.5283],[118.2541,-8.5211],[118.256,-8.5168],[118.2337,-8.4786],[118.2338,-8.4735],[118.2312,-8.4681],[118.2227,-8.4589],[118.2209,-8.4523],[118.2131,-8.4463],[118.2086,-8.4453],[118.2052,-8.4367]]]}},{"type":"Feature","properties":{"name":"ToloKalo","name_en":"ToloKalo","admin_level":"7","osm_id":""},"geometry":{"type":"Polygon","coordinates":[[[118.172,-8.4148],[118.1742,-8.414],[118.1852,-8.4177],[118.2005,-8.4331],[118.1957,-8.4397],[118.1949,-8.4446],[118.2028,-8.4669],[118.2055,-8.4702],[118.2049,-8.4726],[118.2074,-8.4803],[118.2105,-8.4835],[118.2121,-8.4941],[118.2151,-8.4971],[118.2141,-8.4986],[118.1869,-8.5091],[118.1889,-8.5226],[118.1751,-8.5296],[118.1711,-8.5266],[118.1652,-8.5252],[118.1503,-8.5154],[118.1468,-8.5163],[118.1429,-8.5141],[118.1388,-8.5087],[118.139,-8.5049],[118.135,-8.4998],[118.1372,-8.499],[118.1368,-8.4968],[118.1346,-8.4968],[118.1288,-8.4895],[118.1313,-8.4873],[118.1318,-8.4828],[118.1305,-8.4821],[118.1247,-8.4852],[118.1278,-8.4752],[118.1245,-8.4746],[118.1271,-8.4707],[118.1245,-8.4673],[118.1223,-8.4587],[118.123,-8.4493],[118.1276,-8.4471],[118.1335,-8.4324],[118.1392,-8.427],[118.154,-8.4189],[118.1583,-8.4173],[118.169,-8.4171],[118.172,-8.4148]]]}}]}