{"type":"FeatureCollection","metadata":{"parent_osm_id":"gid_IDN_9_24_26_1","parent_name":"Kabandungan","parent_name_1":"JawaBarat","parent_gid":"IDN.9.24.26_1","parent_level":"6","child_level":"7","count":6,"source":"GADM 4.1","generated":"2026-05-08"},"features":[{"type":"Feature","properties":{"name":"Cianaga","name_en":"Cianaga","admin_level":"7","osm_id":""},"geometry":{"type":"Polygon","coordinates":[[[106.5881,-6.8502],[106.5797,-6.8461],[106.5665,-6.8342],[106.5553,-6.8271],[106.5594,-6.8162],[106.5667,-6.8134],[106.5757,-6.8128],[106.601,-6.8225],[106.6052,-6.8271],[106.6096,-6.8273],[106.6116,-6.83],[106.6174,-6.8325],[106.6157,-6.8349],[106.6136,-6.8347],[106.6162,-6.8378],[106.6106,-6.8351],[106.6138,-6.8389],[106.614,-6.8433],[106.6097,-6.8461],[106.6059,-6.848],[106.6029,-6.8469],[106.601,-6.849],[106.5923,-6.8517],[106.5881,-6.8502]]]}},{"type":"Feature","properties":{"name":"Cihamerang","name_en":"Cihamerang","admin_level":"7","osm_id":""},"geometry":{"type":"Polygon","coordinates":[[[106.5263,-6.7679],[106.5248,-6.7623],[106.5283,-6.7658],[106.546,-6.7738],[106.5485,-6.7772],[106.5543,-6.7777],[106.5597,-6.7807],[106.5692,-6.7817],[106.5694,-6.7828],[106.5748,-6.7821],[106.5765,-6.7795],[106.5814,-6.7793],[106.581,-6.7775],[106.5869,-6.7744],[106.5894,-6.7769],[106.5898,-6.7797],[106.5913,-6.7771],[106.5927,-6.7785],[106.5971,-6.7764],[106.5963,-6.7788],[106.6005,-6.7831],[106.5996,-6.7848],[106.6019,-6.7867],[106.6038,-6.7861],[106.6036,-6.7879],[106.6085,-6.7903],[106.6084,-6.7928],[106.611,-6.7965],[106.61,-6.7984],[106.6134,-6.7998],[106.6127,-6.8025],[106.6133,-6.8041],[106.615,-6.8039],[106.6142,-6.806],[106.6195,-6.8115],[106.6178,-6.8135],[106.6191,-6.8146],[106.6184,-6.8192],[106.6075,-6.8206],[106.6021,-6.8231],[106.5757,-6.8128],[106.5667,-6.8134],[106.5591,-6.8165],[106.5553,-6.8271],[106.549,-6.8212],[106.5433,-6.8074],[106.5367,-6.8007],[106.5327,-6.7831],[106.5263,-6.7679]]]}},{"type":"Feature","properties":{"name":"Cipeuteuy","name_en":"Cipeuteuy","admin_level":"7","osm_id":""},"geometry":{"type":"Polygon","coordinates":[[[106.5755,-6.7175],[106.5792,-6.7181],[106.5824,-6.7211],[106.5847,-6.7372],[106.589,-6.7437],[106.5991,-6.7488],[106.623,-6.749],[106.6325,-6.755],[106.6334,-6.7604],[106.6282,-6.7729],[106.6246,-6.7762],[106.6224,-6.7756],[106.6197,-6.7791],[106.6153,-6.7797],[106.6052,-6.7889],[106.6038,-6.7861],[106.6019,-6.7867],[106.5996,-6.7848],[106.6005,-6.7831],[106.5963,-6.7788],[106.5971,-6.7764],[106.5927,-6.7785],[106.5913,-6.7771],[106.5898,-6.7797],[106.5894,-6.7769],[106.5869,-6.7744],[106.581,-6.7775],[106.5814,-6.7793],[106.5765,-6.7795],[106.5744,-6.7823],[106.5634,-6.7819],[106.5543,-6.7777],[106.5485,-6.7772],[106.546,-6.7738],[106.5283,-6.7658],[106.5249,-6.7628],[106.5246,-6.759],[106.5333,-6.7515],[106.5479,-6.7508],[106.5599,-6.7383],[106.5608,-6.7335],[106.5666,-6.7277],[106.5686,-6.7226],[106.5741,-6.7202],[106.5755,-6.7175]]]}},{"type":"Feature","properties":{"name":"Kabandungan","name_en":"Kabandungan","admin_level":"7","osm_id":""},"geometry":{"type":"Polygon","coordinates":[[[106.6732,-6.7316],[106.6758,-6.7379],[106.6829,-6.7458],[106.6786,-6.7502],[106.6815,-6.7557],[106.6731,-6.7574],[106.671,-6.7565],[106.6689,-6.7586],[106.665,-6.7591],[106.6649,-6.7635],[106.6602,-6.7717],[106.6478,-6.7769],[106.6475,-6.7791],[106.6452,-6.7804],[106.6453,-6.7854],[106.6419,-6.788],[106.6425,-6.7909],[106.6413,-6.7906],[106.6427,-6.798],[106.641,-6.799],[106.6416,-6.8013],[106.6394,-6.8024],[106.6408,-6.8046],[106.6435,-6.8048],[106.6442,-6.8114],[106.6383,-6.8186],[106.6391,-6.8156],[106.6357,-6.8118],[106.6337,-6.8048],[106.6345,-6.8037],[106.6334,-6.801],[106.6317,-6.8013],[106.6324,-6.7994],[106.6307,-6.7977],[106.6189,-6.7916],[106.615,-6.7937],[106.6126,-6.7972],[106.6127,-6.7956],[106.611,-6.7965],[106.6084,-6.7928],[106.6085,-6.7903],[106.6051,-6.789],[106.6153,-6.7797],[106.6197,-6.7791],[106.6224,-6.7756],[106.6246,-6.7762],[106.6282,-6.7729],[106.6334,-6.7604],[106.6325,-6.755],[106.6423,-6.749],[106.6561,-6.7477],[106.6577,-6.745],[106.656,-6.7393],[106.6589,-6.7319],[106.6675,-6.7366],[106.6732,-6.7316]]]}},{"type":"Feature","properties":{"name":"Mekarjaya","name_en":"Mekarjaya","admin_level":"7","osm_id":""},"geometry":{"type":"Polygon","coordinates":[[[106.6318,-6.8425],[106.6274,-6.8434],[106.6255,-6.8413],[106.6203,-6.844],[106.6153,-6.8443],[106.6138,-6.8389],[106.6103,-6.8361],[106.6119,-6.8352],[106.6162,-6.8378],[106.6136,-6.8347],[106.6157,-6.8349],[106.6174,-6.8325],[106.6116,-6.83],[106.6096,-6.8273],[106.6052,-6.8271],[106.6021,-6.8231],[106.6075,-6.8206],[106.6184,-6.8192],[106.6196,-6.8244],[106.6215,-6.8256],[106.6208,-6.8278],[106.6242,-6.8281],[106.6238,-6.8301],[106.6258,-6.8301],[106.6298,-6.8342],[106.6295,-6.8378],[106.6323,-6.8376],[106.6301,-6.8395],[106.6324,-6.841],[106.6318,-6.8425]]]}},{"type":"Feature","properties":{"name":"Tugubandung","name_en":"Tugubandung","admin_level":"7","osm_id":""},"geometry":{"type":"Polygon","coordinates":[[[106.6184,-6.8192],[106.6191,-6.8146],[106.6178,-6.8135],[106.6195,-6.8115],[106.6142,-6.806],[106.615,-6.8039],[106.6133,-6.8041],[106.6127,-6.8025],[106.6134,-6.7998],[106.61,-6.7984],[106.6112,-6.796],[106.6127,-6.7956],[106.6127,-6.7972],[106.615,-6.7937],[106.6189,-6.7916],[106.6324,-6.7994],[106.6317,-6.801],[106.6334,-6.801],[106.6345,-6.8037],[106.6337,-6.8048],[106.6354,-6.8114],[106.6391,-6.8156],[106.6387,-6.8226],[106.6332,-6.8266],[106.6347,-6.8283],[106.6331,-6.8318],[106.6348,-6.8331],[106.6329,-6.8337],[106.6333,-6.8368],[106.6295,-6.8378],[106.6298,-6.8342],[106.6258,-6.8301],[106.6238,-6.8301],[106.6242,-6.8281],[106.6208,-6.8278],[106.6215,-6.8256],[106.6196,-6.8244],[106.6184,-6.8192]]]}}]}