{"type":"FeatureCollection","metadata":{"parent_osm_id":"gid_IDN_17_5_12_1","parent_name":"Margatiga","parent_name_1":"Lampung","parent_gid":"IDN.17.5.12_1","parent_level":"6","child_level":"7","count":13,"source":"GADM 4.1","generated":"2026-05-09"},"features":[{"type":"Feature","properties":{"name":"GiriKelopoMulyo","name_en":"GiriKelopoMulyo","admin_level":"7","osm_id":""},"geometry":{"type":"Polygon","coordinates":[[[105.5508,-5.1816],[105.5453,-5.1839],[105.5356,-5.1842],[105.5334,-5.1829],[105.5329,-5.1787],[105.5347,-5.1757],[105.5366,-5.177],[105.5434,-5.1726],[105.5621,-5.1679],[105.5622,-5.1774],[105.564,-5.1813],[105.5508,-5.1816]]]}},{"type":"Feature","properties":{"name":"Girikarto","name_en":"Girikarto","admin_level":"7","osm_id":""},"geometry":{"type":"Polygon","coordinates":[[[105.5335,-5.1831],[105.5435,-5.1842],[105.5508,-5.1816],[105.5482,-5.1902],[105.5489,-5.2046],[105.5373,-5.206],[105.5325,-5.201],[105.532,-5.1983],[105.5288,-5.1965],[105.5277,-5.194],[105.5292,-5.1915],[105.5275,-5.1903],[105.5335,-5.1831]]]}},{"type":"Feature","properties":{"name":"KaryaMukti","name_en":"KaryaMukti","admin_level":"7","osm_id":""},"geometry":{"type":"Polygon","coordinates":[[[105.5374,-5.206],[105.5414,-5.205],[105.5363,-5.2197],[105.5279,-5.2211],[105.5197,-5.2249],[105.4858,-5.2268],[105.4839,-5.2299],[105.4814,-5.2266],[105.4733,-5.2263],[105.4794,-5.2065],[105.4902,-5.2143],[105.4973,-5.2152],[105.4887,-5.2188],[105.4906,-5.2208],[105.5056,-5.2162],[105.5121,-5.2179],[105.5298,-5.2146],[105.5374,-5.206]]]}},{"type":"Feature","properties":{"name":"NegeriJemanten","name_en":"NegeriJemanten","admin_level":"7","osm_id":""},"geometry":{"type":"Polygon","coordinates":[[[105.5325,-5.201],[105.5374,-5.206],[105.5298,-5.2146],[105.5121,-5.2179],[105.5056,-5.2162],[105.4906,-5.2208],[105.4887,-5.2188],[105.4973,-5.2152],[105.4902,-5.2143],[105.4794,-5.2065],[105.4792,-5.189],[105.4874,-5.1914],[105.4948,-5.2035],[105.5033,-5.2071],[105.5183,-5.2069],[105.5325,-5.201]]]}},{"type":"Feature","properties":{"name":"Sambikarto","name_en":"Sambikarto","admin_level":"7","osm_id":""},"geometry":{"type":"Polygon","coordinates":[[[105.528,-5.1021],[105.532,-5.1079],[105.5356,-5.1222],[105.5391,-5.1281],[105.5308,-5.1279],[105.5415,-5.1398],[105.5259,-5.1441],[105.5259,-5.1428],[105.524,-5.1431],[105.5192,-5.1471],[105.5172,-5.147],[105.5064,-5.1402],[105.5035,-5.1406],[105.5019,-5.1379],[105.503,-5.1358],[105.5,-5.1326],[105.502,-5.1302],[105.5102,-5.13],[105.52,-5.1268],[105.5181,-5.1237],[105.5112,-5.1188],[105.5291,-5.1193],[105.5273,-5.1113],[105.528,-5.1021]]]}},{"type":"Feature","properties":{"name":"Sidodadi","name_en":"Sidodadi","admin_level":"7","osm_id":""},"geometry":{"type":"Polygon","coordinates":[[[105.5414,-5.205],[105.5489,-5.2046],[105.5503,-5.2129],[105.5536,-5.2146],[105.5544,-5.2168],[105.5543,-5.2214],[105.5488,-5.2264],[105.5443,-5.2282],[105.5377,-5.2282],[105.5362,-5.2189],[105.5414,-5.205]]]}},{"type":"Feature","properties":{"name":"Sidomukti","name_en":"Sidomukti","admin_level":"7","osm_id":""},"geometry":{"type":"Polygon","coordinates":[[[105.4566,-5.2611],[105.4578,-5.2435],[105.4489,-5.2463],[105.4456,-5.2452],[105.4446,-5.2463],[105.4426,-5.2446],[105.4351,-5.246],[105.4254,-5.2451],[105.4251,-5.2354],[105.4342,-5.2318],[105.4206,-5.2294],[105.4206,-5.2273],[105.4252,-5.2261],[105.4317,-5.2215],[105.4383,-5.2206],[105.4501,-5.2277],[105.4489,-5.2263],[105.4536,-5.2258],[105.464,-5.2337],[105.4698,-5.2353],[105.4733,-5.2263],[105.4814,-5.2266],[105.4848,-5.2338],[105.488,-5.2346],[105.4865,-5.2358],[105.4848,-5.2464],[105.483,-5.2464],[105.4803,-5.2562],[105.4763,-5.2562],[105.4722,-5.2585],[105.4699,-5.269],[105.473,-5.2782],[105.4695,-5.2808],[105.4635,-5.2694],[105.4588,-5.2656],[105.4566,-5.2611]]]}},{"type":"Feature","properties":{"name":"Sidomulyo","name_en":"Sidomulyo","admin_level":"7","osm_id":""},"geometry":{"type":"Polygon","coordinates":[[[105.4839,-5.2299],[105.4858,-5.2268],[105.5197,-5.2249],[105.5279,-5.2211],[105.5363,-5.2197],[105.5377,-5.2282],[105.5373,-5.2293],[105.5236,-5.2295],[105.4943,-5.2396],[105.487,-5.2367],[105.488,-5.2346],[105.4848,-5.2338],[105.4839,-5.2299]]]}},{"type":"Feature","properties":{"name":"SukoHarjo","name_en":"SukoHarjo","admin_level":"7","osm_id":""},"geometry":{"type":"Polygon","coordinates":[[[105.5347,-5.1757],[105.5329,-5.1787],[105.5335,-5.1831],[105.5299,-5.1886],[105.5233,-5.193],[105.52,-5.1944],[105.5035,-5.1934],[105.4994,-5.1921],[105.4927,-5.1869],[105.4787,-5.1824],[105.4761,-5.1684],[105.4778,-5.1646],[105.479,-5.1666],[105.4855,-5.1672],[105.4828,-5.1653],[105.4833,-5.1631],[105.4856,-5.1629],[105.4947,-5.1676],[105.4958,-5.165],[105.4989,-5.1668],[105.5031,-5.1649],[105.5059,-5.1677],[105.5099,-5.1672],[105.5159,-5.1704],[105.5168,-5.1685],[105.5273,-5.1698],[105.5273,-5.1675],[105.5329,-5.1694],[105.5313,-5.1741],[105.5347,-5.1757]]]}},{"type":"Feature","properties":{"name":"SumberGede","name_en":"SumberGede","admin_level":"7","osm_id":""},"geometry":{"type":"Polygon","coordinates":[[[105.5415,-5.1398],[105.5387,-5.143],[105.5358,-5.154],[105.5362,-5.1587],[105.5386,-5.1591],[105.5493,-5.155],[105.5519,-5.1643],[105.5545,-5.1672],[105.5631,-5.1671],[105.5621,-5.1679],[105.5434,-5.1726],[105.5359,-5.1771],[105.5313,-5.1741],[105.5333,-5.1701],[105.5317,-5.1684],[105.5273,-5.1675],[105.5273,-5.1698],[105.5238,-5.17],[105.5168,-5.1685],[105.5159,-5.1704],[105.5099,-5.1672],[105.5059,-5.1677],[105.5031,-5.1649],[105.4989,-5.1668],[105.4958,-5.165],[105.4947,-5.1676],[105.4893,-5.1647],[105.4899,-5.1549],[105.4983,-5.1561],[105.51,-5.1432],[105.513,-5.1437],[105.5144,-5.1462],[105.5192,-5.1471],[105.524,-5.1431],[105.5259,-5.1428],[105.5259,-5.1441],[105.5415,-5.1398]]]}},{"type":"Feature","properties":{"name":"Sumbersari","name_en":"Sumbersari","admin_level":"7","osm_id":""},"geometry":{"type":"Polygon","coordinates":[[[105.4012,-5.2287],[105.401,-5.226],[105.3989,-5.2261],[105.3986,-5.2183],[105.4193,-5.2189],[105.4201,-5.2119],[105.4296,-5.2116],[105.4288,-5.218],[105.4317,-5.2215],[105.4252,-5.2261],[105.4206,-5.2273],[105.4206,-5.2294],[105.4012,-5.2287]]]}},{"type":"Feature","properties":{"name":"Trimulyo","name_en":"Trimulyo","admin_level":"7","osm_id":""},"geometry":{"type":"Polygon","coordinates":[[[105.5631,-5.1671],[105.565,-5.1687],[105.571,-5.1652],[105.571,-5.1573],[105.5728,-5.1533],[105.5753,-5.1323],[105.5899,-5.1393],[105.5856,-5.1652],[105.5829,-5.1708],[105.5828,-5.1725],[105.584,-5.1721],[105.5831,-5.1823],[105.5786,-5.1952],[105.5814,-5.1973],[105.5832,-5.1928],[105.5849,-5.1927],[105.5854,-5.1961],[105.5876,-5.1961],[105.5874,-5.1991],[105.5826,-5.2121],[105.5807,-5.213],[105.5698,-5.2114],[105.5531,-5.2126],[105.5536,-5.2146],[105.5497,-5.2113],[105.5482,-5.1902],[105.5508,-5.1816],[105.564,-5.1813],[105.5622,-5.1774],[105.5631,-5.1671]]]}},{"type":"Feature","properties":{"name":"Wonokarto","name_en":"Wonokarto","admin_level":"7","osm_id":""},"geometry":{"type":"Polygon","coordinates":[[[105.5275,-5.1903],[105.5292,-5.1915],[105.5277,-5.194],[105.5288,-5.1965],[105.532,-5.1983],[105.5325,-5.201],[105.5256,-5.2049],[105.5085,-5.208],[105.4948,-5.2035],[105.4874,-5.1914],[105.4792,-5.189],[105.4787,-5.1824],[105.4927,-5.1869],[105.4994,-5.1921],[105.5035,-5.1934],[105.52,-5.1944],[105.5275,-5.1903]]]}}]}