{"type":"FeatureCollection","metadata":{"parent_osm_id":"gid_IDN_32_24_6_1","parent_name":"SitelluTaliUrangJehe","parent_name_1":"SumateraUtara","parent_gid":"IDN.32.24.6_1","parent_level":"6","child_level":"7","count":10,"source":"GADM 4.1","generated":"2026-05-09"},"features":[{"type":"Feature","properties":{"name":"BandarBaru","name_en":"BandarBaru","admin_level":"7","osm_id":""},"geometry":{"type":"Polygon","coordinates":[[[98.0841,2.5496],[98.0832,2.552],[98.082,2.5519],[98.0822,2.558],[98.0776,2.5625],[98.0789,2.5663],[98.0771,2.5752],[98.0795,2.5845],[98.149,2.5814],[98.1699,2.5948],[98.1868,2.6014],[98.2196,2.6085],[98.2441,2.6159],[98.2498,2.6239],[98.2533,2.6403],[98.2623,2.6364],[98.2702,2.6271],[98.2656,2.6217],[98.2568,2.6184],[98.2585,2.6049],[98.2548,2.5992],[98.2437,2.5971],[98.2289,2.5835],[98.2298,2.5827],[98.217,2.5765],[98.2028,2.5734],[98.1821,2.5744],[98.1724,2.5711],[98.1678,2.566],[98.1626,2.5557],[98.1583,2.555],[98.1535,2.5482],[98.131,2.5471],[98.1194,2.5518],[98.1107,2.5535],[98.0984,2.5531],[98.0841,2.5496]]]}},{"type":"Feature","properties":{"name":"KabanTengah","name_en":"KabanTengah","admin_level":"7","osm_id":""},"geometry":{"type":"Polygon","coordinates":[[[98.0848,2.6024],[98.0853,2.6035],[98.0958,2.6028],[98.1086,2.6052],[98.1107,2.6113],[98.109,2.6171],[98.106,2.6205],[98.1053,2.6266],[98.1129,2.6348],[98.1171,2.6354],[98.1216,2.6406],[98.1396,2.6453],[98.1435,2.6477],[98.1451,2.6509],[98.1511,2.652],[98.1625,2.664],[98.1652,2.6651],[98.1728,2.6637],[98.1746,2.6615],[98.1754,2.6582],[98.1802,2.6515],[98.1771,2.6415],[98.1728,2.6348],[98.172,2.6254],[98.1533,2.6011],[98.151,2.5828],[98.149,2.5814],[98.1404,2.5814],[98.0798,2.5846],[98.0835,2.5921],[98.0848,2.6024]]]}},{"type":"Feature","properties":{"name":"Maholida","name_en":"Maholida","admin_level":"7","osm_id":""},"geometry":{"type":"Polygon","coordinates":[[[98.1728,2.6348],[98.1771,2.6415],[98.1802,2.6515],[98.1822,2.6511],[98.1885,2.6561],[98.1952,2.6646],[98.2095,2.661],[98.2209,2.6603],[98.2315,2.6504],[98.2403,2.6475],[98.2226,2.643],[98.2018,2.6337],[98.1728,2.6348]]]}},{"type":"Feature","properties":{"name":"Malum","name_en":"Malum","admin_level":"7","osm_id":""},"geometry":{"type":"Polygon","coordinates":[[[98.1078,2.629],[98.1032,2.6545],[98.105,2.6644],[98.104,2.6821],[98.1007,2.6894],[98.0958,2.6947],[98.1199,2.6961],[98.1357,2.6928],[98.1513,2.6863],[98.172,2.6808],[98.1618,2.6726],[98.1596,2.6608],[98.1511,2.652],[98.1451,2.6509],[98.1435,2.6477],[98.1369,2.644],[98.1216,2.6406],[98.1171,2.6354],[98.1129,2.6348],[98.1078,2.629]]]}},{"type":"Feature","properties":{"name":"Mbinalum","name_en":"Mbinalum","admin_level":"7","osm_id":""},"geometry":{"type":"Polygon","coordinates":[[[98.1802,2.6515],[98.1728,2.6637],[98.1652,2.6651],[98.1596,2.6608],[98.1618,2.6726],[98.1703,2.6802],[98.1999,2.6896],[98.2079,2.6894],[98.2099,2.6868],[98.2095,2.682],[98.2021,2.6766],[98.1885,2.6561],[98.1822,2.6511],[98.1802,2.6515]]]}},{"type":"Feature","properties":{"name":"Perjaga","name_en":"Perjaga","admin_level":"7","osm_id":""},"geometry":{"type":"Polygon","coordinates":[[[98.2511,2.6446],[98.2533,2.6403],[98.2517,2.6294],[98.2498,2.6239],[98.2441,2.6159],[98.2196,2.6085],[98.1868,2.6014],[98.1699,2.5948],[98.151,2.5828],[98.1533,2.6011],[98.172,2.6254],[98.1728,2.6348],[98.2018,2.6337],[98.2226,2.643],[98.2403,2.6475],[98.2511,2.6446]]]}},{"type":"Feature","properties":{"name":"Perolihen","name_en":"Perolihen","admin_level":"7","osm_id":""},"geometry":{"type":"Polygon","coordinates":[[[98.2336,2.7177],[98.2513,2.7083],[98.2529,2.7128],[98.2569,2.7155],[98.2592,2.7094],[98.2594,2.7034],[98.253,2.6883],[98.2567,2.6806],[98.2611,2.6631],[98.2416,2.6702],[98.2361,2.6739],[98.2361,2.6758],[98.2327,2.6792],[98.223,2.6847],[98.2243,2.7105],[98.2189,2.7255],[98.2336,2.7177]]]}},{"type":"Feature","properties":{"name":"Simberuna","name_en":"Simberuna","admin_level":"7","osm_id":""},"geometry":{"type":"Polygon","coordinates":[[[98.2643,2.6493],[98.254,2.6495],[98.2511,2.6446],[98.2343,2.6488],[98.2289,2.6525],[98.2256,2.6577],[98.235,2.6644],[98.2361,2.6739],[98.2512,2.6656],[98.2611,2.6631],[98.2643,2.6493]]]}},{"type":"Feature","properties":{"name":"TanjungMeriah","name_en":"TanjungMeriah","admin_level":"7","osm_id":""},"geometry":{"type":"Polygon","coordinates":[[[98.2256,2.6566],[98.2209,2.6603],[98.2095,2.661],[98.1952,2.6646],[98.2021,2.6766],[98.2095,2.682],[98.2099,2.6868],[98.2079,2.6894],[98.2232,2.6951],[98.223,2.6847],[98.2361,2.6758],[98.235,2.6644],[98.2256,2.6566]]]}},{"type":"Feature","properties":{"name":"TanjungMulia","name_en":"TanjungMulia","admin_level":"7","osm_id":""},"geometry":{"type":"Polygon","coordinates":[[[98.0958,2.6947],[98.0864,2.7051],[98.072,2.7343],[98.0725,2.7424],[98.0763,2.7496],[98.0696,2.7648],[98.0952,2.7748],[98.1081,2.7763],[98.1169,2.785],[98.1307,2.7796],[98.1349,2.7753],[98.1446,2.7705],[98.161,2.7684],[98.1746,2.7596],[98.1865,2.75],[98.1907,2.7411],[98.1944,2.7371],[98.2088,2.7291],[98.2189,2.7255],[98.2243,2.7105],[98.2232,2.6951],[98.2079,2.6894],[98.1999,2.6896],[98.172,2.6808],[98.1513,2.6863],[98.1357,2.6928],[98.1199,2.6961],[98.0958,2.6947]]]}}]}