{"type":"FeatureCollection","metadata":{"parent_osm_id":"gid_IDN_21_4_8_1","parent_name":"Ilebura","parent_name_1":"NusaTenggaraTimur","parent_gid":"IDN.21.4.8_1","parent_level":"6","child_level":"7","count":5,"source":"GADM 4.1","generated":"2026-05-09"},"features":[{"type":"Feature","properties":{"name":"Birawan","name_en":"Birawan","admin_level":"7","osm_id":""},"geometry":{"type":"Polygon","coordinates":[[[122.8426,-8.5654],[122.8417,-8.5718],[122.8313,-8.5844],[122.8322,-8.5887],[122.8221,-8.5936],[122.8194,-8.5965],[122.8156,-8.5968],[122.8107,-8.5808],[122.8033,-8.5713],[122.8082,-8.5712],[122.8215,-8.5652],[122.8426,-8.5654]]]}},{"type":"Feature","properties":{"name":"Lewoawang","name_en":"Lewoawang","admin_level":"7","osm_id":""},"geometry":{"type":"Polygon","coordinates":[[[122.8033,-8.5713],[122.8107,-8.5808],[122.8156,-8.5968],[122.8102,-8.5963],[122.8051,-8.5987],[122.8017,-8.6027],[122.7959,-8.6011],[122.7873,-8.6051],[122.785,-8.5947],[122.7857,-8.562],[122.7972,-8.5653],[122.8033,-8.5713]]]}},{"type":"Feature","properties":{"name":"Nobokonga","name_en":"Nobokonga","admin_level":"7","osm_id":""},"geometry":{"type":"Polygon","coordinates":[[[122.7984,-8.4914],[122.7973,-8.4928],[122.792,-8.4924],[122.7862,-8.4955],[122.782,-8.4943],[122.7784,-8.4988],[122.7695,-8.4995],[122.7646,-8.5022],[122.7599,-8.5014],[122.7556,-8.5059],[122.7528,-8.5058],[122.7508,-8.5086],[122.7518,-8.5107],[122.7488,-8.5108],[122.7468,-8.5135],[122.7407,-8.5092],[122.7433,-8.5055],[122.7486,-8.5039],[122.7518,-8.5],[122.7627,-8.4747],[122.769,-8.4684],[122.7698,-8.4616],[122.7727,-8.459],[122.7769,-8.4599],[122.7797,-8.4585],[122.7846,-8.4619],[122.7883,-8.4788],[122.7909,-8.4812],[122.7902,-8.4843],[122.7961,-8.4864],[122.7984,-8.4914]]]}},{"type":"Feature","properties":{"name":"Nurri","name_en":"Nurri","admin_level":"7","osm_id":""},"geometry":{"type":"Polygon","coordinates":[[[122.8429,-8.5647],[122.8215,-8.5652],[122.8082,-8.5712],[122.8028,-8.5712],[122.7972,-8.5653],[122.7857,-8.562],[122.7807,-8.5524],[122.7667,-8.5387],[122.7553,-8.5389],[122.7511,-8.5231],[122.7328,-8.5196],[122.7392,-8.5149],[122.7374,-8.5117],[122.7407,-8.5092],[122.7468,-8.5135],[122.7488,-8.5108],[122.7518,-8.5107],[122.7508,-8.5086],[122.7528,-8.5058],[122.7556,-8.5059],[122.7599,-8.5014],[122.7646,-8.5022],[122.7695,-8.4995],[122.7784,-8.4988],[122.782,-8.4943],[122.7862,-8.4955],[122.792,-8.4924],[122.7973,-8.4928],[122.7984,-8.4914],[122.7996,-8.4951],[122.8126,-8.5012],[122.8217,-8.5091],[122.8266,-8.5158],[122.8322,-8.518],[122.8325,-8.5213],[122.8381,-8.5296],[122.8435,-8.5469],[122.8417,-8.552],[122.8431,-8.5557],[122.8421,-8.5592],[122.8446,-8.5622],[122.8429,-8.5647]]]}},{"type":"Feature","properties":{"name":"RiangBura","name_en":"RiangBura","admin_level":"7","osm_id":""},"geometry":{"type":"Polygon","coordinates":[[[122.7857,-8.562],[122.785,-8.5947],[122.7873,-8.6051],[122.7817,-8.6086],[122.78,-8.6127],[122.7784,-8.6105],[122.7727,-8.6124],[122.7715,-8.6087],[122.7569,-8.6061],[122.7589,-8.5899],[122.7651,-8.5828],[122.7645,-8.5745],[122.7679,-8.5682],[122.7744,-8.5646],[122.7802,-8.5519],[122.7857,-8.562]]]}}]}