{"type":"FeatureCollection","metadata":{"parent_osm_id":"gid_IDN_1_1_1_1","parent_name":"BabahRot","parent_name_1":"Aceh","parent_gid":"IDN.1.1.1_1","parent_level":"6","child_level":"7","count":8,"source":"GADM 4.1","generated":"2026-05-09"},"features":[{"type":"Feature","properties":{"name":"AlueJerjak","name_en":"AlueJerjak","admin_level":"7","osm_id":""},"geometry":{"type":"Polygon","coordinates":[[[96.6872,3.7443],[96.6768,3.7467],[96.6813,3.8499],[96.7046,3.8807],[96.7169,3.8902],[96.7191,3.8949],[96.7255,3.8904],[96.7323,3.889],[96.7327,3.8713],[96.7204,3.8633],[96.7142,3.8387],[96.7104,3.8321],[96.7013,3.8223],[96.6935,3.7893],[96.6872,3.7443]]]}},{"type":"Feature","properties":{"name":"AluePeunawa","name_en":"AluePeunawa","admin_level":"7","osm_id":""},"geometry":{"type":"Polygon","coordinates":[[[96.6993,3.7439],[96.692,3.7441],[96.6921,3.7467],[96.7096,3.813],[96.7118,3.8187],[96.7267,3.8377],[96.7395,3.8425],[96.7478,3.8502],[96.7485,3.8701],[96.761,3.8615],[96.7556,3.8405],[96.7544,3.8381],[96.7432,3.8294],[96.741,3.8297],[96.7219,3.8092],[96.7098,3.7746],[96.71,3.7698],[96.7046,3.7576],[96.7013,3.7544],[96.6993,3.7439]]]}},{"type":"Feature","properties":{"name":"BlangDalam","name_en":"BlangDalam","admin_level":"7","osm_id":""},"geometry":{"type":"Polygon","coordinates":[[[96.6872,3.7443],[96.6935,3.7893],[96.7013,3.8223],[96.7104,3.8321],[96.7142,3.8387],[96.7204,3.8633],[96.7327,3.8713],[96.7328,3.8753],[96.7479,3.8649],[96.7478,3.8502],[96.7395,3.8425],[96.7267,3.8377],[96.7118,3.8187],[96.6935,3.7538],[96.692,3.7441],[96.6872,3.7443]]]}},{"type":"Feature","properties":{"name":"GunungSamarinda","name_en":"GunungSamarinda","admin_level":"7","osm_id":""},"geometry":{"type":"Polygon","coordinates":[[[96.6379,3.7442],[96.6168,3.7363],[96.619,3.747],[96.6143,3.7535],[96.6176,3.7571],[96.6167,3.7638],[96.6141,3.7689],[96.6093,3.7715],[96.6055,3.7769],[96.6068,3.7821],[96.6171,3.7911],[96.6169,3.7949],[96.6097,3.807],[96.6102,3.8126],[96.6048,3.8211],[96.5988,3.8278],[96.5829,3.8385],[96.5809,3.8454],[96.5845,3.8496],[96.5879,3.8566],[96.5887,3.8626],[96.5926,3.8694],[96.5921,3.8759],[96.5959,3.8842],[96.5938,3.8899],[96.6001,3.9027],[96.6012,3.9118],[96.6044,3.9154],[96.6131,3.9128],[96.6145,3.9176],[96.6171,3.9189],[96.6177,3.9227],[96.6147,3.9325],[96.6214,3.9352],[96.6189,3.9395],[96.6232,3.9467],[96.6258,3.9478],[96.628,3.9528],[96.6279,3.9567],[96.635,3.9603],[96.6366,3.9638],[96.6412,3.9675],[96.6448,3.9675],[96.647,3.9726],[96.6512,3.972],[96.6623,3.9781],[96.6717,3.9677],[96.6621,3.961],[96.6353,3.9265],[96.6249,3.9159],[96.6183,3.8978],[96.6203,3.8612],[96.6297,3.7759],[96.6379,3.7442]]]}},{"type":"Feature","properties":{"name":"HutanBabahRot","name_en":"HutanBabahRot","admin_level":"7","osm_id":""},"geometry":{"type":"Polygon","coordinates":[[[96.7328,3.8753],[96.7323,3.889],[96.7255,3.8904],[96.7191,3.8949],[96.7204,3.9006],[96.7089,3.9084],[96.7043,3.9177],[96.6929,3.9301],[96.687,3.9523],[96.6623,3.9781],[96.6778,3.9871],[96.6841,3.9844],[96.6835,3.9895],[96.6858,3.991],[96.697,3.9885],[96.7101,4.0063],[96.7193,4.0125],[96.7202,4.0153],[96.7171,4.0216],[96.7172,4.0257],[96.7259,4.0335],[96.73,4.0415],[96.7292,4.0715],[96.7252,4.0817],[96.7248,4.0969],[96.734,4.096],[96.7391,4.0915],[96.7471,4.0943],[96.7473,4.0886],[96.756,4.0833],[96.7616,4.0785],[96.7628,4.0755],[96.7857,4.0581],[96.7943,4.046],[96.7867,4.03],[96.7776,4.0216],[96.765,4.0179],[96.7664,4.0125],[96.765,4.0063],[96.7659,4.0],[96.7651,3.994],[96.7626,3.9898],[96.7642,3.9842],[96.7666,3.9817],[96.7645,3.9801],[96.7635,3.9758],[96.7651,3.9709],[96.7606,3.9659],[96.7639,3.9646],[96.7654,3.9612],[96.7616,3.957],[96.7614,3.9543],[96.7573,3.9507],[96.7593,3.9489],[96.7584,3.9469],[96.7638,3.9426],[96.7624,3.9403],[96.7586,3.9419],[96.7599,3.9356],[96.7617,3.934],[96.7583,3.9262],[96.7601,3.9183],[96.7567,3.9087],[96.7609,3.8976],[96.7624,3.8817],[96.761,3.8615],[96.7485,3.8701],[96.7479,3.8649],[96.7328,3.8753]]]}},{"type":"Feature","properties":{"name":"IeMerah","name_en":"IeMerah","admin_level":"7","osm_id":""},"geometry":{"type":"Polygon","coordinates":[[[96.6379,3.7442],[96.6297,3.7759],[96.6203,3.8612],[96.6183,3.8978],[96.6249,3.9159],[96.6353,3.9265],[96.6621,3.961],[96.6717,3.9677],[96.687,3.9523],[96.6929,3.9301],[96.6836,3.9355],[96.6664,3.9306],[96.6616,3.9195],[96.6625,3.9095],[96.6589,3.9073],[96.6541,3.8925],[96.6518,3.8785],[96.6473,3.8711],[96.6444,3.7858],[96.6493,3.7493],[96.6577,3.7462],[96.6379,3.7442]]]}},{"type":"Feature","properties":{"name":"PanteeCermin","name_en":"PanteeCermin","admin_level":"7","osm_id":""},"geometry":{"type":"Polygon","coordinates":[[[96.7191,3.8949],[96.7169,3.8902],[96.7046,3.8807],[96.6813,3.8499],[96.6768,3.7467],[96.6637,3.7463],[96.6577,3.7983],[96.6614,3.8372],[96.6615,3.8655],[96.6628,3.8739],[96.6675,3.8792],[96.6834,3.8888],[96.6885,3.8951],[96.6991,3.8994],[96.7089,3.9084],[96.7204,3.9006],[96.7191,3.8949]]]}},{"type":"Feature","properties":{"name":"PanteeRakyat","name_en":"PanteeRakyat","admin_level":"7","osm_id":""},"geometry":{"type":"Polygon","coordinates":[[[96.6929,3.9301],[96.7043,3.9177],[96.7089,3.9084],[96.6991,3.8994],[96.6885,3.8951],[96.6834,3.8888],[96.6675,3.8792],[96.6628,3.8739],[96.6615,3.8655],[96.6614,3.8372],[96.6577,3.7983],[96.6637,3.7463],[96.6577,3.7462],[96.6493,3.7493],[96.6444,3.7858],[96.6473,3.8711],[96.6518,3.8785],[96.6541,3.8925],[96.6589,3.9073],[96.6625,3.9095],[96.6616,3.9195],[96.6664,3.9306],[96.6836,3.9355],[96.6929,3.9301]]]}}]}