{"type":"FeatureCollection","metadata":{"parent_osm_id":"gid_IDN_18_5_16_1","parent_name":"TobeloTimur","parent_name_1":"MalukuUtara","parent_gid":"IDN.18.5.16_1","parent_level":"6","child_level":"7","count":6,"source":"GADM 4.1","generated":"2026-05-07"},"features":[{"type":"Feature","properties":{"name":"Gonga","name_en":"Gonga","admin_level":"7","osm_id":""},"geometry":{"type":"Polygon","coordinates":[[[128.0226,1.4808],[128.0189,1.4826],[128.0165,1.4767],[128.0133,1.475],[128.0089,1.4794],[128.0077,1.4833],[127.9926,1.4858],[127.996,1.5411],[128.0069,1.5402],[128.0151,1.5376],[128.0335,1.5367],[128.0353,1.5308],[128.0342,1.5272],[128.031,1.523],[128.0288,1.5149],[128.0255,1.5125],[128.0269,1.5049],[128.0231,1.4897],[128.0238,1.4815],[128.0226,1.4808]]]}},{"type":"Feature","properties":{"name":"Katana","name_en":"Katana","admin_level":"7","osm_id":""},"geometry":{"type":"Polygon","coordinates":[[[127.996,1.5411],[127.9991,1.5563],[128.0198,1.5635],[128.0212,1.5652],[128.0251,1.5632],[128.0263,1.5668],[128.0281,1.566],[128.0284,1.5626],[128.0308,1.5651],[128.0345,1.5598],[128.0307,1.5528],[128.024,1.5507],[128.0254,1.547],[128.0299,1.5454],[128.0329,1.5377],[128.0151,1.5376],[128.0069,1.5402],[127.996,1.5411]]]}},{"type":"Feature","properties":{"name":"Mawea","name_en":"Mawea","admin_level":"7","osm_id":""},"geometry":{"type":"Polygon","coordinates":[[[127.958,1.5641],[127.9584,1.5715],[128.0005,1.5721],[128.0368,1.5804],[128.0327,1.5787],[128.035,1.5702],[128.0208,1.5688],[128.0096,1.5657],[127.958,1.5641]]]}},{"type":"Feature","properties":{"name":"Meti","name_en":"Meti","admin_level":"7","osm_id":""},"geometry":{"type":"Polygon","coordinates":[[[128.0593,1.5719],[128.0666,1.5669],[128.0674,1.5647],[128.0571,1.5548],[128.0531,1.5551],[128.0508,1.5567],[128.0523,1.5624],[128.0495,1.5664],[128.0469,1.5753],[128.0493,1.582],[128.052,1.581],[128.0558,1.574],[128.0593,1.5719]]]}},{"type":"Feature","properties":{"name":"Todokuiha","name_en":"Todokuiha","admin_level":"7","osm_id":""},"geometry":{"type":"Polygon","coordinates":[[[127.9991,1.5563],[127.9816,1.5608],[127.9815,1.5581],[127.9773,1.559],[127.9777,1.556],[127.9709,1.5561],[127.9692,1.5535],[127.9667,1.5559],[127.9613,1.5549],[127.9603,1.5566],[127.9568,1.5538],[127.9549,1.5575],[127.958,1.5641],[128.0096,1.5657],[128.0208,1.5688],[128.0361,1.5705],[128.0355,1.5655],[128.0315,1.5676],[128.0285,1.5627],[128.0281,1.566],[128.0263,1.5668],[128.0251,1.5632],[128.0212,1.5652],[128.0198,1.5635],[127.9991,1.5563]]]}},{"type":"Feature","properties":{"name":"Yaro","name_en":"Yaro","admin_level":"7","osm_id":""},"geometry":{"type":"Polygon","coordinates":[[[127.96,1.5885],[127.9977,1.5922],[128.0097,1.5985],[128.0097,1.594],[128.0174,1.5933],[128.0249,1.585],[128.0264,1.5857],[128.027,1.5928],[128.0318,1.5917],[128.0374,1.583],[128.0368,1.5804],[128.0005,1.5721],[127.9584,1.5715],[127.96,1.5885]]]}}]}