{"type":"FeatureCollection","metadata":{"parent_osm_id":"20447261","parent_name":"Tampaksiring","parent_name_1":"Bali","parent_gid":"IDN.2.5.5_1","parent_level":"6","child_level":"7","count":8,"source":"GADM 4.1","generated":"2026-05-09"},"features":[{"type":"Feature","properties":{"name":"Manukaya","name_en":"Manukaya","admin_level":"7","osm_id":""},"geometry":{"type":"Polygon","coordinates":[[[115.3333,-8.3943],[115.3306,-8.4034],[115.3308,-8.4142],[115.319,-8.4337],[115.3117,-8.4224],[115.3145,-8.4175],[115.3091,-8.4147],[115.3094,-8.4126],[115.3069,-8.4098],[115.3078,-8.4025],[115.3148,-8.3973],[115.3158,-8.3939],[115.3208,-8.3899],[115.3212,-8.3826],[115.3233,-8.38],[115.3227,-8.3727],[115.3257,-8.3644],[115.3285,-8.3649],[115.3291,-8.3736],[115.3321,-8.3705],[115.3334,-8.3659],[115.3366,-8.3663],[115.3362,-8.3738],[115.3333,-8.3775],[115.3347,-8.38],[115.3371,-8.38],[115.3367,-8.3849],[115.3333,-8.3943]]]}},{"type":"Feature","properties":{"name":"Pejeng","name_en":"Pejeng","admin_level":"7","osm_id":""},"geometry":{"type":"Polygon","coordinates":[[[115.3005,-8.5209],[115.2976,-8.5182],[115.2885,-8.5179],[115.2866,-8.5191],[115.2883,-8.5147],[115.288,-8.5067],[115.2897,-8.4988],[115.2988,-8.5009],[115.3005,-8.5209]]]}},{"type":"Feature","properties":{"name":"PejengKaja","name_en":"PejengKaja","admin_level":"7","osm_id":""},"geometry":{"type":"Polygon","coordinates":[[[115.2934,-8.4991],[115.2875,-8.4989],[115.2873,-8.4925],[115.2816,-8.489],[115.2835,-8.4865],[115.2828,-8.4808],[115.2862,-8.4775],[115.2883,-8.4678],[115.2962,-8.471],[115.299,-8.4701],[115.2934,-8.4991]]]}},{"type":"Feature","properties":{"name":"PejengKangin","name_en":"PejengKangin","admin_level":"7","osm_id":""},"geometry":{"type":"Polygon","coordinates":[[[115.3078,-8.4935],[115.3067,-8.4988],[115.3081,-8.5015],[115.3031,-8.5095],[115.3076,-8.5018],[115.3066,-8.4991],[115.2972,-8.5006],[115.2934,-8.4991],[115.2936,-8.4957],[115.2983,-8.4699],[115.3041,-8.466],[115.307,-8.458],[115.3112,-8.4557],[115.3126,-8.4567],[115.3105,-8.4586],[115.3111,-8.46],[115.3026,-8.4696],[115.307,-8.4831],[115.3087,-8.4846],[115.3078,-8.4935]]]}},{"type":"Feature","properties":{"name":"PejengKawan","name_en":"PejengKawan","admin_level":"7","osm_id":""},"geometry":{"type":"Polygon","coordinates":[[[115.2866,-8.5191],[115.2856,-8.5225],[115.2837,-8.522],[115.2791,-8.5163],[115.2798,-8.5033],[115.2817,-8.4993],[115.2762,-8.4987],[115.2786,-8.4965],[115.2797,-8.4908],[115.2816,-8.489],[115.2873,-8.4925],[115.2875,-8.4989],[115.2897,-8.4988],[115.288,-8.5067],[115.2883,-8.5147],[115.2866,-8.5191]]]}},{"type":"Feature","properties":{"name":"PejengKelod","name_en":"PejengKelod","admin_level":"7","osm_id":""},"geometry":{"type":"Polygon","coordinates":[[[115.3071,-8.5234],[115.3009,-8.5232],[115.3005,-8.5142],[115.2989,-8.512],[115.2988,-8.5009],[115.3038,-8.5003],[115.3046,-8.4987],[115.3076,-8.5012],[115.3029,-8.509],[115.3044,-8.5124],[115.3036,-8.5141],[115.3082,-8.52],[115.3071,-8.5234]]]}},{"type":"Feature","properties":{"name":"Sanding","name_en":"Sanding","admin_level":"7","osm_id":""},"geometry":{"type":"Polygon","coordinates":[[[115.2983,-8.4699],[115.2962,-8.471],[115.2883,-8.4678],[115.2933,-8.4601],[115.2992,-8.4584],[115.3081,-8.4484],[115.3099,-8.4488],[115.3047,-8.465],[115.2983,-8.4699]]]}},{"type":"Feature","properties":{"name":"Tampaksiring","name_en":"Tampaksiring","admin_level":"7","osm_id":""},"geometry":{"type":"Polygon","coordinates":[[[115.319,-8.4337],[115.3175,-8.4342],[115.3181,-8.4407],[115.3159,-8.4427],[115.317,-8.4478],[115.3145,-8.4499],[115.313,-8.4548],[115.3086,-8.4562],[115.3069,-8.4586],[115.3099,-8.4488],[115.3081,-8.4484],[115.2992,-8.4584],[115.2965,-8.4582],[115.293,-8.4604],[115.3003,-8.4524],[115.2978,-8.4453],[115.2988,-8.4408],[115.297,-8.4392],[115.2996,-8.4356],[115.2989,-8.4321],[115.3016,-8.4307],[115.3008,-8.4285],[115.3028,-8.4262],[115.3034,-8.4152],[115.3069,-8.4103],[115.3094,-8.4126],[115.3091,-8.4147],[115.3145,-8.4175],[115.3117,-8.4224],[115.319,-8.4337]]]}}]}