{"type":"FeatureCollection","metadata":{"parent_osm_id":"gid_IDN_32_7_14_1","parent_name":"SimpangEmpat","parent_name_1":"SumateraUtara","parent_gid":"IDN.32.7.14_1","parent_level":"6","child_level":"7","count":17,"source":"GADM 4.1","generated":"2026-05-09"},"features":[{"type":"Feature","properties":{"name":"Beganding","name_en":"Beganding","admin_level":"7","osm_id":""},"geometry":{"type":"Polygon","coordinates":[[[98.4317,3.0989],[98.4244,3.0993],[98.4174,3.1019],[98.4194,3.1123],[98.4183,3.1215],[98.4255,3.1243],[98.4307,3.1165],[98.4317,3.0989]]]}},{"type":"Feature","properties":{"name":"Berastepu","name_en":"Berastepu","admin_level":"7","osm_id":""},"geometry":{"type":"Polygon","coordinates":[[[98.4017,3.1478],[98.4022,3.1531],[98.406,3.158],[98.4139,3.1483],[98.4312,3.1413],[98.4264,3.1333],[98.4168,3.127],[98.4121,3.1264],[98.4131,3.1332],[98.4119,3.1382],[98.4049,3.1423],[98.4017,3.1478]]]}},{"type":"Feature","properties":{"name":"BulanBaru","name_en":"BulanBaru","admin_level":"7","osm_id":""},"geometry":{"type":"Polygon","coordinates":[[[98.4949,3.1705],[98.4863,3.1497],[98.4756,3.1544],[98.48,3.1623],[98.4851,3.1794],[98.4884,3.1739],[98.4949,3.1705]]]}},{"type":"Feature","properties":{"name":"Gajah","name_en":"Gajah","admin_level":"7","osm_id":""},"geometry":{"type":"Polygon","coordinates":[[[98.4607,3.1753],[98.4766,3.1869],[98.4792,3.1814],[98.4851,3.1794],[98.48,3.1623],[98.4756,3.1544],[98.4708,3.1549],[98.4626,3.1524],[98.4634,3.1572],[98.4577,3.1635],[98.4608,3.1696],[98.4607,3.1753]]]}},{"type":"Feature","properties":{"name":"Gamber","name_en":"Gamber","admin_level":"7","osm_id":""},"geometry":{"type":"Polygon","coordinates":[[[98.406,3.158],[98.4111,3.1607],[98.4267,3.1535],[98.4312,3.1584],[98.4334,3.1523],[98.425,3.143],[98.4139,3.1483],[98.406,3.158]]]}},{"type":"Feature","properties":{"name":"Jeraya","name_en":"Jeraya","admin_level":"7","osm_id":""},"geometry":{"type":"Polygon","coordinates":[[[98.4301,3.1394],[98.4312,3.1413],[98.4271,3.1421],[98.4371,3.1457],[98.444,3.1399],[98.4456,3.136],[98.439,3.1324],[98.4364,3.1368],[98.4301,3.1394]]]}},{"type":"Feature","properties":{"name":"KutaTengah","name_en":"KutaTengah","admin_level":"7","osm_id":""},"geometry":{"type":"Polygon","coordinates":[[[98.4312,3.1584],[98.4362,3.1637],[98.4408,3.1575],[98.443,3.1508],[98.4407,3.1432],[98.4371,3.1457],[98.4271,3.1421],[98.425,3.143],[98.4334,3.1523],[98.4312,3.1584]]]}},{"type":"Feature","properties":{"name":"Lingga","name_en":"Lingga","admin_level":"7","osm_id":""},"geometry":{"type":"Polygon","coordinates":[[[98.4951,3.1429],[98.494,3.129],[98.4903,3.1178],[98.4831,3.1101],[98.4692,3.1002],[98.4657,3.0986],[98.4566,3.0988],[98.4522,3.1187],[98.4545,3.1227],[98.4624,3.1283],[98.4705,3.1375],[98.4825,3.1461],[98.4883,3.1481],[98.4951,3.1429]]]}},{"type":"Feature","properties":{"name":"LinggaJulu","name_en":"LinggaJulu","admin_level":"7","osm_id":""},"geometry":{"type":"Polygon","coordinates":[[[98.495,3.1705],[98.4971,3.1655],[98.4951,3.1546],[98.4951,3.1429],[98.4863,3.1497],[98.495,3.1705]]]}},{"type":"Feature","properties":{"name":"NangBelawan","name_en":"NangBelawan","admin_level":"7","osm_id":""},"geometry":{"type":"Polygon","coordinates":[[[98.4566,3.0988],[98.4499,3.0999],[98.444,3.0989],[98.4402,3.1121],[98.4426,3.1149],[98.45,3.1188],[98.4528,3.1181],[98.4566,3.0988]]]}},{"type":"Feature","properties":{"name":"NdokumSiroga","name_en":"NdokumSiroga","admin_level":"7","osm_id":""},"geometry":{"type":"Polygon","coordinates":[[[98.4756,3.1544],[98.4883,3.1481],[98.4758,3.1416],[98.4649,3.1309],[98.465,3.1342],[98.4577,3.1422],[98.4597,3.148],[98.4626,3.1524],[98.4708,3.1549],[98.4756,3.1544]]]}},{"type":"Feature","properties":{"name":"Perteguhen","name_en":"Perteguhen","admin_level":"7","osm_id":""},"geometry":{"type":"Polygon","coordinates":[[[98.4577,3.1635],[98.4634,3.1563],[98.4577,3.1422],[98.445,3.1388],[98.4407,3.1432],[98.443,3.1508],[98.4504,3.1546],[98.4577,3.1635]]]}},{"type":"Feature","properties":{"name":"PintuBesi","name_en":"PintuBesi","admin_level":"7","osm_id":""},"geometry":{"type":"Polygon","coordinates":[[[98.4255,3.1243],[98.4183,3.1215],[98.4168,3.127],[98.4264,3.1333],[98.4301,3.1394],[98.4364,3.1368],[98.439,3.1324],[98.4255,3.1243]]]}},{"type":"Feature","properties":{"name":"Serumbia","name_en":"Serumbia","admin_level":"7","osm_id":""},"geometry":{"type":"Polygon","coordinates":[[[98.444,3.0989],[98.4317,3.0989],[98.4307,3.1165],[98.4255,3.1243],[98.4348,3.1301],[98.444,3.0989]]]}},{"type":"Feature","properties":{"name":"Surbakti","name_en":"Surbakti","admin_level":"7","osm_id":""},"geometry":{"type":"Polygon","coordinates":[[[98.439,3.1324],[98.4454,3.1354],[98.445,3.1388],[98.4554,3.1424],[98.4583,3.142],[98.465,3.1342],[98.4647,3.1307],[98.4545,3.1227],[98.4522,3.1187],[98.4484,3.1181],[98.4402,3.1121],[98.4348,3.1301],[98.439,3.1324]]]}},{"type":"Feature","properties":{"name":"TigaPancur","name_en":"TigaPancur","admin_level":"7","osm_id":""},"geometry":{"type":"Polygon","coordinates":[[[98.4174,3.1019],[98.4095,3.108],[98.401,3.1111],[98.4121,3.1264],[98.4168,3.127],[98.4194,3.1123],[98.4174,3.1019]]]}},{"type":"Feature","properties":{"name":"Torong","name_en":"Torong","admin_level":"7","osm_id":""},"geometry":{"type":"Polygon","coordinates":[[[98.4493,3.1788],[98.4532,3.1777],[98.4555,3.1809],[98.458,3.175],[98.4607,3.1753],[98.4608,3.1696],[98.4521,3.1564],[98.443,3.1508],[98.4418,3.1555],[98.4362,3.1637],[98.4371,3.1661],[98.4434,3.1708],[98.4437,3.1732],[98.4484,3.1761],[98.4493,3.1788]]]}}]}