{"type":"FeatureCollection","metadata":{"parent_osm_id":"17701263","parent_name":"Banyuurip","parent_name_1":"JawaTengah","parent_gid":"IDN.10.25.2_1","parent_level":"6","child_level":"7","count":27,"source":"GADM 4.1","generated":"2026-05-09"},"features":[{"type":"Feature","properties":{"name":"Bajangrejo","name_en":"Bajangrejo","admin_level":"7","osm_id":""},"geometry":{"type":"Polygon","coordinates":[[[109.9656,-7.7703],[109.965,-7.775],[109.9621,-7.7772],[109.9651,-7.7768],[109.9671,-7.7786],[109.9663,-7.7846],[109.9605,-7.783],[109.9582,-7.7881],[109.9516,-7.7851],[109.9628,-7.7728],[109.9635,-7.7702],[109.9656,-7.7703]]]}},{"type":"Feature","properties":{"name":"BanyuUrip","name_en":"BanyuUrip","admin_level":"7","osm_id":""},"geometry":{"type":"Polygon","coordinates":[[[109.9805,-7.7649],[109.9698,-7.7638],[109.9742,-7.7533],[109.9761,-7.7527],[109.9782,-7.7566],[109.9814,-7.7529],[109.981,-7.7558],[109.9838,-7.7557],[109.9859,-7.7529],[109.9896,-7.7555],[109.9856,-7.7617],[109.9816,-7.7629],[109.9805,-7.7649]]]}},{"type":"Feature","properties":{"name":"Bencorejo","name_en":"Bencorejo","admin_level":"7","osm_id":""},"geometry":{"type":"Polygon","coordinates":[[[109.9663,-7.7846],[109.9671,-7.7786],[109.9651,-7.7768],[109.9621,-7.7772],[109.9644,-7.7761],[109.9663,-7.7694],[109.969,-7.768],[109.969,-7.77],[109.9724,-7.77],[109.9728,-7.7729],[109.975,-7.7732],[109.976,-7.7755],[109.9745,-7.7833],[109.971,-7.7845],[109.9705,-7.7881],[109.9684,-7.7882],[109.9663,-7.7846]]]}},{"type":"Feature","properties":{"name":"BoroKulon","name_en":"BoroKulon","admin_level":"7","osm_id":""},"geometry":{"type":"Polygon","coordinates":[[[110.0073,-7.7433],[110.003,-7.7503],[109.9933,-7.7439],[109.9944,-7.746],[109.9919,-7.7469],[109.9897,-7.7439],[109.9913,-7.7376],[109.9892,-7.7355],[110.0,-7.7345],[110.003,-7.7374],[110.0076,-7.7369],[110.0073,-7.7433]]]}},{"type":"Feature","properties":{"name":"BoroWetan","name_en":"BoroWetan","admin_level":"7","osm_id":""},"geometry":{"type":"Polygon","coordinates":[[[109.9929,-7.7471],[109.9944,-7.746],[109.9933,-7.7439],[110.003,-7.7503],[110.0073,-7.7433],[110.0106,-7.7439],[110.0099,-7.749],[110.0133,-7.75],[110.0135,-7.7534],[110.0027,-7.7582],[109.9947,-7.7588],[109.9937,-7.7579],[109.9949,-7.75],[109.9929,-7.7471]]]}},{"type":"Feature","properties":{"name":"Candingasinan","name_en":"Candingasinan","admin_level":"7","osm_id":""},"geometry":{"type":"Polygon","coordinates":[[[109.9849,-7.7369],[109.9811,-7.7435],[109.9792,-7.7442],[109.9795,-7.7468],[109.9735,-7.7453],[109.9687,-7.7479],[109.9649,-7.7475],[109.9679,-7.7389],[109.9732,-7.738],[109.975,-7.7359],[109.9803,-7.7368],[109.981,-7.7338],[109.9849,-7.7369]]]}},{"type":"Feature","properties":{"name":"Candisari","name_en":"Candisari","admin_level":"7","osm_id":""},"geometry":{"type":"Polygon","coordinates":[[[109.9699,-7.7288],[109.9675,-7.7311],[109.9644,-7.7312],[109.963,-7.7344],[109.9595,-7.7341],[109.957,-7.7306],[109.9616,-7.7237],[109.9665,-7.7226],[109.9704,-7.7227],[109.9689,-7.727],[109.9699,-7.7288]]]}},{"type":"Feature","properties":{"name":"Cengkawakrejo","name_en":"Cengkawakrejo","admin_level":"7","osm_id":""},"geometry":{"type":"Polygon","coordinates":[[[110.0171,-7.7677],[110.0192,-7.7719],[110.0214,-7.772],[110.0242,-7.7781],[110.0228,-7.7819],[110.019,-7.7789],[110.017,-7.7804],[110.0161,-7.7782],[110.0145,-7.7806],[110.0097,-7.7803],[110.0052,-7.778],[110.0033,-7.7723],[109.9999,-7.7734],[109.9998,-7.7709],[109.9931,-7.769],[109.9929,-7.7676],[109.9931,-7.7658],[109.9974,-7.7678],[110.0099,-7.7655],[110.0171,-7.7677]]]}},{"type":"Feature","properties":{"name":"Condongsari","name_en":"Condongsari","admin_level":"7","osm_id":""},"geometry":{"type":"Polygon","coordinates":[[[109.982,-7.7351],[109.981,-7.7338],[109.9803,-7.7368],[109.975,-7.7359],[109.9732,-7.738],[109.9679,-7.7389],[109.963,-7.7344],[109.9644,-7.7312],[109.9675,-7.7311],[109.9699,-7.7288],[109.9788,-7.7303],[109.9821,-7.7322],[109.982,-7.7351]]]}},{"type":"Feature","properties":{"name":"Golok","name_en":"Golok","admin_level":"7","osm_id":""},"geometry":{"type":"Polygon","coordinates":[[[109.9595,-7.7341],[109.963,-7.7344],[109.9608,-7.7396],[109.9578,-7.7404],[109.9553,-7.7459],[109.9508,-7.7447],[109.9483,-7.7402],[109.9496,-7.7365],[109.9516,-7.7343],[109.9533,-7.7371],[109.9595,-7.7341]]]}},{"type":"Feature","properties":{"name":"Kertosono","name_en":"Kertosono","admin_level":"7","osm_id":""},"geometry":{"type":"Polygon","coordinates":[[[109.9454,-7.7623],[109.94,-7.7627],[109.9393,-7.7599],[109.9429,-7.757],[109.9391,-7.7556],[109.9426,-7.7539],[109.9453,-7.7548],[109.9488,-7.7512],[109.9521,-7.7514],[109.9527,-7.756],[109.9505,-7.7576],[109.9501,-7.761],[109.9454,-7.7623]]]}},{"type":"Feature","properties":{"name":"KledungKarangdalem","name_en":"KledungKarangdalem","admin_level":"7","osm_id":""},"geometry":{"type":"Polygon","coordinates":[[[109.9869,-7.7139],[109.9855,-7.7173],[109.9892,-7.719],[109.9915,-7.7225],[109.9853,-7.7259],[109.9798,-7.7227],[109.9795,-7.72],[109.983,-7.7162],[109.9803,-7.7152],[109.981,-7.7102],[109.9831,-7.7103],[109.9855,-7.7153],[109.9843,-7.7101],[109.9871,-7.7099],[109.9849,-7.7103],[109.9869,-7.7139]]]}},{"type":"Feature","properties":{"name":"KledungKradenan","name_en":"KledungKradenan","admin_level":"7","osm_id":""},"geometry":{"type":"Polygon","coordinates":[[[109.9767,-7.7301],[109.9751,-7.7304],[109.973,-7.7292],[109.978,-7.7286],[109.9767,-7.7301]]]}},{"type":"Feature","properties":{"name":"Kliwonan","name_en":"Kliwonan","admin_level":"7","osm_id":""},"geometry":{"type":"Polygon","coordinates":[[[109.9464,-7.7622],[109.9501,-7.761],[109.9505,-7.7576],[109.9534,-7.7552],[109.9585,-7.7554],[109.9527,-7.7641],[109.9514,-7.7678],[109.9524,-7.7703],[109.9496,-7.7687],[109.9476,-7.7696],[109.9479,-7.7673],[109.9469,-7.768],[109.9454,-7.764],[109.9464,-7.7622]]]}},{"type":"Feature","properties":{"name":"Malangrejo","name_en":"Malangrejo","admin_level":"7","osm_id":""},"geometry":{"type":"Polygon","coordinates":[[[109.9656,-7.7703],[109.9572,-7.7698],[109.9596,-7.7629],[109.9619,-7.7612],[109.9619,-7.7584],[109.9669,-7.7588],[109.967,-7.7634],[109.9694,-7.7617],[109.9693,-7.7637],[109.9727,-7.7648],[109.9805,-7.7649],[109.9777,-7.7688],[109.969,-7.77],[109.9686,-7.7679],[109.9656,-7.7703]]]}},{"type":"Feature","properties":{"name":"Pakisrejo","name_en":"Pakisrejo","admin_level":"7","osm_id":""},"geometry":{"type":"Polygon","coordinates":[[[109.9892,-7.7355],[109.9911,-7.7393],[109.9861,-7.7429],[109.9872,-7.7444],[109.9863,-7.7475],[109.9806,-7.7489],[109.9792,-7.7442],[109.9811,-7.7435],[109.9869,-7.7343],[109.9892,-7.7355]]]}},{"type":"Feature","properties":{"name":"Popongan","name_en":"Popongan","admin_level":"7","osm_id":""},"geometry":{"type":"Polygon","coordinates":[[[109.9947,-7.7588],[110.0027,-7.7582],[110.0124,-7.7532],[110.0143,-7.7552],[110.0125,-7.7668],[110.0099,-7.7655],[109.9959,-7.7678],[109.9955,-7.7664],[109.9907,-7.7654],[109.9947,-7.7588]]]}},{"type":"Feature","properties":{"name":"Sawit","name_en":"Sawit","admin_level":"7","osm_id":""},"geometry":{"type":"Polygon","coordinates":[[[109.9533,-7.746],[109.9592,-7.7461],[109.9592,-7.7478],[109.9635,-7.7482],[109.9585,-7.7554],[109.9527,-7.756],[109.9518,-7.7494],[109.9533,-7.746]]]}},{"type":"Feature","properties":{"name":"Seborokrapyak","name_en":"Seborokrapyak","admin_level":"7","osm_id":""},"geometry":{"type":"Polygon","coordinates":[[[109.94,-7.7627],[109.9454,-7.7623],[109.9476,-7.7696],[109.9496,-7.7687],[109.951,-7.7703],[109.9477,-7.7726],[109.9493,-7.7747],[109.9449,-7.7827],[109.9477,-7.7844],[109.9449,-7.7881],[109.9402,-7.7869],[109.9391,-7.7847],[109.9428,-7.7795],[109.9397,-7.7794],[109.9425,-7.7737],[109.9424,-7.7714],[109.9401,-7.7718],[109.9397,-7.767],[109.9414,-7.7637],[109.94,-7.7627]]]}},{"type":"Feature","properties":{"name":"Sokowaten","name_en":"Sokowaten","admin_level":"7","osm_id":""},"geometry":{"type":"Polygon","coordinates":[[[109.9679,-7.7389],[109.9649,-7.7475],[109.96,-7.7482],[109.9592,-7.7461],[109.9553,-7.7459],[109.9577,-7.7405],[109.9608,-7.7396],[109.961,-7.7371],[109.9632,-7.7354],[109.9679,-7.7389]]]}},{"type":"Feature","properties":{"name":"SumberSari","name_en":"SumberSari","admin_level":"7","osm_id":""},"geometry":{"type":"Polygon","coordinates":[[[109.9859,-7.7529],[109.9821,-7.756],[109.9814,-7.7529],[109.9793,-7.7538],[109.9799,-7.7557],[109.9782,-7.7566],[109.9761,-7.7527],[109.9742,-7.7533],[109.9698,-7.7638],[109.9694,-7.7617],[109.9669,-7.7632],[109.9669,-7.7588],[109.9618,-7.7582],[109.9632,-7.7485],[109.9687,-7.7479],[109.9735,-7.7453],[109.9805,-7.7465],[109.9806,-7.7489],[109.9866,-7.7491],[109.9859,-7.7529]]]}},{"type":"Feature","properties":{"name":"Surorejo","name_en":"Surorejo","admin_level":"7","osm_id":""},"geometry":{"type":"Polygon","coordinates":[[[109.9805,-7.7649],[109.981,-7.7633],[109.985,-7.7617],[109.9887,-7.7624],[109.9906,-7.7648],[109.9887,-7.7662],[109.9868,-7.7738],[109.9854,-7.7733],[109.9855,-7.7765],[109.9819,-7.7744],[109.9803,-7.7777],[109.9762,-7.7766],[109.975,-7.7777],[109.976,-7.7747],[109.9728,-7.7729],[109.9724,-7.77],[109.978,-7.7687],[109.9805,-7.7649]]]}},{"type":"Feature","properties":{"name":"Tanjunganom","name_en":"Tanjunganom","admin_level":"7","osm_id":""},"geometry":{"type":"Polygon","coordinates":[[[109.9486,-7.7414],[109.9533,-7.746],[109.9521,-7.7514],[109.9475,-7.7517],[109.9453,-7.7548],[109.9426,-7.7539],[109.9379,-7.7556],[109.9382,-7.7533],[109.9366,-7.7525],[109.9386,-7.7519],[109.9393,-7.7489],[109.9384,-7.7483],[109.9372,-7.7512],[109.9363,-7.7505],[109.94,-7.7439],[109.9371,-7.744],[109.9486,-7.7414]]]}},{"type":"Feature","properties":{"name":"Tegalkuning","name_en":"Tegalkuning","admin_level":"7","osm_id":""},"geometry":{"type":"Polygon","coordinates":[[[109.9524,-7.7703],[109.9514,-7.7678],[109.9527,-7.7641],[109.9612,-7.7506],[109.9638,-7.7505],[109.9619,-7.7612],[109.9596,-7.7629],[109.9572,-7.7695],[109.9535,-7.7702],[109.9526,-7.7718],[109.9524,-7.7703]]]}},{"type":"Feature","properties":{"name":"Tegalrejo","name_en":"Tegalrejo","admin_level":"7","osm_id":""},"geometry":{"type":"Polygon","coordinates":[[[109.9856,-7.7617],[109.9896,-7.7565],[109.9859,-7.7529],[109.9872,-7.7444],[109.986,-7.7436],[109.9879,-7.7407],[109.9897,-7.7411],[109.9902,-7.7451],[109.9949,-7.75],[109.9937,-7.7579],[109.9948,-7.7593],[109.9906,-7.7648],[109.9887,-7.7624],[109.9856,-7.7617]]]}},{"type":"Feature","properties":{"name":"Triwarno","name_en":"Triwarno","admin_level":"7","osm_id":""},"geometry":{"type":"Polygon","coordinates":[[[109.9635,-7.7705],[109.9516,-7.7851],[109.9497,-7.7831],[109.9477,-7.7844],[109.9449,-7.7827],[109.9493,-7.7747],[109.9477,-7.7731],[109.9487,-7.7715],[109.9499,-7.7722],[109.9518,-7.7701],[109.9526,-7.7718],[109.9561,-7.7689],[109.9635,-7.7705]]]}},{"type":"Feature","properties":{"name":"Wangunrejo","name_en":"Wangunrejo","admin_level":"7","osm_id":""},"geometry":{"type":"Polygon","coordinates":[[[109.9931,-7.7658],[109.9931,-7.769],[109.9976,-7.7694],[109.9978,-7.771],[109.9998,-7.7709],[109.9999,-7.7734],[110.0033,-7.7723],[110.0052,-7.778],[110.0115,-7.7798],[110.0121,-7.7827],[110.0067,-7.7817],[110.0023,-7.7789],[110.0003,-7.7811],[109.9963,-7.779],[109.9942,-7.7803],[109.9849,-7.7794],[109.9853,-7.7735],[109.9866,-7.7739],[109.9879,-7.7717],[109.9893,-7.765],[109.9931,-7.7658]]]}}]}