{"type":"FeatureCollection","metadata":{"parent_osm_id":"gid_IDN_23_1_1_1","parent_name":"Agats","parent_name_1":"Papua","parent_gid":"IDN.23.1.1_1","parent_level":"6","child_level":"7","count":9,"source":"GADM 4.1","generated":"2026-05-08"},"features":[{"type":"Feature","properties":{"name":"Asuwetsy","name_en":"Asuwetsy","admin_level":"7","osm_id":""},"geometry":{"type":"Polygon","coordinates":[[[138.165,-5.5251],[138.1581,-5.5178],[138.1399,-5.5146],[138.1008,-5.4878],[138.1123,-5.4681],[138.106,-5.4404],[138.1057,-5.4292],[138.1257,-5.4175],[138.1447,-5.4144],[138.1627,-5.4151],[138.1762,-5.4381],[138.1802,-5.4657],[138.2062,-5.4728],[138.2086,-5.5044],[138.1928,-5.5123],[138.1739,-5.5186],[138.165,-5.5251]]]}},{"type":"Feature","properties":{"name":"Beriten","name_en":"Beriten","admin_level":"7","osm_id":""},"geometry":{"type":"Polygon","coordinates":[[[138.1744,-5.7304],[138.1726,-5.7264],[138.1669,-5.7214],[138.1408,-5.7187],[138.1303,-5.7197],[138.1263,-5.7237],[138.1247,-5.7227],[138.0958,-5.7331],[138.0967,-5.7342],[138.0926,-5.7367],[138.0898,-5.7414],[138.091,-5.7462],[138.0756,-5.737],[138.0719,-5.7333],[138.0727,-5.7313],[138.0682,-5.728],[138.0639,-5.7175],[138.0641,-5.709],[138.0665,-5.7034],[138.0582,-5.6968],[138.0558,-5.6921],[138.0721,-5.678],[138.0934,-5.6551],[138.1107,-5.6322],[138.1628,-5.6275],[138.1849,-5.622],[138.1968,-5.6086],[138.2126,-5.6062],[138.2378,-5.6228],[138.2552,-5.6307],[138.267,-5.6567],[138.2795,-5.6712],[138.1744,-5.7304]]]}},{"type":"Feature","properties":{"name":"BisAgats","name_en":"BisAgats","admin_level":"7","osm_id":""},"geometry":{"type":"Polygon","coordinates":[[[138.1008,-5.4878],[138.1399,-5.5146],[138.1581,-5.5178],[138.1707,-5.5312],[138.1952,-5.5967],[138.1929,-5.613],[138.191,-5.6151],[138.1833,-5.603],[138.1297,-5.5849],[138.0997,-5.5778],[138.0799,-5.5896],[138.0486,-5.5904],[138.0514,-5.5767],[138.0535,-5.578],[138.0587,-5.5642],[138.0634,-5.5576],[138.0737,-5.5529],[138.0841,-5.531],[138.0844,-5.5273],[138.0834,-5.5246],[138.0759,-5.5205],[138.0612,-5.5165],[138.0548,-5.5087],[138.0555,-5.5075],[138.0926,-5.502],[138.1008,-5.4878]]]}},{"type":"Feature","properties":{"name":"Bisman","name_en":"Bisman","admin_level":"7","osm_id":""},"geometry":{"type":"Polygon","coordinates":[[[138.2084,-5.5021],[138.2062,-5.4728],[138.1802,-5.4657],[138.1762,-5.4381],[138.1627,-5.4151],[138.1841,-5.4144],[138.1865,-5.4041],[138.2031,-5.3994],[138.2214,-5.4015],[138.223,-5.4085],[138.2824,-5.4522],[138.3198,-5.5445],[138.3017,-5.5494],[138.2654,-5.5407],[138.2465,-5.5202],[138.2283,-5.5083],[138.2084,-5.5021]]]}},{"type":"Feature","properties":{"name":"Per","name_en":"Per","admin_level":"7","osm_id":""},"geometry":{"type":"Polygon","coordinates":[[[138.191,-5.6151],[138.1849,-5.622],[138.1628,-5.6275],[138.1107,-5.6322],[138.0934,-5.6551],[138.0721,-5.678],[138.0558,-5.6921],[138.0535,-5.6858],[138.055,-5.6824],[138.053,-5.6816],[138.0498,-5.6739],[138.0499,-5.6515],[138.0487,-5.6518],[138.0491,-5.6498],[138.0468,-5.6486],[138.0481,-5.6445],[138.0452,-5.6365],[138.0466,-5.6345],[138.0432,-5.62],[138.0466,-5.5962],[138.0502,-5.5941],[138.0484,-5.5929],[138.0486,-5.5904],[138.0799,-5.5896],[138.0997,-5.5778],[138.1297,-5.5849],[138.1833,-5.603],[138.191,-5.6151]]]}},{"type":"Feature","properties":{"name":"Smith","name_en":"Smith","admin_level":"7","osm_id":""},"geometry":{"type":"Polygon","coordinates":[[[138.1058,-5.433],[138.106,-5.4404],[138.1123,-5.4681],[138.0926,-5.502],[138.0555,-5.5075],[138.0548,-5.5087],[138.0472,-5.503],[138.0418,-5.5019],[138.0261,-5.5044],[138.0164,-5.5032],[138.0107,-5.5008],[137.9818,-5.4758],[137.9738,-5.4647],[137.9715,-5.4642],[137.9482,-5.4404],[138.0517,-5.3719],[138.0812,-5.3417],[138.0921,-5.3521],[138.0989,-5.3613],[138.102,-5.3686],[138.1016,-5.3766],[138.1055,-5.3846],[138.1058,-5.433]]]}},{"type":"Feature","properties":{"name":"Uwus","name_en":"Uwus","admin_level":"7","osm_id":""},"geometry":{"type":"Polygon","coordinates":[[[138.1627,-5.4151],[138.1447,-5.4144],[138.1257,-5.4175],[138.1057,-5.4292],[138.1055,-5.3846],[138.1077,-5.3892],[138.1215,-5.3881],[138.1364,-5.3758],[138.1456,-5.3609],[138.1479,-5.3402],[138.1464,-5.3192],[138.1318,-5.2972],[138.1574,-5.2859],[138.1913,-5.29],[138.2214,-5.4015],[138.2031,-5.3994],[138.1865,-5.4041],[138.1841,-5.4144],[138.1627,-5.4151]]]}},{"type":"Feature","properties":{"name":"Yaun","name_en":"Yaun","admin_level":"7","osm_id":""},"geometry":{"type":"Polygon","coordinates":[[[138.1055,-5.3846],[138.1016,-5.3766],[138.102,-5.3686],[138.0989,-5.3613],[138.0921,-5.3521],[138.0812,-5.3417],[138.1193,-5.3028],[138.1318,-5.2972],[138.1464,-5.3192],[138.1479,-5.3402],[138.1456,-5.3609],[138.1364,-5.3758],[138.1215,-5.3881],[138.1077,-5.3892],[138.1055,-5.3846]]]}},{"type":"Feature","properties":{"name":"Yomoth","name_en":"Yomoth","admin_level":"7","osm_id":""},"geometry":{"type":"Polygon","coordinates":[[[138.165,-5.5251],[138.1739,-5.5186],[138.1928,-5.5123],[138.2086,-5.5044],[138.2084,-5.5021],[138.2283,-5.5083],[138.2465,-5.5202],[138.2654,-5.5407],[138.3017,-5.5494],[138.3198,-5.5445],[138.3717,-5.6214],[138.3643,-5.6405],[138.2981,-5.6607],[138.2795,-5.6712],[138.267,-5.6567],[138.2552,-5.6307],[138.2378,-5.6228],[138.2126,-5.6062],[138.1968,-5.6086],[138.1929,-5.613],[138.1952,-5.5967],[138.1707,-5.5312],[138.165,-5.5251]]]}}]}