{"type":"FeatureCollection","metadata":{"parent_osm_id":"5615298","parent_name":"Tepus","parent_name_1":"Yogyakarta","parent_gid":"IDN.33.2.17_1","parent_level":"6","child_level":"7","count":5,"source":"GADM 4.1","generated":"2026-05-09"},"features":[{"type":"Feature","properties":{"name":"Giripanggung","name_en":"Giripanggung","admin_level":"7","osm_id":""},"geometry":{"type":"Polygon","coordinates":[[[110.7128,-8.1031],[110.7141,-8.1122],[110.7047,-8.1223],[110.6989,-8.1237],[110.6967,-8.1215],[110.6911,-8.1209],[110.6868,-8.1266],[110.6824,-8.1285],[110.6747,-8.1221],[110.674,-8.1198],[110.6758,-8.1069],[110.6726,-8.1024],[110.6745,-8.0981],[110.6712,-8.0878],[110.6737,-8.0805],[110.676,-8.0813],[110.6866,-8.079],[110.7128,-8.1031]]]}},{"type":"Feature","properties":{"name":"Purwodadi","name_en":"Purwodadi","admin_level":"7","osm_id":""},"geometry":{"type":"Polygon","coordinates":[[[110.6971,-8.1268],[110.6978,-8.1335],[110.6921,-8.1458],[110.692,-8.1723],[110.6912,-8.1779],[110.6885,-8.1804],[110.6891,-8.1849],[110.6838,-8.1846],[110.6827,-8.182],[110.6792,-8.1831],[110.6762,-8.1806],[110.6737,-8.1816],[110.6729,-8.1793],[110.6677,-8.1764],[110.6621,-8.1768],[110.6587,-8.1728],[110.6561,-8.1738],[110.6515,-8.1717],[110.653,-8.1696],[110.6531,-8.1634],[110.6597,-8.1501],[110.6663,-8.1491],[110.6708,-8.1443],[110.6715,-8.1393],[110.6667,-8.1343],[110.6667,-8.1261],[110.664,-8.1235],[110.6689,-8.1243],[110.674,-8.119],[110.6747,-8.1221],[110.6824,-8.1285],[110.6868,-8.1266],[110.6909,-8.121],[110.6939,-8.1207],[110.6995,-8.1236],[110.6971,-8.1268]]]}},{"type":"Feature","properties":{"name":"Sidoharjo","name_en":"Sidoharjo","admin_level":"7","osm_id":""},"geometry":{"type":"Polygon","coordinates":[[[110.6,-8.1451],[110.5989,-8.142],[110.6018,-8.1375],[110.6004,-8.1269],[110.6081,-8.118],[110.6074,-8.1147],[110.6088,-8.1124],[110.6189,-8.1033],[110.6217,-8.0967],[110.6159,-8.0836],[110.6165,-8.08],[110.6196,-8.0773],[110.6285,-8.077],[110.6319,-8.0817],[110.6365,-8.0827],[110.6387,-8.0857],[110.6446,-8.0846],[110.6471,-8.09],[110.6458,-8.0918],[110.6385,-8.0926],[110.6304,-8.098],[110.6309,-8.1025],[110.6351,-8.1054],[110.6335,-8.1224],[110.6308,-8.1247],[110.6248,-8.1251],[110.6219,-8.1341],[110.6131,-8.1397],[110.6083,-8.1476],[110.6,-8.1451]]]}},{"type":"Feature","properties":{"name":"SumberWungu","name_en":"SumberWungu","admin_level":"7","osm_id":""},"geometry":{"type":"Polygon","coordinates":[[[110.6439,-8.0565],[110.6472,-8.0586],[110.6498,-8.063],[110.6612,-8.0657],[110.6634,-8.0706],[110.6623,-8.0742],[110.6642,-8.0768],[110.6701,-8.0809],[110.6737,-8.0805],[110.6712,-8.0878],[110.6745,-8.0981],[110.6726,-8.1024],[110.6757,-8.1077],[110.674,-8.119],[110.6689,-8.1243],[110.6585,-8.1215],[110.6547,-8.11],[110.651,-8.1102],[110.6462,-8.1069],[110.65,-8.094],[110.6446,-8.0846],[110.6387,-8.0857],[110.6365,-8.0827],[110.6319,-8.0817],[110.63,-8.0782],[110.6362,-8.076],[110.6364,-8.0709],[110.6389,-8.0706],[110.6367,-8.0616],[110.6291,-8.0616],[110.6276,-8.0602],[110.6289,-8.0568],[110.6365,-8.0536],[110.6403,-8.0565],[110.6439,-8.0565]]]}},{"type":"Feature","properties":{"name":"Tepus","name_en":"Tepus","admin_level":"7","osm_id":""},"geometry":{"type":"Polygon","coordinates":[[[110.664,-8.1235],[110.6667,-8.1261],[110.6667,-8.1343],[110.6715,-8.1393],[110.6708,-8.1443],[110.6663,-8.1491],[110.6597,-8.1501],[110.6531,-8.1634],[110.6524,-8.1702],[110.644,-8.1685],[110.6367,-8.1621],[110.6251,-8.1585],[110.6085,-8.1483],[110.6131,-8.1397],[110.6219,-8.1341],[110.6248,-8.1251],[110.6312,-8.1245],[110.6343,-8.1212],[110.6351,-8.1054],[110.6309,-8.1025],[110.6304,-8.098],[110.6385,-8.0926],[110.6449,-8.0923],[110.6472,-8.0905],[110.6493,-8.0926],[110.6493,-8.0988],[110.646,-8.1065],[110.651,-8.1102],[110.6545,-8.1098],[110.6581,-8.121],[110.664,-8.1235]]]}}]}