{"type":"FeatureCollection","metadata":{"parent_osm_id":"gid_IDN_11_6_16_1","parent_name":"TamanKrocok","parent_name_1":"JawaTimur","parent_gid":"IDN.11.6.16_1","parent_level":"6","child_level":"7","count":7,"source":"GADM 4.1","generated":"2026-05-07"},"features":[{"type":"Feature","properties":{"name":"Gentong","name_en":"Gentong","admin_level":"7","osm_id":""},"geometry":{"type":"Polygon","coordinates":[[[113.8941,-7.8372],[113.9012,-7.8368],[113.9087,-7.8394],[113.9138,-7.8367],[113.9181,-7.8381],[113.9215,-7.8363],[113.9258,-7.8379],[113.9285,-7.8362],[113.9286,-7.8388],[113.9261,-7.8438],[113.9242,-7.8446],[113.925,-7.8466],[113.9207,-7.85],[113.9189,-7.854],[113.9105,-7.8569],[113.911,-7.8601],[113.9088,-7.862],[113.9054,-7.8609],[113.9025,-7.8638],[113.8969,-7.8636],[113.8984,-7.8679],[113.8962,-7.8713],[113.8939,-7.8707],[113.8947,-7.8634],[113.8902,-7.8632],[113.8838,-7.8562],[113.8867,-7.8479],[113.8941,-7.8372]]]}},{"type":"Feature","properties":{"name":"Kemuningan","name_en":"Kemuningan","admin_level":"7","osm_id":""},"geometry":{"type":"Polygon","coordinates":[[[113.8541,-7.8278],[113.8576,-7.8253],[113.8706,-7.8222],[113.8745,-7.8243],[113.8778,-7.8186],[113.8814,-7.819],[113.8815,-7.8238],[113.8941,-7.8372],[113.8849,-7.8518],[113.8835,-7.8619],[113.8765,-7.8649],[113.8697,-7.8624],[113.8685,-7.8602],[113.8597,-7.8556],[113.8566,-7.8563],[113.8541,-7.8278]]]}},{"type":"Feature","properties":{"name":"Kretek","name_en":"Kretek","admin_level":"7","osm_id":""},"geometry":{"type":"Polygon","coordinates":[[[113.8369,-7.8123],[113.839,-7.8184],[113.8425,-7.8217],[113.8426,-7.8255],[113.8506,-7.8234],[113.8546,-7.8255],[113.8568,-7.8527],[113.8546,-7.8626],[113.8571,-7.8736],[113.8604,-7.876],[113.8598,-7.8777],[113.8478,-7.8759],[113.8464,-7.8795],[113.8433,-7.8764],[113.8417,-7.8773],[113.8426,-7.8744],[113.8359,-7.8575],[113.8319,-7.8366],[113.8229,-7.8286],[113.8154,-7.8275],[113.8155,-7.8184],[113.8198,-7.8171],[113.8248,-7.8111],[113.8294,-7.8132],[113.8369,-7.8123]]]}},{"type":"Feature","properties":{"name":"Paguan","name_en":"Paguan","admin_level":"7","osm_id":""},"geometry":{"type":"Polygon","coordinates":[[[113.8653,-7.8983],[113.8595,-7.8964],[113.8617,-7.8788],[113.8707,-7.8839],[113.8752,-7.8845],[113.8828,-7.8817],[113.8824,-7.887],[113.878,-7.8877],[113.8771,-7.8906],[113.8724,-7.892],[113.8709,-7.8951],[113.8688,-7.8949],[113.8653,-7.8983]]]}},{"type":"Feature","properties":{"name":"Sumberkokap","name_en":"Sumberkokap","admin_level":"7","osm_id":""},"geometry":{"type":"Polygon","coordinates":[[[113.8566,-7.8563],[113.8597,-7.8556],[113.8685,-7.8602],[113.8697,-7.8624],[113.8765,-7.8643],[113.8774,-7.8702],[113.8769,-7.8738],[113.8754,-7.874],[113.8752,-7.8807],[113.8776,-7.8836],[113.8707,-7.8839],[113.8598,-7.8777],[113.8604,-7.876],[113.8571,-7.8736],[113.8546,-7.8626],[113.8566,-7.8563]]]}},{"type":"Feature","properties":{"name":"Taman","name_en":"Taman","admin_level":"7","osm_id":""},"geometry":{"type":"Polygon","coordinates":[[[113.8838,-7.8562],[113.8902,-7.8632],[113.8947,-7.8634],[113.8939,-7.8707],[113.8887,-7.8725],[113.888,-7.8752],[113.8849,-7.8765],[113.8828,-7.8817],[113.8777,-7.8834],[113.8752,-7.8807],[113.8754,-7.874],[113.8769,-7.8738],[113.8774,-7.8702],[113.8765,-7.8649],[113.8835,-7.8619],[113.8838,-7.8562]]]}},{"type":"Feature","properties":{"name":"Trebungan","name_en":"Trebungan","admin_level":"7","osm_id":""},"geometry":{"type":"Polygon","coordinates":[[[113.8595,-7.8964],[113.8555,-7.8956],[113.8555,-7.8939],[113.8514,-7.8927],[113.8525,-7.8774],[113.8574,-7.8781],[113.8577,-7.8768],[113.8617,-7.8788],[113.8595,-7.8964]]]}}]}