{"type":"FeatureCollection","metadata":{"parent_osm_id":"gid_IDN_8_9_6_1","parent_name":"MuaraPapalik","parent_name_1":"Jambi","parent_gid":"IDN.8.9.6_1","parent_level":"6","child_level":"7","count":5,"source":"GADM 4.1","generated":"2026-05-09"},"features":[{"type":"Feature","properties":{"name":"BukitIndah","name_en":"BukitIndah","admin_level":"7","osm_id":""},"geometry":{"type":"Polygon","coordinates":[[[103.2025,-1.358],[103.1948,-1.3672],[103.1753,-1.3784],[103.1689,-1.3861],[103.166,-1.3863],[103.156,-1.3765],[103.149,-1.3739],[103.1485,-1.3685],[103.123,-1.3407],[103.1083,-1.3178],[103.0951,-1.3146],[103.086,-1.3038],[103.0913,-1.2858],[103.0991,-1.2928],[103.1152,-1.298],[103.1495,-1.3037],[103.146,-1.3186],[103.151,-1.3274],[103.2025,-1.358]]]}},{"type":"Feature","properties":{"name":"DusunMudo","name_en":"DusunMudo","admin_level":"7","osm_id":""},"geometry":{"type":"Polygon","coordinates":[[[103.2606,-1.2313],[103.2639,-1.3109],[103.263,-1.3161],[103.2602,-1.3181],[103.2622,-1.3325],[103.2562,-1.3368],[103.2527,-1.343],[103.2529,-1.354],[103.2467,-1.3611],[103.2364,-1.3638],[103.2326,-1.3578],[103.2317,-1.3431],[103.2204,-1.3442],[103.2165,-1.3182],[103.1812,-1.2978],[103.1537,-1.286],[103.1334,-1.2809],[103.1165,-1.2571],[103.0932,-1.2432],[103.0847,-1.2226],[103.0916,-1.2212],[103.0994,-1.2164],[103.1042,-1.2072],[103.1014,-1.2056],[103.102,-1.2012],[103.1132,-1.2017],[103.1167,-1.2004],[103.1325,-1.2208],[103.1365,-1.2312],[103.1378,-1.2303],[103.1408,-1.2163],[103.1451,-1.2144],[103.1632,-1.1863],[103.1674,-1.183],[103.1704,-1.1869],[103.171,-1.1967],[103.1737,-1.2018],[103.2129,-1.2205],[103.2606,-1.2313]]]}},{"type":"Feature","properties":{"name":"IntanJaya","name_en":"IntanJaya","admin_level":"7","osm_id":""},"geometry":{"type":"Polygon","coordinates":[[[103.1193,-1.3959],[103.119,-1.3988],[103.1161,-1.3998],[103.079,-1.393],[103.0654,-1.3884],[103.0598,-1.3885],[103.0604,-1.3533],[103.0784,-1.3221],[103.086,-1.3038],[103.0951,-1.3146],[103.1083,-1.3178],[103.123,-1.3407],[103.1476,-1.3678],[103.128,-1.3892],[103.12,-1.3915],[103.1193,-1.3959]]]}},{"type":"Feature","properties":{"name":"KemangManis","name_en":"KemangManis","admin_level":"7","osm_id":""},"geometry":{"type":"Polygon","coordinates":[[[103.2054,-1.3555],[103.2025,-1.358],[103.151,-1.3274],[103.146,-1.3186],[103.1537,-1.286],[103.1812,-1.2978],[103.2165,-1.3182],[103.2204,-1.3442],[103.2054,-1.3555]]]}},{"type":"Feature","properties":{"name":"RantauBadak","name_en":"RantauBadak","admin_level":"7","osm_id":""},"geometry":{"type":"Polygon","coordinates":[[[103.0913,-1.2858],[103.0866,-1.2686],[103.0912,-1.2579],[103.0932,-1.2432],[103.1165,-1.2571],[103.1334,-1.2809],[103.1537,-1.286],[103.1495,-1.3037],[103.1152,-1.298],[103.0991,-1.2928],[103.0913,-1.2858]]]}}]}