{"type":"FeatureCollection","metadata":{"parent_osm_id":"17859563","parent_name":"Pariangan","parent_name_1":"SumateraBarat","parent_gid":"IDN.30.20.7_1","parent_level":"6","child_level":"7","count":6,"source":"GADM 4.1","generated":"2026-05-09"},"features":[{"type":"Feature","properties":{"name":"BatuBasa","name_en":"BatuBasa","admin_level":"7","osm_id":""},"geometry":{"type":"Polygon","coordinates":[[[100.4887,-0.4771],[100.4804,-0.4642],[100.4921,-0.4594],[100.4969,-0.4612],[100.5027,-0.4606],[100.5089,-0.4644],[100.5153,-0.4714],[100.5221,-0.4733],[100.5313,-0.4889],[100.5201,-0.5021],[100.5189,-0.5041],[100.5201,-0.5066],[100.5011,-0.5],[100.4887,-0.4771]]]}},{"type":"Feature","properties":{"name":"Pariangan","name_en":"Pariangan","admin_level":"7","osm_id":""},"geometry":{"type":"Polygon","coordinates":[[[100.466,-0.3904],[100.4933,-0.4318],[100.5086,-0.4452],[100.4997,-0.449],[100.5027,-0.4606],[100.4969,-0.4612],[100.4921,-0.4594],[100.4804,-0.4641],[100.4747,-0.4456],[100.4679,-0.4366],[100.4678,-0.4309],[100.4703,-0.424],[100.4676,-0.4169],[100.4683,-0.4044],[100.466,-0.3904]]]}},{"type":"Feature","properties":{"name":"SawahTangah","name_en":"SawahTangah","admin_level":"7","osm_id":""},"geometry":{"type":"Polygon","coordinates":[[[100.524,-0.439],[100.5319,-0.4574],[100.5221,-0.4573],[100.5168,-0.4618],[100.5093,-0.4458],[100.5039,-0.4411],[100.5123,-0.4381],[100.524,-0.439]]]}},{"type":"Feature","properties":{"name":"Simabur","name_en":"Simabur","admin_level":"7","osm_id":""},"geometry":{"type":"Polygon","coordinates":[[[100.522,-0.4733],[100.5153,-0.4714],[100.5089,-0.4644],[100.5027,-0.4606],[100.4997,-0.449],[100.5093,-0.4458],[100.522,-0.4733]]]}},{"type":"Feature","properties":{"name":"SungaiJambu","name_en":"SungaiJambu","admin_level":"7","osm_id":""},"geometry":{"type":"Polygon","coordinates":[[[100.4722,-0.385],[100.4785,-0.3937],[100.493,-0.3989],[100.4994,-0.4077],[100.5025,-0.4082],[100.5084,-0.4133],[100.5092,-0.4167],[100.5157,-0.425],[100.5187,-0.4336],[100.524,-0.439],[100.5123,-0.4381],[100.5039,-0.4411],[100.4933,-0.4318],[100.467,-0.3904],[100.4701,-0.3896],[100.4722,-0.385]]]}},{"type":"Feature","properties":{"name":"Tabek","name_en":"Tabek","admin_level":"7","osm_id":""},"geometry":{"type":"Polygon","coordinates":[[[100.5369,-0.4628],[100.5381,-0.4658],[100.5363,-0.4735],[100.5398,-0.4824],[100.5371,-0.4857],[100.5313,-0.4889],[100.5168,-0.4618],[100.5221,-0.4573],[100.5257,-0.4566],[100.5319,-0.4574],[100.5369,-0.4628]]]}}]}