{"type":"FeatureCollection","metadata":{"parent_osm_id":"10004810","parent_name":"Nibung","parent_name_1":"SumateraSelatan","parent_gid":"IDN.31.7.9_1","parent_level":"6","child_level":"7","count":11,"source":"GADM 4.1","generated":"2026-05-09"},"features":[{"type":"Feature","properties":{"name":"BumiMakmur","name_en":"BumiMakmur","admin_level":"7","osm_id":""},"geometry":{"type":"Polygon","coordinates":[[[103.011,-2.5057],[103.0104,-2.5035],[103.0064,-2.5037],[103.0017,-2.4988],[102.9984,-2.4994],[102.9955,-2.4972],[102.9963,-2.4958],[102.9947,-2.4956],[102.9975,-2.4942],[102.9952,-2.4931],[102.9952,-2.4893],[102.9932,-2.4865],[102.9932,-2.4585],[103.0075,-2.4546],[103.0177,-2.4463],[103.0262,-2.4453],[103.0342,-2.4347],[103.0346,-2.432],[103.0431,-2.4302],[103.0427,-2.4371],[103.0365,-2.4567],[103.0367,-2.4653],[103.04,-2.4716],[103.0309,-2.4836],[103.0218,-2.4895],[103.011,-2.5057]]]}},{"type":"Feature","properties":{"name":"JadiMulya","name_en":"JadiMulya","admin_level":"7","osm_id":""},"geometry":{"type":"Polygon","coordinates":[[[102.9279,-2.5736],[102.9279,-2.5528],[102.9269,-2.5447],[102.9255,-2.5445],[102.9266,-2.5254],[102.9255,-2.5251],[102.9233,-2.5236],[102.9433,-2.5249],[102.9499,-2.5158],[102.9499,-2.4975],[102.9544,-2.4964],[102.9628,-2.4999],[102.9689,-2.4978],[102.9783,-2.5025],[102.9849,-2.5026],[102.995,-2.5064],[103.0042,-2.5136],[103.0135,-2.5177],[103.0212,-2.5244],[103.0342,-2.5308],[103.0322,-2.5377],[103.0339,-2.5479],[103.033,-2.5504],[103.0321,-2.5514],[103.0315,-2.5499],[103.0298,-2.5518],[103.0281,-2.5501],[103.0284,-2.5528],[103.0264,-2.5532],[103.0247,-2.5571],[103.0187,-2.5577],[103.0192,-2.5629],[103.0177,-2.5649],[103.0188,-2.5688],[103.0092,-2.5795],[103.0117,-2.583],[103.0117,-2.5893],[103.0094,-2.5938],[103.0122,-2.598],[103.0111,-2.6019],[103.0088,-2.6006],[103.0062,-2.5924],[103.0023,-2.5901],[103.0012,-2.5854],[102.9956,-2.58],[102.9919,-2.5787],[102.9695,-2.5809],[102.9607,-2.5778],[102.9279,-2.5736]]]}},{"type":"Feature","properties":{"name":"JadiMulyaI","name_en":"JadiMulyaI","admin_level":"7","osm_id":""},"geometry":{"type":"Polygon","coordinates":[[[102.8103,-2.4839],[102.8155,-2.474],[102.8252,-2.4654],[102.826,-2.459],[102.8329,-2.4566],[102.8412,-2.4502],[102.8445,-2.4448],[102.8451,-2.4377],[102.8521,-2.4332],[102.8621,-2.4233],[102.8683,-2.4141],[102.8754,-2.4098],[102.8755,-2.4066],[102.8708,-2.4007],[102.8701,-2.396],[102.9039,-2.4416],[102.8834,-2.4413],[102.8651,-2.4369],[102.8656,-2.4435],[102.8625,-2.4474],[102.8649,-2.4526],[102.862,-2.4555],[102.8631,-2.468],[102.8609,-2.4737],[102.862,-2.4766],[102.8681,-2.4822],[102.8836,-2.4856],[102.8854,-2.4878],[102.8872,-2.487],[102.8922,-2.4925],[102.8932,-2.4983],[102.8973,-2.4967],[102.899,-2.4981],[102.9,-2.5064],[102.9051,-2.5111],[102.9013,-2.5137],[102.8956,-2.5083],[102.878,-2.5235],[102.88,-2.5429],[102.8823,-2.5444],[102.8863,-2.5415],[102.8918,-2.5417],[102.8928,-2.5467],[102.8897,-2.556],[102.8926,-2.564],[102.8961,-2.5661],[102.9068,-2.564],[102.9156,-2.5666],[102.9232,-2.5558],[102.9279,-2.5538],[102.9279,-2.5736],[102.894,-2.5693],[102.8549,-2.527],[102.8103,-2.4839]]]}},{"type":"Feature","properties":{"name":"KaryaMakmur","name_en":"KaryaMakmur","admin_level":"7","osm_id":""},"geometry":{"type":"Polygon","coordinates":[[[102.9932,-2.4585],[102.9932,-2.4865],[102.9952,-2.4893],[102.9952,-2.4931],[102.9975,-2.4942],[102.9947,-2.4956],[102.9963,-2.4958],[102.9955,-2.4972],[102.9984,-2.4994],[103.0017,-2.4988],[103.0064,-2.5037],[103.0104,-2.5035],[103.011,-2.5057],[102.9976,-2.5075],[102.9849,-2.5026],[102.9783,-2.5025],[102.9689,-2.4978],[102.9628,-2.4999],[102.9544,-2.4964],[102.9503,-2.4977],[102.9439,-2.4923],[102.944,-2.488],[102.9492,-2.4855],[102.9606,-2.4751],[102.9738,-2.4586],[102.9755,-2.4489],[102.9844,-2.4486],[102.9842,-2.4295],[102.9932,-2.43],[102.9932,-2.4585]]]}},{"type":"Feature","properties":{"name":"KelumpangJaya","name_en":"KelumpangJaya","admin_level":"7","osm_id":""},"geometry":{"type":"Polygon","coordinates":[[[102.8701,-2.396],[102.9566,-2.4227],[102.9567,-2.4369],[102.9472,-2.4509],[102.9041,-2.4418],[102.8701,-2.396]]]}},{"type":"Feature","properties":{"name":"KeraniJaya","name_en":"KeraniJaya","admin_level":"7","osm_id":""},"geometry":{"type":"Polygon","coordinates":[[[102.9274,-2.5542],[102.9232,-2.5558],[102.9156,-2.5666],[102.9068,-2.564],[102.8992,-2.5661],[102.8938,-2.5651],[102.8897,-2.556],[102.8928,-2.5467],[102.8926,-2.5431],[102.8918,-2.5417],[102.8863,-2.5415],[102.8823,-2.5444],[102.88,-2.5429],[102.878,-2.5235],[102.8956,-2.5083],[102.9013,-2.5137],[102.9051,-2.5111],[102.9077,-2.5143],[102.9168,-2.5169],[102.9209,-2.522],[102.9266,-2.5254],[102.9255,-2.5445],[102.9269,-2.5447],[102.9274,-2.5542]]]}},{"type":"Feature","properties":{"name":"MulyaJaya","name_en":"MulyaJaya","admin_level":"7","osm_id":""},"geometry":{"type":"Polygon","coordinates":[[[102.9005,-2.507],[102.899,-2.4981],[102.8973,-2.4967],[102.8932,-2.4983],[102.8905,-2.4897],[102.8833,-2.4856],[102.8834,-2.4765],[102.8853,-2.4766],[102.8865,-2.4737],[102.8883,-2.4735],[102.8924,-2.4655],[102.8946,-2.4637],[102.8973,-2.465],[102.9041,-2.4418],[102.9108,-2.4431],[102.9291,-2.4727],[102.9253,-2.4791],[102.9192,-2.4811],[102.9198,-2.4835],[102.9154,-2.487],[102.9124,-2.4935],[102.9045,-2.5013],[102.9029,-2.5067],[102.9005,-2.507]]]}},{"type":"Feature","properties":{"name":"SrijayaMakmur","name_en":"SrijayaMakmur","admin_level":"7","osm_id":""},"geometry":{"type":"Polygon","coordinates":[[[102.9842,-2.4295],[102.9844,-2.4486],[102.9755,-2.4489],[102.9738,-2.4586],[102.9606,-2.4751],[102.9492,-2.4855],[102.9472,-2.4787],[102.9304,-2.4837],[102.929,-2.479],[102.9255,-2.4788],[102.9291,-2.4727],[102.9108,-2.4431],[102.9472,-2.4509],[102.9567,-2.4369],[102.9566,-2.4227],[102.9841,-2.4099],[102.9842,-2.4295]]]}},{"type":"Feature","properties":{"name":"SumberMakmur","name_en":"SumberMakmur","admin_level":"7","osm_id":""},"geometry":{"type":"Polygon","coordinates":[[[102.9047,-2.5108],[102.9005,-2.507],[102.9029,-2.5067],[102.9045,-2.5013],[102.9124,-2.4935],[102.9154,-2.487],[102.9198,-2.4835],[102.9192,-2.4811],[102.929,-2.479],[102.9304,-2.4837],[102.9472,-2.4787],[102.9491,-2.4853],[102.944,-2.488],[102.9439,-2.4923],[102.9499,-2.4975],[102.9499,-2.5158],[102.9433,-2.5249],[102.9248,-2.5245],[102.9209,-2.522],[102.9182,-2.5177],[102.9136,-2.5149],[102.9077,-2.5143],[102.9047,-2.5108]]]}},{"type":"Feature","properties":{"name":"SumberSari","name_en":"SumberSari","admin_level":"7","osm_id":""},"geometry":{"type":"Polygon","coordinates":[[[103.0401,-2.4713],[103.0367,-2.4653],[103.0365,-2.4567],[103.0417,-2.4402],[103.0463,-2.4401],[103.0508,-2.444],[103.0695,-2.4446],[103.065,-2.465],[103.0551,-2.484],[103.0544,-2.4816],[103.0424,-2.4824],[103.0401,-2.4713]]]}},{"type":"Feature","properties":{"name":"TebingTinggi","name_en":"TebingTinggi","admin_level":"7","osm_id":""},"geometry":{"type":"Polygon","coordinates":[[[102.8431,-2.3355],[102.8519,-2.3355],[102.8593,-2.3312],[102.8605,-2.3279],[102.8643,-2.3248],[102.8667,-2.318],[102.8743,-2.3134],[102.8769,-2.3045],[102.8854,-2.308],[102.892,-2.3142],[102.8974,-2.3151],[102.9089,-2.3117],[102.9124,-2.3156],[102.917,-2.3166],[102.923,-2.3235],[102.9348,-2.322],[102.944,-2.3266],[102.9515,-2.3264],[102.9604,-2.3297],[102.9681,-2.3295],[102.989,-2.3401],[103.0001,-2.3404],[103.0045,-2.3352],[103.0062,-2.3461],[103.0146,-2.365],[103.014,-2.3902],[103.0182,-2.4022],[103.0215,-2.4049],[103.0249,-2.4051],[103.0352,-2.3969],[103.0448,-2.4027],[103.0531,-2.4023],[103.0549,-2.4054],[103.05,-2.4093],[103.0507,-2.4166],[103.0587,-2.4205],[103.0588,-2.4238],[103.0622,-2.4267],[103.063,-2.4328],[103.0667,-2.4398],[103.0702,-2.4429],[103.0862,-2.4475],[103.0985,-2.4546],[103.0544,-2.4888],[103.0636,-2.5351],[103.0464,-2.5529],[103.0427,-2.5593],[103.0423,-2.5562],[103.0334,-2.5471],[103.0322,-2.5377],[103.0342,-2.5308],[103.0212,-2.5244],[103.0135,-2.5177],[103.0042,-2.5136],[102.9964,-2.5071],[103.0127,-2.5048],[103.0218,-2.4895],[103.0309,-2.4836],[103.0401,-2.4713],[103.0424,-2.4824],[103.0544,-2.4816],[103.0551,-2.484],[103.065,-2.465],[103.0695,-2.4446],[103.0508,-2.444],[103.0463,-2.4401],[103.0419,-2.4401],[103.0428,-2.4301],[103.0346,-2.432],[103.0342,-2.4347],[103.0262,-2.4453],[103.0177,-2.4463],[103.0075,-2.4546],[102.9932,-2.4585],[102.9932,-2.43],[102.9842,-2.4295],[102.9841,-2.4099],[102.9564,-2.4227],[102.8695,-2.3952],[102.8719,-2.3851],[102.8641,-2.3873],[102.8508,-2.3866],[102.8478,-2.3842],[102.8471,-2.3744],[102.8419,-2.3693],[102.8396,-2.3588],[102.8411,-2.3533],[102.845,-2.3476],[102.8405,-2.3401],[102.8431,-2.3355]]]}}]}