{"type":"FeatureCollection","metadata":{"parent_osm_id":"gid_IDN_10_10_2_1","parent_name":"Batealit","parent_name_1":"JawaTengah","parent_gid":"IDN.10.10.2_1","parent_level":"6","child_level":"7","count":11,"source":"GADM 4.1","generated":"2026-05-09"},"features":[{"type":"Feature","properties":{"name":"Bantrung","name_en":"Bantrung","admin_level":"7","osm_id":""},"geometry":{"type":"Polygon","coordinates":[[[110.7388,-6.6247],[110.7266,-6.6179],[110.7239,-6.6125],[110.7211,-6.6106],[110.7213,-6.6075],[110.7263,-6.6055],[110.7272,-6.6088],[110.7366,-6.6088],[110.7401,-6.6121],[110.7493,-6.6119],[110.7519,-6.6164],[110.7517,-6.6206],[110.7458,-6.6199],[110.7456,-6.6219],[110.7486,-6.6239],[110.7542,-6.6238],[110.7545,-6.63],[110.7519,-6.6312],[110.7388,-6.6247]]]}},{"type":"Feature","properties":{"name":"Batealit","name_en":"Batealit","admin_level":"7","osm_id":""},"geometry":{"type":"Polygon","coordinates":[[[110.7769,-6.6317],[110.7834,-6.6252],[110.7793,-6.6172],[110.7778,-6.6112],[110.779,-6.6105],[110.7864,-6.6122],[110.7906,-6.61],[110.7934,-6.6106],[110.8004,-6.6067],[110.8027,-6.6071],[110.8023,-6.6108],[110.8046,-6.6123],[110.8161,-6.6105],[110.8128,-6.6162],[110.8069,-6.6198],[110.802,-6.6204],[110.8037,-6.6229],[110.8027,-6.6237],[110.8013,-6.6228],[110.7983,-6.6249],[110.7975,-6.6276],[110.7948,-6.6274],[110.7931,-6.6292],[110.788,-6.6291],[110.7808,-6.6366],[110.7792,-6.637],[110.7769,-6.6317]]]}},{"type":"Feature","properties":{"name":"Bawu","name_en":"Bawu","admin_level":"7","osm_id":""},"geometry":{"type":"Polygon","coordinates":[[[110.7211,-6.6106],[110.7239,-6.6125],[110.7273,-6.6186],[110.7388,-6.6247],[110.738,-6.636],[110.7356,-6.642],[110.7336,-6.6405],[110.7328,-6.6428],[110.7292,-6.6413],[110.7271,-6.6427],[110.7266,-6.6402],[110.7118,-6.6345],[110.7139,-6.6325],[110.7129,-6.6318],[110.7145,-6.6269],[110.7133,-6.6263],[110.7158,-6.6224],[110.7137,-6.6205],[110.7162,-6.6133],[110.7211,-6.6106]]]}},{"type":"Feature","properties":{"name":"Bringin","name_en":"Bringin","admin_level":"7","osm_id":""},"geometry":{"type":"Polygon","coordinates":[[[110.7545,-6.63],[110.7542,-6.6238],[110.7486,-6.6239],[110.7456,-6.6219],[110.7458,-6.6199],[110.7517,-6.6206],[110.7511,-6.6146],[110.7493,-6.6119],[110.7476,-6.6126],[110.7463,-6.6117],[110.7503,-6.6101],[110.7506,-6.6064],[110.7519,-6.6056],[110.7538,-6.6072],[110.7543,-6.6061],[110.7555,-6.6079],[110.7574,-6.6058],[110.7594,-6.6082],[110.7615,-6.6069],[110.763,-6.6088],[110.765,-6.6071],[110.7651,-6.6089],[110.7669,-6.6096],[110.7684,-6.6078],[110.7721,-6.6073],[110.7754,-6.6085],[110.776,-6.6119],[110.778,-6.6114],[110.7834,-6.625],[110.7817,-6.6278],[110.7769,-6.6317],[110.7688,-6.6338],[110.7623,-6.6329],[110.7573,-6.6285],[110.7545,-6.63]]]}},{"type":"Feature","properties":{"name":"Geneng","name_en":"Geneng","admin_level":"7","osm_id":""},"geometry":{"type":"Polygon","coordinates":[[[110.7315,-6.6734],[110.7328,-6.6742],[110.7348,-6.6721],[110.7391,-6.6729],[110.7483,-6.678],[110.7475,-6.6818],[110.7432,-6.6874],[110.7389,-6.6874],[110.7331,-6.6949],[110.7232,-6.6824],[110.7263,-6.6793],[110.7259,-6.6749],[110.7315,-6.6734]]]}},{"type":"Feature","properties":{"name":"Mindahan","name_en":"Mindahan","admin_level":"7","osm_id":""},"geometry":{"type":"Polygon","coordinates":[[[110.7388,-6.6247],[110.7519,-6.6312],[110.7573,-6.6285],[110.7623,-6.6329],[110.7679,-6.6334],[110.7676,-6.6365],[110.771,-6.6403],[110.7687,-6.6464],[110.7615,-6.6415],[110.7595,-6.6411],[110.7566,-6.6433],[110.7522,-6.6421],[110.7501,-6.6404],[110.7509,-6.6381],[110.7456,-6.6411],[110.737,-6.6404],[110.7388,-6.6247]]]}},{"type":"Feature","properties":{"name":"MindahanKidul","name_en":"MindahanKidul","admin_level":"7","osm_id":""},"geometry":{"type":"Polygon","coordinates":[[[110.742,-6.6416],[110.7509,-6.6381],[110.7501,-6.6404],[110.7522,-6.6421],[110.7566,-6.6433],[110.7595,-6.6411],[110.7615,-6.6415],[110.7677,-6.6452],[110.7703,-6.6497],[110.7689,-6.6516],[110.7641,-6.6508],[110.7543,-6.6625],[110.7468,-6.6557],[110.7438,-6.6559],[110.7419,-6.65],[110.742,-6.6416]]]}},{"type":"Feature","properties":{"name":"Ngasem","name_en":"Ngasem","admin_level":"7","osm_id":""},"geometry":{"type":"Polygon","coordinates":[[[110.7171,-6.637],[110.7266,-6.6402],[110.7271,-6.6427],[110.7292,-6.6413],[110.7328,-6.6428],[110.7336,-6.6405],[110.7356,-6.642],[110.7365,-6.64],[110.742,-6.6409],[110.7419,-6.65],[110.7438,-6.6559],[110.7374,-6.6576],[110.7342,-6.6621],[110.7267,-6.6627],[110.7303,-6.6666],[110.7289,-6.6682],[110.7249,-6.6653],[110.7253,-6.6633],[110.7197,-6.668],[110.7127,-6.6638],[110.7161,-6.6605],[110.7145,-6.6472],[110.7171,-6.637]]]}},{"type":"Feature","properties":{"name":"Pekalongan","name_en":"Pekalongan","admin_level":"7","osm_id":""},"geometry":{"type":"Polygon","coordinates":[[[110.7152,-6.6176],[110.7137,-6.6205],[110.7158,-6.6224],[110.7133,-6.6263],[110.7145,-6.6269],[110.7129,-6.6318],[110.7139,-6.6325],[110.7117,-6.6343],[110.7075,-6.6332],[110.7079,-6.6264],[110.7007,-6.6251],[110.6972,-6.6228],[110.6973,-6.6205],[110.6956,-6.6195],[110.6972,-6.6146],[110.7027,-6.6154],[110.7046,-6.6135],[110.7094,-6.6144],[110.7099,-6.6103],[110.7139,-6.6124],[110.7125,-6.6176],[110.7152,-6.6176]]]}},{"type":"Feature","properties":{"name":"Raguklampitan","name_en":"Raguklampitan","admin_level":"7","osm_id":""},"geometry":{"type":"Polygon","coordinates":[[[110.7483,-6.678],[110.7391,-6.6729],[110.7335,-6.6723],[110.732,-6.6743],[110.7306,-6.6671],[110.7267,-6.6627],[110.7342,-6.6621],[110.7374,-6.6576],[110.7458,-6.6556],[110.7543,-6.6625],[110.7644,-6.6505],[110.7689,-6.6516],[110.7709,-6.6547],[110.7707,-6.6595],[110.777,-6.6618],[110.7774,-6.6644],[110.7813,-6.6641],[110.7865,-6.6588],[110.7929,-6.6557],[110.7947,-6.657],[110.7943,-6.6628],[110.7912,-6.6653],[110.7906,-6.664],[110.788,-6.6645],[110.7886,-6.6665],[110.7864,-6.666],[110.7858,-6.6698],[110.7856,-6.6682],[110.782,-6.6679],[110.7793,-6.669],[110.7801,-6.6714],[110.7751,-6.6703],[110.761,-6.6721],[110.757,-6.6672],[110.7489,-6.6709],[110.7483,-6.678]]]}},{"type":"Feature","properties":{"name":"Somosari","name_en":"Somosari","admin_level":"7","osm_id":""},"geometry":{"type":"Polygon","coordinates":[[[110.7769,-6.6317],[110.7794,-6.637],[110.788,-6.6291],[110.7975,-6.6276],[110.7983,-6.6249],[110.8013,-6.6228],[110.8026,-6.6238],[110.8094,-6.6206],[110.8116,-6.6219],[110.8159,-6.621],[110.8168,-6.6224],[110.8285,-6.6168],[110.832,-6.6172],[110.8361,-6.6154],[110.8378,-6.6168],[110.8384,-6.6139],[110.8444,-6.6144],[110.8491,-6.6118],[110.8547,-6.6161],[110.863,-6.6153],[110.8652,-6.6159],[110.8676,-6.6193],[110.8713,-6.6189],[110.8728,-6.6203],[110.8663,-6.6233],[110.8636,-6.6271],[110.8622,-6.6239],[110.8598,-6.6233],[110.8592,-6.647],[110.8561,-6.6491],[110.8511,-6.649],[110.8472,-6.6519],[110.8467,-6.6557],[110.8491,-6.6578],[110.8509,-6.6643],[110.8439,-6.6675],[110.8435,-6.6648],[110.8383,-6.6601],[110.8351,-6.6443],[110.8325,-6.6413],[110.8212,-6.6455],[110.8157,-6.6431],[110.8044,-6.6449],[110.8002,-6.6417],[110.7925,-6.6432],[110.7907,-6.642],[110.7793,-6.6462],[110.7769,-6.6444],[110.7767,-6.6474],[110.7703,-6.6497],[110.7693,-6.6472],[110.7677,-6.6471],[110.771,-6.6403],[110.7676,-6.6365],[110.7679,-6.6334],[110.7769,-6.6317]]]}}]}