{"type":"FeatureCollection","metadata":{"parent_osm_id":"gid_IDN_20_10_3_1","parent_name":"Batulanteh","parent_name_1":"NusaTenggaraBarat","parent_gid":"IDN.20.10.3_1","parent_level":"6","child_level":"7","count":6,"source":"GADM 4.1","generated":"2026-05-09"},"features":[{"type":"Feature","properties":{"name":"BaoDesa","name_en":"BaoDesa","admin_level":"7","osm_id":""},"geometry":{"type":"Polygon","coordinates":[[[117.1618,-8.6585],[117.1568,-8.66],[117.1513,-8.6592],[117.1388,-8.6524],[117.1176,-8.6293],[117.1156,-8.6253],[117.114,-8.6103],[117.1057,-8.5977],[117.1038,-8.5758],[117.1152,-8.5779],[117.1322,-8.5773],[117.1362,-8.5848],[117.1438,-8.5928],[117.1556,-8.6136],[117.1627,-8.6163],[117.1784,-8.6339],[117.1819,-8.6334],[117.1811,-8.6384],[117.1702,-8.6453],[117.1618,-8.6585]]]}},{"type":"Feature","properties":{"name":"Batudulang","name_en":"Batudulang","admin_level":"7","osm_id":""},"geometry":{"type":"Polygon","coordinates":[[[117.2792,-8.5523],[117.28,-8.5547],[117.2841,-8.5556],[117.292,-8.5614],[117.2951,-8.5695],[117.2986,-8.5719],[117.3052,-8.5723],[117.3093,-8.5743],[117.3109,-8.573],[117.3126,-8.5755],[117.3146,-8.5738],[117.3308,-8.5886],[117.342,-8.6037],[117.339,-8.6056],[117.3355,-8.6053],[117.3358,-8.6039],[117.3324,-8.6027],[117.3312,-8.6051],[117.3297,-8.6039],[117.3277,-8.6049],[117.327,-8.6032],[117.3253,-8.6042],[117.3243,-8.6027],[117.3232,-8.6054],[117.3205,-8.6044],[117.3181,-8.6064],[117.3168,-8.6106],[117.3146,-8.6088],[117.3149,-8.6103],[117.3124,-8.6105],[117.3116,-8.6124],[117.3052,-8.6142],[117.3038,-8.6117],[117.2999,-8.6137],[117.2987,-8.6127],[117.2975,-8.6163],[117.2936,-8.6166],[117.2932,-8.6189],[117.2874,-8.6176],[117.2765,-8.6194],[117.2624,-8.6244],[117.255,-8.6185],[117.2453,-8.6151],[117.2386,-8.6097],[117.2341,-8.6049],[117.2301,-8.5967],[117.2224,-8.5913],[117.221,-8.5868],[117.2181,-8.5854],[117.2182,-8.5831],[117.2138,-8.5808],[117.2152,-8.5784],[117.2132,-8.5715],[117.2158,-8.5677],[117.2241,-8.5624],[117.2242,-8.5608],[117.222,-8.5591],[117.2249,-8.5557],[117.2272,-8.5571],[117.227,-8.5517],[117.242,-8.5517],[117.2434,-8.5547],[117.246,-8.555],[117.2501,-8.5593],[117.2619,-8.5622],[117.2761,-8.5501],[117.2792,-8.5523]]]}},{"type":"Feature","properties":{"name":"Baturotok","name_en":"Baturotok","admin_level":"7","osm_id":""},"geometry":{"type":"Polygon","coordinates":[[[117.0857,-8.6998],[117.0822,-8.6951],[117.0719,-8.6873],[117.0706,-8.6847],[117.0712,-8.6805],[117.0694,-8.678],[117.0625,-8.6748],[117.0593,-8.6775],[117.0559,-8.6774],[117.049,-8.6701],[117.0542,-8.6554],[117.0564,-8.654],[117.0546,-8.6521],[117.0663,-8.6418],[117.0691,-8.6338],[117.0776,-8.6214],[117.087,-8.6021],[117.0923,-8.5963],[117.0945,-8.5901],[117.099,-8.5846],[117.1005,-8.5785],[117.1038,-8.5758],[117.1057,-8.5977],[117.114,-8.6103],[117.1156,-8.6253],[117.1176,-8.6293],[117.1388,-8.6524],[117.1513,-8.6592],[117.1568,-8.66],[117.1618,-8.6585],[117.1668,-8.6671],[117.1673,-8.6726],[117.1643,-8.682],[117.1642,-8.689],[117.1612,-8.6954],[117.1612,-8.709],[117.1386,-8.703],[117.1168,-8.6994],[117.0857,-8.6998]]]}},{"type":"Feature","properties":{"name":"Kelungkung","name_en":"Kelungkung","admin_level":"7","osm_id":""},"geometry":{"type":"Polygon","coordinates":[[[117.342,-8.6037],[117.3308,-8.5886],[117.3146,-8.5738],[117.3126,-8.5755],[117.3109,-8.573],[117.3093,-8.5743],[117.3052,-8.5723],[117.2986,-8.5719],[117.2951,-8.5695],[117.2904,-8.5599],[117.2796,-8.5544],[117.2792,-8.5523],[117.2873,-8.5522],[117.2958,-8.5459],[117.2915,-8.5364],[117.2918,-8.5318],[117.2987,-8.5338],[117.3093,-8.5338],[117.3167,-8.5318],[117.3206,-8.529],[117.3262,-8.5295],[117.3362,-8.5348],[117.3521,-8.5528],[117.3558,-8.5618],[117.3556,-8.5659],[117.3433,-8.5779],[117.3489,-8.5825],[117.3568,-8.5974],[117.3536,-8.5995],[117.3518,-8.598],[117.349,-8.6028],[117.3441,-8.6022],[117.3422,-8.6063],[117.342,-8.6037]]]}},{"type":"Feature","properties":{"name":"TangkanPulit","name_en":"TangkanPulit","admin_level":"7","osm_id":""},"geometry":{"type":"Polygon","coordinates":[[[117.1618,-8.6585],[117.1702,-8.6453],[117.1811,-8.6384],[117.1819,-8.6334],[117.188,-8.6393],[117.1873,-8.6462],[117.1901,-8.65],[117.193,-8.6501],[117.1966,-8.6535],[117.1941,-8.6592],[117.1982,-8.6651],[117.1973,-8.6698],[117.1998,-8.6693],[117.2024,-8.6717],[117.2001,-8.6726],[117.2004,-8.6784],[117.2048,-8.6851],[117.2022,-8.6919],[117.202,-8.7008],[117.2039,-8.7047],[117.2066,-8.7048],[117.208,-8.7117],[117.191,-8.7123],[117.1612,-8.709],[117.1612,-8.6954],[117.1642,-8.689],[117.1643,-8.682],[117.1674,-8.6723],[117.1668,-8.6671],[117.1618,-8.6585]]]}},{"type":"Feature","properties":{"name":"Tepal","name_en":"Tepal","admin_level":"7","osm_id":""},"geometry":{"type":"Polygon","coordinates":[[[117.1819,-8.6334],[117.1784,-8.6339],[117.1627,-8.6163],[117.1556,-8.6136],[117.1438,-8.5928],[117.1362,-8.5848],[117.1322,-8.5773],[117.1373,-8.577],[117.1447,-8.5848],[117.1488,-8.5862],[117.1546,-8.5844],[117.1711,-8.5841],[117.1795,-8.5736],[117.1894,-8.5811],[117.1984,-8.582],[117.2069,-8.5782],[117.2132,-8.5715],[117.2152,-8.5784],[117.2138,-8.5808],[117.2182,-8.5831],[117.2181,-8.5854],[117.221,-8.5868],[117.2224,-8.5913],[117.2301,-8.5967],[117.2356,-8.6065],[117.2453,-8.6151],[117.2547,-8.6183],[117.2624,-8.6244],[117.2579,-8.6323],[117.253,-8.6347],[117.2713,-8.6438],[117.2773,-8.6503],[117.2818,-8.6615],[117.2959,-8.669],[117.3064,-8.6776],[117.2966,-8.6877],[117.297,-8.6973],[117.2991,-8.7002],[117.2909,-8.704],[117.2796,-8.705],[117.2558,-8.7115],[117.2328,-8.7129],[117.208,-8.7117],[117.2066,-8.7048],[117.2039,-8.7047],[117.202,-8.7008],[117.2022,-8.6919],[117.2048,-8.6851],[117.2004,-8.6784],[117.2001,-8.6726],[117.2024,-8.6717],[117.1998,-8.6693],[117.1974,-8.67],[117.1982,-8.6651],[117.1941,-8.6595],[117.1966,-8.6535],[117.193,-8.6501],[117.1899,-8.6499],[117.1871,-8.6457],[117.1887,-8.6405],[117.1819,-8.6334]]]}}]}