{"type":"FeatureCollection","metadata":{"parent_osm_id":"18199129","parent_name":"Pakenjeng","parent_name_1":"JawaBarat","parent_gid":"IDN.9.11.27_1","parent_level":"6","child_level":"7","count":12,"source":"GADM 4.1","generated":"2026-05-09"},"features":[{"type":"Feature","properties":{"name":"Depok","name_en":"Depok","admin_level":"7","osm_id":""},"geometry":{"type":"Polygon","coordinates":[[[107.6707,-7.4581],[107.669,-7.464],[107.6696,-7.4696],[107.6644,-7.4732],[107.6633,-7.4772],[107.661,-7.478],[107.6588,-7.4766],[107.654,-7.4803],[107.6491,-7.4805],[107.648,-7.4727],[107.6507,-7.4648],[107.651,-7.4437],[107.661,-7.4436],[107.6616,-7.4494],[107.6674,-7.451],[107.6707,-7.4556],[107.6707,-7.4581]]]}},{"type":"Feature","properties":{"name":"Jatiwangi","name_en":"Jatiwangi","admin_level":"7","osm_id":""},"geometry":{"type":"Polygon","coordinates":[[[107.7262,-7.3899],[107.7369,-7.3964],[107.7405,-7.3963],[107.7435,-7.402],[107.7452,-7.4016],[107.7461,-7.413],[107.7428,-7.4212],[107.7321,-7.4283],[107.7277,-7.4287],[107.7253,-7.4315],[107.7107,-7.4314],[107.7085,-7.4337],[107.7066,-7.4402],[107.7007,-7.4446],[107.6976,-7.4507],[107.7005,-7.4534],[107.7005,-7.4583],[107.6956,-7.4596],[107.6901,-7.4588],[107.6874,-7.4611],[107.6848,-7.4604],[107.6833,-7.463],[107.6814,-7.4618],[107.6774,-7.4679],[107.6681,-7.4715],[107.6696,-7.4696],[107.669,-7.464],[107.6709,-7.4573],[107.675,-7.4529],[107.6747,-7.4471],[107.6789,-7.4452],[107.6825,-7.4375],[107.683,-7.4314],[107.686,-7.4308],[107.6848,-7.4275],[107.6885,-7.4266],[107.6919,-7.4213],[107.6955,-7.421],[107.6986,-7.4182],[107.7044,-7.4084],[107.7071,-7.4108],[107.7137,-7.4114],[107.7161,-7.4084],[107.7199,-7.4114],[107.7223,-7.411],[107.7213,-7.4057],[107.7259,-7.396],[107.7262,-7.3899]]]}},{"type":"Feature","properties":{"name":"Karangsari","name_en":"Karangsari","admin_level":"7","osm_id":""},"geometry":{"type":"Polygon","coordinates":[[[107.5847,-7.5546],[107.5867,-7.5546],[107.5941,-7.5466],[107.5927,-7.5427],[107.5976,-7.5388],[107.5991,-7.539],[107.6012,-7.535],[107.6096,-7.5372],[107.6178,-7.5328],[107.6197,-7.5302],[107.6176,-7.5269],[107.6197,-7.5202],[107.6215,-7.5215],[107.6339,-7.5223],[107.648,-7.5274],[107.6515,-7.5311],[107.6505,-7.5335],[107.6466,-7.5346],[107.6472,-7.5383],[107.642,-7.5449],[107.6357,-7.5454],[107.6357,-7.552],[107.631,-7.5566],[107.6299,-7.5557],[107.6297,-7.5584],[107.6278,-7.558],[107.6265,-7.5595],[107.627,-7.5618],[107.6228,-7.5641],[107.6226,-7.5777],[107.6218,-7.5788],[107.6186,-7.5775],[107.6204,-7.5789],[107.6178,-7.5837],[107.6106,-7.5815],[107.6056,-7.5734],[107.6012,-7.5711],[107.5768,-7.5655],[107.5814,-7.5609],[107.5847,-7.5546]]]}},{"type":"Feature","properties":{"name":"Neglasari","name_en":"Neglasari","admin_level":"7","osm_id":""},"geometry":{"type":"Polygon","coordinates":[[[107.6853,-7.4973],[107.6851,-7.5021],[107.6823,-7.5045],[107.6777,-7.5033],[107.6726,-7.5044],[107.6691,-7.5016],[107.6647,-7.503],[107.6555,-7.491],[107.6578,-7.4862],[107.6547,-7.4799],[107.6588,-7.4766],[107.6625,-7.4778],[107.6641,-7.4755],[107.6664,-7.4773],[107.6699,-7.477],[107.6723,-7.4815],[107.6768,-7.4821],[107.6778,-7.4881],[107.6853,-7.4973]]]}},{"type":"Feature","properties":{"name":"Panyindangan","name_en":"Panyindangan","admin_level":"7","osm_id":""},"geometry":{"type":"Polygon","coordinates":[[[107.6366,-7.4448],[107.6385,-7.438],[107.6375,-7.427],[107.6396,-7.4221],[107.6445,-7.4168],[107.6568,-7.4195],[107.6614,-7.4187],[107.6607,-7.4321],[107.6587,-7.4342],[107.661,-7.4436],[107.6497,-7.4436],[107.6401,-7.4475],[107.6366,-7.4448]]]}},{"type":"Feature","properties":{"name":"Pasirlangu","name_en":"Pasirlangu","admin_level":"7","osm_id":""},"geometry":{"type":"Polygon","coordinates":[[[107.6333,-7.4478],[107.6366,-7.4448],[107.6401,-7.4475],[107.6427,-7.4471],[107.6437,-7.4452],[107.651,-7.4437],[107.6507,-7.4648],[107.648,-7.4727],[107.6491,-7.4805],[107.6462,-7.4832],[107.6437,-7.4832],[107.6399,-7.4797],[107.6342,-7.478],[107.6332,-7.4664],[107.6351,-7.4625],[107.6333,-7.4478]]]}},{"type":"Feature","properties":{"name":"Sukamulya","name_en":"Sukamulya","admin_level":"7","osm_id":""},"geometry":{"type":"Polygon","coordinates":[[[107.71,-7.4785],[107.7008,-7.483],[107.6924,-7.4939],[107.6853,-7.4973],[107.6778,-7.4881],[107.6768,-7.4821],[107.6723,-7.4815],[107.6699,-7.477],[107.665,-7.4766],[107.6642,-7.4738],[107.6733,-7.4685],[107.6774,-7.4679],[107.6819,-7.4617],[107.6941,-7.4708],[107.7043,-7.4731],[107.71,-7.4785]]]}},{"type":"Feature","properties":{"name":"Talagawangi","name_en":"Talagawangi","admin_level":"7","osm_id":""},"geometry":{"type":"Polygon","coordinates":[[[107.7452,-7.4016],[107.7474,-7.4005],[107.7628,-7.4027],[107.7789,-7.4025],[107.797,-7.4104],[107.7988,-7.4177],[107.796,-7.4239],[107.7961,-7.4296],[107.7919,-7.4488],[107.7844,-7.4525],[107.778,-7.4593],[107.7762,-7.4676],[107.7526,-7.4683],[107.7414,-7.4749],[107.7274,-7.4771],[107.7206,-7.4739],[107.7125,-7.4752],[107.71,-7.4785],[107.7043,-7.4731],[107.6941,-7.4708],[107.6851,-7.4651],[107.6833,-7.463],[107.6848,-7.4604],[107.6874,-7.4611],[107.6901,-7.4588],[107.6956,-7.4596],[107.7005,-7.4583],[107.7005,-7.4534],[107.6976,-7.4507],[107.7007,-7.4446],[107.7066,-7.4402],[107.7099,-7.432],[107.7135,-7.4304],[107.7253,-7.4315],[107.7277,-7.4287],[107.7321,-7.4283],[107.7419,-7.4223],[107.7461,-7.413],[107.7452,-7.4016]]]}},{"type":"Feature","properties":{"name":"Tanjungjaya","name_en":"Tanjungjaya","admin_level":"7","osm_id":""},"geometry":{"type":"Polygon","coordinates":[[[107.6301,-7.4575],[107.6333,-7.4478],[107.6351,-7.4625],[107.6332,-7.4664],[107.6338,-7.4769],[107.6423,-7.4816],[107.6437,-7.4832],[107.6434,-7.4868],[107.6352,-7.503],[107.6243,-7.5089],[107.6248,-7.5135],[107.6197,-7.5202],[107.6144,-7.5122],[107.613,-7.5058],[107.6089,-7.5021],[107.6141,-7.4908],[107.6161,-7.491],[107.6163,-7.4887],[107.6189,-7.4879],[107.6207,-7.4839],[107.6251,-7.4799],[107.6251,-7.4705],[107.6301,-7.4575]]]}},{"type":"Feature","properties":{"name":"Tanjungmulya","name_en":"Tanjungmulya","admin_level":"7","osm_id":""},"geometry":{"type":"Polygon","coordinates":[[[107.6012,-7.535],[107.6016,-7.5274],[107.6089,-7.5021],[107.613,-7.5058],[107.6144,-7.5122],[107.6197,-7.5202],[107.6176,-7.5269],[107.6197,-7.5302],[107.6156,-7.5344],[107.6096,-7.5372],[107.6012,-7.535]]]}},{"type":"Feature","properties":{"name":"Tegalgede","name_en":"Tegalgede","admin_level":"7","osm_id":""},"geometry":{"type":"Polygon","coordinates":[[[107.6605,-7.5266],[107.6573,-7.5271],[107.6547,-7.5255],[107.6543,-7.528],[107.6503,-7.5287],[107.6339,-7.5223],[107.6215,-7.5215],[107.6197,-7.5202],[107.6248,-7.5135],[107.6243,-7.5089],[107.6352,-7.503],[107.6433,-7.4872],[107.6434,-7.4836],[107.6462,-7.4832],[107.6491,-7.4805],[107.6556,-7.4802],[107.6578,-7.4862],[107.6555,-7.4899],[107.6564,-7.4927],[107.6647,-7.503],[107.6691,-7.5016],[107.6726,-7.5044],[107.6623,-7.5068],[107.6649,-7.5101],[107.6646,-7.5132],[107.6616,-7.5189],[107.6605,-7.5266]]]}},{"type":"Feature","properties":{"name":"Wangunjaya","name_en":"Wangunjaya","admin_level":"7","osm_id":""},"geometry":{"type":"Polygon","coordinates":[[[107.6707,-7.4581],[107.6707,-7.4556],[107.6674,-7.451],[107.6616,-7.4494],[107.6587,-7.4342],[107.6607,-7.4321],[107.6613,-7.4188],[107.6641,-7.4151],[107.6681,-7.4156],[107.6707,-7.4134],[107.6733,-7.4175],[107.6769,-7.4194],[107.6789,-7.4233],[107.6786,-7.4264],[107.6768,-7.4266],[107.6781,-7.4285],[107.6771,-7.4345],[107.6786,-7.436],[107.6734,-7.4419],[107.6755,-7.4445],[107.675,-7.4529],[107.6721,-7.4546],[107.6707,-7.4581]]]}}]}