{"type":"FeatureCollection","metadata":{"parent_osm_id":"gid_IDN_1_16_5_1","parent_name":"LangsaTimur","parent_name_1":"Aceh","parent_gid":"IDN.1.16.5_1","parent_level":"6","child_level":"7","count":14,"source":"GADM 4.1","generated":"2026-05-07"},"features":[{"type":"Feature","properties":{"name":"AlueMerbau","name_en":"AlueMerbau","admin_level":"7","osm_id":""},"geometry":{"type":"Polygon","coordinates":[[[98.0133,4.4295],[98.0161,4.4303],[98.0166,4.4288],[98.0168,4.4325],[98.0204,4.4333],[98.021,4.432],[98.0229,4.4345],[98.0292,4.4355],[98.0332,4.4284],[98.0322,4.426],[98.03,4.4254],[98.0266,4.427],[98.023,4.4264],[98.0147,4.4198],[98.0133,4.4202],[98.0143,4.4221],[98.0132,4.4236],[98.0146,4.4245],[98.0133,4.4295]]]}},{"type":"Feature","properties":{"name":"AluePineung","name_en":"AluePineung","admin_level":"7","osm_id":""},"geometry":{"type":"Polygon","coordinates":[[[98.0142,4.43],[98.0119,4.4306],[98.0105,4.4426],[98.0082,4.4453],[98.0136,4.4474],[98.0152,4.4445],[98.0177,4.4473],[98.0222,4.4477],[98.0251,4.4452],[98.026,4.4412],[98.0174,4.4392],[98.0186,4.4366],[98.0145,4.4343],[98.0139,4.433],[98.0154,4.4316],[98.0142,4.43]]]}},{"type":"Feature","properties":{"name":"BuketMeudangAra","name_en":"BuketMeudangAra","admin_level":"7","osm_id":""},"geometry":{"type":"Polygon","coordinates":[[[97.9905,4.4297],[97.9869,4.4313],[97.99,4.4377],[97.9911,4.4475],[97.9923,4.4476],[97.9937,4.4442],[97.9951,4.4443],[97.9905,4.4297]]]}},{"type":"Feature","properties":{"name":"BuketMeutuah","name_en":"BuketMeutuah","admin_level":"7","osm_id":""},"geometry":{"type":"Polygon","coordinates":[[[98.0354,4.4202],[98.0337,4.4202],[98.0241,4.4108],[98.0238,4.4181],[98.0196,4.4176],[98.0185,4.4236],[98.023,4.4264],[98.0322,4.426],[98.0331,4.4291],[98.039,4.4305],[98.0399,4.4202],[98.0354,4.4202]]]}},{"type":"Feature","properties":{"name":"BuketPulo","name_en":"BuketPulo","admin_level":"7","osm_id":""},"geometry":{"type":"Polygon","coordinates":[[[97.9911,4.434],[97.9925,4.4344],[97.9947,4.4431],[97.9996,4.4433],[98.0003,4.4351],[97.9911,4.434]]]}},{"type":"Feature","properties":{"name":"BuketRata","name_en":"BuketRata","admin_level":"7","osm_id":""},"geometry":{"type":"Polygon","coordinates":[[[97.979,4.4219],[97.9808,4.427],[97.9825,4.4273],[97.983,4.4259],[97.9842,4.4284],[97.9854,4.4274],[97.9895,4.4283],[97.9915,4.4308],[97.9903,4.4316],[97.9911,4.434],[98.0,4.4347],[97.9999,4.4381],[98.0021,4.438],[98.0119,4.436],[98.0114,4.4324],[98.0119,4.4306],[98.0134,4.431],[98.0145,4.4249],[98.0133,4.4202],[98.0188,4.4225],[98.0196,4.4176],[98.015,4.4144],[98.0126,4.415],[98.0094,4.4127],[98.0037,4.4118],[98.0005,4.4077],[97.9999,4.4095],[97.9945,4.409],[97.9916,4.4121],[97.9818,4.4144],[97.9817,4.4213],[97.979,4.4219]]]}},{"type":"Feature","properties":{"name":"CintaRaja","name_en":"CintaRaja","admin_level":"7","osm_id":""},"geometry":{"type":"Polygon","coordinates":[[[98.0348,4.4772],[98.0351,4.4721],[98.038,4.4671],[98.0447,4.4703],[98.0468,4.4671],[98.0442,4.4639],[98.044,4.4564],[98.0413,4.4484],[98.0286,4.4463],[98.0283,4.4412],[98.026,4.4412],[98.0251,4.4452],[98.0231,4.4465],[98.0222,4.4582],[98.0233,4.4582],[98.0218,4.4597],[98.023,4.4624],[98.0211,4.4633],[98.0213,4.4677],[98.0256,4.4805],[98.0276,4.4777],[98.0348,4.4772]]]}},{"type":"Feature","properties":{"name":"MatangCeungai","name_en":"MatangCeungai","admin_level":"7","osm_id":""},"geometry":{"type":"Polygon","coordinates":[[[98.0413,4.4484],[98.039,4.4305],[98.0331,4.4291],[98.03,4.4323],[98.0276,4.4388],[98.0286,4.4463],[98.0413,4.4484]]]}},{"type":"Feature","properties":{"name":"MatangPanyang","name_en":"MatangPanyang","admin_level":"7","osm_id":""},"geometry":{"type":"Polygon","coordinates":[[[97.9997,4.4419],[98.0013,4.4498],[97.9994,4.454],[98.0033,4.4555],[98.0042,4.4526],[98.0078,4.4508],[98.0093,4.4464],[97.9997,4.4419]]]}},{"type":"Feature","properties":{"name":"MatangSeutui","name_en":"MatangSeutui","admin_level":"7","osm_id":""},"geometry":{"type":"Polygon","coordinates":[[[98.0082,4.4453],[98.0105,4.4426],[98.0119,4.436],[97.9999,4.4381],[97.9997,4.4419],[98.0047,4.4451],[98.0082,4.4453]]]}},{"type":"Feature","properties":{"name":"SeuneubokAntara","name_en":"SeuneubokAntara","admin_level":"7","osm_id":""},"geometry":{"type":"Polygon","coordinates":[[[98.0292,4.4355],[98.0229,4.4345],[98.021,4.432],[98.0204,4.4333],[98.017,4.4326],[98.0166,4.4288],[98.0161,4.4303],[98.0142,4.4295],[98.0154,4.4316],[98.0139,4.433],[98.0145,4.4343],[98.0186,4.4366],[98.0174,4.4392],[98.0211,4.4409],[98.0275,4.4411],[98.0292,4.4355]]]}},{"type":"Feature","properties":{"name":"SimpangWie","name_en":"SimpangWie","admin_level":"7","osm_id":""},"geometry":{"type":"Polygon","coordinates":[[[97.9911,4.4475],[97.9907,4.4497],[97.9947,4.4535],[97.9994,4.454],[98.0013,4.4498],[97.9991,4.4426],[97.9981,4.4439],[97.9947,4.4431],[97.9937,4.4464],[97.9911,4.4475]]]}},{"type":"Feature","properties":{"name":"Sukarejo","name_en":"Sukarejo","admin_level":"7","osm_id":""},"geometry":{"type":"Polygon","coordinates":[[[98.0231,4.4465],[98.0222,4.4477],[98.0177,4.4473],[98.0152,4.4445],[98.0119,4.4486],[98.0134,4.4494],[98.0133,4.4527],[98.0112,4.4523],[98.0099,4.4583],[98.0135,4.4585],[98.0143,4.4649],[98.0161,4.4665],[98.0196,4.4648],[98.0214,4.4662],[98.0211,4.4633],[98.023,4.4624],[98.0218,4.4597],[98.0233,4.4582],[98.0222,4.4582],[98.0231,4.4465]]]}},{"type":"Feature","properties":{"name":"SungaiLueng","name_en":"SungaiLueng","admin_level":"7","osm_id":""},"geometry":{"type":"Polygon","coordinates":[[[98.063,4.5272],[98.0595,4.5216],[98.0563,4.5217],[98.0542,4.5192],[98.0495,4.5102],[98.0475,4.5053],[98.0448,4.4851],[98.0393,4.4801],[98.035,4.4795],[98.0348,4.4772],[98.0276,4.4777],[98.0256,4.4805],[98.0214,4.4662],[98.0196,4.4648],[98.0161,4.4665],[98.0143,4.4649],[98.0135,4.4585],[98.0099,4.4583],[98.0112,4.4523],[98.0133,4.4527],[98.0134,4.4494],[98.0082,4.4453],[98.0093,4.4464],[98.0082,4.4499],[98.0042,4.4526],[98.0033,4.4555],[97.9991,4.454],[98.0007,4.4618],[98.0025,4.4614],[98.0018,4.4635],[98.0058,4.4651],[98.0042,4.4659],[98.0042,4.4698],[98.0019,4.4709],[98.0048,4.4731],[98.0055,4.4793],[98.0018,4.4837],[98.0056,4.4846],[98.0103,4.4912],[98.0162,4.4853],[98.0178,4.4937],[98.0206,4.4969],[98.03,4.4988],[98.0325,4.5022],[98.031,4.5055],[98.0196,4.5072],[98.0149,4.5114],[98.0156,4.5166],[98.0265,4.5247],[98.0555,4.5365],[98.0563,4.5354],[98.0572,4.537],[98.062,4.5334],[98.0607,4.5312],[98.063,4.5272]]]}}]}