{"type":"FeatureCollection","metadata":{"parent_osm_id":"gid_IDN_29_3_1_1","parent_name":"Kotabunan","parent_name_1":"SulawesiUtara","parent_gid":"IDN.29.3.1_1","parent_level":"6","child_level":"7","count":7,"source":"GADM 4.1","generated":"2026-05-08"},"features":[{"type":"Feature","properties":{"name":"Bukaka","name_en":"Bukaka","admin_level":"7","osm_id":""},"geometry":{"type":"Polygon","coordinates":[[[124.5786,0.9178],[124.5906,0.9132],[124.5978,0.9085],[124.6025,0.8967],[124.6147,0.89],[124.6209,0.8831],[124.6247,0.8753],[124.6362,0.8649],[124.6382,0.8541],[124.6406,0.851],[124.6388,0.8449],[124.6286,0.8381],[124.6214,0.8393],[124.6184,0.8431],[124.6099,0.847],[124.607,0.857],[124.6008,0.8656],[124.5943,0.8701],[124.593,0.8734],[124.5879,0.8769],[124.5795,0.8787],[124.5772,0.8832],[124.5746,0.8847],[124.5694,0.8847],[124.5657,0.8884],[124.5616,0.8897],[124.5662,0.8941],[124.5732,0.9113],[124.5779,0.9142],[124.5786,0.9178]]]}},{"type":"Feature","properties":{"name":"Bulawan","name_en":"Bulawan","admin_level":"7","osm_id":""},"geometry":{"type":"Polygon","coordinates":[[[124.6354,0.8434],[124.6388,0.8449],[124.6406,0.851],[124.6382,0.8541],[124.6362,0.8649],[124.6247,0.8753],[124.6209,0.8831],[124.6147,0.89],[124.6025,0.8967],[124.5978,0.9085],[124.5906,0.9132],[124.5786,0.9178],[124.5802,0.934],[124.5871,0.9321],[124.5933,0.9409],[124.5981,0.9417],[124.6016,0.9316],[124.611,0.9246],[124.6132,0.9184],[124.6174,0.9159],[124.6204,0.9081],[124.6234,0.903],[124.626,0.9015],[124.6267,0.898],[124.6303,0.8938],[124.631,0.8897],[124.6345,0.8857],[124.6355,0.8794],[124.6412,0.8759],[124.6447,0.8685],[124.6511,0.8642],[124.6518,0.8564],[124.6572,0.8528],[124.6566,0.8487],[124.6592,0.8429],[124.6694,0.8328],[124.6709,0.8272],[124.6682,0.8257],[124.6696,0.8239],[124.6635,0.8168],[124.6597,0.8091],[124.6548,0.8123],[124.6548,0.814],[124.6462,0.8191],[124.6454,0.8229],[124.6467,0.8265],[124.6412,0.8277],[124.638,0.8308],[124.6342,0.8403],[124.6354,0.8434]]]}},{"type":"Feature","properties":{"name":"Buyat","name_en":"Buyat","admin_level":"7","osm_id":""},"geometry":{"type":"Polygon","coordinates":[[[124.6704,0.8286],[124.6678,0.8355],[124.6592,0.8429],[124.6566,0.8487],[124.6572,0.8528],[124.6518,0.8564],[124.6522,0.8625],[124.6447,0.8685],[124.6415,0.8756],[124.6355,0.8794],[124.6345,0.8857],[124.631,0.8897],[124.6303,0.8938],[124.6267,0.898],[124.626,0.9015],[124.6234,0.903],[124.6204,0.9081],[124.6185,0.9142],[124.6132,0.9184],[124.6118,0.9238],[124.6016,0.9316],[124.5981,0.9417],[124.613,0.9479],[124.6191,0.9467],[124.6191,0.9434],[124.6243,0.9361],[124.6248,0.9241],[124.6297,0.9126],[124.6398,0.8983],[124.6357,0.8904],[124.6404,0.887],[124.6418,0.8826],[124.645,0.8816],[124.6489,0.876],[124.6545,0.8746],[124.6559,0.8693],[124.6594,0.8687],[124.6612,0.8649],[124.6728,0.854],[124.6749,0.8528],[124.6837,0.855],[124.689,0.854],[124.6907,0.8521],[124.6878,0.8414],[124.688,0.8382],[124.6904,0.8351],[124.6873,0.8329],[124.691,0.83],[124.6839,0.8304],[124.6808,0.8281],[124.6776,0.8296],[124.6704,0.8286]]]}},{"type":"Feature","properties":{"name":"BuyatI","name_en":"BuyatI","admin_level":"7","osm_id":""},"geometry":{"type":"Polygon","coordinates":[[[124.69,0.8364],[124.688,0.8382],[124.6878,0.8414],[124.6907,0.8512],[124.6892,0.8537],[124.6837,0.855],[124.6749,0.8528],[124.6728,0.854],[124.6612,0.8649],[124.6594,0.8687],[124.6559,0.8693],[124.6545,0.8746],[124.6489,0.876],[124.645,0.8816],[124.6418,0.8826],[124.6404,0.887],[124.6357,0.8904],[124.6398,0.8983],[124.6297,0.9126],[124.6248,0.9241],[124.6243,0.9361],[124.6191,0.9434],[124.6191,0.9467],[124.6215,0.9486],[124.63,0.9471],[124.6367,0.9503],[124.6382,0.9474],[124.6368,0.9351],[124.6397,0.9303],[124.6402,0.9199],[124.6438,0.9149],[124.6451,0.904],[124.6517,0.898],[124.6506,0.8915],[124.6524,0.886],[124.6557,0.8812],[124.6639,0.8753],[124.6643,0.8703],[124.6694,0.8638],[124.6745,0.866],[124.6799,0.8661],[124.6832,0.8609],[124.696,0.851],[124.6996,0.8409],[124.69,0.8364]]]}},{"type":"Feature","properties":{"name":"BuyatIi","name_en":"BuyatIi","admin_level":"7","osm_id":""},"geometry":{"type":"Polygon","coordinates":[[[124.696,0.851],[124.6832,0.8609],[124.6799,0.8661],[124.6745,0.866],[124.6694,0.8638],[124.6643,0.8703],[124.6639,0.8753],[124.6557,0.8812],[124.6524,0.886],[124.6506,0.8915],[124.6517,0.898],[124.6451,0.904],[124.6438,0.9149],[124.6402,0.9199],[124.6397,0.9303],[124.6368,0.9351],[124.6382,0.9474],[124.6367,0.9503],[124.645,0.9565],[124.6503,0.9567],[124.652,0.9545],[124.6524,0.9515],[124.6498,0.949],[124.647,0.9393],[124.6479,0.9286],[124.6523,0.9237],[124.6538,0.9132],[124.6586,0.9083],[124.6566,0.9026],[124.6604,0.8997],[124.6608,0.8902],[124.6641,0.8892],[124.6671,0.8812],[124.6708,0.8786],[124.6698,0.8736],[124.6709,0.8715],[124.674,0.8694],[124.6825,0.8728],[124.6837,0.8708],[124.6851,0.8713],[124.6855,0.8673],[124.6881,0.8655],[124.6864,0.8631],[124.6868,0.8604],[124.6948,0.8591],[124.696,0.851]]]}},{"type":"Feature","properties":{"name":"Kotabunan","name_en":"Kotabunan","admin_level":"7","osm_id":""},"geometry":{"type":"Polygon","coordinates":[[[124.5616,0.8897],[124.5657,0.8884],[124.5694,0.8847],[124.5746,0.8847],[124.5772,0.8832],[124.5795,0.8787],[124.5879,0.8769],[124.593,0.8734],[124.5943,0.8701],[124.6008,0.8656],[124.607,0.857],[124.6109,0.8459],[124.6168,0.8441],[124.6214,0.8393],[124.6272,0.8379],[124.6346,0.8426],[124.638,0.8308],[124.6412,0.8277],[124.6467,0.8265],[124.6454,0.8229],[124.6462,0.8191],[124.6548,0.814],[124.6548,0.8123],[124.6595,0.8087],[124.6542,0.8044],[124.651,0.8042],[124.6524,0.8037],[124.646,0.7975],[124.644,0.7997],[124.6364,0.8014],[124.6298,0.8094],[124.6258,0.8108],[124.626,0.8142],[124.6236,0.8192],[124.618,0.8251],[124.6155,0.8302],[124.6066,0.8345],[124.6041,0.8397],[124.5927,0.8486],[124.5897,0.854],[124.5754,0.8653],[124.5735,0.8718],[124.5584,0.8767],[124.5613,0.8805],[124.5583,0.8839],[124.5585,0.8864],[124.5616,0.8897]]]}},{"type":"Feature","properties":{"name":"Paret","name_en":"Paret","admin_level":"7","osm_id":""},"geometry":{"type":"Polygon","coordinates":[[[124.5589,0.8766],[124.5735,0.8718],[124.5754,0.8653],[124.5897,0.854],[124.5927,0.8486],[124.6041,0.8397],[124.6066,0.8345],[124.6155,0.8302],[124.618,0.8251],[124.6236,0.8192],[124.6263,0.8103],[124.6298,0.8094],[124.6368,0.8012],[124.6457,0.7987],[124.6353,0.784],[124.605,0.8105],[124.6023,0.8174],[124.599,0.8193],[124.5909,0.8297],[124.5827,0.8348],[124.5735,0.8486],[124.5641,0.8542],[124.559,0.8605],[124.5547,0.8614],[124.5556,0.8649],[124.5602,0.8669],[124.5589,0.8766]]]}}]}