{"type":"FeatureCollection","metadata":{"parent_osm_id":"gid_IDN_10_26_3_1","parent_name":"Kaliori","parent_name_1":"JawaTengah","parent_gid":"IDN.10.26.3_1","parent_level":"6","child_level":"7","count":23,"source":"GADM 4.1","generated":"2026-05-09"},"features":[{"type":"Feature","properties":{"name":"Babadan","name_en":"Babadan","admin_level":"7","osm_id":""},"geometry":{"type":"Polygon","coordinates":[[[111.3041,-6.7222],[111.3054,-6.7289],[111.3033,-6.7298],[111.293,-6.73],[111.2907,-6.7329],[111.2845,-6.7285],[111.2893,-6.7154],[111.2957,-6.7173],[111.2967,-6.721],[111.3041,-6.7222]]]}},{"type":"Feature","properties":{"name":"Banggi","name_en":"Banggi","admin_level":"7","osm_id":""},"geometry":{"type":"Polygon","coordinates":[[[111.2904,-6.7408],[111.293,-6.7458],[111.298,-6.7467],[111.2973,-6.75],[111.2922,-6.7517],[111.2826,-6.7507],[111.2766,-6.7432],[111.2776,-6.7382],[111.2806,-6.7371],[111.2904,-6.7408]]]}},{"type":"Feature","properties":{"name":"Banyudono","name_en":"Banyudono","admin_level":"7","osm_id":""},"geometry":{"type":"Polygon","coordinates":[[[111.307,-6.6972],[111.3139,-6.6982],[111.3134,-6.7061],[111.3046,-6.6995],[111.307,-6.6972]]]}},{"type":"Feature","properties":{"name":"Bogoharjo","name_en":"Bogoharjo","admin_level":"7","osm_id":""},"geometry":{"type":"Polygon","coordinates":[[[111.3054,-6.7289],[111.3038,-6.724],[111.3052,-6.7188],[111.3027,-6.7175],[111.3038,-6.7089],[111.3018,-6.7076],[111.3009,-6.704],[111.3022,-6.7016],[111.2996,-6.6997],[111.3007,-6.6961],[111.307,-6.6972],[111.3046,-6.6995],[111.3134,-6.7061],[111.3089,-6.7124],[111.313,-6.718],[111.3103,-6.7288],[111.3054,-6.7289]]]}},{"type":"Feature","properties":{"name":"DresiKulon","name_en":"DresiKulon","admin_level":"7","osm_id":""},"geometry":{"type":"Polygon","coordinates":[[[111.2531,-6.6907],[111.2585,-6.6871],[111.2624,-6.6895],[111.2631,-6.6925],[111.2704,-6.6936],[111.2737,-6.6958],[111.2788,-6.695],[111.273,-6.6975],[111.2717,-6.7205],[111.2681,-6.7199],[111.269,-6.7227],[111.2656,-6.7228],[111.2611,-6.7288],[111.2573,-6.7286],[111.2544,-6.7237],[111.2514,-6.7232],[111.251,-6.7216],[111.2558,-6.7147],[111.2604,-6.7156],[111.2602,-6.7109],[111.2639,-6.7124],[111.2653,-6.7104],[111.2638,-6.709],[111.2622,-6.7107],[111.2599,-6.7101],[111.2574,-6.6994],[111.2583,-6.6946],[111.2548,-6.6936],[111.2531,-6.6907]]]}},{"type":"Feature","properties":{"name":"DresiWetan","name_en":"DresiWetan","admin_level":"7","osm_id":""},"geometry":{"type":"Polygon","coordinates":[[[111.2893,-6.7154],[111.2845,-6.7285],[111.2817,-6.7279],[111.2806,-6.7306],[111.2787,-6.7309],[111.2766,-6.7218],[111.2717,-6.7205],[111.271,-6.7176],[111.2732,-6.6968],[111.2791,-6.698],[111.2859,-6.6959],[111.2894,-6.7097],[111.2893,-6.7154]]]}},{"type":"Feature","properties":{"name":"Gunungsari","name_en":"Gunungsari","admin_level":"7","osm_id":""},"geometry":{"type":"Polygon","coordinates":[[[111.3033,-6.7298],[111.3073,-6.7291],[111.3094,-6.7366],[111.3149,-6.7372],[111.3162,-6.7321],[111.3143,-6.721],[111.3175,-6.7197],[111.3184,-6.7263],[111.3217,-6.7281],[111.3207,-6.7304],[111.3222,-6.7307],[111.3186,-6.7354],[111.3197,-6.737],[111.3173,-6.7425],[111.318,-6.7469],[111.3143,-6.7547],[111.312,-6.7561],[111.3059,-6.7534],[111.3035,-6.75],[111.3045,-6.7475],[111.3063,-6.748],[111.3084,-6.7397],[111.3035,-6.738],[111.3033,-6.7298]]]}},{"type":"Feature","properties":{"name":"Karangsekar","name_en":"Karangsekar","admin_level":"7","osm_id":""},"geometry":{"type":"Polygon","coordinates":[[[111.3041,-6.7222],[111.2967,-6.721],[111.2957,-6.7173],[111.2893,-6.7154],[111.2894,-6.7097],[111.2862,-6.6991],[111.2886,-6.6986],[111.2892,-6.7006],[111.2999,-6.6981],[111.2996,-6.6997],[111.3023,-6.7019],[111.3009,-6.7038],[111.3018,-6.7076],[111.3038,-6.7089],[111.3027,-6.7175],[111.3052,-6.7188],[111.3041,-6.7222]]]}},{"type":"Feature","properties":{"name":"Kuangsan","name_en":"Kuangsan","admin_level":"7","osm_id":""},"geometry":{"type":"Polygon","coordinates":[[[111.2982,-6.747],[111.293,-6.7458],[111.2907,-6.7403],[111.2924,-6.7413],[111.2975,-6.7403],[111.2984,-6.7376],[111.301,-6.7366],[111.3041,-6.7386],[111.3084,-6.7389],[111.3063,-6.748],[111.3045,-6.7475],[111.3022,-6.7501],[111.2982,-6.747]]]}},{"type":"Feature","properties":{"name":"Maguan","name_en":"Maguan","admin_level":"7","osm_id":""},"geometry":{"type":"Polygon","coordinates":[[[111.2364,-6.7364],[111.2384,-6.7336],[111.2552,-6.7343],[111.2569,-6.7314],[111.2603,-6.732],[111.2608,-6.7348],[111.2571,-6.7454],[111.2497,-6.7444],[111.2387,-6.7473],[111.237,-6.7467],[111.2385,-6.7455],[111.2372,-6.7436],[111.2358,-6.7454],[111.234,-6.745],[111.2348,-6.7434],[111.2334,-6.7411],[111.2371,-6.7402],[111.2364,-6.7364]]]}},{"type":"Feature","properties":{"name":"Meteseh","name_en":"Meteseh","admin_level":"7","osm_id":""},"geometry":{"type":"Polygon","coordinates":[[[111.237,-6.7546],[111.2338,-6.7525],[111.2387,-6.7497],[111.2378,-6.7485],[111.2391,-6.7463],[111.2497,-6.7444],[111.2571,-6.7454],[111.2563,-6.7489],[111.2534,-6.7483],[111.2505,-6.7542],[111.2416,-6.7534],[111.237,-6.7546]]]}},{"type":"Feature","properties":{"name":"Mojorembun","name_en":"Mojorembun","admin_level":"7","osm_id":""},"geometry":{"type":"Polygon","coordinates":[[[111.2402,-6.7163],[111.2442,-6.7167],[111.2442,-6.7221],[111.2495,-6.7228],[111.2489,-6.7337],[111.2384,-6.7336],[111.2358,-6.7264],[111.2377,-6.7223],[111.2394,-6.7224],[111.2379,-6.7201],[111.2396,-6.7197],[111.2402,-6.7163]]]}},{"type":"Feature","properties":{"name":"Mojowarno","name_en":"Mojowarno","admin_level":"7","osm_id":""},"geometry":{"type":"Polygon","coordinates":[[[111.2531,-6.6907],[111.2548,-6.6936],[111.2583,-6.6946],[111.2574,-6.6994],[111.2599,-6.7101],[111.2622,-6.7107],[111.2638,-6.709],[111.2653,-6.7104],[111.2639,-6.7124],[111.2602,-6.7109],[111.2602,-6.7158],[111.2558,-6.7147],[111.2504,-6.7241],[111.2481,-6.7229],[111.2464,-6.7106],[111.247,-6.7088],[111.2506,-6.7079],[111.2515,-6.7039],[111.2489,-6.6963],[111.2473,-6.6958],[111.2477,-6.6923],[111.2531,-6.6907]]]}},{"type":"Feature","properties":{"name":"Pantiharjo","name_en":"Pantiharjo","admin_level":"7","osm_id":""},"geometry":{"type":"Polygon","coordinates":[[[111.3144,-6.7],[111.3139,-6.6982],[111.3188,-6.6977],[111.3191,-6.6995],[111.3144,-6.7]]]}},{"type":"Feature","properties":{"name":"Pengkol","name_en":"Pengkol","admin_level":"7","osm_id":""},"geometry":{"type":"Polygon","coordinates":[[[111.2845,-6.7285],[111.2907,-6.7329],[111.293,-6.73],[111.3033,-6.7298],[111.3035,-6.738],[111.3003,-6.7367],[111.2975,-6.7403],[111.2924,-6.7413],[111.2806,-6.7371],[111.2776,-6.7382],[111.2772,-6.7342],[111.2787,-6.7309],[111.2806,-6.7306],[111.2817,-6.7279],[111.2845,-6.7285]]]}},{"type":"Feature","properties":{"name":"Purworejo","name_en":"Purworejo","admin_level":"7","osm_id":""},"geometry":{"type":"Polygon","coordinates":[[[111.3029,-6.6969],[111.3007,-6.6961],[111.2999,-6.6981],[111.2892,-6.7006],[111.2856,-6.6958],[111.2791,-6.698],[111.2767,-6.6966],[111.2789,-6.6954],[111.2786,-6.6936],[111.2821,-6.6946],[111.2829,-6.6929],[111.2857,-6.6927],[111.2885,-6.6901],[111.2884,-6.6873],[111.2899,-6.6872],[111.3048,-6.696],[111.3029,-6.6969]]]}},{"type":"Feature","properties":{"name":"Sambiyan","name_en":"Sambiyan","admin_level":"7","osm_id":""},"geometry":{"type":"Polygon","coordinates":[[[111.2514,-6.7232],[111.2544,-6.7237],[111.2576,-6.7288],[111.2611,-6.7288],[111.2656,-6.7228],[111.269,-6.7227],[111.2681,-6.7199],[111.2764,-6.7216],[111.2787,-6.7309],[111.2772,-6.7342],[111.2776,-6.7382],[111.2696,-6.735],[111.2605,-6.7348],[111.2603,-6.732],[111.2573,-6.7314],[111.2552,-6.7343],[111.2489,-6.7337],[111.25,-6.7238],[111.2514,-6.7232]]]}},{"type":"Feature","properties":{"name":"Sendangagung","name_en":"Sendangagung","admin_level":"7","osm_id":""},"geometry":{"type":"Polygon","coordinates":[[[111.3195,-6.7374],[111.3187,-6.7349],[111.3223,-6.7305],[111.3207,-6.7304],[111.3208,-6.7289],[111.3239,-6.7282],[111.3295,-6.7216],[111.3313,-6.7258],[111.329,-6.7281],[111.332,-6.7287],[111.3309,-6.7299],[111.3325,-6.7305],[111.3326,-6.7327],[111.3345,-6.7333],[111.3356,-6.7319],[111.3366,-6.7354],[111.3332,-6.7375],[111.3293,-6.737],[111.3261,-6.7433],[111.3187,-6.7411],[111.3195,-6.7374]]]}},{"type":"Feature","properties":{"name":"Sidomulyo","name_en":"Sidomulyo","admin_level":"7","osm_id":""},"geometry":{"type":"Polygon","coordinates":[[[111.2776,-6.7382],[111.2774,-6.7423],[111.2744,-6.7443],[111.2756,-6.7475],[111.2742,-6.749],[111.2679,-6.7489],[111.2643,-6.7524],[111.2624,-6.7491],[111.2563,-6.7489],[111.2608,-6.7348],[111.2696,-6.735],[111.2776,-6.7382]]]}},{"type":"Feature","properties":{"name":"Tambakagung","name_en":"Tambakagung","admin_level":"7","osm_id":""},"geometry":{"type":"Polygon","coordinates":[[[111.2404,-6.7161],[111.2405,-6.7145],[111.2424,-6.7151],[111.2391,-6.7135],[111.2388,-6.7096],[111.242,-6.709],[111.2388,-6.7086],[111.2399,-6.7054],[111.238,-6.7039],[111.2396,-6.7032],[111.2365,-6.7028],[111.2385,-6.7008],[111.2366,-6.6979],[111.2383,-6.6958],[111.2405,-6.6961],[111.243,-6.6923],[111.2474,-6.6921],[111.2473,-6.6958],[111.2489,-6.6963],[111.2515,-6.7039],[111.2506,-6.7079],[111.2465,-6.7094],[111.2481,-6.7229],[111.2442,-6.7221],[111.2434,-6.7159],[111.2404,-6.7161]]]}},{"type":"Feature","properties":{"name":"Tasikharjo","name_en":"Tasikharjo","admin_level":"7","osm_id":""},"geometry":{"type":"Polygon","coordinates":[[[111.2786,-6.695],[111.2737,-6.6958],[111.2704,-6.6936],[111.2631,-6.6925],[111.2624,-6.6895],[111.2743,-6.6911],[111.2789,-6.6886],[111.2884,-6.6873],[111.2875,-6.6913],[111.2829,-6.6929],[111.2823,-6.6945],[111.2786,-6.6936],[111.2786,-6.695]]]}},{"type":"Feature","properties":{"name":"Tunggulsari","name_en":"Tunggulsari","admin_level":"7","osm_id":""},"geometry":{"type":"Polygon","coordinates":[[[111.2366,-6.698],[111.236,-6.6995],[111.2346,-6.6982],[111.2341,-6.6867],[111.2431,-6.6919],[111.2405,-6.6961],[111.2378,-6.6961],[111.2366,-6.698]]]}},{"type":"Feature","properties":{"name":"Wiroto","name_en":"Wiroto","admin_level":"7","osm_id":""},"geometry":{"type":"Polygon","coordinates":[[[111.2402,-6.7583],[111.2378,-6.7579],[111.2368,-6.7596],[111.237,-6.7546],[111.2416,-6.7534],[111.2505,-6.7542],[111.2547,-6.748],[111.2627,-6.7493],[111.2654,-6.7596],[111.2637,-6.7611],[111.2584,-6.7582],[111.255,-6.7607],[111.252,-6.7601],[111.2532,-6.7573],[111.2507,-6.7554],[111.2443,-6.7559],[111.2402,-6.7583]]]}}]}