{"type":"FeatureCollection","metadata":{"parent_osm_id":"12989893","parent_name":"BanjarBaru","parent_name_1":"Lampung","parent_gid":"IDN.17.13.2_1","parent_level":"6","child_level":"7","count":10,"source":"GADM 4.1","generated":"2026-05-09"},"features":[{"type":"Feature","properties":{"name":"BalaiMurniJaya","name_en":"BalaiMurniJaya","admin_level":"7","osm_id":""},"geometry":{"type":"Polygon","coordinates":[[[105.2852,-4.3225],[105.2916,-4.32],[105.2967,-4.3152],[105.2977,-4.3109],[105.3035,-4.3156],[105.3093,-4.3117],[105.311,-4.313],[105.3161,-4.3115],[105.3221,-4.3143],[105.3125,-4.3341],[105.3139,-4.3416],[105.3157,-4.3416],[105.3149,-4.3607],[105.3093,-4.3604],[105.3114,-4.3562],[105.3097,-4.3542],[105.3114,-4.3493],[105.3,-4.34],[105.2867,-4.3374],[105.2852,-4.3225]]]}},{"type":"Feature","properties":{"name":"BawangSaktiJaya","name_en":"BawangSaktiJaya","admin_level":"7","osm_id":""},"geometry":{"type":"Polygon","coordinates":[[[105.2614,-4.3813],[105.2678,-4.3804],[105.2673,-4.3828],[105.2715,-4.3824],[105.2719,-4.3801],[105.2779,-4.3791],[105.2794,-4.382],[105.2866,-4.3801],[105.2866,-4.3775],[105.2916,-4.3768],[105.2896,-4.3851],[105.2659,-4.3983],[105.2614,-4.3813]]]}},{"type":"Feature","properties":{"name":"BawangTirtoMulyo","name_en":"BawangTirtoMulyo","admin_level":"7","osm_id":""},"geometry":{"type":"Polygon","coordinates":[[[105.2916,-4.3768],[105.2866,-4.3775],[105.2866,-4.3801],[105.2794,-4.382],[105.2779,-4.3791],[105.2719,-4.3801],[105.2715,-4.3824],[105.2673,-4.3828],[105.2678,-4.3804],[105.2614,-4.3813],[105.2586,-4.3704],[105.2725,-4.3618],[105.2718,-4.3663],[105.2746,-4.3675],[105.2773,-4.362],[105.2825,-4.3594],[105.2933,-4.3608],[105.2976,-4.3598],[105.2966,-4.3655],[105.2934,-4.3652],[105.2927,-4.3703],[105.2956,-4.3721],[105.2961,-4.3766],[105.2916,-4.3768]]]}},{"type":"Feature","properties":{"name":"JayaMakmur","name_en":"JayaMakmur","admin_level":"7","osm_id":""},"geometry":{"type":"Polygon","coordinates":[[[105.2156,-4.3817],[105.2047,-4.3805],[105.2002,-4.372],[105.2016,-4.3697],[105.2009,-4.3598],[105.2036,-4.3599],[105.2082,-4.3551],[105.2181,-4.3536],[105.2182,-4.3651],[105.2141,-4.3651],[105.2116,-4.3699],[105.2156,-4.3699],[105.2156,-4.3817]]]}},{"type":"Feature","properties":{"name":"KahuripanJaya","name_en":"KahuripanJaya","admin_level":"7","osm_id":""},"geometry":{"type":"Polygon","coordinates":[[[105.2199,-4.3872],[105.2193,-4.3846],[105.2156,-4.3817],[105.2156,-4.3699],[105.2116,-4.3699],[105.2141,-4.3651],[105.2182,-4.3651],[105.2181,-4.3536],[105.2206,-4.3532],[105.2261,-4.3603],[105.2333,-4.3593],[105.2397,-4.3618],[105.2431,-4.3746],[105.2423,-4.3892],[105.239,-4.3879],[105.2278,-4.3893],[105.2199,-4.3872]]]}},{"type":"Feature","properties":{"name":"KaryaMurniJaya","name_en":"KaryaMurniJaya","admin_level":"7","osm_id":""},"geometry":{"type":"Polygon","coordinates":[[[105.3221,-4.3143],[105.3244,-4.3163],[105.3265,-4.327],[105.3303,-4.3356],[105.3233,-4.3306],[105.3254,-4.3612],[105.3149,-4.3607],[105.3157,-4.3416],[105.3139,-4.3416],[105.3125,-4.3341],[105.3221,-4.3143]]]}},{"type":"Feature","properties":{"name":"MekarIndahJaya","name_en":"MekarIndahJaya","admin_level":"7","osm_id":""},"geometry":{"type":"Polygon","coordinates":[[[105.2595,-4.3206],[105.2658,-4.3269],[105.2708,-4.3275],[105.2735,-4.325],[105.2778,-4.3263],[105.2852,-4.3225],[105.2867,-4.3374],[105.3,-4.34],[105.3103,-4.3484],[105.3027,-4.3491],[105.3026,-4.348],[105.297,-4.3476],[105.2927,-4.3508],[105.2921,-4.3477],[105.2771,-4.3487],[105.2825,-4.3594],[105.2786,-4.3607],[105.2741,-4.3512],[105.2725,-4.3617],[105.2537,-4.3418],[105.2497,-4.3313],[105.2547,-4.3299],[105.2595,-4.3206]]]}},{"type":"Feature","properties":{"name":"MekarJaya","name_en":"MekarJaya","admin_level":"7","osm_id":""},"geometry":{"type":"Polygon","coordinates":[[[105.3103,-4.3484],[105.3114,-4.3493],[105.3097,-4.3542],[105.3114,-4.3562],[105.3093,-4.3604],[105.2954,-4.3597],[105.2929,-4.3549],[105.2927,-4.3508],[105.297,-4.3476],[105.3026,-4.348],[105.3027,-4.3491],[105.3103,-4.3484]]]}},{"type":"Feature","properties":{"name":"PancaKarsaPurnaJaya","name_en":"PancaKarsaPurnaJaya","admin_level":"7","osm_id":""},"geometry":{"type":"Polygon","coordinates":[[[105.2306,-4.3601],[105.2299,-4.3523],[105.2322,-4.3516],[105.2331,-4.3491],[105.2311,-4.3435],[105.2279,-4.3436],[105.2257,-4.3362],[105.2276,-4.328],[105.2398,-4.3265],[105.2396,-4.3225],[105.2544,-4.3217],[105.2561,-4.3187],[105.2578,-4.3184],[105.2595,-4.3206],[105.2547,-4.3299],[105.2497,-4.3313],[105.2537,-4.3418],[105.2433,-4.3472],[105.2333,-4.3593],[105.2306,-4.3601]]]}},{"type":"Feature","properties":{"name":"PancaMulia","name_en":"PancaMulia","admin_level":"7","osm_id":""},"geometry":{"type":"Polygon","coordinates":[[[105.2288,-4.3439],[105.2296,-4.3464],[105.2273,-4.347],[105.2042,-4.349],[105.2033,-4.3415],[105.2068,-4.3352],[105.2261,-4.3362],[105.2288,-4.3439]]]}}]}