{"type":"FeatureCollection","metadata":{"parent_osm_id":"gid_IDN_10_1_5_1","parent_name":"Kalibening","parent_name_1":"JawaTengah","parent_gid":"IDN.10.1.5_1","parent_level":"6","child_level":"7","count":16,"source":"GADM 4.1","generated":"2026-05-09"},"features":[{"type":"Feature","properties":{"name":"Asinan","name_en":"Asinan","admin_level":"7","osm_id":""},"geometry":{"type":"Polygon","coordinates":[[[109.6617,-7.2868],[109.654,-7.29],[109.6454,-7.276],[109.6367,-7.2717],[109.6371,-7.264],[109.6393,-7.2636],[109.6454,-7.2563],[109.6523,-7.2574],[109.6558,-7.2664],[109.6579,-7.2642],[109.6596,-7.2665],[109.6604,-7.2765],[109.6565,-7.2809],[109.6617,-7.2868]]]}},{"type":"Feature","properties":{"name":"Bedana","name_en":"Bedana","admin_level":"7","osm_id":""},"geometry":{"type":"Polygon","coordinates":[[[109.6362,-7.2047],[109.6354,-7.2005],[109.6369,-7.1963],[109.6352,-7.1922],[109.6348,-7.1775],[109.6413,-7.1762],[109.6435,-7.1731],[109.6496,-7.1727],[109.6519,-7.1751],[109.6481,-7.1798],[109.6462,-7.1889],[109.6473,-7.1899],[109.6438,-7.2015],[109.6404,-7.2073],[109.6362,-7.2047]]]}},{"type":"Feature","properties":{"name":"Gununglangit","name_en":"Gununglangit","admin_level":"7","osm_id":""},"geometry":{"type":"Polygon","coordinates":[[[109.6342,-7.1799],[109.6369,-7.1963],[109.6354,-7.2005],[109.6361,-7.205],[109.6317,-7.2048],[109.6331,-7.2072],[109.6257,-7.2098],[109.6239,-7.2064],[109.6155,-7.2029],[109.6234,-7.1976],[109.625,-7.1891],[109.628,-7.1889],[109.6342,-7.1799]]]}},{"type":"Feature","properties":{"name":"Kalibening","name_en":"Kalibening","admin_level":"7","osm_id":""},"geometry":{"type":"Polygon","coordinates":[[[109.6454,-7.2563],[109.6393,-7.2636],[109.6371,-7.264],[109.6367,-7.2717],[109.6295,-7.2649],[109.6262,-7.2658],[109.6225,-7.2635],[109.617,-7.25],[109.6239,-7.2459],[109.6262,-7.2284],[109.6318,-7.2245],[109.6314,-7.2175],[109.6405,-7.2142],[109.6411,-7.2211],[109.635,-7.2285],[109.6382,-7.2325],[109.6461,-7.2357],[109.6376,-7.2423],[109.6387,-7.2475],[109.6454,-7.2563]]]}},{"type":"Feature","properties":{"name":"Kalibombong","name_en":"Kalibombong","admin_level":"7","osm_id":""},"geometry":{"type":"Polygon","coordinates":[[[109.6604,-7.2687],[109.6579,-7.2642],[109.6558,-7.2664],[109.6523,-7.2574],[109.6454,-7.2563],[109.6407,-7.2506],[109.6376,-7.2438],[109.6393,-7.2399],[109.6458,-7.2368],[109.6456,-7.2409],[109.6537,-7.2453],[109.6641,-7.2445],[109.6667,-7.2401],[109.6672,-7.2422],[109.671,-7.2447],[109.6719,-7.248],[109.6828,-7.2515],[109.6872,-7.2511],[109.6912,-7.2543],[109.6604,-7.2687]]]}},{"type":"Feature","properties":{"name":"KalisatKidul","name_en":"KalisatKidul","admin_level":"7","osm_id":""},"geometry":{"type":"Polygon","coordinates":[[[109.6912,-7.2543],[109.6872,-7.2511],[109.6828,-7.2515],[109.6719,-7.248],[109.671,-7.2447],[109.6672,-7.2422],[109.6667,-7.2401],[109.67,-7.2323],[109.6806,-7.2339],[109.6842,-7.2311],[109.6876,-7.2334],[109.6862,-7.2355],[109.6891,-7.24],[109.6951,-7.2414],[109.708,-7.2401],[109.7107,-7.2418],[109.713,-7.2491],[109.7077,-7.25],[109.7056,-7.2523],[109.6952,-7.2513],[109.6912,-7.2543]]]}},{"type":"Feature","properties":{"name":"KarangAnyar","name_en":"KarangAnyar","admin_level":"7","osm_id":""},"geometry":{"type":"Polygon","coordinates":[[[109.6653,-7.1778],[109.6639,-7.1932],[109.6565,-7.209],[109.6497,-7.2112],[109.6411,-7.2098],[109.6567,-7.1958],[109.6619,-7.1778],[109.6653,-7.1778]]]}},{"type":"Feature","properties":{"name":"Kasinoman","name_en":"Kasinoman","admin_level":"7","osm_id":""},"geometry":{"type":"Polygon","coordinates":[[[109.6933,-7.2287],[109.6916,-7.2223],[109.6897,-7.2207],[109.6906,-7.22],[109.6883,-7.2179],[109.6833,-7.2183],[109.6787,-7.2214],[109.6771,-7.2233],[109.6775,-7.2271],[109.6758,-7.2269],[109.6745,-7.224],[109.6756,-7.2178],[109.6683,-7.2129],[109.6752,-7.1988],[109.6826,-7.2009],[109.6849,-7.2004],[109.6898,-7.1948],[109.6949,-7.1963],[109.7041,-7.1953],[109.7075,-7.1997],[109.7049,-7.2251],[109.6933,-7.2287]]]}},{"type":"Feature","properties":{"name":"Kertasari","name_en":"Kertasari","admin_level":"7","osm_id":""},"geometry":{"type":"Polygon","coordinates":[[[109.6842,-7.2311],[109.6806,-7.2339],[109.67,-7.2323],[109.6705,-7.2287],[109.6656,-7.2206],[109.6647,-7.214],[109.6684,-7.2133],[109.6754,-7.2175],[109.6745,-7.224],[109.6771,-7.2274],[109.6771,-7.2233],[109.6787,-7.2214],[109.6833,-7.2183],[109.6895,-7.2186],[109.6933,-7.2287],[109.6842,-7.2311]]]}},{"type":"Feature","properties":{"name":"Majatengah","name_en":"Majatengah","admin_level":"7","osm_id":""},"geometry":{"type":"Polygon","coordinates":[[[109.6458,-7.2368],[109.6456,-7.2352],[109.6382,-7.2325],[109.635,-7.2285],[109.6365,-7.2256],[109.6394,-7.2244],[109.6409,-7.2181],[109.6476,-7.2138],[109.652,-7.2222],[109.6588,-7.2286],[109.6634,-7.2316],[109.67,-7.2319],[109.6641,-7.2445],[109.6537,-7.2453],[109.6496,-7.2437],[109.6456,-7.2409],[109.6458,-7.2368]]]}},{"type":"Feature","properties":{"name":"Plorengan","name_en":"Plorengan","admin_level":"7","osm_id":""},"geometry":{"type":"Polygon","coordinates":[[[109.659,-7.2044],[109.6639,-7.1932],[109.6653,-7.1778],[109.6708,-7.1777],[109.6761,-7.1725],[109.683,-7.1733],[109.6814,-7.1745],[109.683,-7.1775],[109.6827,-7.184],[109.6874,-7.1908],[109.6903,-7.1925],[109.6896,-7.1959],[109.6836,-7.2007],[109.6752,-7.1988],[109.6724,-7.2066],[109.6665,-7.2143],[109.663,-7.2126],[109.659,-7.2044]]]}},{"type":"Feature","properties":{"name":"Sembawa","name_en":"Sembawa","admin_level":"7","osm_id":""},"geometry":{"type":"Polygon","coordinates":[[[109.6683,-7.2866],[109.6617,-7.2868],[109.6565,-7.2809],[109.6604,-7.2765],[109.6593,-7.2721],[109.6604,-7.2687],[109.6703,-7.2648],[109.6701,-7.2666],[109.6766,-7.2725],[109.6745,-7.278],[109.6683,-7.2866]]]}},{"type":"Feature","properties":{"name":"Sidakangen","name_en":"Sidakangen","admin_level":"7","osm_id":""},"geometry":{"type":"Polygon","coordinates":[[[109.6476,-7.2109],[109.6559,-7.2095],[109.659,-7.2044],[109.6647,-7.214],[109.6656,-7.2206],[109.6705,-7.2287],[109.67,-7.2319],[109.6634,-7.2316],[109.6527,-7.2231],[109.6476,-7.2138],[109.6476,-7.2109]]]}},{"type":"Feature","properties":{"name":"Sikumpul","name_en":"Sikumpul","admin_level":"7","osm_id":""},"geometry":{"type":"Polygon","coordinates":[[[109.6362,-7.2047],[109.6397,-7.206],[109.6411,-7.2098],[109.6476,-7.2109],[109.6477,-7.2145],[109.6426,-7.218],[109.6409,-7.2181],[109.6405,-7.2142],[109.6314,-7.2175],[109.6318,-7.2245],[109.6298,-7.2267],[109.625,-7.2199],[109.6172,-7.2215],[109.6164,-7.217],[109.6103,-7.2112],[109.6155,-7.2029],[109.6239,-7.2064],[109.6257,-7.2098],[109.6331,-7.2072],[109.6317,-7.2048],[109.6362,-7.2047]]]}},{"type":"Feature","properties":{"name":"Sirukem","name_en":"Sirukem","admin_level":"7","osm_id":""},"geometry":{"type":"Polygon","coordinates":[[[109.708,-7.2401],[109.6951,-7.2414],[109.6891,-7.24],[109.6862,-7.2355],[109.6876,-7.2334],[109.6842,-7.2311],[109.7049,-7.2251],[109.7044,-7.2318],[109.7063,-7.2329],[109.708,-7.2401]]]}},{"type":"Feature","properties":{"name":"Sirukun","name_en":"Sirukun","admin_level":"7","osm_id":""},"geometry":{"type":"Polygon","coordinates":[[[109.6404,-7.2073],[109.6438,-7.2015],[109.6452,-7.1932],[109.6463,-7.1934],[109.6494,-7.1777],[109.6519,-7.1751],[109.6619,-7.1778],[109.6567,-7.1958],[109.6434,-7.2078],[109.6408,-7.2089],[109.6404,-7.2073]]]}}]}