{"type":"FeatureCollection","metadata":{"parent_osm_id":"gid_IDN_27_4_3_1","parent_name":"BanawaSelatan","parent_name_1":"SulawesiTengah","parent_gid":"IDN.27.4.3_1","parent_level":"6","child_level":"7","count":15,"source":"GADM 4.1","generated":"2026-05-08"},"features":[{"type":"Feature","properties":{"name":"Bambarimi","name_en":"Bambarimi","admin_level":"7","osm_id":""},"geometry":{"type":"Polygon","coordinates":[[[119.6576,-0.8202],[119.6585,-0.8247],[119.6639,-0.8257],[119.6665,-0.8242],[119.6699,-0.8181],[119.7296,-0.8975],[119.731,-0.9005],[119.7238,-0.9082],[119.7134,-0.9239],[119.7057,-0.906],[119.6931,-0.8842],[119.6819,-0.8707],[119.6727,-0.8546],[119.6473,-0.836],[119.6576,-0.8202]]]}},{"type":"Feature","properties":{"name":"Lalombi","name_en":"Lalombi","admin_level":"7","osm_id":""},"geometry":{"type":"Polygon","coordinates":[[[119.5918,-0.845],[119.5968,-0.8432],[119.6074,-0.835],[119.6137,-0.8346],[119.6176,-0.8297],[119.6243,-0.8326],[119.6253,-0.8376],[119.6285,-0.838],[119.6325,-0.8347],[119.6344,-0.8405],[119.6385,-0.8447],[119.6311,-0.865],[119.6093,-0.8669],[119.597,-0.8634],[119.5928,-0.8528],[119.5933,-0.8487],[119.5918,-0.845]]]}},{"type":"Feature","properties":{"name":"Lumbulama","name_en":"Lumbulama","admin_level":"7","osm_id":""},"geometry":{"type":"Polygon","coordinates":[[[119.6128,-1.0053],[119.6158,-0.9977],[119.6343,-0.9858],[119.6333,-0.9797],[119.6312,-0.9769],[119.6315,-0.9724],[119.6285,-0.9708],[119.6283,-0.9669],[119.6322,-0.9613],[119.6271,-0.9583],[119.626,-0.9553],[119.6233,-0.9562],[119.6222,-0.955],[119.6252,-0.9442],[119.6508,-0.9566],[119.6479,-0.9695],[119.6506,-0.9799],[119.6493,-0.9919],[119.6524,-0.9984],[119.652,-1.0019],[119.6458,-1.0101],[119.636,-1.0113],[119.6326,-1.01],[119.626,-1.0112],[119.6244,-1.0084],[119.6166,-1.0084],[119.6128,-1.0053]]]}},{"type":"Feature","properties":{"name":"Lumbumamara","name_en":"Lumbumamara","admin_level":"7","osm_id":""},"geometry":{"type":"Polygon","coordinates":[[[119.6738,-0.8097],[119.6818,-0.7931],[119.688,-0.7901],[119.7191,-0.8084],[119.7221,-0.8122],[119.7377,-0.8137],[119.7513,-0.8195],[119.76,-0.8339],[119.7605,-0.8381],[119.7666,-0.8445],[119.765,-0.8522],[119.7703,-0.8605],[119.7699,-0.8646],[119.773,-0.8643],[119.7671,-0.8715],[119.7457,-0.8517],[119.7334,-0.8452],[119.7192,-0.8413],[119.6847,-0.8231],[119.6762,-0.8149],[119.6738,-0.8097]]]}},{"type":"Feature","properties":{"name":"Lumbutarombo","name_en":"Lumbutarombo","admin_level":"7","osm_id":""},"geometry":{"type":"Polygon","coordinates":[[[119.6699,-0.8181],[119.6665,-0.8242],[119.6614,-0.8255],[119.6585,-0.8247],[119.658,-0.8203],[119.6503,-0.8171],[119.6471,-0.8122],[119.6584,-0.8034],[119.663,-0.8016],[119.6636,-0.7975],[119.6757,-0.788],[119.6808,-0.7792],[119.6879,-0.7901],[119.6818,-0.7931],[119.6738,-0.8097],[119.6694,-0.8144],[119.6699,-0.8181]]]}},{"type":"Feature","properties":{"name":"Malino","name_en":"Malino","admin_level":"7","osm_id":""},"geometry":{"type":"Polygon","coordinates":[[[119.5597,-0.9785],[119.555,-0.9642],[119.5555,-0.944],[119.5532,-0.9382],[119.5558,-0.9271],[119.5587,-0.9264],[119.562,-0.9182],[119.5633,-0.913],[119.5616,-0.9117],[119.5632,-0.9105],[119.5631,-0.9077],[119.5658,-0.9083],[119.5652,-0.9131],[119.5676,-0.9158],[119.5746,-0.9137],[119.581,-0.9192],[119.5801,-0.9255],[119.5848,-0.9316],[119.5836,-0.9334],[119.5812,-0.9326],[119.5794,-0.9352],[119.5787,-0.939],[119.5821,-0.9393],[119.5805,-0.9421],[119.5832,-0.9435],[119.5852,-0.9426],[119.5865,-0.9442],[119.589,-0.9436],[119.5931,-0.9361],[119.5946,-0.9401],[119.5979,-0.9401],[119.6003,-0.9422],[119.6027,-0.9414],[119.6051,-0.9432],[119.6054,-0.9458],[119.6072,-0.9443],[119.6111,-0.9511],[119.613,-0.9496],[119.6217,-0.9532],[119.6228,-0.9559],[119.626,-0.9553],[119.6271,-0.9583],[119.6314,-0.9604],[119.632,-0.9624],[119.6283,-0.9669],[119.6285,-0.9708],[119.6315,-0.9724],[119.6312,-0.9769],[119.6333,-0.9797],[119.6343,-0.9858],[119.6158,-0.9977],[119.6128,-1.0053],[119.6036,-1.003],[119.5999,-1.0031],[119.5974,-1.0058],[119.5901,-1.0034],[119.5885,-1.0088],[119.5854,-1.008],[119.5808,-1.0099],[119.5753,-1.0183],[119.5734,-1.0172],[119.5668,-1.019],[119.5609,-1.0148],[119.5569,-1.0095],[119.5591,-0.9985],[119.5597,-0.9785]]]}},{"type":"Feature","properties":{"name":"Mbuwu","name_en":"Mbuwu","admin_level":"7","osm_id":""},"geometry":{"type":"Polygon","coordinates":[[[119.6508,-0.9566],[119.6249,-0.944],[119.6212,-0.9389],[119.6187,-0.9263],[119.6154,-0.9207],[119.5986,-0.9127],[119.5972,-0.9046],[119.5882,-0.8999],[119.5955,-0.8863],[119.5993,-0.8826],[119.6096,-0.8817],[119.6282,-0.8857],[119.6374,-0.8922],[119.647,-0.8964],[119.6581,-0.9127],[119.6622,-0.917],[119.6694,-0.921],[119.6679,-0.9342],[119.6725,-0.9409],[119.6609,-0.9511],[119.6543,-0.9512],[119.653,-0.9563],[119.6508,-0.9566]]]}},{"type":"Feature","properties":{"name":"Ongulara","name_en":"Ongulara","admin_level":"7","osm_id":""},"geometry":{"type":"Polygon","coordinates":[[[119.5622,-0.908],[119.5604,-0.9082],[119.5595,-0.9066],[119.5631,-0.9032],[119.5603,-0.8994],[119.5617,-0.8988],[119.5619,-0.8953],[119.5645,-0.8957],[119.5678,-0.8881],[119.5698,-0.8894],[119.572,-0.8957],[119.5882,-0.8999],[119.5972,-0.9046],[119.5986,-0.9127],[119.6148,-0.9201],[119.6187,-0.9263],[119.6212,-0.9389],[119.6252,-0.9442],[119.6222,-0.9545],[119.613,-0.9496],[119.6111,-0.9511],[119.6072,-0.9443],[119.6054,-0.9458],[119.6051,-0.9432],[119.6027,-0.9414],[119.6003,-0.9422],[119.5979,-0.9401],[119.5946,-0.9401],[119.5931,-0.9361],[119.589,-0.9436],[119.5865,-0.9442],[119.5852,-0.9426],[119.5832,-0.9435],[119.5805,-0.9421],[119.5821,-0.9393],[119.5787,-0.939],[119.5794,-0.9352],[119.5812,-0.9326],[119.5836,-0.9334],[119.5848,-0.9316],[119.5801,-0.9255],[119.581,-0.9192],[119.5746,-0.9137],[119.5676,-0.9158],[119.5652,-0.9131],[119.5658,-0.9083],[119.5622,-0.908]]]}},{"type":"Feature","properties":{"name":"Salumpaku","name_en":"Salumpaku","admin_level":"7","osm_id":""},"geometry":{"type":"Polygon","coordinates":[[[119.6472,-0.8357],[119.6727,-0.8546],[119.6819,-0.8707],[119.6931,-0.8842],[119.7057,-0.906],[119.7134,-0.9239],[119.7054,-0.9354],[119.695,-0.9392],[119.6894,-0.9383],[119.6725,-0.9409],[119.6679,-0.9342],[119.6694,-0.921],[119.6622,-0.917],[119.6581,-0.9127],[119.647,-0.8964],[119.6344,-0.89],[119.6458,-0.8763],[119.6498,-0.8688],[119.6311,-0.865],[119.639,-0.8433],[119.6472,-0.8357]]]}},{"type":"Feature","properties":{"name":"Salungkaenu","name_en":"Salungkaenu","admin_level":"7","osm_id":""},"geometry":{"type":"Polygon","coordinates":[[[119.731,-0.9005],[119.6982,-0.8545],[119.6804,-0.8333],[119.6691,-0.817],[119.6694,-0.8144],[119.6738,-0.8097],[119.6762,-0.8149],[119.6847,-0.8231],[119.7192,-0.8413],[119.7334,-0.8452],[119.7457,-0.8517],[119.7671,-0.8715],[119.7665,-0.8823],[119.7686,-0.887],[119.7684,-0.8932],[119.7814,-0.8976],[119.7824,-0.9033],[119.7846,-0.9041],[119.7733,-0.9073],[119.7692,-0.9069],[119.7653,-0.9089],[119.7602,-0.9077],[119.7538,-0.909],[119.7516,-0.9099],[119.7456,-0.919],[119.7396,-0.9145],[119.731,-0.9005]]]}},{"type":"Feature","properties":{"name":"Surumana","name_en":"Surumana","admin_level":"7","osm_id":""},"geometry":{"type":"Polygon","coordinates":[[[119.5728,-0.8797],[119.5708,-0.8782],[119.572,-0.8752],[119.5703,-0.8747],[119.5716,-0.866],[119.5696,-0.8655],[119.568,-0.8685],[119.5663,-0.8667],[119.5688,-0.8636],[119.5639,-0.8641],[119.5623,-0.863],[119.5624,-0.8603],[119.5651,-0.8604],[119.566,-0.8585],[119.5651,-0.8533],[119.562,-0.8548],[119.5618,-0.8497],[119.5749,-0.8488],[119.5918,-0.845],[119.5947,-0.8582],[119.5823,-0.8739],[119.5796,-0.8757],[119.5779,-0.8751],[119.5775,-0.8769],[119.5728,-0.8797]]]}},{"type":"Feature","properties":{"name":"Tanahmea","name_en":"Tanahmea","admin_level":"7","osm_id":""},"geometry":{"type":"Polygon","coordinates":[[[119.6576,-0.8202],[119.6486,-0.8343],[119.6406,-0.8411],[119.6385,-0.8447],[119.6344,-0.8405],[119.6325,-0.8347],[119.6285,-0.838],[119.6253,-0.8376],[119.6243,-0.8326],[119.6176,-0.8297],[119.6212,-0.8199],[119.6222,-0.8023],[119.63,-0.7954],[119.6353,-0.8017],[119.6403,-0.8035],[119.6503,-0.8171],[119.6576,-0.8202]]]}},{"type":"Feature","properties":{"name":"Tolongano","name_en":"Tolongano","admin_level":"7","osm_id":""},"geometry":{"type":"Polygon","coordinates":[[[119.6808,-0.7793],[119.6757,-0.788],[119.6718,-0.7915],[119.6636,-0.7975],[119.6576,-0.7978],[119.6582,-0.7952],[119.6569,-0.796],[119.6564,-0.7935],[119.6574,-0.7927],[119.659,-0.7893],[119.6562,-0.7848],[119.6562,-0.7821],[119.6675,-0.7729],[119.6665,-0.7699],[119.6637,-0.7701],[119.6652,-0.7677],[119.6676,-0.7676],[119.6694,-0.7646],[119.6717,-0.765],[119.6708,-0.7659],[119.673,-0.7664],[119.6808,-0.7793]]]}},{"type":"Feature","properties":{"name":"Tosale","name_en":"Tosale","admin_level":"7","osm_id":""},"geometry":{"type":"Polygon","coordinates":[[[119.688,-0.7901],[119.673,-0.7664],[119.6752,-0.7666],[119.6756,-0.7645],[119.6796,-0.7691],[119.682,-0.7687],[119.6841,-0.7629],[119.6822,-0.7615],[119.6818,-0.7556],[119.6853,-0.7508],[119.7102,-0.752],[119.7125,-0.7605],[119.7102,-0.7713],[119.7063,-0.777],[119.688,-0.7901]]]}},{"type":"Feature","properties":{"name":"Watatu","name_en":"Watatu","admin_level":"7","osm_id":""},"geometry":{"type":"Polygon","coordinates":[[[119.5698,-0.8894],[119.5712,-0.8845],[119.5703,-0.8816],[119.5775,-0.8769],[119.5779,-0.8751],[119.5796,-0.8757],[119.5823,-0.8739],[119.5947,-0.8582],[119.597,-0.8634],[119.6093,-0.8669],[119.6321,-0.8649],[119.6498,-0.8688],[119.6458,-0.8763],[119.6344,-0.89],[119.6282,-0.8857],[119.6042,-0.8812],[119.5993,-0.8826],[119.5955,-0.8863],[119.5882,-0.8999],[119.572,-0.8957],[119.5698,-0.8894]]]}}]}