{"type":"FeatureCollection","metadata":{"parent_osm_id":"gid_IDN_10_16_1_1","parent_name":"PekalonganBarat","parent_name_1":"JawaTengah","parent_gid":"IDN.10.16.1_1","parent_level":"6","child_level":"7","count":13,"source":"GADM 4.1","generated":"2026-05-09"},"features":[{"type":"Feature","properties":{"name":"Bendan","name_en":"Bendan","admin_level":"7","osm_id":""},"geometry":{"type":"Polygon","coordinates":[[[109.6688,-6.8871],[109.6713,-6.889],[109.6687,-6.8909],[109.6701,-6.8923],[109.6695,-6.8949],[109.668,-6.8957],[109.661,-6.8921],[109.6603,-6.895],[109.6576,-6.8956],[109.6578,-6.8937],[109.659,-6.8938],[109.6584,-6.8902],[109.6688,-6.8871]]]}},{"type":"Feature","properties":{"name":"Bumirejo","name_en":"Bumirejo","admin_level":"7","osm_id":""},"geometry":{"type":"Polygon","coordinates":[[[109.6552,-6.9055],[109.6518,-6.9092],[109.6538,-6.9107],[109.6529,-6.9115],[109.6443,-6.9115],[109.6452,-6.9054],[109.6552,-6.9055]]]}},{"type":"Feature","properties":{"name":"Kebulen","name_en":"Kebulen","admin_level":"7","osm_id":""},"geometry":{"type":"Polygon","coordinates":[[[109.6692,-6.9094],[109.6746,-6.9044],[109.6721,-6.8993],[109.6772,-6.8991],[109.6777,-6.9025],[109.6752,-6.9046],[109.6774,-6.9059],[109.6756,-6.9059],[109.6712,-6.9108],[109.6692,-6.9094]]]}},{"type":"Feature","properties":{"name":"Kergon","name_en":"Kergon","admin_level":"7","osm_id":""},"geometry":{"type":"Polygon","coordinates":[[[109.6699,-6.8942],[109.6687,-6.8909],[109.6713,-6.8886],[109.6685,-6.888],[109.6723,-6.8808],[109.6726,-6.8833],[109.6705,-6.8857],[109.673,-6.8855],[109.6732,-6.8956],[109.6699,-6.8942]]]}},{"type":"Feature","properties":{"name":"Kramatsari","name_en":"Kramatsari","admin_level":"7","osm_id":""},"geometry":{"type":"Polygon","coordinates":[[[109.6657,-6.8877],[109.665,-6.8891],[109.6583,-6.8895],[109.6584,-6.8843],[109.6601,-6.8816],[109.6642,-6.8815],[109.6657,-6.8877]]]}},{"type":"Feature","properties":{"name":"KratonKidul","name_en":"KratonKidul","admin_level":"7","osm_id":""},"geometry":{"type":"Polygon","coordinates":[[[109.6688,-6.8871],[109.6677,-6.8875],[109.6676,-6.8851],[109.6648,-6.8845],[109.6642,-6.8815],[109.6678,-6.8819],[109.6688,-6.8871]]]}},{"type":"Feature","properties":{"name":"Medono","name_en":"Medono","admin_level":"7","osm_id":""},"geometry":{"type":"Polygon","coordinates":[[[109.6585,-6.8958],[109.6603,-6.895],[109.6596,-6.8985],[109.6649,-6.8996],[109.664,-6.9039],[109.6675,-6.9022],[109.6699,-6.9031],[109.6718,-6.8998],[109.6735,-6.9009],[109.6746,-6.9044],[109.6696,-6.9085],[109.6687,-6.9112],[109.6616,-6.9052],[109.6612,-6.9032],[109.658,-6.9019],[109.6577,-6.8988],[109.656,-6.898],[109.6585,-6.8958]]]}},{"type":"Feature","properties":{"name":"Pasirsari","name_en":"Pasirsari","admin_level":"7","osm_id":""},"geometry":{"type":"Polygon","coordinates":[[[109.6598,-6.8894],[109.6582,-6.8912],[109.6585,-6.8958],[109.6569,-6.8969],[109.6575,-6.8864],[109.6514,-6.8879],[109.6505,-6.886],[109.6479,-6.8862],[109.6472,-6.8798],[109.656,-6.8775],[109.6586,-6.8815],[109.6601,-6.8797],[109.6619,-6.8802],[109.6584,-6.8843],[109.6579,-6.8888],[109.6598,-6.8894]]]}},{"type":"Feature","properties":{"name":"Podosugih","name_en":"Podosugih","admin_level":"7","osm_id":""},"geometry":{"type":"Polygon","coordinates":[[[109.6603,-6.895],[109.661,-6.8921],[109.663,-6.8924],[109.6695,-6.8965],[109.6721,-6.8993],[109.6701,-6.903],[109.6675,-6.9022],[109.6636,-6.9037],[109.6649,-6.8996],[109.6596,-6.8985],[109.6603,-6.895]]]}},{"type":"Feature","properties":{"name":"Pringlangu","name_en":"Pringlangu","admin_level":"7","osm_id":""},"geometry":{"type":"Polygon","coordinates":[[[109.6538,-6.9107],[109.6518,-6.9092],[109.6549,-6.9065],[109.6556,-6.9024],[109.661,-6.903],[109.6616,-6.9052],[109.666,-6.9086],[109.6655,-6.9097],[109.662,-6.9091],[109.6604,-6.9122],[109.6538,-6.9107]]]}},{"type":"Feature","properties":{"name":"Sapuro","name_en":"Sapuro","admin_level":"7","osm_id":""},"geometry":{"type":"Polygon","coordinates":[[[109.668,-6.8957],[109.6699,-6.8942],[109.6732,-6.8956],[109.6733,-6.8931],[109.6754,-6.8935],[109.677,-6.8961],[109.6753,-6.8996],[109.6729,-6.8983],[109.6721,-6.8993],[109.668,-6.8957]]]}},{"type":"Feature","properties":{"name":"Tegalrejo","name_en":"Tegalrejo","admin_level":"7","osm_id":""},"geometry":{"type":"Polygon","coordinates":[[[109.6552,-6.9055],[109.6477,-6.9056],[109.6491,-6.9028],[109.6478,-6.9026],[109.6478,-6.8982],[109.6532,-6.8991],[109.6554,-6.8977],[109.6557,-6.8953],[109.6571,-6.8955],[109.656,-6.898],[109.6577,-6.8988],[109.6589,-6.903],[109.6556,-6.9024],[109.6552,-6.9055]]]}},{"type":"Feature","properties":{"name":"Tirto","name_en":"Tirto","admin_level":"7","osm_id":""},"geometry":{"type":"Polygon","coordinates":[[[109.6511,-6.8879],[109.6575,-6.8864],[109.6568,-6.8954],[109.6532,-6.8991],[109.6478,-6.8982],[109.6481,-6.8968],[109.644,-6.8955],[109.6433,-6.8933],[109.646,-6.894],[109.6475,-6.8887],[109.6511,-6.8879]]]}}]}