{"type":"FeatureCollection","metadata":{"parent_osm_id":"19957705","parent_name":"Ciawi","parent_name_1":"JawaBarat","parent_gid":"IDN.9.5.6_1","parent_level":"6","child_level":"7","count":13,"source":"GADM 4.1","generated":"2026-05-09"},"features":[{"type":"Feature","properties":{"name":"BanjarSari","name_en":"BanjarSari","admin_level":"7","osm_id":""},"geometry":{"type":"Polygon","coordinates":[[[106.8644,-6.6892],[106.8624,-6.6854],[106.8661,-6.6839],[106.8667,-6.6794],[106.8615,-6.677],[106.8631,-6.6745],[106.8773,-6.682],[106.8797,-6.6869],[106.878,-6.6888],[106.8725,-6.6834],[106.8717,-6.6894],[106.875,-6.6937],[106.8644,-6.6892]]]}},{"type":"Feature","properties":{"name":"BanjarWangi","name_en":"BanjarWangi","admin_level":"7","osm_id":""},"geometry":{"type":"Polygon","coordinates":[[[106.8615,-6.677],[106.8667,-6.6794],[106.8661,-6.6839],[106.8624,-6.6854],[106.8644,-6.6893],[106.8595,-6.6865],[106.8572,-6.6884],[106.8557,-6.6878],[106.8558,-6.68],[106.8545,-6.6777],[106.8582,-6.6749],[106.8615,-6.677]]]}},{"type":"Feature","properties":{"name":"BanjarWaru","name_en":"BanjarWaru","admin_level":"7","osm_id":""},"geometry":{"type":"Polygon","coordinates":[[[106.8631,-6.6745],[106.8615,-6.677],[106.8582,-6.6749],[106.8531,-6.6758],[106.8493,-6.6715],[106.8476,-6.6723],[106.8468,-6.6685],[106.8505,-6.6675],[106.8489,-6.6585],[106.8542,-6.6636],[106.8572,-6.664],[106.8631,-6.6745]]]}},{"type":"Feature","properties":{"name":"Bendungan","name_en":"Bendungan","admin_level":"7","osm_id":""},"geometry":{"type":"Polygon","coordinates":[[[106.8572,-6.664],[106.8532,-6.6629],[106.8481,-6.6579],[106.851,-6.6591],[106.8559,-6.6571],[106.8559,-6.6609],[106.8587,-6.6617],[106.8592,-6.6554],[106.8599,-6.6596],[106.8688,-6.6697],[106.8723,-6.6715],[106.8743,-6.6755],[106.8709,-6.6761],[106.867,-6.6736],[106.8607,-6.665],[106.8573,-6.663],[106.8572,-6.664]]]}},{"type":"Feature","properties":{"name":"BitungSari","name_en":"BitungSari","admin_level":"7","osm_id":""},"geometry":{"type":"Polygon","coordinates":[[[106.8452,-6.6897],[106.8365,-6.6867],[106.8345,-6.6849],[106.8343,-6.6823],[106.8302,-6.6791],[106.8342,-6.6777],[106.8401,-6.6796],[106.8476,-6.6764],[106.8487,-6.684],[106.8459,-6.6866],[106.8452,-6.6897]]]}},{"type":"Feature","properties":{"name":"BojongMurni","name_en":"BojongMurni","admin_level":"7","osm_id":""},"geometry":{"type":"Polygon","coordinates":[[[106.9337,-6.7693],[106.9318,-6.7578],[106.9266,-6.7516],[106.9225,-6.75],[106.9281,-6.7468],[106.9192,-6.738],[106.9166,-6.7309],[106.9139,-6.7281],[106.9143,-6.7265],[106.911,-6.7238],[106.9106,-6.7189],[106.9031,-6.7112],[106.9002,-6.7106],[106.9003,-6.7081],[106.8975,-6.7069],[106.8977,-6.7037],[106.8959,-6.7015],[106.8936,-6.7023],[106.8839,-6.6949],[106.882,-6.6954],[106.8785,-6.6932],[106.8834,-6.6937],[106.8857,-6.692],[106.8919,-6.6967],[106.903,-6.7014],[106.9105,-6.7148],[106.9153,-6.7163],[106.9208,-6.7146],[106.9301,-6.7229],[106.935,-6.7228],[106.9484,-6.7364],[106.952,-6.7519],[106.9505,-6.76],[106.9463,-6.7611],[106.9337,-6.7693]]]}},{"type":"Feature","properties":{"name":"Ciawi","name_en":"Ciawi","admin_level":"7","osm_id":""},"geometry":{"type":"Polygon","coordinates":[[[106.8489,-6.6585],[106.8505,-6.6675],[106.8488,-6.6687],[106.8468,-6.6685],[106.8452,-6.6616],[106.8487,-6.648],[106.8523,-6.6505],[106.853,-6.6537],[106.8561,-6.6564],[106.8557,-6.6582],[106.8534,-6.6576],[106.851,-6.6591],[106.8489,-6.6572],[106.8489,-6.6585]]]}},{"type":"Feature","properties":{"name":"Cibedug","name_en":"Cibedug","admin_level":"7","osm_id":""},"geometry":{"type":"Polygon","coordinates":[[[106.8685,-6.6911],[106.8839,-6.6949],[106.8896,-6.7002],[106.8936,-6.7023],[106.8959,-6.7015],[106.8977,-6.7037],[106.8975,-6.7069],[106.9003,-6.7081],[106.9002,-6.7106],[106.9031,-6.7112],[106.9106,-6.7189],[106.911,-6.7238],[106.9143,-6.7265],[106.9139,-6.7281],[106.91,-6.7247],[106.9101,-6.7296],[106.8997,-6.7235],[106.8839,-6.709],[106.8819,-6.705],[106.8685,-6.6911]]]}},{"type":"Feature","properties":{"name":"Cileungsi","name_en":"Cileungsi","admin_level":"7","osm_id":""},"geometry":{"type":"Polygon","coordinates":[[[106.861,-6.7037],[106.8603,-6.6986],[106.8581,-6.6958],[106.8591,-6.6934],[106.8566,-6.6911],[106.8592,-6.6928],[106.8614,-6.6974],[106.8662,-6.7014],[106.8688,-6.701],[106.8694,-6.6981],[106.8724,-6.698],[106.8773,-6.7083],[106.882,-6.7098],[106.884,-6.7148],[106.8945,-6.7185],[106.901,-6.7246],[106.9101,-6.7296],[106.91,-6.7247],[106.9161,-6.7301],[106.9192,-6.738],[106.9233,-6.7433],[106.9281,-6.7468],[106.9225,-6.75],[106.9167,-6.7455],[106.9148,-6.7459],[106.9127,-6.7421],[106.8802,-6.7204],[106.8781,-6.7151],[106.8658,-6.7095],[106.861,-6.7037]]]}},{"type":"Feature","properties":{"name":"Citapen","name_en":"Citapen","admin_level":"7","osm_id":""},"geometry":{"type":"Polygon","coordinates":[[[106.8562,-6.6913],[106.8526,-6.69],[106.8593,-6.6865],[106.8658,-6.6889],[106.8945,-6.7185],[106.884,-6.7148],[106.882,-6.7098],[106.8773,-6.7083],[106.8724,-6.698],[106.8694,-6.6981],[106.8688,-6.701],[106.8662,-6.7014],[106.8604,-6.6964],[106.8592,-6.6928],[106.8562,-6.6913]]]}},{"type":"Feature","properties":{"name":"JambuLuwuk","name_en":"JambuLuwuk","admin_level":"7","osm_id":""},"geometry":{"type":"Polygon","coordinates":[[[106.8754,-6.6935],[106.8717,-6.6894],[106.8725,-6.6834],[106.878,-6.6888],[106.8786,-6.6876],[106.8856,-6.689],[106.8939,-6.6973],[106.8852,-6.6919],[106.8834,-6.6937],[106.8754,-6.6935]]]}},{"type":"Feature","properties":{"name":"Pandansari","name_en":"Pandansari","admin_level":"7","osm_id":""},"geometry":{"type":"Polygon","coordinates":[[[106.8592,-6.6554],[106.8587,-6.6617],[106.8561,-6.661],[106.8569,-6.6576],[106.853,-6.6537],[106.8523,-6.6505],[106.8487,-6.648],[106.8474,-6.6431],[106.8412,-6.6347],[106.8484,-6.6373],[106.8562,-6.6472],[106.8662,-6.65],[106.8682,-6.6528],[106.8592,-6.6554]]]}},{"type":"Feature","properties":{"name":"TelukPinang","name_en":"TelukPinang","admin_level":"7","osm_id":""},"geometry":{"type":"Polygon","coordinates":[[[106.8526,-6.69],[106.8452,-6.6897],[106.8459,-6.6866],[106.8487,-6.684],[106.8476,-6.6724],[106.849,-6.6715],[106.8529,-6.6756],[106.8559,-6.6761],[106.8545,-6.6777],[106.8558,-6.68],[106.8557,-6.6878],[106.8526,-6.69]]]}}]}