{"type":"FeatureCollection","metadata":{"parent_osm_id":"gid_IDN_25_4_3_1","parent_name":"Budong-Budong","parent_name_1":"SulawesiBarat","parent_gid":"IDN.25.4.3_1","parent_level":"6","child_level":"7","count":11,"source":"GADM 4.1","generated":"2026-05-09"},"features":[{"type":"Feature","properties":{"name":"Babana","name_en":"Babana","admin_level":"7","osm_id":""},"geometry":{"type":"Polygon","coordinates":[[[119.1981,-2.112],[119.2004,-2.1069],[119.1997,-2.1013],[119.1971,-2.0976],[119.1925,-2.0966],[119.1925,-2.0952],[119.1956,-2.09],[119.1972,-2.0779],[119.202,-2.0655],[119.2044,-2.0634],[119.2134,-2.0671],[119.2137,-2.0762],[119.2196,-2.0825],[119.2203,-2.0892],[119.2233,-2.091],[119.2265,-2.0884],[119.2262,-2.0855],[119.2317,-2.0899],[119.2416,-2.0907],[119.2481,-2.0942],[119.2522,-2.0911],[119.2481,-2.0853],[119.2496,-2.0827],[119.2598,-2.089],[119.2607,-2.092],[119.2587,-2.0999],[119.2611,-2.1011],[119.2619,-2.1047],[119.2654,-2.108],[119.2688,-2.1084],[119.2758,-2.1139],[119.2819,-2.1123],[119.2832,-2.1158],[119.2872,-2.1128],[119.2871,-2.1431],[119.2784,-2.1425],[119.2678,-2.138],[119.2523,-2.1271],[119.2468,-2.1288],[119.2358,-2.1157],[119.2002,-2.1147],[119.1981,-2.112]]]}},{"type":"Feature","properties":{"name":"Barakkang","name_en":"Barakkang","admin_level":"7","osm_id":""},"geometry":{"type":"Polygon","coordinates":[[[119.2386,-2.1984],[119.237,-2.1996],[119.2377,-2.2058],[119.233,-2.2098],[119.2365,-2.213],[119.2324,-2.2208],[119.234,-2.2213],[119.234,-2.2232],[119.2321,-2.223],[119.2297,-2.2252],[119.2312,-2.2322],[119.2272,-2.2321],[119.227,-2.237],[119.2222,-2.2267],[119.2167,-2.2279],[119.2162,-2.2245],[119.2177,-2.2235],[119.2196,-2.2246],[119.2217,-2.2219],[119.2202,-2.2203],[119.2165,-2.2204],[119.2154,-2.2153],[119.2131,-2.2168],[119.2153,-2.2125],[119.2121,-2.2106],[119.2118,-2.2133],[119.1989,-2.2103],[119.1938,-2.2128],[119.1925,-2.2115],[119.1965,-2.2063],[119.1979,-2.2062],[119.1978,-2.2098],[119.2012,-2.2062],[119.204,-2.2081],[119.2041,-2.2044],[119.1994,-2.2056],[119.198,-2.2026],[119.2048,-2.1964],[119.2077,-2.1915],[119.2121,-2.1886],[119.2176,-2.1893],[119.2386,-2.1984]]]}},{"type":"Feature","properties":{"name":"Bojo","name_en":"Bojo","admin_level":"7","osm_id":""},"geometry":{"type":"Polygon","coordinates":[[[119.2632,-2.2396],[119.2906,-2.1883],[119.2844,-2.1882],[119.2848,-2.1845],[119.295,-2.1848],[119.2971,-2.1611],[119.3137,-2.1617],[119.3148,-2.1626],[119.3132,-2.1656],[119.3154,-2.1708],[119.3178,-2.1713],[119.32,-2.1698],[119.3258,-2.1722],[119.329,-2.1711],[119.3304,-2.1735],[119.3298,-2.1766],[119.3241,-2.1782],[119.3153,-2.1876],[119.3118,-2.1875],[119.3108,-2.1889],[119.3154,-2.2165],[119.3173,-2.2195],[119.3175,-2.2219],[119.3139,-2.2218],[119.3152,-2.2237],[119.3131,-2.2234],[119.3157,-2.2258],[119.3129,-2.2255],[119.3132,-2.228],[119.3106,-2.2269],[119.3106,-2.2254],[119.3085,-2.2267],[119.3073,-2.2241],[119.3047,-2.2277],[119.3046,-2.2243],[119.3067,-2.2233],[119.3046,-2.2227],[119.3023,-2.2251],[119.3039,-2.227],[119.3012,-2.2253],[119.3002,-2.2285],[119.2953,-2.2253],[119.2951,-2.2274],[119.2932,-2.2258],[119.2948,-2.2246],[119.2924,-2.2245],[119.2906,-2.2225],[119.2922,-2.221],[119.2895,-2.2196],[119.2891,-2.2241],[119.2876,-2.223],[119.2846,-2.2251],[119.2858,-2.2275],[119.2843,-2.2291],[119.2858,-2.2298],[119.2841,-2.2312],[119.2832,-2.2297],[119.2838,-2.2331],[119.2786,-2.2326],[119.2764,-2.2348],[119.2785,-2.2364],[119.2765,-2.2371],[119.2776,-2.2386],[119.2748,-2.2384],[119.2759,-2.2406],[119.2742,-2.243],[119.273,-2.2411],[119.2666,-2.2465],[119.265,-2.2459],[119.2653,-2.244],[119.2616,-2.2424],[119.2641,-2.2404],[119.2632,-2.2396]]]}},{"type":"Feature","properties":{"name":"KIRE","name_en":"KIRE","admin_level":"7","osm_id":""},"geometry":{"type":"Polygon","coordinates":[[[119.1981,-2.112],[119.2002,-2.1147],[119.2358,-2.1157],[119.2468,-2.1288],[119.2444,-2.1354],[119.2304,-2.1552],[119.2224,-2.1591],[119.2201,-2.1634],[119.1936,-2.1633],[119.1936,-2.1588],[119.186,-2.1594],[119.1811,-2.1528],[119.1879,-2.1525],[119.1887,-2.1482],[119.1862,-2.1421],[119.1859,-2.1365],[119.1892,-2.1361],[119.1914,-2.1327],[119.1896,-2.12],[119.1981,-2.112]]]}},{"type":"Feature","properties":{"name":"LembahHada","name_en":"LembahHada","admin_level":"7","osm_id":""},"geometry":{"type":"Polygon","coordinates":[[[119.2335,-2.2239],[119.2332,-2.2178],[119.2356,-2.2161],[119.2365,-2.213],[119.233,-2.2098],[119.2377,-2.2058],[119.237,-2.1996],[119.2426,-2.1955],[119.2514,-2.1939],[119.2686,-2.1877],[119.2906,-2.1883],[119.2632,-2.2396],[119.2609,-2.2405],[119.262,-2.2381],[119.253,-2.236],[119.2545,-2.2351],[119.2525,-2.2338],[119.2544,-2.2309],[119.2521,-2.2305],[119.2522,-2.228],[119.2536,-2.2292],[119.2552,-2.2272],[119.2528,-2.223],[119.2509,-2.2256],[119.248,-2.2235],[119.2478,-2.2247],[119.2452,-2.2238],[119.248,-2.2254],[119.2475,-2.229],[119.2445,-2.2256],[119.2436,-2.2274],[119.2398,-2.2258],[119.2388,-2.2283],[119.2355,-2.2258],[119.2363,-2.224],[119.2335,-2.2239]]]}},{"type":"Feature","properties":{"name":"Lumu","name_en":"Lumu","admin_level":"7","osm_id":""},"geometry":{"type":"Polygon","coordinates":[[[119.1811,-2.1528],[119.186,-2.1594],[119.1936,-2.1588],[119.1935,-2.1717],[119.18,-2.1718],[119.1799,-2.1869],[119.1822,-2.1869],[119.1822,-2.1904],[119.1669,-2.1995],[119.1636,-2.1985],[119.1624,-2.2007],[119.1602,-2.1983],[119.1579,-2.2004],[119.1577,-2.2058],[119.1532,-2.2065],[119.1508,-2.2053],[119.151,-2.2022],[119.1465,-2.1977],[119.1566,-2.1855],[119.1597,-2.1771],[119.1597,-2.1702],[119.1676,-2.1594],[119.1716,-2.1568],[119.1756,-2.1568],[119.1811,-2.1528]]]}},{"type":"Feature","properties":{"name":"Pasappa","name_en":"Pasappa","admin_level":"7","osm_id":""},"geometry":{"type":"Polygon","coordinates":[[[119.3155,-2.2165],[119.3108,-2.1889],[119.3118,-2.1875],[119.3153,-2.1876],[119.3241,-2.1782],[119.3298,-2.1766],[119.3312,-2.1793],[119.3355,-2.1776],[119.3363,-2.1757],[119.3397,-2.1759],[119.3467,-2.18],[119.3474,-2.1875],[119.3498,-2.1882],[119.3578,-2.1867],[119.3601,-2.1887],[119.3638,-2.1856],[119.3671,-2.186],[119.3728,-2.1819],[119.3788,-2.1921],[119.3731,-2.1938],[119.3752,-2.195],[119.3742,-2.1958],[119.3723,-2.1937],[119.3724,-2.1918],[119.3688,-2.1939],[119.3702,-2.196],[119.3677,-2.1976],[119.3688,-2.1993],[119.3664,-2.1973],[119.3659,-2.1982],[119.3678,-2.2015],[119.3638,-2.2],[119.3632,-2.2049],[119.3615,-2.2043],[119.3581,-2.2069],[119.3573,-2.2048],[119.3574,-2.2082],[119.3548,-2.2074],[119.355,-2.2088],[119.3534,-2.2041],[119.349,-2.2008],[119.3429,-2.2056],[119.3431,-2.2036],[119.3415,-2.2052],[119.3412,-2.2027],[119.3394,-2.2042],[119.34,-2.2016],[119.3348,-2.203],[119.3351,-2.2014],[119.3332,-2.2025],[119.3333,-2.2053],[119.3317,-2.2051],[119.3327,-2.2075],[119.3291,-2.2046],[119.3279,-2.207],[119.3304,-2.2068],[119.3284,-2.2085],[119.3294,-2.2104],[119.3268,-2.2087],[119.326,-2.2121],[119.3224,-2.2088],[119.3225,-2.2115],[119.3206,-2.212],[119.3218,-2.2134],[119.3174,-2.2164],[119.3185,-2.2184],[119.3155,-2.2165]]]}},{"type":"Feature","properties":{"name":"Pontanakayang","name_en":"Pontanakayang","admin_level":"7","osm_id":""},"geometry":{"type":"Polygon","coordinates":[[[119.253,-2.1285],[119.2678,-2.138],[119.2784,-2.1425],[119.2871,-2.1431],[119.2876,-2.1553],[119.2893,-2.1551],[119.2898,-2.1529],[119.2994,-2.1523],[119.3003,-2.1554],[119.3049,-2.1554],[119.3096,-2.1586],[119.3093,-2.1616],[119.2971,-2.1611],[119.295,-2.1848],[119.2848,-2.1845],[119.2844,-2.1882],[119.2686,-2.1877],[119.2417,-2.1964],[119.2388,-2.1902],[119.2397,-2.1787],[119.2488,-2.1789],[119.2491,-2.1669],[119.2423,-2.159],[119.2461,-2.1502],[119.2451,-2.1478],[119.2501,-2.1448],[119.2501,-2.1423],[119.2553,-2.1354],[119.2521,-2.1331],[119.253,-2.1285]]]}},{"type":"Feature","properties":{"name":"Salogatta","name_en":"Salogatta","admin_level":"7","osm_id":""},"geometry":{"type":"Polygon","coordinates":[[[119.2468,-2.1288],[119.2523,-2.1271],[119.2521,-2.1331],[119.2553,-2.1354],[119.2501,-2.1423],[119.2501,-2.1448],[119.2451,-2.1478],[119.2461,-2.1502],[119.2423,-2.159],[119.2491,-2.1669],[119.2488,-2.1789],[119.2255,-2.1796],[119.2219,-2.1874],[119.2202,-2.1865],[119.2176,-2.1893],[119.2133,-2.189],[119.2145,-2.1737],[119.2213,-2.161],[119.2224,-2.1591],[119.2304,-2.1552],[119.2444,-2.1354],[119.2468,-2.1288]]]}},{"type":"Feature","properties":{"name":"Salumanurung","name_en":"Salumanurung","admin_level":"7","osm_id":""},"geometry":{"type":"Polygon","coordinates":[[[119.2133,-2.189],[119.2077,-2.1915],[119.2048,-2.1964],[119.198,-2.2026],[119.1948,-2.2007],[119.194,-2.2044],[119.1931,-2.2007],[119.1947,-2.1973],[119.1917,-2.1973],[119.1874,-2.2061],[119.1836,-2.2032],[119.1855,-2.2012],[119.1827,-2.1982],[119.1803,-2.1992],[119.1798,-2.1964],[119.1827,-2.1959],[119.1811,-2.1941],[119.1833,-2.1917],[119.1822,-2.1869],[119.1799,-2.1869],[119.18,-2.1718],[119.1935,-2.1717],[119.1936,-2.1633],[119.2201,-2.1634],[119.2145,-2.1737],[119.2133,-2.189]]]}},{"type":"Feature","properties":{"name":"Tinali","name_en":"Tinali","admin_level":"7","osm_id":""},"geometry":{"type":"Polygon","coordinates":[[[119.2386,-2.1984],[119.2176,-2.1893],[119.2202,-2.1865],[119.2219,-2.1874],[119.2255,-2.1796],[119.2397,-2.1787],[119.2388,-2.1902],[119.2417,-2.1964],[119.2386,-2.1984]]]}}]}