{"type":"FeatureCollection","metadata":{"parent_osm_id":"gid_IDN_11_9_21_1","parent_name":"Wonosalam","parent_name_1":"JawaTimur","parent_gid":"IDN.11.9.21_1","parent_level":"6","child_level":"7","count":9,"source":"GADM 4.1","generated":"2026-05-07"},"features":[{"type":"Feature","properties":{"name":"Carangwulung","name_en":"Carangwulung","admin_level":"7","osm_id":""},"geometry":{"type":"Polygon","coordinates":[[[112.385,-7.6834],[112.394,-7.6936],[112.4021,-7.6958],[112.4036,-7.6999],[112.4098,-7.7025],[112.4141,-7.7077],[112.4139,-7.7122],[112.4099,-7.7166],[112.4097,-7.7192],[112.4064,-7.7214],[112.4032,-7.721],[112.402,-7.7186],[112.4,-7.722],[112.3956,-7.7203],[112.391,-7.7113],[112.3914,-7.705],[112.3822,-7.6997],[112.3734,-7.6985],[112.3704,-7.6893],[112.3733,-7.6804],[112.3772,-7.6827],[112.385,-7.6834]]]}},{"type":"Feature","properties":{"name":"Galengdowo","name_en":"Galengdowo","admin_level":"7","osm_id":""},"geometry":{"type":"Polygon","coordinates":[[[112.3319,-7.7415],[112.3331,-7.7364],[112.3348,-7.7374],[112.3354,-7.7354],[112.3417,-7.7388],[112.3471,-7.7448],[112.3581,-7.7486],[112.362,-7.7525],[112.3717,-7.7536],[112.3762,-7.7515],[112.3846,-7.7549],[112.392,-7.7547],[112.3985,-7.7597],[112.4157,-7.7636],[112.4222,-7.7669],[112.4162,-7.7685],[112.4144,-7.7718],[112.3973,-7.7761],[112.3935,-7.7733],[112.3881,-7.7724],[112.3846,-7.7688],[112.3753,-7.764],[112.3654,-7.7608],[112.3612,-7.7612],[112.3488,-7.7489],[112.3429,-7.7486],[112.3372,-7.7453],[112.3344,-7.7415],[112.3319,-7.7415]]]}},{"type":"Feature","properties":{"name":"Jarak","name_en":"Jarak","admin_level":"7","osm_id":""},"geometry":{"type":"Polygon","coordinates":[[[112.4222,-7.7669],[112.4157,-7.7636],[112.3985,-7.7597],[112.392,-7.7547],[112.3846,-7.7549],[112.3762,-7.7515],[112.3717,-7.7536],[112.3597,-7.7515],[112.3581,-7.7486],[112.3615,-7.74],[112.3615,-7.7352],[112.3693,-7.7351],[112.371,-7.7371],[112.3973,-7.7413],[112.4086,-7.7404],[112.4147,-7.7423],[112.4158,-7.7363],[112.4225,-7.7336],[112.4246,-7.7309],[112.4268,-7.7402],[112.4321,-7.7423],[112.4371,-7.7406],[112.4399,-7.7336],[112.4477,-7.7419],[112.4481,-7.7439],[112.4462,-7.745],[112.4483,-7.7512],[112.4468,-7.7591],[112.4477,-7.7649],[112.4509,-7.7673],[112.45,-7.7705],[112.4558,-7.7791],[112.4433,-7.7769],[112.4359,-7.767],[112.4304,-7.7715],[112.4222,-7.7669]]]}},{"type":"Feature","properties":{"name":"Panglungan","name_en":"Panglungan","admin_level":"7","osm_id":""},"geometry":{"type":"Polygon","coordinates":[[[112.4097,-7.7192],[112.4099,-7.7166],[112.4139,-7.7122],[112.4141,-7.7077],[112.4098,-7.7025],[112.4036,-7.6999],[112.4021,-7.6958],[112.394,-7.6936],[112.385,-7.6834],[112.3878,-7.6815],[112.386,-7.6797],[112.3856,-7.673],[112.3914,-7.6747],[112.3994,-7.6687],[112.4045,-7.6698],[112.4114,-7.6685],[112.413,-7.6761],[112.4155,-7.6803],[112.4218,-7.6853],[112.4241,-7.692],[112.4301,-7.6995],[112.4322,-7.7047],[112.4331,-7.7146],[112.4398,-7.7336],[112.4371,-7.7406],[112.4321,-7.7423],[112.4273,-7.7406],[112.4235,-7.7283],[112.4167,-7.727],[112.4114,-7.7229],[112.4097,-7.7192]]]}},{"type":"Feature","properties":{"name":"Sambirejo","name_en":"Sambirejo","admin_level":"7","osm_id":""},"geometry":{"type":"Polygon","coordinates":[[[112.3362,-7.7096],[112.3412,-7.7125],[112.3531,-7.7044],[112.3556,-7.7079],[112.3599,-7.7087],[112.3627,-7.7137],[112.363,-7.7187],[112.3661,-7.722],[112.3776,-7.7261],[112.379,-7.7233],[112.3877,-7.7255],[112.3882,-7.7283],[112.3984,-7.7342],[112.4016,-7.7311],[112.3999,-7.7276],[112.4097,-7.7192],[112.412,-7.7235],[112.4167,-7.727],[112.4218,-7.727],[112.4246,-7.7309],[112.4225,-7.7336],[112.4158,-7.7363],[112.4147,-7.7423],[112.4086,-7.7404],[112.3973,-7.7413],[112.371,-7.7371],[112.3693,-7.7351],[112.3615,-7.7352],[112.3598,-7.7301],[112.3531,-7.7287],[112.3328,-7.7168],[112.3362,-7.7096]]]}},{"type":"Feature","properties":{"name":"Sumberjo","name_en":"Sumberjo","admin_level":"7","osm_id":""},"geometry":{"type":"Polygon","coordinates":[[[112.3475,-7.6362],[112.3503,-7.6366],[112.3551,-7.6412],[112.3569,-7.6393],[112.3614,-7.6408],[112.3634,-7.6385],[112.3638,-7.6417],[112.3656,-7.6431],[112.3661,-7.6421],[112.3669,-7.6439],[112.3718,-7.6412],[112.3722,-7.6392],[112.3811,-7.6402],[112.3899,-7.6428],[112.4046,-7.6543],[112.4104,-7.6529],[112.4121,-7.6577],[112.4114,-7.6685],[112.4045,-7.6698],[112.3994,-7.6687],[112.3914,-7.6747],[112.3866,-7.6733],[112.3796,-7.665],[112.3735,-7.6634],[112.3701,-7.6599],[112.3641,-7.6594],[112.3604,-7.655],[112.3554,-7.6536],[112.3508,-7.6494],[112.3477,-7.6421],[112.3475,-7.6362]]]}},{"type":"Feature","properties":{"name":"Wonokerto","name_en":"Wonokerto","admin_level":"7","osm_id":""},"geometry":{"type":"Polygon","coordinates":[[[112.3493,-7.6662],[112.3516,-7.6687],[112.354,-7.6687],[112.3559,-7.6634],[112.3508,-7.6494],[112.3554,-7.6536],[112.3604,-7.655],[112.3641,-7.6594],[112.3701,-7.6599],[112.3735,-7.6634],[112.3796,-7.665],[112.3861,-7.6728],[112.3853,-7.6762],[112.3878,-7.6817],[112.3829,-7.6836],[112.3733,-7.6804],[112.3679,-7.682],[112.3638,-7.6798],[112.3611,-7.6761],[112.3566,-7.6763],[112.3531,-7.6718],[112.3504,-7.6717],[112.3493,-7.6662]]]}},{"type":"Feature","properties":{"name":"Wonomerto","name_en":"Wonomerto","admin_level":"7","osm_id":""},"geometry":{"type":"Polygon","coordinates":[[[112.3354,-7.7354],[112.3358,-7.7291],[112.3335,-7.7282],[112.335,-7.7269],[112.3328,-7.7168],[112.3531,-7.7287],[112.3602,-7.7304],[112.3615,-7.7326],[112.3615,-7.74],[112.3581,-7.7486],[112.3471,-7.7448],[112.3417,-7.7388],[112.3354,-7.7354]]]}},{"type":"Feature","properties":{"name":"Wonosalam","name_en":"Wonosalam","admin_level":"7","osm_id":""},"geometry":{"type":"Polygon","coordinates":[[[112.3531,-7.7044],[112.3555,-7.7023],[112.3552,-7.7],[112.3518,-7.6926],[112.3495,-7.6914],[112.3496,-7.687],[112.3513,-7.6865],[112.3541,-7.68],[112.352,-7.6734],[112.3502,-7.672],[112.3524,-7.6714],[112.356,-7.676],[112.3607,-7.6759],[112.3664,-7.6814],[112.3733,-7.6804],[112.3704,-7.6893],[112.3734,-7.6985],[112.3822,-7.6997],[112.3914,-7.705],[112.391,-7.7113],[112.3956,-7.7203],[112.4,-7.722],[112.402,-7.7186],[112.4032,-7.721],[112.4064,-7.7214],[112.4035,-7.7257],[112.3999,-7.7276],[112.4016,-7.7311],[112.3977,-7.734],[112.3882,-7.7283],[112.3877,-7.7255],[112.379,-7.7233],[112.3776,-7.7261],[112.3661,-7.722],[112.363,-7.7187],[112.3627,-7.7137],[112.3599,-7.7087],[112.3556,-7.7079],[112.3531,-7.7044]]]}}]}