{"type":"FeatureCollection","metadata":{"parent_osm_id":"5615327","parent_name":"Kalibawang","parent_name_1":"JawaTengah","parent_gid":"IDN.10.36.2_1","parent_level":"6","child_level":"7","count":8,"source":"GADM 4.1","generated":"2026-05-09"},"features":[{"type":"Feature","properties":{"name":"Dempel","name_en":"Dempel","admin_level":"7","osm_id":""},"geometry":{"type":"Polygon","coordinates":[[[109.9306,-7.5228],[109.926,-7.5241],[109.9202,-7.5193],[109.9143,-7.5209],[109.9055,-7.5196],[109.9058,-7.5058],[109.9129,-7.4959],[109.915,-7.4946],[109.9235,-7.5042],[109.9265,-7.5036],[109.9343,-7.5089],[109.9332,-7.511],[109.934,-7.5133],[109.9316,-7.5142],[109.9319,-7.5163],[109.9298,-7.5166],[109.9306,-7.5228]]]}},{"type":"Feature","properties":{"name":"Depok","name_en":"Depok","admin_level":"7","osm_id":""},"geometry":{"type":"Polygon","coordinates":[[[109.915,-7.4946],[109.91,-7.4986],[109.9055,-7.5069],[109.8954,-7.5047],[109.8957,-7.4987],[109.8938,-7.4959],[109.8966,-7.4908],[109.8963,-7.4884],[109.9042,-7.4933],[109.915,-7.4946]]]}},{"type":"Feature","properties":{"name":"Kalialang","name_en":"Kalialang","admin_level":"7","osm_id":""},"geometry":{"type":"Polygon","coordinates":[[[109.915,-7.4946],[109.9042,-7.4933],[109.8963,-7.4884],[109.8933,-7.4741],[109.8974,-7.4764],[109.9025,-7.4764],[109.9037,-7.4753],[109.9021,-7.4709],[109.9091,-7.467],[109.9155,-7.4725],[109.9191,-7.4777],[109.9192,-7.4863],[109.9174,-7.4922],[109.915,-7.4946]]]}},{"type":"Feature","properties":{"name":"Kalikarung","name_en":"Kalikarung","admin_level":"7","osm_id":""},"geometry":{"type":"Polygon","coordinates":[[[109.9752,-7.5328],[109.9715,-7.5306],[109.964,-7.5324],[109.955,-7.5278],[109.9497,-7.5203],[109.9472,-7.5129],[109.9439,-7.5114],[109.9413,-7.5062],[109.9392,-7.5063],[109.9387,-7.4994],[109.9457,-7.4954],[109.9503,-7.4966],[109.9541,-7.4956],[109.9608,-7.498],[109.9682,-7.4939],[109.9691,-7.5003],[109.9646,-7.5024],[109.967,-7.5049],[109.9666,-7.5075],[109.9689,-7.5111],[109.9674,-7.5207],[109.9694,-7.5287],[109.9752,-7.5328]]]}},{"type":"Feature","properties":{"name":"Karangsambung","name_en":"Karangsambung","admin_level":"7","osm_id":""},"geometry":{"type":"Polygon","coordinates":[[[109.9344,-7.5091],[109.9265,-7.5036],[109.9235,-7.5042],[109.915,-7.4946],[109.9191,-7.4867],[109.9182,-7.4839],[109.9199,-7.4747],[109.9252,-7.4758],[109.9313,-7.4856],[109.9347,-7.4876],[109.9394,-7.4875],[109.9479,-7.4924],[109.9457,-7.4954],[109.9387,-7.4994],[109.9392,-7.5063],[109.9344,-7.5091]]]}},{"type":"Feature","properties":{"name":"Mergolangu","name_en":"Mergolangu","admin_level":"7","osm_id":""},"geometry":{"type":"Polygon","coordinates":[[[109.8837,-7.5361],[109.8788,-7.5333],[109.8746,-7.5265],[109.8758,-7.5222],[109.8742,-7.519],[109.8685,-7.5156],[109.8633,-7.5099],[109.8629,-7.5039],[109.8665,-7.5051],[109.8749,-7.5038],[109.8782,-7.5059],[109.8953,-7.5046],[109.9055,-7.5069],[109.9055,-7.5196],[109.9143,-7.5209],[109.9112,-7.5206],[109.9093,-7.5229],[109.8984,-7.5197],[109.8958,-7.5224],[109.8938,-7.5219],[109.8905,-7.5242],[109.8888,-7.528],[109.8866,-7.5278],[109.8851,-7.5296],[109.8837,-7.5361]]]}},{"type":"Feature","properties":{"name":"Pengarengan","name_en":"Pengarengan","admin_level":"7","osm_id":""},"geometry":{"type":"Polygon","coordinates":[[[109.9511,-7.5304],[109.9487,-7.5318],[109.9434,-7.5305],[109.939,-7.5326],[109.9344,-7.5238],[109.9306,-7.5228],[109.9298,-7.5166],[109.9319,-7.5163],[109.9316,-7.5142],[109.934,-7.5133],[109.9332,-7.511],[109.9351,-7.5083],[109.9411,-7.5061],[109.9439,-7.5114],[109.9472,-7.5129],[109.9527,-7.5251],[109.9511,-7.5304]]]}},{"type":"Feature","properties":{"name":"Tempurejo","name_en":"Tempurejo","admin_level":"7","osm_id":""},"geometry":{"type":"Polygon","coordinates":[[[109.9479,-7.4924],[109.9394,-7.4875],[109.9347,-7.4876],[109.9313,-7.4856],[109.9252,-7.4758],[109.9199,-7.4747],[109.928,-7.4664],[109.9275,-7.465],[109.9313,-7.4647],[109.9414,-7.46],[109.952,-7.4694],[109.9533,-7.4724],[109.9528,-7.4816],[109.9565,-7.4866],[109.9479,-7.4924]]]}}]}