{"type":"FeatureCollection","metadata":{"parent_osm_id":"gid_IDN_1_5_9_1","parent_name":"LabuhanHaji","parent_name_1":"Aceh","parent_gid":"IDN.1.5.9_1","parent_level":"6","child_level":"7","count":16,"source":"GADM 4.1","generated":"2026-05-09"},"features":[{"type":"Feature","properties":{"name":"Apha","name_en":"Apha","admin_level":"7","osm_id":""},"geometry":{"type":"Polygon","coordinates":[[[96.9939,3.5482],[96.993,3.5511],[96.9948,3.5562],[96.9986,3.5525],[96.9939,3.5482]]]}},{"type":"Feature","properties":{"name":"BakauHulu","name_en":"BakauHulu","admin_level":"7","osm_id":""},"geometry":{"type":"Polygon","coordinates":[[[97.0405,3.5614],[97.029,3.5512],[97.0187,3.5379],[97.01,3.5389],[97.0063,3.5456],[97.0078,3.5496],[97.0268,3.5615],[97.0405,3.5614]]]}},{"type":"Feature","properties":{"name":"Cacang","name_en":"Cacang","admin_level":"7","osm_id":""},"geometry":{"type":"Polygon","coordinates":[[[96.9917,3.5626],[96.9928,3.564],[96.9988,3.5621],[96.9988,3.5594],[96.9917,3.5626]]]}},{"type":"Feature","properties":{"name":"Dalam","name_en":"Dalam","admin_level":"7","osm_id":""},"geometry":{"type":"Polygon","coordinates":[[[96.99,3.5607],[96.9907,3.5615],[96.9955,3.5569],[96.9944,3.5563],[96.99,3.5607]]]}},{"type":"Feature","properties":{"name":"HuluPisang","name_en":"HuluPisang","admin_level":"7","osm_id":""},"geometry":{"type":"Polygon","coordinates":[[[96.9871,3.5742],[96.9893,3.5745],[97.0054,3.5799],[97.0051,3.5754],[97.0008,3.573],[96.9983,3.5676],[96.9936,3.565],[96.99,3.5607],[96.9829,3.5681],[96.9871,3.5742]]]}},{"type":"Feature","properties":{"name":"KotaPalak","name_en":"KotaPalak","admin_level":"7","osm_id":""},"geometry":{"type":"Polygon","coordinates":[[[96.9917,3.5626],[96.9951,3.5607],[96.9949,3.5583],[96.9907,3.5615],[96.9917,3.5626]]]}},{"type":"Feature","properties":{"name":"LembahBaru","name_en":"LembahBaru","admin_level":"7","osm_id":""},"geometry":{"type":"Polygon","coordinates":[[[96.9848,3.5552],[96.9809,3.5565],[96.9842,3.5614],[96.9868,3.559],[96.9848,3.5552]]]}},{"type":"Feature","properties":{"name":"ManggisHarapan","name_en":"ManggisHarapan","admin_level":"7","osm_id":""},"geometry":{"type":"Polygon","coordinates":[[[97.0268,3.5615],[97.0078,3.5496],[97.0063,3.5456],[97.0011,3.5494],[97.0141,3.5621],[97.0268,3.5615]]]}},{"type":"Feature","properties":{"name":"PadangBakau","name_en":"PadangBakau","admin_level":"7","osm_id":""},"geometry":{"type":"Polygon","coordinates":[[[97.0066,3.5287],[97.0026,3.5344],[96.9997,3.5453],[96.9975,3.5462],[97.0009,3.5495],[97.0081,3.5442],[97.0105,3.5383],[97.0158,3.5379],[97.0066,3.5287]]]}},{"type":"Feature","properties":{"name":"PadangBaru","name_en":"PadangBaru","admin_level":"7","osm_id":""},"geometry":{"type":"Polygon","coordinates":[[[96.9805,3.5634],[96.9842,3.5614],[96.9839,3.5601],[96.9809,3.5565],[96.9768,3.5564],[96.9805,3.5634]]]}},{"type":"Feature","properties":{"name":"PasarLama","name_en":"PasarLama","admin_level":"7","osm_id":""},"geometry":{"type":"Polygon","coordinates":[[[96.9939,3.5482],[96.9986,3.5525],[97.0009,3.5495],[96.9951,3.5448],[96.9937,3.5454],[96.9939,3.5482]]]}},{"type":"Feature","properties":{"name":"Pawoh","name_en":"Pawoh","admin_level":"7","osm_id":""},"geometry":{"type":"Polygon","coordinates":[[[96.9948,3.5562],[96.993,3.5511],[96.9858,3.5548],[96.9898,3.5608],[96.9948,3.5562]]]}},{"type":"Feature","properties":{"name":"Pisang","name_en":"Pisang","admin_level":"7","osm_id":""},"geometry":{"type":"Polygon","coordinates":[[[97.0054,3.5799],[97.0201,3.5846],[97.1121,3.6465],[97.1307,3.6705],[97.1436,3.6941],[97.1504,3.7214],[97.1536,3.7456],[97.1531,3.7314],[97.1453,3.6912],[97.1221,3.6451],[97.0804,3.5974],[97.0405,3.5614],[97.0141,3.5621],[97.0113,3.56],[97.0093,3.5611],[96.9988,3.5594],[96.9988,3.5621],[96.995,3.5647],[96.9983,3.5676],[97.0002,3.5724],[97.0051,3.5754],[97.0054,3.5799]]]}},{"type":"Feature","properties":{"name":"TengahBaru","name_en":"TengahBaru","admin_level":"7","osm_id":""},"geometry":{"type":"Polygon","coordinates":[[[96.9807,3.5638],[96.9829,3.5681],[96.9898,3.5608],[96.9858,3.5548],[96.9848,3.5552],[96.9862,3.5603],[96.9807,3.5638]]]}},{"type":"Feature","properties":{"name":"TengahPisang","name_en":"TengahPisang","admin_level":"7","osm_id":""},"geometry":{"type":"Polygon","coordinates":[[[96.997,3.5624],[96.9946,3.563],[96.9928,3.564],[96.9941,3.5651],[96.997,3.5624]]]}},{"type":"Feature","properties":{"name":"UjungBatu","name_en":"UjungBatu","admin_level":"7","osm_id":""},"geometry":{"type":"Polygon","coordinates":[[[96.9986,3.5525],[96.9948,3.5562],[96.9956,3.5601],[97.0093,3.5611],[97.0114,3.56],[97.0011,3.5494],[96.9986,3.5525]]]}}]}