{"type":"FeatureCollection","metadata":{"parent_osm_id":"14734670","parent_name":"Kuala","parent_name_1":"Aceh","parent_gid":"IDN.1.18.4_1","parent_level":"6","child_level":"7","count":17,"source":"GADM 4.1","generated":"2026-05-09"},"features":[{"type":"Feature","properties":{"name":"AlueIeMameh","name_en":"AlueIeMameh","admin_level":"7","osm_id":""},"geometry":{"type":"Polygon","coordinates":[[[96.2861,4.1375],[96.286,4.1398],[96.2925,4.1416],[96.2953,4.1445],[96.2982,4.1427],[96.3164,4.1407],[96.3385,4.1485],[96.338,4.1495],[96.3417,4.1517],[96.3451,4.1508],[96.3441,4.1488],[96.3456,4.1424],[96.3431,4.1434],[96.3416,4.1405],[96.3333,4.1405],[96.3315,4.1351],[96.3231,4.1339],[96.3131,4.126],[96.2861,4.1375]]]}},{"type":"Feature","properties":{"name":"BlangBaro","name_en":"BlangBaro","admin_level":"7","osm_id":""},"geometry":{"type":"Polygon","coordinates":[[[96.2512,4.1299],[96.256,4.1338],[96.2775,4.1089],[96.2973,4.0946],[96.2949,4.0935],[96.2896,4.0969],[96.2842,4.0924],[96.2798,4.0946],[96.2718,4.1072],[96.2564,4.1224],[96.2512,4.1299]]]}},{"type":"Feature","properties":{"name":"BlangBintang","name_en":"BlangBintang","admin_level":"7","osm_id":""},"geometry":{"type":"Polygon","coordinates":[[[96.2973,4.0946],[96.3017,4.101],[96.3019,4.1051],[96.3032,4.1006],[96.3161,4.0943],[96.3181,4.0905],[96.3172,4.0898],[96.3186,4.0892],[96.3173,4.0882],[96.3204,4.0865],[96.3176,4.0823],[96.3195,4.0811],[96.3181,4.0802],[96.3076,4.0853],[96.3038,4.0852],[96.2973,4.0946]]]}},{"type":"Feature","properties":{"name":"BlangMuko","name_en":"BlangMuko","admin_level":"7","osm_id":""},"geometry":{"type":"Polygon","coordinates":[[[96.256,4.1338],[96.2613,4.1373],[96.2707,4.1248],[96.2893,4.1167],[96.3019,4.1051],[96.3017,4.101],[96.2972,4.0948],[96.2775,4.1089],[96.256,4.1338]]]}},{"type":"Feature","properties":{"name":"BlangTeungoh","name_en":"BlangTeungoh","admin_level":"7","osm_id":""},"geometry":{"type":"Polygon","coordinates":[[[96.3012,4.1054],[96.2938,4.1124],[96.2996,4.1222],[96.3052,4.12],[96.3036,4.1073],[96.3012,4.1054]]]}},{"type":"Feature","properties":{"name":"CotKumbang","name_en":"CotKumbang","admin_level":"7","osm_id":""},"geometry":{"type":"Polygon","coordinates":[[[96.3161,4.0943],[96.3032,4.1006],[96.3012,4.1054],[96.3036,4.1073],[96.3042,4.1134],[96.3142,4.1128],[96.3154,4.1099],[96.3222,4.1093],[96.3239,4.1063],[96.3215,4.1067],[96.322,4.1048],[96.3161,4.0943]]]}},{"type":"Feature","properties":{"name":"GunongReubo","name_en":"GunongReubo","admin_level":"7","osm_id":""},"geometry":{"type":"Polygon","coordinates":[[[96.2663,4.144],[96.2676,4.146],[96.2726,4.1466],[96.2775,4.1427],[96.286,4.1398],[96.2887,4.1291],[96.2741,4.1351],[96.2663,4.144]]]}},{"type":"Feature","properties":{"name":"Jokja","name_en":"Jokja","admin_level":"7","osm_id":""},"geometry":{"type":"Polygon","coordinates":[[[96.3256,4.0364],[96.3046,4.0641],[96.2965,4.0666],[96.2975,4.0695],[96.293,4.0748],[96.292,4.0844],[96.3079,4.0711],[96.3213,4.0717],[96.3226,4.0729],[96.3207,4.076],[96.345,4.0756],[96.3382,4.0507],[96.3256,4.0364]]]}},{"type":"Feature","properties":{"name":"KutaMakmur","name_en":"KutaMakmur","admin_level":"7","osm_id":""},"geometry":{"type":"Polygon","coordinates":[[[96.2613,4.1373],[96.2663,4.144],[96.2741,4.1351],[96.2887,4.1291],[96.2849,4.12],[96.2824,4.1187],[96.2707,4.1248],[96.2613,4.1373]]]}},{"type":"Feature","properties":{"name":"LawaBatu","name_en":"LawaBatu","admin_level":"7","osm_id":""},"geometry":{"type":"Polygon","coordinates":[[[96.286,4.0586],[96.2788,4.0672],[96.2794,4.0762],[96.277,4.0831],[96.2801,4.087],[96.2896,4.0864],[96.292,4.0844],[96.293,4.0748],[96.2975,4.0695],[96.2965,4.0666],[96.3046,4.0641],[96.3256,4.0364],[96.3227,4.0358],[96.3166,4.0282],[96.286,4.0586]]]}},{"type":"Feature","properties":{"name":"PuloIe","name_en":"PuloIe","admin_level":"7","osm_id":""},"geometry":{"type":"Polygon","coordinates":[[[96.2574,4.0865],[96.2539,4.1043],[96.2584,4.1101],[96.2647,4.1022],[96.2693,4.0999],[96.2731,4.0923],[96.2804,4.0874],[96.276,4.0817],[96.2657,4.0811],[96.2574,4.0865]]]}},{"type":"Feature","properties":{"name":"Purworejo","name_en":"Purworejo","admin_level":"7","osm_id":""},"geometry":{"type":"Polygon","coordinates":[[[96.2603,4.0724],[96.2575,4.0744],[96.2524,4.0829],[96.2524,4.0856],[96.258,4.0866],[96.2657,4.0811],[96.276,4.0817],[96.277,4.0831],[96.2783,4.0819],[96.2783,4.0762],[96.2659,4.0768],[96.2603,4.0724]]]}},{"type":"Feature","properties":{"name":"SimpangPeut","name_en":"SimpangPeut","admin_level":"7","osm_id":""},"geometry":{"type":"Polygon","coordinates":[[[96.2938,4.1124],[96.2893,4.1167],[96.2837,4.1187],[96.288,4.1277],[96.2996,4.1222],[96.2938,4.1124]]]}},{"type":"Feature","properties":{"name":"UjongFatihah","name_en":"UjongFatihah","admin_level":"7","osm_id":""},"geometry":{"type":"Polygon","coordinates":[[[96.3131,4.126],[96.3231,4.1339],[96.3363,4.1356],[96.3377,4.1341],[96.3348,4.1327],[96.3348,4.1297],[96.3372,4.1263],[96.3333,4.1239],[96.3323,4.1185],[96.3284,4.118],[96.3298,4.1121],[96.3269,4.1131],[96.3259,4.1116],[96.3283,4.1102],[96.3259,4.1087],[96.3239,4.1112],[96.3222,4.1093],[96.3154,4.1099],[96.3142,4.1128],[96.3042,4.1134],[96.3051,4.1199],[96.3131,4.126]]]}},{"type":"Feature","properties":{"name":"UjongPadang","name_en":"UjongPadang","admin_level":"7","osm_id":""},"geometry":{"type":"Polygon","coordinates":[[[96.2842,4.0924],[96.2896,4.0969],[96.2949,4.0935],[96.2973,4.0946],[96.3038,4.0852],[96.3076,4.0853],[96.3181,4.0802],[96.3226,4.0729],[96.3213,4.0717],[96.3079,4.0711],[96.2896,4.0864],[96.2801,4.087],[96.2842,4.0924]]]}},{"type":"Feature","properties":{"name":"UjongPasi","name_en":"UjongPasi","admin_level":"7","osm_id":""},"geometry":{"type":"Polygon","coordinates":[[[96.2861,4.1375],[96.2867,4.1375],[96.3131,4.126],[96.3052,4.12],[96.2992,4.1224],[96.288,4.1277],[96.2888,4.1293],[96.2861,4.1375]]]}},{"type":"Feature","properties":{"name":"UjongSikuneng","name_en":"UjongSikuneng","admin_level":"7","osm_id":""},"geometry":{"type":"Polygon","coordinates":[[[96.2453,4.1255],[96.2512,4.1299],[96.2564,4.1224],[96.2718,4.1072],[96.2798,4.0946],[96.2842,4.0924],[96.2804,4.0874],[96.2731,4.0923],[96.2693,4.0999],[96.2647,4.1022],[96.2453,4.1255]]]}}]}