{"type":"FeatureCollection","metadata":{"parent_osm_id":"gid_IDN_19_6_7_1","parent_name":"PulauHaruku","parent_name_1":"Maluku","parent_gid":"IDN.19.6.7_1","parent_level":"6","child_level":"7","count":11,"source":"GADM 4.1","generated":"2026-05-07"},"features":[{"type":"Feature","properties":{"name":"Aboru","name_en":"Aboru","admin_level":"7","osm_id":""},"geometry":{"type":"Polygon","coordinates":[[[128.5764,-3.5847],[128.5671,-3.5938],[128.5656,-3.5983],[128.5625,-3.6012],[128.5545,-3.5998],[128.5488,-3.6027],[128.5453,-3.6023],[128.5427,-3.6048],[128.5439,-3.6099],[128.5422,-3.6138],[128.5241,-3.6175],[128.5197,-3.6146],[128.5211,-3.6128],[128.517,-3.6105],[128.5146,-3.6066],[128.5117,-3.6061],[128.5081,-3.6092],[128.5083,-3.616],[128.5071,-3.617],[128.5063,-3.6158],[128.5,-3.6157],[128.4994,-3.6225],[128.496,-3.6043],[128.4953,-3.5813],[128.4935,-3.5743],[128.4958,-3.5639],[128.5441,-3.5795],[128.5681,-3.5849],[128.5764,-3.5847]]]}},{"type":"Feature","properties":{"name":"Haruku","name_en":"Haruku","admin_level":"7","osm_id":""},"geometry":{"type":"Polygon","coordinates":[[[128.4132,-3.5829],[128.429,-3.5829],[128.4502,-3.5752],[128.4625,-3.5728],[128.4561,-3.5949],[128.4199,-3.6278],[128.4109,-3.6183],[128.4158,-3.6123],[128.4171,-3.6036],[128.4187,-3.6027],[128.4112,-3.5912],[128.4104,-3.5874],[128.4132,-3.5829]]]}},{"type":"Feature","properties":{"name":"Hulaliu","name_en":"Hulaliu","admin_level":"7","osm_id":""},"geometry":{"type":"Polygon","coordinates":[[[128.5764,-3.5847],[128.5681,-3.5849],[128.5441,-3.5795],[128.4958,-3.5639],[128.5308,-3.5495],[128.5359,-3.5395],[128.5395,-3.5407],[128.5458,-3.5382],[128.5505,-3.5384],[128.556,-3.5437],[128.5607,-3.5545],[128.5685,-3.5632],[128.574,-3.5809],[128.5763,-3.5819],[128.5764,-3.5847]]]}},{"type":"Feature","properties":{"name":"Kabau","name_en":"Kabau","admin_level":"7","osm_id":""},"geometry":{"type":"Polygon","coordinates":[[[128.4198,-3.554],[128.4214,-3.55],[128.4182,-3.5459],[128.4577,-3.5439],[128.4785,-3.5548],[128.4613,-3.5595],[128.4475,-3.561],[128.4198,-3.554]]]}},{"type":"Feature","properties":{"name":"Kailolo","name_en":"Kailolo","admin_level":"7","osm_id":""},"geometry":{"type":"Polygon","coordinates":[[[128.4625,-3.5466],[128.4577,-3.5439],[128.4182,-3.5459],[128.4176,-3.5426],[128.4133,-3.5393],[128.4132,-3.5374],[128.4149,-3.5322],[128.4207,-3.5252],[128.4256,-3.5223],[128.4344,-3.5209],[128.4625,-3.5466]]]}},{"type":"Feature","properties":{"name":"Kariuw","name_en":"Kariuw","admin_level":"7","osm_id":""},"geometry":{"type":"Polygon","coordinates":[[[128.4788,-3.518],[128.4868,-3.5188],[128.4913,-3.5173],[128.4948,-3.5362],[128.4905,-3.5401],[128.4863,-3.5396],[128.4834,-3.5359],[128.4832,-3.5302],[128.4788,-3.518]]]}},{"type":"Feature","properties":{"name":"Oma","name_en":"Oma","admin_level":"7","osm_id":""},"geometry":{"type":"Polygon","coordinates":[[[128.4199,-3.6278],[128.4561,-3.5949],[128.4625,-3.5728],[128.479,-3.5698],[128.4958,-3.5639],[128.4893,-3.574],[128.4823,-3.5794],[128.4796,-3.5908],[128.4734,-3.5979],[128.4736,-3.6169],[128.4657,-3.614],[128.4566,-3.6226],[128.4471,-3.6219],[128.4459,-3.6261],[128.4402,-3.6315],[128.4368,-3.6297],[128.4292,-3.6296],[128.4171,-3.6352],[128.4109,-3.6351],[128.4199,-3.6278]]]}},{"type":"Feature","properties":{"name":"Pelauw","name_en":"Pelauw","admin_level":"7","osm_id":""},"geometry":{"type":"Polygon","coordinates":[[[128.5359,-3.5395],[128.5308,-3.5495],[128.4958,-3.5639],[128.4628,-3.5469],[128.4344,-3.5209],[128.4409,-3.5156],[128.4449,-3.517],[128.4437,-3.5137],[128.447,-3.5104],[128.45,-3.5101],[128.4564,-3.5115],[128.4572,-3.5134],[128.4598,-3.5121],[128.4648,-3.5136],[128.4694,-3.5164],[128.4762,-3.5164],[128.4788,-3.518],[128.4832,-3.5302],[128.4834,-3.5359],[128.4863,-3.5396],[128.4905,-3.5401],[128.4948,-3.5362],[128.4913,-3.5173],[128.4948,-3.5144],[128.4994,-3.5134],[128.5242,-3.5278],[128.5299,-3.5364],[128.5359,-3.5395]]]}},{"type":"Feature","properties":{"name":"Rohomoni","name_en":"Rohomoni","admin_level":"7","osm_id":""},"geometry":{"type":"Polygon","coordinates":[[[128.4625,-3.5728],[128.4502,-3.5752],[128.429,-3.5829],[128.4132,-3.5829],[128.424,-3.5667],[128.422,-3.5591],[128.4195,-3.557],[128.4198,-3.554],[128.4475,-3.561],[128.4613,-3.5595],[128.4785,-3.5548],[128.4958,-3.5639],[128.479,-3.5698],[128.4625,-3.5728]]]}},{"type":"Feature","properties":{"name":"Sameth","name_en":"Sameth","admin_level":"7","osm_id":""},"geometry":{"type":"Polygon","coordinates":[[[128.415,-3.6226],[128.4199,-3.6278],[128.4109,-3.6351],[128.4034,-3.6347],[128.3995,-3.6315],[128.3998,-3.6281],[128.4109,-3.6183],[128.415,-3.6226]]]}},{"type":"Feature","properties":{"name":"Wassu","name_en":"Wassu","admin_level":"7","osm_id":""},"geometry":{"type":"Polygon","coordinates":[[[128.4958,-3.5639],[128.4935,-3.5743],[128.4953,-3.5813],[128.496,-3.6043],[128.4994,-3.6225],[128.4979,-3.6242],[128.4939,-3.62],[128.4843,-3.6189],[128.483,-3.621],[128.4799,-3.6182],[128.4736,-3.6169],[128.4725,-3.609],[128.4734,-3.5979],[128.4796,-3.5908],[128.4823,-3.5794],[128.4893,-3.574],[128.4958,-3.5639]]]}}]}