{"type":"FeatureCollection","metadata":{"parent_osm_id":"gid_IDN_9_12_19_1","parent_name":"Kroya","parent_name_1":"JawaBarat","parent_gid":"IDN.9.12.19_1","parent_level":"6","child_level":"7","count":9,"source":"GADM 4.1","generated":"2026-05-08"},"features":[{"type":"Feature","properties":{"name":"Jayamulya","name_en":"Jayamulya","admin_level":"7","osm_id":""},"geometry":{"type":"Polygon","coordinates":[[[107.9929,-6.4211],[108.0016,-6.4224],[108.0018,-6.4327],[108.005,-6.4313],[108.0049,-6.4342],[108.0001,-6.4389],[107.9941,-6.4615],[107.9923,-6.4613],[107.9913,-6.4639],[107.9853,-6.4681],[107.9826,-6.4734],[107.9682,-6.4723],[107.9693,-6.4592],[107.9732,-6.4553],[107.9723,-6.4536],[107.9744,-6.449],[107.9809,-6.4426],[107.986,-6.4413],[107.9865,-6.4385],[107.9901,-6.4374],[107.9926,-6.4345],[107.9945,-6.4293],[107.9924,-6.4242],[107.9929,-6.4211]]]}},{"type":"Feature","properties":{"name":"Kroya","name_en":"Kroya","admin_level":"7","osm_id":""},"geometry":{"type":"Polygon","coordinates":[[[108.0762,-6.4767],[108.0846,-6.4733],[108.0896,-6.4687],[108.0883,-6.4779],[108.0899,-6.4871],[108.0854,-6.4883],[108.0852,-6.4903],[108.0816,-6.4925],[108.0823,-6.496],[108.0787,-6.4981],[108.0783,-6.5022],[108.0762,-6.503],[108.0776,-6.5048],[108.0741,-6.5096],[108.076,-6.5105],[108.0766,-6.5139],[108.0778,-6.5134],[108.0777,-6.5165],[108.0758,-6.5176],[108.0761,-6.5217],[108.0776,-6.5226],[108.0758,-6.5264],[108.0765,-6.5278],[108.074,-6.531],[108.0747,-6.5339],[108.0792,-6.5333],[108.0777,-6.5609],[108.0235,-6.5653],[108.0244,-6.564],[108.0219,-6.5603],[108.0226,-6.5584],[108.0286,-6.5563],[108.0284,-6.5539],[108.0318,-6.5518],[108.0343,-6.5474],[108.0333,-6.5462],[108.0348,-6.5445],[108.0325,-6.5421],[108.0364,-6.5379],[108.0348,-6.5322],[108.036,-6.5288],[108.0373,-6.5301],[108.0387,-6.529],[108.0369,-6.5275],[108.0376,-6.5226],[108.0399,-6.522],[108.0413,-6.5183],[108.0432,-6.5192],[108.0438,-6.5151],[108.046,-6.5136],[108.0452,-6.5121],[108.0475,-6.5122],[108.0481,-6.509],[108.0507,-6.5085],[108.0488,-6.5078],[108.0479,-6.5042],[108.0614,-6.4925],[108.0607,-6.4897],[108.0667,-6.4873],[108.0674,-6.4852],[108.0687,-6.4865],[108.0714,-6.4858],[108.0715,-6.4835],[108.0743,-6.4827],[108.0728,-6.4819],[108.0762,-6.4767]]]}},{"type":"Feature","properties":{"name":"Sukamelang","name_en":"Sukamelang","admin_level":"7","osm_id":""},"geometry":{"type":"Polygon","coordinates":[[[108.0406,-6.4644],[108.0415,-6.4605],[108.0448,-6.4601],[108.05,-6.4496],[108.0539,-6.4537],[108.0565,-6.4514],[108.0715,-6.4539],[108.0716,-6.4472],[108.077,-6.4472],[108.0772,-6.4597],[108.0746,-6.4691],[108.0762,-6.4767],[108.0728,-6.4819],[108.0743,-6.4827],[108.0715,-6.4835],[108.0709,-6.4861],[108.0674,-6.4852],[108.0667,-6.4873],[108.0638,-6.4876],[108.0639,-6.4778],[108.0612,-6.4752],[108.0531,-6.473],[108.0538,-6.4653],[108.0406,-6.4644]]]}},{"type":"Feature","properties":{"name":"Sukaslamet","name_en":"Sukaslamet","admin_level":"7","osm_id":""},"geometry":{"type":"Polygon","coordinates":[[[107.9943,-6.5778],[107.9934,-6.5744],[107.9964,-6.5746],[107.9977,-6.5726],[107.9983,-6.5734],[108.0021,-6.5711],[108.0078,-6.5605],[108.0061,-6.5582],[108.0127,-6.5501],[108.0115,-6.5448],[108.0131,-6.5436],[108.0112,-6.5394],[108.0117,-6.5363],[108.0135,-6.5355],[108.0115,-6.5338],[108.0118,-6.5299],[108.0099,-6.5265],[108.0168,-6.525],[108.0266,-6.525],[108.0274,-6.5279],[108.0372,-6.5263],[108.0387,-6.529],[108.0373,-6.5301],[108.036,-6.5288],[108.0348,-6.5322],[108.0364,-6.5379],[108.0325,-6.5421],[108.0348,-6.5445],[108.0333,-6.5462],[108.0343,-6.5474],[108.0318,-6.5518],[108.0284,-6.5539],[108.0286,-6.5563],[108.0249,-6.5567],[108.0219,-6.5602],[108.0244,-6.564],[108.0225,-6.5667],[108.0284,-6.5701],[108.026,-6.5769],[108.0241,-6.579],[108.0164,-6.5795],[107.9943,-6.5778]]]}},{"type":"Feature","properties":{"name":"Sumberjaya","name_en":"Sumberjaya","admin_level":"7","osm_id":""},"geometry":{"type":"Polygon","coordinates":[[[108.0016,-6.4224],[108.0041,-6.4229],[108.0133,-6.4332],[108.0293,-6.4416],[108.0295,-6.4436],[108.0274,-6.4431],[108.0276,-6.4449],[108.023,-6.4508],[108.0263,-6.4589],[108.0259,-6.4619],[108.0272,-6.461],[108.0282,-6.463],[107.9941,-6.4615],[108.0001,-6.4389],[108.0049,-6.4342],[108.005,-6.4313],[108.0016,-6.4321],[108.0016,-6.4224]]]}},{"type":"Feature","properties":{"name":"Sumbon","name_en":"Sumbon","admin_level":"7","osm_id":""},"geometry":{"type":"Polygon","coordinates":[[[108.0898,-6.4668],[108.1154,-6.4685],[108.115,-6.4704],[108.1095,-6.471],[108.106,-6.4732],[108.1063,-6.4781],[108.1089,-6.4801],[108.1087,-6.4936],[108.105,-6.4981],[108.1054,-6.5014],[108.1001,-6.5051],[108.0983,-6.51],[108.0956,-6.511],[108.092,-6.5232],[108.0796,-6.5331],[108.0747,-6.5339],[108.074,-6.531],[108.0765,-6.5278],[108.0758,-6.5264],[108.0776,-6.5226],[108.0761,-6.5217],[108.0758,-6.5176],[108.0777,-6.5165],[108.0778,-6.5134],[108.0762,-6.5135],[108.0743,-6.5086],[108.0776,-6.5048],[108.0762,-6.503],[108.0783,-6.5022],[108.0787,-6.4981],[108.0823,-6.496],[108.0816,-6.4925],[108.0852,-6.4903],[108.0854,-6.4883],[108.0899,-6.4871],[108.0883,-6.4779],[108.0898,-6.4668]]]}},{"type":"Feature","properties":{"name":"Tanjungkerta","name_en":"Tanjungkerta","admin_level":"7","osm_id":""},"geometry":{"type":"Polygon","coordinates":[[[108.0111,-6.5265],[108.0116,-6.5232],[108.0087,-6.5216],[108.009,-6.5185],[108.0157,-6.5136],[108.0174,-6.5039],[108.0059,-6.5021],[108.0148,-6.4913],[108.0388,-6.4939],[108.0439,-6.4988],[108.05,-6.5016],[108.0476,-6.5052],[108.0507,-6.5085],[108.0481,-6.509],[108.0475,-6.5122],[108.0452,-6.5121],[108.046,-6.5136],[108.0438,-6.5151],[108.0432,-6.5192],[108.0413,-6.5183],[108.0399,-6.522],[108.0376,-6.5226],[108.0372,-6.5263],[108.0274,-6.5279],[108.0266,-6.525],[108.0168,-6.525],[108.0111,-6.5265]]]}},{"type":"Feature","properties":{"name":"Temiyang","name_en":"Temiyang","admin_level":"7","osm_id":""},"geometry":{"type":"Polygon","coordinates":[[[108.0273,-6.464],[108.0538,-6.4653],[108.0531,-6.473],[108.0612,-6.4752],[108.0648,-6.4802],[108.0635,-6.4885],[108.0606,-6.4899],[108.0614,-6.4925],[108.05,-6.5016],[108.0439,-6.4988],[108.0409,-6.4949],[108.0328,-6.492],[108.0322,-6.4865],[108.0331,-6.4823],[108.036,-6.4814],[108.0346,-6.4796],[108.0354,-6.4776],[108.0313,-6.4721],[108.0286,-6.4736],[108.0247,-6.4724],[108.0243,-6.4678],[108.0273,-6.464]]]}},{"type":"Feature","properties":{"name":"Temiyangsari","name_en":"Temiyangsari","admin_level":"7","osm_id":""},"geometry":{"type":"Polygon","coordinates":[[[108.0273,-6.4633],[108.0243,-6.4678],[108.0247,-6.4723],[108.027,-6.4736],[108.0313,-6.4721],[108.0346,-6.4749],[108.036,-6.4813],[108.0331,-6.4823],[108.0321,-6.4889],[108.0327,-6.4919],[108.0349,-6.4929],[108.0152,-6.4911],[108.0058,-6.5022],[107.9967,-6.5077],[107.9972,-6.4998],[108.0027,-6.4904],[108.0071,-6.4895],[108.0093,-6.4835],[108.0084,-6.4807],[108.0107,-6.4794],[108.0083,-6.4746],[107.9826,-6.4734],[107.9853,-6.4681],[107.9913,-6.4639],[107.9923,-6.4613],[108.0273,-6.4633]]]}}]}