{"type":"FeatureCollection","metadata":{"parent_osm_id":"gid_IDN_27_5_13_1","parent_name":"SoyoJaya","parent_name_1":"SulawesiTengah","parent_gid":"IDN.27.5.13_1","parent_level":"6","child_level":"7","count":9,"source":"GADM 4.1","generated":"2026-05-09"},"features":[{"type":"Feature","properties":{"name":"Bau","name_en":"Bau","admin_level":"7","osm_id":""},"geometry":{"type":"Polygon","coordinates":[[[121.0957,-1.6666],[121.0993,-1.6396],[121.1016,-1.6356],[121.1869,-1.6352],[121.2498,-1.6372],[121.2539,-1.6437],[121.2547,-1.6559],[121.2518,-1.6692],[121.2546,-1.6776],[121.2584,-1.6829],[121.248,-1.6859],[121.2139,-1.7011],[121.2017,-1.7105],[121.1987,-1.7085],[121.1807,-1.705],[121.1681,-1.6967],[121.1626,-1.6905],[121.1533,-1.6864],[121.1422,-1.6856],[121.1061,-1.6667],[121.0957,-1.6666]]]}},{"type":"Feature","properties":{"name":"LembahSumara","name_en":"LembahSumara","admin_level":"7","osm_id":""},"geometry":{"type":"Polygon","coordinates":[[[121.3082,-1.718],[121.3126,-1.7198],[121.3132,-1.7223],[121.3132,-1.7404],[121.2948,-1.7417],[121.2917,-1.7391],[121.2929,-1.7366],[121.2908,-1.7346],[121.2939,-1.7284],[121.2936,-1.7255],[121.2965,-1.7255],[121.2976,-1.7227],[121.2993,-1.7255],[121.3052,-1.7209],[121.305,-1.7176],[121.3082,-1.718]]]}},{"type":"Feature","properties":{"name":"Malino","name_en":"Malino","admin_level":"7","osm_id":""},"geometry":{"type":"Polygon","coordinates":[[[121.2498,-1.6372],[121.1597,-1.6352],[121.1657,-1.629],[121.1666,-1.6215],[121.1692,-1.6179],[121.1653,-1.599],[121.1651,-1.5842],[121.1615,-1.5789],[121.1614,-1.5695],[121.1583,-1.5659],[121.1585,-1.5617],[121.1708,-1.5505],[121.185,-1.522],[121.191,-1.5161],[121.2084,-1.5095],[121.2153,-1.5168],[121.2209,-1.5161],[121.2273,-1.5084],[121.2257,-1.4995],[121.2573,-1.4755],[121.2633,-1.4726],[121.2751,-1.4713],[121.3121,-1.4727],[121.3091,-1.5009],[121.2993,-1.545],[121.2916,-1.5655],[121.2691,-1.6076],[121.2694,-1.6128],[121.2469,-1.6253],[121.2491,-1.6293],[121.2483,-1.6335],[121.2498,-1.6372]]]}},{"type":"Feature","properties":{"name":"MalinoJaya","name_en":"MalinoJaya","admin_level":"7","osm_id":""},"geometry":{"type":"Polygon","coordinates":[[[121.1016,-1.6356],[121.1091,-1.628],[121.1112,-1.616],[121.1173,-1.6058],[121.1143,-1.5945],[121.1092,-1.5876],[121.1112,-1.5818],[121.1189,-1.5737],[121.1435,-1.572],[121.1615,-1.5749],[121.1615,-1.5789],[121.1651,-1.5842],[121.1659,-1.6041],[121.169,-1.6133],[121.1692,-1.6179],[121.1666,-1.6215],[121.1663,-1.6271],[121.1638,-1.6319],[121.1597,-1.6352],[121.1016,-1.6356]]]}},{"type":"Feature","properties":{"name":"PancaMakmur","name_en":"PancaMakmur","admin_level":"7","osm_id":""},"geometry":{"type":"Polygon","coordinates":[[[121.153,-1.826],[121.1208,-1.7713],[121.1067,-1.7633],[121.0829,-1.7614],[121.0725,-1.7577],[121.0707,-1.7474],[121.0817,-1.7275],[121.0788,-1.7059],[121.0925,-1.6784],[121.0957,-1.6666],[121.1061,-1.6667],[121.1422,-1.6856],[121.1533,-1.6864],[121.1626,-1.6905],[121.1681,-1.6967],[121.1807,-1.705],[121.1987,-1.7085],[121.2017,-1.7105],[121.2041,-1.7743],[121.153,-1.826]]]}},{"type":"Feature","properties":{"name":"SumaraJaya","name_en":"SumaraJaya","admin_level":"7","osm_id":""},"geometry":{"type":"Polygon","coordinates":[[[121.2584,-1.6829],[121.2546,-1.6776],[121.2518,-1.6692],[121.2547,-1.6559],[121.2539,-1.6437],[121.2501,-1.6382],[121.2483,-1.6335],[121.2491,-1.6293],[121.2469,-1.6253],[121.2694,-1.6128],[121.2694,-1.6111],[121.28,-1.6109],[121.2891,-1.6226],[121.2912,-1.6279],[121.2912,-1.634],[121.2858,-1.6365],[121.2856,-1.6405],[121.2976,-1.6506],[121.3044,-1.6611],[121.3038,-1.6676],[121.2959,-1.6779],[121.2584,-1.6829]]]}},{"type":"Feature","properties":{"name":"Tamainusi","name_en":"Tamainusi","admin_level":"7","osm_id":""},"geometry":{"type":"Polygon","coordinates":[[[121.1723,-1.8841],[121.1621,-1.847],[121.153,-1.826],[121.2041,-1.7743],[121.2495,-1.7625],[121.2923,-1.7546],[121.3152,-1.7754],[121.3195,-1.7751],[121.3175,-1.7763],[121.3195,-1.7767],[121.3206,-1.7836],[121.318,-1.7847],[121.3126,-1.7948],[121.3105,-1.7945],[121.3091,-1.7969],[121.3022,-1.793],[121.3022,-1.7963],[121.299,-1.7975],[121.3007,-1.7997],[121.2995,-1.8078],[121.2961,-1.8063],[121.2953,-1.8078],[121.2961,-1.8128],[121.298,-1.8138],[121.2967,-1.8175],[121.2977,-1.8205],[121.2956,-1.8223],[121.2952,-1.8289],[121.2901,-1.8337],[121.2906,-1.837],[121.2888,-1.8417],[121.2926,-1.8453],[121.2942,-1.857],[121.2967,-1.8561],[121.2989,-1.8572],[121.3021,-1.8525],[121.3047,-1.8564],[121.3167,-1.8535],[121.3178,-1.8561],[121.3252,-1.8547],[121.3236,-1.8573],[121.3256,-1.8596],[121.3242,-1.862],[121.3272,-1.8639],[121.3362,-1.8532],[121.3415,-1.8539],[121.344,-1.8497],[121.3443,-1.8417],[121.3458,-1.8492],[121.3499,-1.8503],[121.3495,-1.8559],[121.3515,-1.8583],[121.3472,-1.8589],[121.3469,-1.8608],[121.344,-1.8605],[121.3449,-1.8651],[121.347,-1.8673],[121.3515,-1.8682],[121.355,-1.8665],[121.3592,-1.869],[121.362,-1.8744],[121.3585,-1.8758],[121.3543,-1.8706],[121.3518,-1.8716],[121.3499,-1.8706],[121.3484,-1.8727],[121.3401,-1.874],[121.3434,-1.877],[121.3392,-1.8783],[121.3355,-1.8754],[121.334,-1.8783],[121.2557,-1.8763],[121.2408,-1.881],[121.2225,-1.88],[121.2103,-1.8831],[121.1723,-1.8841]]]}},{"type":"Feature","properties":{"name":"Tambayoli","name_en":"Tambayoli","admin_level":"7","osm_id":""},"geometry":{"type":"Polygon","coordinates":[[[121.3513,-1.5826],[121.35,-1.6157],[121.3507,-1.6383],[121.3531,-1.6537],[121.3525,-1.6704],[121.3679,-1.7113],[121.3733,-1.7209],[121.3787,-1.7269],[121.3938,-1.7371],[121.4125,-1.7524],[121.4254,-1.7588],[121.4378,-1.768],[121.443,-1.7761],[121.446,-1.804],[121.4423,-1.8048],[121.4373,-1.8095],[121.4335,-1.8092],[121.4308,-1.8129],[121.428,-1.8106],[121.4222,-1.8123],[121.4211,-1.8137],[121.4228,-1.8168],[121.4204,-1.8217],[121.4182,-1.8218],[121.4147,-1.8181],[121.4162,-1.8141],[121.4122,-1.8133],[121.4144,-1.8124],[121.4128,-1.8098],[121.4044,-1.8079],[121.4001,-1.805],[121.3928,-1.8055],[121.3867,-1.8115],[121.3814,-1.809],[121.379,-1.8104],[121.3787,-1.8085],[121.3766,-1.8075],[121.3722,-1.8082],[121.3734,-1.8048],[121.3722,-1.801],[121.3707,-1.7974],[121.368,-1.7962],[121.367,-1.7917],[121.3611,-1.7886],[121.3579,-1.7908],[121.3536,-1.7871],[121.3499,-1.7865],[121.3506,-1.7844],[121.3475,-1.7782],[121.341,-1.7724],[121.3363,-1.7726],[121.3367,-1.7766],[121.3354,-1.7775],[121.3295,-1.7734],[121.3252,-1.773],[121.3227,-1.7639],[121.3214,-1.7645],[121.3222,-1.7668],[121.319,-1.7694],[121.3162,-1.7644],[121.3199,-1.7632],[121.3176,-1.7615],[121.32,-1.7571],[121.3157,-1.7597],[121.3156,-1.7575],[121.3139,-1.7574],[121.3141,-1.7551],[121.3129,-1.755],[121.3141,-1.7506],[121.3126,-1.7198],[121.3082,-1.718],[121.304,-1.711],[121.3073,-1.7069],[121.3036,-1.7004],[121.3068,-1.7002],[121.3073,-1.6982],[121.3041,-1.6983],[121.2933,-1.6925],[121.299,-1.6879],[121.2982,-1.6858],[121.2955,-1.6859],[121.2937,-1.6842],[121.2959,-1.6779],[121.3038,-1.6676],[121.3044,-1.6611],[121.2976,-1.6506],[121.2856,-1.6405],[121.2858,-1.6365],[121.2912,-1.634],[121.2912,-1.6279],[121.2884,-1.6214],[121.28,-1.6109],[121.2694,-1.6111],[121.2689,-1.6083],[121.2916,-1.5655],[121.2993,-1.545],[121.3091,-1.5009],[121.3121,-1.4727],[121.3509,-1.4732],[121.3525,-1.5129],[121.3513,-1.5826]]]}},{"type":"Feature","properties":{"name":"Tandoyondo","name_en":"Tandoyondo","admin_level":"7","osm_id":""},"geometry":{"type":"Polygon","coordinates":[[[121.2017,-1.7105],[121.2139,-1.7011],[121.248,-1.6859],[121.2584,-1.6829],[121.2959,-1.6779],[121.2938,-1.6846],[121.2982,-1.6858],[121.299,-1.6879],[121.2933,-1.6925],[121.3041,-1.6983],[121.3073,-1.6982],[121.3068,-1.7002],[121.3036,-1.7004],[121.3073,-1.7069],[121.304,-1.711],[121.3082,-1.718],[121.305,-1.7176],[121.3052,-1.7209],[121.2993,-1.7255],[121.2976,-1.7227],[121.2965,-1.7255],[121.2936,-1.7255],[121.2939,-1.7284],[121.2908,-1.7336],[121.2929,-1.7366],[121.2916,-1.7387],[121.2948,-1.7417],[121.3132,-1.7404],[121.3139,-1.7574],[121.3156,-1.7575],[121.3157,-1.7597],[121.32,-1.7571],[121.3176,-1.7615],[121.3199,-1.7632],[121.3162,-1.7644],[121.3184,-1.768],[121.3108,-1.7701],[121.2923,-1.7546],[121.2495,-1.7625],[121.2041,-1.7743],[121.2017,-1.7105]]]}}]}