{"type":"FeatureCollection","metadata":{"parent_osm_id":"gid_IDN_13_1_1_1","parent_name":"Awayan","parent_name_1":"KalimantanSelatan","parent_gid":"IDN.13.1.1_1","parent_level":"6","child_level":"7","count":23,"source":"GADM 4.1","generated":"2026-05-09"},"features":[{"type":"Feature","properties":{"name":"Ambakiyang","name_en":"Ambakiyang","admin_level":"7","osm_id":""},"geometry":{"type":"Polygon","coordinates":[[[115.591,-2.422],[115.5867,-2.4105],[115.5811,-2.3865],[115.5884,-2.3777],[115.5933,-2.3894],[115.5997,-2.397],[115.616,-2.4095],[115.6109,-2.4172],[115.591,-2.422]]]}},{"type":"Feature","properties":{"name":"Awayan","name_en":"Awayan","admin_level":"7","osm_id":""},"geometry":{"type":"Polygon","coordinates":[[[115.5225,-2.4017],[115.5331,-2.4044],[115.55,-2.4056],[115.5539,-2.4119],[115.53,-2.4065],[115.5225,-2.4017]]]}},{"type":"Feature","properties":{"name":"AwayanHilir","name_en":"AwayanHilir","admin_level":"7","osm_id":""},"geometry":{"type":"Polygon","coordinates":[[[115.55,-2.4056],[115.5331,-2.4044],[115.5225,-2.4017],[115.5214,-2.3951],[115.5381,-2.3993],[115.5477,-2.398],[115.55,-2.4056]]]}},{"type":"Feature","properties":{"name":"Badalungga","name_en":"Badalungga","admin_level":"7","osm_id":""},"geometry":{"type":"Polygon","coordinates":[[[115.5539,-2.4119],[115.5517,-2.4082],[115.5551,-2.404],[115.5555,-2.3945],[115.5606,-2.3992],[115.5645,-2.4007],[115.5728,-2.3938],[115.5734,-2.3996],[115.564,-2.4042],[115.5606,-2.4082],[115.5539,-2.4119]]]}},{"type":"Feature","properties":{"name":"BadalunggaHilir","name_en":"BadalunggaHilir","admin_level":"7","osm_id":""},"geometry":{"type":"Polygon","coordinates":[[[115.55,-2.4056],[115.5495,-2.4047],[115.5441,-2.3839],[115.5517,-2.388],[115.5553,-2.3931],[115.5551,-2.404],[115.5517,-2.4082],[115.55,-2.4056]]]}},{"type":"Feature","properties":{"name":"Baramban","name_en":"Baramban","admin_level":"7","osm_id":""},"geometry":{"type":"Polygon","coordinates":[[[115.5539,-2.4119],[115.5606,-2.4082],[115.564,-2.4042],[115.5733,-2.3997],[115.5759,-2.4249],[115.5644,-2.4267],[115.5593,-2.4362],[115.5583,-2.4311],[115.5597,-2.4218],[115.5539,-2.4119]]]}},{"type":"Feature","properties":{"name":"Baru","name_en":"Baru","admin_level":"7","osm_id":""},"geometry":{"type":"Polygon","coordinates":[[[115.5477,-2.398],[115.5381,-2.3993],[115.5226,-2.396],[115.5214,-2.3951],[115.522,-2.3886],[115.5426,-2.3808],[115.5477,-2.398]]]}},{"type":"Feature","properties":{"name":"Bihara","name_en":"Bihara","admin_level":"7","osm_id":""},"geometry":{"type":"Polygon","coordinates":[[[115.5583,-2.4311],[115.5593,-2.4362],[115.552,-2.4514],[115.547,-2.4502],[115.5496,-2.4464],[115.5502,-2.4408],[115.5562,-2.4354],[115.5583,-2.4311]]]}},{"type":"Feature","properties":{"name":"BiharaHilir","name_en":"BiharaHilir","admin_level":"7","osm_id":""},"geometry":{"type":"Polygon","coordinates":[[[115.5597,-2.4222],[115.5583,-2.4311],[115.5562,-2.4354],[115.5502,-2.4408],[115.5487,-2.4482],[115.547,-2.4502],[115.5401,-2.4483],[115.5411,-2.4424],[115.5482,-2.4272],[115.5597,-2.4222]]]}},{"type":"Feature","properties":{"name":"Kedondong","name_en":"Kedondong","admin_level":"7","osm_id":""},"geometry":{"type":"Polygon","coordinates":[[[115.5422,-2.4249],[115.5298,-2.4203],[115.5245,-2.4204],[115.5136,-2.4239],[115.4985,-2.4327],[115.4884,-2.4289],[115.489,-2.4226],[115.5197,-2.4163],[115.5311,-2.4073],[115.5411,-2.4183],[115.5422,-2.4249]]]}},{"type":"Feature","properties":{"name":"Merah","name_en":"Merah","admin_level":"7","osm_id":""},"geometry":{"type":"Polygon","coordinates":[[[115.4985,-2.4327],[115.5136,-2.4239],[115.5245,-2.4204],[115.5298,-2.4203],[115.5422,-2.4249],[115.5427,-2.4298],[115.5341,-2.4314],[115.5287,-2.4305],[115.5163,-2.4394],[115.4985,-2.4327]]]}},{"type":"Feature","properties":{"name":"MuaraJaya","name_en":"MuaraJaya","admin_level":"7","osm_id":""},"geometry":{"type":"Polygon","coordinates":[[[115.5585,-2.4181],[115.5597,-2.4222],[115.5427,-2.4298],[115.5421,-2.4246],[115.5585,-2.4181]]]}},{"type":"Feature","properties":{"name":"Nungka","name_en":"Nungka","admin_level":"7","osm_id":""},"geometry":{"type":"Polygon","coordinates":[[[115.5593,-2.4362],[115.5644,-2.4267],[115.5688,-2.4259],[115.5673,-2.4398],[115.5702,-2.4625],[115.5647,-2.4751],[115.5557,-2.4851],[115.5514,-2.4835],[115.5514,-2.4822],[115.5619,-2.4631],[115.5637,-2.4584],[115.5633,-2.4526],[115.552,-2.4514],[115.5593,-2.4362]]]}},{"type":"Feature","properties":{"name":"Pematang","name_en":"Pematang","admin_level":"7","osm_id":""},"geometry":{"type":"Polygon","coordinates":[[[115.5482,-2.4272],[115.5411,-2.4424],[115.5325,-2.4364],[115.5284,-2.4306],[115.5399,-2.4307],[115.5482,-2.4272]]]}},{"type":"Feature","properties":{"name":"Piyait","name_en":"Piyait","admin_level":"7","osm_id":""},"geometry":{"type":"Polygon","coordinates":[[[115.5811,-2.3865],[115.5867,-2.4105],[115.591,-2.422],[115.5759,-2.4249],[115.5728,-2.3938],[115.5811,-2.3865]]]}},{"type":"Feature","properties":{"name":"Pudak","name_en":"Pudak","admin_level":"7","osm_id":""},"geometry":{"type":"Polygon","coordinates":[[[115.5426,-2.3808],[115.522,-2.3886],[115.5137,-2.3899],[115.5121,-2.3894],[115.51,-2.378],[115.5245,-2.3759],[115.532,-2.3721],[115.5414,-2.3737],[115.5398,-2.3763],[115.5426,-2.3808]]]}},{"type":"Feature","properties":{"name":"Pulantan","name_en":"Pulantan","admin_level":"7","osm_id":""},"geometry":{"type":"Polygon","coordinates":[[[115.5539,-2.4119],[115.5585,-2.4181],[115.5423,-2.4245],[115.5411,-2.4183],[115.5539,-2.4119]]]}},{"type":"Feature","properties":{"name":"PutatBasiun","name_en":"PutatBasiun","admin_level":"7","osm_id":""},"geometry":{"type":"Polygon","coordinates":[[[115.53,-2.4065],[115.5363,-2.4074],[115.5539,-2.4119],[115.541,-2.4184],[115.53,-2.4065]]]}},{"type":"Feature","properties":{"name":"Sikontan","name_en":"Sikontan","admin_level":"7","osm_id":""},"geometry":{"type":"Polygon","coordinates":[[[115.5555,-2.3945],[115.5536,-2.39],[115.5441,-2.3839],[115.5407,-2.3791],[115.5398,-2.3763],[115.5414,-2.3737],[115.556,-2.3779],[115.5681,-2.3784],[115.5719,-2.3725],[115.5741,-2.3741],[115.5789,-2.381],[115.5804,-2.3873],[115.5645,-2.4007],[115.5606,-2.3992],[115.5555,-2.3945]]]}},{"type":"Feature","properties":{"name":"SungaiPumpung","name_en":"SungaiPumpung","admin_level":"7","osm_id":""},"geometry":{"type":"Polygon","coordinates":[[[115.5411,-2.4424],[115.5401,-2.4483],[115.5163,-2.4394],[115.5284,-2.4306],[115.5325,-2.4364],[115.5411,-2.4424]]]}},{"type":"Feature","properties":{"name":"Tangalin","name_en":"Tangalin","admin_level":"7","osm_id":""},"geometry":{"type":"Polygon","coordinates":[[[115.5214,-2.3951],[115.5222,-2.4015],[115.5318,-2.4078],[115.5197,-2.4163],[115.489,-2.4226],[115.4937,-2.3775],[115.51,-2.378],[115.5121,-2.3894],[115.522,-2.3886],[115.5214,-2.3951]]]}},{"type":"Feature","properties":{"name":"Tundakan","name_en":"Tundakan","admin_level":"7","osm_id":""},"geometry":{"type":"Polygon","coordinates":[[[115.616,-2.4095],[115.5997,-2.397],[115.591,-2.3849],[115.5884,-2.3777],[115.5984,-2.362],[115.6184,-2.3678],[115.6192,-2.3897],[115.616,-2.4095]]]}},{"type":"Feature","properties":{"name":"Tundi","name_en":"Tundi","admin_level":"7","osm_id":""},"geometry":{"type":"Polygon","coordinates":[[[115.5884,-2.3777],[115.5804,-2.3873],[115.577,-2.3773],[115.5663,-2.3695],[115.5835,-2.3549],[115.5876,-2.3548],[115.5902,-2.3583],[115.5984,-2.362],[115.5884,-2.3777]]]}}]}