{"type":"FeatureCollection","metadata":{"parent_osm_id":"gid_IDN_32_7_12_1","parent_name":"NamanTeran","parent_name_1":"SumateraUtara","parent_gid":"IDN.32.7.12_1","parent_level":"6","child_level":"7","count":14,"source":"GADM 4.1","generated":"2026-05-09"},"features":[{"type":"Feature","properties":{"name":"Bekerah","name_en":"Bekerah","admin_level":"7","osm_id":""},"geometry":{"type":"Polygon","coordinates":[[[98.3911,3.1678],[98.4026,3.1717],[98.4133,3.1667],[98.4212,3.165],[98.4202,3.1563],[98.414,3.1598],[98.4098,3.1604],[98.4036,3.1555],[98.4017,3.1478],[98.3979,3.1515],[98.3911,3.1678]]]}},{"type":"Feature","properties":{"name":"GungPinto","name_en":"GungPinto","admin_level":"7","osm_id":""},"geometry":{"type":"Polygon","coordinates":[[[98.4384,3.2244],[98.4486,3.2221],[98.4494,3.2146],[98.4486,3.2116],[98.4368,3.1954],[98.4321,3.1996],[98.4354,3.2069],[98.4384,3.2244]]]}},{"type":"Feature","properties":{"name":"Kebayaken","name_en":"Kebayaken","admin_level":"7","osm_id":""},"geometry":{"type":"Polygon","coordinates":[[[98.4214,3.2163],[98.4238,3.2206],[98.4211,3.2246],[98.4292,3.2251],[98.4279,3.2219],[98.4291,3.2156],[98.425,3.2103],[98.4273,3.2045],[98.4263,3.1994],[98.4245,3.2001],[98.4222,3.1985],[98.4196,3.2017],[98.421,3.2064],[98.4194,3.2111],[98.4214,3.2163]]]}},{"type":"Feature","properties":{"name":"KutaGugung","name_en":"KutaGugung","admin_level":"7","osm_id":""},"geometry":{"type":"Polygon","coordinates":[[[98.4656,3.2304],[98.473,3.2236],[98.4787,3.2223],[98.4749,3.2135],[98.4664,3.2165],[98.4636,3.2203],[98.444,3.2223],[98.4344,3.2255],[98.4211,3.2246],[98.4238,3.2206],[98.4214,3.2163],[98.4151,3.2164],[98.4021,3.2069],[98.4091,3.1939],[98.4014,3.1873],[98.4045,3.1843],[98.4026,3.1717],[98.3947,3.1682],[98.3911,3.1678],[98.3848,3.1788],[98.3674,3.1914],[98.3562,3.2046],[98.3568,3.2113],[98.3604,3.2161],[98.3698,3.2184],[98.3826,3.2262],[98.3952,3.2271],[98.4158,3.2361],[98.4248,3.242],[98.4299,3.2365],[98.4339,3.2364],[98.4464,3.2486],[98.4507,3.2467],[98.4581,3.2337],[98.4613,3.2312],[98.4656,3.2304]]]}},{"type":"Feature","properties":{"name":"KutaMbelin","name_en":"KutaMbelin","admin_level":"7","osm_id":""},"geometry":{"type":"Polygon","coordinates":[[[98.4384,3.2244],[98.4354,3.2069],[98.4321,3.1996],[98.4263,3.1994],[98.4273,3.2045],[98.425,3.2103],[98.4291,3.2156],[98.4279,3.2219],[98.4292,3.2251],[98.4384,3.2244]]]}},{"type":"Feature","properties":{"name":"KutaRayat","name_en":"KutaRayat","admin_level":"7","osm_id":""},"geometry":{"type":"Polygon","coordinates":[[[98.4214,3.2163],[98.4194,3.2111],[98.421,3.2064],[98.4196,3.2017],[98.4222,3.1985],[98.418,3.1985],[98.4147,3.1926],[98.4091,3.1939],[98.4021,3.2069],[98.4151,3.2164],[98.4214,3.2163]]]}},{"type":"Feature","properties":{"name":"KutaTonggal","name_en":"KutaTonggal","admin_level":"7","osm_id":""},"geometry":{"type":"Polygon","coordinates":[[[98.4202,3.1563],[98.4212,3.1633],[98.4271,3.166],[98.4319,3.171],[98.4437,3.173],[98.4434,3.1708],[98.4371,3.1661],[98.4338,3.1603],[98.4267,3.1535],[98.4202,3.1563]]]}},{"type":"Feature","properties":{"name":"Naman","name_en":"Naman","admin_level":"7","osm_id":""},"geometry":{"type":"Polygon","coordinates":[[[98.4535,3.1912],[98.4375,3.1834],[98.4353,3.1806],[98.4339,3.1878],[98.4368,3.1954],[98.4399,3.1936],[98.4537,3.1961],[98.4535,3.1912]]]}},{"type":"Feature","properties":{"name":"Ndeskati","name_en":"Ndeskati","admin_level":"7","osm_id":""},"geometry":{"type":"Polygon","coordinates":[[[98.4664,3.2165],[98.4647,3.2152],[98.4651,3.2134],[98.4638,3.2124],[98.4628,3.2136],[98.458,3.2071],[98.4525,3.1953],[98.4399,3.1936],[98.4368,3.1954],[98.4486,3.2116],[98.4486,3.2221],[98.4636,3.2203],[98.4664,3.2165]]]}},{"type":"Feature","properties":{"name":"SigarangGarang","name_en":"SigarangGarang","admin_level":"7","osm_id":""},"geometry":{"type":"Polygon","coordinates":[[[98.4045,3.1797],[98.4045,3.1843],[98.4014,3.1873],[98.4091,3.1939],[98.4147,3.1926],[98.418,3.1985],[98.4202,3.1977],[98.4188,3.1739],[98.4045,3.1797]]]}},{"type":"Feature","properties":{"name":"Simacem","name_en":"Simacem","admin_level":"7","osm_id":""},"geometry":{"type":"Polygon","coordinates":[[[98.4212,3.1633],[98.4212,3.165],[98.4133,3.1667],[98.4026,3.1717],[98.4045,3.1797],[98.4306,3.1699],[98.4263,3.1654],[98.4212,3.1633]]]}},{"type":"Feature","properties":{"name":"SukaNdebi","name_en":"SukaNdebi","admin_level":"7","osm_id":""},"geometry":{"type":"Polygon","coordinates":[[[98.449,3.1844],[98.4484,3.1761],[98.4437,3.173],[98.4404,3.173],[98.4432,3.1792],[98.449,3.1844]]]}},{"type":"Feature","properties":{"name":"Sukanalu","name_en":"Sukanalu","admin_level":"7","osm_id":""},"geometry":{"type":"Polygon","coordinates":[[[98.4321,3.1996],[98.4368,3.1954],[98.434,3.1864],[98.4367,3.1748],[98.4391,3.173],[98.4306,3.1699],[98.4188,3.1739],[98.4186,3.1847],[98.4202,3.1977],[98.4245,3.2001],[98.4321,3.1996]]]}},{"type":"Feature","properties":{"name":"Sukatepu","name_en":"Sukatepu","admin_level":"7","osm_id":""},"geometry":{"type":"Polygon","coordinates":[[[98.452,3.1894],[98.4452,3.18],[98.4432,3.1792],[98.4404,3.173],[98.4367,3.1748],[98.4353,3.1806],[98.4375,3.1834],[98.452,3.1894]]]}}]}