{"type":"FeatureCollection","metadata":{"parent_osm_id":"gid_IDN_6_7_7_1","parent_name":"Patilanggio","parent_name_1":"Gorontalo","parent_gid":"IDN.6.7.7_1","parent_level":"6","child_level":"7","count":6,"source":"GADM 4.1","generated":"2026-05-08"},"features":[{"type":"Feature","properties":{"name":"Balayo","name_en":"Balayo","admin_level":"7","osm_id":""},"geometry":{"type":"Polygon","coordinates":[[[121.9227,0.5181],[121.9136,0.5053],[121.9106,0.5082],[121.908,0.5037],[121.9068,0.5069],[121.898,0.5103],[121.8972,0.512],[121.8864,0.5142],[121.8941,0.5257],[121.8948,0.5385],[121.9054,0.5544],[121.9159,0.608],[121.9254,0.632],[121.9414,0.6522],[121.9457,0.65],[121.9574,0.6493],[121.9612,0.6477],[121.9592,0.6403],[121.9472,0.6302],[121.9494,0.6177],[121.945,0.6138],[121.9437,0.6086],[121.9398,0.6051],[121.9351,0.5969],[121.9357,0.5884],[121.9297,0.5835],[121.9348,0.5777],[121.9383,0.5707],[121.9364,0.5572],[121.9404,0.5343],[121.9358,0.524],[121.9245,0.5204],[121.9227,0.5181]]]}},{"type":"Feature","properties":{"name":"Dudepo","name_en":"Dudepo","admin_level":"7","osm_id":""},"geometry":{"type":"Polygon","coordinates":[[[121.9348,0.9287],[121.9356,0.8594],[121.9342,0.8334],[121.9362,0.8273],[121.9346,0.825],[121.9365,0.8232],[121.9345,0.8233],[121.9354,0.6705],[121.9339,0.6642],[121.9402,0.659],[121.9414,0.6522],[121.9254,0.632],[121.9159,0.608],[121.9054,0.5544],[121.8948,0.5385],[121.8941,0.5257],[121.8865,0.5146],[121.8844,0.5071],[121.8784,0.5055],[121.877,0.5096],[121.8727,0.511],[121.8754,0.5163],[121.8713,0.5209],[121.8677,0.5222],[121.8685,0.528],[121.8634,0.5336],[121.8714,0.547],[121.8707,0.552],[121.8754,0.5551],[121.8754,0.5609],[121.8919,0.5927],[121.9018,0.6333],[121.9085,0.6453],[121.9035,0.662],[121.8914,0.6904],[121.8885,0.7286],[121.8876,0.9766],[121.894,0.9688],[121.899,0.9644],[121.9021,0.9639],[121.9058,0.9591],[121.9071,0.9549],[121.916,0.9418],[121.9178,0.9341],[121.9217,0.9278],[121.9267,0.9275],[121.932,0.9296],[121.9348,0.9287]]]}},{"type":"Feature","properties":{"name":"Dulomo","name_en":"Dulomo","admin_level":"7","osm_id":""},"geometry":{"type":"Polygon","coordinates":[[[121.8677,0.5225],[121.8715,0.5208],[121.8754,0.5163],[121.8749,0.5145],[121.866,0.5015],[121.8567,0.4984],[121.8578,0.501],[121.8545,0.5011],[121.8555,0.5041],[121.8544,0.5062],[121.8468,0.5109],[121.8561,0.5173],[121.8568,0.5219],[121.861,0.5231],[121.8677,0.5225]]]}},{"type":"Feature","properties":{"name":"IloHeluma","name_en":"IloHeluma","admin_level":"7","osm_id":""},"geometry":{"type":"Polygon","coordinates":[[[121.9043,0.6393],[121.8919,0.5927],[121.8754,0.5609],[121.8754,0.5551],[121.8705,0.5516],[121.8714,0.547],[121.8675,0.5398],[121.8634,0.5336],[121.8575,0.5321],[121.8541,0.5369],[121.8441,0.5366],[121.8403,0.5415],[121.8399,0.5543],[121.8283,0.5606],[121.822,0.5671],[121.8203,0.5724],[121.8188,0.5717],[121.8169,0.5649],[121.8152,0.5661],[121.8146,0.5709],[121.8094,0.5731],[121.808,0.5769],[121.8113,0.5809],[121.8097,0.5858],[121.8286,0.5864],[121.8397,0.5904],[121.8968,0.6317],[121.9043,0.6393]]]}},{"type":"Feature","properties":{"name":"Manawa","name_en":"Manawa","admin_level":"7","osm_id":""},"geometry":{"type":"Polygon","coordinates":[[[121.8852,0.5103],[121.8852,0.5028],[121.8886,0.5001],[121.8853,0.4968],[121.8829,0.4875],[121.8868,0.484],[121.8816,0.4808],[121.8807,0.4776],[121.8774,0.4775],[121.8792,0.4714],[121.8752,0.4705],[121.877,0.4677],[121.8763,0.4635],[121.8783,0.4634],[121.8777,0.4596],[121.8728,0.4601],[121.8752,0.4501],[121.8786,0.4476],[121.8779,0.4424],[121.8765,0.4392],[121.8666,0.4413],[121.868,0.4391],[121.8644,0.4385],[121.8662,0.4369],[121.8603,0.4344],[121.8586,0.4353],[121.857,0.4321],[121.8532,0.4373],[121.8514,0.4446],[121.8476,0.4476],[121.8496,0.4485],[121.8489,0.4561],[121.8526,0.4697],[121.8501,0.4808],[121.8524,0.4842],[121.8519,0.4866],[121.8553,0.4906],[121.8567,0.4984],[121.866,0.5015],[121.8727,0.511],[121.877,0.5096],[121.8784,0.5055],[121.8844,0.5071],[121.8852,0.5103]]]}},{"type":"Feature","properties":{"name":"SukaMakmur","name_en":"SukaMakmur","admin_level":"7","osm_id":""},"geometry":{"type":"Polygon","coordinates":[[[121.8634,0.5336],[121.8685,0.528],[121.8677,0.5225],[121.861,0.5231],[121.8568,0.5219],[121.8561,0.5173],[121.8468,0.5109],[121.8453,0.5212],[121.8332,0.5294],[121.8318,0.5333],[121.8403,0.5415],[121.845,0.5363],[121.8541,0.5369],[121.8575,0.5321],[121.8634,0.5336]]]}}]}