{"type":"FeatureCollection","metadata":{"parent_osm_id":"8931964","parent_name":"Madat","parent_name_1":"Aceh","parent_gid":"IDN.1.10.11_1","parent_level":"6","child_level":"7","count":26,"source":"GADM 4.1","generated":"2026-05-09"},"features":[{"type":"Feature","properties":{"name":"AbeukGeulanteu","name_en":"AbeukGeulanteu","admin_level":"7","osm_id":""},"geometry":{"type":"Polygon","coordinates":[[[97.5243,5.1496],[97.5265,5.1512],[97.5332,5.1477],[97.5365,5.1482],[97.54,5.1513],[97.5395,5.1542],[97.5412,5.1555],[97.5466,5.1519],[97.5514,5.1545],[97.5583,5.1479],[97.5763,5.1405],[97.5764,5.1369],[97.5695,5.1343],[97.5618,5.1261],[97.5591,5.1335],[97.557,5.1313],[97.5582,5.128],[97.5569,5.1265],[97.5525,5.1296],[97.5504,5.1279],[97.5525,5.1255],[97.5504,5.124],[97.5513,5.122],[97.5481,5.1195],[97.5449,5.1182],[97.5416,5.1197],[97.5389,5.1189],[97.5374,5.1209],[97.5337,5.1186],[97.5265,5.1215],[97.5249,5.1248],[97.5205,5.1276],[97.5212,5.138],[97.5243,5.1397],[97.5253,5.1435],[97.5243,5.1496]]]}},{"type":"Feature","properties":{"name":"Bintah","name_en":"Bintah","admin_level":"7","osm_id":""},"geometry":{"type":"Polygon","coordinates":[[[97.4978,5.1286],[97.4766,5.1299],[97.4735,5.1317],[97.4698,5.1307],[97.4685,5.1349],[97.4701,5.1399],[97.4872,5.141],[97.4918,5.1449],[97.5026,5.1406],[97.5024,5.1359],[97.4978,5.1286]]]}},{"type":"Feature","properties":{"name":"BlangAndam","name_en":"BlangAndam","admin_level":"7","osm_id":""},"geometry":{"type":"Polygon","coordinates":[[[97.4766,5.1299],[97.479,5.1301],[97.4978,5.1286],[97.4921,5.1236],[97.4872,5.1242],[97.4854,5.1209],[97.4819,5.1188],[97.4699,5.1229],[97.471,5.1249],[97.4772,5.1244],[97.4784,5.1279],[97.4766,5.1299]]]}},{"type":"Feature","properties":{"name":"BlangAwe","name_en":"BlangAwe","admin_level":"7","osm_id":""},"geometry":{"type":"Polygon","coordinates":[[[97.4877,5.1413],[97.4701,5.1399],[97.4675,5.1454],[97.4702,5.1502],[97.466,5.1536],[97.4683,5.1542],[97.474,5.1515],[97.4739,5.1466],[97.4844,5.1437],[97.4877,5.1413]]]}},{"type":"Feature","properties":{"name":"BlangUbit","name_en":"BlangUbit","admin_level":"7","osm_id":""},"geometry":{"type":"Polygon","coordinates":[[[97.4978,5.1286],[97.5024,5.1359],[97.5026,5.1393],[97.5137,5.1371],[97.511,5.1274],[97.4978,5.1286]]]}},{"type":"Feature","properties":{"name":"LuengDua","name_en":"LuengDua","admin_level":"7","osm_id":""},"geometry":{"type":"Polygon","coordinates":[[[97.5591,5.148],[97.5514,5.1545],[97.5466,5.1519],[97.5412,5.1555],[97.5395,5.1542],[97.54,5.1513],[97.5365,5.1482],[97.5332,5.1477],[97.5265,5.1512],[97.5166,5.1482],[97.5157,5.1506],[97.5141,5.1495],[97.5093,5.1506],[97.5074,5.1488],[97.5043,5.1501],[97.5032,5.1558],[97.5198,5.1578],[97.52,5.1617],[97.5227,5.1627],[97.5236,5.1659],[97.5241,5.1613],[97.5272,5.1591],[97.53,5.1618],[97.527,5.1636],[97.5294,5.1659],[97.5351,5.1601],[97.5362,5.1605],[97.5357,5.1651],[97.5398,5.1634],[97.5393,5.1667],[97.5355,5.1695],[97.5332,5.1769],[97.535,5.1817],[97.5558,5.1785],[97.5601,5.1828],[97.5666,5.1827],[97.5684,5.1819],[97.5738,5.1701],[97.5762,5.1542],[97.5682,5.1539],[97.5633,5.1584],[97.5579,5.156],[97.5548,5.16],[97.5505,5.1595],[97.5543,5.1538],[97.5598,5.1514],[97.5591,5.148]]]}},{"type":"Feature","properties":{"name":"LuengPeut","name_en":"LuengPeut","admin_level":"7","osm_id":""},"geometry":{"type":"Polygon","coordinates":[[[97.5243,5.1496],[97.5253,5.1435],[97.5243,5.1397],[97.5212,5.138],[97.521,5.1346],[97.5026,5.1393],[97.5028,5.1475],[97.5043,5.1501],[97.5074,5.1488],[97.5093,5.1506],[97.5141,5.1495],[97.5157,5.1506],[97.5158,5.1481],[97.5243,5.1496]]]}},{"type":"Feature","properties":{"name":"LuengSatu","name_en":"LuengSatu","admin_level":"7","osm_id":""},"geometry":{"type":"Polygon","coordinates":[[[97.5026,5.1406],[97.4821,5.1493],[97.4827,5.152],[97.4875,5.151],[97.4886,5.154],[97.4875,5.1612],[97.4894,5.1611],[97.4911,5.1571],[97.4947,5.159],[97.4982,5.1588],[97.499,5.155],[97.5035,5.1527],[97.5043,5.1501],[97.5028,5.1475],[97.5026,5.1406]]]}},{"type":"Feature","properties":{"name":"Madat","name_en":"Madat","admin_level":"7","osm_id":""},"geometry":{"type":"Polygon","coordinates":[[[97.5034,5.1104],[97.508,5.1103],[97.5142,5.1126],[97.5207,5.1103],[97.5266,5.1055],[97.5258,5.1023],[97.5081,5.1045],[97.5034,5.1104]]]}},{"type":"Feature","properties":{"name":"MatangGuru","name_en":"MatangGuru","admin_level":"7","osm_id":""},"geometry":{"type":"Polygon","coordinates":[[[97.5684,5.1819],[97.5601,5.1828],[97.5558,5.1785],[97.535,5.1817],[97.5331,5.1784],[97.5351,5.1704],[97.5403,5.164],[97.5357,5.1651],[97.5359,5.1601],[97.5294,5.1659],[97.527,5.1636],[97.53,5.1618],[97.5272,5.1591],[97.5241,5.1613],[97.5236,5.1659],[97.5227,5.1627],[97.52,5.1617],[97.5198,5.1578],[97.5032,5.1558],[97.5031,5.1531],[97.4988,5.1553],[97.4969,5.1628],[97.5203,5.1734],[97.5345,5.1869],[97.5381,5.1838],[97.5477,5.1857],[97.5545,5.1979],[97.5653,5.1888],[97.5691,5.1839],[97.5684,5.1819]]]}},{"type":"Feature","properties":{"name":"MatangJrok","name_en":"MatangJrok","admin_level":"7","osm_id":""},"geometry":{"type":"Polygon","coordinates":[[[97.493,5.1217],[97.4969,5.1189],[97.493,5.1097],[97.493,5.1028],[97.4838,5.1048],[97.4838,5.1073],[97.4866,5.1069],[97.4873,5.1124],[97.489,5.1125],[97.4891,5.1177],[97.4914,5.1176],[97.493,5.1217]]]}},{"type":"Feature","properties":{"name":"MatangKeupulaDua","name_en":"MatangKeupulaDua","admin_level":"7","osm_id":""},"geometry":{"type":"Polygon","coordinates":[[[97.4988,5.1279],[97.511,5.1274],[97.5183,5.1192],[97.5151,5.114],[97.5098,5.1198],[97.5042,5.1199],[97.4988,5.1279]]]}},{"type":"Feature","properties":{"name":"MatangKeupulaLhee","name_en":"MatangKeupulaLhee","admin_level":"7","osm_id":""},"geometry":{"type":"Polygon","coordinates":[[[97.521,5.1346],[97.5205,5.1276],[97.5267,5.1221],[97.5252,5.1182],[97.52,5.1233],[97.5183,5.1192],[97.511,5.1274],[97.5137,5.1371],[97.521,5.1346]]]}},{"type":"Feature","properties":{"name":"MatangKeupulaSatu","name_en":"MatangKeupulaSatu","admin_level":"7","osm_id":""},"geometry":{"type":"Polygon","coordinates":[[[97.4921,5.1236],[97.4978,5.1286],[97.5021,5.1246],[97.5042,5.1199],[97.5098,5.1198],[97.5151,5.114],[97.5119,5.1112],[97.5034,5.1104],[97.5022,5.1146],[97.4922,5.1219],[97.4921,5.1236]]]}},{"type":"Feature","properties":{"name":"MatangNibong","name_en":"MatangNibong","admin_level":"7","osm_id":""},"geometry":{"type":"Polygon","coordinates":[[[97.4819,5.1188],[97.4854,5.1209],[97.4872,5.1242],[97.4922,5.1236],[97.493,5.1217],[97.4914,5.1176],[97.4891,5.1177],[97.489,5.1125],[97.4873,5.1124],[97.4866,5.1069],[97.4797,5.1084],[97.4797,5.1108],[97.4814,5.1108],[97.4801,5.1175],[97.4819,5.1188]]]}},{"type":"Feature","properties":{"name":"MeunasahAsan","name_en":"MeunasahAsan","admin_level":"7","osm_id":""},"geometry":{"type":"Polygon","coordinates":[[[97.4838,5.2437],[97.4854,5.2469],[97.495,5.25],[97.5005,5.2491],[97.5253,5.2344],[97.5565,5.211],[97.5487,5.2103],[97.5427,5.2078],[97.5308,5.2094],[97.5231,5.1909],[97.519,5.1849],[97.5166,5.1849],[97.5139,5.1822],[97.4971,5.1811],[97.4907,5.1823],[97.4875,5.188],[97.4918,5.1892],[97.4924,5.1851],[97.4976,5.1888],[97.5007,5.1878],[97.5014,5.189],[97.4981,5.1937],[97.5009,5.1955],[97.4987,5.1969],[97.4969,5.2027],[97.4944,5.2021],[97.493,5.1977],[97.4879,5.1994],[97.4912,5.2028],[97.4883,5.2092],[97.4907,5.2089],[97.4933,5.2055],[97.4948,5.2073],[97.4935,5.2103],[97.4893,5.2131],[97.4918,5.2146],[97.4955,5.2115],[97.5,5.213],[97.4957,5.217],[97.4975,5.2216],[97.4937,5.219],[97.4886,5.2244],[97.4883,5.2311],[97.4838,5.24],[97.4838,5.2437]]]}},{"type":"Feature","properties":{"name":"MeunasahTingkeum","name_en":"MeunasahTingkeum","admin_level":"7","osm_id":""},"geometry":{"type":"Polygon","coordinates":[[[97.4907,5.1823],[97.4971,5.1811],[97.5139,5.1822],[97.5166,5.1849],[97.519,5.1849],[97.5231,5.1909],[97.5308,5.2094],[97.5425,5.2053],[97.5391,5.1989],[97.5372,5.2019],[97.5355,5.2012],[97.5365,5.1991],[97.5348,5.198],[97.5349,5.1927],[97.5184,5.1811],[97.4974,5.1711],[97.4943,5.1745],[97.4918,5.1734],[97.4893,5.1748],[97.4913,5.1791],[97.487,5.1793],[97.4859,5.1831],[97.4881,5.1853],[97.4895,5.182],[97.4907,5.1823]]]}},{"type":"Feature","properties":{"name":"PanteBayam","name_en":"PanteBayam","admin_level":"7","osm_id":""},"geometry":{"type":"Polygon","coordinates":[[[97.5545,5.1979],[97.5477,5.1857],[97.5381,5.1838],[97.5345,5.1869],[97.5203,5.1734],[97.4969,5.1628],[97.4991,5.1654],[97.4977,5.1681],[97.5003,5.1681],[97.4998,5.1722],[97.5184,5.1811],[97.5349,5.1927],[97.5362,5.2018],[97.5391,5.1989],[97.5425,5.2053],[97.5469,5.2045],[97.5545,5.1979]]]}},{"type":"Feature","properties":{"name":"PanteMeureubo","name_en":"PanteMeureubo","admin_level":"7","osm_id":""},"geometry":{"type":"Polygon","coordinates":[[[97.4918,5.1449],[97.4877,5.1413],[97.4844,5.1437],[97.4739,5.1466],[97.474,5.1515],[97.4761,5.1527],[97.4812,5.149],[97.4918,5.1449]]]}},{"type":"Feature","properties":{"name":"PayaDeumamPeut","name_en":"PayaDeumamPeut","admin_level":"7","osm_id":""},"geometry":{"type":"Polygon","coordinates":[[[97.5081,5.1045],[97.5258,5.1023],[97.5245,5.0966],[97.5053,5.0991],[97.5054,5.1046],[97.5081,5.1045]]]}},{"type":"Feature","properties":{"name":"PayaNaden","name_en":"PayaNaden","admin_level":"7","osm_id":""},"geometry":{"type":"Polygon","coordinates":[[[97.4838,5.1073],[97.4838,5.1048],[97.4792,5.1048],[97.4768,5.0997],[97.476,5.1035],[97.473,5.1029],[97.4718,5.1047],[97.4677,5.1047],[97.4663,5.1062],[97.4732,5.1125],[97.4761,5.1129],[97.4814,5.1129],[97.4797,5.1084],[97.4838,5.1073]]]}},{"type":"Feature","properties":{"name":"RambongLop","name_en":"RambongLop","admin_level":"7","osm_id":""},"geometry":{"type":"Polygon","coordinates":[[[97.5034,5.1104],[97.5081,5.1045],[97.5054,5.1046],[97.5053,5.1014],[97.493,5.1028],[97.493,5.1097],[97.4969,5.1189],[97.5022,5.1146],[97.5034,5.1104]]]}},{"type":"Feature","properties":{"name":"SeuneubokPidie","name_en":"SeuneubokPidie","admin_level":"7","osm_id":""},"geometry":{"type":"Polygon","coordinates":[[[97.4699,5.1229],[97.4819,5.1188],[97.4801,5.1175],[97.4814,5.1129],[97.4732,5.1125],[97.462,5.1158],[97.4648,5.1187],[97.4684,5.1169],[97.4706,5.1201],[97.4699,5.1229]]]}},{"type":"Feature","properties":{"name":"TanjungAra","name_en":"TanjungAra","admin_level":"7","osm_id":""},"geometry":{"type":"Polygon","coordinates":[[[97.473,5.1029],[97.476,5.1035],[97.4746,5.0995],[97.4761,5.0961],[97.4714,5.0955],[97.4687,5.093],[97.4679,5.0967],[97.473,5.1029]]]}},{"type":"Feature","properties":{"name":"TanjungMinjei","name_en":"TanjungMinjei","admin_level":"7","osm_id":""},"geometry":{"type":"Polygon","coordinates":[[[97.4732,5.1125],[97.4687,5.1094],[97.4645,5.1091],[97.4598,5.1119],[97.462,5.1158],[97.4732,5.1125]]]}},{"type":"Feature","properties":{"name":"UleeAteung","name_en":"UleeAteung","admin_level":"7","osm_id":""},"geometry":{"type":"Polygon","coordinates":[[[97.5265,5.1215],[97.5322,5.1194],[97.5266,5.1055],[97.5207,5.1103],[97.5142,5.1126],[97.5193,5.1228],[97.5216,5.1229],[97.5252,5.1182],[97.5265,5.1215]]]}}]}