{"type":"FeatureCollection","metadata":{"parent_osm_id":"gid_IDN_21_4_19_1","parent_name":"Wulanggitang","parent_name_1":"NusaTenggaraTimur","parent_gid":"IDN.21.4.19_1","parent_level":"6","child_level":"7","count":10,"source":"GADM 4.1","generated":"2026-05-09"},"features":[{"type":"Feature","properties":{"name":"Boru","name_en":"Boru","admin_level":"7","osm_id":""},"geometry":{"type":"Polygon","coordinates":[[[122.6862,-8.5446],[122.686,-8.5403],[122.6822,-8.5318],[122.6654,-8.5308],[122.6665,-8.5258],[122.665,-8.5193],[122.671,-8.5126],[122.6742,-8.5028],[122.6805,-8.5003],[122.6799,-8.497],[122.6833,-8.4909],[122.7001,-8.498],[122.7041,-8.4972],[122.7085,-8.4999],[122.7107,-8.4988],[122.7129,-8.4997],[122.7087,-8.5014],[122.7086,-8.5028],[122.7167,-8.506],[122.7226,-8.513],[122.7219,-8.5198],[122.7152,-8.5209],[122.723,-8.5338],[122.7137,-8.5368],[122.7104,-8.5351],[122.7083,-8.5363],[122.7036,-8.5351],[122.6978,-8.5404],[122.6952,-8.5394],[122.6938,-8.5411],[122.6893,-8.5416],[122.6862,-8.5446]]]}},{"type":"Feature","properties":{"name":"BoruKedang","name_en":"BoruKedang","admin_level":"7","osm_id":""},"geometry":{"type":"Polygon","coordinates":[[[122.6654,-8.5308],[122.6822,-8.5318],[122.686,-8.5403],[122.6862,-8.5446],[122.6837,-8.5497],[122.6733,-8.5524],[122.6684,-8.5557],[122.6561,-8.5691],[122.6557,-8.5623],[122.6585,-8.5605],[122.6592,-8.5527],[122.6634,-8.5477],[122.664,-8.5322],[122.6654,-8.5308]]]}},{"type":"Feature","properties":{"name":"Hewa","name_en":"Hewa","admin_level":"7","osm_id":""},"geometry":{"type":"Polygon","coordinates":[[[122.6561,-8.5691],[122.6684,-8.5557],[122.6733,-8.5524],[122.6781,-8.5521],[122.6843,-8.5493],[122.6859,-8.545],[122.6893,-8.5416],[122.6938,-8.5411],[122.6952,-8.5394],[122.6978,-8.5404],[122.7036,-8.5351],[122.7124,-8.5363],[122.7119,-8.5433],[122.7134,-8.5451],[122.7175,-8.5453],[122.7184,-8.55],[122.7211,-8.5507],[122.7208,-8.558],[122.7138,-8.565],[122.7145,-8.568],[122.7125,-8.5716],[122.7157,-8.5742],[122.7176,-8.5787],[122.7211,-8.581],[122.722,-8.59],[122.7182,-8.5963],[122.7057,-8.6089],[122.7036,-8.6172],[122.7038,-8.6237],[122.6977,-8.6231],[122.6965,-8.6269],[122.6858,-8.6237],[122.6878,-8.6208],[122.6903,-8.6082],[122.6891,-8.6016],[122.6827,-8.5891],[122.6733,-8.5841],[122.6704,-8.5788],[122.6604,-8.5716],[122.6549,-8.571],[122.6561,-8.5691]]]}},{"type":"Feature","properties":{"name":"HokengJaya","name_en":"HokengJaya","admin_level":"7","osm_id":""},"geometry":{"type":"Polygon","coordinates":[[[122.7328,-8.5196],[122.7511,-8.5231],[122.7553,-8.5389],[122.7509,-8.539],[122.7429,-8.5352],[122.7362,-8.526],[122.723,-8.5338],[122.7152,-8.5209],[122.7232,-8.5193],[122.7328,-8.5196]]]}},{"type":"Feature","properties":{"name":"Nawokote","name_en":"Nawokote","admin_level":"7","osm_id":""},"geometry":{"type":"Polygon","coordinates":[[[122.7553,-8.5389],[122.7667,-8.5387],[122.7801,-8.5521],[122.75,-8.5607],[122.7445,-8.5693],[122.7408,-8.5718],[122.7386,-8.571],[122.7337,-8.5742],[122.7306,-8.5791],[122.7213,-8.5846],[122.7211,-8.581],[122.7176,-8.5787],[122.7157,-8.5742],[122.7125,-8.5716],[122.7145,-8.568],[122.7138,-8.565],[122.7177,-8.5619],[122.7211,-8.5564],[122.7211,-8.5504],[122.7184,-8.55],[122.7175,-8.5453],[122.7134,-8.5451],[122.7118,-8.5431],[122.7129,-8.5369],[122.7216,-8.5346],[122.736,-8.526],[122.7429,-8.5352],[122.7509,-8.539],[122.7553,-8.5389]]]}},{"type":"Feature","properties":{"name":"Nileknoheng","name_en":"Nileknoheng","admin_level":"7","osm_id":""},"geometry":{"type":"Polygon","coordinates":[[[122.6838,-8.4218],[122.6854,-8.4233],[122.6972,-8.4225],[122.6999,-8.4184],[122.7017,-8.4082],[122.7095,-8.4097],[122.7193,-8.4065],[122.7298,-8.415],[122.7347,-8.4144],[122.7383,-8.4162],[122.7427,-8.4242],[122.7481,-8.4248],[122.7527,-8.4205],[122.7529,-8.4258],[122.7658,-8.4355],[122.7683,-8.4338],[122.7703,-8.4397],[122.7743,-8.4417],[122.773,-8.4438],[122.7699,-8.4442],[122.762,-8.4426],[122.7602,-8.4479],[122.7562,-8.4464],[122.756,-8.4494],[122.7485,-8.451],[122.7492,-8.4562],[122.7453,-8.4549],[122.7413,-8.4604],[122.7377,-8.4598],[122.7342,-8.4652],[122.727,-8.4695],[122.7252,-8.4753],[122.7184,-8.4785],[122.7121,-8.4778],[122.6947,-8.4816],[122.6849,-8.4801],[122.6821,-8.4736],[122.6765,-8.467],[122.6777,-8.4626],[122.6734,-8.4597],[122.6791,-8.4553],[122.6842,-8.4407],[122.6838,-8.4218]]]}},{"type":"Feature","properties":{"name":"OjanDetun","name_en":"OjanDetun","admin_level":"7","osm_id":""},"geometry":{"type":"Polygon","coordinates":[[[122.6549,-8.571],[122.6604,-8.5716],[122.6704,-8.5788],[122.6733,-8.5841],[122.6825,-8.5889],[122.6891,-8.6016],[122.6903,-8.6082],[122.6878,-8.6208],[122.6858,-8.6237],[122.6774,-8.6221],[122.6646,-8.626],[122.6542,-8.6371],[122.6484,-8.6276],[122.6499,-8.6202],[122.6489,-8.6152],[122.6514,-8.6072],[122.6492,-8.6039],[122.6515,-8.5989],[122.6511,-8.5882],[122.6549,-8.571]]]}},{"type":"Feature","properties":{"name":"PantaiOa","name_en":"PantaiOa","admin_level":"7","osm_id":""},"geometry":{"type":"Polygon","coordinates":[[[122.7038,-8.6237],[122.7036,-8.6172],[122.7059,-8.6087],[122.7196,-8.6128],[122.7239,-8.6335],[122.7207,-8.634],[122.7183,-8.6292],[122.7038,-8.6237]]]}},{"type":"Feature","properties":{"name":"Pululera","name_en":"Pululera","admin_level":"7","osm_id":""},"geometry":{"type":"Polygon","coordinates":[[[122.7602,-8.4797],[122.7518,-8.5],[122.7486,-8.5039],[122.741,-8.5075],[122.7374,-8.5117],[122.7392,-8.5149],[122.7324,-8.5198],[122.722,-8.5195],[122.7217,-8.5113],[122.7165,-8.5059],[122.7083,-8.5023],[122.7129,-8.4997],[122.7107,-8.4988],[122.7085,-8.4999],[122.7041,-8.4972],[122.7001,-8.498],[122.6833,-8.4909],[122.6869,-8.4847],[122.6849,-8.4801],[122.6947,-8.4816],[122.7121,-8.4778],[122.7184,-8.4785],[122.7252,-8.4753],[122.727,-8.4695],[122.7367,-8.4626],[122.7449,-8.4741],[122.7443,-8.4782],[122.7602,-8.4797]]]}},{"type":"Feature","properties":{"name":"Waiula","name_en":"Waiula","admin_level":"7","osm_id":""},"geometry":{"type":"Polygon","coordinates":[[[122.7798,-8.5523],[122.7744,-8.5646],[122.7679,-8.5682],[122.7645,-8.5745],[122.7651,-8.5828],[122.7589,-8.5899],[122.7569,-8.6061],[122.7516,-8.6048],[122.7473,-8.6077],[122.7387,-8.608],[122.7321,-8.6107],[122.7275,-8.6183],[122.7259,-8.6243],[122.7282,-8.6267],[122.7279,-8.6323],[122.7239,-8.6335],[122.7201,-8.6132],[122.7059,-8.6087],[122.7206,-8.593],[122.722,-8.59],[122.7213,-8.5846],[122.7306,-8.5791],[122.7337,-8.5742],[122.7386,-8.571],[122.7408,-8.5718],[122.7445,-8.5693],[122.75,-8.5607],[122.7798,-8.5523]]]}}]}