{"type":"FeatureCollection","metadata":{"parent_osm_id":"gid_IDN_30_9_11_1","parent_name":"SintukTobohGadang","parent_name_1":"SumateraBarat","parent_gid":"IDN.30.9.11_1","parent_level":"6","child_level":"7","count":2,"source":"GADM 4.1","generated":"2026-05-09"},"features":[{"type":"Feature","properties":{"name":"Sintuk","name_en":"Sintuk","admin_level":"7","osm_id":""},"geometry":{"type":"Polygon","coordinates":[[[100.2497,-0.65],[100.286,-0.6522],[100.2841,-0.6571],[100.2794,-0.6623],[100.2771,-0.674],[100.2734,-0.6799],[100.2564,-0.679],[100.2483,-0.6765],[100.2472,-0.675],[100.2487,-0.6741],[100.2513,-0.6751],[100.2535,-0.6687],[100.2513,-0.6638],[100.2529,-0.6602],[100.2497,-0.65]]]}},{"type":"Feature","properties":{"name":"TobohGadang","name_en":"TobohGadang","admin_level":"7","osm_id":""},"geometry":{"type":"Polygon","coordinates":[[[100.2292,-0.6529],[100.24,-0.649],[100.2497,-0.65],[100.2529,-0.6602],[100.2513,-0.6638],[100.2533,-0.67],[100.2513,-0.6751],[100.2487,-0.6741],[100.2472,-0.675],[100.2502,-0.6776],[100.2587,-0.6797],[100.2587,-0.6839],[100.2506,-0.6943],[100.2444,-0.6929],[100.2433,-0.6946],[100.242,-0.6933],[100.243,-0.692],[100.2403,-0.6898],[100.239,-0.691],[100.2357,-0.6885],[100.2289,-0.6894],[100.2233,-0.6872],[100.2228,-0.6839],[100.2262,-0.6747],[100.2247,-0.6721],[100.2264,-0.6658],[100.2255,-0.6596],[100.2292,-0.6529]]]}}]}