{"type":"FeatureCollection","metadata":{"parent_osm_id":"gid_IDN_1_5_11_1","parent_name":"Pasieraja","parent_name_1":"Aceh","parent_gid":"IDN.1.5.11_1","parent_level":"6","child_level":"7","count":20,"source":"GADM 4.1","generated":"2026-05-09"},"features":[{"type":"Feature","properties":{"name":"IeMirah","name_en":"IeMirah","admin_level":"7","osm_id":""},"geometry":{"type":"Polygon","coordinates":[[[97.3502,3.1844],[97.3572,3.1799],[97.3319,3.1613],[97.3256,3.1496],[97.3232,3.1479],[97.3195,3.1549],[97.3389,3.1767],[97.3502,3.1844]]]}},{"type":"Feature","properties":{"name":"KampungBaro","name_en":"KampungBaro","admin_level":"7","osm_id":""},"geometry":{"type":"Polygon","coordinates":[[[97.3025,3.1757],[97.3053,3.1771],[97.3107,3.1693],[97.2954,3.1617],[97.2915,3.1693],[97.3025,3.1757]]]}},{"type":"Feature","properties":{"name":"KampungBaru","name_en":"KampungBaru","admin_level":"7","osm_id":""},"geometry":{"type":"Polygon","coordinates":[[[97.3037,3.1809],[97.2971,3.1784],[97.2853,3.1946],[97.2926,3.2007],[97.3037,3.1809]]]}},{"type":"Feature","properties":{"name":"KruengKelee","name_en":"KruengKelee","admin_level":"7","osm_id":""},"geometry":{"type":"Polygon","coordinates":[[[97.3323,3.1941],[97.3357,3.1925],[97.3141,3.1805],[97.3025,3.1757],[97.3003,3.1796],[97.3206,3.1866],[97.3323,3.1941]]]}},{"type":"Feature","properties":{"name":"LadangTeungoh","name_en":"LadangTeungoh","admin_level":"7","osm_id":""},"geometry":{"type":"Polygon","coordinates":[[[97.2807,3.1986],[97.2763,3.2047],[97.2818,3.2105],[97.3062,3.2268],[97.3093,3.2198],[97.2807,3.1986]]]}},{"type":"Feature","properties":{"name":"LadangTuha","name_en":"LadangTuha","admin_level":"7","osm_id":""},"geometry":{"type":"Polygon","coordinates":[[[97.2763,3.2047],[97.2842,3.1937],[97.2756,3.1865],[97.2668,3.2042],[97.2736,3.2085],[97.2763,3.2047]]]}},{"type":"Feature","properties":{"name":"LhokSialangCut","name_en":"LhokSialangCut","admin_level":"7","osm_id":""},"geometry":{"type":"Polygon","coordinates":[[[97.3369,3.1919],[97.3414,3.1898],[97.3259,3.1787],[97.3178,3.1709],[97.3118,3.1798],[97.3357,3.1925],[97.3369,3.1919]]]}},{"type":"Feature","properties":{"name":"LhokSialangRayeuk","name_en":"LhokSialangRayeuk","admin_level":"7","osm_id":""},"geometry":{"type":"Polygon","coordinates":[[[97.3414,3.1898],[97.3502,3.1844],[97.3389,3.1767],[97.3195,3.1549],[97.3133,3.1667],[97.3055,3.1767],[97.3118,3.1798],[97.3178,3.1709],[97.3259,3.1787],[97.3414,3.1898]]]}},{"type":"Feature","properties":{"name":"MataIe","name_en":"MataIe","admin_level":"7","osm_id":""},"geometry":{"type":"Polygon","coordinates":[[[97.2736,3.2085],[97.2668,3.2042],[97.264,3.2105],[97.2724,3.2167],[97.2754,3.2112],[97.2736,3.2085]]]}},{"type":"Feature","properties":{"name":"PantonBili","name_en":"PantonBili","admin_level":"7","osm_id":""},"geometry":{"type":"Polygon","coordinates":[[[97.2926,3.2007],[97.2842,3.1937],[97.2807,3.1986],[97.3093,3.2198],[97.3115,3.2149],[97.3021,3.2092],[97.2926,3.2007]]]}},{"type":"Feature","properties":{"name":"PasiRasian","name_en":"PasiRasian","admin_level":"7","osm_id":""},"geometry":{"type":"Polygon","coordinates":[[[97.3073,3.1308],[97.293,3.1273],[97.2866,3.1456],[97.2876,3.1481],[97.2848,3.1536],[97.2821,3.1659],[97.2913,3.1696],[97.3039,3.1471],[97.3073,3.1308]]]}},{"type":"Feature","properties":{"name":"Payateuk","name_en":"Payateuk","admin_level":"7","osm_id":""},"geometry":{"type":"Polygon","coordinates":[[[97.3037,3.1809],[97.2983,3.1895],[97.3119,3.1961],[97.3202,3.1865],[97.3037,3.1809]]]}},{"type":"Feature","properties":{"name":"PucukKrueng","name_en":"PucukKrueng","admin_level":"7","osm_id":""},"geometry":{"type":"Polygon","coordinates":[[[97.3021,3.2754],[97.3144,3.2468],[97.3146,3.2422],[97.3124,3.2355],[97.3055,3.2283],[97.3062,3.2268],[97.2818,3.2105],[97.2763,3.2047],[97.2736,3.2085],[97.2754,3.2112],[97.2724,3.2167],[97.3021,3.2754]]]}},{"type":"Feature","properties":{"name":"PuloIeIi","name_en":"PuloIeIi","admin_level":"7","osm_id":""},"geometry":{"type":"Polygon","coordinates":[[[97.3572,3.1799],[97.3638,3.1771],[97.3353,3.1552],[97.3345,3.1452],[97.324,3.1392],[97.3192,3.1474],[97.3256,3.1496],[97.3319,3.1613],[97.3572,3.1799]]]}},{"type":"Feature","properties":{"name":"SiNeubok","name_en":"SiNeubok","admin_level":"7","osm_id":""},"geometry":{"type":"Polygon","coordinates":[[[97.2853,3.1946],[97.2971,3.1784],[97.281,3.1705],[97.2756,3.1865],[97.2853,3.1946]]]}},{"type":"Feature","properties":{"name":"Silolo","name_en":"Silolo","admin_level":"7","osm_id":""},"geometry":{"type":"Polygon","coordinates":[[[97.3144,3.2468],[97.3321,3.2298],[97.3425,3.2012],[97.3332,3.2134],[97.3173,3.2016],[97.3202,3.2001],[97.2983,3.1895],[97.2926,3.2007],[97.3021,3.2092],[97.3115,3.2149],[97.3055,3.2283],[97.3124,3.2355],[97.3146,3.2422],[97.3144,3.2468]]]}},{"type":"Feature","properties":{"name":"TeupinGajah","name_en":"TeupinGajah","admin_level":"7","osm_id":""},"geometry":{"type":"Polygon","coordinates":[[[97.3025,3.1757],[97.2915,3.1693],[97.2821,3.1659],[97.281,3.1705],[97.2869,3.1737],[97.3003,3.1796],[97.3025,3.1757]]]}},{"type":"Feature","properties":{"name":"UjungBatu","name_en":"UjungBatu","admin_level":"7","osm_id":""},"geometry":{"type":"Polygon","coordinates":[[[97.2777,3.3322],[97.3021,3.2754],[97.2724,3.2167],[97.2642,3.2109],[97.2497,3.2299],[97.2545,3.2405],[97.2733,3.259],[97.2759,3.2748],[97.2764,3.3102],[97.2785,3.3275],[97.2777,3.3322]]]}},{"type":"Feature","properties":{"name":"UjungPadangAsahan","name_en":"UjungPadangAsahan","admin_level":"7","osm_id":""},"geometry":{"type":"Polygon","coordinates":[[[97.324,3.1392],[97.3142,3.1331],[97.3073,3.1308],[97.3039,3.1471],[97.3086,3.1493],[97.3136,3.1467],[97.3192,3.1474],[97.324,3.1392]]]}},{"type":"Feature","properties":{"name":"UjungPadangRasian","name_en":"UjungPadangRasian","admin_level":"7","osm_id":""},"geometry":{"type":"Polygon","coordinates":[[[97.3195,3.1549],[97.3232,3.1479],[97.3136,3.1467],[97.3086,3.1493],[97.3039,3.1471],[97.2954,3.1617],[97.3107,3.1693],[97.3195,3.1549]]]}}]}