{"type":"FeatureCollection","metadata":{"parent_osm_id":"gid_IDN_14_10_7_1","parent_name":"SungaiBabuat","parent_name_1":"KalimantanTengah","parent_gid":"IDN.14.10.7_1","parent_level":"6","child_level":"7","count":6,"source":"GADM 4.1","generated":"2026-05-07"},"features":[{"type":"Feature","properties":{"name":"BatuMirau","name_en":"BatuMirau","admin_level":"7","osm_id":""},"geometry":{"type":"Polygon","coordinates":[[[114.292,-0.6338],[114.2947,-0.6232],[114.3364,-0.6319],[114.3526,-0.6371],[114.3842,-0.6308],[114.3854,-0.6521],[114.3731,-0.6608],[114.3687,-0.6663],[114.3338,-0.6683],[114.3153,-0.6621],[114.3129,-0.6509],[114.2969,-0.6472],[114.292,-0.6338]]]}},{"type":"Feature","properties":{"name":"Tambelum","name_en":"Tambelum","admin_level":"7","osm_id":""},"geometry":{"type":"Polygon","coordinates":[[[114.2856,-0.594],[114.287,-0.5878],[114.2784,-0.5717],[114.2661,-0.5544],[114.2618,-0.54],[114.2656,-0.5353],[114.2926,-0.5373],[114.3056,-0.5442],[114.328,-0.5478],[114.3515,-0.5594],[114.3755,-0.5609],[114.4026,-0.5682],[114.3891,-0.5977],[114.3868,-0.6057],[114.3562,-0.6014],[114.3401,-0.6019],[114.3208,-0.6051],[114.3041,-0.6009],[114.2856,-0.594]]]}},{"type":"Feature","properties":{"name":"TumbangApat","name_en":"TumbangApat","admin_level":"7","osm_id":""},"geometry":{"type":"Polygon","coordinates":[[[114.3358,-0.4205],[114.357,-0.3947],[114.3754,-0.3947],[114.4062,-0.3984],[114.4369,-0.4044],[114.4517,-0.4503],[114.4505,-0.4726],[114.4418,-0.4884],[114.389,-0.4696],[114.3468,-0.4617],[114.318,-0.4613],[114.3226,-0.4541],[114.3336,-0.4232],[114.3358,-0.4205]]]}},{"type":"Feature","properties":{"name":"TumbangBantian","name_en":"TumbangBantian","admin_level":"7","osm_id":""},"geometry":{"type":"Polygon","coordinates":[[[114.2656,-0.5353],[114.2837,-0.5116],[114.303,-0.5116],[114.3249,-0.5158],[114.364,-0.5294],[114.3734,-0.5373],[114.3906,-0.5457],[114.4108,-0.553],[114.4026,-0.5682],[114.3755,-0.5609],[114.3515,-0.5594],[114.328,-0.5478],[114.3056,-0.5442],[114.2926,-0.5373],[114.2656,-0.5353]]]}},{"type":"Feature","properties":{"name":"TumbangKolon","name_en":"TumbangKolon","admin_level":"7","osm_id":""},"geometry":{"type":"Polygon","coordinates":[[[114.2837,-0.5116],[114.2955,-0.4962],[114.318,-0.4613],[114.3468,-0.4617],[114.389,-0.4696],[114.4418,-0.4884],[114.4259,-0.5147],[114.4148,-0.5457],[114.4108,-0.553],[114.3906,-0.5457],[114.3734,-0.5373],[114.364,-0.5294],[114.3249,-0.5158],[114.303,-0.5116],[114.2837,-0.5116]]]}},{"type":"Feature","properties":{"name":"TumbangSaan","name_en":"TumbangSaan","admin_level":"7","osm_id":""},"geometry":{"type":"Polygon","coordinates":[[[114.2929,-0.6074],[114.2845,-0.599],[114.2856,-0.594],[114.3041,-0.6009],[114.3208,-0.6051],[114.3401,-0.6019],[114.3562,-0.6014],[114.3868,-0.6057],[114.3829,-0.6199],[114.3842,-0.6308],[114.3526,-0.6371],[114.3364,-0.6319],[114.2947,-0.6232],[114.2956,-0.6101],[114.2929,-0.6074]]]}}]}