{"type":"FeatureCollection","metadata":{"parent_osm_id":"19172316","parent_name":"Bojongsoang","parent_name_1":"JawaBarat","parent_gid":"IDN.9.2.4_1","parent_level":"6","child_level":"7","count":6,"source":"GADM 4.1","generated":"2026-05-09"},"features":[{"type":"Feature","properties":{"name":"Bojongsari","name_en":"Bojongsari","admin_level":"7","osm_id":""},"geometry":{"type":"Polygon","coordinates":[[[107.6419,-7.0066],[107.6331,-7.0],[107.6336,-6.9976],[107.6317,-6.9966],[107.6312,-6.9935],[107.6341,-6.9933],[107.634,-6.9909],[107.6361,-6.991],[107.6362,-6.993],[107.6452,-6.9956],[107.6448,-6.9993],[107.6472,-6.9993],[107.6507,-6.9959],[107.6563,-6.9957],[107.6573,-6.9897],[107.6684,-6.9915],[107.6707,-7.0019],[107.6687,-7.0026],[107.6671,-7.0012],[107.6653,-7.0032],[107.6621,-7.0014],[107.6593,-7.0023],[107.6588,-7.006],[107.6567,-7.0069],[107.6565,-7.0108],[107.6535,-7.0106],[107.6529,-7.0075],[107.6474,-7.0085],[107.6466,-7.0105],[107.646,-7.0082],[107.6447,-7.009],[107.6441,-7.007],[107.6419,-7.0066]]]}},{"type":"Feature","properties":{"name":"Bojongsoang","name_en":"Bojongsoang","admin_level":"7","osm_id":""},"geometry":{"type":"Polygon","coordinates":[[[107.6337,-6.9914],[107.6308,-6.9896],[107.6294,-6.9828],[107.6325,-6.9817],[107.6342,-6.9778],[107.6451,-6.9814],[107.6459,-6.9851],[107.6497,-6.9862],[107.6492,-6.9883],[107.6573,-6.9897],[107.6574,-6.9944],[107.656,-6.9958],[107.6507,-6.9959],[107.6472,-6.9993],[107.6448,-6.9993],[107.6452,-6.9956],[107.6362,-6.993],[107.6361,-6.991],[107.6337,-6.9914]]]}},{"type":"Feature","properties":{"name":"Buahbatu","name_en":"Buahbatu","admin_level":"7","osm_id":""},"geometry":{"type":"Polygon","coordinates":[[[107.6721,-6.9974],[107.6701,-6.9992],[107.6684,-6.9915],[107.6653,-6.9909],[107.6655,-6.9848],[107.6642,-6.9844],[107.6656,-6.9821],[107.6641,-6.9814],[107.6656,-6.9783],[107.6644,-6.9757],[107.6652,-6.97],[107.6619,-6.9692],[107.6619,-6.9668],[107.678,-6.9682],[107.6775,-6.9835],[107.6721,-6.9974]]]}},{"type":"Feature","properties":{"name":"Cipagalo","name_en":"Cipagalo","admin_level":"7","osm_id":""},"geometry":{"type":"Polygon","coordinates":[[[107.6619,-6.9668],[107.6619,-6.9692],[107.6652,-6.97],[107.6644,-6.9757],[107.6656,-6.9783],[107.6642,-6.9807],[107.6579,-6.9771],[107.6356,-6.9701],[107.6366,-6.9656],[107.6494,-6.9647],[107.6619,-6.9668]]]}},{"type":"Feature","properties":{"name":"Lengkong","name_en":"Lengkong","admin_level":"7","osm_id":""},"geometry":{"type":"Polygon","coordinates":[[[107.6653,-6.9909],[107.6492,-6.9883],[107.6497,-6.9862],[107.6459,-6.9851],[107.6451,-6.9814],[107.6342,-6.9778],[107.633,-6.9741],[107.6355,-6.9731],[107.6358,-6.9707],[107.6579,-6.9771],[107.6656,-6.9821],[107.6642,-6.9844],[107.6655,-6.9848],[107.6653,-6.9909]]]}},{"type":"Feature","properties":{"name":"Tegalluar","name_en":"Tegalluar","admin_level":"7","osm_id":""},"geometry":{"type":"Polygon","coordinates":[[[107.6807,-6.9942],[107.6785,-6.9943],[107.6783,-6.996],[107.6737,-6.9944],[107.6775,-6.9835],[107.678,-6.9682],[107.6967,-6.9696],[107.7096,-6.9651],[107.7073,-6.97],[107.7093,-6.9714],[107.7088,-6.9757],[107.7104,-6.9775],[107.7067,-6.9778],[107.7066,-6.9806],[107.7044,-6.9824],[107.7074,-6.9867],[107.7018,-6.9883],[107.7012,-6.9868],[107.6984,-6.9892],[107.6978,-6.9875],[107.6953,-6.9879],[107.6948,-6.9895],[107.6926,-6.9889],[107.6922,-6.9911],[107.6906,-6.9888],[107.6841,-6.9907],[107.6807,-6.9942]]]}}]}