{"type":"FeatureCollection","metadata":{"parent_osm_id":"gid_IDN_21_2_7_1","parent_name":"Kobalima","parent_name_1":"NusaTenggaraTimur","parent_gid":"IDN.21.2.7_1","parent_level":"6","child_level":"7","count":8,"source":"GADM 4.1","generated":"2026-05-09"},"features":[{"type":"Feature","properties":{"name":"Babulu","name_en":"Babulu","admin_level":"7","osm_id":""},"geometry":{"type":"Polygon","coordinates":[[[124.9862,-9.3709],[124.9876,-9.3763],[124.9995,-9.3915],[125.001,-9.3984],[125.0144,-9.4162],[125.0088,-9.419],[125.008,-9.417],[125.0049,-9.4161],[125.0008,-9.4178],[124.9977,-9.4175],[124.9975,-9.4161],[124.9908,-9.417],[124.9904,-9.4188],[124.9868,-9.4199],[124.9846,-9.4185],[124.9818,-9.4193],[124.977,-9.4143],[124.975,-9.4143],[124.9718,-9.4156],[124.9716,-9.4198],[124.9674,-9.4296],[124.9646,-9.4289],[124.9589,-9.4335],[124.9599,-9.44],[124.9587,-9.4483],[124.9568,-9.4487],[124.9566,-9.4468],[124.9532,-9.4464],[124.9533,-9.4452],[124.9487,-9.4428],[124.9375,-9.4408],[124.9338,-9.4329],[124.9284,-9.4278],[124.9283,-9.425],[124.9296,-9.4187],[124.9315,-9.42],[124.9321,-9.4179],[124.9376,-9.418],[124.9379,-9.4165],[124.9398,-9.418],[124.9402,-9.4152],[124.943,-9.4126],[124.9461,-9.4126],[124.9424,-9.409],[124.9434,-9.4057],[124.9405,-9.3969],[124.9435,-9.3895],[124.9445,-9.3887],[124.9512,-9.3919],[124.9613,-9.3931],[124.9663,-9.3897],[124.9683,-9.3831],[124.9758,-9.3787],[124.9768,-9.3731],[124.9824,-9.37],[124.9862,-9.3709]]]}},{"type":"Feature","properties":{"name":"BabuluSelatan","name_en":"BabuluSelatan","admin_level":"7","osm_id":""},"geometry":{"type":"Polygon","coordinates":[[[125.0265,-9.4344],[125.0307,-9.4408],[125.0269,-9.4403],[125.0241,-9.4429],[125.0185,-9.4426],[125.0178,-9.445],[125.0149,-9.4451],[125.0082,-9.4493],[125.0025,-9.4472],[124.9938,-9.4489],[124.9802,-9.459],[124.9751,-9.4672],[124.969,-9.4686],[124.9647,-9.4655],[124.9601,-9.4688],[124.9605,-9.4566],[124.9581,-9.4539],[124.9548,-9.4537],[124.9592,-9.4465],[124.9599,-9.44],[124.9587,-9.4342],[124.9644,-9.4291],[124.9674,-9.4296],[124.9716,-9.4198],[124.9718,-9.4156],[124.9764,-9.414],[124.9818,-9.4193],[124.9846,-9.4185],[124.9868,-9.4199],[124.9904,-9.4188],[124.9908,-9.417],[124.9975,-9.4161],[124.9977,-9.4175],[125.0008,-9.4178],[125.0049,-9.4161],[125.008,-9.417],[125.0088,-9.419],[125.0144,-9.4162],[125.0232,-9.4279],[125.0237,-9.432],[125.0265,-9.4344]]]}},{"type":"Feature","properties":{"name":"Lakekun","name_en":"Lakekun","admin_level":"7","osm_id":""},"geometry":{"type":"Polygon","coordinates":[[[124.9374,-9.5095],[124.9431,-9.5033],[124.95,-9.4887],[124.953,-9.4897],[124.9535,-9.4949],[124.9551,-9.4941],[124.957,-9.4968],[124.9577,-9.502],[124.9634,-9.5073],[124.9644,-9.5115],[124.9775,-9.5241],[124.9762,-9.5334],[124.9727,-9.5355],[124.9755,-9.538],[124.9756,-9.5431],[124.9731,-9.5423],[124.9681,-9.5448],[124.9675,-9.5467],[124.9627,-9.5435],[124.9608,-9.5393],[124.9583,-9.5391],[124.956,-9.5348],[124.9516,-9.5342],[124.9498,-9.5299],[124.9493,-9.5155],[124.9477,-9.5105],[124.9453,-9.5088],[124.9374,-9.5095]]]}},{"type":"Feature","properties":{"name":"LakekunBarat","name_en":"LakekunBarat","admin_level":"7","osm_id":""},"geometry":{"type":"Polygon","coordinates":[[[124.9252,-9.5317],[124.9372,-9.5097],[124.9456,-9.5089],[124.9477,-9.5105],[124.9493,-9.5155],[124.9507,-9.5332],[124.9526,-9.5348],[124.956,-9.5348],[124.9583,-9.5391],[124.9608,-9.5393],[124.9627,-9.5435],[124.9675,-9.5467],[124.964,-9.5497],[124.9597,-9.5505],[124.9544,-9.5553],[124.9254,-9.5377],[124.9239,-9.5348],[124.9252,-9.5317]]]}},{"type":"Feature","properties":{"name":"LakekunUtara","name_en":"LakekunUtara","admin_level":"7","osm_id":""},"geometry":{"type":"Polygon","coordinates":[[[124.9775,-9.5241],[124.9644,-9.5115],[124.9634,-9.5073],[124.9577,-9.502],[124.957,-9.4968],[124.9551,-9.4941],[124.9535,-9.4949],[124.9531,-9.4898],[124.95,-9.4887],[124.9528,-9.4802],[124.9625,-9.4787],[124.9647,-9.48],[124.9679,-9.4833],[124.9694,-9.4886],[124.9746,-9.4934],[124.9777,-9.4994],[124.9775,-9.5241]]]}},{"type":"Feature","properties":{"name":"Litamali","name_en":"Litamali","admin_level":"7","osm_id":""},"geometry":{"type":"Polygon","coordinates":[[[124.9775,-9.5241],[124.9777,-9.4994],[124.9761,-9.4967],[124.9811,-9.4952],[124.9835,-9.4896],[124.9946,-9.4786],[125.0074,-9.4778],[125.0118,-9.4811],[125.0196,-9.4762],[125.0242,-9.4644],[125.0267,-9.4678],[125.0309,-9.4695],[125.0317,-9.484],[125.0304,-9.4885],[125.0403,-9.4982],[125.0321,-9.5044],[125.0306,-9.5038],[125.0315,-9.505],[125.0149,-9.5221],[125.0042,-9.537],[124.9954,-9.5559],[124.9906,-9.5604],[124.9743,-9.5495],[124.9755,-9.538],[124.9727,-9.5352],[124.9762,-9.5334],[124.9775,-9.5241]]]}},{"type":"Feature","properties":{"name":"Rainawe","name_en":"Rainawe","admin_level":"7","osm_id":""},"geometry":{"type":"Polygon","coordinates":[[[125.0375,-9.447],[125.0465,-9.4501],[125.0522,-9.4547],[125.0555,-9.4618],[125.0597,-9.4616],[125.0633,-9.465],[125.0656,-9.4651],[125.0656,-9.467],[125.0695,-9.468],[125.0663,-9.475],[125.0692,-9.4736],[125.0675,-9.4787],[125.073,-9.4802],[125.0706,-9.4823],[125.0632,-9.4817],[125.0403,-9.4982],[125.0304,-9.4885],[125.0316,-9.4707],[125.0257,-9.4668],[125.0235,-9.4607],[125.0287,-9.452],[125.0375,-9.447]]]}},{"type":"Feature","properties":{"name":"SISI","name_en":"SISI","admin_level":"7","osm_id":""},"geometry":{"type":"Polygon","coordinates":[[[125.0307,-9.4408],[125.0375,-9.447],[125.0301,-9.4507],[125.0269,-9.4541],[125.0237,-9.4598],[125.0242,-9.4644],[125.0221,-9.4723],[125.0156,-9.4793],[125.0118,-9.4811],[125.0074,-9.4778],[124.9946,-9.4786],[124.9835,-9.4896],[124.9811,-9.4952],[124.9777,-9.4969],[124.9761,-9.4967],[124.9739,-9.4924],[124.9694,-9.4886],[124.9679,-9.4833],[124.9647,-9.48],[124.9625,-9.4787],[124.9528,-9.4802],[124.9589,-9.4743],[124.9601,-9.4688],[124.9637,-9.466],[124.9699,-9.4687],[124.9751,-9.4672],[124.9802,-9.459],[124.9937,-9.4489],[125.0025,-9.4472],[125.0082,-9.4493],[125.0149,-9.4451],[125.0178,-9.445],[125.0185,-9.4426],[125.0241,-9.4429],[125.0269,-9.4403],[125.0307,-9.4408]]]}}]}