{"type":"FeatureCollection","metadata":{"parent_osm_id":"gid_IDN_29_10_6_1","parent_name":"Modoinding","parent_name_1":"SulawesiUtara","parent_gid":"IDN.29.10.6_1","parent_level":"6","child_level":"7","count":8,"source":"GADM 4.1","generated":"2026-05-08"},"features":[{"type":"Feature","properties":{"name":"Kakenturan","name_en":"Kakenturan","admin_level":"7","osm_id":""},"geometry":{"type":"Polygon","coordinates":[[[124.488,0.8028],[124.4881,0.7949],[124.4928,0.7872],[124.4896,0.7799],[124.4893,0.7665],[124.4812,0.7633],[124.4781,0.7687],[124.4717,0.7631],[124.47,0.7632],[124.4626,0.7734],[124.4662,0.7774],[124.4638,0.7835],[124.4589,0.7879],[124.4609,0.7883],[124.4633,0.7923],[124.4643,0.7959],[124.4628,0.7978],[124.4692,0.8006],[124.4797,0.816],[124.483,0.8118],[124.4798,0.8043],[124.488,0.8028]]]}},{"type":"Feature","properties":{"name":"Linelean","name_en":"Linelean","admin_level":"7","osm_id":""},"geometry":{"type":"Polygon","coordinates":[[[124.4589,0.8264],[124.4676,0.8221],[124.4764,0.8313],[124.4807,0.8286],[124.4797,0.816],[124.4692,0.8006],[124.4628,0.7978],[124.4643,0.7959],[124.4633,0.7923],[124.458,0.7864],[124.4565,0.7885],[124.4559,0.7872],[124.453,0.7888],[124.4557,0.7907],[124.4549,0.7992],[124.4591,0.8088],[124.4578,0.8117],[124.4609,0.8153],[124.4579,0.8237],[124.4589,0.8264]]]}},{"type":"Feature","properties":{"name":"Makaaruyen","name_en":"Makaaruyen","admin_level":"7","osm_id":""},"geometry":{"type":"Polygon","coordinates":[[[124.4406,0.7838],[124.4386,0.7866],[124.436,0.7861],[124.4338,0.7896],[124.433,0.7959],[124.4443,0.808],[124.4472,0.8144],[124.4509,0.8126],[124.4525,0.8074],[124.447,0.7982],[124.4458,0.7858],[124.4445,0.7871],[124.4424,0.7849],[124.4431,0.7839],[124.4406,0.7838]]]}},{"type":"Feature","properties":{"name":"Mokobang","name_en":"Mokobang","admin_level":"7","osm_id":""},"geometry":{"type":"Polygon","coordinates":[[[124.4341,0.8326],[124.4305,0.8333],[124.4288,0.8364],[124.4242,0.8369],[124.4238,0.839],[124.4168,0.8447],[124.4147,0.8484],[124.4075,0.851],[124.4062,0.8535],[124.4071,0.8585],[124.4236,0.8573],[124.4358,0.8535],[124.4418,0.8542],[124.447,0.845],[124.4474,0.8359],[124.4373,0.8319],[124.4341,0.8326]]]}},{"type":"Feature","properties":{"name":"Palelon","name_en":"Palelon","admin_level":"7","osm_id":""},"geometry":{"type":"Polygon","coordinates":[[[124.4337,0.7964],[124.4298,0.7956],[124.4304,0.7978],[124.4276,0.8051],[124.429,0.8076],[124.4321,0.8079],[124.4361,0.8183],[124.4431,0.827],[124.4408,0.8331],[124.4459,0.8355],[124.4507,0.8195],[124.45,0.8162],[124.446,0.8136],[124.4443,0.808],[124.4337,0.7964]]]}},{"type":"Feature","properties":{"name":"Pinasungkulan","name_en":"Pinasungkulan","admin_level":"7","osm_id":""},"geometry":{"type":"Polygon","coordinates":[[[124.4577,0.8279],[124.4609,0.8153],[124.4578,0.8117],[124.4591,0.8088],[124.4549,0.7992],[124.4557,0.7907],[124.4531,0.7889],[124.4511,0.7895],[124.4505,0.7883],[124.4504,0.79],[124.4454,0.788],[124.447,0.7982],[124.4525,0.8074],[124.4509,0.8126],[124.4472,0.8144],[124.45,0.8162],[124.4507,0.8195],[124.4459,0.8355],[124.4474,0.8359],[124.4577,0.8279]]]}},{"type":"Feature","properties":{"name":"Sinisir","name_en":"Sinisir","admin_level":"7","osm_id":""},"geometry":{"type":"Polygon","coordinates":[[[124.4523,0.7705],[124.4469,0.7723],[124.4456,0.7787],[124.4427,0.7799],[124.4406,0.7838],[124.4431,0.7839],[124.4424,0.7849],[124.4445,0.7871],[124.4458,0.7858],[124.4454,0.788],[124.4504,0.79],[124.4505,0.7883],[124.4511,0.7895],[124.4612,0.7864],[124.4662,0.7774],[124.4627,0.7735],[124.4553,0.7733],[124.4523,0.7705]]]}},{"type":"Feature","properties":{"name":"Wulurmaatus","name_en":"Wulurmaatus","admin_level":"7","osm_id":""},"geometry":{"type":"Polygon","coordinates":[[[124.4281,0.8039],[124.4238,0.8003],[124.4238,0.8024],[124.4191,0.8044],[124.4202,0.812],[124.4223,0.8131],[124.4267,0.8121],[124.4325,0.8156],[124.4321,0.8192],[124.4361,0.8225],[124.4365,0.8254],[124.4341,0.8326],[124.4408,0.8331],[124.4431,0.827],[124.4388,0.8228],[124.4342,0.8147],[124.4341,0.8113],[124.4321,0.8079],[124.429,0.8076],[124.4281,0.8039]]]}}]}