{"type":"FeatureCollection","metadata":{"parent_osm_id":"gid_IDN_11_22_3_1","parent_name":"Bululawang","parent_name_1":"JawaTimur","parent_gid":"IDN.11.22.3_1","parent_level":"6","child_level":"7","count":14,"source":"GADM 4.1","generated":"2026-05-09"},"features":[{"type":"Feature","properties":{"name":"Bakalan","name_en":"Bakalan","admin_level":"7","osm_id":""},"geometry":{"type":"Polygon","coordinates":[[[112.6683,-8.1088],[112.6596,-8.1345],[112.6404,-8.1313],[112.6389,-8.1261],[112.6421,-8.1263],[112.6433,-8.1228],[112.6467,-8.1219],[112.6518,-8.1029],[112.661,-8.1035],[112.6683,-8.1088]]]}},{"type":"Feature","properties":{"name":"Bululawang","name_en":"Bululawang","admin_level":"7","osm_id":""},"geometry":{"type":"Polygon","coordinates":[[[112.6528,-8.0833],[112.6492,-8.0835],[112.6465,-8.0816],[112.6405,-8.0853],[112.6375,-8.0844],[112.6414,-8.0717],[112.6383,-8.0674],[112.6448,-8.0678],[112.6452,-8.0664],[112.6512,-8.0694],[112.6487,-8.0748],[112.6511,-8.0754],[112.6506,-8.0772],[112.6542,-8.078],[112.6528,-8.0833]]]}},{"type":"Feature","properties":{"name":"Gading","name_en":"Gading","admin_level":"7","osm_id":""},"geometry":{"type":"Polygon","coordinates":[[[112.6353,-8.0972],[112.6365,-8.1181],[112.6346,-8.1193],[112.6249,-8.1166],[112.6264,-8.1138],[112.6248,-8.113],[112.6267,-8.1115],[112.6221,-8.1098],[112.6234,-8.1077],[112.6189,-8.1051],[112.6238,-8.0994],[112.6268,-8.0993],[112.6297,-8.0961],[112.6353,-8.0972]]]}},{"type":"Feature","properties":{"name":"Kasembon","name_en":"Kasembon","admin_level":"7","osm_id":""},"geometry":{"type":"Polygon","coordinates":[[[112.6532,-8.0868],[112.6551,-8.0825],[112.661,-8.0825],[112.6635,-8.0799],[112.667,-8.0828],[112.6731,-8.0839],[112.6744,-8.0784],[112.6774,-8.0761],[112.6822,-8.077],[112.6806,-8.0828],[112.6837,-8.0848],[112.6831,-8.0869],[112.6813,-8.0864],[112.6779,-8.0968],[112.6708,-8.0944],[112.6712,-8.0919],[112.6638,-8.0909],[112.6647,-8.0928],[112.6586,-8.0906],[112.6548,-8.0879],[112.6553,-8.0866],[112.6532,-8.0868]]]}},{"type":"Feature","properties":{"name":"Kasri","name_en":"Kasri","admin_level":"7","osm_id":""},"geometry":{"type":"Polygon","coordinates":[[[112.6671,-8.1136],[112.6713,-8.1003],[112.6852,-8.1019],[112.6864,-8.1023],[112.6859,-8.1046],[112.6878,-8.1051],[112.6883,-8.1153],[112.6865,-8.1149],[112.6863,-8.1169],[112.6888,-8.1178],[112.6827,-8.1242],[112.6758,-8.1196],[112.6764,-8.1177],[112.6741,-8.1156],[112.6671,-8.1136]]]}},{"type":"Feature","properties":{"name":"Krebet","name_en":"Krebet","admin_level":"7","osm_id":""},"geometry":{"type":"Polygon","coordinates":[[[112.6433,-8.1228],[112.6421,-8.1263],[112.6389,-8.1261],[112.6365,-8.1181],[112.6359,-8.0921],[112.6346,-8.0909],[112.6362,-8.0888],[112.6461,-8.0923],[112.6457,-8.0939],[112.6484,-8.0946],[112.6421,-8.1201],[112.6436,-8.1207],[112.6433,-8.1228]]]}},{"type":"Feature","properties":{"name":"KrebetSenggrong","name_en":"KrebetSenggrong","admin_level":"7","osm_id":""},"geometry":{"type":"Polygon","coordinates":[[[112.6518,-8.1029],[112.6471,-8.1211],[112.6433,-8.1228],[112.6436,-8.1207],[112.6421,-8.1201],[112.6484,-8.0946],[112.6457,-8.0939],[112.645,-8.0918],[112.6353,-8.0891],[112.6367,-8.0835],[112.6405,-8.0853],[112.6454,-8.0818],[112.6503,-8.0837],[112.6551,-8.0825],[112.6499,-8.098],[112.6479,-8.0993],[112.6518,-8.1029]]]}},{"type":"Feature","properties":{"name":"Kuwolu","name_en":"Kuwolu","admin_level":"7","osm_id":""},"geometry":{"type":"Polygon","coordinates":[[[112.6683,-8.1088],[112.6644,-8.1048],[112.657,-8.1028],[112.6564,-8.1039],[112.6523,-8.1035],[112.6479,-8.0993],[112.6499,-8.098],[112.6532,-8.0868],[112.6553,-8.0866],[112.6548,-8.0879],[112.6586,-8.0906],[112.6647,-8.0928],[112.6638,-8.0909],[112.6712,-8.0919],[112.6708,-8.0944],[112.6737,-8.0953],[112.6683,-8.1088]]]}},{"type":"Feature","properties":{"name":"Lumbangsari","name_en":"Lumbangsari","admin_level":"7","osm_id":""},"geometry":{"type":"Polygon","coordinates":[[[112.6353,-8.0972],[112.6297,-8.0961],[112.6268,-8.0993],[112.6238,-8.0994],[112.6229,-8.1017],[112.6217,-8.1014],[112.6258,-8.0926],[112.6229,-8.0922],[112.6179,-8.0882],[112.626,-8.0829],[112.6371,-8.0826],[112.6346,-8.0909],[112.6359,-8.0921],[112.6353,-8.0972]]]}},{"type":"Feature","properties":{"name":"Pringu","name_en":"Pringu","admin_level":"7","osm_id":""},"geometry":{"type":"Polygon","coordinates":[[[112.6737,-8.0953],[112.6779,-8.0968],[112.6813,-8.0864],[112.6831,-8.0869],[112.6827,-8.0843],[112.6842,-8.0835],[112.688,-8.0838],[112.6882,-8.0867],[112.6851,-8.0889],[112.6878,-8.0898],[112.6879,-8.0926],[112.695,-8.0934],[112.6962,-8.0951],[112.6945,-8.1009],[112.6905,-8.1019],[112.6879,-8.1052],[112.6859,-8.1046],[112.686,-8.1022],[112.6717,-8.1002],[112.6737,-8.0953]]]}},{"type":"Feature","properties":{"name":"Sempalwadak","name_en":"Sempalwadak","admin_level":"7","osm_id":""},"geometry":{"type":"Polygon","coordinates":[[[112.6491,-8.0683],[112.6452,-8.0664],[112.6448,-8.0678],[112.6419,-8.0674],[112.6422,-8.0644],[112.6354,-8.0636],[112.636,-8.0608],[112.638,-8.0607],[112.6424,-8.0539],[112.6426,-8.0618],[112.6537,-8.0651],[112.6502,-8.0655],[112.6491,-8.0683]]]}},{"type":"Feature","properties":{"name":"Sudimoro","name_en":"Sudimoro","admin_level":"7","osm_id":""},"geometry":{"type":"Polygon","coordinates":[[[112.6601,-8.1323],[112.6669,-8.1135],[112.6741,-8.1156],[112.6764,-8.1177],[112.6758,-8.1196],[112.6827,-8.1242],[112.6754,-8.1336],[112.6636,-8.1338],[112.6601,-8.1323]]]}},{"type":"Feature","properties":{"name":"Sukonolo","name_en":"Sukonolo","admin_level":"7","osm_id":""},"geometry":{"type":"Polygon","coordinates":[[[112.6217,-8.1014],[112.6189,-8.1051],[112.6234,-8.1077],[112.6223,-8.1095],[112.6194,-8.1136],[112.6169,-8.1124],[112.6144,-8.1157],[112.6124,-8.1153],[112.6104,-8.1187],[112.6086,-8.119],[112.6052,-8.126],[112.5958,-8.1238],[112.5956,-8.1213],[112.5991,-8.119],[112.6,-8.1152],[112.604,-8.1143],[112.6073,-8.1089],[112.6107,-8.1085],[112.6112,-8.1049],[112.6148,-8.1009],[112.6133,-8.0965],[112.6158,-8.091],[112.615,-8.0899],[112.6179,-8.0882],[112.6229,-8.0922],[112.6258,-8.0926],[112.6217,-8.1014]]]}},{"type":"Feature","properties":{"name":"Wandanpuro","name_en":"Wandanpuro","admin_level":"7","osm_id":""},"geometry":{"type":"Polygon","coordinates":[[[112.6419,-8.0674],[112.6383,-8.0674],[112.6414,-8.0717],[112.6377,-8.0835],[112.626,-8.0829],[112.6283,-8.081],[112.629,-8.0701],[112.6311,-8.0674],[112.6354,-8.0636],[112.6422,-8.0644],[112.6419,-8.0674]]]}}]}