{"type":"FeatureCollection","metadata":{"parent_osm_id":"gid_IDN_29_7_15_1","parent_name":"Nanusa","parent_name_1":"SulawesiUtara","parent_gid":"IDN.29.7.15_1","parent_level":"6","child_level":"7","count":9,"source":"GADM 4.1","generated":"2026-05-08"},"features":[{"type":"Feature","properties":{"name":"Dampulis","name_en":"Dampulis","admin_level":"7","osm_id":""},"geometry":{"type":"Polygon","coordinates":[[[127.0626,4.8072],[127.0652,4.8046],[127.0655,4.7966],[127.0624,4.7916],[127.0588,4.7906],[127.0566,4.793],[127.0564,4.7979],[127.0591,4.8048],[127.0626,4.8072]]]}},{"type":"Feature","properties":{"name":"DampulisSelatan","name_en":"DampulisSelatan","admin_level":"7","osm_id":""},"geometry":{"type":"Polygon","coordinates":[[[127.1159,4.761],[127.1273,4.7586],[127.1271,4.7536],[127.1121,4.752],[127.1159,4.761]]]}},{"type":"Feature","properties":{"name":"Kakorotan","name_en":"Kakorotan","admin_level":"7","osm_id":""},"geometry":{"type":"Polygon","coordinates":[[[127.1496,4.6158],[127.1482,4.6157],[127.1434,4.607],[127.1416,4.6065],[127.1218,4.6124],[127.1186,4.6161],[127.1211,4.6173],[127.126,4.6136],[127.1316,4.6123],[127.1467,4.6188],[127.1489,4.6181],[127.1496,4.6158]]]}},{"type":"Feature","properties":{"name":"Karatung","name_en":"Karatung","admin_level":"7","osm_id":""},"geometry":{"type":"Polygon","coordinates":[[[127.084,4.7181],[127.0809,4.7229],[127.0797,4.7393],[127.0835,4.7355],[127.0906,4.734],[127.0938,4.7313],[127.0931,4.7284],[127.0887,4.7252],[127.084,4.7181]]]}},{"type":"Feature","properties":{"name":"KaratungSelatan","name_en":"KaratungSelatan","admin_level":"7","osm_id":""},"geometry":{"type":"Polygon","coordinates":[[[127.079,4.7167],[127.0701,4.7178],[127.0641,4.7211],[127.056,4.7278],[127.0543,4.7331],[127.0601,4.7356],[127.0748,4.7223],[127.0769,4.7188],[127.0783,4.7194],[127.079,4.7167]]]}},{"type":"Feature","properties":{"name":"KaratungTengah","name_en":"KaratungTengah","admin_level":"7","osm_id":""},"geometry":{"type":"Polygon","coordinates":[[[127.079,4.7167],[127.0783,4.7194],[127.0769,4.7188],[127.0748,4.7223],[127.0601,4.7356],[127.0622,4.7407],[127.0797,4.7393],[127.0809,4.7229],[127.084,4.7181],[127.079,4.7167]]]}},{"type":"Feature","properties":{"name":"Laluhe","name_en":"Laluhe","admin_level":"7","osm_id":""},"geometry":{"type":"Polygon","coordinates":[[[127.1121,4.752],[127.1271,4.7536],[127.122,4.7413],[127.1188,4.7407],[127.116,4.7315],[127.1136,4.7328],[127.111,4.7419],[127.1104,4.7464],[127.1121,4.752]]]}},{"type":"Feature","properties":{"name":"Marampit","name_en":"Marampit","admin_level":"7","osm_id":""},"geometry":{"type":"Polygon","coordinates":[[[127.1272,4.7562],[127.1276,4.7654],[127.1244,4.7715],[127.1305,4.7777],[127.1335,4.7783],[127.1417,4.7694],[127.1447,4.7603],[127.1298,4.7404],[127.129,4.7308],[127.116,4.7315],[127.1188,4.7407],[127.122,4.7413],[127.127,4.752],[127.1272,4.7562]]]}},{"type":"Feature","properties":{"name":"MarampitTimur","name_en":"MarampitTimur","admin_level":"7","osm_id":""},"geometry":{"type":"Polygon","coordinates":[[[127.129,4.7308],[127.1298,4.7404],[127.1447,4.7603],[127.1461,4.7494],[127.1434,4.7411],[127.1375,4.7341],[127.129,4.7308]]]}}]}