{"type":"FeatureCollection","metadata":{"parent_osm_id":"gid_IDN_26_4_9_1","parent_name":"UjungBulu","parent_name_1":"SulawesiSelatan","parent_gid":"IDN.26.4.9_1","parent_level":"6","child_level":"7","count":9,"source":"GADM 4.1","generated":"2026-05-09"},"features":[{"type":"Feature","properties":{"name":"Bentengnge","name_en":"Bentengnge","admin_level":"7","osm_id":""},"geometry":{"type":"Polygon","coordinates":[[[120.1979,-5.5589],[120.1964,-5.5615],[120.1912,-5.5652],[120.191,-5.5587],[120.193,-5.5592],[120.1949,-5.5567],[120.1979,-5.5589]]]}},{"type":"Feature","properties":{"name":"Bintarore","name_en":"Bintarore","admin_level":"7","osm_id":""},"geometry":{"type":"Polygon","coordinates":[[[120.1695,-5.5565],[120.1714,-5.5535],[120.1738,-5.5532],[120.1784,-5.5559],[120.1791,-5.5581],[120.1821,-5.5576],[120.1865,-5.5642],[120.1912,-5.5652],[120.1848,-5.5666],[120.1735,-5.5641],[120.169,-5.5656],[120.1695,-5.5565]]]}},{"type":"Feature","properties":{"name":"Caile","name_en":"Caile","admin_level":"7","osm_id":""},"geometry":{"type":"Polygon","coordinates":[[[120.1856,-5.5482],[120.1911,-5.5426],[120.1903,-5.5407],[120.1998,-5.5345],[120.2022,-5.5347],[120.2057,-5.5396],[120.2055,-5.5434],[120.201,-5.5527],[120.199,-5.5538],[120.1955,-5.5549],[120.1856,-5.5482]]]}},{"type":"Feature","properties":{"name":"Ela-ela","name_en":"Ela-ela","admin_level":"7","osm_id":""},"geometry":{"type":"Polygon","coordinates":[[[120.2012,-5.5519],[120.2056,-5.543],[120.2047,-5.5401],[120.2064,-5.5397],[120.2106,-5.5437],[120.2114,-5.545],[120.2094,-5.5468],[120.212,-5.5495],[120.2023,-5.5546],[120.2012,-5.5519]]]}},{"type":"Feature","properties":{"name":"Kalumeme","name_en":"Kalumeme","admin_level":"7","osm_id":""},"geometry":{"type":"Polygon","coordinates":[[[120.205,-5.5385],[120.2122,-5.5351],[120.2257,-5.532],[120.2294,-5.5245],[120.2331,-5.523],[120.2316,-5.5278],[120.2399,-5.5306],[120.2384,-5.5336],[120.2417,-5.5333],[120.2397,-5.5369],[120.2365,-5.5386],[120.2308,-5.5379],[120.2196,-5.5406],[120.212,-5.5495],[120.2094,-5.5468],[120.2114,-5.545],[120.2106,-5.5437],[120.205,-5.5385]]]}},{"type":"Feature","properties":{"name":"Kasimpureng","name_en":"Kasimpureng","admin_level":"7","osm_id":""},"geometry":{"type":"Polygon","coordinates":[[[120.191,-5.5586],[120.1912,-5.5652],[120.1865,-5.5642],[120.1844,-5.5618],[120.1842,-5.5601],[120.1872,-5.5624],[120.1886,-5.5592],[120.191,-5.5586]]]}},{"type":"Feature","properties":{"name":"LOKA","name_en":"LOKA","admin_level":"7","osm_id":""},"geometry":{"type":"Polygon","coordinates":[[[120.1818,-5.5515],[120.1867,-5.5484],[120.1955,-5.5549],[120.1922,-5.5594],[120.1898,-5.5578],[120.1901,-5.5553],[120.1818,-5.5515]]]}},{"type":"Feature","properties":{"name":"TanahKongkong","name_en":"TanahKongkong","admin_level":"7","osm_id":""},"geometry":{"type":"Polygon","coordinates":[[[120.1766,-5.5549],[120.1788,-5.5539],[120.1799,-5.5511],[120.185,-5.5524],[120.1909,-5.5565],[120.1872,-5.5624],[120.1847,-5.5615],[120.1821,-5.5576],[120.1791,-5.5581],[120.1766,-5.5549]]]}},{"type":"Feature","properties":{"name":"Terang-terang","name_en":"Terang-terang","admin_level":"7","osm_id":""},"geometry":{"type":"Polygon","coordinates":[[[120.1979,-5.5589],[120.1941,-5.5559],[120.2012,-5.5519],[120.2023,-5.5546],[120.1979,-5.5589]]]}}]}