{"type":"FeatureCollection","metadata":{"parent_osm_id":"gid_IDN_5_2_4_1","parent_name":"MerigiKelindang","parent_name_1":"Bengkulu","parent_gid":"IDN.5.2.4_1","parent_level":"6","child_level":"7","count":9,"source":"GADM 4.1","generated":"2026-05-08"},"features":[{"type":"Feature","properties":{"name":"BajakIi","name_en":"BajakIi","admin_level":"7","osm_id":""},"geometry":{"type":"Polygon","coordinates":[[[102.4983,-3.6523],[102.5064,-3.6451],[102.5155,-3.6402],[102.5243,-3.6322],[102.5286,-3.6438],[102.5284,-3.6488],[102.5079,-3.6585],[102.4854,-3.6625],[102.4792,-3.6595],[102.4887,-3.6579],[102.4983,-3.6523]]]}},{"type":"Feature","properties":{"name":"Kelindang","name_en":"Kelindang","admin_level":"7","osm_id":""},"geometry":{"type":"Polygon","coordinates":[[[102.4308,-3.6785],[102.4253,-3.6776],[102.4307,-3.6467],[102.4336,-3.6497],[102.4354,-3.6479],[102.4435,-3.6508],[102.4561,-3.6621],[102.4514,-3.664],[102.4427,-3.6824],[102.4308,-3.6785]]]}},{"type":"Feature","properties":{"name":"LubukUnen","name_en":"LubukUnen","admin_level":"7","osm_id":""},"geometry":{"type":"Polygon","coordinates":[[[102.5067,-3.6449],[102.4983,-3.6523],[102.4941,-3.6389],[102.488,-3.6328],[102.4844,-3.6231],[102.4832,-3.5791],[102.4883,-3.5623],[102.5043,-3.5783],[102.5015,-3.5889],[102.5003,-3.6041],[102.5027,-3.6335],[102.5067,-3.6449]]]}},{"type":"Feature","properties":{"name":"Penembang","name_en":"Penembang","admin_level":"7","osm_id":""},"geometry":{"type":"Polygon","coordinates":[[[102.5243,-3.6322],[102.5155,-3.6402],[102.5067,-3.6449],[102.5027,-3.6335],[102.5003,-3.6041],[102.5015,-3.5889],[102.5043,-3.5783],[102.5132,-3.5891],[102.5141,-3.5943],[102.5127,-3.6019],[102.5192,-3.6125],[102.5132,-3.6212],[102.5145,-3.6241],[102.5243,-3.6322]]]}},{"type":"Feature","properties":{"name":"PunggukBeringin","name_en":"PunggukBeringin","admin_level":"7","osm_id":""},"geometry":{"type":"Polygon","coordinates":[[[102.4977,-3.6528],[102.4887,-3.6579],[102.4793,-3.6588],[102.4682,-3.6698],[102.4642,-3.6566],[102.4624,-3.641],[102.4731,-3.6355],[102.4868,-3.6481],[102.4977,-3.6528]]]}},{"type":"Feature","properties":{"name":"PunggukKetupak","name_en":"PunggukKetupak","admin_level":"7","osm_id":""},"geometry":{"type":"Polygon","coordinates":[[[102.4983,-3.6523],[102.4868,-3.6481],[102.4801,-3.6432],[102.4691,-3.631],[102.4681,-3.6227],[102.4844,-3.6184],[102.4844,-3.6231],[102.488,-3.6328],[102.4941,-3.6389],[102.4983,-3.6523]]]}},{"type":"Feature","properties":{"name":"TabaDurianSebakul","name_en":"TabaDurianSebakul","admin_level":"7","osm_id":""},"geometry":{"type":"Polygon","coordinates":[[[102.4731,-3.6355],[102.4624,-3.641],[102.4624,-3.6377],[102.4465,-3.6152],[102.4484,-3.6083],[102.4589,-3.5963],[102.4618,-3.6078],[102.4673,-3.6164],[102.4691,-3.631],[102.4731,-3.6355]]]}},{"type":"Feature","properties":{"name":"TalangAmbung","name_en":"TalangAmbung","admin_level":"7","osm_id":""},"geometry":{"type":"Polygon","coordinates":[[[102.4883,-3.5623],[102.4832,-3.5791],[102.4844,-3.6184],[102.4681,-3.6227],[102.4673,-3.6164],[102.4618,-3.6078],[102.4589,-3.5963],[102.4779,-3.5794],[102.4692,-3.5771],[102.4589,-3.5709],[102.4306,-3.5452],[102.3965,-3.5306],[102.3915,-3.5306],[102.3884,-3.5174],[102.4037,-3.5081],[102.4217,-3.494],[102.4274,-3.4999],[102.4292,-3.5108],[102.4429,-3.5275],[102.4431,-3.535],[102.4466,-3.5401],[102.4564,-3.549],[102.4786,-3.5527],[102.4883,-3.5623]]]}},{"type":"Feature","properties":{"name":"UlakLebar","name_en":"UlakLebar","admin_level":"7","osm_id":""},"geometry":{"type":"Polygon","coordinates":[[[102.4561,-3.6621],[102.4435,-3.6508],[102.4354,-3.6479],[102.4412,-3.6415],[102.4465,-3.6394],[102.4519,-3.6334],[102.4431,-3.6262],[102.4465,-3.6152],[102.4624,-3.6377],[102.4651,-3.6594],[102.4561,-3.6621]]]}}]}