{"type":"FeatureCollection","metadata":{"parent_osm_id":"gid_IDN_21_6_22_1","parent_name":"Sulamu","parent_name_1":"NusaTenggaraTimur","parent_gid":"IDN.21.6.22_1","parent_level":"6","child_level":"7","count":7,"source":"GADM 4.1","generated":"2026-05-09"},"features":[{"type":"Feature","properties":{"name":"Bipolo","name_en":"Bipolo","admin_level":"7","osm_id":""},"geometry":{"type":"Polygon","coordinates":[[[123.837,-9.9456],[123.8429,-9.9505],[123.8427,-9.9741],[123.8462,-9.9793],[123.855,-9.9838],[123.8524,-9.987],[123.8494,-10.0074],[123.847,-10.0072],[123.8416,-10.0108],[123.8408,-10.0141],[123.8353,-10.018],[123.8312,-10.0251],[123.8203,-10.0248],[123.8182,-10.0297],[123.8192,-10.0312],[123.8141,-10.0352],[123.814,-10.037],[123.8097,-10.0392],[123.7933,-10.0394],[123.7849,-10.0454],[123.7815,-10.0414],[123.789,-10.0375],[123.7933,-10.0323],[123.7939,-10.0216],[123.7974,-10.0105],[123.7952,-10.0044],[123.7919,-10.0018],[123.7919,-9.9963],[123.7945,-9.9924],[123.7914,-9.9873],[123.7936,-9.9807],[123.7821,-9.9623],[123.7949,-9.9646],[123.7991,-9.9605],[123.8217,-9.952],[123.8269,-9.9468],[123.837,-9.9456]]]}},{"type":"Feature","properties":{"name":"Oeteta","name_en":"Oeteta","admin_level":"7","osm_id":""},"geometry":{"type":"Polygon","coordinates":[[[123.7485,-9.9538],[123.7538,-9.9526],[123.7594,-9.9544],[123.7663,-9.9592],[123.7778,-9.9591],[123.7821,-9.9623],[123.7937,-9.9808],[123.7914,-9.9873],[123.7945,-9.9924],[123.7919,-9.9963],[123.7919,-10.0018],[123.7952,-10.0044],[123.7974,-10.0106],[123.7939,-10.0216],[123.7933,-10.0323],[123.789,-10.0375],[123.7835,-10.0394],[123.783,-10.0412],[123.7716,-10.0449],[123.7699,-10.0453],[123.7707,-10.0424],[123.7661,-10.0413],[123.7672,-10.04],[123.7647,-10.0393],[123.7652,-10.0351],[123.7583,-10.0336],[123.7582,-10.032],[123.7538,-10.0296],[123.7538,-10.0269],[123.7514,-10.0261],[123.7551,-10.0242],[123.7529,-10.0233],[123.7531,-10.0023],[123.7512,-9.9928],[123.7445,-9.9875],[123.7319,-9.9877],[123.7282,-9.9834],[123.727,-9.9747],[123.7281,-9.9695],[123.7346,-9.9626],[123.7485,-9.9538]]]}},{"type":"Feature","properties":{"name":"PantaiBeringin","name_en":"PantaiBeringin","admin_level":"7","osm_id":""},"geometry":{"type":"Polygon","coordinates":[[[123.6582,-9.964],[123.6799,-9.9584],[123.6949,-9.9631],[123.6926,-9.974],[123.6942,-9.9773],[123.693,-9.9934],[123.6997,-9.9989],[123.7003,-10.0041],[123.6974,-10.0102],[123.6891,-10.0125],[123.6888,-10.0156],[123.6848,-10.0164],[123.6829,-10.0186],[123.6835,-10.0199],[123.681,-10.0191],[123.6797,-10.0209],[123.6773,-10.0176],[123.6693,-10.0181],[123.667,-10.0143],[123.6682,-10.0114],[123.6678,-9.9988],[123.6567,-9.9933],[123.6582,-9.964]]]}},{"type":"Feature","properties":{"name":"Pantulan","name_en":"Pantulan","admin_level":"7","osm_id":""},"geometry":{"type":"Polygon","coordinates":[[[123.6228,-9.9547],[123.625,-9.9549],[123.6287,-9.9589],[123.6323,-9.9731],[123.6361,-9.9782],[123.6316,-9.9879],[123.6335,-9.9938],[123.6216,-9.9942],[123.618,-9.9967],[123.6181,-9.9941],[123.6119,-9.9938],[123.6106,-9.9941],[123.6112,-9.9961],[123.6076,-9.997],[123.6061,-9.9948],[123.6037,-9.9956],[123.6024,-9.9941],[123.6006,-9.9964],[123.5997,-9.9952],[123.5977,-9.9965],[123.5966,-9.9951],[123.5946,-9.9967],[123.5887,-9.9924],[123.5859,-9.9829],[123.5854,-9.9694],[123.5785,-9.9433],[123.5791,-9.9398],[123.582,-9.9412],[123.585,-9.9374],[123.589,-9.9374],[123.5913,-9.9422],[123.5944,-9.9397],[123.5938,-9.9422],[123.5956,-9.943],[123.6006,-9.9421],[123.5999,-9.9401],[123.6015,-9.9406],[123.6018,-9.9393],[123.6049,-9.9411],[123.6057,-9.9476],[123.6079,-9.9503],[123.6155,-9.9547],[123.6228,-9.9547]]]}},{"type":"Feature","properties":{"name":"Pariti","name_en":"Pariti","admin_level":"7","osm_id":""},"geometry":{"type":"Polygon","coordinates":[[[123.6949,-9.9631],[123.7012,-9.9596],[123.7161,-9.9568],[123.7304,-9.9467],[123.7485,-9.9538],[123.7345,-9.9627],[123.7281,-9.9695],[123.727,-9.9748],[123.7284,-9.984],[123.7317,-9.9876],[123.7445,-9.9875],[123.7512,-9.9928],[123.7531,-10.0023],[123.7529,-10.0233],[123.7551,-10.0242],[123.7514,-10.0261],[123.7538,-10.0269],[123.7538,-10.0296],[123.7448,-10.0283],[123.7328,-10.0293],[123.7303,-10.0266],[123.7278,-10.0263],[123.7235,-10.0273],[123.7032,-10.0174],[123.7011,-10.0133],[123.699,-10.0136],[123.6974,-10.0102],[123.6995,-10.0068],[123.7004,-10.0007],[123.6986,-9.9978],[123.6934,-9.9949],[123.6929,-9.9929],[123.6942,-9.9773],[123.6926,-9.974],[123.6949,-9.9631]]]}},{"type":"Feature","properties":{"name":"Pitai","name_en":"Pitai","admin_level":"7","osm_id":""},"geometry":{"type":"Polygon","coordinates":[[[123.6287,-9.9589],[123.6542,-9.9648],[123.6582,-9.964],[123.6567,-9.9933],[123.6678,-9.9988],[123.6682,-10.0114],[123.667,-10.0143],[123.6689,-10.0191],[123.66,-10.0147],[123.658,-10.0111],[123.6541,-10.0095],[123.6405,-10.0142],[123.6378,-10.0175],[123.629,-10.0175],[123.6272,-10.02],[123.6251,-10.0193],[123.6258,-10.0126],[123.6292,-10.0047],[123.6295,-9.998],[123.6338,-9.9932],[123.6318,-9.987],[123.6361,-9.9782],[123.6323,-9.9731],[123.6287,-9.9589]]]}},{"type":"Feature","properties":{"name":"Sulamu","name_en":"Sulamu","admin_level":"7","osm_id":""},"geometry":{"type":"Polygon","coordinates":[[[123.5896,-9.9929],[123.5946,-9.9967],[123.5966,-9.9951],[123.5977,-9.9965],[123.5997,-9.9952],[123.6006,-9.9964],[123.6024,-9.9941],[123.6037,-9.9956],[123.6061,-9.9948],[123.6076,-9.997],[123.6112,-9.9961],[123.6106,-9.9941],[123.6119,-9.9938],[123.6181,-9.9941],[123.618,-9.9967],[123.6216,-9.9942],[123.6335,-9.9938],[123.6295,-9.998],[123.6292,-10.0047],[123.6258,-10.0126],[123.6251,-10.0193],[123.6218,-10.0197],[123.6208,-10.0231],[123.6186,-10.024],[123.6124,-10.0331],[123.6078,-10.0453],[123.5963,-10.0442],[123.5915,-10.0408],[123.5854,-10.0326],[123.5809,-10.0177],[123.5864,-9.9975],[123.5896,-9.9929]]]}}]}