{"type":"FeatureCollection","metadata":{"parent_osm_id":"gid_IDN_27_10_2_1","parent_name":"AmpanaTete","parent_name_1":"SulawesiTengah","parent_gid":"IDN.27.10.2_1","parent_level":"6","child_level":"7","count":17,"source":"GADM 4.1","generated":"2026-05-09"},"features":[{"type":"Feature","properties":{"name":"Balanggala","name_en":"Balanggala","admin_level":"7","osm_id":""},"geometry":{"type":"Polygon","coordinates":[[[121.7583,-0.9698],[121.7609,-0.9711],[121.7676,-0.9702],[121.7702,-0.9718],[121.7809,-0.9695],[121.7844,-0.9653],[121.7862,-0.9673],[121.7865,-0.9709],[121.7833,-0.9735],[121.783,-0.9766],[121.7804,-0.9799],[121.7807,-0.9828],[121.7778,-0.985],[121.7795,-0.9874],[121.7785,-0.9916],[121.7812,-0.9976],[121.7851,-1.001],[121.7851,-1.0074],[121.7875,-1.0087],[121.7873,-1.0145],[121.7858,-1.0144],[121.7856,-1.0126],[121.7835,-1.0135],[121.7848,-1.017],[121.7879,-1.0182],[121.786,-1.0205],[121.7885,-1.0245],[121.7874,-1.0324],[121.79,-1.0339],[121.7893,-1.0388],[121.7912,-1.0401],[121.7953,-1.0508],[121.7992,-1.055],[121.7983,-1.059],[121.7831,-1.0654],[121.7813,-1.0682],[121.7699,-1.0689],[121.7668,-1.0719],[121.7645,-1.0779],[121.767,-1.0826],[121.7626,-1.0871],[121.7577,-1.0868],[121.7561,-1.0881],[121.7544,-1.0862],[121.7482,-1.0882],[121.749,-1.0911],[121.7458,-1.0953],[121.7468,-1.0962],[121.7451,-1.0977],[121.7454,-1.1048],[121.7412,-1.1127],[121.7421,-1.1146],[121.7399,-1.1189],[121.7356,-1.1208],[121.7322,-1.126],[121.722,-1.1285],[121.7184,-1.1275],[121.7079,-1.1327],[121.6876,-1.1385],[121.6693,-1.127],[121.6609,-1.1153],[121.6598,-1.1102],[121.6688,-1.1017],[121.6712,-1.0965],[121.68,-1.0902],[121.6907,-1.0779],[121.7155,-1.0573],[121.7282,-1.0502],[121.7394,-1.0309],[121.7445,-1.0056],[121.7543,-0.9911],[121.7548,-0.9773],[121.7583,-0.9698]]]}},{"type":"Feature","properties":{"name":"Balingara","name_en":"Balingara","admin_level":"7","osm_id":""},"geometry":{"type":"Polygon","coordinates":[[[122.0073,-1.1394],[122.0062,-1.1423],[122.019,-1.1408],[122.026,-1.131],[122.031,-1.12],[122.0432,-1.14],[122.0545,-1.1762],[122.0822,-1.2105],[122.0788,-1.2105],[122.0784,-1.212],[122.0813,-1.215],[122.0811,-1.2184],[122.0843,-1.2179],[122.0881,-1.2235],[122.0927,-1.226],[122.0938,-1.2314],[122.0575,-1.2281],[122.0359,-1.2313],[122.0043,-1.2406],[121.9332,-1.2421],[121.9046,-1.2512],[121.8908,-1.261],[121.8697,-1.2388],[121.8525,-1.2295],[121.8536,-1.2075],[121.8518,-1.1959],[121.8538,-1.1807],[121.8524,-1.172],[121.8537,-1.1508],[121.8851,-1.1517],[121.9246,-1.143],[121.9264,-1.1405],[121.9369,-1.1374],[121.9423,-1.1337],[121.9399,-1.1289],[121.9413,-1.1269],[121.9477,-1.1275],[121.9498,-1.1253],[121.9502,-1.1196],[121.9522,-1.1179],[121.9511,-1.116],[121.9489,-1.1168],[121.9492,-1.1135],[121.9559,-1.1105],[121.9563,-1.1145],[121.9601,-1.1142],[121.9609,-1.1174],[121.9636,-1.1193],[121.9668,-1.1182],[121.9666,-1.12],[121.9701,-1.1231],[121.9727,-1.1221],[121.9749,-1.1232],[121.9756,-1.1221],[121.9883,-1.1231],[121.9905,-1.1274],[121.9952,-1.126],[121.9969,-1.13],[122.0005,-1.1279],[122.0032,-1.1284],[122.0031,-1.1329],[122.0061,-1.1315],[122.0073,-1.133],[122.0063,-1.1384],[122.0073,-1.1394]]]}},{"type":"Feature","properties":{"name":"Bantuga","name_en":"Bantuga","admin_level":"7","osm_id":""},"geometry":{"type":"Polygon","coordinates":[[[121.6127,-1.0272],[121.6205,-1.0096],[121.6253,-1.0052],[121.6391,-0.9983],[121.6407,-0.9835],[121.6441,-0.9824],[121.6468,-0.9781],[121.6579,-0.9751],[121.6589,-0.9717],[121.6618,-0.9694],[121.6738,-0.9711],[121.6763,-0.9699],[121.6796,-0.9642],[121.6978,-0.9453],[121.7032,-0.9338],[121.7118,-0.942],[121.7087,-0.9471],[121.7099,-0.9495],[121.7188,-0.9531],[121.7207,-0.9516],[121.7259,-0.9534],[121.7293,-0.9521],[121.7259,-0.9618],[121.7262,-0.9676],[121.7167,-0.9846],[121.71,-0.9913],[121.7054,-0.9934],[121.7023,-0.9982],[121.6797,-1.0087],[121.6795,-1.0109],[121.6736,-1.0175],[121.6598,-1.0227],[121.6562,-1.0279],[121.6385,-1.0424],[121.6237,-1.0586],[121.6126,-1.0398],[121.6116,-1.0331],[121.6127,-1.0272]]]}},{"type":"Feature","properties":{"name":"Borone","name_en":"Borone","admin_level":"7","osm_id":""},"geometry":{"type":"Polygon","coordinates":[[[121.7583,-0.9698],[121.7548,-0.9773],[121.7543,-0.9911],[121.7445,-1.0056],[121.7394,-1.0309],[121.7282,-1.0502],[121.7155,-1.0573],[121.6907,-1.0779],[121.68,-1.0902],[121.6712,-1.0965],[121.6688,-1.1017],[121.6599,-1.1101],[121.6388,-1.093],[121.648,-1.0916],[121.6548,-1.0833],[121.6598,-1.0828],[121.6757,-1.074],[121.6844,-1.0604],[121.6884,-1.0585],[121.692,-1.0424],[121.7086,-1.0279],[121.7123,-1.0193],[121.7141,-1.0185],[121.7167,-1.0089],[121.7207,-1.0039],[121.7345,-1.0028],[121.7432,-0.9923],[121.7429,-0.9734],[121.7455,-0.971],[121.7467,-0.9633],[121.7537,-0.965],[121.7583,-0.9698]]]}},{"type":"Feature","properties":{"name":"BulanJaya","name_en":"BulanJaya","admin_level":"7","osm_id":""},"geometry":{"type":"Polygon","coordinates":[[[122.0211,-1.3388],[122.0153,-1.339],[122.0101,-1.334],[122.0058,-1.3222],[122.0091,-1.3186],[122.0087,-1.3155],[122.011,-1.3144],[122.0112,-1.3126],[122.0084,-1.3081],[122.0039,-1.3049],[122.0052,-1.3003],[122.0015,-1.2957],[122.0021,-1.2923],[121.9985,-1.2906],[121.9998,-1.2851],[121.996,-1.283],[121.9937,-1.2792],[121.9904,-1.2792],[121.9844,-1.283],[121.9848,-1.2806],[121.9875,-1.2784],[121.9873,-1.2728],[121.9839,-1.2728],[121.9846,-1.2769],[121.9826,-1.2765],[121.9794,-1.2786],[121.9777,-1.277],[121.9744,-1.2782],[121.9727,-1.2832],[121.9679,-1.2826],[121.9628,-1.2854],[121.9578,-1.2858],[121.9533,-1.2857],[121.9493,-1.2828],[121.9354,-1.2861],[121.9322,-1.2875],[121.9299,-1.2959],[121.9254,-1.2909],[121.9194,-1.2765],[121.8908,-1.261],[121.9046,-1.2512],[121.9332,-1.2421],[122.0042,-1.2409],[122.0359,-1.2313],[122.0575,-1.2281],[122.0832,-1.2312],[122.0944,-1.2307],[122.0963,-1.2369],[122.0956,-1.2392],[122.1008,-1.249],[122.0972,-1.2668],[122.0891,-1.2823],[122.0848,-1.3002],[122.0481,-1.3326],[122.0418,-1.3463],[122.0374,-1.3513],[122.0313,-1.3481],[122.0271,-1.3404],[122.0211,-1.3388]]]}},{"type":"Feature","properties":{"name":"GiriMulyo","name_en":"GiriMulyo","admin_level":"7","osm_id":""},"geometry":{"type":"Polygon","coordinates":[[[121.9604,-1.3126],[121.96,-1.3095],[121.9625,-1.3071],[121.963,-1.3024],[121.9652,-1.3017],[121.9632,-1.3],[121.9651,-1.2988],[121.9634,-1.2978],[121.9635,-1.2946],[121.9682,-1.2914],[121.9633,-1.29],[121.9628,-1.2856],[121.9679,-1.2826],[121.9727,-1.2832],[121.9754,-1.2776],[121.9777,-1.277],[121.9794,-1.2786],[121.9826,-1.2765],[121.9846,-1.2769],[121.985,-1.2723],[121.9881,-1.2734],[121.9883,-1.2751],[121.9844,-1.283],[121.9904,-1.2792],[121.9937,-1.2792],[121.996,-1.283],[121.9998,-1.2851],[121.9985,-1.2906],[122.0021,-1.2923],[122.0015,-1.2957],[122.0052,-1.3003],[122.0039,-1.3049],[122.0084,-1.3081],[122.0113,-1.3133],[121.975,-1.3117],[121.9604,-1.3126]]]}},{"type":"Feature","properties":{"name":"Kajulangko","name_en":"Kajulangko","admin_level":"7","osm_id":""},"geometry":{"type":"Polygon","coordinates":[[[121.6298,-0.9193],[121.629,-0.9153],[121.6248,-0.9108],[121.6189,-0.8919],[121.6367,-0.8923],[121.636,-0.911],[121.6298,-0.9193]]]}},{"type":"Feature","properties":{"name":"Longge","name_en":"Longge","admin_level":"7","osm_id":""},"geometry":{"type":"Polygon","coordinates":[[[121.8425,-0.962],[121.8526,-1.0476],[121.8856,-1.1173],[121.8985,-1.1489],[121.8851,-1.1517],[121.8537,-1.1508],[121.8536,-1.1458],[121.8608,-1.1386],[121.8585,-1.1368],[121.8577,-1.1319],[121.8585,-1.1234],[121.853,-1.1175],[121.8523,-1.1145],[121.8478,-1.1122],[121.8475,-1.1037],[121.8452,-1.0981],[121.8487,-1.0884],[121.8465,-1.0862],[121.8478,-1.0841],[121.8457,-1.0771],[121.8465,-1.0699],[121.8417,-1.0606],[121.843,-1.056],[121.839,-1.0432],[121.8353,-1.0367],[121.8326,-1.0209],[121.8354,-1.0017],[121.833,-0.9907],[121.8346,-0.9805],[121.8421,-0.9685],[121.835,-0.9681],[121.8344,-0.9617],[121.8425,-0.962]]]}},{"type":"Feature","properties":{"name":"Mantangisi","name_en":"Mantangisi","admin_level":"7","osm_id":""},"geometry":{"type":"Polygon","coordinates":[[[121.6258,-1.0009],[121.628,-0.9737],[121.6296,-0.9694],[121.6273,-0.9664],[121.638,-0.9619],[121.6406,-0.953],[121.646,-0.9512],[121.6486,-0.9469],[121.6583,-0.9452],[121.6635,-0.9388],[121.6707,-0.9371],[121.6755,-0.9318],[121.6772,-0.9217],[121.6799,-0.9212],[121.6836,-0.9259],[121.6898,-0.9237],[121.6965,-0.9263],[121.6974,-0.9316],[121.7032,-0.9338],[121.7021,-0.9379],[121.6978,-0.9453],[121.6796,-0.9642],[121.6772,-0.969],[121.6738,-0.9711],[121.6618,-0.9694],[121.6589,-0.9717],[121.6579,-0.9751],[121.6468,-0.9781],[121.6441,-0.9824],[121.6404,-0.984],[121.6391,-0.9983],[121.6253,-1.0052],[121.6205,-1.0096],[121.6217,-1.0056],[121.6258,-1.0009]]]}},{"type":"Feature","properties":{"name":"Pusungi","name_en":"Pusungi","admin_level":"7","osm_id":""},"geometry":{"type":"Polygon","coordinates":[[[121.6167,-0.8763],[121.6207,-0.8594],[121.6299,-0.8425],[121.6413,-0.8282],[121.6484,-0.8328],[121.6522,-0.8393],[121.6501,-0.8446],[121.647,-0.8477],[121.6448,-0.8609],[121.6428,-0.8643],[121.6432,-0.8694],[121.6372,-0.8833],[121.6367,-0.8923],[121.6189,-0.8919],[121.6168,-0.8837],[121.6167,-0.8763]]]}},{"type":"Feature","properties":{"name":"Sabo","name_en":"Sabo","admin_level":"7","osm_id":""},"geometry":{"type":"Polygon","coordinates":[[[121.8537,-1.1508],[121.8524,-1.172],[121.8538,-1.1807],[121.8518,-1.1959],[121.8536,-1.2075],[121.8525,-1.2294],[121.8342,-1.222],[121.8305,-1.2153],[121.8296,-1.2047],[121.8141,-1.2024],[121.8086,-1.2035],[121.7969,-1.2012],[121.7928,-1.1925],[121.7942,-1.1831],[121.7919,-1.1782],[121.7962,-1.1646],[121.7944,-1.1617],[121.7938,-1.154],[121.7966,-1.1486],[121.7975,-1.1422],[121.8005,-1.1402],[121.81,-1.0689],[121.8108,-1.0484],[121.8041,-1.0104],[121.8036,-0.9951],[121.8062,-0.9787],[121.8048,-0.9767],[121.8075,-0.9697],[121.8058,-0.9635],[121.8091,-0.9625],[121.8111,-0.9579],[121.8144,-0.9562],[121.8228,-0.957],[121.8254,-0.9596],[121.8268,-0.9645],[121.8337,-0.9682],[121.8421,-0.9685],[121.8346,-0.9805],[121.833,-0.9907],[121.8354,-1.0017],[121.8326,-1.0209],[121.8353,-1.0367],[121.839,-1.0432],[121.843,-1.056],[121.8417,-1.0606],[121.8465,-1.0699],[121.8457,-1.0771],[121.8478,-1.0841],[121.8465,-1.0862],[121.8487,-1.0884],[121.8452,-1.0981],[121.8475,-1.1037],[121.8478,-1.1122],[121.8523,-1.1145],[121.853,-1.1175],[121.8585,-1.1234],[121.8577,-1.1319],[121.8585,-1.1368],[121.8608,-1.1386],[121.8536,-1.1458],[121.8537,-1.1508]]]}},{"type":"Feature","properties":{"name":"Tampabatu","name_en":"Tampabatu","admin_level":"7","osm_id":""},"geometry":{"type":"Polygon","coordinates":[[[121.6884,-1.1383],[121.7079,-1.1327],[121.7184,-1.1275],[121.722,-1.1285],[121.7322,-1.126],[121.7356,-1.1208],[121.7399,-1.1189],[121.7421,-1.1146],[121.7412,-1.1127],[121.7454,-1.1048],[121.7451,-1.0977],[121.7468,-1.0962],[121.7458,-1.0953],[121.749,-1.0911],[121.7482,-1.0882],[121.7544,-1.0862],[121.7561,-1.0881],[121.7577,-1.0868],[121.7626,-1.0871],[121.767,-1.0826],[121.7645,-1.0779],[121.7668,-1.0719],[121.7699,-1.0689],[121.7813,-1.0682],[121.7831,-1.0654],[121.7896,-1.0637],[121.7907,-1.0616],[121.7928,-1.0624],[121.7975,-1.0603],[121.7992,-1.055],[121.7953,-1.0508],[121.7912,-1.0401],[121.7893,-1.0388],[121.79,-1.0339],[121.7874,-1.0324],[121.7885,-1.0245],[121.786,-1.0205],[121.7879,-1.0182],[121.7848,-1.017],[121.7835,-1.0135],[121.7856,-1.0126],[121.7858,-1.0144],[121.7873,-1.0145],[121.7875,-1.0087],[121.785,-1.0071],[121.7851,-1.001],[121.7812,-0.9976],[121.7787,-0.9923],[121.7795,-0.9874],[121.7778,-0.985],[121.7807,-0.9828],[121.7804,-0.9799],[121.783,-0.9766],[121.7833,-0.9735],[121.7865,-0.9709],[121.7854,-0.965],[121.7933,-0.9604],[121.8058,-0.9632],[121.8075,-0.9697],[121.8048,-0.9767],[121.8062,-0.9787],[121.8036,-0.9951],[121.8041,-1.0104],[121.8108,-1.0484],[121.81,-1.0689],[121.8005,-1.1402],[121.7975,-1.1422],[121.7966,-1.1486],[121.7938,-1.154],[121.7944,-1.1617],[121.7962,-1.1646],[121.7919,-1.1782],[121.7942,-1.1831],[121.7928,-1.1925],[121.797,-1.2014],[121.7886,-1.2031],[121.7743,-1.1932],[121.7591,-1.1975],[121.7443,-1.1965],[121.7267,-1.1921],[121.7075,-1.1727],[121.7021,-1.1528],[121.6963,-1.1444],[121.6884,-1.1383]]]}},{"type":"Feature","properties":{"name":"TeteA","name_en":"TeteA","admin_level":"7","osm_id":""},"geometry":{"type":"Polygon","coordinates":[[[121.636,-0.911],[121.6365,-0.8878],[121.6406,-0.8753],[121.6468,-0.8776],[121.6486,-0.8757],[121.6533,-0.8754],[121.6589,-0.8831],[121.6566,-0.8899],[121.6569,-0.899],[121.6498,-0.8998],[121.6461,-0.9018],[121.636,-0.911]]]}},{"type":"Feature","properties":{"name":"TeteB","name_en":"TeteB","admin_level":"7","osm_id":""},"geometry":{"type":"Polygon","coordinates":[[[121.6421,-0.8274],[121.6623,-0.811],[121.665,-0.8249],[121.664,-0.8289],[121.6652,-0.8391],[121.6629,-0.8471],[121.6658,-0.8526],[121.6682,-0.8541],[121.669,-0.8577],[121.6638,-0.8646],[121.6646,-0.8679],[121.6607,-0.8777],[121.662,-0.8808],[121.6589,-0.8831],[121.6531,-0.8753],[121.6485,-0.8758],[121.6468,-0.8776],[121.6406,-0.8753],[121.6432,-0.8694],[121.6428,-0.8643],[121.6448,-0.8609],[121.647,-0.8477],[121.6501,-0.8446],[121.6522,-0.8393],[121.6484,-0.8328],[121.6413,-0.8282],[121.6421,-0.8274]]]}},{"type":"Feature","properties":{"name":"Uebone","name_en":"Uebone","admin_level":"7","osm_id":""},"geometry":{"type":"Polygon","coordinates":[[[121.6273,-0.9664],[121.6267,-0.9586],[121.63,-0.951],[121.6308,-0.9399],[121.6325,-0.9385],[121.6298,-0.9193],[121.6343,-0.9148],[121.6368,-0.9095],[121.6437,-0.9033],[121.6498,-0.8998],[121.6569,-0.899],[121.6554,-0.9058],[121.656,-0.9118],[121.6644,-0.9154],[121.6668,-0.9217],[121.6772,-0.9217],[121.6755,-0.9318],[121.6707,-0.9371],[121.6633,-0.9389],[121.6583,-0.9452],[121.6486,-0.9469],[121.646,-0.9512],[121.6406,-0.953],[121.638,-0.9619],[121.6273,-0.9664]]]}},{"type":"Feature","properties":{"name":"Urundaka","name_en":"Urundaka","admin_level":"7","osm_id":""},"geometry":{"type":"Polygon","coordinates":[[[121.6237,-1.0586],[121.6385,-1.0424],[121.6562,-1.0279],[121.6598,-1.0227],[121.6736,-1.0175],[121.6795,-1.0109],[121.6797,-1.0087],[121.7023,-0.9982],[121.7054,-0.9934],[121.71,-0.9913],[121.7167,-0.9846],[121.7262,-0.9676],[121.7259,-0.9618],[121.7293,-0.9521],[121.7321,-0.9532],[121.7366,-0.9593],[121.7466,-0.9632],[121.7455,-0.971],[121.7429,-0.9734],[121.7432,-0.9923],[121.7345,-1.0028],[121.7207,-1.0039],[121.7167,-1.0089],[121.7141,-1.0185],[121.7123,-1.0193],[121.7086,-1.0279],[121.6921,-1.0422],[121.6884,-1.0585],[121.6844,-1.0604],[121.6737,-1.0757],[121.6598,-1.0828],[121.6548,-1.0833],[121.648,-1.0916],[121.6388,-1.093],[121.6315,-1.0872],[121.6247,-1.0788],[121.6258,-1.0649],[121.6237,-1.0586]]]}},{"type":"Feature","properties":{"name":"WanaSari","name_en":"WanaSari","admin_level":"7","osm_id":""},"geometry":{"type":"Polygon","coordinates":[[[122.0119,-1.3362],[122.0074,-1.3385],[122.0096,-1.3462],[121.9996,-1.3552],[121.9947,-1.3514],[121.9904,-1.3517],[121.98,-1.3478],[121.9728,-1.342],[121.9723,-1.3391],[121.9748,-1.3359],[121.9744,-1.3341],[121.9652,-1.3325],[121.9626,-1.3293],[121.9628,-1.3218],[121.9652,-1.322],[121.9655,-1.3208],[121.9614,-1.3175],[121.9619,-1.3139],[121.9604,-1.3126],[121.975,-1.3117],[122.0113,-1.3133],[122.0087,-1.3155],[122.0091,-1.3186],[122.0058,-1.3222],[122.0058,-1.3248],[122.0085,-1.3275],[122.0119,-1.3362]]]}}]}