{"type":"FeatureCollection","metadata":{"parent_osm_id":"gid_IDN_21_12_8_1","parent_name":"Soa","parent_name_1":"NusaTenggaraTimur","parent_gid":"IDN.21.12.8_1","parent_level":"6","child_level":"7","count":7,"source":"GADM 4.1","generated":"2026-05-09"},"features":[{"type":"Feature","properties":{"name":"Loa","name_en":"Loa","admin_level":"7","osm_id":""},"geometry":{"type":"Polygon","coordinates":[[[121.0713,-8.7419],[121.0691,-8.7434],[121.0699,-8.7452],[121.0679,-8.7439],[121.0672,-8.7467],[121.0656,-8.7457],[121.0645,-8.7478],[121.063,-8.7464],[121.0607,-8.7471],[121.0627,-8.7414],[121.0602,-8.7394],[121.0639,-8.7369],[121.0615,-8.7352],[121.0636,-8.7336],[121.0621,-8.7259],[121.0575,-8.7235],[121.047,-8.7246],[121.0427,-8.7168],[121.0575,-8.7154],[121.0701,-8.7167],[121.093,-8.7294],[121.0971,-8.7338],[121.0965,-8.7362],[121.0747,-8.7384],[121.0704,-8.7403],[121.0713,-8.7419]]]}},{"type":"Feature","properties":{"name":"Masumeli","name_en":"Masumeli","admin_level":"7","osm_id":""},"geometry":{"type":"Polygon","coordinates":[[[121.0226,-8.7241],[121.0188,-8.7207],[121.0274,-8.7142],[121.0592,-8.6983],[121.0583,-8.7093],[121.0451,-8.7097],[121.0437,-8.7136],[121.0448,-8.7137],[121.0427,-8.7168],[121.0339,-8.7187],[121.0226,-8.7241]]]}},{"type":"Feature","properties":{"name":"Mengeruda","name_en":"Mengeruda","admin_level":"7","osm_id":""},"geometry":{"type":"Polygon","coordinates":[[[121.1074,-8.6787],[121.1092,-8.6819],[121.1158,-8.6834],[121.1169,-8.6862],[121.1211,-8.6872],[121.1256,-8.685],[121.1285,-8.6889],[121.131,-8.6838],[121.1338,-8.6891],[121.1388,-8.6895],[121.1387,-8.692],[121.1426,-8.6903],[121.1488,-8.6923],[121.1495,-8.6938],[121.1456,-8.6945],[121.1453,-8.6978],[121.1416,-8.7011],[121.1385,-8.7011],[121.1363,-8.7031],[121.1333,-8.7017],[121.1318,-8.7039],[121.1307,-8.7023],[121.1278,-8.7024],[121.1239,-8.7037],[121.1245,-8.7055],[121.1226,-8.7084],[121.1156,-8.7095],[121.1147,-8.7138],[121.111,-8.7162],[121.1147,-8.7174],[121.1131,-8.7188],[121.1126,-8.7233],[121.1084,-8.724],[121.1065,-8.7206],[121.1048,-8.7226],[121.1081,-8.7253],[121.105,-8.7262],[121.1055,-8.7283],[121.1022,-8.7322],[121.1001,-8.7324],[121.1012,-8.7343],[121.1,-8.7364],[121.0965,-8.7362],[121.0971,-8.7338],[121.0944,-8.7304],[121.0798,-8.7229],[121.0764,-8.7179],[121.0749,-8.7086],[121.0757,-8.6905],[121.0773,-8.6864],[121.0824,-8.6844],[121.0865,-8.6855],[121.0903,-8.679],[121.0937,-8.6796],[121.097,-8.6771],[121.1001,-8.678],[121.103,-8.6751],[121.1074,-8.6787]]]}},{"type":"Feature","properties":{"name":"Piga","name_en":"Piga","admin_level":"7","osm_id":""},"geometry":{"type":"Polygon","coordinates":[[[121.0798,-8.7229],[121.0684,-8.7163],[121.0575,-8.7154],[121.0427,-8.7168],[121.0448,-8.7137],[121.0437,-8.7136],[121.0451,-8.7097],[121.0583,-8.7093],[121.0592,-8.6981],[121.062,-8.6956],[121.0649,-8.694],[121.0735,-8.6937],[121.0756,-8.6915],[121.0751,-8.7108],[121.0759,-8.7168],[121.0798,-8.7229]]]}},{"type":"Feature","properties":{"name":"Seso","name_en":"Seso","admin_level":"7","osm_id":""},"geometry":{"type":"Polygon","coordinates":[[[121.0151,-8.7159],[121.0199,-8.7023],[121.0303,-8.7046],[121.0445,-8.699],[121.0592,-8.6981],[121.0274,-8.7142],[121.0188,-8.7207],[121.0151,-8.7159]]]}},{"type":"Feature","properties":{"name":"Tarawaja","name_en":"Tarawaja","admin_level":"7","osm_id":""},"geometry":{"type":"Polygon","coordinates":[[[121.0395,-8.7466],[121.0373,-8.7451],[121.0303,-8.7318],[121.0226,-8.7241],[121.0408,-8.7167],[121.044,-8.7173],[121.047,-8.7246],[121.0571,-8.7234],[121.0616,-8.7251],[121.0637,-8.7333],[121.0615,-8.7352],[121.0639,-8.7369],[121.0602,-8.7394],[121.0627,-8.7414],[121.0607,-8.747],[121.0567,-8.7466],[121.0544,-8.7481],[121.0481,-8.7469],[121.0455,-8.7482],[121.0395,-8.7466]]]}},{"type":"Feature","properties":{"name":"Waepana","name_en":"Waepana","admin_level":"7","osm_id":""},"geometry":{"type":"Polygon","coordinates":[[[121.0101,-8.6823],[121.0118,-8.6751],[121.01,-8.6651],[121.0133,-8.6655],[121.0133,-8.6632],[121.022,-8.664],[121.0276,-8.6609],[121.0283,-8.6634],[121.0327,-8.663],[121.0346,-8.6654],[121.0375,-8.6645],[121.0404,-8.6658],[121.0408,-8.6679],[121.0434,-8.6677],[121.045,-8.6742],[121.0463,-8.6716],[121.0527,-8.6738],[121.0584,-8.6711],[121.0614,-8.6738],[121.0646,-8.673],[121.0679,-8.6765],[121.0768,-8.6711],[121.0779,-8.6728],[121.0815,-8.6699],[121.0855,-8.6697],[121.0909,-8.6744],[121.094,-8.6741],[121.0956,-8.6781],[121.0937,-8.6796],[121.09,-8.6791],[121.0865,-8.6855],[121.0824,-8.6844],[121.0773,-8.6864],[121.0756,-8.6921],[121.0735,-8.6937],[121.0649,-8.694],[121.0594,-8.6981],[121.0445,-8.699],[121.0303,-8.7046],[121.0199,-8.7023],[121.0208,-8.6973],[121.0101,-8.6823]]]}}]}