{"type":"FeatureCollection","metadata":{"parent_osm_id":"gid_IDN_23_2_8_1","parent_name":"Bruyadori","parent_name_1":"Papua","parent_gid":"IDN.23.2.8_1","parent_level":"6","child_level":"7","count":6,"source":"GADM 4.1","generated":"2026-05-08"},"features":[{"type":"Feature","properties":{"name":"Amberparem/amperem","name_en":"Amberparem/amperem","admin_level":"7","osm_id":""},"geometry":{"type":"Polygon","coordinates":[[[134.9396,-1.0722],[134.9424,-1.0714],[134.9453,-1.0792],[134.9183,-1.0881],[134.9166,-1.097],[134.9,-1.0957],[134.9,-1.0743],[134.9197,-1.0654],[134.9214,-1.0681],[134.9207,-1.0702],[134.9244,-1.0728],[134.9241,-1.0752],[134.9396,-1.0722]]]}},{"type":"Feature","properties":{"name":"Bruyadori","name_en":"Bruyadori","admin_level":"7","osm_id":""},"geometry":{"type":"Polygon","coordinates":[[[134.9816,-1.0654],[134.9812,-1.0692],[134.9828,-1.0721],[134.9788,-1.0754],[134.9745,-1.0845],[134.9748,-1.0877],[134.9723,-1.0896],[134.9748,-1.0924],[134.9687,-1.0964],[134.9689,-1.0991],[134.965,-1.1019],[134.9638,-1.1057],[134.9612,-1.1057],[134.9626,-1.1099],[134.94,-1.0989],[134.9496,-1.0888],[134.9612,-1.0837],[134.9682,-1.0755],[134.9723,-1.0652],[134.9816,-1.0654]]]}},{"type":"Feature","properties":{"name":"Dafi","name_en":"Dafi","admin_level":"7","osm_id":""},"geometry":{"type":"Polygon","coordinates":[[[134.9612,-1.0469],[134.9596,-1.038],[134.9529,-1.0334],[134.954,-1.0267],[134.9591,-1.0201],[134.9619,-1.02],[134.9726,-1.0111],[134.9792,-1.011],[134.9817,-1.0142],[134.986,-1.0358],[134.9805,-1.0372],[134.9821,-1.0395],[134.9819,-1.0468],[134.9797,-1.0475],[134.9797,-1.0496],[134.9612,-1.0469]]]}},{"type":"Feature","properties":{"name":"Duai","name_en":"Duai","admin_level":"7","osm_id":""},"geometry":{"type":"Polygon","coordinates":[[[134.9166,-1.097],[134.9183,-1.0881],[134.9453,-1.0792],[134.9424,-1.0714],[134.9609,-1.0707],[134.9694,-1.0652],[134.9723,-1.0652],[134.9682,-1.0755],[134.9612,-1.0837],[134.9496,-1.0888],[134.94,-1.0989],[134.9166,-1.097]]]}},{"type":"Feature","properties":{"name":"Mandori","name_en":"Mandori","admin_level":"7","osm_id":""},"geometry":{"type":"Polygon","coordinates":[[[134.9424,-1.0714],[134.9396,-1.0722],[134.939,-1.0624],[134.9424,-1.0585],[134.9491,-1.0565],[134.9575,-1.0512],[134.9612,-1.0469],[134.9793,-1.0496],[134.9784,-1.0539],[134.9798,-1.0584],[134.9789,-1.0627],[134.9773,-1.0616],[134.9771,-1.0632],[134.9803,-1.0633],[134.9816,-1.0654],[134.9694,-1.0652],[134.9609,-1.0707],[134.9424,-1.0714]]]}},{"type":"Feature","properties":{"name":"Sandau","name_en":"Sandau","admin_level":"7","osm_id":""},"geometry":{"type":"Polygon","coordinates":[[[134.9072,-1.0712],[134.9,-1.0743],[134.8996,-1.0374],[134.8956,-1.0285],[134.9219,-1.015],[134.9253,-1.0117],[134.9354,-1.0126],[134.9359,-1.0095],[134.9403,-1.009],[134.94,-1.0159],[134.9373,-1.0203],[134.9369,-1.0269],[134.9388,-1.034],[134.9415,-1.0376],[134.9403,-1.044],[134.9366,-1.0472],[134.9351,-1.0469],[134.9356,-1.0438],[134.9311,-1.046],[134.9303,-1.0443],[134.9275,-1.0443],[134.9246,-1.0519],[134.9211,-1.0518],[134.9233,-1.0529],[134.9229,-1.0575],[134.9259,-1.0592],[134.924,-1.0596],[134.9234,-1.0633],[134.9072,-1.0712]]]}}]}