{"type":"FeatureCollection","metadata":{"parent_osm_id":"gid_IDN_17_2_11_1","parent_name":"PesisirSelatan","parent_name_1":"Lampung","parent_gid":"IDN.17.2.11_1","parent_level":"6","child_level":"7","count":15,"source":"GADM 4.1","generated":"2026-05-07"},"features":[{"type":"Feature","properties":{"name":"BangunNegara","name_en":"BangunNegara","admin_level":"7","osm_id":""},"geometry":{"type":"Polygon","coordinates":[[[104.0362,-5.3658],[104.0408,-5.3599],[104.0477,-5.3586],[104.0516,-5.3603],[104.0555,-5.3585],[104.0624,-5.3589],[104.0642,-5.364],[104.0614,-5.3655],[104.0593,-5.3636],[104.0602,-5.362],[104.0569,-5.3631],[104.0562,-5.3614],[104.055,-5.3632],[104.0544,-5.3614],[104.0483,-5.3695],[104.045,-5.3699],[104.0362,-5.3658]]]}},{"type":"Feature","properties":{"name":"Biha","name_en":"Biha","admin_level":"7","osm_id":""},"geometry":{"type":"Polygon","coordinates":[[[104.0274,-5.3338],[104.0163,-5.3261],[104.0052,-5.3254],[103.9969,-5.3206],[104.0004,-5.3202],[104.009,-5.3142],[104.0263,-5.3147],[104.0263,-5.3187],[104.0294,-5.3249],[104.0341,-5.3277],[104.0274,-5.3338]]]}},{"type":"Feature","properties":{"name":"Hutan","name_en":"Hutan","admin_level":"7","osm_id":""},"geometry":{"type":"Polygon","coordinates":[[[104.1096,-5.163],[104.1301,-5.1813],[104.1447,-5.1909],[104.1741,-5.1986],[104.2046,-5.2034],[104.2227,-5.2193],[104.2392,-5.2403],[104.2292,-5.2542],[104.221,-5.2555],[104.2049,-5.2654],[104.2019,-5.2702],[104.1992,-5.28],[104.1903,-5.2895],[104.178,-5.2957],[104.171,-5.2958],[104.1658,-5.2988],[104.1613,-5.2987],[104.153,-5.3025],[104.1306,-5.2854],[104.0992,-5.2723],[104.0942,-5.2682],[104.0807,-5.2683],[104.0778,-5.2594],[104.0686,-5.2563],[104.0659,-5.2438],[104.0639,-5.241],[104.0585,-5.239],[104.0506,-5.239],[104.048,-5.237],[104.0451,-5.2241],[104.0416,-5.2214],[104.0232,-5.2125],[104.0125,-5.2094],[103.9954,-5.2075],[103.9963,-5.203],[103.9942,-5.1972],[104.0002,-5.1962],[104.0065,-5.1924],[104.0272,-5.1932],[104.0339,-5.1911],[104.0384,-5.1885],[104.0413,-5.1787],[104.0481,-5.1731],[104.0527,-5.1742],[104.0572,-5.173],[104.0666,-5.1766],[104.0715,-5.1726],[104.078,-5.1777],[104.0809,-5.1843],[104.0835,-5.1857],[104.0946,-5.179],[104.1027,-5.1686],[104.1096,-5.163]]]}},{"type":"Feature","properties":{"name":"Marang","name_en":"Marang","admin_level":"7","osm_id":""},"geometry":{"type":"Polygon","coordinates":[[[104.1376,-5.3411],[104.1348,-5.3499],[104.129,-5.3523],[104.1289,-5.3554],[104.1258,-5.3595],[104.1191,-5.3628],[104.1197,-5.3677],[104.1175,-5.3738],[104.1081,-5.3793],[104.1058,-5.3828],[104.0978,-5.3865],[104.0989,-5.3916],[104.0971,-5.4004],[104.0924,-5.4023],[104.0925,-5.4077],[104.0882,-5.4054],[104.084,-5.4063],[104.073,-5.4032],[104.0719,-5.4068],[104.0732,-5.4073],[104.0691,-5.4077],[104.0692,-5.4002],[104.0637,-5.3941],[104.063,-5.3894],[104.0615,-5.3877],[104.0577,-5.38],[104.0589,-5.3804],[104.0547,-5.3756],[104.045,-5.3699],[104.0483,-5.3695],[104.0544,-5.3614],[104.055,-5.3632],[104.0562,-5.3614],[104.0569,-5.3631],[104.0595,-5.3617],[104.0593,-5.3636],[104.0631,-5.3656],[104.0643,-5.3639],[104.0666,-5.365],[104.0656,-5.3616],[104.0672,-5.3632],[104.0687,-5.3619],[104.07,-5.3632],[104.0723,-5.3623],[104.0752,-5.3661],[104.0779,-5.3655],[104.079,-5.3669],[104.0822,-5.3615],[104.0799,-5.3597],[104.0852,-5.3572],[104.0873,-5.3543],[104.0915,-5.3551],[104.0927,-5.3536],[104.0947,-5.3553],[104.1027,-5.3513],[104.1057,-5.352],[104.1053,-5.3501],[104.1085,-5.3459],[104.1182,-5.3474],[104.121,-5.3413],[104.1376,-5.3411]]]}},{"type":"Feature","properties":{"name":"NegeriRatuTenumbang","name_en":"NegeriRatuTenumbang","admin_level":"7","osm_id":""},"geometry":{"type":"Polygon","coordinates":[[[103.9954,-5.2075],[104.0125,-5.2094],[104.022,-5.2122],[104.0099,-5.237],[104.0044,-5.2434],[104.0027,-5.2647],[103.9985,-5.2692],[103.987,-5.257],[103.9802,-5.2535],[103.9834,-5.2491],[103.9833,-5.2442],[103.9866,-5.2382],[103.9935,-5.2337],[103.993,-5.2199],[103.9954,-5.2075]]]}},{"type":"Feature","properties":{"name":"PagarDalam","name_en":"PagarDalam","admin_level":"7","osm_id":""},"geometry":{"type":"Polygon","coordinates":[[[104.0072,-5.2951],[104.0084,-5.2925],[104.0124,-5.2932],[104.0112,-5.2962],[104.0072,-5.2951]]]}},{"type":"Feature","properties":{"name":"PakuNegara","name_en":"PakuNegara","admin_level":"7","osm_id":""},"geometry":{"type":"Polygon","coordinates":[[[104.0341,-5.3277],[104.0294,-5.3249],[104.0264,-5.3192],[104.0316,-5.3175],[104.0344,-5.3193],[104.0389,-5.3185],[104.0417,-5.3231],[104.0476,-5.325],[104.048,-5.328],[104.0504,-5.3268],[104.0505,-5.3301],[104.0552,-5.3302],[104.0586,-5.3273],[104.0564,-5.3248],[104.057,-5.3199],[104.0603,-5.3194],[104.0616,-5.3145],[104.0635,-5.3138],[104.0621,-5.3116],[104.064,-5.3091],[104.0682,-5.3079],[104.0695,-5.3108],[104.0716,-5.3082],[104.0695,-5.3058],[104.0756,-5.3049],[104.0794,-5.2964],[104.085,-5.2936],[104.0894,-5.2877],[104.1042,-5.283],[104.1115,-5.2773],[104.1259,-5.2834],[104.1087,-5.3022],[104.0555,-5.3342],[104.0526,-5.3345],[104.0424,-5.3274],[104.0381,-5.3276],[104.036,-5.3255],[104.0341,-5.3277]]]}},{"type":"Feature","properties":{"name":"PelitaJaya","name_en":"PelitaJaya","admin_level":"7","osm_id":""},"geometry":{"type":"Polygon","coordinates":[[[104.0453,-5.2247],[104.048,-5.237],[104.0506,-5.239],[104.0618,-5.2397],[104.0659,-5.2438],[104.0664,-5.2469],[104.0529,-5.2554],[104.0491,-5.261],[104.0456,-5.2621],[104.0442,-5.2665],[104.0323,-5.273],[104.0329,-5.2765],[104.0251,-5.2874],[104.0178,-5.2908],[104.0133,-5.2909],[104.0137,-5.2856],[104.0111,-5.2782],[104.0048,-5.2716],[104.0082,-5.2615],[104.0072,-5.2565],[104.0132,-5.2538],[104.0143,-5.2462],[104.0194,-5.2422],[104.0173,-5.2401],[104.0245,-5.236],[104.0271,-5.2378],[104.0316,-5.2349],[104.032,-5.2328],[104.0385,-5.2303],[104.0453,-5.2247]]]}},{"type":"Feature","properties":{"name":"Sukarame","name_en":"Sukarame","admin_level":"7","osm_id":""},"geometry":{"type":"Polygon","coordinates":[[[104.022,-5.2122],[104.0374,-5.219],[104.0453,-5.2247],[104.0385,-5.2303],[104.032,-5.2328],[104.0316,-5.2349],[104.0271,-5.2378],[104.0245,-5.236],[104.0173,-5.2401],[104.0194,-5.2422],[104.0143,-5.2462],[104.0132,-5.2538],[104.0072,-5.2565],[104.0082,-5.2615],[104.006,-5.2654],[104.0062,-5.2687],[104.0027,-5.2739],[103.9985,-5.2692],[104.0027,-5.2647],[104.0044,-5.2434],[104.0099,-5.237],[104.022,-5.2122]]]}},{"type":"Feature","properties":{"name":"SumurJaya","name_en":"SumurJaya","admin_level":"7","osm_id":""},"geometry":{"type":"Polygon","coordinates":[[[104.0664,-5.2469],[104.0686,-5.2563],[104.0778,-5.2594],[104.0807,-5.2683],[104.0922,-5.2676],[104.0992,-5.2723],[104.1115,-5.2773],[104.1042,-5.283],[104.0894,-5.2877],[104.0814,-5.2963],[104.0703,-5.2989],[104.0595,-5.3043],[104.0268,-5.3053],[104.0182,-5.3082],[104.0112,-5.2962],[104.0133,-5.2909],[104.0178,-5.2908],[104.0251,-5.2874],[104.0329,-5.2765],[104.0323,-5.273],[104.0442,-5.2665],[104.0456,-5.2621],[104.0491,-5.261],[104.0529,-5.2554],[104.0664,-5.2469]]]}},{"type":"Feature","properties":{"name":"TanjungJati","name_en":"TanjungJati","admin_level":"7","osm_id":""},"geometry":{"type":"Polygon","coordinates":[[[104.0124,-5.2932],[104.0084,-5.2925],[104.0074,-5.2818],[104.0027,-5.2741],[104.0048,-5.2716],[104.0125,-5.2817],[104.0137,-5.2856],[104.0124,-5.2932]]]}},{"type":"Feature","properties":{"name":"TanjungRaya","name_en":"TanjungRaya","admin_level":"7","osm_id":""},"geometry":{"type":"Polygon","coordinates":[[[104.153,-5.3025],[104.1495,-5.3043],[104.144,-5.3205],[104.1403,-5.3258],[104.1412,-5.3321],[104.1376,-5.3409],[104.121,-5.3413],[104.1182,-5.3474],[104.1085,-5.3459],[104.1053,-5.3501],[104.1057,-5.352],[104.1027,-5.3513],[104.0947,-5.3553],[104.0927,-5.3536],[104.0915,-5.3551],[104.0873,-5.3543],[104.0852,-5.3572],[104.0799,-5.3597],[104.0822,-5.3615],[104.079,-5.3669],[104.0779,-5.3655],[104.0752,-5.3661],[104.0723,-5.3623],[104.07,-5.3632],[104.0687,-5.3619],[104.0672,-5.3632],[104.0666,-5.3614],[104.0656,-5.3616],[104.0657,-5.3656],[104.061,-5.3584],[104.0516,-5.3603],[104.0477,-5.3586],[104.0408,-5.3599],[104.0396,-5.3589],[104.0639,-5.3353],[104.0769,-5.3318],[104.089,-5.3321],[104.1014,-5.3281],[104.1163,-5.3117],[104.1403,-5.2928],[104.153,-5.3025]]]}},{"type":"Feature","properties":{"name":"TanjungSetia","name_en":"TanjungSetia","admin_level":"7","osm_id":""},"geometry":{"type":"Polygon","coordinates":[[[104.0263,-5.3147],[104.009,-5.3142],[104.0004,-5.3202],[103.9969,-5.3206],[103.9922,-5.3088],[104.0005,-5.3027],[104.004,-5.2969],[104.0072,-5.2951],[104.0106,-5.2955],[104.0182,-5.3082],[104.0276,-5.3061],[104.0263,-5.3147]]]}},{"type":"Feature","properties":{"name":"UlokManik","name_en":"UlokManik","admin_level":"7","osm_id":""},"geometry":{"type":"Polygon","coordinates":[[[104.0264,-5.3192],[104.0276,-5.306],[104.0595,-5.3043],[104.0703,-5.2989],[104.0794,-5.2964],[104.0756,-5.3049],[104.0695,-5.3058],[104.0716,-5.3082],[104.0695,-5.3108],[104.0682,-5.3079],[104.0663,-5.3077],[104.0621,-5.3116],[104.0635,-5.3138],[104.0616,-5.3145],[104.0603,-5.3194],[104.057,-5.3199],[104.0564,-5.3248],[104.0586,-5.3273],[104.0552,-5.3302],[104.0505,-5.3301],[104.0504,-5.3268],[104.048,-5.328],[104.0476,-5.325],[104.0417,-5.3231],[104.0389,-5.3185],[104.0344,-5.3193],[104.0316,-5.3175],[104.0264,-5.3192]]]}},{"type":"Feature","properties":{"name":"WayJambu","name_en":"WayJambu","admin_level":"7","osm_id":""},"geometry":{"type":"Polygon","coordinates":[[[104.0408,-5.3599],[104.0362,-5.3658],[104.0299,-5.3633],[104.0262,-5.3572],[104.0272,-5.3513],[104.032,-5.3453],[104.031,-5.3395],[104.0274,-5.3338],[104.036,-5.3255],[104.0381,-5.3276],[104.0424,-5.3274],[104.0526,-5.3345],[104.0555,-5.3342],[104.1087,-5.3022],[104.1259,-5.2834],[104.1403,-5.2928],[104.1163,-5.3117],[104.1014,-5.3281],[104.089,-5.3321],[104.0769,-5.3318],[104.0639,-5.3353],[104.0396,-5.3589],[104.0408,-5.3599]]]}}]}