{"type":"FeatureCollection","metadata":{"parent_osm_id":"gid_IDN_10_2_25_1","parent_name":"Sumpiuh","parent_name_1":"JawaTengah","parent_gid":"IDN.10.2.25_1","parent_level":"6","child_level":"7","count":14,"source":"GADM 4.1","generated":"2026-05-09"},"features":[{"type":"Feature","properties":{"name":"Banjarpanepen","name_en":"Banjarpanepen","admin_level":"7","osm_id":""},"geometry":{"type":"Polygon","coordinates":[[[109.3573,-7.5545],[109.3607,-7.5535],[109.3606,-7.5511],[109.3692,-7.545],[109.3781,-7.542],[109.3798,-7.539],[109.388,-7.5376],[109.3957,-7.5385],[109.3959,-7.5404],[109.3917,-7.5431],[109.392,-7.5459],[109.3891,-7.5528],[109.3893,-7.5609],[109.3879,-7.5638],[109.389,-7.57],[109.3875,-7.5725],[109.386,-7.5714],[109.3785,-7.576],[109.3765,-7.5879],[109.3665,-7.5866],[109.3661,-7.5787],[109.3624,-7.5788],[109.3626,-7.5828],[109.3574,-7.586],[109.3564,-7.579],[109.3583,-7.5731],[109.3592,-7.5595],[109.3573,-7.5545]]]}},{"type":"Feature","properties":{"name":"Bogangin","name_en":"Bogangin","admin_level":"7","osm_id":""},"geometry":{"type":"Polygon","coordinates":[[[109.3765,-7.5879],[109.3785,-7.576],[109.386,-7.5714],[109.3875,-7.5725],[109.3888,-7.5704],[109.3891,-7.5528],[109.392,-7.5459],[109.3917,-7.5431],[109.3959,-7.5404],[109.3965,-7.5455],[109.3947,-7.5512],[109.3974,-7.5585],[109.4018,-7.562],[109.4003,-7.5664],[109.4008,-7.5724],[109.3967,-7.5751],[109.4013,-7.5914],[109.3992,-7.5941],[109.39,-7.5966],[109.3884,-7.5999],[109.3844,-7.5968],[109.3837,-7.6012],[109.3799,-7.6029],[109.3791,-7.5997],[109.3748,-7.5959],[109.3765,-7.5879]]]}},{"type":"Feature","properties":{"name":"Karanggedang","name_en":"Karanggedang","admin_level":"7","osm_id":""},"geometry":{"type":"Polygon","coordinates":[[[109.3576,-7.6405],[109.3594,-7.6356],[109.3619,-7.6351],[109.3596,-7.6341],[109.3594,-7.6273],[109.361,-7.6248],[109.3633,-7.6259],[109.3632,-7.6296],[109.3669,-7.6307],[109.3673,-7.6462],[109.3658,-7.6518],[109.3617,-7.6494],[109.3619,-7.6445],[109.359,-7.6402],[109.3576,-7.6405]]]}},{"type":"Feature","properties":{"name":"Kebokura","name_en":"Kebokura","admin_level":"7","osm_id":""},"geometry":{"type":"Polygon","coordinates":[[[109.357,-7.6161],[109.3555,-7.6178],[109.3494,-7.6154],[109.35,-7.6129],[109.3521,-7.612],[109.3422,-7.6078],[109.3461,-7.6036],[109.3504,-7.6036],[109.3513,-7.6014],[109.3543,-7.6001],[109.3552,-7.597],[109.3573,-7.5975],[109.3573,-7.6015],[109.361,-7.6051],[109.357,-7.6161]]]}},{"type":"Feature","properties":{"name":"Kemiri","name_en":"Kemiri","admin_level":"7","osm_id":""},"geometry":{"type":"Polygon","coordinates":[[[109.361,-7.6248],[109.3594,-7.6273],[109.3596,-7.6341],[109.3619,-7.6351],[109.3594,-7.6356],[109.3574,-7.6406],[109.3504,-7.641],[109.349,-7.6361],[109.35,-7.6247],[109.357,-7.6161],[109.3653,-7.6173],[109.3641,-7.62],[109.3612,-7.6211],[109.361,-7.6248]]]}},{"type":"Feature","properties":{"name":"Ketanda","name_en":"Ketanda","admin_level":"7","osm_id":""},"geometry":{"type":"Polygon","coordinates":[[[109.3387,-7.581],[109.3463,-7.579],[109.3507,-7.5752],[109.3527,-7.5659],[109.3512,-7.5608],[109.3532,-7.5565],[109.3573,-7.5545],[109.3592,-7.5595],[109.3583,-7.5731],[109.3564,-7.579],[109.3579,-7.5878],[109.3573,-7.5975],[109.3485,-7.5947],[109.3431,-7.5906],[109.3377,-7.5903],[109.3365,-7.5863],[109.3387,-7.581]]]}},{"type":"Feature","properties":{"name":"Kradenan","name_en":"Kradenan","admin_level":"7","osm_id":""},"geometry":{"type":"Polygon","coordinates":[[[109.3662,-7.6071],[109.3824,-7.606],[109.3822,-7.6079],[109.3782,-7.6087],[109.38,-7.6198],[109.3755,-7.6202],[109.3756,-7.6186],[109.3722,-7.6182],[109.3717,-7.6143],[109.3654,-7.6136],[109.3672,-7.6075],[109.3662,-7.6071]]]}},{"type":"Feature","properties":{"name":"Kuntili","name_en":"Kuntili","admin_level":"7","osm_id":""},"geometry":{"type":"Polygon","coordinates":[[[109.3494,-7.6154],[109.3555,-7.6178],[109.35,-7.6247],[109.349,-7.6361],[109.3504,-7.641],[109.346,-7.6424],[109.3438,-7.638],[109.3366,-7.6356],[109.3366,-7.6334],[109.3349,-7.6333],[109.335,-7.6287],[109.3386,-7.6283],[109.3388,-7.6232],[109.3419,-7.6186],[109.3477,-7.6173],[109.3494,-7.6154]]]}},{"type":"Feature","properties":{"name":"Lebeng","name_en":"Lebeng","admin_level":"7","osm_id":""},"geometry":{"type":"Polygon","coordinates":[[[109.3307,-7.6268],[109.3333,-7.6107],[109.3368,-7.6069],[109.3402,-7.6061],[109.3424,-7.5965],[109.3414,-7.5906],[109.3552,-7.597],[109.3543,-7.6001],[109.3513,-7.6014],[109.3504,-7.6036],[109.3447,-7.6043],[109.3394,-7.6112],[109.3349,-7.6135],[109.3323,-7.627],[109.3307,-7.6268]]]}},{"type":"Feature","properties":{"name":"Nusadadi","name_en":"Nusadadi","admin_level":"7","osm_id":""},"geometry":{"type":"Polygon","coordinates":[[[109.3658,-7.6518],[109.3672,-7.6415],[109.3778,-7.6413],[109.3779,-7.6482],[109.3871,-7.6481],[109.3879,-7.6434],[109.3914,-7.6434],[109.389,-7.6458],[109.39,-7.6498],[109.3869,-7.6514],[109.3848,-7.6506],[109.3835,-7.6531],[109.3895,-7.6581],[109.3834,-7.6637],[109.383,-7.66],[109.3792,-7.6567],[109.378,-7.6578],[109.3725,-7.6564],[109.3695,-7.6527],[109.3658,-7.6518]]]}},{"type":"Feature","properties":{"name":"Pandak","name_en":"Pandak","admin_level":"7","osm_id":""},"geometry":{"type":"Polygon","coordinates":[[[109.3293,-7.6266],[109.3323,-7.627],[109.3349,-7.6135],[109.3394,-7.6112],[109.3408,-7.6083],[109.3521,-7.612],[109.35,-7.6129],[109.3477,-7.6173],[109.3419,-7.6186],[109.3388,-7.6232],[109.3386,-7.6283],[109.335,-7.6287],[109.3349,-7.6333],[109.3366,-7.6334],[109.3366,-7.6356],[109.33,-7.6331],[109.3293,-7.6266]]]}},{"type":"Feature","properties":{"name":"Selandaka","name_en":"Selandaka","admin_level":"7","osm_id":""},"geometry":{"type":"Polygon","coordinates":[[[109.3672,-7.6415],[109.3669,-7.6307],[109.3632,-7.6296],[109.3633,-7.6259],[109.3606,-7.6246],[109.3618,-7.6201],[109.3641,-7.62],[109.3656,-7.6181],[109.3649,-7.6168],[109.3677,-7.6173],[109.3693,-7.6199],[109.3715,-7.6196],[109.3757,-7.629],[109.374,-7.6412],[109.3672,-7.6415]]]}},{"type":"Feature","properties":{"name":"Selanegara","name_en":"Selanegara","admin_level":"7","osm_id":""},"geometry":{"type":"Polygon","coordinates":[[[109.3577,-7.5866],[109.3626,-7.5828],[109.3624,-7.5788],[109.3668,-7.5788],[109.3665,-7.5866],[109.3765,-7.5879],[109.3748,-7.5959],[109.3795,-7.6005],[109.379,-7.6058],[109.3654,-7.6073],[109.3592,-7.6039],[109.3568,-7.5999],[109.3577,-7.5866]]]}},{"type":"Feature","properties":{"name":"Sumpiuh","name_en":"Sumpiuh","admin_level":"7","osm_id":""},"geometry":{"type":"Polygon","coordinates":[[[109.357,-7.6161],[109.361,-7.6051],[109.3672,-7.6075],[109.3654,-7.6136],[109.3717,-7.6143],[109.3722,-7.6182],[109.3783,-7.6204],[109.3778,-7.6413],[109.374,-7.6412],[109.3755,-7.627],[109.3715,-7.6196],[109.3684,-7.6194],[109.3677,-7.6173],[109.357,-7.6161]]]}}]}