{"type":"FeatureCollection","metadata":{"parent_osm_id":"gid_IDN_11_25_19_1","parent_name":"Widodaren","parent_name_1":"JawaTimur","parent_gid":"IDN.11.25.19_1","parent_level":"6","child_level":"7","count":12,"source":"GADM 4.1","generated":"2026-05-09"},"features":[{"type":"Feature","properties":{"name":"BanyuBiru","name_en":"BanyuBiru","admin_level":"7","osm_id":""},"geometry":{"type":"Polygon","coordinates":[[[111.1635,-7.4085],[111.1666,-7.4029],[111.1709,-7.4014],[111.1728,-7.4029],[111.1825,-7.4044],[111.1877,-7.4083],[111.1989,-7.4068],[111.198,-7.418],[111.201,-7.4179],[111.2039,-7.4107],[111.206,-7.4116],[111.2064,-7.4154],[111.2038,-7.4177],[111.2029,-7.4302],[111.2071,-7.4308],[111.207,-7.4324],[111.2049,-7.4329],[111.2079,-7.4349],[111.205,-7.4356],[111.2057,-7.4413],[111.2035,-7.4439],[111.2039,-7.4492],[111.201,-7.4514],[111.1955,-7.4491],[111.1937,-7.4508],[111.1839,-7.4506],[111.1741,-7.4411],[111.1683,-7.4385],[111.1681,-7.4265],[111.1633,-7.4159],[111.1635,-7.4085]]]}},{"type":"Feature","properties":{"name":"Gendingan","name_en":"Gendingan","admin_level":"7","osm_id":""},"geometry":{"type":"Polygon","coordinates":[[[111.2222,-7.3646],[111.2259,-7.3642],[111.2255,-7.3736],[111.2266,-7.3741],[111.2245,-7.3817],[111.222,-7.3812],[111.2203,-7.3879],[111.2201,-7.3902],[111.2226,-7.3898],[111.2231,-7.3924],[111.2198,-7.3941],[111.2188,-7.3968],[111.2154,-7.3974],[111.2141,-7.4],[111.2161,-7.4023],[111.2131,-7.4032],[111.215,-7.4076],[111.2127,-7.4074],[111.2103,-7.4094],[111.2145,-7.41],[111.2145,-7.4138],[111.217,-7.4117],[111.2241,-7.4147],[111.2215,-7.4276],[111.22,-7.4282],[111.2165,-7.4257],[111.2153,-7.4217],[111.2115,-7.421],[111.2111,-7.4145],[111.2096,-7.4149],[111.2096,-7.418],[111.2066,-7.421],[111.2033,-7.4209],[111.2039,-7.4171],[111.2064,-7.4154],[111.206,-7.4116],[111.2081,-7.4107],[111.209,-7.3984],[111.2128,-7.3966],[111.213,-7.3942],[111.2103,-7.3899],[111.2112,-7.3853],[111.2143,-7.385],[111.2175,-7.3818],[111.218,-7.378],[111.2198,-7.3777],[111.22,-7.3704],[111.2225,-7.3692],[111.2222,-7.3646]]]}},{"type":"Feature","properties":{"name":"KarangBanyu","name_en":"KarangBanyu","admin_level":"7","osm_id":""},"geometry":{"type":"Polygon","coordinates":[[[111.2625,-7.3434],[111.2655,-7.3428],[111.2667,-7.3483],[111.2661,-7.3527],[111.2617,-7.3557],[111.2593,-7.3679],[111.2618,-7.3699],[111.2627,-7.3778],[111.2601,-7.3811],[111.2604,-7.3853],[111.2557,-7.3866],[111.2546,-7.3938],[111.2446,-7.4069],[111.2452,-7.4115],[111.2424,-7.424],[111.238,-7.4244],[111.2342,-7.4091],[111.2349,-7.4075],[111.2383,-7.4079],[111.2431,-7.3948],[111.2396,-7.3819],[111.2437,-7.3726],[111.25,-7.3687],[111.246,-7.3668],[111.2472,-7.3661],[111.2458,-7.3635],[111.248,-7.3592],[111.2566,-7.3524],[111.2565,-7.3444],[111.2625,-7.3434]]]}},{"type":"Feature","properties":{"name":"Kauman","name_en":"Kauman","admin_level":"7","osm_id":""},"geometry":{"type":"Polygon","coordinates":[[[111.2054,-7.3521],[111.2101,-7.3564],[111.2119,-7.3627],[111.2144,-7.3605],[111.2222,-7.3646],[111.2225,-7.3692],[111.2204,-7.3691],[111.2198,-7.3777],[111.218,-7.378],[111.2175,-7.3818],[111.2143,-7.385],[111.2112,-7.3853],[111.2103,-7.3899],[111.213,-7.395],[111.2126,-7.3975],[111.209,-7.3984],[111.2081,-7.4107],[111.2039,-7.4107],[111.201,-7.4179],[111.1985,-7.4181],[111.1971,-7.4176],[111.2005,-7.4029],[111.201,-7.3978],[111.1999,-7.3969],[111.2011,-7.3964],[111.1989,-7.3938],[111.2018,-7.392],[111.2007,-7.3902],[111.2037,-7.3853],[111.2042,-7.3805],[111.2098,-7.3738],[111.2034,-7.359],[111.2054,-7.3521]]]}},{"type":"Feature","properties":{"name":"Kayutrejo","name_en":"Kayutrejo","admin_level":"7","osm_id":""},"geometry":{"type":"Polygon","coordinates":[[[111.2203,-7.4455],[111.2198,-7.4367],[111.2179,-7.4318],[111.2215,-7.4276],[111.223,-7.4195],[111.2385,-7.4245],[111.2434,-7.4228],[111.2496,-7.4248],[111.2453,-7.4301],[111.2467,-7.4366],[111.2449,-7.4432],[111.2398,-7.4408],[111.24,-7.4436],[111.2378,-7.4458],[111.2328,-7.4433],[111.2323,-7.4394],[111.235,-7.4371],[111.235,-7.4348],[111.2288,-7.4318],[111.2286,-7.4366],[111.2236,-7.4417],[111.2228,-7.4454],[111.2203,-7.4455]]]}},{"type":"Feature","properties":{"name":"Kedunggudel","name_en":"Kedunggudel","admin_level":"7","osm_id":""},"geometry":{"type":"Polygon","coordinates":[[[111.22,-7.4397],[111.2143,-7.4371],[111.2128,-7.4421],[111.2147,-7.4479],[111.2144,-7.4541],[111.2121,-7.4541],[111.2094,-7.4593],[111.2056,-7.4558],[111.2024,-7.4572],[111.2025,-7.4537],[111.205,-7.4545],[111.2041,-7.452],[111.2059,-7.45],[111.2035,-7.4488],[111.2035,-7.4439],[111.2056,-7.4425],[111.205,-7.4356],[111.2079,-7.4349],[111.2049,-7.4329],[111.207,-7.4324],[111.2071,-7.4308],[111.203,-7.4303],[111.2031,-7.4233],[111.2037,-7.4213],[111.2059,-7.4214],[111.209,-7.4187],[111.21,-7.4147],[111.2112,-7.4149],[111.2115,-7.421],[111.2153,-7.4217],[111.2165,-7.4257],[111.22,-7.4282],[111.2179,-7.4321],[111.22,-7.4397]]]}},{"type":"Feature","properties":{"name":"SekarAlas","name_en":"SekarAlas","admin_level":"7","osm_id":""},"geometry":{"type":"Polygon","coordinates":[[[111.2203,-7.4685],[111.2196,-7.4671],[111.2224,-7.4607],[111.2214,-7.4588],[111.2228,-7.4574],[111.2202,-7.4499],[111.2203,-7.4455],[111.2228,-7.4454],[111.2236,-7.4417],[111.2286,-7.4366],[111.228,-7.4322],[111.2306,-7.4321],[111.235,-7.4348],[111.235,-7.4371],[111.2323,-7.4394],[111.2328,-7.4433],[111.2378,-7.4458],[111.24,-7.4436],[111.2398,-7.4408],[111.2449,-7.4432],[111.2414,-7.4516],[111.2437,-7.4601],[111.2298,-7.4702],[111.2203,-7.4685]]]}},{"type":"Feature","properties":{"name":"SekarPutih","name_en":"SekarPutih","admin_level":"7","osm_id":""},"geometry":{"type":"Polygon","coordinates":[[[111.2641,-7.4507],[111.2615,-7.4574],[111.259,-7.4608],[111.2576,-7.4603],[111.2584,-7.4683],[111.2569,-7.4711],[111.2513,-7.4713],[111.2495,-7.4699],[111.2498,-7.4679],[111.2404,-7.463],[111.2437,-7.4601],[111.2414,-7.4516],[111.2465,-7.4391],[111.2453,-7.4301],[111.2496,-7.4248],[111.2724,-7.4274],[111.2691,-7.4339],[111.2693,-7.4437],[111.2675,-7.4465],[111.2658,-7.4466],[111.2641,-7.4507]]]}},{"type":"Feature","properties":{"name":"Sidolaju","name_en":"Sidolaju","admin_level":"7","osm_id":""},"geometry":{"type":"Polygon","coordinates":[[[111.2661,-7.3527],[111.269,-7.3543],[111.2696,-7.3574],[111.2725,-7.3558],[111.2778,-7.3559],[111.2869,-7.3508],[111.2893,-7.3512],[111.2968,-7.3592],[111.3011,-7.3667],[111.3006,-7.3721],[111.2965,-7.3699],[111.2908,-7.3705],[111.2869,-7.3757],[111.283,-7.3724],[111.2781,-7.3789],[111.2736,-7.3942],[111.2766,-7.4095],[111.2473,-7.4023],[111.2508,-7.4],[111.2546,-7.3938],[111.2557,-7.3866],[111.2606,-7.3847],[111.2601,-7.3811],[111.2627,-7.3776],[111.2618,-7.3699],[111.2593,-7.3679],[111.2617,-7.3557],[111.2661,-7.3527]]]}},{"type":"Feature","properties":{"name":"Sidomakmur","name_en":"Sidomakmur","admin_level":"7","osm_id":""},"geometry":{"type":"Polygon","coordinates":[[[111.2726,-7.4259],[111.2724,-7.4274],[111.2552,-7.4259],[111.243,-7.4228],[111.2452,-7.4115],[111.2446,-7.4069],[111.2473,-7.4023],[111.2766,-7.4095],[111.2756,-7.4206],[111.2726,-7.4259]]]}},{"type":"Feature","properties":{"name":"Walikukun","name_en":"Walikukun","admin_level":"7","osm_id":""},"geometry":{"type":"Polygon","coordinates":[[[111.223,-7.4195],[111.224,-7.4145],[111.217,-7.4117],[111.2145,-7.4138],[111.2145,-7.41],[111.2103,-7.4094],[111.2127,-7.4074],[111.215,-7.4076],[111.2131,-7.4032],[111.2161,-7.4023],[111.2141,-7.4],[111.2156,-7.3972],[111.2188,-7.3968],[111.2198,-7.3941],[111.2247,-7.3927],[111.2259,-7.3904],[111.2303,-7.3894],[111.2303,-7.3921],[111.2317,-7.3929],[111.2298,-7.3949],[111.2305,-7.3979],[111.2405,-7.4013],[111.2383,-7.4079],[111.2349,-7.4075],[111.2342,-7.4091],[111.2379,-7.4241],[111.223,-7.4195]]]}},{"type":"Feature","properties":{"name":"Widodaren","name_en":"Widodaren","admin_level":"7","osm_id":""},"geometry":{"type":"Polygon","coordinates":[[[111.2296,-7.365],[111.25,-7.3684],[111.2437,-7.3726],[111.2396,-7.3819],[111.2431,-7.3948],[111.2405,-7.4011],[111.2305,-7.3979],[111.2298,-7.3949],[111.2317,-7.3929],[111.2303,-7.3921],[111.2303,-7.3894],[111.2259,-7.3904],[111.2247,-7.3927],[111.223,-7.3925],[111.2226,-7.3898],[111.22,-7.3899],[111.222,-7.3812],[111.2245,-7.3817],[111.2266,-7.3755],[111.2259,-7.3642],[111.2296,-7.365]]]}}]}