{"type":"FeatureCollection","metadata":{"parent_osm_id":"gid_IDN_22_11_1_1","parent_name":"Duairi","parent_name_1":"PapuaBarat","parent_gid":"IDN.22.11.1_1","parent_level":"6","child_level":"7","count":4,"source":"GADM 4.1","generated":"2026-05-08"},"features":[{"type":"Feature","properties":{"name":"Aisandami","name_en":"Aisandami","admin_level":"7","osm_id":""},"geometry":{"type":"Polygon","coordinates":[[[134.5435,-2.5602],[134.5359,-2.5536],[134.5282,-2.5265],[134.5284,-2.5172],[134.5126,-2.486],[134.5375,-2.4881],[134.5502,-2.4959],[134.5526,-2.4951],[134.5531,-2.4926],[134.5474,-2.4897],[134.5486,-2.4866],[134.554,-2.4849],[134.5653,-2.489],[134.5676,-2.4876],[134.5695,-2.4827],[134.5613,-2.4813],[134.5527,-2.4776],[134.5455,-2.4777],[134.5354,-2.4811],[134.5226,-2.476],[134.5202,-2.476],[134.5159,-2.4793],[134.5129,-2.4775],[134.5143,-2.4715],[134.5187,-2.4675],[134.5211,-2.4673],[134.5276,-2.4705],[134.5378,-2.471],[134.5456,-2.4751],[134.5511,-2.4749],[134.5503,-2.4723],[134.5442,-2.4671],[134.5339,-2.4628],[134.5324,-2.4605],[134.5329,-2.4572],[134.5299,-2.4539],[134.5307,-2.452],[134.5565,-2.4584],[134.5638,-2.458],[134.5719,-2.4646],[134.5698,-2.4726],[134.5705,-2.4764],[134.5763,-2.4799],[134.5744,-2.4999],[134.5836,-2.533],[134.586,-2.558],[134.58,-2.5569],[134.5513,-2.5683],[134.5435,-2.5602]]]}},{"type":"Feature","properties":{"name":"Sobei","name_en":"Sobei","admin_level":"7","osm_id":""},"geometry":{"type":"Polygon","coordinates":[[[134.5359,-2.5536],[134.5539,-2.5711],[134.5742,-2.5999],[134.567,-2.5997],[134.5456,-2.5945],[134.5301,-2.598],[134.4923,-2.6003],[134.4721,-2.6054],[134.4702,-2.6022],[134.4637,-2.5997],[134.4596,-2.594],[134.459,-2.5716],[134.4631,-2.5575],[134.4595,-2.5521],[134.4622,-2.5517],[134.4638,-2.5497],[134.4708,-2.5507],[134.4804,-2.5554],[134.501,-2.5528],[134.509,-2.5543],[134.5359,-2.5536]]]}},{"type":"Feature","properties":{"name":"SobeiIndah","name_en":"SobeiIndah","admin_level":"7","osm_id":""},"geometry":{"type":"Polygon","coordinates":[[[134.5126,-2.486],[134.5284,-2.5172],[134.5282,-2.5265],[134.5359,-2.5536],[134.509,-2.5543],[134.501,-2.5528],[134.4804,-2.5554],[134.4708,-2.5507],[134.4638,-2.5497],[134.4731,-2.5271],[134.4839,-2.5178],[134.4896,-2.5169],[134.4857,-2.5126],[134.4873,-2.5097],[134.5077,-2.489],[134.5126,-2.486]]]}},{"type":"Feature","properties":{"name":"Yopenggar","name_en":"Yopenggar","admin_level":"7","osm_id":""},"geometry":{"type":"Polygon","coordinates":[[[134.5513,-2.5683],[134.58,-2.5569],[134.586,-2.558],[134.5836,-2.533],[134.5744,-2.4999],[134.5763,-2.4799],[134.5988,-2.4891],[134.6139,-2.6157],[134.5783,-2.6035],[134.5742,-2.5999],[134.5624,-2.5816],[134.5513,-2.5683]]]}}]}