{"type":"FeatureCollection","metadata":{"parent_osm_id":"gid_IDN_9_20_16_1","parent_name":"Jalaksana","parent_name_1":"JawaBarat","parent_gid":"IDN.9.20.16_1","parent_level":"6","child_level":"7","count":14,"source":"GADM 4.1","generated":"2026-05-09"},"features":[{"type":"Feature","properties":{"name":"Babakanmulya","name_en":"Babakanmulya","admin_level":"7","osm_id":""},"geometry":{"type":"Polygon","coordinates":[[[108.4188,-6.918],[108.4113,-6.9122],[108.4089,-6.9023],[108.4343,-6.9113],[108.447,-6.9128],[108.4543,-6.916],[108.463,-6.9135],[108.463,-6.9206],[108.4735,-6.9221],[108.4797,-6.9202],[108.4792,-6.9231],[108.482,-6.9259],[108.4817,-6.9306],[108.4789,-6.9301],[108.4784,-6.9278],[108.4684,-6.9266],[108.4501,-6.9204],[108.4407,-6.9212],[108.4188,-6.918]]]}},{"type":"Feature","properties":{"name":"Ciniru","name_en":"Ciniru","admin_level":"7","osm_id":""},"geometry":{"type":"Polygon","coordinates":[[[108.4932,-6.913],[108.4968,-6.9106],[108.51,-6.9149],[108.5132,-6.9144],[108.5122,-6.9165],[108.507,-6.9179],[108.5023,-6.9213],[108.4975,-6.9185],[108.4923,-6.9186],[108.4932,-6.913]]]}},{"type":"Feature","properties":{"name":"Jalaksana","name_en":"Jalaksana","admin_level":"7","osm_id":""},"geometry":{"type":"Polygon","coordinates":[[[108.4817,-6.9306],[108.4818,-6.925],[108.479,-6.9221],[108.4801,-6.9193],[108.4806,-6.9209],[108.4866,-6.92],[108.4891,-6.924],[108.489,-6.9291],[108.4817,-6.9306]]]}},{"type":"Feature","properties":{"name":"Maniskidul","name_en":"Maniskidul","admin_level":"7","osm_id":""},"geometry":{"type":"Polygon","coordinates":[[[108.4968,-6.9106],[108.4891,-6.9142],[108.486,-6.9126],[108.4841,-6.9138],[108.482,-6.9105],[108.4818,-6.9046],[108.4918,-6.9067],[108.4921,-6.9049],[108.4996,-6.9039],[108.4968,-6.9106]]]}},{"type":"Feature","properties":{"name":"Manislor","name_en":"Manislor","admin_level":"7","osm_id":""},"geometry":{"type":"Polygon","coordinates":[[[108.4967,-6.9],[108.4996,-6.9039],[108.4921,-6.9049],[108.4918,-6.9067],[108.482,-6.9043],[108.4801,-6.9002],[108.4868,-6.9001],[108.4943,-6.8976],[108.4967,-6.9]]]}},{"type":"Feature","properties":{"name":"Padamenak","name_en":"Padamenak","admin_level":"7","osm_id":""},"geometry":{"type":"Polygon","coordinates":[[[108.4932,-6.913],[108.4914,-6.923],[108.4891,-6.924],[108.4863,-6.9199],[108.4881,-6.9146],[108.4932,-6.913]]]}},{"type":"Feature","properties":{"name":"Peusing","name_en":"Peusing","admin_level":"7","osm_id":""},"geometry":{"type":"Polygon","coordinates":[[[108.4656,-6.8943],[108.4763,-6.892],[108.4804,-6.901],[108.4745,-6.9037],[108.4685,-6.904],[108.4699,-6.9035],[108.4696,-6.8997],[108.4659,-6.8976],[108.4656,-6.8943]]]}},{"type":"Feature","properties":{"name":"Sadamantra","name_en":"Sadamantra","admin_level":"7","osm_id":""},"geometry":{"type":"Polygon","coordinates":[[[108.4797,-6.9202],[108.4735,-6.9221],[108.463,-6.9206],[108.463,-6.9135],[108.467,-6.9149],[108.4721,-6.9134],[108.4827,-6.9142],[108.4876,-6.9129],[108.4885,-6.9141],[108.4866,-6.9198],[108.4797,-6.9202]]]}},{"type":"Feature","properties":{"name":"Sangkanerang","name_en":"Sangkanerang","admin_level":"7","osm_id":""},"geometry":{"type":"Polygon","coordinates":[[[108.4089,-6.9023],[108.4075,-6.8961],[108.419,-6.8999],[108.465,-6.9057],[108.4629,-6.9138],[108.4543,-6.916],[108.447,-6.9128],[108.4343,-6.9113],[108.4089,-6.9023]]]}},{"type":"Feature","properties":{"name":"Sayana","name_en":"Sayana","admin_level":"7","osm_id":""},"geometry":{"type":"Polygon","coordinates":[[[108.4075,-6.8961],[108.4072,-6.895],[108.4466,-6.8999],[108.4554,-6.8984],[108.4656,-6.8943],[108.4659,-6.8976],[108.4696,-6.8997],[108.4701,-6.9024],[108.4681,-6.9044],[108.4664,-6.9036],[108.4642,-6.9056],[108.4608,-6.9058],[108.419,-6.8999],[108.4075,-6.8961]]]}},{"type":"Feature","properties":{"name":"Sembawa","name_en":"Sembawa","admin_level":"7","osm_id":""},"geometry":{"type":"Polygon","coordinates":[[[108.482,-6.9043],[108.482,-6.9105],[108.4841,-6.9138],[108.4721,-6.9134],[108.467,-6.9149],[108.463,-6.9135],[108.4664,-6.9036],[108.473,-6.904],[108.4804,-6.901],[108.482,-6.9043]]]}},{"type":"Feature","properties":{"name":"Sidamulya","name_en":"Sidamulya","admin_level":"7","osm_id":""},"geometry":{"type":"Polygon","coordinates":[[[108.4533,-6.9216],[108.4684,-6.9266],[108.4784,-6.9278],[108.4789,-6.9301],[108.464,-6.9323],[108.4553,-6.9252],[108.4533,-6.9216]]]}},{"type":"Feature","properties":{"name":"Sindangbarang","name_en":"Sindangbarang","admin_level":"7","osm_id":""},"geometry":{"type":"Polygon","coordinates":[[[108.5274,-6.9363],[108.5241,-6.9387],[108.5242,-6.9434],[108.5235,-6.942],[108.5141,-6.9409],[108.5148,-6.9395],[108.51,-6.9343],[108.508,-6.9294],[108.5064,-6.9293],[108.5063,-6.9262],[108.5023,-6.9213],[108.5052,-6.9193],[108.5109,-6.925],[108.5132,-6.9296],[108.5146,-6.9289],[108.5154,-6.9307],[108.5259,-6.9343],[108.5274,-6.9363]]]}},{"type":"Feature","properties":{"name":"Sukamukti","name_en":"Sukamukti","admin_level":"7","osm_id":""},"geometry":{"type":"Polygon","coordinates":[[[108.4452,-6.9385],[108.4388,-6.9357],[108.4298,-6.9376],[108.4253,-6.9358],[108.4212,-6.931],[108.4209,-6.9232],[108.4188,-6.918],[108.4407,-6.9212],[108.4501,-6.9204],[108.4533,-6.9216],[108.4553,-6.9252],[108.4647,-6.9321],[108.4615,-6.9346],[108.455,-6.9349],[108.4452,-6.9385]]]}}]}