{"type":"FeatureCollection","metadata":{"parent_osm_id":"gid_IDN_26_24_13_1","parent_name":"Sajoanging","parent_name_1":"SulawesiSelatan","parent_gid":"IDN.26.24.13_1","parent_level":"6","child_level":"7","count":9,"source":"GADM 4.1","generated":"2026-05-08"},"features":[{"type":"Feature","properties":{"name":"Akkajeng","name_en":"Akkajeng","admin_level":"7","osm_id":""},"geometry":{"type":"Polygon","coordinates":[[[120.348,-4.0708],[120.3364,-4.0646],[120.3346,-4.0607],[120.3351,-4.0558],[120.3328,-4.0553],[120.3338,-4.0534],[120.3293,-4.0529],[120.328,-4.051],[120.329,-4.0472],[120.3273,-4.0447],[120.3168,-4.0399],[120.3123,-4.0332],[120.3147,-4.0288],[120.3105,-4.0208],[120.3306,-4.0182],[120.3343,-4.0128],[120.332,-4.0115],[120.3328,-4.0081],[120.3353,-4.0049],[120.3401,-4.0039],[120.3444,-3.9988],[120.3489,-4.01],[120.3526,-4.0146],[120.3589,-4.0182],[120.361,-4.0215],[120.3599,-4.0253],[120.3568,-4.0258],[120.3569,-4.0287],[120.3539,-4.0321],[120.3553,-4.0364],[120.3539,-4.0411],[120.3564,-4.0435],[120.3576,-4.0491],[120.3569,-4.0523],[120.3545,-4.0537],[120.3567,-4.0566],[120.3559,-4.0649],[120.348,-4.0708]]]}},{"type":"Feature","properties":{"name":"Akkotengeng","name_en":"Akkotengeng","admin_level":"7","osm_id":""},"geometry":{"type":"Polygon","coordinates":[[[120.2843,-4.0042],[120.2778,-4.003],[120.2762,-4.0005],[120.2741,-3.9852],[120.2742,-3.9836],[120.2841,-3.9794],[120.2828,-3.977],[120.285,-3.9744],[120.2828,-3.9719],[120.2852,-3.9727],[120.2905,-3.9705],[120.294,-3.9736],[120.2933,-3.9758],[120.2967,-3.9758],[120.2947,-3.977],[120.2956,-3.9778],[120.3151,-3.9716],[120.328,-3.9709],[120.3323,-3.9672],[120.3408,-3.9673],[120.3454,-3.9607],[120.3523,-3.9703],[120.3528,-3.9787],[120.3518,-3.981],[120.3498,-3.9813],[120.3512,-3.9828],[120.3505,-3.9861],[120.3428,-3.9949],[120.3318,-3.9944],[120.3097,-3.9968],[120.305,-3.9979],[120.3,-4.0036],[120.2952,-4.0014],[120.2843,-4.0042]]]}},{"type":"Feature","properties":{"name":"Alewadeng","name_en":"Alewadeng","admin_level":"7","osm_id":""},"geometry":{"type":"Polygon","coordinates":[[[120.3454,-3.9607],[120.3408,-3.9673],[120.3323,-3.9672],[120.328,-3.9709],[120.3151,-3.9716],[120.2953,-3.9778],[120.2967,-3.9758],[120.2933,-3.9758],[120.294,-3.9736],[120.2905,-3.9705],[120.2852,-3.9727],[120.2818,-3.9715],[120.2801,-3.9666],[120.2731,-3.9599],[120.2755,-3.9538],[120.2727,-3.9461],[120.2767,-3.9388],[120.2808,-3.9386],[120.2948,-3.9446],[120.3012,-3.9541],[120.3066,-3.9579],[120.3099,-3.9581],[120.333,-3.9512],[120.3357,-3.948],[120.3394,-3.9471],[120.3454,-3.9607]]]}},{"type":"Feature","properties":{"name":"Assorajang","name_en":"Assorajang","admin_level":"7","osm_id":""},"geometry":{"type":"Polygon","coordinates":[[[120.301,-4.0672],[120.2996,-4.0725],[120.2959,-4.0751],[120.2728,-4.0642],[120.2842,-4.0444],[120.292,-4.045],[120.2978,-4.0416],[120.3012,-4.0336],[120.3023,-4.0215],[120.3105,-4.0208],[120.3147,-4.0288],[120.3128,-4.0342],[120.3172,-4.0404],[120.3251,-4.0429],[120.3292,-4.0481],[120.3256,-4.0537],[120.3225,-4.0523],[120.3117,-4.0554],[120.3052,-4.0545],[120.301,-4.0672]]]}},{"type":"Feature","properties":{"name":"Barangmamase","name_en":"Barangmamase","admin_level":"7","osm_id":""},"geometry":{"type":"Polygon","coordinates":[[[120.2668,-3.9174],[120.2868,-3.9229],[120.3049,-3.9152],[120.3412,-3.915],[120.3359,-3.9377],[120.3394,-3.9471],[120.3357,-3.948],[120.333,-3.9512],[120.3099,-3.9581],[120.3066,-3.9579],[120.3012,-3.9541],[120.2948,-3.9446],[120.2808,-3.9386],[120.2767,-3.9388],[120.2727,-3.9461],[120.2617,-3.9433],[120.261,-3.9373],[120.2577,-3.9303],[120.2568,-3.9176],[120.2575,-3.9163],[120.2668,-3.9174]]]}},{"type":"Feature","properties":{"name":"Minangae","name_en":"Minangae","admin_level":"7","osm_id":""},"geometry":{"type":"Polygon","coordinates":[[[120.3023,-4.0215],[120.3035,-4.0068],[120.3,-4.0036],[120.305,-3.9979],[120.3318,-3.9944],[120.3404,-3.9948],[120.3422,-3.9962],[120.3428,-4.0],[120.3401,-4.0039],[120.3353,-4.0049],[120.3328,-4.0081],[120.332,-4.0115],[120.3343,-4.0128],[120.3306,-4.0182],[120.3023,-4.0215]]]}},{"type":"Feature","properties":{"name":"Sakkoli","name_en":"Sakkoli","admin_level":"7","osm_id":""},"geometry":{"type":"Polygon","coordinates":[[[120.2247,-3.9156],[120.2434,-3.9143],[120.2591,-3.9087],[120.2668,-3.9174],[120.2575,-3.9163],[120.2568,-3.9176],[120.2577,-3.9303],[120.2615,-3.9391],[120.2616,-3.9479],[120.2595,-3.9546],[120.2517,-3.9567],[120.2413,-3.9554],[120.2376,-3.9515],[120.2331,-3.9545],[120.2265,-3.9557],[120.2251,-3.9612],[120.2208,-3.9627],[120.2178,-3.9725],[120.2164,-3.9729],[120.215,-3.9703],[120.209,-3.9744],[120.2062,-3.9719],[120.2071,-3.9699],[120.2088,-3.9709],[120.2088,-3.9695],[120.2061,-3.9693],[120.204,-3.9714],[120.2045,-3.9642],[120.2018,-3.9554],[120.2117,-3.9429],[120.2087,-3.9334],[120.2135,-3.9171],[120.2155,-3.9157],[120.2247,-3.9156]]]}},{"type":"Feature","properties":{"name":"Salobulo","name_en":"Salobulo","admin_level":"7","osm_id":""},"geometry":{"type":"Polygon","coordinates":[[[120.259,-3.998],[120.2601,-3.9875],[120.2583,-3.9801],[120.2587,-3.9617],[120.2617,-3.9433],[120.2635,-3.9433],[120.2735,-3.9467],[120.2755,-3.9546],[120.2731,-3.9599],[120.2793,-3.9656],[120.2818,-3.9715],[120.285,-3.9744],[120.2828,-3.977],[120.2841,-3.9794],[120.2742,-3.9836],[120.2751,-3.9956],[120.2775,-4.0027],[120.2662,-3.9965],[120.259,-3.998]]]}},{"type":"Feature","properties":{"name":"Towalida","name_en":"Towalida","admin_level":"7","osm_id":""},"geometry":{"type":"Polygon","coordinates":[[[120.2408,-3.986],[120.2407,-3.9835],[120.2389,-3.9826],[120.2353,-3.985],[120.232,-3.9836],[120.2332,-3.978],[120.2311,-3.9794],[120.2282,-3.9781],[120.2308,-3.9771],[120.2304,-3.9717],[120.226,-3.9708],[120.2214,-3.9726],[120.2203,-3.9753],[120.2212,-3.9619],[120.2251,-3.9612],[120.2265,-3.9557],[120.2331,-3.9545],[120.2368,-3.9516],[120.2403,-3.9531],[120.2413,-3.9554],[120.2473,-3.9564],[120.2595,-3.9546],[120.2583,-3.9782],[120.2552,-3.9806],[120.2516,-3.9795],[120.2501,-3.9812],[120.25,-3.9786],[120.2482,-3.9785],[120.2461,-3.9801],[120.2457,-3.9831],[120.242,-3.9837],[120.2408,-3.986]]]}}]}