{"type":"FeatureCollection","metadata":{"parent_osm_id":"gid_IDN_8_2_6_1","parent_name":"JujuhanIlir","parent_name_1":"Jambi","parent_gid":"IDN.8.2.6_1","parent_level":"6","child_level":"7","count":7,"source":"GADM 4.1","generated":"2026-05-08"},"features":[{"type":"Feature","properties":{"name":"AurGading","name_en":"AurGading","admin_level":"7","osm_id":""},"geometry":{"type":"Polygon","coordinates":[[[101.8537,-1.2372],[101.8557,-1.2425],[101.8617,-1.25],[101.874,-1.2589],[101.8914,-1.2792],[101.8893,-1.2814],[101.8864,-1.2941],[101.8773,-1.2821],[101.8637,-1.2697],[101.8534,-1.2564],[101.852,-1.2457],[101.8537,-1.2372]]]}},{"type":"Feature","properties":{"name":"BukitSari","name_en":"BukitSari","admin_level":"7","osm_id":""},"geometry":{"type":"Polygon","coordinates":[[[101.8923,-1.1355],[101.8965,-1.1361],[101.9061,-1.1416],[101.9084,-1.1458],[101.8818,-1.1805],[101.8687,-1.1815],[101.8548,-1.1804],[101.8488,-1.1765],[101.8639,-1.1586],[101.8663,-1.1513],[101.8715,-1.1486],[101.876,-1.1403],[101.8822,-1.1378],[101.8846,-1.1349],[101.8891,-1.1383],[101.8919,-1.1372],[101.8923,-1.1355]]]}},{"type":"Feature","properties":{"name":"Kuamang","name_en":"Kuamang","admin_level":"7","osm_id":""},"geometry":{"type":"Polygon","coordinates":[[[101.893,-1.1653],[101.9084,-1.1458],[101.9061,-1.1416],[101.8965,-1.1361],[101.8923,-1.1355],[101.8931,-1.1323],[101.8884,-1.1289],[101.8884,-1.1229],[101.8906,-1.1216],[101.9046,-1.1285],[101.9112,-1.1389],[101.9146,-1.1402],[101.9188,-1.139],[101.9216,-1.1308],[101.9235,-1.1295],[101.9221,-1.1437],[101.9184,-1.1534],[101.9106,-1.1616],[101.893,-1.1653]]]}},{"type":"Feature","properties":{"name":"LubukTenam","name_en":"LubukTenam","admin_level":"7","osm_id":""},"geometry":{"type":"Polygon","coordinates":[[[101.8914,-1.2792],[101.874,-1.2589],[101.8617,-1.25],[101.8557,-1.2425],[101.8537,-1.2372],[101.8791,-1.2297],[101.8851,-1.2452],[101.8895,-1.2493],[101.901,-1.2547],[101.9053,-1.259],[101.9037,-1.2622],[101.9037,-1.271],[101.8952,-1.2783],[101.8914,-1.2792]]]}},{"type":"Feature","properties":{"name":"PulauBatu","name_en":"PulauBatu","admin_level":"7","osm_id":""},"geometry":{"type":"Polygon","coordinates":[[[101.8488,-1.1762],[101.8548,-1.1804],[101.8815,-1.1807],[101.8864,-1.1741],[101.9003,-1.1748],[101.9044,-1.172],[101.9114,-1.1722],[101.9243,-1.1697],[101.9374,-1.1634],[101.9492,-1.1638],[101.9582,-1.166],[101.9575,-1.1755],[101.9513,-1.1898],[101.9453,-1.197],[101.9474,-1.2084],[101.9526,-1.2145],[101.9719,-1.2146],[101.9667,-1.232],[101.9624,-1.2351],[101.9633,-1.2426],[101.9621,-1.252],[101.9553,-1.2562],[101.922,-1.2557],[101.9053,-1.259],[101.901,-1.2547],[101.8895,-1.2493],[101.8851,-1.2452],[101.8791,-1.2297],[101.8537,-1.2372],[101.8471,-1.2231],[101.8446,-1.2031],[101.8406,-1.1973],[101.8353,-1.1935],[101.8488,-1.1762]]]}},{"type":"Feature","properties":{"name":"SariMulya","name_en":"SariMulya","admin_level":"7","osm_id":""},"geometry":{"type":"Polygon","coordinates":[[[101.8864,-1.1741],[101.893,-1.1653],[101.9106,-1.1616],[101.9184,-1.1534],[101.9221,-1.1437],[101.9235,-1.1293],[101.9347,-1.1284],[101.9473,-1.1319],[101.9489,-1.1362],[101.939,-1.1429],[101.9402,-1.1457],[101.9464,-1.1465],[101.9565,-1.1378],[101.9658,-1.1383],[101.9677,-1.1397],[101.9626,-1.1531],[101.9645,-1.1538],[101.9698,-1.1502],[101.9721,-1.1571],[101.97,-1.1633],[101.9657,-1.1675],[101.9492,-1.1638],[101.9374,-1.1634],[101.9243,-1.1697],[101.9114,-1.1722],[101.9044,-1.172],[101.9003,-1.1748],[101.8864,-1.1741]]]}},{"type":"Feature","properties":{"name":"TepianDanto","name_en":"TepianDanto","admin_level":"7","osm_id":""},"geometry":{"type":"Polygon","coordinates":[[[101.8537,-1.2372],[101.852,-1.2457],[101.8534,-1.2564],[101.8637,-1.2697],[101.8773,-1.2821],[101.8864,-1.2941],[101.8804,-1.3],[101.8672,-1.2928],[101.8581,-1.2848],[101.8484,-1.2751],[101.8389,-1.2602],[101.8358,-1.2524],[101.8343,-1.2373],[101.8259,-1.2212],[101.824,-1.2124],[101.8242,-1.2073],[101.8353,-1.1935],[101.8406,-1.1973],[101.8446,-1.2031],[101.8471,-1.2231],[101.8537,-1.2372]]]}}]}