{"type":"FeatureCollection","metadata":{"parent_osm_id":"gid_IDN_31_14_2_1","parent_name":"BukitKecil","parent_name_1":"SumateraSelatan","parent_gid":"IDN.31.14.2_1","parent_level":"6","child_level":"7","count":6,"source":"GADM 4.1","generated":"2026-05-08"},"features":[{"type":"Feature","properties":{"name":"19Ilir","name_en":"19Ilir","admin_level":"7","osm_id":""},"geometry":{"type":"Polygon","coordinates":[[[104.7593,-2.9947],[104.7573,-2.9884],[104.7603,-2.9866],[104.7633,-2.9916],[104.7593,-2.9947]]]}},{"type":"Feature","properties":{"name":"22Ilir","name_en":"22Ilir","admin_level":"7","osm_id":""},"geometry":{"type":"Polygon","coordinates":[[[104.7579,-2.9869],[104.7593,-2.9947],[104.758,-2.9956],[104.7549,-2.9895],[104.7565,-2.9876],[104.7555,-2.9869],[104.7579,-2.9869]]]}},{"type":"Feature","properties":{"name":"23Ilir","name_en":"23Ilir","admin_level":"7","osm_id":""},"geometry":{"type":"Polygon","coordinates":[[[104.7555,-2.9869],[104.7565,-2.9876],[104.7549,-2.9895],[104.7536,-2.9869],[104.7555,-2.9869]]]}},{"type":"Feature","properties":{"name":"24Ilir","name_en":"24Ilir","admin_level":"7","osm_id":""},"geometry":{"type":"Polygon","coordinates":[[[104.758,-2.9869],[104.7536,-2.9869],[104.7463,-2.9802],[104.749,-2.9796],[104.7515,-2.9821],[104.7552,-2.9795],[104.7578,-2.9835],[104.758,-2.9869]]]}},{"type":"Feature","properties":{"name":"26Ilir","name_en":"26Ilir","admin_level":"7","osm_id":""},"geometry":{"type":"Polygon","coordinates":[[[104.7536,-2.9869],[104.7541,-2.9881],[104.7442,-2.9867],[104.7463,-2.9802],[104.7536,-2.9869]]]}},{"type":"Feature","properties":{"name":"TalangSemut","name_en":"TalangSemut","admin_level":"7","osm_id":""},"geometry":{"type":"Polygon","coordinates":[[[104.7549,-2.9895],[104.7562,-2.9918],[104.7539,-2.9928],[104.7521,-2.9916],[104.7496,-2.9943],[104.7442,-2.9926],[104.7436,-2.9885],[104.7442,-2.9867],[104.7543,-2.9881],[104.7549,-2.9895]]]}}]}