{"type":"FeatureCollection","metadata":{"parent_osm_id":"gid_IDN_21_21_16_1","parent_name":"KotaKefamenanu","parent_name_1":"NusaTenggaraTimur","parent_gid":"IDN.21.21.16_1","parent_level":"6","child_level":"7","count":9,"source":"GADM 4.1","generated":"2026-05-09"},"features":[{"type":"Feature","properties":{"name":"Aplasi","name_en":"Aplasi","admin_level":"7","osm_id":""},"geometry":{"type":"Polygon","coordinates":[[[124.4924,-9.4437],[124.4842,-9.443],[124.4826,-9.4388],[124.4759,-9.4387],[124.4761,-9.4348],[124.4787,-9.4343],[124.4805,-9.4313],[124.479,-9.4241],[124.4886,-9.4216],[124.4942,-9.4238],[124.5,-9.4166],[124.5043,-9.4207],[124.5189,-9.4226],[124.5114,-9.4312],[124.5017,-9.4358],[124.4988,-9.44],[124.4928,-9.4397],[124.4924,-9.4437]]]}},{"type":"Feature","properties":{"name":"Bansone","name_en":"Bansone","admin_level":"7","osm_id":""},"geometry":{"type":"Polygon","coordinates":[[[124.4652,-9.4658],[124.4613,-9.4643],[124.4589,-9.4607],[124.4564,-9.4629],[124.4536,-9.4621],[124.4518,-9.4634],[124.4472,-9.4607],[124.4498,-9.4495],[124.4538,-9.4447],[124.454,-9.44],[124.4614,-9.4397],[124.4647,-9.438],[124.4759,-9.4387],[124.4739,-9.4447],[124.475,-9.447],[124.4728,-9.4499],[124.4738,-9.4523],[124.4694,-9.4552],[124.4707,-9.4558],[124.4669,-9.4596],[124.4652,-9.4658]]]}},{"type":"Feature","properties":{"name":"Benpasi","name_en":"Benpasi","admin_level":"7","osm_id":""},"geometry":{"type":"Polygon","coordinates":[[[124.4652,-9.4658],[124.4666,-9.4602],[124.4698,-9.4573],[124.4709,-9.4533],[124.4774,-9.4525],[124.481,-9.4675],[124.4738,-9.4699],[124.4714,-9.4671],[124.4652,-9.4658]]]}},{"type":"Feature","properties":{"name":"KefamenanuSelatan","name_en":"KefamenanuSelatan","admin_level":"7","osm_id":""},"geometry":{"type":"Polygon","coordinates":[[[124.4769,-9.4684],[124.481,-9.4675],[124.4774,-9.4525],[124.4797,-9.4513],[124.4925,-9.4519],[124.4951,-9.4582],[124.495,-9.4641],[124.4896,-9.4691],[124.487,-9.4758],[124.4814,-9.4757],[124.4791,-9.4772],[124.4769,-9.4684]]]}},{"type":"Feature","properties":{"name":"KefamenanuTengah","name_en":"KefamenanuTengah","admin_level":"7","osm_id":""},"geometry":{"type":"Polygon","coordinates":[[[124.4759,-9.4387],[124.4826,-9.4388],[124.4842,-9.443],[124.4924,-9.4437],[124.4925,-9.4519],[124.4797,-9.4513],[124.4759,-9.4534],[124.4741,-9.4526],[124.4726,-9.4508],[124.475,-9.447],[124.4739,-9.4447],[124.4759,-9.4387]]]}},{"type":"Feature","properties":{"name":"KefamenanuUtara","name_en":"KefamenanuUtara","admin_level":"7","osm_id":""},"geometry":{"type":"Polygon","coordinates":[[[124.4647,-9.438],[124.464,-9.4246],[124.479,-9.4241],[124.4805,-9.4313],[124.4787,-9.4343],[124.4761,-9.4348],[124.4759,-9.4387],[124.4647,-9.438]]]}},{"type":"Feature","properties":{"name":"Maubeli","name_en":"Maubeli","admin_level":"7","osm_id":""},"geometry":{"type":"Polygon","coordinates":[[[124.4817,-9.498],[124.4668,-9.4914],[124.461,-9.4808],[124.4596,-9.4743],[124.462,-9.4684],[124.4652,-9.4658],[124.4714,-9.4671],[124.4738,-9.4699],[124.4773,-9.4686],[124.4785,-9.4708],[124.4774,-9.4742],[124.4794,-9.4773],[124.4814,-9.4757],[124.488,-9.4762],[124.4868,-9.4789],[124.4881,-9.4808],[124.4917,-9.4784],[124.4968,-9.4833],[124.5004,-9.4831],[124.4998,-9.4848],[124.5082,-9.4857],[124.5067,-9.4883],[124.5088,-9.4923],[124.5075,-9.4972],[124.5018,-9.4983],[124.497,-9.4968],[124.4951,-9.4937],[124.4921,-9.4934],[124.4855,-9.4943],[124.4817,-9.498]]]}},{"type":"Feature","properties":{"name":"Sasi","name_en":"Sasi","admin_level":"7","osm_id":""},"geometry":{"type":"Polygon","coordinates":[[[124.5419,-9.5267],[124.5357,-9.5224],[124.522,-9.5194],[124.5123,-9.5147],[124.5,-9.5136],[124.4918,-9.515],[124.4779,-9.5099],[124.4828,-9.5],[124.4817,-9.498],[124.4855,-9.4943],[124.4921,-9.4934],[124.4951,-9.4937],[124.497,-9.4968],[124.5018,-9.4983],[124.5049,-9.4984],[124.5093,-9.4958],[124.5124,-9.4985],[124.5145,-9.4968],[124.5202,-9.5003],[124.5193,-9.5025],[124.5225,-9.5014],[124.5249,-9.5034],[124.5292,-9.5004],[124.5363,-9.5022],[124.5386,-9.5],[124.5395,-9.5029],[124.5343,-9.51],[124.5334,-9.5169],[124.5341,-9.5198],[124.5419,-9.5267]]]}},{"type":"Feature","properties":{"name":"Tubuhue","name_en":"Tubuhue","admin_level":"7","osm_id":""},"geometry":{"type":"Polygon","coordinates":[[[124.5189,-9.4226],[124.5232,-9.4273],[124.5257,-9.4372],[124.5303,-9.447],[124.5278,-9.455],[124.5308,-9.4622],[124.5267,-9.4691],[124.5279,-9.4779],[124.5325,-9.4856],[124.5324,-9.5005],[124.5292,-9.5004],[124.5251,-9.5034],[124.5225,-9.5014],[124.5193,-9.5025],[124.5202,-9.5003],[124.5145,-9.4968],[124.5124,-9.4985],[124.51,-9.4959],[124.5076,-9.4964],[124.5088,-9.4923],[124.5067,-9.4883],[124.5076,-9.485],[124.5023,-9.4858],[124.4998,-9.4848],[124.5,-9.4829],[124.4968,-9.4833],[124.4917,-9.4784],[124.4886,-9.4808],[124.4868,-9.4789],[124.4883,-9.4767],[124.4869,-9.4759],[124.4877,-9.472],[124.4951,-9.4635],[124.4951,-9.4582],[124.4925,-9.4519],[124.4927,-9.4398],[124.4988,-9.44],[124.5017,-9.4358],[124.5114,-9.4312],[124.5189,-9.4226]]]}}]}