{"type":"FeatureCollection","metadata":{"parent_osm_id":"gid_IDN_14_2_1_1","parent_name":"Awang","parent_name_1":"KalimantanTengah","parent_gid":"IDN.14.2.1_1","parent_level":"6","child_level":"7","count":11,"source":"GADM 4.1","generated":"2026-05-09"},"features":[{"type":"Feature","properties":{"name":"Ampari","name_en":"Ampari","admin_level":"7","osm_id":""},"geometry":{"type":"Polygon","coordinates":[[[115.2428,-1.9632],[115.2507,-1.9575],[115.2623,-1.9593],[115.2734,-1.9508],[115.3057,-1.959],[115.2924,-2.0064],[115.2796,-2.0041],[115.2614,-1.9978],[115.2627,-1.9875],[115.2592,-1.9737],[115.2428,-1.9632]]]}},{"type":"Feature","properties":{"name":"AparBatu","name_en":"AparBatu","admin_level":"7","osm_id":""},"geometry":{"type":"Polygon","coordinates":[[[115.3157,-1.8517],[115.3159,-1.8553],[115.3189,-1.8604],[115.3184,-1.874],[115.3209,-1.8758],[115.3212,-1.8782],[115.3207,-1.8829],[115.3181,-1.8875],[115.3235,-1.926],[115.3124,-1.9465],[115.2863,-1.941],[115.2797,-1.9441],[115.2623,-1.9593],[115.2507,-1.9575],[115.2422,-1.9629],[115.2721,-1.9298],[115.2797,-1.9155],[115.2819,-1.9012],[115.2789,-1.8915],[115.3024,-1.8571],[115.3157,-1.8517]]]}},{"type":"Feature","properties":{"name":"Bangkirayen","name_en":"Bangkirayen","admin_level":"7","osm_id":""},"geometry":{"type":"Polygon","coordinates":[[[115.214,-1.979],[115.2289,-1.9933],[115.2351,-1.9974],[115.248,-1.9962],[115.2489,-2.0281],[115.2306,-2.0274],[115.2067,-2.0098],[115.2129,-1.9991],[115.214,-1.979]]]}},{"type":"Feature","properties":{"name":"Biwan","name_en":"Biwan","admin_level":"7","osm_id":""},"geometry":{"type":"Polygon","coordinates":[[[115.2613,-1.9423],[115.2422,-1.9629],[115.2298,-1.9552],[115.2391,-1.95],[115.2364,-1.9216],[115.2613,-1.9423]]]}},{"type":"Feature","properties":{"name":"Danau","name_en":"Danau","admin_level":"7","osm_id":""},"geometry":{"type":"Polygon","coordinates":[[[115.2788,-1.9171],[115.2721,-1.9298],[115.2613,-1.9423],[115.2363,-1.9204],[115.2545,-1.9204],[115.2652,-1.9103],[115.2788,-1.9171]]]}},{"type":"Feature","properties":{"name":"Hayaping","name_en":"Hayaping","admin_level":"7","osm_id":""},"geometry":{"type":"Polygon","coordinates":[[[115.2428,-1.9632],[115.2573,-1.9724],[115.2516,-1.9759],[115.2431,-1.9857],[115.2421,-1.9967],[115.2351,-1.9974],[115.2289,-1.9933],[115.214,-1.979],[115.2062,-1.9606],[115.1951,-1.9466],[115.2011,-1.9415],[115.2137,-1.9542],[115.2298,-1.9552],[115.2428,-1.9632]]]}},{"type":"Feature","properties":{"name":"JanahJari","name_en":"JanahJari","admin_level":"7","osm_id":""},"geometry":{"type":"Polygon","coordinates":[[[115.214,-1.979],[115.2129,-1.9991],[115.2067,-2.0098],[115.194,-2.0006],[115.1856,-1.9823],[115.1647,-1.9733],[115.1687,-1.9612],[115.1912,-1.95],[115.1951,-1.9466],[115.2062,-1.9606],[115.214,-1.979]]]}},{"type":"Feature","properties":{"name":"JanahMansiwui","name_en":"JanahMansiwui","admin_level":"7","osm_id":""},"geometry":{"type":"Polygon","coordinates":[[[115.2789,-1.8915],[115.2819,-1.9012],[115.2788,-1.9171],[115.2652,-1.9103],[115.2789,-1.8915]]]}},{"type":"Feature","properties":{"name":"Pianggu","name_en":"Pianggu","admin_level":"7","osm_id":""},"geometry":{"type":"Polygon","coordinates":[[[115.3057,-1.959],[115.2734,-1.9508],[115.2797,-1.9441],[115.2863,-1.941],[115.3124,-1.9465],[115.3057,-1.959]]]}},{"type":"Feature","properties":{"name":"Tangkan","name_en":"Tangkan","admin_level":"7","osm_id":""},"geometry":{"type":"Polygon","coordinates":[[[115.2614,-1.9978],[115.2796,-2.0041],[115.2923,-2.0064],[115.2819,-2.0349],[115.2672,-2.0288],[115.2489,-2.0281],[115.248,-1.9962],[115.2556,-1.9956],[115.2614,-1.9978]]]}},{"type":"Feature","properties":{"name":"WungkurNanakan","name_en":"WungkurNanakan","admin_level":"7","osm_id":""},"geometry":{"type":"Polygon","coordinates":[[[115.2573,-1.9724],[115.2614,-1.9795],[115.2627,-1.9875],[115.2614,-1.9978],[115.2556,-1.9956],[115.2421,-1.9967],[115.2431,-1.9857],[115.2516,-1.9759],[115.2573,-1.9724]]]}}]}