{"type":"FeatureCollection","metadata":{"parent_osm_id":"9997291","parent_name":"Pedamaran","parent_name_1":"SumateraSelatan","parent_gid":"IDN.31.9.13_1","parent_level":"6","child_level":"7","count":14,"source":"GADM 4.1","generated":"2026-05-09"},"features":[{"type":"Feature","properties":{"name":"BurnaiTimur","name_en":"BurnaiTimur","admin_level":"7","osm_id":""},"geometry":{"type":"Polygon","coordinates":[[[104.883,-3.6139],[104.8311,-3.6154],[104.8315,-3.6061],[104.8374,-3.5994],[104.8441,-3.5958],[104.8467,-3.5891],[104.8291,-3.5893],[104.8283,-3.5597],[104.8376,-3.5598],[104.8431,-3.5573],[104.8576,-3.5604],[104.8796,-3.5619],[104.9135,-3.5503],[104.9132,-3.5637],[104.9117,-3.5639],[104.9095,-3.5703],[104.9136,-3.5805],[104.9163,-3.5813],[104.9141,-3.584],[104.9173,-3.5841],[104.918,-3.5866],[104.9133,-3.5906],[104.9096,-3.5908],[104.9069,-3.5941],[104.9073,-3.5986],[104.9037,-3.599],[104.9019,-3.6009],[104.9026,-3.6047],[104.8961,-3.6055],[104.8956,-3.6033],[104.8924,-3.6063],[104.8926,-3.6085],[104.8905,-3.609],[104.8849,-3.6072],[104.8849,-3.609],[104.8821,-3.6098],[104.8823,-3.612],[104.886,-3.6124],[104.883,-3.6139]]]}},{"type":"Feature","properties":{"name":"CintaJaya","name_en":"CintaJaya","admin_level":"7","osm_id":""},"geometry":{"type":"Polygon","coordinates":[[[104.8875,-3.4168],[104.8984,-3.4108],[104.9128,-3.3973],[104.9141,-3.3873],[104.9176,-3.3778],[104.9341,-3.3637],[104.9347,-3.3664],[104.9451,-3.3557],[104.9524,-3.3518],[104.9619,-3.3525],[104.9665,-3.3512],[104.973,-3.3462],[104.9764,-3.3479],[104.9797,-3.3557],[104.9894,-3.3655],[104.9996,-3.3707],[105.0097,-3.3738],[105.0298,-3.3709],[105.0339,-3.3718],[105.0523,-3.3822],[105.0627,-3.3857],[105.085,-3.3892],[105.1081,-3.3877],[105.1191,-3.3851],[105.1306,-3.3746],[105.1392,-3.3703],[105.1741,-3.3578],[105.1711,-3.3672],[105.1637,-3.3765],[105.1607,-3.3857],[105.1708,-3.4191],[105.1674,-3.4234],[105.1634,-3.4209],[105.1583,-3.4209],[105.1554,-3.4251],[105.1551,-3.4394],[105.1503,-3.4477],[105.1463,-3.4496],[105.142,-3.4642],[105.137,-3.4668],[105.1307,-3.4642],[105.1239,-3.4651],[105.115,-3.4719],[105.1065,-3.4746],[105.0981,-3.48],[105.1001,-3.4833],[105.107,-3.4842],[105.107,-3.4925],[105.0969,-3.4934],[105.096,-3.5038],[105.0728,-3.5044],[105.0728,-3.4955],[104.9525,-3.4997],[104.9541,-3.512],[104.9444,-3.5012],[104.9242,-3.4625],[104.8417,-3.4905],[104.8395,-3.4842],[104.843,-3.4803],[104.8354,-3.4736],[104.9062,-3.4444],[104.8923,-3.4305],[104.8805,-3.4245],[104.8875,-3.4168]]]}},{"type":"Feature","properties":{"name":"LebuhRarak","name_en":"LebuhRarak","admin_level":"7","osm_id":""},"geometry":{"type":"Polygon","coordinates":[[[104.841,-3.4898],[104.8405,-3.4929],[104.8364,-3.495],[104.8349,-3.4931],[104.8364,-3.4899],[104.841,-3.4898]]]}},{"type":"Feature","properties":{"name":"MenangRaya","name_en":"MenangRaya","admin_level":"7","osm_id":""},"geometry":{"type":"Polygon","coordinates":[[[104.9572,-3.5892],[104.9216,-3.5581],[104.8861,-3.5219],[104.884,-3.5265],[104.8829,-3.5233],[104.8764,-3.5228],[104.875,-3.5257],[104.8709,-3.5225],[104.8662,-3.5224],[104.8632,-3.5202],[104.8564,-3.5211],[104.8559,-3.5249],[104.8494,-3.5225],[104.8444,-3.5155],[104.8397,-3.514],[104.8095,-3.5141],[104.8119,-3.5069],[104.8105,-3.4937],[104.8196,-3.4914],[104.833,-3.4926],[104.8364,-3.495],[104.8405,-3.4929],[104.8469,-3.5025],[104.8588,-3.5008],[104.8623,-3.4984],[104.8697,-3.5007],[104.9317,-3.4772],[104.9444,-3.5012],[104.9541,-3.512],[104.9649,-3.5954],[104.9572,-3.5892]]]}},{"type":"Feature","properties":{"name":"PedamaranI","name_en":"PedamaranI","admin_level":"7","osm_id":""},"geometry":{"type":"Polygon","coordinates":[[[104.8392,-3.4759],[104.843,-3.4803],[104.8416,-3.4831],[104.8386,-3.4829],[104.8413,-3.4803],[104.8378,-3.4768],[104.8392,-3.4759]]]}},{"type":"Feature","properties":{"name":"PedamaranIi","name_en":"PedamaranIi","admin_level":"7","osm_id":""},"geometry":{"type":"Polygon","coordinates":[[[104.8416,-3.4831],[104.8395,-3.4842],[104.8403,-3.4858],[104.8353,-3.4841],[104.8341,-3.4875],[104.8326,-3.487],[104.8324,-3.482],[104.819,-3.4839],[104.8189,-3.481],[104.8345,-3.4718],[104.8392,-3.4759],[104.8378,-3.4768],[104.8413,-3.4803],[104.8386,-3.4829],[104.8416,-3.4831]]]}},{"type":"Feature","properties":{"name":"PedamaranIii","name_en":"PedamaranIii","admin_level":"7","osm_id":""},"geometry":{"type":"Polygon","coordinates":[[[104.8398,-3.4858],[104.84,-3.4869],[104.8378,-3.487],[104.838,-3.4893],[104.8299,-3.4893],[104.8275,-3.4926],[104.8196,-3.4914],[104.8159,-3.4925],[104.8142,-3.4834],[104.8324,-3.482],[104.8333,-3.4875],[104.8347,-3.4874],[104.8336,-3.4863],[104.8354,-3.4841],[104.8398,-3.4858]]]}},{"type":"Feature","properties":{"name":"PedamaranIv","name_en":"PedamaranIv","admin_level":"7","osm_id":""},"geometry":{"type":"Polygon","coordinates":[[[104.84,-3.4872],[104.841,-3.4898],[104.8403,-3.49],[104.838,-3.489],[104.8378,-3.487],[104.84,-3.4872]]]}},{"type":"Feature","properties":{"name":"PedamaranV","name_en":"PedamaranV","admin_level":"7","osm_id":""},"geometry":{"type":"Polygon","coordinates":[[[104.8416,-3.4904],[104.9242,-3.4625],[104.9317,-3.4772],[104.8697,-3.5007],[104.8623,-3.4984],[104.8588,-3.5008],[104.8469,-3.5025],[104.8407,-3.4934],[104.8416,-3.4904]]]}},{"type":"Feature","properties":{"name":"PedamaranVi","name_en":"PedamaranVi","admin_level":"7","osm_id":""},"geometry":{"type":"Polygon","coordinates":[[[104.8369,-3.4898],[104.8349,-3.4931],[104.8275,-3.4926],[104.8299,-3.4893],[104.8369,-3.4898]]]}},{"type":"Feature","properties":{"name":"Serinanti","name_en":"Serinanti","admin_level":"7","osm_id":""},"geometry":{"type":"Polygon","coordinates":[[[104.8434,-3.4378],[104.846,-3.4343],[104.8875,-3.4168],[104.8805,-3.4245],[104.8944,-3.4326],[104.8307,-3.4641],[104.8265,-3.464],[104.8272,-3.4704],[104.8154,-3.4573],[104.8205,-3.4571],[104.8337,-3.4609],[104.8385,-3.4443],[104.8434,-3.4378]]]}},{"type":"Feature","properties":{"name":"SukaDamai","name_en":"SukaDamai","admin_level":"7","osm_id":""},"geometry":{"type":"Polygon","coordinates":[[[104.8944,-3.4326],[104.9062,-3.4444],[104.8354,-3.4736],[104.8345,-3.4718],[104.8189,-3.481],[104.8186,-3.4719],[104.8237,-3.469],[104.8272,-3.4704],[104.8265,-3.464],[104.8307,-3.4641],[104.8944,-3.4326]]]}},{"type":"Feature","properties":{"name":"SukaPulih","name_en":"SukaPulih","admin_level":"7","osm_id":""},"geometry":{"type":"Polygon","coordinates":[[[104.9135,-3.5503],[104.8796,-3.5619],[104.8576,-3.5604],[104.8431,-3.5573],[104.8376,-3.5598],[104.8283,-3.5597],[104.8281,-3.5529],[104.8094,-3.5532],[104.807,-3.5367],[104.8074,-3.5201],[104.8095,-3.5141],[104.8397,-3.514],[104.8444,-3.5155],[104.8494,-3.5225],[104.8559,-3.5249],[104.8564,-3.5211],[104.8632,-3.5202],[104.8662,-3.5224],[104.8709,-3.5225],[104.875,-3.5257],[104.8764,-3.5228],[104.8829,-3.5233],[104.884,-3.5265],[104.8861,-3.5219],[104.9135,-3.5503]]]}},{"type":"Feature","properties":{"name":"Sukaraja","name_en":"Sukaraja","admin_level":"7","osm_id":""},"geometry":{"type":"Polygon","coordinates":[[[104.7978,-3.4661],[104.8025,-3.4658],[104.8154,-3.4573],[104.8272,-3.4704],[104.8237,-3.469],[104.8186,-3.4719],[104.819,-3.4835],[104.8138,-3.4834],[104.7978,-3.4661]]]}}]}