{"type":"FeatureCollection","metadata":{"parent_osm_id":"gid_IDN_28_4_3_1","parent_name":"Gu","parent_name_1":"SulawesiTenggara","parent_gid":"IDN.28.4.3_1","parent_level":"6","child_level":"7","count":10,"source":"GADM 4.1","generated":"2026-05-09"},"features":[{"type":"Feature","properties":{"name":"Bantea","name_en":"Bantea","admin_level":"7","osm_id":""},"geometry":{"type":"Polygon","coordinates":[[[122.5305,-5.1977],[122.5506,-5.2359],[122.5533,-5.2386],[122.5489,-5.2437],[122.5371,-5.252],[122.5352,-5.2506],[122.529,-5.2332],[122.5212,-5.1937],[122.5241,-5.1934],[122.5305,-5.1977]]]}},{"type":"Feature","properties":{"name":"Bombonawulu","name_en":"Bombonawulu","admin_level":"7","osm_id":""},"geometry":{"type":"Polygon","coordinates":[[[122.5773,-5.2476],[122.5794,-5.2544],[122.5856,-5.2559],[122.585,-5.2619],[122.5795,-5.2612],[122.5714,-5.2543],[122.5723,-5.2487],[122.5773,-5.2476]]]}},{"type":"Feature","properties":{"name":"Kolowa","name_en":"Kolowa","admin_level":"7","osm_id":""},"geometry":{"type":"Polygon","coordinates":[[[122.6435,-5.333],[122.6412,-5.3439],[122.6247,-5.3431],[122.6219,-5.3438],[122.6198,-5.3471],[122.6161,-5.3465],[122.613,-5.343],[122.6047,-5.3413],[122.609,-5.3314],[122.6307,-5.33],[122.6435,-5.333]]]}},{"type":"Feature","properties":{"name":"Lakapera","name_en":"Lakapera","admin_level":"7","osm_id":""},"geometry":{"type":"Polygon","coordinates":[[[122.5533,-5.2386],[122.5506,-5.2359],[122.5305,-5.1977],[122.5619,-5.217],[122.5746,-5.2159],[122.5772,-5.2191],[122.5709,-5.2229],[122.5627,-5.2334],[122.559,-5.2335],[122.5533,-5.2386]]]}},{"type":"Feature","properties":{"name":"Rahia","name_en":"Rahia","admin_level":"7","osm_id":""},"geometry":{"type":"Polygon","coordinates":[[[122.6435,-5.333],[122.6307,-5.33],[122.609,-5.3314],[122.6096,-5.3181],[122.6312,-5.3165],[122.6411,-5.3116],[122.642,-5.3081],[122.6435,-5.333]]]}},{"type":"Feature","properties":{"name":"Wadiabero","name_en":"Wadiabero","admin_level":"7","osm_id":""},"geometry":{"type":"Polygon","coordinates":[[[122.6047,-5.3413],[122.613,-5.343],[122.6161,-5.3465],[122.6096,-5.3525],[122.6027,-5.3546],[122.5965,-5.3611],[122.5919,-5.3564],[122.5908,-5.3531],[122.601,-5.3459],[122.6047,-5.3413]]]}},{"type":"Feature","properties":{"name":"WakeaKea","name_en":"WakeaKea","admin_level":"7","osm_id":""},"geometry":{"type":"Polygon","coordinates":[[[122.642,-5.3081],[122.6411,-5.3116],[122.6312,-5.3165],[122.6096,-5.3181],[122.6099,-5.3027],[122.6008,-5.2935],[122.6148,-5.2858],[122.6198,-5.2813],[122.6206,-5.2786],[122.6414,-5.2683],[122.6449,-5.2791],[122.6466,-5.293],[122.6449,-5.3026],[122.642,-5.3081]]]}},{"type":"Feature","properties":{"name":"Walando","name_en":"Walando","admin_level":"7","osm_id":""},"geometry":{"type":"Polygon","coordinates":[[[122.5723,-5.2487],[122.5714,-5.2543],[122.5795,-5.2612],[122.585,-5.2619],[122.5842,-5.2687],[122.586,-5.2736],[122.5842,-5.2804],[122.5866,-5.2876],[122.5696,-5.2809],[122.5645,-5.2764],[122.5562,-5.2727],[122.5461,-5.2627],[122.5626,-5.2555],[122.5643,-5.2519],[122.5723,-5.2487]]]}},{"type":"Feature","properties":{"name":"Waliko","name_en":"Waliko","admin_level":"7","osm_id":""},"geometry":{"type":"Polygon","coordinates":[[[122.585,-5.2619],[122.5856,-5.2559],[122.5876,-5.2538],[122.6013,-5.25],[122.6215,-5.2494],[122.6345,-5.2591],[122.6414,-5.2683],[122.6206,-5.2786],[122.6198,-5.2813],[122.6148,-5.2858],[122.6008,-5.2935],[122.5866,-5.2876],[122.5842,-5.2804],[122.586,-5.2736],[122.5842,-5.2687],[122.585,-5.2619]]]}},{"type":"Feature","properties":{"name":"Watulea","name_en":"Watulea","admin_level":"7","osm_id":""},"geometry":{"type":"Polygon","coordinates":[[[122.5371,-5.252],[122.5489,-5.2437],[122.5518,-5.2391],[122.559,-5.2335],[122.5627,-5.2334],[122.5709,-5.2229],[122.5772,-5.2191],[122.5746,-5.2159],[122.5982,-5.2128],[122.6077,-5.2129],[122.6112,-5.2083],[122.6144,-5.21],[122.617,-5.2095],[122.6263,-5.2038],[122.6231,-5.2107],[122.6173,-5.2177],[122.5936,-5.2293],[122.585,-5.2407],[122.5773,-5.2476],[122.5643,-5.2519],[122.5626,-5.2555],[122.5461,-5.2627],[122.5371,-5.252]]]}}]}