{"type":"FeatureCollection","metadata":{"parent_osm_id":"gid_IDN_10_5_3_1","parent_name":"Banyudono","parent_name_1":"JawaTengah","parent_gid":"IDN.10.5.3_1","parent_level":"6","child_level":"7","count":15,"source":"GADM 4.1","generated":"2026-05-09"},"features":[{"type":"Feature","properties":{"name":"Bangak","name_en":"Bangak","admin_level":"7","osm_id":""},"geometry":{"type":"Polygon","coordinates":[[[110.7093,-7.5323],[110.7064,-7.5317],[110.705,-7.5292],[110.6977,-7.5277],[110.698,-7.5242],[110.696,-7.523],[110.6985,-7.5139],[110.7012,-7.5146],[110.702,-7.5124],[110.7041,-7.5136],[110.7032,-7.5156],[110.7066,-7.5162],[110.7036,-7.5177],[110.7042,-7.5198],[110.7062,-7.5199],[110.7038,-7.5252],[110.7108,-7.5248],[110.7081,-7.5287],[110.7113,-7.5322],[110.7093,-7.5323]]]}},{"type":"Feature","properties":{"name":"Banyudono","name_en":"Banyudono","admin_level":"7","osm_id":""},"geometry":{"type":"Polygon","coordinates":[[[110.6963,-7.5268],[110.6947,-7.5314],[110.7002,-7.532],[110.6992,-7.5376],[110.6842,-7.5348],[110.6852,-7.5261],[110.6888,-7.5252],[110.6913,-7.5271],[110.6963,-7.5268]]]}},{"type":"Feature","properties":{"name":"Batan","name_en":"Batan","admin_level":"7","osm_id":""},"geometry":{"type":"Polygon","coordinates":[[[110.6977,-7.5277],[110.705,-7.5292],[110.7064,-7.5317],[110.7093,-7.5323],[110.7084,-7.5402],[110.6992,-7.5376],[110.7002,-7.532],[110.6947,-7.5314],[110.6961,-7.5271],[110.6977,-7.5277]]]}},{"type":"Feature","properties":{"name":"Bendan","name_en":"Bendan","admin_level":"7","osm_id":""},"geometry":{"type":"Polygon","coordinates":[[[110.6773,-7.5504],[110.6741,-7.5536],[110.6713,-7.5533],[110.6714,-7.5516],[110.6697,-7.5511],[110.6695,-7.5415],[110.6729,-7.5378],[110.6728,-7.5353],[110.6765,-7.5356],[110.6741,-7.5387],[110.6747,-7.5424],[110.6735,-7.5426],[110.674,-7.5453],[110.6785,-7.5475],[110.6773,-7.5504]]]}},{"type":"Feature","properties":{"name":"Cangkringan","name_en":"Cangkringan","admin_level":"7","osm_id":""},"geometry":{"type":"Polygon","coordinates":[[[110.6962,-7.5463],[110.6945,-7.5468],[110.6948,-7.5485],[110.685,-7.5469],[110.6872,-7.535],[110.6969,-7.5407],[110.6962,-7.5463]]]}},{"type":"Feature","properties":{"name":"Denggungan","name_en":"Denggungan","admin_level":"7","osm_id":""},"geometry":{"type":"Polygon","coordinates":[[[110.7108,-7.5327],[110.7109,-7.5308],[110.7081,-7.5287],[110.7108,-7.5248],[110.7038,-7.5252],[110.7056,-7.5201],[110.7139,-7.5185],[110.7135,-7.5204],[110.715,-7.5211],[110.7171,-7.5194],[110.7199,-7.5208],[110.7224,-7.5193],[110.722,-7.5254],[110.7263,-7.5264],[110.7243,-7.5277],[110.7239,-7.5302],[110.7108,-7.5327]]]}},{"type":"Feature","properties":{"name":"Dukuh","name_en":"Dukuh","admin_level":"7","osm_id":""},"geometry":{"type":"Polygon","coordinates":[[[110.6741,-7.5536],[110.6773,-7.5504],[110.6812,-7.5522],[110.6869,-7.558],[110.6849,-7.5615],[110.6854,-7.5651],[110.6836,-7.5658],[110.6832,-7.5618],[110.678,-7.5625],[110.675,-7.5596],[110.6733,-7.5576],[110.6741,-7.5536]]]}},{"type":"Feature","properties":{"name":"Jembungan","name_en":"Jembungan","admin_level":"7","osm_id":""},"geometry":{"type":"Polygon","coordinates":[[[110.6773,-7.5504],[110.6791,-7.546],[110.6948,-7.5485],[110.6945,-7.5468],[110.6959,-7.5462],[110.709,-7.5494],[110.7093,-7.551],[110.7069,-7.5574],[110.7042,-7.5581],[110.6988,-7.5562],[110.6978,-7.5578],[110.697,-7.5556],[110.6877,-7.5528],[110.6855,-7.5548],[110.6855,-7.5575],[110.6812,-7.5522],[110.6773,-7.5504]]]}},{"type":"Feature","properties":{"name":"Jipangan","name_en":"Jipangan","admin_level":"7","osm_id":""},"geometry":{"type":"Polygon","coordinates":[[[110.6854,-7.5651],[110.6849,-7.5615],[110.6869,-7.558],[110.6851,-7.5564],[110.6865,-7.5531],[110.697,-7.5556],[110.6978,-7.5592],[110.6947,-7.5601],[110.6939,-7.563],[110.6883,-7.5619],[110.6854,-7.5651]]]}},{"type":"Feature","properties":{"name":"Ketaon","name_en":"Ketaon","admin_level":"7","osm_id":""},"geometry":{"type":"Polygon","coordinates":[[[110.6852,-7.5261],[110.6842,-7.5348],[110.6701,-7.5354],[110.6702,-7.5312],[110.6661,-7.5311],[110.6665,-7.5258],[110.6693,-7.5247],[110.6852,-7.5261]]]}},{"type":"Feature","properties":{"name":"Kuwiran","name_en":"Kuwiran","admin_level":"7","osm_id":""},"geometry":{"type":"Polygon","coordinates":[[[110.6872,-7.5346],[110.7134,-7.5416],[110.7116,-7.5479],[110.7136,-7.5487],[110.7107,-7.5498],[110.6968,-7.5467],[110.6969,-7.5407],[110.6872,-7.5346]]]}},{"type":"Feature","properties":{"name":"NgaruAru","name_en":"NgaruAru","admin_level":"7","osm_id":""},"geometry":{"type":"Polygon","coordinates":[[[110.6842,-7.5348],[110.6872,-7.5346],[110.6849,-7.5476],[110.6791,-7.546],[110.6785,-7.5475],[110.6758,-7.547],[110.6735,-7.5426],[110.6747,-7.5424],[110.6739,-7.5398],[110.6759,-7.5352],[110.6842,-7.5348]]]}},{"type":"Feature","properties":{"name":"Sambon","name_en":"Sambon","admin_level":"7","osm_id":""},"geometry":{"type":"Polygon","coordinates":[[[110.7085,-7.5533],[110.709,-7.5494],[110.7136,-7.5487],[110.7218,-7.5502],[110.7264,-7.5538],[110.7217,-7.5596],[110.72,-7.5589],[110.7193,-7.5601],[110.7206,-7.5637],[110.7197,-7.5658],[110.7151,-7.5623],[110.714,-7.5644],[110.712,-7.564],[110.7125,-7.5544],[110.7085,-7.5533]]]}},{"type":"Feature","properties":{"name":"Tanjungsari","name_en":"Tanjungsari","admin_level":"7","osm_id":""},"geometry":{"type":"Polygon","coordinates":[[[110.6852,-7.5261],[110.6778,-7.525],[110.6792,-7.5209],[110.6775,-7.5204],[110.6786,-7.5112],[110.6775,-7.5117],[110.6772,-7.5079],[110.6793,-7.5064],[110.6822,-7.509],[110.6835,-7.5072],[110.6847,-7.5081],[110.6867,-7.5066],[110.691,-7.509],[110.6846,-7.5239],[110.6852,-7.5261]]]}},{"type":"Feature","properties":{"name":"Trayu","name_en":"Trayu","admin_level":"7","osm_id":""},"geometry":{"type":"Polygon","coordinates":[[[110.6988,-7.5139],[110.6986,-7.5154],[110.6973,-7.515],[110.696,-7.523],[110.698,-7.5242],[110.6977,-7.5277],[110.6911,-7.527],[110.6888,-7.5252],[110.6852,-7.5261],[110.6846,-7.5239],[110.691,-7.509],[110.6969,-7.5078],[110.697,-7.5123],[110.6998,-7.5125],[110.6988,-7.5139]]]}}]}