{"type":"FeatureCollection","metadata":{"parent_osm_id":"9677344","parent_name":"Gresik","parent_name_1":"JawaTimur","parent_gid":"IDN.11.7.8_1","parent_level":"6","child_level":"7","count":21,"source":"GADM 4.1","generated":"2026-05-09"},"features":[{"type":"Feature","properties":{"name":"Bedilan","name_en":"Bedilan","admin_level":"7","osm_id":""},"geometry":{"type":"Polygon","coordinates":[[[112.6495,-7.1616],[112.6507,-7.1588],[112.6583,-7.1596],[112.6583,-7.1615],[112.655,-7.1617],[112.6534,-7.1637],[112.6495,-7.1616]]]}},{"type":"Feature","properties":{"name":"Gapurosukolilo","name_en":"Gapurosukolilo","admin_level":"7","osm_id":""},"geometry":{"type":"Polygon","coordinates":[[[112.6513,-7.1667],[112.6534,-7.1637],[112.6548,-7.1665],[112.6563,-7.1666],[112.6531,-7.1766],[112.6498,-7.1761],[112.6489,-7.1745],[112.6513,-7.1667]]]}},{"type":"Feature","properties":{"name":"Karangpoh","name_en":"Karangpoh","admin_level":"7","osm_id":""},"geometry":{"type":"Polygon","coordinates":[[[112.6507,-7.1588],[112.6495,-7.1616],[112.6464,-7.1609],[112.6457,-7.1629],[112.6386,-7.159],[112.64,-7.1567],[112.6416,-7.1579],[112.6427,-7.1564],[112.6507,-7.1588]]]}},{"type":"Feature","properties":{"name":"Karangturi","name_en":"Karangturi","admin_level":"7","osm_id":""},"geometry":{"type":"Polygon","coordinates":[[[112.6386,-7.159],[112.6402,-7.1615],[112.638,-7.1641],[112.6351,-7.1631],[112.6343,-7.1659],[112.6315,-7.1608],[112.6368,-7.1581],[112.6386,-7.159]]]}},{"type":"Feature","properties":{"name":"Kebungson","name_en":"Kebungson","admin_level":"7","osm_id":""},"geometry":{"type":"Polygon","coordinates":[[[112.6583,-7.1596],[112.654,-7.1592],[112.6558,-7.1542],[112.6592,-7.1534],[112.6622,-7.1589],[112.6583,-7.1596]]]}},{"type":"Feature","properties":{"name":"Kemuteran","name_en":"Kemuteran","admin_level":"7","osm_id":""},"geometry":{"type":"Polygon","coordinates":[[[112.6507,-7.1588],[112.6472,-7.1585],[112.648,-7.1542],[112.6498,-7.1535],[112.6516,-7.1493],[112.654,-7.1505],[112.6507,-7.1588]]]}},{"type":"Feature","properties":{"name":"Kramatinggil","name_en":"Kramatinggil","admin_level":"7","osm_id":""},"geometry":{"type":"Polygon","coordinates":[[[112.6522,-7.1828],[112.6531,-7.1785],[112.6561,-7.1781],[112.6593,-7.1836],[112.6583,-7.1873],[112.6522,-7.1828]]]}},{"type":"Feature","properties":{"name":"Kroman","name_en":"Kroman","admin_level":"7","osm_id":""},"geometry":{"type":"Polygon","coordinates":[[[112.6516,-7.1493],[112.648,-7.1551],[112.6443,-7.1542],[112.6506,-7.1479],[112.6516,-7.1493]]]}},{"type":"Feature","properties":{"name":"Lumpur","name_en":"Lumpur","admin_level":"7","osm_id":""},"geometry":{"type":"Polygon","coordinates":[[[112.6427,-7.1564],[112.6416,-7.1579],[112.6381,-7.1554],[112.6392,-7.1526],[112.6491,-7.1457],[112.6506,-7.1479],[112.6427,-7.1564]]]}},{"type":"Feature","properties":{"name":"Ngipik","name_en":"Ngipik","admin_level":"7","osm_id":""},"geometry":{"type":"Polygon","coordinates":[[[112.6315,-7.1608],[112.6338,-7.1656],[112.6389,-7.1694],[112.6377,-7.1708],[112.6359,-7.1697],[112.6336,-7.174],[112.6284,-7.1624],[112.6276,-7.1504],[112.6303,-7.1515],[112.6315,-7.1608]]]}},{"type":"Feature","properties":{"name":"Pekauman","name_en":"Pekauman","admin_level":"7","osm_id":""},"geometry":{"type":"Polygon","coordinates":[[[112.6495,-7.1616],[112.6534,-7.1637],[112.6513,-7.1667],[112.6452,-7.1643],[112.6464,-7.1609],[112.6495,-7.1616]]]}},{"type":"Feature","properties":{"name":"Pekelingan","name_en":"Pekelingan","admin_level":"7","osm_id":""},"geometry":{"type":"Polygon","coordinates":[[[112.654,-7.1592],[112.6507,-7.1588],[112.6539,-7.1498],[112.6579,-7.151],[112.6592,-7.1534],[112.6558,-7.1542],[112.654,-7.1592]]]}},{"type":"Feature","properties":{"name":"Pulopancikan","name_en":"Pulopancikan","admin_level":"7","osm_id":""},"geometry":{"type":"Polygon","coordinates":[[[112.6534,-7.1637],[112.655,-7.1617],[112.6583,-7.1615],[112.6583,-7.1593],[112.6622,-7.1589],[112.6659,-7.175],[112.6589,-7.1769],[112.6531,-7.1766],[112.6563,-7.1666],[112.6548,-7.1665],[112.6534,-7.1637]]]}},{"type":"Feature","properties":{"name":"Sidokumpul","name_en":"Sidokumpul","admin_level":"7","osm_id":""},"geometry":{"type":"Polygon","coordinates":[[[112.6489,-7.1745],[112.6498,-7.1761],[112.6589,-7.1769],[112.6531,-7.1785],[112.6522,-7.1828],[112.645,-7.177],[112.6372,-7.1753],[112.6406,-7.1737],[112.6377,-7.1708],[112.6389,-7.1694],[112.641,-7.1714],[112.6424,-7.1697],[112.6454,-7.1702],[112.6458,-7.1725],[112.6489,-7.1745]]]}},{"type":"Feature","properties":{"name":"Sidorukun","name_en":"Sidorukun","admin_level":"7","osm_id":""},"geometry":{"type":"Polygon","coordinates":[[[112.6583,-7.1873],[112.6593,-7.1836],[112.6561,-7.1781],[112.6659,-7.175],[112.6674,-7.1801],[112.6657,-7.1891],[112.6634,-7.1915],[112.6583,-7.1873]]]}},{"type":"Feature","properties":{"name":"Sukodono","name_en":"Sukodono","admin_level":"7","osm_id":""},"geometry":{"type":"Polygon","coordinates":[[[112.6479,-7.1573],[112.6445,-7.1568],[112.6427,-7.1564],[112.6443,-7.1542],[112.648,-7.1551],[112.6479,-7.1573]]]}},{"type":"Feature","properties":{"name":"Sukorame","name_en":"Sukorame","admin_level":"7","osm_id":""},"geometry":{"type":"Polygon","coordinates":[[[112.6343,-7.1659],[112.6351,-7.1631],[112.638,-7.1641],[112.6387,-7.1628],[112.6436,-7.1665],[112.641,-7.1714],[112.6343,-7.1659]]]}},{"type":"Feature","properties":{"name":"Tlogobendung","name_en":"Tlogobendung","admin_level":"7","osm_id":""},"geometry":{"type":"Polygon","coordinates":[[[112.6513,-7.1667],[112.6489,-7.1745],[112.6422,-7.1686],[112.6452,-7.1643],[112.6513,-7.1667]]]}},{"type":"Feature","properties":{"name":"Tlogopatut","name_en":"Tlogopatut","admin_level":"7","osm_id":""},"geometry":{"type":"Polygon","coordinates":[[[112.6336,-7.174],[112.6359,-7.1697],[112.6406,-7.1724],[112.6372,-7.1753],[112.6336,-7.174]]]}},{"type":"Feature","properties":{"name":"Tlogopojok","name_en":"Tlogopojok","admin_level":"7","osm_id":""},"geometry":{"type":"Polygon","coordinates":[[[112.64,-7.1567],[112.6386,-7.159],[112.6368,-7.1581],[112.6315,-7.1608],[112.6303,-7.1515],[112.6402,-7.1454],[112.6369,-7.1389],[112.6491,-7.1457],[112.6392,-7.1526],[112.6381,-7.1554],[112.64,-7.1567]]]}},{"type":"Feature","properties":{"name":"Trate","name_en":"Trate","admin_level":"7","osm_id":""},"geometry":{"type":"Polygon","coordinates":[[[112.6403,-7.161],[112.6457,-7.1629],[112.6436,-7.1662],[112.6387,-7.1628],[112.6403,-7.161]]]}}]}