{"type":"FeatureCollection","metadata":{"parent_osm_id":"19957665","parent_name":"Citeureup","parent_name_1":"JawaBarat","parent_gid":"IDN.9.5.16_1","parent_level":"6","child_level":"7","count":14,"source":"GADM 4.1","generated":"2026-05-09"},"features":[{"type":"Feature","properties":{"name":"Citeureup","name_en":"Citeureup","admin_level":"7","osm_id":""},"geometry":{"type":"Polygon","coordinates":[[[106.905,-6.4819],[106.9007,-6.4821],[106.8975,-6.4854],[106.8946,-6.485],[106.8924,-6.4897],[106.8895,-6.4913],[106.8813,-6.4899],[106.8825,-6.4792],[106.8872,-6.472],[106.8922,-6.4743],[106.894,-6.4701],[106.9004,-6.4717],[106.9077,-6.4803],[106.9073,-6.4818],[106.905,-6.4819]]]}},{"type":"Feature","properties":{"name":"GunungSari","name_en":"GunungSari","admin_level":"7","osm_id":""},"geometry":{"type":"Polygon","coordinates":[[[106.8962,-6.4852],[106.9039,-6.4814],[106.905,-6.4819],[106.9041,-6.4837],[106.9074,-6.4864],[106.9081,-6.4885],[106.9063,-6.4928],[106.9107,-6.4961],[106.9087,-6.5045],[106.9053,-6.5076],[106.9031,-6.5077],[106.9017,-6.503],[106.8989,-6.5023],[106.8971,-6.4927],[106.8954,-6.4914],[106.8962,-6.4852]]]}},{"type":"Feature","properties":{"name":"Hambalang","name_en":"Hambalang","admin_level":"7","osm_id":""},"geometry":{"type":"Polygon","coordinates":[[[106.8833,-6.5719],[106.8811,-6.567],[106.8773,-6.5647],[106.8785,-6.5639],[106.8774,-6.5588],[106.8753,-6.5571],[106.8689,-6.5576],[106.8691,-6.5543],[106.8658,-6.5499],[106.8762,-6.5461],[106.8838,-6.5404],[106.8841,-6.5331],[106.8824,-6.5295],[106.8855,-6.524],[106.893,-6.5198],[106.8959,-6.5159],[106.8991,-6.5202],[106.9029,-6.5198],[106.9015,-6.5226],[106.9035,-6.5234],[106.9029,-6.5247],[106.9047,-6.5251],[106.9053,-6.5276],[106.9065,-6.5265],[106.9059,-6.5282],[106.9076,-6.5282],[106.9079,-6.5304],[106.9116,-6.5313],[106.9118,-6.5296],[106.9132,-6.5297],[106.9151,-6.5324],[106.9178,-6.5326],[106.9191,-6.5374],[106.9235,-6.5431],[106.921,-6.5448],[106.9237,-6.5464],[106.9232,-6.5518],[106.9257,-6.5546],[106.9236,-6.5541],[106.9199,-6.557],[106.9201,-6.5612],[106.9122,-6.5643],[106.9086,-6.5704],[106.9001,-6.569],[106.898,-6.5715],[106.8929,-6.573],[106.8899,-6.5721],[106.8896,-6.5697],[106.8865,-6.5705],[106.8853,-6.5725],[106.8833,-6.5719]]]}},{"type":"Feature","properties":{"name":"KarangAsemBarat","name_en":"KarangAsemBarat","admin_level":"7","osm_id":""},"geometry":{"type":"Polygon","coordinates":[[[106.8591,-6.4932],[106.8612,-6.4923],[106.8598,-6.4899],[106.8622,-6.4884],[106.8612,-6.4852],[106.8643,-6.4839],[106.8622,-6.4823],[106.8656,-6.4819],[106.8671,-6.4834],[106.8683,-6.4805],[106.8713,-6.4846],[106.8817,-6.4882],[106.8808,-6.4912],[106.8718,-6.5017],[106.868,-6.499],[106.8686,-6.497],[106.8591,-6.4932]]]}},{"type":"Feature","properties":{"name":"KarangAsemTimur","name_en":"KarangAsemTimur","admin_level":"7","osm_id":""},"geometry":{"type":"Polygon","coordinates":[[[106.8813,-6.4899],[106.8869,-6.4907],[106.8847,-6.4971],[106.8828,-6.4984],[106.8838,-6.5],[106.8796,-6.5029],[106.8782,-6.5016],[106.8766,-6.5047],[106.8743,-6.5026],[106.8736,-6.5038],[106.8715,-6.5022],[106.8813,-6.4899]]]}},{"type":"Feature","properties":{"name":"Leuwinutug","name_en":"Leuwinutug","admin_level":"7","osm_id":""},"geometry":{"type":"Polygon","coordinates":[[[106.8611,-6.5245],[106.8543,-6.5207],[106.8546,-6.5135],[106.8571,-6.5105],[106.8539,-6.5073],[106.8568,-6.5036],[106.8564,-6.5007],[106.8587,-6.5011],[106.8612,-6.5062],[106.8644,-6.5051],[106.8635,-6.5098],[106.8655,-6.5111],[106.8687,-6.5081],[106.8729,-6.512],[106.8713,-6.5136],[106.8728,-6.5135],[106.872,-6.5196],[106.8682,-6.5181],[106.8666,-6.5214],[106.8611,-6.5245]]]}},{"type":"Feature","properties":{"name":"PasirMukti","name_en":"PasirMukti","admin_level":"7","osm_id":""},"geometry":{"type":"Polygon","coordinates":[[[106.8991,-6.5026],[106.9017,-6.503],[106.9031,-6.5077],[106.9074,-6.5061],[106.9072,-6.5106],[106.9091,-6.5122],[106.9041,-6.5122],[106.9021,-6.5137],[106.9023,-6.5167],[106.8983,-6.5166],[106.8973,-6.5153],[106.8953,-6.5164],[106.8892,-6.5075],[106.8861,-6.5064],[106.8918,-6.5074],[106.8946,-6.5024],[106.8991,-6.5026]]]}},{"type":"Feature","properties":{"name":"Puspanegara","name_en":"Puspanegara","admin_level":"7","osm_id":""},"geometry":{"type":"Polygon","coordinates":[[[106.8872,-6.472],[106.8825,-6.4792],[106.8817,-6.4882],[106.8738,-6.4854],[106.881,-6.4727],[106.8795,-6.4717],[106.8832,-6.4679],[106.8866,-6.4693],[106.8857,-6.4701],[106.8872,-6.472]]]}},{"type":"Feature","properties":{"name":"Puspasari","name_en":"Puspasari","admin_level":"7","osm_id":""},"geometry":{"type":"Polygon","coordinates":[[[106.8678,-6.4806],[106.868,-6.4787],[106.8706,-6.4786],[106.8688,-6.4764],[106.8721,-6.4744],[106.8713,-6.4689],[106.8753,-6.471],[106.8794,-6.4683],[106.8795,-6.4717],[106.881,-6.4727],[106.8738,-6.4854],[106.8678,-6.4806]]]}},{"type":"Feature","properties":{"name":"Sanja","name_en":"Sanja","admin_level":"7","osm_id":""},"geometry":{"type":"Polygon","coordinates":[[[106.8587,-6.5011],[106.8613,-6.4976],[106.8579,-6.494],[106.8591,-6.4932],[106.8686,-6.497],[106.868,-6.499],[106.8784,-6.5062],[106.8779,-6.509],[106.8716,-6.5139],[106.8729,-6.512],[106.8687,-6.5081],[106.8655,-6.5111],[106.8635,-6.5098],[106.8644,-6.5051],[106.8612,-6.5062],[106.8587,-6.5011]]]}},{"type":"Feature","properties":{"name":"Sukahati","name_en":"Sukahati","admin_level":"7","osm_id":""},"geometry":{"type":"Polygon","coordinates":[[[106.8952,-6.5162],[106.893,-6.5198],[106.8855,-6.524],[106.8833,-6.5281],[106.8784,-6.5258],[106.8743,-6.5214],[106.8741,-6.5185],[106.8721,-6.5186],[106.8728,-6.5135],[106.8779,-6.509],[106.8784,-6.5062],[106.8766,-6.5036],[106.8786,-6.5015],[106.883,-6.5058],[106.8822,-6.5067],[106.8892,-6.5074],[106.8914,-6.5122],[106.8952,-6.5145],[106.8952,-6.5162]]]}},{"type":"Feature","properties":{"name":"Tajur","name_en":"Tajur","admin_level":"7","osm_id":""},"geometry":{"type":"Polygon","coordinates":[[[106.9382,-6.5588],[106.9285,-6.5612],[106.9259,-6.5658],[106.9175,-6.5735],[106.9143,-6.5737],[106.9138,-6.5719],[106.9086,-6.5704],[106.9122,-6.5643],[106.9201,-6.5612],[106.9199,-6.557],[106.9236,-6.5541],[106.9256,-6.5548],[106.9232,-6.5518],[106.9237,-6.5464],[106.921,-6.5448],[106.9235,-6.5431],[106.9191,-6.5374],[106.9178,-6.5326],[106.9151,-6.5324],[106.9132,-6.5297],[106.9118,-6.5296],[106.9116,-6.5313],[106.9079,-6.5304],[106.9076,-6.5282],[106.9059,-6.5282],[106.9065,-6.5265],[106.9053,-6.5276],[106.9047,-6.5251],[106.9029,-6.5247],[106.9035,-6.5234],[106.9015,-6.5226],[106.9029,-6.5198],[106.8991,-6.5202],[106.8959,-6.5159],[106.9023,-6.5167],[106.9021,-6.5137],[106.9041,-6.5122],[106.9087,-6.5124],[106.9115,-6.5102],[106.9161,-6.5194],[106.9211,-6.522],[106.9239,-6.5214],[106.9285,-6.5247],[106.9286,-6.5265],[106.9318,-6.5264],[106.9287,-6.5289],[106.935,-6.5309],[106.9358,-6.5352],[106.9341,-6.5352],[106.9316,-6.5398],[106.9347,-6.5462],[106.9338,-6.5516],[106.9372,-6.5534],[106.9361,-6.5552],[106.9382,-6.5558],[106.9382,-6.5588]]]}},{"type":"Feature","properties":{"name":"Tangkil","name_en":"Tangkil","admin_level":"7","osm_id":""},"geometry":{"type":"Polygon","coordinates":[[[106.8658,-6.5499],[106.8592,-6.5394],[106.8591,-6.532],[106.8617,-6.5231],[106.8666,-6.5214],[106.8682,-6.5181],[106.8715,-6.5198],[106.8737,-6.5182],[106.8748,-6.5221],[106.8799,-6.527],[106.8833,-6.5281],[106.8823,-6.531],[106.8841,-6.5331],[106.8844,-6.5393],[106.8762,-6.5461],[106.8658,-6.5499]]]}},{"type":"Feature","properties":{"name":"Tarikolot","name_en":"Tarikolot","admin_level":"7","osm_id":""},"geometry":{"type":"Polygon","coordinates":[[[106.8869,-6.4907],[106.892,-6.4899],[106.8946,-6.485],[106.8962,-6.4852],[106.8954,-6.4914],[106.8971,-6.4927],[106.899,-6.5021],[106.8946,-6.5024],[106.8918,-6.5074],[106.8849,-6.5067],[106.8796,-6.5029],[106.8838,-6.5],[106.8828,-6.4984],[106.8847,-6.4971],[106.8869,-6.4907]]]}}]}