{"type":"FeatureCollection","metadata":{"parent_osm_id":"gid_IDN_10_24_8_1","parent_name":"Karangmoncol","parent_name_1":"JawaTengah","parent_gid":"IDN.10.24.8_1","parent_level":"6","child_level":"7","count":11,"source":"GADM 4.1","generated":"2026-05-07"},"features":[{"type":"Feature","properties":{"name":"Baleraksa","name_en":"Baleraksa","admin_level":"7","osm_id":""},"geometry":{"type":"Polygon","coordinates":[[[109.454,-7.3122],[109.4529,-7.3142],[109.4495,-7.3137],[109.4481,-7.315],[109.4511,-7.3078],[109.4475,-7.2853],[109.4483,-7.2814],[109.4506,-7.2819],[109.4498,-7.2794],[109.4522,-7.2787],[109.4538,-7.2752],[109.4583,-7.2798],[109.4581,-7.2861],[109.4613,-7.2985],[109.4661,-7.3027],[109.4615,-7.3091],[109.454,-7.3122]]]}},{"type":"Feature","properties":{"name":"Grantung","name_en":"Grantung","admin_level":"7","osm_id":""},"geometry":{"type":"Polygon","coordinates":[[[109.4694,-7.3325],[109.4729,-7.3249],[109.4723,-7.3199],[109.48,-7.3171],[109.4828,-7.31],[109.4848,-7.3172],[109.4803,-7.3366],[109.4672,-7.3353],[109.4694,-7.3325]]]}},{"type":"Feature","properties":{"name":"Karangsari","name_en":"Karangsari","admin_level":"7","osm_id":""},"geometry":{"type":"Polygon","coordinates":[[[109.4475,-7.3384],[109.439,-7.3393],[109.4355,-7.3372],[109.433,-7.3403],[109.433,-7.3365],[109.4363,-7.332],[109.4366,-7.3256],[109.4392,-7.3198],[109.4491,-7.3138],[109.4529,-7.3142],[109.454,-7.3122],[109.4578,-7.3158],[109.4662,-7.3154],[109.4664,-7.3183],[109.4629,-7.324],[109.4573,-7.3208],[109.4534,-7.3214],[109.4477,-7.3315],[109.4475,-7.3384]]]}},{"type":"Feature","properties":{"name":"Kramat","name_en":"Kramat","admin_level":"7","osm_id":""},"geometry":{"type":"Polygon","coordinates":[[[109.479,-7.2212],[109.4861,-7.2228],[109.4837,-7.2386],[109.4741,-7.2459],[109.4606,-7.2504],[109.4585,-7.2603],[109.4553,-7.2655],[109.4549,-7.2732],[109.4522,-7.2787],[109.4498,-7.2794],[109.4506,-7.2819],[109.4483,-7.2814],[109.4479,-7.2733],[109.4432,-7.2681],[109.4399,-7.2603],[109.4443,-7.2489],[109.4438,-7.2381],[109.4491,-7.2359],[109.466,-7.2358],[109.4685,-7.2321],[109.4745,-7.2306],[109.4752,-7.2262],[109.479,-7.2212]]]}},{"type":"Feature","properties":{"name":"Pekiringan","name_en":"Pekiringan","admin_level":"7","osm_id":""},"geometry":{"type":"Polygon","coordinates":[[[109.48,-7.3149],[109.4798,-7.3172],[109.4723,-7.3199],[109.4729,-7.3249],[109.4694,-7.3325],[109.4618,-7.3276],[109.4618,-7.3248],[109.4664,-7.3183],[109.4665,-7.3144],[109.468,-7.3127],[109.4725,-7.3115],[109.4735,-7.3135],[109.48,-7.3149]]]}},{"type":"Feature","properties":{"name":"Pepedan","name_en":"Pepedan","admin_level":"7","osm_id":""},"geometry":{"type":"Polygon","coordinates":[[[109.4502,-7.3378],[109.4475,-7.3384],[109.4476,-7.3318],[109.4542,-7.3209],[109.4573,-7.3208],[109.46,-7.3235],[109.4626,-7.3236],[109.4618,-7.3276],[109.4694,-7.3318],[109.4672,-7.3353],[109.463,-7.3373],[109.4502,-7.3378]]]}},{"type":"Feature","properties":{"name":"Rajawana","name_en":"Rajawana","admin_level":"7","osm_id":""},"geometry":{"type":"Polygon","coordinates":[[[109.4852,-7.3021],[109.485,-7.2979],[109.4825,-7.2944],[109.4829,-7.2872],[109.4857,-7.2865],[109.4868,-7.2837],[109.4878,-7.2853],[109.4972,-7.2864],[109.4965,-7.2931],[109.4852,-7.3021]]]}},{"type":"Feature","properties":{"name":"Sirau","name_en":"Sirau","admin_level":"7","osm_id":""},"geometry":{"type":"Polygon","coordinates":[[[109.4588,-7.185],[109.4601,-7.1874],[109.4575,-7.1906],[109.4574,-7.1968],[109.4627,-7.2046],[109.4694,-7.2099],[109.479,-7.2212],[109.4786,-7.2231],[109.4752,-7.2262],[109.4745,-7.2306],[109.4685,-7.2321],[109.466,-7.2358],[109.4491,-7.2359],[109.4438,-7.2381],[109.4381,-7.2248],[109.4407,-7.221],[109.4396,-7.2198],[109.442,-7.2098],[109.4364,-7.1976],[109.4398,-7.1848],[109.4388,-7.1794],[109.4406,-7.1779],[109.4488,-7.1778],[109.4565,-7.1849],[109.4588,-7.185]]]}},{"type":"Feature","properties":{"name":"Tajug","name_en":"Tajug","admin_level":"7","osm_id":""},"geometry":{"type":"Polygon","coordinates":[[[109.4828,-7.31],[109.48,-7.3149],[109.4735,-7.3135],[109.4725,-7.3115],[109.4769,-7.3046],[109.4743,-7.2964],[109.4773,-7.2837],[109.4829,-7.2872],[109.4825,-7.2944],[109.485,-7.2979],[109.4852,-7.3029],[109.4828,-7.31]]]}},{"type":"Feature","properties":{"name":"Tamansari","name_en":"Tamansari","admin_level":"7","osm_id":""},"geometry":{"type":"Polygon","coordinates":[[[109.454,-7.3122],[109.4615,-7.3091],[109.4661,-7.3027],[109.4613,-7.2985],[109.4581,-7.2861],[109.4582,-7.2795],[109.4649,-7.2823],[109.4671,-7.2882],[109.468,-7.2876],[109.4667,-7.2852],[109.4773,-7.2837],[109.4743,-7.2964],[109.4769,-7.3046],[109.4725,-7.3115],[109.468,-7.3127],[109.4663,-7.3159],[109.4639,-7.3147],[109.4575,-7.3157],[109.454,-7.3122]]]}},{"type":"Feature","properties":{"name":"Tunjungmuli","name_en":"Tunjungmuli","admin_level":"7","osm_id":""},"geometry":{"type":"Polygon","coordinates":[[[109.4582,-7.2795],[109.4538,-7.2752],[109.46,-7.2513],[109.4631,-7.2488],[109.4741,-7.2459],[109.4826,-7.2407],[109.4839,-7.2427],[109.4832,-7.2537],[109.4791,-7.2639],[109.4879,-7.2736],[109.4875,-7.2796],[109.4851,-7.2811],[109.4868,-7.2837],[109.4857,-7.2865],[109.4829,-7.2872],[109.4805,-7.2847],[109.4734,-7.2834],[109.4667,-7.2852],[109.468,-7.2876],[109.4671,-7.2882],[109.4649,-7.2823],[109.4582,-7.2795]]]}}]}