{"type":"FeatureCollection","metadata":{"parent_osm_id":"gid_IDN_23_2_19_1","parent_name":"Yendidori","parent_name_1":"Papua","parent_gid":"IDN.23.2.19_1","parent_level":"6","child_level":"7","count":14,"source":"GADM 4.1","generated":"2026-05-08"},"features":[{"type":"Feature","properties":{"name":"Adoki","name_en":"Adoki","admin_level":"7","osm_id":""},"geometry":{"type":"Polygon","coordinates":[[[136.0135,-1.1443],[136.0002,-1.1423],[135.989,-1.1447],[135.9828,-1.1443],[135.9783,-1.1473],[135.9757,-1.147],[135.9758,-1.1268],[135.9732,-1.1169],[136.0129,-1.1158],[136.0135,-1.1443]]]}},{"type":"Feature","properties":{"name":"Kabidon","name_en":"Kabidon","admin_level":"7","osm_id":""},"geometry":{"type":"Polygon","coordinates":[[[135.9732,-1.1169],[135.9758,-1.1268],[135.9757,-1.147],[135.9539,-1.1488],[135.9521,-1.1469],[135.9541,-1.1252],[135.9452,-1.1223],[135.9536,-1.1056],[135.9649,-1.0891],[135.9711,-1.0975],[135.9732,-1.1169]]]}},{"type":"Feature","properties":{"name":"Moibaken","name_en":"Moibaken","admin_level":"7","osm_id":""},"geometry":{"type":"Polygon","coordinates":[[[136.0134,-1.056],[136.0166,-1.069],[135.9727,-1.0855],[135.9607,-1.0761],[135.9514,-1.0724],[135.9549,-1.0688],[135.962,-1.0667],[135.9803,-1.0661],[136.0134,-1.056]]]}},{"type":"Feature","properties":{"name":"Padwa","name_en":"Padwa","admin_level":"7","osm_id":""},"geometry":{"type":"Polygon","coordinates":[[[135.9373,-1.1487],[135.9354,-1.1492],[135.9318,-1.1547],[135.9181,-1.1586],[135.9152,-1.1466],[135.9288,-1.1469],[135.9338,-1.1422],[135.9373,-1.1487]]]}},{"type":"Feature","properties":{"name":"Rarmpimbo","name_en":"Rarmpimbo","admin_level":"7","osm_id":""},"geometry":{"type":"Polygon","coordinates":[[[135.9057,-1.0059],[135.9168,-1.0071],[135.9528,-1.006],[135.9497,-1.0111],[135.946,-1.0124],[135.94,-1.0268],[135.9298,-1.0307],[135.9095,-1.0325],[135.9051,-1.0269],[135.9057,-1.0059]]]}},{"type":"Feature","properties":{"name":"Samber","name_en":"Samber","admin_level":"7","osm_id":""},"geometry":{"type":"Polygon","coordinates":[[[135.9152,-1.1466],[135.9181,-1.1586],[135.9135,-1.1597],[135.9123,-1.1633],[135.9077,-1.1671],[135.9068,-1.1773],[135.9016,-1.178],[135.8943,-1.1764],[135.9014,-1.162],[135.8993,-1.1597],[135.8995,-1.1508],[135.9115,-1.1487],[135.9152,-1.1466]]]}},{"type":"Feature","properties":{"name":"SamberSup","name_en":"SamberSup","admin_level":"7","osm_id":""},"geometry":{"type":"Polygon","coordinates":[[[135.9249,-1.0532],[135.9095,-1.0325],[135.9298,-1.0307],[135.94,-1.0268],[135.9501,-1.0468],[135.9377,-1.0482],[135.9249,-1.0532]]]}},{"type":"Feature","properties":{"name":"Suneri","name_en":"Suneri","admin_level":"7","osm_id":""},"geometry":{"type":"Polygon","coordinates":[[[136.0166,-1.069],[136.0183,-1.0758],[136.015,-1.0834],[136.0129,-1.1158],[135.9732,-1.1169],[135.9711,-1.0975],[135.9649,-1.0891],[135.9999,-1.0742],[136.0166,-1.069]]]}},{"type":"Feature","properties":{"name":"Sunyar","name_en":"Sunyar","admin_level":"7","osm_id":""},"geometry":{"type":"Polygon","coordinates":[[[135.9093,-1.0969],[135.9336,-1.0643],[135.9421,-1.0695],[135.9607,-1.0761],[135.9727,-1.0855],[135.9649,-1.0891],[135.9536,-1.1056],[135.9452,-1.1223],[135.934,-1.1208],[135.929,-1.1171],[135.9225,-1.1061],[135.9093,-1.0969]]]}},{"type":"Feature","properties":{"name":"Syabes","name_en":"Syabes","admin_level":"7","osm_id":""},"geometry":{"type":"Polygon","coordinates":[[[135.9528,-1.006],[135.9634,-1.006],[135.9722,-1.0087],[135.9817,-1.0159],[135.995,-1.022],[136.0105,-1.0359],[135.9643,-1.0456],[135.9501,-1.0468],[135.94,-1.0268],[135.946,-1.0124],[135.9497,-1.0111],[135.9528,-1.006]]]}},{"type":"Feature","properties":{"name":"Urfu","name_en":"Urfu","admin_level":"7","osm_id":""},"geometry":{"type":"Polygon","coordinates":[[[135.889,-1.1224],[135.9093,-1.0969],[135.9225,-1.1061],[135.929,-1.1171],[135.934,-1.1208],[135.9479,-1.1226],[135.9541,-1.1252],[135.9521,-1.1469],[135.9451,-1.1463],[135.9426,-1.1415],[135.9406,-1.1424],[135.943,-1.1463],[135.9408,-1.1485],[135.9373,-1.1487],[135.9338,-1.1422],[135.9288,-1.1469],[135.9152,-1.1466],[135.9115,-1.1487],[135.8995,-1.1508],[135.8977,-1.1343],[135.8948,-1.1283],[135.889,-1.1224]]]}},{"type":"Feature","properties":{"name":"Waroi","name_en":"Waroi","admin_level":"7","osm_id":""},"geometry":{"type":"Polygon","coordinates":[[[135.8778,-1.1368],[135.889,-1.1224],[135.8948,-1.1283],[135.8977,-1.1343],[135.8993,-1.1597],[135.9014,-1.162],[135.8937,-1.1758],[135.8905,-1.1741],[135.8732,-1.1729],[135.8574,-1.166],[135.8778,-1.1368]]]}},{"type":"Feature","properties":{"name":"Wirmaker","name_en":"Wirmaker","admin_level":"7","osm_id":""},"geometry":{"type":"Polygon","coordinates":[[[135.9336,-1.0643],[135.9249,-1.0532],[135.9377,-1.0482],[135.9643,-1.0456],[136.0105,-1.0359],[136.0134,-1.056],[136.0074,-1.0583],[135.9803,-1.0661],[135.962,-1.0667],[135.9549,-1.0688],[135.9514,-1.0724],[135.9421,-1.0695],[135.9336,-1.0643]]]}},{"type":"Feature","properties":{"name":"Yendidori","name_en":"Yendidori","admin_level":"7","osm_id":""},"geometry":{"type":"Polygon","coordinates":[[[136.0393,-1.1389],[136.0357,-1.1474],[136.0327,-1.1483],[136.0283,-1.1463],[136.0209,-1.147],[136.0182,-1.1448],[136.0135,-1.1443],[136.0132,-1.1014],[136.0153,-1.0912],[136.015,-1.0834],[136.0183,-1.0758],[136.0238,-1.0836],[136.0332,-1.0891],[136.0382,-1.0995],[136.0393,-1.1389]]]}}]}