{"type":"FeatureCollection","metadata":{"parent_osm_id":"gid_IDN_26_15_5_1","parent_name":"LiukangTangaya","parent_name_1":"SulawesiSelatan","parent_gid":"IDN.26.15.5_1","parent_level":"6","child_level":"7","count":9,"source":"GADM 4.1","generated":"2026-05-09"},"features":[{"type":"Feature","properties":{"name":"BaloBaloang","name_en":"BaloBaloang","admin_level":"7","osm_id":""},"geometry":{"type":"Polygon","coordinates":[[[118.4066,-7.1779],[118.4096,-7.1818],[118.4052,-7.1844],[118.4003,-7.1847],[118.4011,-7.1878],[118.397,-7.1925],[118.3891,-7.1941],[118.3845,-7.1975],[118.38,-7.1958],[118.37,-7.2004],[118.3677,-7.1991],[118.3688,-7.1929],[118.3725,-7.1957],[118.3795,-7.1944],[118.3825,-7.1931],[118.381,-7.1931],[118.3817,-7.1913],[118.3923,-7.189],[118.4019,-7.1822],[118.3949,-7.1849],[118.3948,-7.183],[118.3986,-7.1815],[118.3983,-7.1804],[118.4066,-7.1779]]]}},{"type":"Feature","properties":{"name":"KapoposanBali","name_en":"KapoposanBali","admin_level":"7","osm_id":""},"geometry":{"type":"Polygon","coordinates":[[[117.1846,-7.4927],[117.1973,-7.5014],[117.1811,-7.5053],[117.1829,-7.5056],[117.1824,-7.5071],[117.1779,-7.5084],[117.1751,-7.5058],[117.1762,-7.4992],[117.1805,-7.4934],[117.1794,-7.493],[117.1846,-7.4927]]]}},{"type":"Feature","properties":{"name":"Poleonro","name_en":"Poleonro","admin_level":"7","osm_id":""},"geometry":{"type":"Polygon","coordinates":[[[117.4451,-7.575],[117.4496,-7.5783],[117.4555,-7.5885],[117.4499,-7.5896],[117.443,-7.5852],[117.4409,-7.5824],[117.441,-7.5789],[117.4427,-7.5751],[117.4451,-7.575]]]}},{"type":"Feature","properties":{"name":"Sabalana","name_en":"Sabalana","admin_level":"7","osm_id":""},"geometry":{"type":"Polygon","coordinates":[[[119.1148,-6.8373],[119.1142,-6.8386],[119.111,-6.8385],[119.1099,-6.8409],[119.1125,-6.844],[119.1196,-6.8403],[119.1251,-6.844],[119.1222,-6.8476],[119.1224,-6.8555],[119.1205,-6.8573],[119.1225,-6.8574],[119.1222,-6.859],[119.1178,-6.8608],[119.1152,-6.8599],[119.1079,-6.8646],[119.1051,-6.8638],[119.104,-6.8649],[119.1054,-6.8644],[119.1062,-6.8653],[119.1012,-6.869],[119.0959,-6.868],[119.0972,-6.8677],[119.097,-6.8653],[119.0939,-6.8618],[119.0943,-6.8588],[119.0993,-6.8461],[119.1089,-6.8379],[119.1134,-6.8364],[119.1148,-6.8373]]]}},{"type":"Feature","properties":{"name":"Sabaru","name_en":"Sabaru","admin_level":"7","osm_id":""},"geometry":{"type":"Polygon","coordinates":[[[118.8346,-6.5701],[118.841,-6.5747],[118.8417,-6.583],[118.8361,-6.5828],[118.8299,-6.5794],[118.8266,-6.5756],[118.8251,-6.5768],[118.8251,-6.5712],[118.8306,-6.5686],[118.8346,-6.5701]]]}},{"type":"Feature","properties":{"name":"Sailus","name_en":"Sailus","admin_level":"7","osm_id":""},"geometry":{"type":"Polygon","coordinates":[[[117.4814,-7.4807],[117.4841,-7.4814],[117.4841,-7.485],[117.4857,-7.485],[117.4856,-7.4951],[117.4834,-7.5024],[117.4846,-7.4954],[117.4835,-7.4932],[117.4817,-7.494],[117.4832,-7.4961],[117.4825,-7.4988],[117.4805,-7.4977],[117.4812,-7.4951],[117.4793,-7.4958],[117.4761,-7.4936],[117.4745,-7.489],[117.478,-7.4809],[117.4803,-7.4793],[117.4814,-7.4807]]]}},{"type":"Feature","properties":{"name":"Sapuka","name_en":"Sapuka","admin_level":"7","osm_id":""},"geometry":{"type":"Polygon","coordinates":[[[118.1122,-7.2975],[118.114,-7.3017],[118.1134,-7.3067],[118.1112,-7.3091],[118.1057,-7.3081],[118.1031,-7.3054],[118.1047,-7.3037],[118.1037,-7.302],[118.1053,-7.301],[118.1063,-7.3028],[118.1086,-7.3003],[118.1078,-7.2987],[118.1104,-7.2966],[118.1122,-7.2975]]]}},{"type":"Feature","properties":{"name":"Satanger","name_en":"Satanger","admin_level":"7","osm_id":""},"geometry":{"type":"Polygon","coordinates":[[[117.2886,-7.5251],[117.3109,-7.5292],[117.3359,-7.528],[117.3265,-7.5349],[117.3207,-7.5372],[117.2907,-7.5396],[117.2842,-7.5389],[117.2807,-7.536],[117.2795,-7.5315],[117.2821,-7.5313],[117.2816,-7.5284],[117.284,-7.5259],[117.2886,-7.5251]]]}},{"type":"Feature","properties":{"name":"Tampaang","name_en":"Tampaang","admin_level":"7","osm_id":""},"geometry":{"type":"Polygon","coordinates":[[[117.8721,-7.4443],[117.8768,-7.4587],[117.8766,-7.4555],[117.8781,-7.456],[117.8778,-7.4606],[117.872,-7.453],[117.8694,-7.4457],[117.8703,-7.4432],[117.8664,-7.44],[117.8721,-7.4443]]]}}]}