{"type":"FeatureCollection","metadata":{"parent_osm_id":"gid_IDN_9_4_7_1","parent_name":"CikarangPusat","parent_name_1":"JawaBarat","parent_gid":"IDN.9.4.7_1","parent_level":"6","child_level":"7","count":6,"source":"GADM 4.1","generated":"2026-05-09"},"features":[{"type":"Feature","properties":{"name":"Cicau","name_en":"Cicau","admin_level":"7","osm_id":""},"geometry":{"type":"Polygon","coordinates":[[[107.1629,-6.3559],[107.17,-6.3688],[107.1623,-6.3722],[107.1598,-6.3791],[107.1613,-6.3798],[107.158,-6.3835],[107.1517,-6.3806],[107.1486,-6.3838],[107.1432,-6.3791],[107.1378,-6.3799],[107.1279,-6.3759],[107.1292,-6.3697],[107.1345,-6.3668],[107.1346,-6.3597],[107.1376,-6.358],[107.1372,-6.3564],[107.1394,-6.3554],[107.1432,-6.3491],[107.1445,-6.3515],[107.148,-6.353],[107.1497,-6.3518],[107.1501,-6.3551],[107.1629,-6.3559]]]}},{"type":"Feature","properties":{"name":"Hegarmukti","name_en":"Hegarmukti","admin_level":"7","osm_id":""},"geometry":{"type":"Polygon","coordinates":[[[107.181,-6.3538],[107.1813,-6.3519],[107.1786,-6.3492],[107.1797,-6.3369],[107.1845,-6.3239],[107.1956,-6.3274],[107.1966,-6.3295],[107.2024,-6.3299],[107.2001,-6.3424],[107.1967,-6.346],[107.198,-6.3479],[107.1961,-6.3501],[107.1963,-6.3532],[107.181,-6.3538]]]}},{"type":"Feature","properties":{"name":"Jayamukti","name_en":"Jayamukti","admin_level":"7","osm_id":""},"geometry":{"type":"Polygon","coordinates":[[[107.1845,-6.3239],[107.1797,-6.3369],[107.1786,-6.3492],[107.1813,-6.3519],[107.181,-6.3538],[107.178,-6.3528],[107.1753,-6.3474],[107.1752,-6.3431],[107.1715,-6.3331],[107.1722,-6.3305],[107.174,-6.33],[107.1721,-6.3262],[107.1567,-6.3166],[107.1607,-6.3108],[107.1654,-6.309],[107.1654,-6.304],[107.1696,-6.3068],[107.1674,-6.309],[107.1671,-6.313],[107.1691,-6.3122],[107.1717,-6.3139],[107.1717,-6.3156],[107.1766,-6.3183],[107.1852,-6.3197],[107.1845,-6.3239]]]}},{"type":"Feature","properties":{"name":"Pasirranji","name_en":"Pasirranji","admin_level":"7","osm_id":""},"geometry":{"type":"Polygon","coordinates":[[[107.2199,-6.3962],[107.2147,-6.3952],[107.2103,-6.3981],[107.2045,-6.3953],[107.2011,-6.3983],[107.1981,-6.3977],[107.1968,-6.3953],[107.1922,-6.3949],[107.1896,-6.396],[107.1885,-6.3984],[107.1816,-6.3927],[107.1861,-6.3888],[107.1937,-6.3884],[107.1939,-6.391],[107.1945,-6.387],[107.1961,-6.3872],[107.1965,-6.389],[107.1971,-6.3863],[107.2004,-6.3884],[107.2055,-6.3837],[107.2015,-6.3804],[107.201,-6.378],[107.1923,-6.3773],[107.193,-6.3736],[107.1886,-6.3718],[107.1891,-6.3645],[107.185,-6.3633],[107.1851,-6.3587],[107.1876,-6.3583],[107.1875,-6.3539],[107.1963,-6.3532],[107.1961,-6.3501],[107.2073,-6.351],[107.2152,-6.3497],[107.2131,-6.3567],[107.2153,-6.3618],[107.2132,-6.3638],[107.2107,-6.3613],[107.2075,-6.3615],[107.2104,-6.3659],[107.2055,-6.3692],[107.2048,-6.3757],[107.2105,-6.3796],[107.2128,-6.3745],[107.2144,-6.3796],[107.2193,-6.3808],[107.2186,-6.3833],[107.2215,-6.3853],[107.2199,-6.3962]]]}},{"type":"Feature","properties":{"name":"Pasirtanjung","name_en":"Pasirtanjung","admin_level":"7","osm_id":""},"geometry":{"type":"Polygon","coordinates":[[[107.1964,-6.3501],[107.198,-6.3479],[107.1967,-6.346],[107.2007,-6.3405],[107.2025,-6.3308],[107.2011,-6.3285],[107.209,-6.3284],[107.2094,-6.3222],[107.2139,-6.3228],[107.2135,-6.3249],[107.2153,-6.3257],[107.2168,-6.3209],[107.2189,-6.3212],[107.219,-6.3263],[107.2147,-6.33],[107.2187,-6.3311],[107.2206,-6.3345],[107.2236,-6.3354],[107.2264,-6.3497],[107.2223,-6.3519],[107.2142,-6.3494],[107.2073,-6.351],[107.1964,-6.3501]]]}},{"type":"Feature","properties":{"name":"Sukamahi","name_en":"Sukamahi","admin_level":"7","osm_id":""},"geometry":{"type":"Polygon","coordinates":[[[107.1613,-6.3798],[107.1598,-6.3791],[107.1623,-6.3722],[107.1696,-6.3699],[107.17,-6.3685],[107.1629,-6.3559],[107.1763,-6.3531],[107.1875,-6.3539],[107.1876,-6.3583],[107.1851,-6.3587],[107.185,-6.3633],[107.1891,-6.3645],[107.1886,-6.3718],[107.193,-6.3736],[107.1923,-6.3773],[107.201,-6.378],[107.2015,-6.3804],[107.2055,-6.3837],[107.2004,-6.3884],[107.1971,-6.3863],[107.1965,-6.389],[107.1961,-6.3872],[107.1945,-6.387],[107.1939,-6.391],[107.1935,-6.3884],[107.1754,-6.3906],[107.168,-6.3871],[107.1642,-6.3832],[107.1647,-6.3783],[107.1613,-6.3798]]]}}]}