{"type":"FeatureCollection","metadata":{"parent_osm_id":"20447308","parent_name":"Wanasari","parent_name_1":"JawaTengah","parent_gid":"IDN.10.6.17_1","parent_level":"6","child_level":"7","count":20,"source":"GADM 4.1","generated":"2026-05-09"},"features":[{"type":"Feature","properties":{"name":"Dukuhwringin","name_en":"Dukuhwringin","admin_level":"7","osm_id":""},"geometry":{"type":"Polygon","coordinates":[[[108.9807,-6.9215],[108.9793,-6.9175],[108.9814,-6.9169],[108.9822,-6.9139],[108.9897,-6.9153],[108.9904,-6.9139],[108.9993,-6.9168],[108.9972,-6.9199],[108.9986,-6.9222],[108.9976,-6.9236],[108.9988,-6.9239],[108.9975,-6.924],[108.9976,-6.9261],[108.9823,-6.9242],[108.9807,-6.9215]]]}},{"type":"Feature","properties":{"name":"Dumeling","name_en":"Dumeling","admin_level":"7","osm_id":""},"geometry":{"type":"Polygon","coordinates":[[[108.9896,-6.8417],[108.9914,-6.8388],[108.9958,-6.8415],[109.0218,-6.8449],[109.0221,-6.8473],[109.0212,-6.85],[109.0179,-6.8516],[109.0139,-6.8493],[109.0025,-6.8474],[109.0,-6.845],[108.9937,-6.8442],[108.9896,-6.8417]]]}},{"type":"Feature","properties":{"name":"Glonggong","name_en":"Glonggong","admin_level":"7","osm_id":""},"geometry":{"type":"Polygon","coordinates":[[[109.0295,-6.9335],[109.0268,-6.9372],[109.0234,-6.9362],[109.0214,-6.9331],[109.0158,-6.932],[109.0209,-6.9216],[109.0274,-6.9206],[109.0299,-6.9225],[109.0336,-6.9212],[109.0339,-6.9271],[109.0295,-6.9335]]]}},{"type":"Feature","properties":{"name":"Jagalempeni","name_en":"Jagalempeni","admin_level":"7","osm_id":""},"geometry":{"type":"Polygon","coordinates":[[[109.0275,-6.9372],[109.0271,-6.9376],[109.0247,-6.937],[109.0224,-6.9389],[109.0205,-6.9377],[109.0157,-6.947],[109.0126,-6.9496],[109.0066,-6.9503],[109.0039,-6.9523],[109.0004,-6.9521],[108.9983,-6.9502],[108.9956,-6.9518],[108.9947,-6.9481],[109.0006,-6.9401],[108.9997,-6.9326],[109.0012,-6.9325],[109.0028,-6.9261],[109.0051,-6.9285],[109.0158,-6.9298],[109.0158,-6.932],[109.0214,-6.9331],[109.0234,-6.9362],[109.0275,-6.9372]]]}},{"type":"Feature","properties":{"name":"Keboledan","name_en":"Keboledan","admin_level":"7","osm_id":""},"geometry":{"type":"Polygon","coordinates":[[[108.9872,-6.8561],[108.9892,-6.852],[108.9888,-6.8463],[108.9916,-6.8501],[108.9989,-6.854],[109.0061,-6.8549],[109.0061,-6.8578],[109.0079,-6.8579],[109.0071,-6.86],[109.0044,-6.8609],[108.9872,-6.8561]]]}},{"type":"Feature","properties":{"name":"Kertabesuki","name_en":"Kertabesuki","admin_level":"7","osm_id":""},"geometry":{"type":"Polygon","coordinates":[[[109.0247,-6.8298],[109.0259,-6.8331],[109.0306,-6.834],[109.0306,-6.8375],[109.0284,-6.8389],[109.024,-6.835],[109.0205,-6.8354],[109.0201,-6.8419],[109.0218,-6.8449],[109.0205,-6.8452],[108.9958,-6.8415],[108.9888,-6.8369],[109.0168,-6.8382],[109.0214,-6.8311],[109.0247,-6.8298]]]}},{"type":"Feature","properties":{"name":"Klampok","name_en":"Klampok","admin_level":"7","osm_id":""},"geometry":{"type":"Polygon","coordinates":[[[108.9887,-6.8728],[108.987,-6.8729],[108.9859,-6.867],[108.9864,-6.8558],[109.0044,-6.8609],[109.0071,-6.86],[109.0079,-6.8579],[109.0062,-6.8574],[109.0124,-6.8579],[109.0117,-6.8694],[109.0051,-6.8682],[109.0035,-6.8755],[108.9975,-6.8744],[108.9961,-6.8723],[108.9887,-6.8728]]]}},{"type":"Feature","properties":{"name":"Kupu","name_en":"Kupu","admin_level":"7","osm_id":""},"geometry":{"type":"Polygon","coordinates":[[[108.9888,-6.8463],[108.9896,-6.8417],[108.9937,-6.8442],[109.0,-6.845],[109.0025,-6.8474],[109.0139,-6.8493],[109.0181,-6.8538],[109.0174,-6.8587],[109.0062,-6.8574],[109.0061,-6.8549],[108.9989,-6.854],[108.9916,-6.8501],[108.9888,-6.8463]]]}},{"type":"Feature","properties":{"name":"Lengkong","name_en":"Lengkong","admin_level":"7","osm_id":""},"geometry":{"type":"Polygon","coordinates":[[[109.0381,-6.9147],[109.0336,-6.9212],[109.0299,-6.9225],[109.0236,-6.9198],[109.0218,-6.9154],[109.0192,-6.9136],[109.0176,-6.9136],[109.0167,-6.9177],[109.0138,-6.9123],[109.0152,-6.9114],[109.0281,-6.9137],[109.029,-6.9156],[109.0364,-6.9119],[109.0381,-6.9147]]]}},{"type":"Feature","properties":{"name":"Pebatan","name_en":"Pebatan","admin_level":"7","osm_id":""},"geometry":{"type":"Polygon","coordinates":[[[109.0344,-6.8693],[109.0328,-6.8725],[109.0298,-6.8728],[109.0302,-6.8763],[109.0276,-6.8777],[109.0204,-6.8734],[109.0036,-6.8717],[109.0051,-6.8682],[109.0113,-6.8699],[109.0123,-6.8652],[109.0344,-6.8693]]]}},{"type":"Feature","properties":{"name":"Pesantunan","name_en":"Pesantunan","admin_level":"7","osm_id":""},"geometry":{"type":"Polygon","coordinates":[[[109.0346,-6.8655],[109.0344,-6.8693],[109.0117,-6.8647],[109.0124,-6.8579],[109.0174,-6.8587],[109.0181,-6.8538],[109.0165,-6.8517],[109.0212,-6.85],[109.0218,-6.8449],[109.0216,-6.8501],[109.0251,-6.854],[109.0248,-6.8592],[109.0312,-6.8605],[109.0346,-6.8655]]]}},{"type":"Feature","properties":{"name":"Sawojajar","name_en":"Sawojajar","admin_level":"7","osm_id":""},"geometry":{"type":"Polygon","coordinates":[[[109.0195,-6.786],[109.0181,-6.8081],[109.0123,-6.8147],[109.0116,-6.8178],[109.02,-6.8218],[109.0227,-6.8212],[109.024,-6.8267],[109.0208,-6.8287],[109.0187,-6.8271],[109.0172,-6.8282],[109.0183,-6.8315],[109.021,-6.8322],[109.0187,-6.8368],[109.0168,-6.8382],[109.0077,-6.8387],[108.9889,-6.836],[108.9914,-6.8388],[108.9897,-6.84],[108.9858,-6.8341],[108.9884,-6.8345],[108.9871,-6.832],[108.9741,-6.8202],[108.9748,-6.8146],[108.9731,-6.8134],[108.9734,-6.8105],[108.9688,-6.8053],[108.9808,-6.8061],[108.983,-6.8083],[108.9928,-6.809],[108.9904,-6.8066],[108.9941,-6.8058],[108.9929,-6.8035],[108.995,-6.7977],[109.0005,-6.7994],[109.0023,-6.797],[109.006,-6.7975],[109.0083,-6.7934],[109.0126,-6.7922],[109.0134,-6.7859],[109.0149,-6.7843],[109.0195,-6.786]]]}},{"type":"Feature","properties":{"name":"Siasem","name_en":"Siasem","admin_level":"7","osm_id":""},"geometry":{"type":"Polygon","coordinates":[[[109.0329,-6.8714],[109.0378,-6.8759],[109.0384,-6.8796],[109.0349,-6.8784],[109.0336,-6.8813],[109.0252,-6.8806],[109.0237,-6.8826],[109.0175,-6.8826],[109.0214,-6.8853],[109.0193,-6.8855],[109.0162,-6.8907],[109.0115,-6.8884],[109.002,-6.8909],[108.9983,-6.8882],[108.9948,-6.8878],[108.9951,-6.8783],[108.997,-6.8733],[109.002,-6.8761],[109.0037,-6.875],[109.0036,-6.8717],[109.0107,-6.8718],[109.0204,-6.8734],[109.0276,-6.8777],[109.0302,-6.8763],[109.0298,-6.8728],[109.0328,-6.8725],[109.0329,-6.8714]]]}},{"type":"Feature","properties":{"name":"Sidamulya","name_en":"Sidamulya","admin_level":"7","osm_id":""},"geometry":{"type":"Polygon","coordinates":[[[109.0229,-6.8979],[109.0234,-6.8995],[109.0302,-6.8994],[109.0293,-6.9028],[109.0238,-6.9008],[109.0264,-6.9043],[109.0333,-6.908],[109.0319,-6.9109],[109.0284,-6.9115],[109.0281,-6.9137],[109.0152,-6.9114],[109.0165,-6.909],[109.0115,-6.9073],[109.0118,-6.9051],[109.0037,-6.9021],[109.0068,-6.8994],[109.0127,-6.901],[109.0129,-6.8968],[109.0162,-6.8988],[109.0168,-6.8963],[109.0229,-6.8979]]]}},{"type":"Feature","properties":{"name":"Sigentong","name_en":"Sigentong","admin_level":"7","osm_id":""},"geometry":{"type":"Polygon","coordinates":[[[108.9914,-6.9002],[108.9864,-6.8975],[108.9883,-6.8926],[108.9914,-6.8933],[108.9945,-6.8878],[108.9983,-6.8882],[109.002,-6.8909],[109.0115,-6.889],[109.0127,-6.901],[109.0033,-6.8993],[108.9985,-6.9038],[108.996,-6.9028],[108.9962,-6.8991],[108.9914,-6.9002]]]}},{"type":"Feature","properties":{"name":"Sisalam","name_en":"Sisalam","admin_level":"7","osm_id":""},"geometry":{"type":"Polygon","coordinates":[[[109.0244,-6.9203],[109.0209,-6.9216],[109.0166,-6.9305],[109.0069,-6.9289],[109.0088,-6.9235],[109.0115,-6.924],[109.0138,-6.9123],[109.0167,-6.9177],[109.0176,-6.9136],[109.0192,-6.9136],[109.0218,-6.9154],[109.0215,-6.9171],[109.0244,-6.9203]]]}},{"type":"Feature","properties":{"name":"Siwungkuk","name_en":"Siwungkuk","admin_level":"7","osm_id":""},"geometry":{"type":"Polygon","coordinates":[[[108.9889,-6.9325],[108.9866,-6.9309],[108.9869,-6.9253],[109.0028,-6.9261],[109.0008,-6.9329],[108.9949,-6.9311],[108.9889,-6.9325]]]}},{"type":"Feature","properties":{"name":"Tanjungsari","name_en":"Tanjungsari","admin_level":"7","osm_id":""},"geometry":{"type":"Polygon","coordinates":[[[108.9821,-6.9118],[108.9871,-6.9113],[108.9873,-6.9068],[108.9899,-6.9059],[108.9922,-6.899],[108.9962,-6.8991],[108.996,-6.9028],[108.9985,-6.9038],[109.0038,-6.8995],[109.0052,-6.9006],[109.0038,-6.9023],[109.0118,-6.9051],[109.0115,-6.9073],[109.0165,-6.909],[109.0133,-6.9134],[109.0141,-6.9152],[109.0125,-6.915],[109.0115,-6.924],[109.0088,-6.9235],[109.0069,-6.9289],[109.0025,-6.9259],[108.9976,-6.9261],[108.9975,-6.924],[108.9988,-6.9239],[108.9976,-6.9236],[108.9986,-6.9222],[108.9972,-6.9199],[108.9993,-6.9168],[108.9904,-6.9139],[108.9897,-6.9153],[108.9822,-6.9139],[108.9814,-6.9169],[108.9793,-6.9175],[108.9821,-6.9118]]]}},{"type":"Feature","properties":{"name":"Tegalgandu","name_en":"Tegalgandu","admin_level":"7","osm_id":""},"geometry":{"type":"Polygon","coordinates":[[[108.9857,-6.9439],[108.9892,-6.9376],[108.9889,-6.932],[108.9969,-6.9312],[108.9996,-6.9326],[109.0006,-6.9401],[108.9947,-6.9481],[108.9956,-6.9518],[108.9846,-6.9499],[108.9857,-6.9439]]]}},{"type":"Feature","properties":{"name":"Wanasari","name_en":"Wanasari","admin_level":"7","osm_id":""},"geometry":{"type":"Polygon","coordinates":[[[109.0336,-6.8813],[109.0353,-6.8839],[109.0343,-6.8873],[109.0313,-6.8875],[109.0295,-6.8909],[109.023,-6.8938],[109.0229,-6.8979],[109.0168,-6.8963],[109.0162,-6.8988],[109.0129,-6.8968],[109.0115,-6.8884],[109.016,-6.8908],[109.0185,-6.8887],[109.0193,-6.8855],[109.0212,-6.886],[109.0175,-6.8826],[109.0237,-6.8826],[109.0252,-6.8806],[109.0336,-6.8813]]]}}]}