{"type":"FeatureCollection","metadata":{"parent_osm_id":"gid_IDN_21_21_8_1","parent_name":"BikomiSelatan","parent_name_1":"NusaTenggaraTimur","parent_gid":"IDN.21.21.8_1","parent_level":"6","child_level":"7","count":8,"source":"GADM 4.1","generated":"2026-05-08"},"features":[{"type":"Feature","properties":{"name":"Kiusili","name_en":"Kiusili","admin_level":"7","osm_id":""},"geometry":{"type":"Polygon","coordinates":[[[124.4488,-9.4643],[124.4495,-9.4707],[124.4465,-9.4757],[124.449,-9.4806],[124.4515,-9.4817],[124.4517,-9.4854],[124.4544,-9.487],[124.4566,-9.4919],[124.4621,-9.4971],[124.4631,-9.5016],[124.4596,-9.4975],[124.4486,-9.4935],[124.4412,-9.4926],[124.4348,-9.4849],[124.4319,-9.486],[124.4306,-9.4847],[124.4293,-9.4812],[124.4319,-9.4791],[124.4311,-9.4737],[124.4354,-9.4694],[124.4358,-9.4669],[124.4469,-9.4629],[124.4488,-9.4643]]]}},{"type":"Feature","properties":{"name":"Maurisu","name_en":"Maurisu","admin_level":"7","osm_id":""},"geometry":{"type":"Polygon","coordinates":[[[124.6834,-9.5849],[124.6785,-9.5859],[124.6702,-9.5822],[124.6583,-9.5815],[124.6483,-9.576],[124.6411,-9.576],[124.632,-9.5702],[124.6162,-9.572],[124.6084,-9.5687],[124.598,-9.57],[124.5908,-9.5676],[124.5911,-9.5646],[124.5875,-9.5674],[124.5815,-9.5652],[124.5757,-9.5676],[124.5745,-9.5654],[124.5787,-9.5629],[124.5749,-9.5606],[124.5627,-9.5674],[124.5598,-9.5624],[124.5555,-9.5644],[124.5478,-9.5606],[124.5476,-9.5505],[124.5497,-9.5468],[124.5475,-9.5406],[124.5505,-9.535],[124.5543,-9.5328],[124.5582,-9.5382],[124.5701,-9.5404],[124.5696,-9.5451],[124.5709,-9.547],[124.5755,-9.5461],[124.5762,-9.5438],[124.5856,-9.5527],[124.5877,-9.5476],[124.5866,-9.5448],[124.5923,-9.546],[124.595,-9.545],[124.5994,-9.5512],[124.6047,-9.5537],[124.61,-9.5528],[124.6131,-9.5533],[124.6145,-9.5552],[124.6196,-9.5513],[124.6254,-9.5563],[124.6252,-9.5531],[124.6334,-9.5578],[124.6365,-9.5567],[124.6378,-9.5579],[124.6382,-9.5566],[124.6406,-9.5596],[124.6456,-9.5592],[124.6476,-9.5534],[124.6497,-9.5542],[124.6532,-9.552],[124.6554,-9.5525],[124.6587,-9.5558],[124.6606,-9.5557],[124.6609,-9.5576],[124.6697,-9.5607],[124.6709,-9.5666],[124.676,-9.5712],[124.6812,-9.5722],[124.6834,-9.5849]]]}},{"type":"Feature","properties":{"name":"MaurisuSelatan","name_en":"MaurisuSelatan","admin_level":"7","osm_id":""},"geometry":{"type":"Polygon","coordinates":[[[124.7035,-9.5628],[124.7003,-9.5689],[124.7016,-9.5811],[124.6995,-9.585],[124.6944,-9.5864],[124.6834,-9.5849],[124.6812,-9.5722],[124.676,-9.5712],[124.6721,-9.5679],[124.6697,-9.5607],[124.6657,-9.5602],[124.6651,-9.5584],[124.6587,-9.5558],[124.6586,-9.5491],[124.662,-9.5444],[124.6654,-9.5448],[124.6689,-9.539],[124.6713,-9.5437],[124.6687,-9.5466],[124.669,-9.5481],[124.6754,-9.5487],[124.6819,-9.5535],[124.6837,-9.5567],[124.682,-9.5614],[124.6857,-9.5631],[124.6927,-9.5629],[124.6967,-9.561],[124.7005,-9.5648],[124.7035,-9.5628]]]}},{"type":"Feature","properties":{"name":"MaurisuUtara","name_en":"MaurisuUtara","admin_level":"7","osm_id":""},"geometry":{"type":"Polygon","coordinates":[[[124.6586,-9.5491],[124.6581,-9.5541],[124.6532,-9.552],[124.6497,-9.5542],[124.6476,-9.5534],[124.6456,-9.5592],[124.6406,-9.5596],[124.6382,-9.5566],[124.6378,-9.5579],[124.6365,-9.5567],[124.6334,-9.5578],[124.6252,-9.5531],[124.6254,-9.5563],[124.6196,-9.5513],[124.6145,-9.5552],[124.6131,-9.5533],[124.61,-9.5528],[124.6047,-9.5537],[124.5994,-9.5512],[124.595,-9.545],[124.5923,-9.546],[124.5866,-9.5448],[124.5877,-9.5476],[124.5856,-9.5527],[124.5762,-9.5438],[124.5755,-9.5461],[124.5709,-9.547],[124.5696,-9.5451],[124.5701,-9.5404],[124.5582,-9.5382],[124.5543,-9.5328],[124.5505,-9.535],[124.5473,-9.5405],[124.5418,-9.5267],[124.5571,-9.5285],[124.5748,-9.5379],[124.5745,-9.5355],[124.5766,-9.5337],[124.5759,-9.5311],[124.5781,-9.5267],[124.5855,-9.5213],[124.5931,-9.5195],[124.5961,-9.5148],[124.6,-9.5151],[124.5999,-9.5114],[124.6046,-9.5145],[124.6063,-9.5184],[124.6129,-9.5163],[124.6134,-9.5203],[124.6161,-9.5214],[124.6168,-9.5256],[124.623,-9.5274],[124.625,-9.5306],[124.6251,-9.5319],[124.6221,-9.5328],[124.6222,-9.536],[124.6239,-9.5364],[124.6258,-9.5342],[124.6294,-9.5361],[124.6341,-9.5401],[124.6318,-9.5423],[124.6354,-9.5418],[124.6382,-9.5454],[124.6393,-9.543],[124.6418,-9.5434],[124.6421,-9.5415],[124.6441,-9.5409],[124.6456,-9.5424],[124.6434,-9.5479],[124.648,-9.5462],[124.6491,-9.5439],[124.6522,-9.5434],[124.6562,-9.5458],[124.6539,-9.5493],[124.6586,-9.5491]]]}},{"type":"Feature","properties":{"name":"Naiola","name_en":"Naiola","admin_level":"7","osm_id":""},"geometry":{"type":"Polygon","coordinates":[[[124.5418,-9.5267],[124.5495,-9.5452],[124.5469,-9.5589],[124.5388,-9.554],[124.5349,-9.5575],[124.5296,-9.5569],[124.5189,-9.5588],[124.5168,-9.5628],[124.5143,-9.564],[124.5097,-9.5629],[124.5041,-9.5582],[124.4943,-9.5598],[124.4901,-9.5575],[124.491,-9.5563],[124.4876,-9.5523],[124.4855,-9.5526],[124.4846,-9.5511],[124.4842,-9.5537],[124.4808,-9.5466],[124.4787,-9.5445],[124.4768,-9.5449],[124.4778,-9.5407],[124.4768,-9.5356],[124.4791,-9.5329],[124.477,-9.5302],[124.4737,-9.5311],[124.4731,-9.5272],[124.4709,-9.5254],[124.4719,-9.5234],[124.4699,-9.5222],[124.4707,-9.5184],[124.464,-9.5081],[124.4653,-9.5071],[124.4694,-9.5091],[124.4778,-9.5097],[124.4918,-9.515],[124.5,-9.5136],[124.5123,-9.5147],[124.522,-9.5194],[124.5357,-9.5224],[124.5418,-9.5267]]]}},{"type":"Feature","properties":{"name":"Oelami","name_en":"Oelami","admin_level":"7","osm_id":""},"geometry":{"type":"Polygon","coordinates":[[[124.4631,-9.5016],[124.4621,-9.4971],[124.4566,-9.4919],[124.4544,-9.487],[124.4517,-9.4854],[124.4515,-9.4817],[124.449,-9.4806],[124.4465,-9.4757],[124.4495,-9.4707],[124.4488,-9.4643],[124.4534,-9.4622],[124.4564,-9.4629],[124.4587,-9.4607],[124.4613,-9.4643],[124.4652,-9.4658],[124.462,-9.4684],[124.4595,-9.4762],[124.4663,-9.4908],[124.4822,-9.4983],[124.4828,-9.5],[124.4771,-9.5099],[124.4694,-9.5091],[124.4647,-9.5068],[124.4631,-9.5016]]]}},{"type":"Feature","properties":{"name":"Oetalus","name_en":"Oetalus","admin_level":"7","osm_id":""},"geometry":{"type":"Polygon","coordinates":[[[124.4484,-9.494],[124.4596,-9.4975],[124.4639,-9.5021],[124.4653,-9.5071],[124.4641,-9.5092],[124.4707,-9.5184],[124.4696,-9.5193],[124.4699,-9.5222],[124.4719,-9.5234],[124.4709,-9.5254],[124.4621,-9.5192],[124.4619,-9.5125],[124.4577,-9.5083],[124.4574,-9.5009],[124.4529,-9.5022],[124.4522,-9.5002],[124.4505,-9.5002],[124.4502,-9.4951],[124.4484,-9.494]]]}},{"type":"Feature","properties":{"name":"Tublopo","name_en":"Tublopo","admin_level":"7","osm_id":""},"geometry":{"type":"Polygon","coordinates":[[[124.5961,-9.5148],[124.5931,-9.5195],[124.5855,-9.5213],[124.5781,-9.5267],[124.5759,-9.5311],[124.5766,-9.5337],[124.5745,-9.5355],[124.5748,-9.5379],[124.5571,-9.5285],[124.5419,-9.5267],[124.5341,-9.5198],[124.5334,-9.5169],[124.5343,-9.51],[124.5373,-9.5076],[124.5402,-9.5017],[124.5431,-9.504],[124.5467,-9.5028],[124.5529,-9.5037],[124.5538,-9.5013],[124.5579,-9.5044],[124.5594,-9.5023],[124.5627,-9.5025],[124.5639,-9.5032],[124.5631,-9.5058],[124.5667,-9.509],[124.5696,-9.5082],[124.5699,-9.5098],[124.574,-9.5111],[124.5773,-9.5088],[124.58,-9.5096],[124.582,-9.5062],[124.5839,-9.5059],[124.5872,-9.5135],[124.5911,-9.5092],[124.5976,-9.5085],[124.5961,-9.5148]]]}}]}