{"type":"FeatureCollection","metadata":{"parent_osm_id":"gid_IDN_9_26_17_1","parent_name":"Karangjaya","parent_name_1":"JawaBarat","parent_gid":"IDN.9.26.17_1","parent_level":"6","child_level":"7","count":4,"source":"GADM 4.1","generated":"2026-05-09"},"features":[{"type":"Feature","properties":{"name":"Citalahab","name_en":"Citalahab","admin_level":"7","osm_id":""},"geometry":{"type":"Polygon","coordinates":[[[108.423,-7.4537],[108.4244,-7.4506],[108.4264,-7.4741],[108.4216,-7.4889],[108.4244,-7.4878],[108.424,-7.4894],[108.4296,-7.4898],[108.4342,-7.4878],[108.4379,-7.4903],[108.4425,-7.4887],[108.4295,-7.5005],[108.4263,-7.4949],[108.4195,-7.4926],[108.4193,-7.4893],[108.4173,-7.4882],[108.4148,-7.4892],[108.4147,-7.4939],[108.4135,-7.4953],[108.4123,-7.4945],[108.4119,-7.4978],[108.4104,-7.4981],[108.4105,-7.4945],[108.4069,-7.4937],[108.4069,-7.4888],[108.4038,-7.486],[108.4022,-7.487],[108.4012,-7.4844],[108.4025,-7.4785],[108.4113,-7.4726],[108.4166,-7.4649],[108.4183,-7.4647],[108.4195,-7.4586],[108.423,-7.4537]]]}},{"type":"Feature","properties":{"name":"Karangjaya","name_en":"Karangjaya","admin_level":"7","osm_id":""},"geometry":{"type":"Polygon","coordinates":[[[108.4209,-7.4246],[108.4207,-7.4311],[108.4183,-7.4324],[108.416,-7.4314],[108.4128,-7.435],[108.4069,-7.4366],[108.406,-7.4416],[108.4029,-7.4433],[108.4022,-7.4503],[108.3982,-7.4509],[108.3977,-7.4492],[108.3953,-7.4519],[108.3945,-7.4505],[108.3914,-7.455],[108.3907,-7.4535],[108.3867,-7.454],[108.3854,-7.4524],[108.3845,-7.4539],[108.3827,-7.4524],[108.3734,-7.456],[108.3773,-7.4521],[108.3776,-7.4431],[108.383,-7.4415],[108.3862,-7.4368],[108.3847,-7.4315],[108.3908,-7.4269],[108.3914,-7.4211],[108.3938,-7.4222],[108.3966,-7.4202],[108.3956,-7.4187],[108.3989,-7.4168],[108.4098,-7.4223],[108.4138,-7.42],[108.418,-7.4202],[108.4209,-7.4246]]]}},{"type":"Feature","properties":{"name":"Karanglayung","name_en":"Karanglayung","admin_level":"7","osm_id":""},"geometry":{"type":"Polygon","coordinates":[[[108.3953,-7.4113],[108.3987,-7.4173],[108.3956,-7.4187],[108.3966,-7.4202],[108.3938,-7.4222],[108.3913,-7.4212],[108.3908,-7.4269],[108.3847,-7.4315],[108.3862,-7.4368],[108.383,-7.4415],[108.3776,-7.4431],[108.3773,-7.4521],[108.3733,-7.4562],[108.3702,-7.4517],[108.3652,-7.4491],[108.3531,-7.4483],[108.348,-7.4502],[108.3493,-7.4431],[108.3478,-7.4409],[108.3474,-7.433],[108.35,-7.4238],[108.3604,-7.4227],[108.3651,-7.416],[108.3678,-7.4169],[108.3672,-7.4209],[108.3709,-7.4215],[108.3735,-7.4242],[108.3763,-7.4199],[108.3795,-7.418],[108.3862,-7.4176],[108.3879,-7.4145],[108.3953,-7.4113]]]}},{"type":"Feature","properties":{"name":"Sirnajaya","name_en":"Sirnajaya","admin_level":"7","osm_id":""},"geometry":{"type":"Polygon","coordinates":[[[108.4212,-7.4306],[108.4222,-7.4342],[108.4199,-7.4401],[108.4234,-7.4459],[108.4209,-7.4504],[108.4214,-7.4531],[108.423,-7.4537],[108.4195,-7.4586],[108.4183,-7.4647],[108.4166,-7.4649],[108.4113,-7.4726],[108.4025,-7.4785],[108.4024,-7.4809],[108.4015,-7.4788],[108.3973,-7.4773],[108.3907,-7.477],[108.3841,-7.4794],[108.3861,-7.4716],[108.3842,-7.4679],[108.3857,-7.4652],[108.3844,-7.4613],[108.3853,-7.4525],[108.3867,-7.454],[108.3908,-7.4536],[108.3914,-7.455],[108.3945,-7.4505],[108.3953,-7.4519],[108.3977,-7.4492],[108.3982,-7.4509],[108.4022,-7.4503],[108.4029,-7.4433],[108.406,-7.4416],[108.4069,-7.4366],[108.4128,-7.435],[108.416,-7.4314],[108.4183,-7.4324],[108.4212,-7.4306]]]}}]}