{"type":"FeatureCollection","metadata":{"parent_osm_id":"gid_IDN_27_3_3_1","parent_name":"Bukal","parent_name_1":"SulawesiTengah","parent_gid":"IDN.27.3.3_1","parent_level":"6","child_level":"7","count":13,"source":"GADM 4.1","generated":"2026-05-09"},"features":[{"type":"Feature","properties":{"name":"Biau","name_en":"Biau","admin_level":"7","osm_id":""},"geometry":{"type":"Polygon","coordinates":[[[121.4412,1.0934],[121.4538,1.091],[121.4591,1.0864],[121.455,1.0793],[121.454,1.0736],[121.4509,1.0705],[121.4352,1.0771],[121.4375,1.0867],[121.4412,1.0934]]]}},{"type":"Feature","properties":{"name":"Binuang","name_en":"Binuang","admin_level":"7","osm_id":""},"geometry":{"type":"Polygon","coordinates":[[[121.4893,0.8398],[121.4766,0.8376],[121.4753,0.8415],[121.472,0.8422],[121.4668,0.8475],[121.4623,0.845],[121.4553,0.8476],[121.4396,0.8469],[121.4385,0.9132],[121.4363,0.9319],[121.4651,0.9302],[121.4625,0.9706],[121.4787,0.971],[121.4802,0.9755],[121.4857,0.9726],[121.4881,0.9772],[121.4901,0.9782],[121.4906,0.953],[121.4859,0.9268],[121.4829,0.8681],[121.4893,0.8398]]]}},{"type":"Feature","properties":{"name":"Bungkudu","name_en":"Bungkudu","admin_level":"7","osm_id":""},"geometry":{"type":"Polygon","coordinates":[[[121.4616,1.1107],[121.4659,1.0966],[121.4627,1.0845],[121.4538,1.091],[121.4412,1.0934],[121.4447,1.1079],[121.4485,1.1148],[121.4515,1.1122],[121.4616,1.1107]]]}},{"type":"Feature","properties":{"name":"Diat","name_en":"Diat","admin_level":"7","osm_id":""},"geometry":{"type":"Polygon","coordinates":[[[121.4352,1.0771],[121.4509,1.0705],[121.4491,1.0692],[121.4516,1.0669],[121.4494,1.0649],[121.4507,1.0636],[121.4498,1.0609],[121.4482,1.0599],[121.4351,1.0624],[121.4261,1.0556],[121.4298,1.067],[121.4352,1.0771]]]}},{"type":"Feature","properties":{"name":"Modo","name_en":"Modo","admin_level":"7","osm_id":""},"geometry":{"type":"Polygon","coordinates":[[[121.4696,0.9903],[121.4538,0.9929],[121.4397,0.9873],[121.4373,0.9921],[121.4397,1.0189],[121.4556,1.0214],[121.4682,1.0263],[121.4696,0.9903]]]}},{"type":"Feature","properties":{"name":"Mooyong","name_en":"Mooyong","admin_level":"7","osm_id":""},"geometry":{"type":"Polygon","coordinates":[[[121.4755,0.971],[121.4338,0.9707],[121.4383,0.9914],[121.4397,0.9873],[121.4538,0.9929],[121.4696,0.9903],[121.4755,0.971]]]}},{"type":"Feature","properties":{"name":"Mopu","name_en":"Mopu","admin_level":"7","osm_id":""},"geometry":{"type":"Polygon","coordinates":[[[121.4881,1.0412],[121.4907,1.0183],[121.4847,1.0124],[121.4855,1.0097],[121.4834,1.0073],[121.49,0.9781],[121.4881,0.9772],[121.486,0.9727],[121.4802,0.9755],[121.4787,0.971],[121.4755,0.971],[121.4696,0.9903],[121.4682,1.0263],[121.4556,1.0214],[121.4436,1.0195],[121.4414,1.0345],[121.4493,1.0466],[121.4613,1.0403],[121.4881,1.0412]]]}},{"type":"Feature","properties":{"name":"Potangoan","name_en":"Potangoan","admin_level":"7","osm_id":""},"geometry":{"type":"Polygon","coordinates":[[[121.4879,1.0429],[121.4883,1.0413],[121.4613,1.0403],[121.4493,1.0466],[121.4457,1.0542],[121.4506,1.0633],[121.4494,1.065],[121.4516,1.0666],[121.4513,1.0685],[121.4491,1.0694],[121.454,1.0736],[121.455,1.0793],[121.4591,1.0864],[121.4719,1.08],[121.4813,1.08],[121.4856,1.0676],[121.4879,1.0429]]]}},{"type":"Feature","properties":{"name":"Rantemaranu","name_en":"Rantemaranu","admin_level":"7","osm_id":""},"geometry":{"type":"Polygon","coordinates":[[[121.4625,0.9706],[121.4651,0.9302],[121.4321,0.9321],[121.4279,0.9341],[121.4289,0.9576],[121.4338,0.9707],[121.4625,0.9706]]]}},{"type":"Feature","properties":{"name":"Unone","name_en":"Unone","admin_level":"7","osm_id":""},"geometry":{"type":"Polygon","coordinates":[[[121.3928,0.851],[121.3904,0.8505],[121.3874,0.8537],[121.3843,0.8545],[121.3788,0.8524],[121.3746,0.8532],[121.3672,0.8492],[121.3637,0.8524],[121.359,0.8534],[121.3548,0.8502],[121.3499,0.8508],[121.3478,0.8496],[121.348,0.8438],[121.3519,0.8407],[121.3532,0.8345],[121.3505,0.8213],[121.3614,0.815],[121.3645,0.8068],[121.3634,0.801],[121.3573,0.8009],[121.3541,0.799],[121.3533,0.7953],[121.3446,0.7931],[121.3324,0.7946],[121.3262,0.7922],[121.3235,0.7881],[121.3175,0.7845],[121.3059,0.7919],[121.3032,0.7955],[121.2927,0.7949],[121.2892,0.7982],[121.2701,0.7958],[121.274,0.8043],[121.2711,0.8096],[121.2863,0.8509],[121.2851,0.8588],[121.2917,0.8713],[121.2912,0.8731],[121.2848,0.8766],[121.2857,0.8832],[121.2837,0.8878],[121.2841,0.8916],[121.2944,0.8987],[121.2945,0.9048],[121.2981,0.9074],[121.299,0.9114],[121.3037,0.9179],[121.2975,0.9232],[121.2988,0.9349],[121.3012,0.936],[121.3036,0.9409],[121.3044,0.9554],[121.3081,0.9586],[121.3122,0.9596],[121.3145,0.9675],[121.3135,0.9726],[121.3103,0.9756],[121.3062,0.9767],[121.3055,0.9803],[121.3091,0.9851],[121.3145,0.9812],[121.317,0.9811],[121.3241,0.9896],[121.3322,0.9865],[121.3389,0.9871],[121.3456,0.9844],[121.3482,0.9811],[121.3517,0.9811],[121.3667,0.9859],[121.3696,0.9943],[121.3825,0.9973],[121.3843,1.0013],[121.3942,1.0012],[121.4064,1.011],[121.4245,1.0222],[121.4288,1.0431],[121.4206,1.0444],[121.4244,1.0471],[121.4261,1.0556],[121.4351,1.0624],[121.4389,1.0623],[121.448,1.0599],[121.4457,1.0542],[121.4493,1.0466],[121.4414,1.0345],[121.4436,1.0195],[121.4397,1.0189],[121.4373,0.9921],[121.4223,0.9962],[121.4175,0.9852],[121.4034,0.9692],[121.4012,0.9477],[121.3795,0.8981],[121.4392,0.8793],[121.4396,0.8469],[121.4249,0.8435],[121.4201,0.8442],[121.4165,0.8479],[121.4112,0.8449],[121.4013,0.8434],[121.398,0.8494],[121.3928,0.851]]]}},{"type":"Feature","properties":{"name":"UptBukalI","name_en":"UptBukalI","admin_level":"7","osm_id":""},"geometry":{"type":"Polygon","coordinates":[[[121.4363,0.9319],[121.4385,0.9132],[121.4392,0.8792],[121.3795,0.8981],[121.4012,0.9477],[121.4286,0.9484],[121.4279,0.9341],[121.4363,0.9319]]]}},{"type":"Feature","properties":{"name":"Winangun","name_en":"Winangun","admin_level":"7","osm_id":""},"geometry":{"type":"Polygon","coordinates":[[[121.4383,0.9914],[121.4357,0.977],[121.4289,0.9576],[121.4286,0.9484],[121.4012,0.9477],[121.4034,0.9692],[121.4175,0.9852],[121.4223,0.9962],[121.4383,0.9914]]]}},{"type":"Feature","properties":{"name":"Yugut","name_en":"Yugut","admin_level":"7","osm_id":""},"geometry":{"type":"Polygon","coordinates":[[[121.4206,1.0444],[121.4288,1.0431],[121.4245,1.0222],[121.4064,1.011],[121.3942,1.0012],[121.3843,1.0013],[121.3825,0.9973],[121.3745,0.9963],[121.3697,0.9933],[121.363,1.0118],[121.3539,1.0268],[121.3556,1.0292],[121.366,1.0386],[121.3942,1.0472],[121.4206,1.0444]]]}}]}