{"type":"FeatureCollection","metadata":{"parent_osm_id":"gid_IDN_17_4_15_1","parent_name":"PutraRumbia","parent_name_1":"Lampung","parent_gid":"IDN.17.4.15_1","parent_level":"6","child_level":"7","count":10,"source":"GADM 4.1","generated":"2026-05-09"},"features":[{"type":"Feature","properties":{"name":"BinaKaryaBaru","name_en":"BinaKaryaBaru","admin_level":"7","osm_id":""},"geometry":{"type":"Polygon","coordinates":[[[105.5503,-4.8318],[105.5552,-4.8292],[105.5655,-4.8127],[105.5701,-4.8091],[105.572,-4.8086],[105.5737,-4.8131],[105.5757,-4.8122],[105.5817,-4.8163],[105.5709,-4.8249],[105.5721,-4.8295],[105.5813,-4.8219],[105.5856,-4.8215],[105.5848,-4.8278],[105.5802,-4.8326],[105.5793,-4.8359],[105.5527,-4.8357],[105.5503,-4.8318]]]}},{"type":"Feature","properties":{"name":"BinaKaryaJaya","name_en":"BinaKaryaJaya","admin_level":"7","osm_id":""},"geometry":{"type":"Polygon","coordinates":[[[105.572,-4.8086],[105.5663,-4.8116],[105.5552,-4.8292],[105.5457,-4.8337],[105.543,-4.8292],[105.5331,-4.8249],[105.5297,-4.8117],[105.5248,-4.8097],[105.5246,-4.8035],[105.5257,-4.8003],[105.5338,-4.798],[105.5341,-4.7957],[105.5324,-4.7945],[105.5524,-4.7814],[105.5582,-4.7793],[105.5704,-4.7809],[105.587,-4.7934],[105.5888,-4.7963],[105.5862,-4.8015],[105.5808,-4.8059],[105.572,-4.8086]]]}},{"type":"Feature","properties":{"name":"BinaKaryaSakti","name_en":"BinaKaryaSakti","admin_level":"7","osm_id":""},"geometry":{"type":"Polygon","coordinates":[[[105.5503,-4.8318],[105.5527,-4.8357],[105.5793,-4.8359],[105.5782,-4.8475],[105.5724,-4.8487],[105.5635,-4.8457],[105.5433,-4.8451],[105.5457,-4.8337],[105.5503,-4.8318]]]}},{"type":"Feature","properties":{"name":"BinaKaryaUtama","name_en":"BinaKaryaUtama","admin_level":"7","osm_id":""},"geometry":{"type":"Polygon","coordinates":[[[105.5848,-4.8278],[105.5856,-4.8215],[105.5813,-4.8219],[105.5721,-4.8295],[105.5709,-4.8249],[105.5817,-4.8163],[105.5757,-4.8122],[105.5737,-4.8131],[105.572,-4.8086],[105.5808,-4.8059],[105.5862,-4.8015],[105.5888,-4.7963],[105.5945,-4.8057],[105.5981,-4.8166],[105.5998,-4.8176],[105.5971,-4.8248],[105.5927,-4.8277],[105.5848,-4.8278]]]}},{"type":"Feature","properties":{"name":"Joharan","name_en":"Joharan","admin_level":"7","osm_id":""},"geometry":{"type":"Polygon","coordinates":[[[105.5433,-4.8451],[105.5635,-4.8457],[105.5724,-4.8487],[105.5782,-4.8475],[105.5755,-4.8785],[105.5695,-4.8759],[105.5626,-4.8756],[105.5585,-4.8731],[105.5478,-4.8742],[105.542,-4.8656],[105.5446,-4.8604],[105.542,-4.8488],[105.5433,-4.8451]]]}},{"type":"Feature","properties":{"name":"MekarJaya","name_en":"MekarJaya","admin_level":"7","osm_id":""},"geometry":{"type":"Polygon","coordinates":[[[105.5793,-4.8359],[105.5802,-4.8326],[105.5852,-4.8274],[105.5917,-4.827],[105.5991,-4.8339],[105.5902,-4.8409],[105.591,-4.8442],[105.585,-4.8473],[105.5783,-4.842],[105.5793,-4.8359]]]}},{"type":"Feature","properties":{"name":"MeranggiJaya","name_en":"MeranggiJaya","admin_level":"7","osm_id":""},"geometry":{"type":"Polygon","coordinates":[[[105.5782,-4.8475],[105.5783,-4.842],[105.585,-4.8473],[105.5969,-4.8644],[105.5943,-4.8669],[105.5932,-4.8792],[105.5903,-4.8823],[105.5791,-4.8838],[105.5755,-4.8785],[105.5782,-4.8475]]]}},{"type":"Feature","properties":{"name":"RantauJayaBaru","name_en":"RantauJayaBaru","admin_level":"7","osm_id":""},"geometry":{"type":"Polygon","coordinates":[[[105.5927,-4.8277],[105.5971,-4.8248],[105.6004,-4.8167],[105.6081,-4.8119],[105.6119,-4.8052],[105.6131,-4.8073],[105.6184,-4.8096],[105.6301,-4.8049],[105.6317,-4.8099],[105.6222,-4.8211],[105.6216,-4.8238],[105.6181,-4.8263],[105.6184,-4.8279],[105.6144,-4.8305],[105.6085,-4.8436],[105.5927,-4.8277]]]}},{"type":"Feature","properties":{"name":"RantauJayaIlir","name_en":"RantauJayaIlir","admin_level":"7","osm_id":""},"geometry":{"type":"Polygon","coordinates":[[[105.585,-4.8473],[105.591,-4.8442],[105.5902,-4.8409],[105.5991,-4.8339],[105.6077,-4.8422],[105.6152,-4.8525],[105.6101,-4.8511],[105.6052,-4.8519],[105.6012,-4.8549],[105.5997,-4.8626],[105.5969,-4.8644],[105.585,-4.8473]]]}},{"type":"Feature","properties":{"name":"RantauJayaMakmur","name_en":"RantauJayaMakmur","admin_level":"7","osm_id":""},"geometry":{"type":"Polygon","coordinates":[[[105.6085,-4.8436],[105.6144,-4.8305],[105.6184,-4.8279],[105.6181,-4.8263],[105.6216,-4.8238],[105.6222,-4.8211],[105.6317,-4.8099],[105.6301,-4.8049],[105.6184,-4.8096],[105.6131,-4.8073],[105.6119,-4.8052],[105.6371,-4.7858],[105.6491,-4.7826],[105.6555,-4.7863],[105.6569,-4.789],[105.6494,-4.7943],[105.6547,-4.8043],[105.6526,-4.8131],[105.645,-4.8171],[105.6373,-4.8266],[105.6352,-4.8324],[105.6394,-4.837],[105.6377,-4.8515],[105.6302,-4.8525],[105.6246,-4.8593],[105.6152,-4.8525],[105.6085,-4.8436]]]}}]}