{"type":"FeatureCollection","metadata":{"parent_osm_id":"gid_IDN_8_11_12_1","parent_name":"ViiKoto","parent_name_1":"Jambi","parent_gid":"IDN.8.11.12_1","parent_level":"6","child_level":"7","count":10,"source":"GADM 4.1","generated":"2026-05-08"},"features":[{"type":"Feature","properties":{"name":"AurCino","name_en":"AurCino","admin_level":"7","osm_id":""},"geometry":{"type":"Polygon","coordinates":[[[102.017,-0.8844],[102.0489,-1.0287],[102.0592,-1.104],[102.0568,-1.1321],[102.0507,-1.1596],[102.0514,-1.1755],[102.0486,-1.1754],[102.0412,-1.1697],[102.0389,-1.16],[102.0372,-1.1602],[102.0367,-1.1553],[102.0327,-1.1476],[102.0243,-1.114],[102.0237,-1.0461],[102.0203,-1.004],[102.0047,-0.9527],[101.9938,-0.9276],[101.966,-0.9054],[101.9624,-0.9043],[101.968,-0.8964],[101.9768,-0.8898],[101.9989,-0.8833],[102.0063,-0.8826],[102.017,-0.8844]]]}},{"type":"Feature","properties":{"name":"DusunBaru","name_en":"DusunBaru","admin_level":"7","osm_id":""},"geometry":{"type":"Polygon","coordinates":[[[102.0821,-1.0556],[102.0916,-1.095],[102.093,-1.1237],[102.0782,-1.1228],[102.0717,-1.1245],[102.0684,-1.1459],[102.0609,-1.1638],[102.0515,-1.1623],[102.0507,-1.1596],[102.0568,-1.1321],[102.0592,-1.104],[102.0489,-1.0287],[102.0169,-0.8837],[102.0479,-0.8971],[102.0515,-0.9098],[102.0566,-0.9473],[102.0816,-1.0393],[102.0821,-1.0556]]]}},{"type":"Feature","properties":{"name":"Kuamang","name_en":"Kuamang","admin_level":"7","osm_id":""},"geometry":{"type":"Polygon","coordinates":[[[101.8923,-1.1355],[101.8919,-1.1372],[101.8867,-1.1376],[101.8846,-1.1349],[101.8843,-1.1305],[101.8851,-1.113],[101.8929,-1.1064],[101.8929,-1.1026],[101.8913,-1.1006],[101.884,-1.1021],[101.8814,-1.1008],[101.8789,-1.0938],[101.8764,-1.0931],[101.8799,-1.0315],[101.8551,-0.9783],[101.8546,-0.9723],[101.856,-0.9674],[101.8592,-0.9654],[101.8723,-0.9667],[101.8838,-0.9645],[101.8906,-0.9616],[101.8955,-0.9559],[101.936,-1.0631],[101.9526,-1.1317],[101.9517,-1.1427],[101.9464,-1.1465],[101.9402,-1.1457],[101.9386,-1.1437],[101.9489,-1.1362],[101.9473,-1.1319],[101.9431,-1.1299],[101.9347,-1.1284],[101.9235,-1.1293],[101.9216,-1.1308],[101.9188,-1.139],[101.9146,-1.1402],[101.9112,-1.1389],[101.9046,-1.1285],[101.8906,-1.1216],[101.8876,-1.1257],[101.8884,-1.1289],[101.8931,-1.1323],[101.8923,-1.1355]]]}},{"type":"Feature","properties":{"name":"MuaraNiro","name_en":"MuaraNiro","admin_level":"7","osm_id":""},"geometry":{"type":"Polygon","coordinates":[[[102.0408,-1.2021],[102.0047,-1.2086],[102.006,-1.1781],[102.0178,-1.1632],[102.0267,-1.1561],[102.0367,-1.1553],[102.0412,-1.1697],[102.0449,-1.1726],[102.0408,-1.2021]]]}},{"type":"Feature","properties":{"name":"MuaraTabun","name_en":"MuaraTabun","admin_level":"7","osm_id":""},"geometry":{"type":"Polygon","coordinates":[[[102.0745,-1.2007],[102.0408,-1.2021],[102.0449,-1.1726],[102.0514,-1.1755],[102.0515,-1.1623],[102.0609,-1.1638],[102.0613,-1.1621],[102.0679,-1.1655],[102.0656,-1.1807],[102.0693,-1.1919],[102.0745,-1.2007]]]}},{"type":"Feature","properties":{"name":"SungaiAbang","name_en":"SungaiAbang","admin_level":"7","osm_id":""},"geometry":{"type":"Polygon","coordinates":[[[101.9624,-0.9043],[101.966,-0.9054],[101.9938,-0.9276],[102.0047,-0.9527],[102.0203,-1.004],[102.0237,-1.0461],[102.0243,-1.114],[102.0327,-1.1476],[102.0364,-1.1553],[102.0267,-1.1561],[102.0228,-1.1582],[102.0037,-1.1796],[102.0012,-1.1796],[101.9983,-1.1734],[101.9976,-1.1669],[101.9942,-1.1602],[101.9795,-1.1061],[101.9791,-1.0886],[101.9635,-1.0232],[101.9435,-0.9645],[101.9179,-0.9153],[101.9279,-0.9052],[101.9361,-0.9087],[101.9445,-0.9006],[101.947,-0.9003],[101.954,-0.9038],[101.9591,-0.9097],[101.9624,-0.9043]]]}},{"type":"Feature","properties":{"name":"Tabun","name_en":"Tabun","admin_level":"7","osm_id":""},"geometry":{"type":"Polygon","coordinates":[[[102.1202,-1.1906],[102.1161,-1.1965],[102.1081,-1.199],[102.0745,-1.2007],[102.0693,-1.1919],[102.0656,-1.1807],[102.0679,-1.1655],[102.0613,-1.1621],[102.0684,-1.1459],[102.0717,-1.1245],[102.0782,-1.1228],[102.093,-1.1237],[102.093,-1.1435],[102.0871,-1.1542],[102.0913,-1.1594],[102.0991,-1.1598],[102.1125,-1.1683],[102.1183,-1.1777],[102.1202,-1.1906]]]}},{"type":"Feature","properties":{"name":"Tanjung","name_en":"Tanjung","admin_level":"7","osm_id":""},"geometry":{"type":"Polygon","coordinates":[[[101.8551,-0.9783],[101.8799,-1.0315],[101.8764,-1.0931],[101.8725,-1.1047],[101.8678,-1.1111],[101.8651,-1.1119],[101.8602,-1.1089],[101.8536,-1.1002],[101.8492,-1.0995],[101.844,-1.1023],[101.8421,-1.0964],[101.8395,-1.0949],[101.8402,-1.0502],[101.8383,-1.0349],[101.8222,-1.0328],[101.822,-1.0311],[101.8274,-1.0095],[101.8265,-1.0052],[101.822,-1.0],[101.8234,-0.9922],[101.8334,-0.9815],[101.8418,-0.9831],[101.8551,-0.9783]]]}},{"type":"Feature","properties":{"name":"TelukKayuPutih","name_en":"TelukKayuPutih","admin_level":"7","osm_id":""},"geometry":{"type":"Polygon","coordinates":[[[101.9719,-1.2146],[101.9526,-1.2145],[101.9474,-1.2084],[101.9453,-1.197],[101.9513,-1.1898],[101.9575,-1.1755],[101.9582,-1.166],[101.9657,-1.1675],[101.9674,-1.1665],[101.9714,-1.1603],[101.972,-1.1546],[101.9698,-1.1502],[101.9645,-1.1538],[101.9626,-1.1531],[101.9678,-1.141],[101.9671,-1.1388],[101.9565,-1.1378],[101.9517,-1.1427],[101.9526,-1.1317],[101.936,-1.0631],[101.8955,-0.9559],[101.9012,-0.951],[101.9072,-0.9506],[101.9093,-0.9467],[101.9104,-0.9387],[101.9121,-0.9386],[101.9152,-0.9343],[101.9127,-0.9223],[101.9179,-0.9153],[101.9435,-0.9645],[101.9635,-1.0232],[101.9791,-1.0886],[101.9795,-1.1061],[101.9942,-1.1602],[102.0012,-1.1796],[102.006,-1.1781],[102.0047,-1.2086],[101.9825,-1.2151],[101.9719,-1.2146]]]}},{"type":"Feature","properties":{"name":"TelukLancang","name_en":"TelukLancang","admin_level":"7","osm_id":""},"geometry":{"type":"Polygon","coordinates":[[[101.8222,-1.0328],[101.8383,-1.0349],[101.8402,-1.0502],[101.8395,-1.0949],[101.8421,-1.0964],[101.844,-1.1023],[101.8457,-1.1016],[101.847,-1.1086],[101.8455,-1.1119],[101.8409,-1.1123],[101.8343,-1.1074],[101.8249,-1.0885],[101.8288,-1.0711],[101.8267,-1.0649],[101.8215,-1.0592],[101.8254,-1.0382],[101.8222,-1.0328]]]}}]}