{"type":"FeatureCollection","metadata":{"parent_osm_id":"gid_IDN_22_4_27_1","parent_name":"TanahRubu","parent_name_1":"PapuaBarat","parent_gid":"IDN.22.4.27_1","parent_level":"6","child_level":"7","count":24,"source":"GADM 4.1","generated":"2026-05-08"},"features":[{"type":"Feature","properties":{"name":"Ayawi","name_en":"Ayawi","admin_level":"7","osm_id":""},"geometry":{"type":"Polygon","coordinates":[[[134.1268,-1.1457],[134.1281,-1.1469],[134.1165,-1.1505],[134.1106,-1.1552],[134.0876,-1.1663],[134.0874,-1.1636],[134.1168,-1.1469],[134.1183,-1.1494],[134.1241,-1.1456],[134.1252,-1.1469],[134.1268,-1.1457]]]}},{"type":"Feature","properties":{"name":"Cujehep","name_en":"Cujehep","admin_level":"7","osm_id":""},"geometry":{"type":"Polygon","coordinates":[[[134.0883,-1.1777],[134.119,-1.16],[134.1207,-1.1621],[134.0885,-1.1812],[134.0883,-1.1777]]]}},{"type":"Feature","properties":{"name":"Hanghow","name_en":"Hanghow","admin_level":"7","osm_id":""},"geometry":{"type":"Polygon","coordinates":[[[134.1379,-1.156],[134.1311,-1.1609],[134.1269,-1.1709],[134.0873,-1.1968],[134.0817,-1.1973],[134.0889,-1.188],[134.0887,-1.1845],[134.1087,-1.1749],[134.1261,-1.1622],[134.1379,-1.156]]]}},{"type":"Feature","properties":{"name":"ImbaisikaI","name_en":"ImbaisikaI","admin_level":"7","osm_id":""},"geometry":{"type":"Polygon","coordinates":[[[134.119,-1.16],[134.1087,-1.1659],[134.0883,-1.1777],[134.0879,-1.1718],[134.1215,-1.1546],[134.119,-1.16]]]}},{"type":"Feature","properties":{"name":"ImbaisikaIi/imboysika","name_en":"ImbaisikaIi/imboysika","admin_level":"7","osm_id":""},"geometry":{"type":"Polygon","coordinates":[[[134.0722,-1.2662],[134.0633,-1.2537],[134.1071,-1.2274],[134.1538,-1.1729],[134.1582,-1.1772],[134.1236,-1.2206],[134.0722,-1.2662]]]}},{"type":"Feature","properties":{"name":"Imboiti","name_en":"Imboiti","admin_level":"7","osm_id":""},"geometry":{"type":"Polygon","coordinates":[[[134.0649,-1.1756],[134.0362,-1.1501],[134.0627,-1.133],[134.0874,-1.1636],[134.0889,-1.188],[134.0815,-1.1975],[134.0517,-1.2155],[134.0503,-1.2015],[134.0714,-1.1814],[134.0649,-1.1756]]]}},{"type":"Feature","properties":{"name":"Imhasuma","name_en":"Imhasuma","admin_level":"7","osm_id":""},"geometry":{"type":"Polygon","coordinates":[[[134.0876,-1.1663],[134.1106,-1.1552],[134.1165,-1.1505],[134.1281,-1.1469],[134.13,-1.1493],[134.0879,-1.1718],[134.0876,-1.1663]]]}},{"type":"Feature","properties":{"name":"Indibo","name_en":"Indibo","admin_level":"7","osm_id":""},"geometry":{"type":"Polygon","coordinates":[[[134.0362,-1.1501],[134.0316,-1.1461],[134.0495,-1.1391],[134.0911,-1.1068],[134.1012,-1.1027],[134.1017,-1.1056],[134.095,-1.1079],[134.0511,-1.1416],[134.0362,-1.1501]]]}},{"type":"Feature","properties":{"name":"Mbata","name_en":"Mbata","admin_level":"7","osm_id":""},"geometry":{"type":"Polygon","coordinates":[[[134.1207,-1.1621],[134.119,-1.16],[134.1215,-1.1546],[134.1259,-1.1524],[134.1285,-1.157],[134.1226,-1.1594],[134.1207,-1.1621]]]}},{"type":"Feature","properties":{"name":"Meinyumfoku","name_en":"Meinyumfoku","admin_level":"7","osm_id":""},"geometry":{"type":"Polygon","coordinates":[[[134.0694,-1.1413],[134.0627,-1.133],[134.095,-1.1079],[134.1025,-1.105],[134.1052,-1.11],[134.1052,-1.1151],[134.0762,-1.1348],[134.0694,-1.1413]]]}},{"type":"Feature","properties":{"name":"Mironi","name_en":"Mironi","admin_level":"7","osm_id":""},"geometry":{"type":"Polygon","coordinates":[[[134.0744,-1.1475],[134.0694,-1.1413],[134.0762,-1.1348],[134.1052,-1.1151],[134.1039,-1.1234],[134.1174,-1.137],[134.1144,-1.1407],[134.0896,-1.1387],[134.0744,-1.1475]]]}},{"type":"Feature","properties":{"name":"Misabugoid","name_en":"Misabugoid","admin_level":"7","osm_id":""},"geometry":{"type":"Polygon","coordinates":[[[134.1259,-1.1524],[134.133,-1.1484],[134.1356,-1.1521],[134.1285,-1.157],[134.1259,-1.1524]]]}},{"type":"Feature","properties":{"name":"Ningdip","name_en":"Ningdip","admin_level":"7","osm_id":""},"geometry":{"type":"Polygon","coordinates":[[[134.0885,-1.1812],[134.1356,-1.1521],[134.1379,-1.156],[134.1261,-1.1622],[134.1087,-1.1749],[134.0887,-1.1845],[134.0885,-1.1812]]]}},{"type":"Feature","properties":{"name":"Rembuy","name_en":"Rembuy","admin_level":"7","osm_id":""},"geometry":{"type":"Polygon","coordinates":[[[134.1022,-1.1402],[134.1106,-1.1409],[134.1114,-1.1425],[134.1087,-1.1448],[134.1024,-1.1441],[134.1022,-1.1402]]]}},{"type":"Feature","properties":{"name":"Ruambei/Urwambei","name_en":"Ruambei/Urwambei","admin_level":"7","osm_id":""},"geometry":{"type":"Polygon","coordinates":[[[134.1268,-1.1457],[134.1252,-1.1469],[134.1241,-1.1456],[134.1183,-1.1494],[134.1166,-1.1464],[134.1221,-1.1413],[134.1268,-1.1457]]]}},{"type":"Feature","properties":{"name":"Ukembousi","name_en":"Ukembousi","admin_level":"7","osm_id":""},"geometry":{"type":"Polygon","coordinates":[[[134.1794,-1.2194],[134.1779,-1.2175],[134.1813,-1.2136],[134.1846,-1.2124],[134.1876,-1.2056],[134.1937,-1.1999],[134.197,-1.2032],[134.1916,-1.2066],[134.188,-1.2128],[134.1794,-1.2194]]]}},{"type":"Feature","properties":{"name":"Umnum","name_en":"Umnum","admin_level":"7","osm_id":""},"geometry":{"type":"Polygon","coordinates":[[[134.1219,-1.1742],[134.1269,-1.1709],[134.1311,-1.1609],[134.1384,-1.1567],[134.1538,-1.1729],[134.1355,-1.1941],[134.1219,-1.1742]]]}},{"type":"Feature","properties":{"name":"Ungkopti","name_en":"Ungkopti","admin_level":"7","osm_id":""},"geometry":{"type":"Polygon","coordinates":[[[134.0832,-1.1584],[134.0744,-1.1475],[134.0874,-1.1393],[134.0919,-1.1383],[134.1022,-1.1402],[134.1024,-1.1441],[134.1087,-1.1448],[134.0832,-1.1584]]]}},{"type":"Feature","properties":{"name":"Wamigti","name_en":"Wamigti","admin_level":"7","osm_id":""},"geometry":{"type":"Polygon","coordinates":[[[134.087,-1.2883],[134.0824,-1.2789],[134.0722,-1.2662],[134.1236,-1.2206],[134.1582,-1.1772],[134.1695,-1.183],[134.1765,-1.1887],[134.1857,-1.1915],[134.1829,-1.1957],[134.1685,-1.2055],[134.1485,-1.2262],[134.1413,-1.236],[134.121,-1.253],[134.1001,-1.2776],[134.087,-1.2883]]]}},{"type":"Feature","properties":{"name":"Warami","name_en":"Warami","admin_level":"7","osm_id":""},"geometry":{"type":"Polygon","coordinates":[[[134.0633,-1.2537],[134.0601,-1.2478],[134.0575,-1.2307],[134.0517,-1.2155],[134.0817,-1.1973],[134.0873,-1.1968],[134.1219,-1.1742],[134.1355,-1.1941],[134.1071,-1.2274],[134.0633,-1.2537]]]}},{"type":"Feature","properties":{"name":"Wariari","name_en":"Wariari","admin_level":"7","osm_id":""},"geometry":{"type":"Polygon","coordinates":[[[134.1754,-1.2333],[134.1835,-1.2222],[134.2006,-1.2071],[134.2034,-1.2128],[134.2035,-1.2241],[134.1905,-1.23],[134.1852,-1.2375],[134.1754,-1.2333]]]}},{"type":"Feature","properties":{"name":"Warkapi","name_en":"Warkapi","admin_level":"7","osm_id":""},"geometry":{"type":"Polygon","coordinates":[[[134.1168,-1.1469],[134.0874,-1.1636],[134.0832,-1.1584],[134.1089,-1.1455],[134.1114,-1.1425],[134.1106,-1.1409],[134.1144,-1.1407],[134.1174,-1.137],[134.1221,-1.1413],[134.1168,-1.1469]]]}},{"type":"Feature","properties":{"name":"Warmarway","name_en":"Warmarway","admin_level":"7","osm_id":""},"geometry":{"type":"Polygon","coordinates":[[[134.0316,-1.1461],[134.0182,-1.1341],[134.0193,-1.131],[134.0258,-1.1251],[134.068,-1.1025],[134.0852,-1.0864],[134.0991,-1.0977],[134.1012,-1.1027],[134.0911,-1.1068],[134.0495,-1.1391],[134.0316,-1.1461]]]}},{"type":"Feature","properties":{"name":"Wedoni","name_en":"Wedoni","admin_level":"7","osm_id":""},"geometry":{"type":"Polygon","coordinates":[[[134.1796,-1.2197],[134.188,-1.2128],[134.1909,-1.2073],[134.1949,-1.2042],[134.197,-1.2032],[134.2006,-1.2071],[134.1832,-1.2225],[134.1796,-1.2197]]]}}]}