{"type":"FeatureCollection","metadata":{"parent_osm_id":"gid_IDN_31_9_15_1","parent_name":"SungaiMenang","parent_name_1":"SumateraSelatan","parent_gid":"IDN.31.9.15_1","parent_level":"6","child_level":"7","count":18,"source":"GADM 4.1","generated":"2026-05-08"},"features":[{"type":"Feature","properties":{"name":"BumiPratamaMandira","name_en":"BumiPratamaMandira","admin_level":"7","osm_id":""},"geometry":{"type":"Polygon","coordinates":[[[105.6738,-4.0863],[105.6715,-4.0905],[105.6631,-4.0955],[105.6543,-4.091],[105.647,-4.0735],[105.6481,-4.0666],[105.6613,-4.0614],[105.6644,-4.0581],[105.6639,-4.0534],[105.6674,-4.0524],[105.6694,-4.0425],[105.6678,-4.0386],[105.6804,-4.0343],[105.6953,-4.0205],[105.689,-4.013],[105.6956,-4.011],[105.6956,-4.0039],[105.6925,-4.0008],[105.7066,-3.9952],[105.7121,-4.0004],[105.7148,-3.9956],[105.7152,-3.9905],[105.7191,-3.9846],[105.7203,-3.9763],[105.727,-3.9665],[105.7267,-3.9467],[105.7895,-3.9445],[105.8848,-3.9798],[105.8722,-4.0121],[105.8472,-4.1191],[105.8517,-4.1488],[105.851,-4.1575],[105.8476,-4.1653],[105.8362,-4.1701],[105.824,-4.1579],[105.8157,-4.1349],[105.8083,-4.1235],[105.7899,-4.1216],[105.7808,-4.1182],[105.7767,-4.1125],[105.7702,-4.1199],[105.772,-4.1311],[105.7659,-4.1397],[105.7501,-4.1488],[105.7469,-4.1496],[105.7415,-4.1465],[105.7345,-4.1379],[105.7294,-4.1345],[105.7082,-4.1431],[105.702,-4.14],[105.6998,-4.1372],[105.6974,-4.1279],[105.6992,-4.123],[105.709,-4.114],[105.711,-4.1083],[105.7086,-4.1063],[105.7002,-4.1044],[105.6898,-4.1041],[105.6871,-4.1013],[105.6839,-4.096],[105.6842,-4.0795],[105.6773,-4.0789],[105.675,-4.0812],[105.6738,-4.0863]]]}},{"type":"Feature","properties":{"name":"GadingJaya","name_en":"GadingJaya","admin_level":"7","osm_id":""},"geometry":{"type":"Polygon","coordinates":[[[105.7272,-3.9541],[105.727,-3.9665],[105.7203,-3.9763],[105.7191,-3.9846],[105.7152,-3.9905],[105.7148,-3.9956],[105.7121,-4.0004],[105.7066,-3.9952],[105.6925,-4.0008],[105.6956,-4.0039],[105.6956,-4.011],[105.6924,-4.012],[105.6299,-3.9653],[105.6685,-3.9468],[105.7272,-3.9541]]]}},{"type":"Feature","properties":{"name":"GadingMas","name_en":"GadingMas","admin_level":"7","osm_id":""},"geometry":{"type":"Polygon","coordinates":[[[105.61,-4.0363],[105.6151,-4.0243],[105.6288,-4.0103],[105.6307,-4.0058],[105.615,-3.9827],[105.6123,-3.9697],[105.6086,-3.9666],[105.593,-3.9594],[105.5901,-3.9538],[105.5908,-3.9488],[105.6039,-3.9465],[105.6924,-4.012],[105.689,-4.013],[105.6953,-4.0205],[105.6804,-4.0343],[105.6678,-4.0386],[105.6694,-4.0425],[105.6674,-4.0524],[105.6639,-4.0534],[105.6605,-4.0482],[105.6518,-4.0492],[105.6444,-4.0523],[105.6402,-4.0519],[105.631,-4.0448],[105.6254,-4.0435],[105.6225,-4.0458],[105.6204,-4.0598],[105.6183,-4.0613],[105.611,-4.0617],[105.6068,-4.0583],[105.6045,-4.0502],[105.61,-4.0363]]]}},{"type":"Feature","properties":{"name":"GajahMakmur","name_en":"GajahMakmur","admin_level":"7","osm_id":""},"geometry":{"type":"Polygon","coordinates":[[[105.6039,-3.9465],[105.6117,-3.9453],[105.7246,-3.9159],[105.7272,-3.9541],[105.6685,-3.9468],[105.6299,-3.9653],[105.6039,-3.9465]]]}},{"type":"Feature","properties":{"name":"GajahMati","name_en":"GajahMati","admin_level":"7","osm_id":""},"geometry":{"type":"Polygon","coordinates":[[[105.5505,-3.8842],[105.5483,-3.8818],[105.5408,-3.8871],[105.5381,-3.8933],[105.5332,-3.8978],[105.5288,-3.8969],[105.5231,-3.8926],[105.5136,-3.8778],[105.5123,-3.8725],[105.5252,-3.8514],[105.5265,-3.8454],[105.5222,-3.8394],[105.5132,-3.842],[105.5721,-3.7548],[105.6256,-3.7058],[105.6309,-3.7214],[105.6547,-3.7395],[105.6757,-3.7406],[105.6847,-3.7389],[105.6889,-3.7422],[105.5505,-3.8842]]]}},{"type":"Feature","properties":{"name":"GajahMukti","name_en":"GajahMukti","admin_level":"7","osm_id":""},"geometry":{"type":"Polygon","coordinates":[[[105.6105,-3.9392],[105.5997,-3.9269],[105.5958,-3.9274],[105.5869,-3.9392],[105.5803,-3.9382],[105.5751,-3.9354],[105.6948,-3.7745],[105.6982,-3.7507],[105.7057,-3.7604],[105.7063,-3.7678],[105.6972,-3.7927],[105.7097,-3.8137],[105.7181,-3.8327],[105.6098,-3.9176],[105.6138,-3.9188],[105.61,-3.922],[105.6103,-3.9261],[105.6122,-3.9274],[105.6109,-3.9295],[105.614,-3.9301],[105.6092,-3.9316],[105.613,-3.9342],[105.6103,-3.9363],[105.6143,-3.9366],[105.6105,-3.9392]]]}},{"type":"Feature","properties":{"name":"GajahMulya","name_en":"GajahMulya","admin_level":"7","osm_id":""},"geometry":{"type":"Polygon","coordinates":[[[105.5615,-3.927],[105.5735,-3.9013],[105.5587,-3.8936],[105.5505,-3.8842],[105.6889,-3.7422],[105.6982,-3.7507],[105.6948,-3.7745],[105.5751,-3.9354],[105.5615,-3.927]]]}},{"type":"Feature","properties":{"name":"HarapanJaya","name_en":"HarapanJaya","admin_level":"7","osm_id":""},"geometry":{"type":"Polygon","coordinates":[[[105.3406,-3.6167],[105.3845,-3.6156],[105.3834,-3.6584],[105.3377,-3.6549],[105.3406,-3.6167]]]}},{"type":"Feature","properties":{"name":"Karangsia","name_en":"Karangsia","admin_level":"7","osm_id":""},"geometry":{"type":"Polygon","coordinates":[[[105.4317,-3.8257],[105.4301,-3.8199],[105.4335,-3.8101],[105.4366,-3.7897],[105.4346,-3.785],[105.4302,-3.7827],[105.4128,-3.7774],[105.3902,-3.7795],[105.384,-3.782],[105.3716,-3.7941],[105.3646,-3.7983],[105.4206,-3.6613],[105.4587,-3.6643],[105.4915,-3.6852],[105.49,-3.7246],[105.4578,-3.8018],[105.4524,-3.8279],[105.4368,-3.8281],[105.4317,-3.8257]]]}},{"type":"Feature","properties":{"name":"SariGading","name_en":"SariGading","admin_level":"7","osm_id":""},"geometry":{"type":"Polygon","coordinates":[[[105.6117,-3.9453],[105.6105,-3.9392],[105.6143,-3.9366],[105.6103,-3.9363],[105.613,-3.9342],[105.6092,-3.9316],[105.614,-3.9301],[105.6109,-3.9295],[105.6122,-3.9274],[105.6103,-3.9261],[105.61,-3.922],[105.6138,-3.9188],[105.6098,-3.9176],[105.7181,-3.8327],[105.7205,-3.838],[105.7288,-3.8457],[105.7234,-3.8633],[105.7214,-3.8844],[105.7215,-3.9167],[105.6117,-3.9453]]]}},{"type":"Feature","properties":{"name":"SidoMulyo","name_en":"SidoMulyo","admin_level":"7","osm_id":""},"geometry":{"type":"Polygon","coordinates":[[[105.3064,-3.6145],[105.3114,-3.6156],[105.3071,-3.6586],[105.2224,-3.6574],[105.2224,-3.6541],[105.2184,-3.6513],[105.2175,-3.646],[105.2188,-3.6413],[105.2273,-3.6421],[105.2286,-3.641],[105.2291,-3.6381],[105.2247,-3.633],[105.2245,-3.6298],[105.2305,-3.6209],[105.2296,-3.6128],[105.2518,-3.6048],[105.2624,-3.5993],[105.2759,-3.6018],[105.2785,-3.6044],[105.2907,-3.6077],[105.2984,-3.6129],[105.3064,-3.6145]]]}},{"type":"Feature","properties":{"name":"SungaiCeper","name_en":"SungaiCeper","admin_level":"7","osm_id":""},"geometry":{"type":"Polygon","coordinates":[[[105.4551,-3.8282],[105.4524,-3.8279],[105.4578,-3.8018],[105.49,-3.7246],[105.4915,-3.6852],[105.49,-3.6843],[105.5344,-3.6341],[105.5445,-3.6391],[105.5497,-3.6396],[105.5739,-3.636],[105.5912,-3.6302],[105.5969,-3.6262],[105.5981,-3.6274],[105.6108,-3.6154],[105.6243,-3.6303],[105.6369,-3.6357],[105.6468,-3.6434],[105.649,-3.6502],[105.6364,-3.6619],[105.6306,-3.6741],[105.632,-3.6877],[105.6256,-3.7058],[105.5721,-3.7548],[105.5136,-3.8414],[105.5053,-3.8424],[105.4924,-3.8409],[105.4892,-3.8389],[105.4831,-3.8235],[105.48,-3.8217],[105.4659,-3.8281],[105.4551,-3.8282]]]}},{"type":"Feature","properties":{"name":"SungaiMenang","name_en":"SungaiMenang","admin_level":"7","osm_id":""},"geometry":{"type":"Polygon","coordinates":[[[105.3573,-3.7964],[105.3515,-3.7831],[105.3527,-3.7562],[105.3423,-3.7308],[105.3348,-3.724],[105.3253,-3.7267],[105.3319,-3.6544],[105.4206,-3.6613],[105.3678,-3.7928],[105.3646,-3.7983],[105.3573,-3.7964]]]}},{"type":"Feature","properties":{"name":"SungaiPinangIndah","name_en":"SungaiPinangIndah","admin_level":"7","osm_id":""},"geometry":{"type":"Polygon","coordinates":[[[105.7288,-3.8457],[105.7618,-3.8499],[105.7781,-3.8751],[105.8287,-3.8835],[105.852,-3.8697],[105.8594,-3.8586],[105.8646,-3.847],[105.9467,-3.8744],[105.9424,-3.8833],[105.9432,-3.8856],[105.9256,-3.9209],[105.8931,-3.9678],[105.8885,-3.9785],[105.8848,-3.9798],[105.7895,-3.9445],[105.7267,-3.9467],[105.7246,-3.9159],[105.7215,-3.9167],[105.7214,-3.8844],[105.7234,-3.8633],[105.7288,-3.8457]]]}},{"type":"Feature","properties":{"name":"SungaiSibur","name_en":"SungaiSibur","admin_level":"7","osm_id":""},"geometry":{"type":"Polygon","coordinates":[[[105.8646,-3.847],[105.8662,-3.831],[105.8556,-3.7839],[105.8503,-3.7493],[105.8536,-3.7442],[105.8651,-3.7378],[105.88,-3.7444],[105.9069,-3.7613],[105.9132,-3.7677],[105.925,-3.7751],[105.9561,-3.8146],[105.9604,-3.8231],[105.9604,-3.8395],[105.9543,-3.8595],[105.9467,-3.8744],[105.8646,-3.847]]]}},{"type":"Feature","properties":{"name":"SungaiTepuk","name_en":"SungaiTepuk","admin_level":"7","osm_id":""},"geometry":{"type":"Polygon","coordinates":[[[105.3253,-3.7267],[105.3187,-3.7319],[105.315,-3.7496],[105.309,-3.7562],[105.2987,-3.7517],[105.2974,-3.7479],[105.2987,-3.7384],[105.2965,-3.7329],[105.294,-3.7309],[105.2907,-3.7308],[105.287,-3.7348],[105.2754,-3.7398],[105.2493,-3.7266],[105.2487,-3.7244],[105.2559,-3.719],[105.2583,-3.7144],[105.2586,-3.7056],[105.2528,-3.7023],[105.2466,-3.696],[105.2431,-3.6819],[105.2434,-3.6715],[105.2417,-3.669],[105.2374,-3.6682],[105.2289,-3.6708],[105.2232,-3.67],[105.2198,-3.6663],[105.2202,-3.6587],[105.2224,-3.6574],[105.3315,-3.6587],[105.3253,-3.7267]]]}},{"type":"Feature","properties":{"name":"TalangJaya","name_en":"TalangJaya","admin_level":"7","osm_id":""},"geometry":{"type":"Polygon","coordinates":[[[105.3113,-3.6156],[105.3119,-3.6114],[105.3286,-3.6144],[105.3407,-3.6131],[105.3377,-3.6549],[105.3319,-3.6544],[105.3315,-3.6587],[105.3071,-3.6586],[105.3113,-3.6156]]]}},{"type":"Feature","properties":{"name":"TalangMakmur","name_en":"TalangMakmur","admin_level":"7","osm_id":""},"geometry":{"type":"Polygon","coordinates":[[[105.3845,-3.6156],[105.4217,-3.6198],[105.4791,-3.6312],[105.5091,-3.6303],[105.5292,-3.6319],[105.5344,-3.6341],[105.49,-3.6843],[105.4587,-3.6643],[105.3834,-3.6584],[105.3845,-3.6156]]]}}]}