{"type":"FeatureCollection","metadata":{"parent_osm_id":"gid_IDN_22_2_5_1","parent_name":"TelukArguni","parent_name_1":"PapuaBarat","parent_gid":"IDN.22.2.5_1","parent_level":"6","child_level":"7","count":24,"source":"GADM 4.1","generated":"2026-05-08"},"features":[{"type":"Feature","properties":{"name":"AfuAfu","name_en":"AfuAfu","admin_level":"7","osm_id":""},"geometry":{"type":"Polygon","coordinates":[[[133.8846,-3.0502],[133.8739,-3.0363],[133.9297,-3.0299],[133.9834,-2.9984],[134.0015,-3.0048],[133.9866,-3.0116],[133.9894,-3.0175],[133.947,-3.0338],[133.9482,-3.0382],[133.9136,-3.0547],[133.8846,-3.0502]]]}},{"type":"Feature","properties":{"name":"Bayeda","name_en":"Bayeda","admin_level":"7","osm_id":""},"geometry":{"type":"Polygon","coordinates":[[[133.9581,-3.072],[133.954,-3.0728],[133.9506,-3.079],[133.9351,-3.0785],[133.9108,-3.0812],[133.9053,-3.0847],[133.8988,-3.0775],[133.929,-3.0713],[133.955,-3.0612],[133.9581,-3.072]]]}},{"type":"Feature","properties":{"name":"Bofuwer","name_en":"Bofuwer","admin_level":"7","osm_id":""},"geometry":{"type":"Polygon","coordinates":[[[133.8035,-3.013],[133.8007,-3.0142],[133.7996,-3.0234],[133.8015,-3.0291],[133.7994,-3.0304],[133.7957,-3.0274],[133.7885,-3.0262],[133.7818,-3.0278],[133.7714,-3.0231],[133.7639,-3.0245],[133.765,-3.0153],[133.7589,-3.0134],[133.7616,-3.0063],[133.7696,-3.0056],[133.7756,-2.9999],[133.8051,-2.9852],[133.7964,-2.9958],[133.8005,-2.9996],[133.8035,-3.013]]]}},{"type":"Feature","properties":{"name":"Borogerba","name_en":"Borogerba","admin_level":"7","osm_id":""},"geometry":{"type":"Polygon","coordinates":[[[133.9722,-3.005],[133.9297,-3.0299],[133.8739,-3.0363],[133.8682,-3.0285],[133.8761,-3.0192],[133.8677,-3.0075],[133.876,-3.0053],[133.9051,-3.0079],[133.9245,-2.9951],[133.9641,-2.9917],[133.9722,-3.005]]]}},{"type":"Feature","properties":{"name":"Erigara","name_en":"Erigara","admin_level":"7","osm_id":""},"geometry":{"type":"Polygon","coordinates":[[[134.0015,-3.0048],[133.9834,-2.9984],[133.9722,-3.005],[133.9594,-2.9842],[133.9546,-2.9385],[133.9263,-2.9311],[133.9889,-2.9047],[134.0335,-2.9483],[134.0271,-2.9932],[134.0015,-3.0048]]]}},{"type":"Feature","properties":{"name":"Feternu","name_en":"Feternu","admin_level":"7","osm_id":""},"geometry":{"type":"Polygon","coordinates":[[[133.7733,-3.0864],[133.7713,-3.0814],[133.7674,-3.0797],[133.7673,-3.0634],[133.7726,-3.0589],[133.7723,-3.0564],[133.7741,-3.0549],[133.7758,-3.0563],[133.783,-3.0557],[133.7907,-3.0783],[133.7835,-3.08],[133.7798,-3.0834],[133.7772,-3.0837],[133.7763,-3.0866],[133.7733,-3.0864]]]}},{"type":"Feature","properties":{"name":"Fudima","name_en":"Fudima","admin_level":"7","osm_id":""},"geometry":{"type":"Polygon","coordinates":[[[134.1891,-3.2643],[134.1629,-3.294],[134.1295,-3.3395],[134.1021,-3.3647],[133.9248,-3.2848],[133.8701,-3.2007],[133.7302,-3.1763],[133.7457,-3.1731],[133.7627,-3.1789],[133.7747,-3.1779],[133.7795,-3.1727],[133.7777,-3.1701],[133.7776,-3.1649],[133.7814,-3.1566],[133.8366,-3.1547],[133.8993,-3.1454],[133.9686,-3.2147],[134.1891,-3.2643]]]}},{"type":"Feature","properties":{"name":"Furnusu","name_en":"Furnusu","admin_level":"7","osm_id":""},"geometry":{"type":"Polygon","coordinates":[[[133.8035,-3.013],[133.8005,-2.9996],[133.7964,-2.9958],[133.8051,-2.9852],[133.8626,-2.9567],[133.8649,-2.9604],[133.856,-2.9727],[133.8486,-2.9794],[133.8455,-2.9894],[133.8245,-3.0047],[133.8116,-3.0073],[133.8035,-3.013]]]}},{"type":"Feature","properties":{"name":"Gusi","name_en":"Gusi","admin_level":"7","osm_id":""},"geometry":{"type":"Polygon","coordinates":[[[133.8784,-3.1485],[133.8366,-3.1547],[133.7814,-3.1566],[133.7801,-3.1546],[133.7844,-3.1424],[133.7828,-3.1353],[133.7785,-3.1282],[133.7784,-3.1189],[133.78,-3.1166],[133.7838,-3.1165],[133.7843,-3.1146],[133.7908,-3.1182],[133.7962,-3.1166],[133.7993,-3.122],[133.8022,-3.1231],[133.8107,-3.1207],[133.8129,-3.1187],[133.8144,-3.1138],[133.813,-3.1089],[133.8151,-3.1073],[133.8233,-3.1063],[133.8283,-3.0975],[133.8353,-3.0934],[133.8392,-3.0827],[133.8348,-3.0642],[133.8359,-3.0474],[133.8339,-3.0393],[133.8422,-3.0249],[133.8449,-3.0236],[133.853,-3.025],[133.8629,-3.0368],[133.8634,-3.0395],[133.8543,-3.0479],[133.8881,-3.0893],[133.8691,-3.1152],[133.8993,-3.1454],[133.8784,-3.1485]]]}},{"type":"Feature","properties":{"name":"Kensi","name_en":"Kensi","admin_level":"7","osm_id":""},"geometry":{"type":"Polygon","coordinates":[[[133.9482,-3.0382],[133.947,-3.0338],[133.9894,-3.0175],[134.0175,-3.0753],[134.0905,-3.1013],[133.9624,-3.0869],[133.9584,-3.073],[133.9633,-3.0715],[133.9707,-3.0623],[133.9616,-3.0712],[133.9581,-3.072],[133.9482,-3.0382]]]}},{"type":"Feature","properties":{"name":"Kokoroba","name_en":"Kokoroba","admin_level":"7","osm_id":""},"geometry":{"type":"Polygon","coordinates":[[[133.8881,-3.0893],[133.8543,-3.0479],[133.8634,-3.0395],[133.8639,-3.048],[133.8679,-3.056],[133.8704,-3.0586],[133.8812,-3.0602],[133.8851,-3.0636],[133.8911,-3.0733],[133.8945,-3.0806],[133.8881,-3.0893]]]}},{"type":"Feature","properties":{"name":"Maskur","name_en":"Maskur","admin_level":"7","osm_id":""},"geometry":{"type":"Polygon","coordinates":[[[134.297,-3.1445],[134.2928,-3.1506],[134.2759,-3.1673],[134.0175,-3.0753],[133.9866,-3.0116],[134.0484,-2.9836],[134.2087,-2.9628],[134.2335,-3.0432],[134.2926,-3.1377],[134.2979,-3.1432],[134.297,-3.1445]]]}},{"type":"Feature","properties":{"name":"Moyana","name_en":"Moyana","admin_level":"7","osm_id":""},"geometry":{"type":"Polygon","coordinates":[[[133.955,-3.0612],[133.929,-3.0713],[133.8988,-3.0775],[133.8958,-3.0749],[133.8916,-3.0667],[133.9253,-3.0633],[133.9512,-3.0482],[133.955,-3.0612]]]}},{"type":"Feature","properties":{"name":"Pigo","name_en":"Pigo","admin_level":"7","osm_id":""},"geometry":{"type":"Polygon","coordinates":[[[134.0271,-2.9932],[134.0335,-2.9483],[133.9889,-2.9047],[134.0741,-2.8688],[134.1333,-2.84],[134.1726,-2.8523],[134.1761,-2.8609],[134.1772,-2.8607],[134.1931,-2.9029],[134.2087,-2.9628],[134.0484,-2.9836],[134.0271,-2.9932]]]}},{"type":"Feature","properties":{"name":"Sawatawera","name_en":"Sawatawera","admin_level":"7","osm_id":""},"geometry":{"type":"Polygon","coordinates":[[[133.6036,-3.0666],[133.609,-3.0632],[133.6205,-3.0507],[133.6783,-3.0043],[133.7046,-3.0113],[133.69,-3.04],[133.6881,-3.0672],[133.6955,-3.0921],[133.6918,-3.0974],[133.6828,-3.1029],[133.6771,-3.1202],[133.6638,-3.1167],[133.6606,-3.1077],[133.6481,-3.1052],[133.6461,-3.1039],[133.6458,-3.1],[133.6346,-3.0986],[133.6341,-3.0924],[133.6261,-3.0894],[133.6237,-3.084],[133.6135,-3.0781],[133.6111,-3.0722],[133.6036,-3.0666]]]}},{"type":"Feature","properties":{"name":"Sawi","name_en":"Sawi","admin_level":"7","osm_id":""},"geometry":{"type":"Polygon","coordinates":[[[133.9263,-2.9311],[133.9417,-2.9351],[133.9092,-2.9465],[133.8928,-2.9584],[133.8719,-2.96],[133.8689,-2.9587],[133.8756,-2.9554],[133.8789,-2.9529],[133.868,-2.9583],[133.8645,-2.9565],[133.8669,-2.9584],[133.8649,-2.9604],[133.8626,-2.9567],[133.9263,-2.9311]]]}},{"type":"Feature","properties":{"name":"Tiwara","name_en":"Tiwara","admin_level":"7","osm_id":""},"geometry":{"type":"Polygon","coordinates":[[[133.9417,-2.9351],[133.9546,-2.9385],[133.9578,-2.9691],[133.9177,-2.9769],[133.8895,-2.9753],[133.8614,-2.9784],[133.8622,-2.965],[133.8684,-2.9592],[133.8731,-2.9616],[133.8752,-2.9618],[133.8791,-2.961],[133.8719,-2.96],[133.8928,-2.9584],[133.9092,-2.9465],[133.9417,-2.9351]]]}},{"type":"Feature","properties":{"name":"Tugarni","name_en":"Tugarni","admin_level":"7","osm_id":""},"geometry":{"type":"Polygon","coordinates":[[[133.8846,-3.0502],[133.9136,-3.0547],[133.9482,-3.0382],[133.9512,-3.0482],[133.9253,-3.0633],[133.8916,-3.0667],[133.8846,-3.0502]]]}},{"type":"Feature","properties":{"name":"Tuguwara","name_en":"Tuguwara","admin_level":"7","osm_id":""},"geometry":{"type":"Polygon","coordinates":[[[133.8584,-3.3744],[133.8298,-3.3712],[133.8,-3.3718],[133.7888,-3.3698],[133.7857,-3.3716],[133.7702,-3.3741],[133.7184,-3.3714],[133.6912,-3.3715],[133.6879,-3.3604],[133.6884,-3.3544],[133.6848,-3.3521],[133.6847,-3.3471],[133.6804,-3.3359],[133.6813,-3.3339],[133.6777,-3.3266],[133.6738,-3.3252],[133.6731,-3.3231],[133.681,-3.3243],[133.6821,-3.3222],[133.6732,-3.2686],[133.672,-3.2448],[133.6754,-3.2313],[133.6802,-3.228],[133.6871,-3.219],[133.7009,-3.2193],[133.7042,-3.218],[133.7092,-3.2121],[133.8242,-3.2693],[133.8584,-3.3744]]]}},{"type":"Feature","properties":{"name":"Wainaga","name_en":"Wainaga","admin_level":"7","osm_id":""},"geometry":{"type":"Polygon","coordinates":[[[134.2759,-3.1673],[134.2574,-3.1857],[134.2305,-3.219],[134.1891,-3.2643],[133.9686,-3.2147],[133.8691,-3.1152],[133.8945,-3.0806],[133.9023,-3.0871],[133.8956,-3.0951],[133.8965,-3.1019],[133.9,-3.1046],[133.9009,-3.1077],[133.8992,-3.11],[133.9002,-3.1116],[133.8964,-3.1133],[133.9005,-3.112],[133.8998,-3.11],[133.9015,-3.1079],[133.9008,-3.1046],[133.8974,-3.1013],[133.9158,-3.1004],[133.9227,-3.1047],[133.9162,-3.0999],[133.8976,-3.1001],[133.8984,-3.0977],[133.8967,-3.0947],[133.9039,-3.0872],[133.9126,-3.0828],[133.9519,-3.0801],[133.9543,-3.0742],[133.9584,-3.073],[133.9624,-3.0869],[134.0905,-3.1013],[134.2759,-3.1673]]]}},{"type":"Feature","properties":{"name":"Wanggita","name_en":"Wanggita","admin_level":"7","osm_id":""},"geometry":{"type":"Polygon","coordinates":[[[134.0186,-3.4044],[133.9941,-3.4044],[133.971,-3.4001],[133.9008,-3.3816],[133.8744,-3.376],[133.8584,-3.3744],[133.8242,-3.2693],[133.7092,-3.2121],[133.7096,-3.1904],[133.7041,-3.18],[133.7058,-3.1743],[133.7088,-3.1739],[133.7126,-3.1787],[133.7234,-3.1817],[133.7302,-3.1763],[133.8701,-3.2007],[133.9248,-3.2848],[134.1021,-3.3647],[134.0928,-3.3721],[134.0619,-3.4033],[134.0537,-3.4052],[134.0186,-3.4044]]]}},{"type":"Feature","properties":{"name":"Warwarsi","name_en":"Warwarsi","admin_level":"7","osm_id":""},"geometry":{"type":"Polygon","coordinates":[[[133.7616,-3.0063],[133.7589,-3.0134],[133.765,-3.0153],[133.7639,-3.0245],[133.7614,-3.0262],[133.7605,-3.0306],[133.7494,-3.0232],[133.7354,-3.0249],[133.722,-3.0309],[133.6992,-3.0273],[133.7124,-3.0315],[133.722,-3.0326],[133.7357,-3.0258],[133.747,-3.0245],[133.7531,-3.0262],[133.7576,-3.0302],[133.758,-3.0327],[133.7567,-3.0344],[133.7519,-3.0348],[133.7429,-3.0338],[133.7357,-3.0382],[133.7287,-3.0457],[133.7214,-3.0603],[133.7055,-3.082],[133.6955,-3.0921],[133.6881,-3.0672],[133.69,-3.04],[133.7046,-3.0113],[133.713,-3.0136],[133.752,-3.0094],[133.7616,-3.0063]]]}},{"type":"Feature","properties":{"name":"Werua","name_en":"Werua","admin_level":"7","osm_id":""},"geometry":{"type":"Polygon","coordinates":[[[133.7733,-3.0864],[133.7763,-3.0866],[133.7772,-3.0837],[133.7798,-3.0834],[133.7835,-3.08],[133.7907,-3.0783],[133.7995,-3.0894],[133.8001,-3.113],[133.798,-3.1137],[133.7967,-3.1064],[133.7922,-3.1027],[133.7848,-3.1047],[133.7827,-3.1039],[133.7818,-3.101],[133.7797,-3.1012],[133.7771,-3.0944],[133.773,-3.0903],[133.7744,-3.0885],[133.7733,-3.0864]]]}},{"type":"Feature","properties":{"name":"Weswasa","name_en":"Weswasa","admin_level":"7","osm_id":""},"geometry":{"type":"Polygon","coordinates":[[[133.9641,-2.9917],[133.9245,-2.9951],[133.9051,-3.0079],[133.876,-3.0053],[133.8677,-3.0075],[133.8614,-2.9784],[133.8895,-2.9753],[133.9177,-2.9769],[133.9578,-2.9691],[133.9594,-2.9842],[133.9641,-2.9917]]]}}]}