{"type":"FeatureCollection","metadata":{"parent_osm_id":"gid_IDN_6_6_5_1","parent_name":"KotaTimur","parent_name_1":"Gorontalo","parent_gid":"IDN.6.6.5_1","parent_level":"6","child_level":"7","count":11,"source":"GADM 4.1","generated":"2026-05-08"},"features":[{"type":"Feature","properties":{"name":"Botu","name_en":"Botu","admin_level":"7","osm_id":""},"geometry":{"type":"Polygon","coordinates":[[[123.0803,0.5322],[123.0799,0.5211],[123.0771,0.5209],[123.0674,0.527],[123.0663,0.5292],[123.0745,0.534],[123.081,0.5349],[123.0803,0.5322]]]}},{"type":"Feature","properties":{"name":"Bugis","name_en":"Bugis","admin_level":"7","osm_id":""},"geometry":{"type":"Polygon","coordinates":[[[123.0618,0.5232],[123.0602,0.5293],[123.0648,0.5304],[123.0669,0.5289],[123.0618,0.5232]]]}},{"type":"Feature","properties":{"name":"Heledulaa","name_en":"Heledulaa","admin_level":"7","osm_id":""},"geometry":{"type":"Polygon","coordinates":[[[123.0625,0.5422],[123.0651,0.5563],[123.0699,0.5551],[123.069,0.5505],[123.0705,0.5501],[123.068,0.5417],[123.0625,0.5422]]]}},{"type":"Feature","properties":{"name":"HeledulaaSelatan","name_en":"HeledulaaSelatan","admin_level":"7","osm_id":""},"geometry":{"type":"Polygon","coordinates":[[[123.0606,0.5374],[123.0614,0.5423],[123.0684,0.5412],[123.0679,0.5379],[123.0649,0.5366],[123.0606,0.5374]]]}},{"type":"Feature","properties":{"name":"Ipilo","name_en":"Ipilo","admin_level":"7","osm_id":""},"geometry":{"type":"Polygon","coordinates":[[[123.0597,0.5306],[123.0606,0.5374],[123.0649,0.5366],[123.0684,0.538],[123.0663,0.5294],[123.0597,0.5306]]]}},{"type":"Feature","properties":{"name":"LeatoSelatan","name_en":"LeatoSelatan","admin_level":"7","osm_id":""},"geometry":{"type":"Polygon","coordinates":[[[123.0878,0.5088],[123.0957,0.5074],[123.099,0.5045],[123.0935,0.4836],[123.0864,0.4796],[123.0853,0.4867],[123.0787,0.4883],[123.0778,0.4929],[123.0739,0.4936],[123.069,0.4978],[123.0752,0.5029],[123.0823,0.5049],[123.0878,0.5088]]]}},{"type":"Feature","properties":{"name":"LeatoUtara","name_en":"LeatoUtara","admin_level":"7","osm_id":""},"geometry":{"type":"Polygon","coordinates":[[[123.0829,0.5148],[123.0874,0.5089],[123.0823,0.5049],[123.0752,0.5029],[123.0698,0.4981],[123.0627,0.5056],[123.0634,0.5092],[123.0674,0.5133],[123.0758,0.5117],[123.0783,0.514],[123.0829,0.5148]]]}},{"type":"Feature","properties":{"name":"Moodu","name_en":"Moodu","admin_level":"7","osm_id":""},"geometry":{"type":"Polygon","coordinates":[[[123.0681,0.538],[123.0678,0.5423],[123.0705,0.5501],[123.069,0.5505],[123.0697,0.5541],[123.0809,0.5484],[123.0758,0.5405],[123.0681,0.538]]]}},{"type":"Feature","properties":{"name":"Padebuolo","name_en":"Padebuolo","admin_level":"7","osm_id":""},"geometry":{"type":"Polygon","coordinates":[[[123.0744,0.534],[123.0731,0.5325],[123.0663,0.5294],[123.0684,0.538],[123.076,0.5406],[123.0744,0.534]]]}},{"type":"Feature","properties":{"name":"Talumolo","name_en":"Talumolo","admin_level":"7","osm_id":""},"geometry":{"type":"Polygon","coordinates":[[[123.0799,0.5211],[123.0829,0.5148],[123.0783,0.514],[123.0758,0.5117],[123.0674,0.5133],[123.0632,0.5083],[123.0623,0.5223],[123.0668,0.5288],[123.0674,0.527],[123.0771,0.5209],[123.0799,0.5211]]]}},{"type":"Feature","properties":{"name":"Tamalate","name_en":"Tamalate","admin_level":"7","osm_id":""},"geometry":{"type":"Polygon","coordinates":[[[123.0838,0.5422],[123.0814,0.5348],[123.0744,0.534],[123.076,0.5406],[123.0838,0.5422]]]}}]}