{"type":"FeatureCollection","metadata":{"parent_osm_id":"gid_IDN_1_9_16_1","parent_name":"TanohAlas","parent_name_1":"Aceh","parent_gid":"IDN.1.9.16_1","parent_level":"6","child_level":"7","count":15,"source":"GADM 4.1","generated":"2026-05-07"},"features":[{"type":"Feature","properties":{"name":"AlurLangsat","name_en":"AlurLangsat","admin_level":"7","osm_id":""},"geometry":{"type":"Polygon","coordinates":[[[97.8402,3.38],[97.8358,3.3837],[97.836,3.3884],[97.8422,3.3876],[97.844,3.3822],[97.8406,3.3818],[97.8402,3.38]]]}},{"type":"Feature","properties":{"name":"AlurNangka","name_en":"AlurNangka","admin_level":"7","osm_id":""},"geometry":{"type":"Polygon","coordinates":[[[97.8444,3.3938],[97.8459,3.3937],[97.8469,3.3876],[97.8428,3.3877],[97.8431,3.39],[97.8408,3.391],[97.841,3.3938],[97.8444,3.3938]]]}},{"type":"Feature","properties":{"name":"Hutan","name_en":"Hutan","admin_level":"7","osm_id":""},"geometry":{"type":"Polygon","coordinates":[[[97.6387,3.0394],[97.6154,3.0927],[97.6032,3.1094],[97.5767,3.1274],[97.5511,3.1496],[97.5199,3.1676],[97.5,3.1921],[97.4814,3.212],[97.4755,3.2216],[97.4708,3.2398],[97.4714,3.2632],[97.469,3.2679],[97.4833,3.2688],[97.4965,3.2748],[97.7498,3.4204],[97.7575,3.4173],[97.76,3.4178],[97.7727,3.4245],[97.7787,3.4349],[97.7837,3.4355],[97.788,3.4389],[97.7885,3.4363],[97.7986,3.434],[97.7981,3.4304],[97.8033,3.4286],[97.8042,3.4251],[97.8134,3.4273],[97.8134,3.4238],[97.807,3.4185],[97.8107,3.4176],[97.8074,3.4157],[97.8072,3.4129],[97.809,3.4107],[97.8135,3.41],[97.8158,3.4056],[97.8138,3.4003],[97.8154,3.3983],[97.8219,3.4012],[97.8329,3.3953],[97.8358,3.3901],[97.8358,3.3837],[97.8402,3.38],[97.8409,3.3724],[97.8452,3.3668],[97.8411,3.3632],[97.833,3.3491],[97.8265,3.3449],[97.8183,3.3271],[97.824,3.3246],[97.8288,3.3189],[97.8263,3.3067],[97.8271,3.2945],[97.8044,3.2914],[97.7978,3.2792],[97.7864,3.2654],[97.7831,3.2467],[97.7733,3.2386],[97.77,3.2256],[97.774,3.2174],[97.7729,3.2014],[97.7651,3.1915],[97.7625,3.1918],[97.7574,3.1881],[97.7566,3.1854],[97.7592,3.1811],[97.7592,3.1774],[97.7493,3.167],[97.7472,3.1612],[97.7522,3.1481],[97.7604,3.139],[97.7603,3.1256],[97.7632,3.1155],[97.7674,3.1096],[97.7673,3.1064],[97.7625,3.1049],[97.7577,3.099],[97.7524,3.0985],[97.7494,3.0948],[97.7439,3.0951],[97.7409,3.0927],[97.7356,3.0935],[97.7327,3.0901],[97.7279,3.0802],[97.7289,3.0767],[97.7214,3.0664],[97.7203,3.0594],[97.7235,3.0567],[97.7195,3.0544],[97.7192,3.0514],[97.7137,3.0498],[97.7099,3.0416],[97.7104,3.0328],[97.7019,3.0216],[97.6965,3.019],[97.6955,3.0152],[97.697,3.0107],[97.6898,3.0059],[97.68,3.0108],[97.6665,3.0138],[97.6599,3.0282],[97.6557,3.0293],[97.6387,3.0394]]]}},{"type":"Feature","properties":{"name":"JamburDamar","name_en":"JamburDamar","admin_level":"7","osm_id":""},"geometry":{"type":"Polygon","coordinates":[[[97.863,3.3697],[97.8574,3.3664],[97.8555,3.3691],[97.8619,3.3721],[97.863,3.3697]]]}},{"type":"Feature","properties":{"name":"JamburPermata","name_en":"JamburPermata","admin_level":"7","osm_id":""},"geometry":{"type":"Polygon","coordinates":[[[97.8522,3.3626],[97.8501,3.3649],[97.8555,3.3691],[97.8572,3.3667],[97.8522,3.3626]]]}},{"type":"Feature","properties":{"name":"KuteMejile","name_en":"KuteMejile","admin_level":"7","osm_id":""},"geometry":{"type":"Polygon","coordinates":[[[97.8498,3.3695],[97.8452,3.3668],[97.8426,3.3694],[97.8592,3.3777],[97.8612,3.3751],[97.8498,3.3695]]]}},{"type":"Feature","properties":{"name":"LaweTungkal","name_en":"LaweTungkal","admin_level":"7","osm_id":""},"geometry":{"type":"Polygon","coordinates":[[[97.8422,3.3876],[97.836,3.3884],[97.8343,3.3919],[97.8409,3.3924],[97.8408,3.391],[97.8431,3.39],[97.8422,3.3876]]]}},{"type":"Feature","properties":{"name":"RambahSayang","name_en":"RambahSayang","admin_level":"7","osm_id":""},"geometry":{"type":"Polygon","coordinates":[[[97.8534,3.3798],[97.8558,3.3786],[97.8409,3.3734],[97.8411,3.3782],[97.8462,3.3769],[97.8534,3.3798]]]}},{"type":"Feature","properties":{"name":"RumahLuar","name_en":"RumahLuar","admin_level":"7","osm_id":""},"geometry":{"type":"Polygon","coordinates":[[[97.8413,3.3958],[97.8438,3.3957],[97.8444,3.3938],[97.8343,3.3919],[97.833,3.395],[97.8354,3.3965],[97.8413,3.3958]]]}},{"type":"Feature","properties":{"name":"RutungMbelang","name_en":"RutungMbelang","admin_level":"7","osm_id":""},"geometry":{"type":"Polygon","coordinates":[[[97.8469,3.3876],[97.8528,3.388],[97.8488,3.383],[97.844,3.3823],[97.8422,3.3876],[97.8469,3.3876]]]}},{"type":"Feature","properties":{"name":"SalimPinim","name_en":"SalimPinim","admin_level":"7","osm_id":""},"geometry":{"type":"Polygon","coordinates":[[[97.8558,3.3786],[97.8592,3.3777],[97.8518,3.3742],[97.8497,3.376],[97.8558,3.3786]]]}},{"type":"Feature","properties":{"name":"SalimPinimIi","name_en":"SalimPinimIi","admin_level":"7","osm_id":""},"geometry":{"type":"Polygon","coordinates":[[[97.8426,3.3694],[97.8409,3.3734],[97.8439,3.3751],[97.8497,3.376],[97.8518,3.3742],[97.8426,3.3694]]]}},{"type":"Feature","properties":{"name":"SetambulJaya","name_en":"SetambulJaya","admin_level":"7","osm_id":""},"geometry":{"type":"Polygon","coordinates":[[[97.8417,3.3994],[97.8413,3.3958],[97.8354,3.3965],[97.833,3.395],[97.8281,3.3971],[97.8332,3.3991],[97.8417,3.3994]]]}},{"type":"Feature","properties":{"name":"TenembakAlas","name_en":"TenembakAlas","admin_level":"7","osm_id":""},"geometry":{"type":"Polygon","coordinates":[[[97.8525,3.3672],[97.8497,3.3676],[97.8503,3.3701],[97.8583,3.3746],[97.8624,3.374],[97.8619,3.3721],[97.8525,3.3672]]]}},{"type":"Feature","properties":{"name":"TimangRasa","name_en":"TimangRasa","admin_level":"7","osm_id":""},"geometry":{"type":"Polygon","coordinates":[[[97.8488,3.383],[97.8534,3.3798],[97.8462,3.3769],[97.8411,3.3782],[97.8402,3.38],[97.8415,3.3822],[97.8488,3.383]]]}}]}