{"type":"FeatureCollection","metadata":{"parent_osm_id":"gid_IDN_32_9_6_1","parent_name":"MedanDenai","parent_name_1":"SumateraUtara","parent_gid":"IDN.32.9.6_1","parent_level":"6","child_level":"7","count":6,"source":"GADM 4.1","generated":"2026-05-09"},"features":[{"type":"Feature","properties":{"name":"BINJAI","name_en":"BINJAI","admin_level":"7","osm_id":""},"geometry":{"type":"Polygon","coordinates":[[[98.713,3.5522],[98.7064,3.5529],[98.7096,3.5572],[98.708,3.5572],[98.7074,3.5628],[98.7079,3.5684],[98.7104,3.5703],[98.7105,3.5752],[98.7237,3.5748],[98.7247,3.5733],[98.721,3.568],[98.7219,3.566],[98.713,3.5522]]]}},{"type":"Feature","properties":{"name":"DENAI","name_en":"DENAI","admin_level":"7","osm_id":""},"geometry":{"type":"Polygon","coordinates":[[[98.7307,3.5837],[98.7311,3.5821],[98.7383,3.5814],[98.7369,3.5747],[98.734,3.5748],[98.7318,3.571],[98.724,3.5713],[98.7234,3.5772],[98.7265,3.5784],[98.7307,3.5837]]]}},{"type":"Feature","properties":{"name":"MedanTenggara","name_en":"MedanTenggara","admin_level":"7","osm_id":""},"geometry":{"type":"Polygon","coordinates":[[[98.7286,3.5711],[98.7271,3.5681],[98.7268,3.5511],[98.713,3.5522],[98.7219,3.566],[98.7214,3.5691],[98.724,3.5713],[98.7286,3.5711]]]}},{"type":"Feature","properties":{"name":"TegalSariMandalaI","name_en":"TegalSariMandalaI","admin_level":"7","osm_id":""},"geometry":{"type":"Polygon","coordinates":[[[98.7056,3.5872],[98.7043,3.5884],[98.7122,3.5892],[98.712,3.5819],[98.706,3.5821],[98.7074,3.5854],[98.7056,3.5872]]]}},{"type":"Feature","properties":{"name":"TegalSariMandalaIi","name_en":"TegalSariMandalaIi","admin_level":"7","osm_id":""},"geometry":{"type":"Polygon","coordinates":[[[98.7411,3.5923],[98.7408,3.5882],[98.7323,3.5859],[98.7254,3.5778],[98.7244,3.5814],[98.712,3.5819],[98.7122,3.5892],[98.7411,3.5923]]]}},{"type":"Feature","properties":{"name":"TegalSariMandalaIii","name_en":"TegalSariMandalaIii","admin_level":"7","osm_id":""},"geometry":{"type":"Polygon","coordinates":[[[98.7084,3.58],[98.7084,3.5819],[98.7244,3.5814],[98.7248,3.578],[98.7234,3.5772],[98.7237,3.5748],[98.7105,3.5752],[98.7095,3.5799],[98.7084,3.58]]]}}]}