{"type":"FeatureCollection","metadata":{"parent_osm_id":"gid_IDN_29_5_4_1","parent_name":"DumogaBarat","parent_name_1":"SulawesiUtara","parent_gid":"IDN.29.5.4_1","parent_level":"6","child_level":"7","count":14,"source":"GADM 4.1","generated":"2026-05-09"},"features":[{"type":"Feature","properties":{"name":"Doloduo","name_en":"Doloduo","admin_level":"7","osm_id":""},"geometry":{"type":"Polygon","coordinates":[[[123.9746,0.5253],[123.9716,0.5235],[123.9663,0.5253],[123.9497,0.5207],[123.9337,0.5228],[123.9328,0.5271],[123.9294,0.5293],[123.9294,0.5416],[123.9255,0.5536],[123.9255,0.5588],[123.9287,0.5588],[123.9305,0.5526],[123.9382,0.5488],[123.9389,0.5471],[123.9477,0.5464],[123.9492,0.545],[123.9495,0.5436],[123.9415,0.5399],[123.9406,0.5371],[123.9352,0.537],[123.935,0.5326],[123.9384,0.5311],[123.9445,0.5324],[123.9484,0.5308],[123.9509,0.534],[123.9565,0.5325],[123.9596,0.5344],[123.9609,0.531],[123.9632,0.5308],[123.9656,0.5329],[123.9689,0.5331],[123.9693,0.5349],[123.9746,0.5253]]]}},{"type":"Feature","properties":{"name":"Ibolian","name_en":"Ibolian","admin_level":"7","osm_id":""},"geometry":{"type":"Polygon","coordinates":[[[124.0209,0.5659],[124.0253,0.5669],[124.0315,0.5648],[124.0309,0.5518],[124.0265,0.5503],[124.0244,0.5479],[124.019,0.5521],[124.0194,0.5538],[124.0166,0.5567],[124.0184,0.5578],[124.0209,0.5554],[124.0218,0.5566],[124.0209,0.5659]]]}},{"type":"Feature","properties":{"name":"IbolianI","name_en":"IbolianI","admin_level":"7","osm_id":""},"geometry":{"type":"Polygon","coordinates":[[[124.0313,0.5598],[124.0309,0.5651],[124.0253,0.5669],[124.0209,0.5659],[124.0257,0.5736],[124.028,0.5719],[124.0299,0.5742],[124.0327,0.5692],[124.0346,0.5691],[124.038,0.5648],[124.0313,0.5598]]]}},{"type":"Feature","properties":{"name":"Ikhwan","name_en":"Ikhwan","admin_level":"7","osm_id":""},"geometry":{"type":"Polygon","coordinates":[[[123.7631,0.4573],[123.7599,0.4602],[123.75,0.4571],[123.7466,0.4608],[123.7412,0.4615],[123.7382,0.4652],[123.7283,0.4613],[123.7246,0.4646],[123.7211,0.4652],[123.7179,0.4636],[123.7135,0.4667],[123.7071,0.4562],[123.6986,0.456],[123.6984,0.461],[123.6911,0.4739],[123.6914,0.4863],[123.6949,0.4868],[123.7,0.4949],[123.7048,0.4979],[123.7344,0.4956],[123.7444,0.4967],[123.7611,0.5035],[123.7798,0.5047],[123.8068,0.5129],[123.8109,0.5133],[123.8171,0.5105],[123.8217,0.5103],[123.8246,0.5115],[123.8252,0.5151],[123.828,0.5173],[123.832,0.5183],[123.8493,0.5167],[123.8552,0.5193],[123.8729,0.5209],[123.8908,0.5159],[123.8945,0.5177],[123.9063,0.5177],[123.915,0.5213],[123.9249,0.5205],[123.9313,0.5243],[123.9361,0.5223],[123.9497,0.5207],[123.9674,0.5254],[123.9732,0.5237],[123.9752,0.5255],[123.9778,0.5224],[123.9775,0.5187],[123.9791,0.5164],[123.9763,0.5128],[123.9693,0.5163],[123.9649,0.5152],[123.9594,0.5162],[123.9542,0.5145],[123.952,0.5161],[123.9443,0.5138],[123.9397,0.509],[123.9334,0.5092],[123.9161,0.5028],[123.906,0.5018],[123.899,0.4966],[123.8696,0.5018],[123.8587,0.4994],[123.8515,0.4944],[123.8448,0.497],[123.8337,0.492],[123.8255,0.4904],[123.82,0.485],[123.8196,0.482],[123.8108,0.4744],[123.8027,0.477],[123.7967,0.475],[123.7916,0.4702],[123.7882,0.4692],[123.7781,0.47],[123.7693,0.4652],[123.7631,0.4573]]]}},{"type":"Feature","properties":{"name":"Kinomaligan","name_en":"Kinomaligan","admin_level":"7","osm_id":""},"geometry":{"type":"Polygon","coordinates":[[[124.0517,0.513],[124.0463,0.5085],[124.0475,0.5025],[124.0461,0.4972],[124.0374,0.4962],[124.0353,0.505],[124.0322,0.5057],[124.0308,0.5084],[124.0279,0.5097],[124.0233,0.5187],[124.0243,0.5283],[124.021,0.5298],[124.0209,0.5341],[124.0163,0.5351],[124.0133,0.5383],[124.0138,0.5404],[124.0099,0.548],[124.0121,0.5512],[124.0149,0.5507],[124.0158,0.553],[124.0173,0.5513],[124.019,0.5521],[124.0227,0.5495],[124.0244,0.5455],[124.0296,0.5439],[124.0331,0.537],[124.0517,0.513]]]}},{"type":"Feature","properties":{"name":"Kosio","name_en":"Kosio","admin_level":"7","osm_id":""},"geometry":{"type":"Polygon","coordinates":[[[124.0327,0.4891],[124.0323,0.4869],[124.0262,0.486],[124.023,0.4825],[124.0188,0.4831],[124.0174,0.4862],[124.0136,0.4867],[124.013,0.4912],[124.0081,0.4976],[124.003,0.5],[123.999,0.5178],[123.9958,0.5216],[123.9925,0.5225],[123.9873,0.5308],[123.9846,0.5371],[123.9844,0.5415],[123.9858,0.5431],[123.9918,0.5429],[123.9912,0.5457],[123.994,0.5459],[123.9959,0.5408],[123.9967,0.5419],[123.9999,0.54],[124.0017,0.5434],[124.0043,0.5423],[124.0058,0.5326],[124.0047,0.5297],[124.0098,0.5267],[124.0115,0.5166],[124.0185,0.5067],[124.0176,0.5042],[124.0201,0.5026],[124.0218,0.4972],[124.0246,0.4968],[124.0253,0.4932],[124.0274,0.4932],[124.0327,0.4891]]]}},{"type":"Feature","properties":{"name":"KosioTimur","name_en":"KosioTimur","admin_level":"7","osm_id":""},"geometry":{"type":"Polygon","coordinates":[[[124.0374,0.4962],[124.0329,0.4925],[124.0317,0.4888],[124.0294,0.492],[124.0253,0.4932],[124.0246,0.4968],[124.0218,0.4972],[124.0201,0.5026],[124.0176,0.5042],[124.0185,0.5067],[124.0115,0.5166],[124.0098,0.5267],[124.0047,0.5297],[124.0058,0.5326],[124.004,0.541],[124.0074,0.5471],[124.0099,0.548],[124.0117,0.5459],[124.0133,0.5383],[124.0163,0.5351],[124.0209,0.5341],[124.021,0.5298],[124.0243,0.5283],[124.0247,0.5264],[124.0233,0.5235],[124.0242,0.5165],[124.0279,0.5097],[124.0308,0.5084],[124.0322,0.5057],[124.0353,0.505],[124.0374,0.4962]]]}},{"type":"Feature","properties":{"name":"Matayangan","name_en":"Matayangan","admin_level":"7","osm_id":""},"geometry":{"type":"Polygon","coordinates":[[[123.903,0.4449],[123.8948,0.4508],[123.8913,0.4509],[123.8882,0.4485],[123.8822,0.4488],[123.8812,0.4511],[123.8779,0.4514],[123.8761,0.4533],[123.869,0.4529],[123.8661,0.4559],[123.8693,0.4613],[123.8763,0.465],[123.8811,0.4646],[123.8869,0.4702],[123.8998,0.4725],[123.902,0.4759],[123.9052,0.4771],[123.91,0.4752],[123.9229,0.4762],[123.9245,0.4749],[123.9364,0.4743],[123.9382,0.4762],[123.9365,0.4812],[123.9393,0.4838],[123.9464,0.483],[123.9518,0.4853],[123.9621,0.4801],[123.9679,0.4824],[123.9782,0.4795],[123.9935,0.4868],[124.0076,0.4877],[124.013,0.4912],[124.0136,0.4867],[124.0174,0.4862],[124.0188,0.4831],[124.0232,0.4826],[124.0259,0.4791],[124.0242,0.4769],[124.0144,0.4737],[124.0017,0.4669],[123.9923,0.468],[123.9903,0.4634],[123.9824,0.462],[123.9745,0.4631],[123.962,0.4607],[123.9518,0.4566],[123.9496,0.4532],[123.9499,0.4474],[123.9481,0.443],[123.9393,0.4411],[123.9334,0.4328],[123.9305,0.4316],[123.9218,0.4344],[123.9168,0.4332],[123.9105,0.4341],[123.9044,0.4376],[123.9055,0.4435],[123.903,0.4449]]]}},{"type":"Feature","properties":{"name":"Mekaruo","name_en":"Mekaruo","admin_level":"7","osm_id":""},"geometry":{"type":"Polygon","coordinates":[[[123.9509,0.534],[123.9484,0.5308],[123.9424,0.5326],[123.9384,0.5311],[123.935,0.5326],[123.9348,0.5353],[123.9352,0.537],[123.9406,0.5371],[123.9415,0.5399],[123.9495,0.5436],[123.9526,0.5389],[123.9509,0.534]]]}},{"type":"Feature","properties":{"name":"Toraut","name_en":"Toraut","admin_level":"7","osm_id":""},"geometry":{"type":"Polygon","coordinates":[[[123.7048,0.4979],[123.7114,0.5045],[123.7161,0.5121],[123.7205,0.525],[123.7276,0.5319],[123.7302,0.5369],[123.7345,0.5409],[123.7659,0.5586],[123.7682,0.5631],[123.782,0.5666],[123.7883,0.5747],[123.7947,0.5782],[123.7983,0.5759],[123.806,0.5775],[123.8176,0.5756],[123.8187,0.5782],[123.8215,0.5786],[123.8301,0.5867],[123.838,0.5861],[123.8462,0.5904],[123.8508,0.5895],[123.8527,0.5907],[123.8575,0.5889],[123.8602,0.5906],[123.8645,0.5877],[123.8759,0.5888],[123.8835,0.5842],[123.8874,0.5774],[123.8937,0.576],[123.9038,0.57],[123.9163,0.5722],[123.922,0.5706],[123.9241,0.5663],[123.9238,0.5602],[123.9255,0.5588],[123.9255,0.5536],[123.9285,0.5468],[123.9294,0.5293],[123.9328,0.5271],[123.9336,0.5239],[123.9313,0.5243],[123.9249,0.5205],[123.915,0.5213],[123.9063,0.5177],[123.8945,0.5177],[123.8908,0.5159],[123.8729,0.5209],[123.8552,0.5193],[123.8493,0.5167],[123.832,0.5183],[123.828,0.5173],[123.8252,0.5151],[123.8246,0.5115],[123.8217,0.5103],[123.8171,0.5105],[123.8109,0.5133],[123.8068,0.5129],[123.7798,0.5047],[123.7611,0.5035],[123.7444,0.4967],[123.7344,0.4956],[123.7048,0.4979]]]}},{"type":"Feature","properties":{"name":"Uuwan","name_en":"Uuwan","admin_level":"7","osm_id":""},"geometry":{"type":"Polygon","coordinates":[[[123.8473,0.4552],[123.8394,0.4547],[123.8338,0.4519],[123.8266,0.4433],[123.8174,0.4452],[123.814,0.4433],[123.8046,0.4439],[123.8019,0.4413],[123.7955,0.4421],[123.7925,0.4404],[123.7904,0.4427],[123.7801,0.4462],[123.7772,0.4544],[123.767,0.4545],[123.7631,0.4573],[123.7693,0.4652],[123.7781,0.47],[123.7882,0.4692],[123.7916,0.4702],[123.7967,0.475],[123.8027,0.477],[123.8108,0.4744],[123.8196,0.482],[123.82,0.485],[123.8255,0.4904],[123.8337,0.492],[123.8422,0.4962],[123.8448,0.497],[123.8515,0.4944],[123.8587,0.4994],[123.8696,0.5018],[123.899,0.4966],[123.906,0.5018],[123.9161,0.5028],[123.9334,0.5092],[123.9397,0.509],[123.9443,0.5138],[123.952,0.5161],[123.9542,0.5145],[123.9594,0.5162],[123.9649,0.5152],[123.9693,0.5163],[123.9763,0.5128],[123.9881,0.5166],[123.9992,0.5152],[124.003,0.5],[124.0081,0.4976],[124.013,0.4912],[124.0076,0.4877],[123.9935,0.4868],[123.9782,0.4795],[123.9679,0.4824],[123.9621,0.4801],[123.9518,0.4853],[123.9464,0.483],[123.9393,0.4838],[123.9365,0.4812],[123.9382,0.4762],[123.9364,0.4743],[123.9245,0.4749],[123.9229,0.4762],[123.91,0.4752],[123.9052,0.4771],[123.902,0.4759],[123.8998,0.4725],[123.8869,0.4702],[123.8811,0.4646],[123.8763,0.465],[123.8693,0.4613],[123.8661,0.4559],[123.8588,0.4592],[123.8473,0.4552]]]}},{"type":"Feature","properties":{"name":"WanggaBaru","name_en":"WanggaBaru","admin_level":"7","osm_id":""},"geometry":{"type":"Polygon","coordinates":[[[123.9746,0.5253],[123.9693,0.5349],[123.9727,0.535],[123.9767,0.5382],[123.9834,0.5345],[123.9846,0.5371],[123.9873,0.5308],[123.9921,0.5248],[123.9918,0.5233],[123.9958,0.5216],[123.999,0.5178],[123.9992,0.5152],[123.9881,0.5166],[123.9787,0.5144],[123.9776,0.5231],[123.9746,0.5253]]]}},{"type":"Feature","properties":{"name":"WerdhiAgung","name_en":"WerdhiAgung","admin_level":"7","osm_id":""},"geometry":{"type":"Polygon","coordinates":[[[124.0904,0.5186],[124.0817,0.5164],[124.0793,0.5208],[124.0756,0.5201],[124.0738,0.5274],[124.0705,0.5286],[124.0712,0.5322],[124.0673,0.5326],[124.0627,0.5372],[124.0564,0.5376],[124.0553,0.5423],[124.053,0.5422],[124.0511,0.54],[124.0424,0.5483],[124.0378,0.548],[124.032,0.5506],[124.0309,0.5518],[124.0313,0.5598],[124.038,0.5648],[124.0414,0.561],[124.048,0.5619],[124.0482,0.5589],[124.0511,0.5553],[124.0546,0.5588],[124.0526,0.5628],[124.0577,0.5621],[124.062,0.5637],[124.0623,0.5621],[124.0653,0.5626],[124.0682,0.5606],[124.0683,0.5586],[124.0711,0.5575],[124.0721,0.5534],[124.0756,0.5505],[124.0756,0.5465],[124.0782,0.5435],[124.0814,0.5414],[124.0892,0.5416],[124.0939,0.5393],[124.0942,0.5354],[124.0963,0.5338],[124.0983,0.5274],[124.0986,0.5228],[124.0956,0.5197],[124.0904,0.5186]]]}},{"type":"Feature","properties":{"name":"WerdhiAgungSelatan","name_en":"WerdhiAgungSelatan","admin_level":"7","osm_id":""},"geometry":{"type":"Polygon","coordinates":[[[124.0726,0.5142],[124.0638,0.5188],[124.0517,0.513],[124.0331,0.537],[124.0296,0.5439],[124.0244,0.5455],[124.0235,0.5479],[124.0307,0.5518],[124.0378,0.548],[124.0424,0.5483],[124.0511,0.54],[124.053,0.5422],[124.0553,0.5423],[124.0564,0.5376],[124.0627,0.5372],[124.0673,0.5326],[124.0712,0.5322],[124.0705,0.5286],[124.0747,0.5259],[124.0749,0.5209],[124.0793,0.5208],[124.08,0.5184],[124.0765,0.5147],[124.0726,0.5142]]]}}]}