{"type":"FeatureCollection","metadata":{"parent_osm_id":"gid_IDN_32_17_1_1","parent_name":"Lahomi","parent_name_1":"SumateraUtara","parent_gid":"IDN.32.17.1_1","parent_level":"6","child_level":"7","count":11,"source":"GADM 4.1","generated":"2026-05-09"},"features":[{"type":"Feature","properties":{"name":"Bawozamaiwo","name_en":"Bawozamaiwo","admin_level":"7","osm_id":""},"geometry":{"type":"Polygon","coordinates":[[[97.527,0.98],[97.536,0.9845],[97.538,0.9776],[97.5358,0.9672],[97.5294,0.9514],[97.5321,0.9454],[97.5314,0.9435],[97.5274,0.9467],[97.5167,0.9474],[97.5243,0.9556],[97.527,0.98]]]}},{"type":"Feature","properties":{"name":"Hiliaduho","name_en":"Hiliaduho","admin_level":"7","osm_id":""},"geometry":{"type":"Polygon","coordinates":[[[97.5147,0.9964],[97.5118,0.9996],[97.5144,1.0075],[97.5296,1.01],[97.5214,1.0006],[97.5147,0.9964]]]}},{"type":"Feature","properties":{"name":"Iraonogaila","name_en":"Iraonogaila","admin_level":"7","osm_id":""},"geometry":{"type":"Polygon","coordinates":[[[97.495,0.9776],[97.5001,0.9688],[97.5064,0.963],[97.5114,0.9482],[97.5081,0.9489],[97.5022,0.9466],[97.4939,0.9464],[97.4786,0.964],[97.4699,0.9689],[97.4801,0.9715],[97.4911,0.9775],[97.495,0.9776]]]}},{"type":"Feature","properties":{"name":"Lologundre","name_en":"Lologundre","admin_level":"7","osm_id":""},"geometry":{"type":"Polygon","coordinates":[[[97.5042,0.966],[97.5001,0.9688],[97.495,0.9776],[97.4986,0.9827],[97.502,0.9832],[97.5048,0.9888],[97.5101,0.9839],[97.5106,0.9782],[97.5136,0.9761],[97.5149,0.9721],[97.5123,0.9685],[97.5042,0.966]]]}},{"type":"Feature","properties":{"name":"Lolowau","name_en":"Lolowau","admin_level":"7","osm_id":""},"geometry":{"type":"Polygon","coordinates":[[[97.536,0.9845],[97.527,0.98],[97.5172,0.9766],[97.5168,0.987],[97.5353,0.994],[97.536,0.9845]]]}},{"type":"Feature","properties":{"name":"Onolimbu","name_en":"Onolimbu","admin_level":"7","osm_id":""},"geometry":{"type":"Polygon","coordinates":[[[97.5157,1.0086],[97.5118,0.9996],[97.5163,0.9922],[97.5172,0.9766],[97.5136,0.9761],[97.5106,0.9782],[97.5101,0.9839],[97.497,0.9948],[97.4927,1.0038],[97.4918,1.012],[97.4949,1.0122],[97.5099,1.0059],[97.5132,1.0099],[97.5157,1.0086]]]}},{"type":"Feature","properties":{"name":"Onowaembo","name_en":"Onowaembo","admin_level":"7","osm_id":""},"geometry":{"type":"Polygon","coordinates":[[[97.495,0.9776],[97.4929,0.9777],[97.4924,0.9875],[97.4887,0.9937],[97.4803,1.0018],[97.4862,1.009],[97.4918,1.012],[97.4927,1.0038],[97.497,0.9948],[97.5047,0.9887],[97.502,0.9832],[97.4986,0.9827],[97.495,0.9776]]]}},{"type":"Feature","properties":{"name":"SisoBambowo","name_en":"SisoBambowo","admin_level":"7","osm_id":""},"geometry":{"type":"Polygon","coordinates":[[[97.5147,0.9964],[97.5214,1.0006],[97.5296,1.01],[97.5366,1.0085],[97.5353,0.994],[97.5168,0.987],[97.5147,0.9964]]]}},{"type":"Feature","properties":{"name":"Sisobaoho","name_en":"Sisobaoho","admin_level":"7","osm_id":""},"geometry":{"type":"Polygon","coordinates":[[[97.5314,0.9435],[97.5321,0.9454],[97.5294,0.9514],[97.5358,0.9672],[97.538,0.9776],[97.5405,0.9729],[97.549,0.9641],[97.5437,0.956],[97.5479,0.9472],[97.5407,0.9442],[97.5417,0.9402],[97.5407,0.9383],[97.5314,0.9435]]]}},{"type":"Feature","properties":{"name":"Sitolubanua","name_en":"Sitolubanua","admin_level":"7","osm_id":""},"geometry":{"type":"Polygon","coordinates":[[[97.527,0.98],[97.5243,0.9556],[97.5167,0.9474],[97.5114,0.9482],[97.5082,0.9591],[97.5042,0.966],[97.5123,0.9685],[97.5146,0.9706],[97.5136,0.9761],[97.527,0.98]]]}},{"type":"Feature","properties":{"name":"TigaSerangkai","name_en":"TigaSerangkai","admin_level":"7","osm_id":""},"geometry":{"type":"Polygon","coordinates":[[[97.4929,0.9777],[97.4746,0.9696],[97.4644,0.969],[97.466,0.9737],[97.4733,0.9746],[97.4751,0.9792],[97.4752,0.9913],[97.4738,0.9961],[97.4803,1.0018],[97.4887,0.9937],[97.4924,0.9875],[97.4929,0.9777]]]}}]}