{"type":"FeatureCollection","metadata":{"parent_osm_id":"gid_IDN_9_6_18_1","parent_name":"Langkaplancar","parent_name_1":"JawaBarat","parent_gid":"IDN.9.6.18_1","parent_level":"6","child_level":"7","count":13,"source":"GADM 4.1","generated":"2026-05-09"},"features":[{"type":"Feature","properties":{"name":"Bangunjaya","name_en":"Bangunjaya","admin_level":"7","osm_id":""},"geometry":{"type":"Polygon","coordinates":[[[108.404,-7.5233],[108.4048,-7.5218],[108.4027,-7.5166],[108.4195,-7.5163],[108.418,-7.5294],[108.4187,-7.5418],[108.4158,-7.5478],[108.4105,-7.552],[108.4096,-7.5481],[108.4057,-7.5465],[108.4037,-7.5429],[108.4046,-7.5317],[108.408,-7.5289],[108.404,-7.5233]]]}},{"type":"Feature","properties":{"name":"Bangunkarya","name_en":"Bangunkarya","admin_level":"7","osm_id":""},"geometry":{"type":"Polygon","coordinates":[[[108.4721,-7.5771],[108.4844,-7.5817],[108.489,-7.586],[108.493,-7.5772],[108.4963,-7.5757],[108.5027,-7.5783],[108.5156,-7.5789],[108.5248,-7.5822],[108.5217,-7.5847],[108.5209,-7.5882],[108.5157,-7.59],[108.5142,-7.5924],[108.514,-7.5999],[108.5187,-7.6029],[108.5138,-7.6127],[108.5141,-7.615],[108.5105,-7.6157],[108.5034,-7.6237],[108.5022,-7.6203],[108.4937,-7.6139],[108.4898,-7.603],[108.4877,-7.6031],[108.49,-7.5994],[108.4839,-7.6053],[108.4785,-7.6043],[108.4776,-7.6092],[108.4752,-7.6098],[108.474,-7.6038],[108.4749,-7.5931],[108.4729,-7.5875],[108.4744,-7.5805],[108.4721,-7.5771]]]}},{"type":"Feature","properties":{"name":"Bojong","name_en":"Bojong","admin_level":"7","osm_id":""},"geometry":{"type":"Polygon","coordinates":[[[108.5187,-7.5259],[108.5193,-7.5274],[108.5276,-7.5269],[108.5273,-7.5293],[108.5357,-7.5358],[108.5422,-7.5379],[108.5397,-7.5389],[108.5297,-7.5372],[108.5252,-7.5389],[108.5205,-7.5456],[108.5221,-7.5508],[108.5251,-7.5521],[108.5218,-7.5555],[108.5177,-7.554],[108.5176,-7.5511],[108.5128,-7.5495],[108.5098,-7.5512],[108.5055,-7.5502],[108.4971,-7.5543],[108.4906,-7.5525],[108.4825,-7.5539],[108.4712,-7.5533],[108.4683,-7.55],[108.4733,-7.5456],[108.4785,-7.5436],[108.4812,-7.5382],[108.4812,-7.5337],[108.4842,-7.5343],[108.4851,-7.5361],[108.4957,-7.5308],[108.5001,-7.5343],[108.5027,-7.5343],[108.5103,-7.5278],[108.5163,-7.528],[108.5187,-7.5259]]]}},{"type":"Feature","properties":{"name":"Bojongkondang","name_en":"Bojongkondang","admin_level":"7","osm_id":""},"geometry":{"type":"Polygon","coordinates":[[[108.4038,-7.5166],[108.4027,-7.5166],[108.4049,-7.5225],[108.4035,-7.5238],[108.3965,-7.5228],[108.3909,-7.5266],[108.3847,-7.528],[108.3763,-7.5121],[108.3593,-7.5104],[108.3516,-7.5005],[108.3511,-7.4943],[108.3561,-7.4904],[108.3632,-7.4886],[108.372,-7.4792],[108.3801,-7.479],[108.382,-7.4775],[108.384,-7.4795],[108.3816,-7.482],[108.3848,-7.4837],[108.3852,-7.4857],[108.384,-7.4908],[108.3872,-7.5006],[108.3863,-7.5015],[108.3956,-7.5111],[108.4038,-7.5166]]]}},{"type":"Feature","properties":{"name":"Cimanggu","name_en":"Cimanggu","admin_level":"7","osm_id":""},"geometry":{"type":"Polygon","coordinates":[[[108.4378,-7.5804],[108.4359,-7.5827],[108.4318,-7.5828],[108.4134,-7.575],[108.4069,-7.5759],[108.4049,-7.5741],[108.4098,-7.5669],[108.4096,-7.5595],[108.4127,-7.5579],[108.4123,-7.5526],[108.4105,-7.552],[108.4158,-7.5478],[108.419,-7.5399],[108.418,-7.5294],[108.4195,-7.5163],[108.4147,-7.5165],[108.4143,-7.5092],[108.4162,-7.5067],[108.4147,-7.503],[108.4129,-7.5026],[108.4148,-7.5],[108.4126,-7.4997],[108.4111,-7.4974],[108.4123,-7.4945],[108.4135,-7.4953],[108.4147,-7.4939],[108.4148,-7.4892],[108.4162,-7.4883],[108.4193,-7.4893],[108.4195,-7.4926],[108.4263,-7.4949],[108.4282,-7.4968],[108.4283,-7.5001],[108.4341,-7.5058],[108.4428,-7.5091],[108.4408,-7.5147],[108.4404,-7.5241],[108.4479,-7.5335],[108.4418,-7.5478],[108.446,-7.562],[108.4413,-7.576],[108.4378,-7.5804]]]}},{"type":"Feature","properties":{"name":"Jadikarya","name_en":"Jadikarya","admin_level":"7","osm_id":""},"geometry":{"type":"Polygon","coordinates":[[[108.5191,-7.5549],[108.5211,-7.5591],[108.5279,-7.5653],[108.5268,-7.5679],[108.5282,-7.5751],[108.5249,-7.5824],[108.5168,-7.5792],[108.5027,-7.5783],[108.4963,-7.5757],[108.493,-7.5772],[108.4888,-7.586],[108.4844,-7.5817],[108.4718,-7.577],[108.4615,-7.566],[108.4697,-7.5614],[108.471,-7.5533],[108.4825,-7.5539],[108.491,-7.5525],[108.4971,-7.5543],[108.5055,-7.5502],[108.5098,-7.5512],[108.5128,-7.5495],[108.5176,-7.5511],[108.5177,-7.554],[108.5191,-7.5549]]]}},{"type":"Feature","properties":{"name":"Jadimulya","name_en":"Jadimulya","admin_level":"7","osm_id":""},"geometry":{"type":"Polygon","coordinates":[[[108.4621,-7.6366],[108.459,-7.6279],[108.4635,-7.6241],[108.462,-7.6179],[108.4638,-7.6126],[108.4776,-7.6092],[108.4785,-7.6043],[108.4839,-7.6053],[108.49,-7.5994],[108.4877,-7.6031],[108.4898,-7.603],[108.4937,-7.6139],[108.5029,-7.6213],[108.5024,-7.6259],[108.5003,-7.6278],[108.4973,-7.6276],[108.497,-7.6321],[108.4982,-7.6323],[108.4899,-7.6365],[108.4842,-7.6357],[108.4742,-7.6412],[108.4716,-7.6378],[108.4621,-7.6366]]]}},{"type":"Feature","properties":{"name":"Jayasari","name_en":"Jayasari","admin_level":"7","osm_id":""},"geometry":{"type":"Polygon","coordinates":[[[108.3671,-7.5486],[108.3593,-7.5464],[108.3454,-7.5515],[108.3426,-7.5549],[108.3424,-7.5536],[108.339,-7.5542],[108.3341,-7.551],[108.3341,-7.5489],[108.3275,-7.5508],[108.3298,-7.5464],[108.3283,-7.5459],[108.3302,-7.5449],[108.3326,-7.539],[108.3344,-7.5299],[108.3365,-7.5283],[108.3359,-7.526],[108.3419,-7.5257],[108.351,-7.5272],[108.3599,-7.5328],[108.3729,-7.5344],[108.3711,-7.5386],[108.3654,-7.5412],[108.3671,-7.5486]]]}},{"type":"Feature","properties":{"name":"Karangkamiri","name_en":"Karangkamiri","admin_level":"7","osm_id":""},"geometry":{"type":"Polygon","coordinates":[[[108.4724,-7.5182],[108.4704,-7.5197],[108.4746,-7.5241],[108.4747,-7.5292],[108.4762,-7.5315],[108.4813,-7.5339],[108.4817,-7.5359],[108.4781,-7.5441],[108.4733,-7.5456],[108.4683,-7.5496],[108.471,-7.5533],[108.4697,-7.5614],[108.4618,-7.5647],[108.4462,-7.5639],[108.446,-7.5588],[108.4426,-7.5536],[108.4418,-7.5478],[108.4479,-7.5335],[108.4404,-7.5241],[108.4406,-7.5162],[108.4425,-7.5099],[108.4557,-7.5102],[108.4577,-7.5151],[108.4607,-7.5175],[108.4724,-7.5182]]]}},{"type":"Feature","properties":{"name":"Langkaplancar","name_en":"Langkaplancar","admin_level":"7","osm_id":""},"geometry":{"type":"Polygon","coordinates":[[[108.4049,-7.574],[108.3859,-7.5731],[108.3794,-7.5602],[108.3678,-7.5502],[108.3654,-7.5415],[108.3688,-7.5385],[108.3711,-7.5386],[108.3729,-7.5344],[108.378,-7.535],[108.3848,-7.5279],[108.3909,-7.5266],[108.3965,-7.5228],[108.404,-7.5233],[108.4075,-7.5273],[108.408,-7.5289],[108.4045,-7.532],[108.4037,-7.5429],[108.4123,-7.5526],[108.4127,-7.5579],[108.4088,-7.5613],[108.4098,-7.5669],[108.4049,-7.574]]]}},{"type":"Feature","properties":{"name":"Mekarwangi","name_en":"Mekarwangi","admin_level":"7","osm_id":""},"geometry":{"type":"Polygon","coordinates":[[[108.4146,-7.5162],[108.4038,-7.5166],[108.3885,-7.5046],[108.3848,-7.4959],[108.3848,-7.4837],[108.3821,-7.4826],[108.3819,-7.4809],[108.3907,-7.477],[108.4015,-7.4788],[108.4022,-7.487],[108.4038,-7.486],[108.4069,-7.4888],[108.4069,-7.4937],[108.4105,-7.4945],[108.4104,-7.4981],[108.415,-7.5005],[108.4129,-7.5026],[108.4147,-7.503],[108.4162,-7.5067],[108.4143,-7.5092],[108.4146,-7.5162]]]}},{"type":"Feature","properties":{"name":"Pangkalan","name_en":"Pangkalan","admin_level":"7","osm_id":""},"geometry":{"type":"Polygon","coordinates":[[[108.3516,-7.5005],[108.3597,-7.5107],[108.3763,-7.5121],[108.3847,-7.528],[108.3783,-7.5348],[108.3639,-7.5338],[108.3566,-7.5316],[108.3505,-7.527],[108.3345,-7.5255],[108.3329,-7.5158],[108.3354,-7.5084],[108.3516,-7.5005]]]}},{"type":"Feature","properties":{"name":"Sukamulya","name_en":"Sukamulya","admin_level":"7","osm_id":""},"geometry":{"type":"Polygon","coordinates":[[[108.4397,-7.6041],[108.4418,-7.5962],[108.4399,-7.594],[108.4373,-7.5825],[108.438,-7.5791],[108.4413,-7.576],[108.4436,-7.5663],[108.4456,-7.5636],[108.4559,-7.5652],[108.4627,-7.5644],[108.4615,-7.566],[108.4744,-7.5805],[108.4729,-7.5875],[108.4749,-7.5931],[108.474,-7.6038],[108.4752,-7.6098],[108.4557,-7.6149],[108.451,-7.6135],[108.4375,-7.6141],[108.4381,-7.6116],[108.4366,-7.6096],[108.4389,-7.6098],[108.4373,-7.6077],[108.439,-7.6082],[108.438,-7.607],[108.4395,-7.6068],[108.4397,-7.6041]]]}}]}