{"type":"FeatureCollection","metadata":{"parent_osm_id":"gid_IDN_9_12_14_1","parent_name":"Kandanghaur","parent_name_1":"JawaBarat","parent_gid":"IDN.9.12.14_1","parent_level":"6","child_level":"7","count":13,"source":"GADM 4.1","generated":"2026-05-08"},"features":[{"type":"Feature","properties":{"name":"Bulak","name_en":"Bulak","admin_level":"7","osm_id":""},"geometry":{"type":"Polygon","coordinates":[[[108.1143,-6.3335],[108.1298,-6.3344],[108.1331,-6.33],[108.1374,-6.3304],[108.1398,-6.3326],[108.1392,-6.3341],[108.1311,-6.3365],[108.1279,-6.3395],[108.1179,-6.3441],[108.1154,-6.3486],[108.1051,-6.3565],[108.0949,-6.3618],[108.0926,-6.3616],[108.0943,-6.3677],[108.0938,-6.3747],[108.081,-6.3727],[108.0798,-6.3711],[108.0814,-6.368],[108.0783,-6.365],[108.0798,-6.3605],[108.0834,-6.3587],[108.0815,-6.3567],[108.0817,-6.3544],[108.0996,-6.3515],[108.1003,-6.3557],[108.1064,-6.3537],[108.1077,-6.3524],[108.1041,-6.3496],[108.107,-6.3468],[108.1065,-6.3425],[108.1108,-6.3407],[108.11,-6.3381],[108.1143,-6.3335]]]}},{"type":"Feature","properties":{"name":"Curug","name_en":"Curug","admin_level":"7","osm_id":""},"geometry":{"type":"Polygon","coordinates":[[[108.059,-6.3611],[108.0606,-6.3582],[108.0707,-6.3555],[108.0796,-6.3608],[108.0783,-6.3654],[108.0814,-6.3683],[108.0795,-6.3721],[108.0751,-6.3748],[108.0773,-6.3759],[108.0773,-6.3777],[108.0656,-6.3798],[108.0637,-6.3818],[108.0594,-6.3812],[108.0604,-6.379],[108.0588,-6.3776],[108.0586,-6.3731],[108.0601,-6.362],[108.059,-6.3611]]]}},{"type":"Feature","properties":{"name":"EretanKulon","name_en":"EretanKulon","admin_level":"7","osm_id":""},"geometry":{"type":"Polygon","coordinates":[[[108.035,-6.3053],[108.0602,-6.3156],[108.082,-6.3201],[108.0888,-6.3193],[108.0869,-6.3241],[108.0811,-6.3267],[108.0682,-6.3183],[108.0636,-6.3171],[108.0588,-6.3218],[108.0577,-6.3259],[108.0503,-6.3219],[108.0479,-6.323],[108.0453,-6.3215],[108.0419,-6.3235],[108.0403,-6.3216],[108.0351,-6.3248],[108.0365,-6.3145],[108.035,-6.3053]]]}},{"type":"Feature","properties":{"name":"EretanWetan","name_en":"EretanWetan","admin_level":"7","osm_id":""},"geometry":{"type":"Polygon","coordinates":[[[108.0811,-6.3267],[108.0869,-6.3241],[108.0889,-6.3192],[108.0898,-6.3245],[108.0917,-6.3255],[108.0945,-6.3327],[108.0934,-6.3398],[108.0981,-6.3443],[108.0951,-6.3475],[108.092,-6.3481],[108.0897,-6.3401],[108.0863,-6.338],[108.085,-6.3336],[108.0836,-6.3325],[108.0802,-6.3336],[108.0794,-6.3275],[108.0811,-6.3267]]]}},{"type":"Feature","properties":{"name":"Ilir","name_en":"Ilir","admin_level":"7","osm_id":""},"geometry":{"type":"Polygon","coordinates":[[[108.0598,-6.3587],[108.0623,-6.3476],[108.0665,-6.3425],[108.0751,-6.338],[108.0735,-6.3363],[108.0786,-6.3333],[108.0792,-6.3312],[108.0806,-6.3339],[108.0836,-6.3325],[108.085,-6.3336],[108.0863,-6.338],[108.0897,-6.3401],[108.092,-6.3481],[108.0969,-6.346],[108.0981,-6.3443],[108.0934,-6.3398],[108.0945,-6.3327],[108.0921,-6.3252],[108.0981,-6.3254],[108.1064,-6.3286],[108.1049,-6.3285],[108.1074,-6.3305],[108.104,-6.3285],[108.1032,-6.331],[108.1077,-6.3341],[108.1143,-6.3335],[108.11,-6.3381],[108.1108,-6.3407],[108.1065,-6.3425],[108.107,-6.3468],[108.1041,-6.3496],[108.1078,-6.3526],[108.1054,-6.3542],[108.1003,-6.3557],[108.0996,-6.3515],[108.0828,-6.3533],[108.0814,-6.3563],[108.0834,-6.3587],[108.0797,-6.3609],[108.0707,-6.3555],[108.0598,-6.3587]]]}},{"type":"Feature","properties":{"name":"Karanganyar","name_en":"Karanganyar","admin_level":"7","osm_id":""},"geometry":{"type":"Polygon","coordinates":[[[108.1252,-6.3983],[108.1125,-6.3933],[108.1159,-6.3847],[108.1098,-6.3759],[108.1112,-6.3684],[108.1066,-6.3611],[108.1095,-6.3584],[108.1136,-6.3613],[108.1173,-6.3586],[108.1252,-6.3663],[108.1305,-6.3667],[108.1349,-6.3698],[108.1304,-6.3808],[108.1272,-6.381],[108.1239,-6.3864],[108.1255,-6.39],[108.1252,-6.3983]]]}},{"type":"Feature","properties":{"name":"Karangmulya","name_en":"Karangmulya","admin_level":"7","osm_id":""},"geometry":{"type":"Polygon","coordinates":[[[108.1208,-6.4121],[108.1034,-6.4114],[108.1009,-6.4089],[108.1037,-6.4032],[108.1031,-6.3948],[108.1089,-6.3924],[108.1109,-6.3867],[108.1139,-6.3867],[108.1125,-6.3933],[108.1252,-6.3983],[108.1211,-6.4054],[108.1225,-6.4082],[108.1208,-6.4121]]]}},{"type":"Feature","properties":{"name":"Kertawinangun","name_en":"Kertawinangun","admin_level":"7","osm_id":""},"geometry":{"type":"Polygon","coordinates":[[[108.0478,-6.3384],[108.0458,-6.3403],[108.0399,-6.3381],[108.0261,-6.3415],[108.0257,-6.3322],[108.0403,-6.3216],[108.0419,-6.3235],[108.0453,-6.3215],[108.0479,-6.323],[108.0503,-6.3219],[108.0577,-6.3259],[108.0588,-6.3218],[108.0636,-6.3171],[108.0682,-6.3183],[108.0811,-6.3267],[108.0748,-6.3307],[108.0662,-6.3307],[108.0647,-6.3326],[108.0594,-6.3304],[108.0572,-6.3274],[108.0545,-6.3283],[108.0484,-6.3266],[108.0448,-6.331],[108.0421,-6.3317],[108.0417,-6.3339],[108.0455,-6.334],[108.0478,-6.3384]]]}},{"type":"Feature","properties":{"name":"PareanGirang","name_en":"PareanGirang","admin_level":"7","osm_id":""},"geometry":{"type":"Polygon","coordinates":[[[108.0938,-6.3747],[108.0943,-6.3677],[108.0926,-6.3616],[108.0949,-6.3618],[108.1051,-6.3565],[108.1154,-6.3486],[108.1179,-6.3441],[108.1244,-6.3401],[108.1395,-6.3338],[108.1377,-6.3305],[108.1329,-6.3301],[108.1339,-6.3222],[108.1358,-6.3201],[108.1401,-6.3259],[108.1513,-6.3333],[108.1497,-6.3362],[108.1532,-6.339],[108.1507,-6.3398],[108.1494,-6.3457],[108.1477,-6.3473],[108.1492,-6.3496],[108.141,-6.3645],[108.1349,-6.3698],[108.1305,-6.3667],[108.1252,-6.3663],[108.1173,-6.3586],[108.1157,-6.3597],[108.1164,-6.3554],[108.1124,-6.3541],[108.1061,-6.3593],[108.1015,-6.3609],[108.1028,-6.3634],[108.101,-6.3703],[108.1024,-6.3738],[108.0938,-6.3747]]]}},{"type":"Feature","properties":{"name":"Pranti","name_en":"Pranti","admin_level":"7","osm_id":""},"geometry":{"type":"Polygon","coordinates":[[[108.0737,-6.3908],[108.0676,-6.3865],[108.0636,-6.3818],[108.0643,-6.3803],[108.0765,-6.3783],[108.0776,-6.3764],[108.0751,-6.3748],[108.0798,-6.3711],[108.081,-6.3727],[108.0863,-6.3737],[108.0884,-6.3796],[108.0868,-6.3801],[108.0863,-6.3827],[108.0773,-6.389],[108.0738,-6.3883],[108.0737,-6.3908]]]}},{"type":"Feature","properties":{"name":"Soge","name_en":"Soge","admin_level":"7","osm_id":""},"geometry":{"type":"Polygon","coordinates":[[[108.0597,-6.3566],[108.0562,-6.3579],[108.0539,-6.3493],[108.0514,-6.3493],[108.0512,-6.3471],[108.0479,-6.3446],[108.0475,-6.3425],[108.0505,-6.3421],[108.0478,-6.3363],[108.0451,-6.3337],[108.0419,-6.3344],[108.0421,-6.3317],[108.0447,-6.3311],[108.049,-6.3265],[108.0545,-6.3283],[108.0572,-6.3274],[108.0594,-6.3304],[108.0647,-6.3326],[108.0662,-6.3307],[108.0748,-6.3307],[108.0794,-6.3275],[108.0804,-6.33],[108.078,-6.3319],[108.0786,-6.3333],[108.0735,-6.3363],[108.0751,-6.338],[108.0665,-6.3425],[108.0623,-6.3476],[108.0597,-6.3566]]]}},{"type":"Feature","properties":{"name":"Wirakanan","name_en":"Wirakanan","admin_level":"7","osm_id":""},"geometry":{"type":"Polygon","coordinates":[[[108.0804,-6.3974],[108.0735,-6.3893],[108.0755,-6.388],[108.0773,-6.389],[108.0861,-6.3829],[108.0868,-6.3801],[108.0884,-6.3796],[108.0863,-6.3742],[108.1024,-6.3738],[108.1051,-6.3846],[108.1019,-6.3901],[108.1036,-6.3943],[108.1037,-6.4015],[108.1011,-6.3994],[108.0972,-6.4022],[108.0961,-6.3996],[108.0941,-6.4011],[108.0903,-6.4008],[108.0804,-6.3974]]]}},{"type":"Feature","properties":{"name":"Wirapanjunan","name_en":"Wirapanjunan","admin_level":"7","osm_id":""},"geometry":{"type":"Polygon","coordinates":[[[108.1157,-6.3597],[108.1136,-6.3613],[108.1097,-6.3583],[108.1066,-6.3611],[108.1112,-6.3684],[108.1098,-6.3759],[108.1159,-6.3864],[108.1139,-6.3881],[108.1139,-6.3867],[108.1109,-6.3867],[108.1089,-6.3924],[108.1035,-6.3942],[108.1019,-6.3896],[108.1051,-6.3846],[108.101,-6.3707],[108.1028,-6.3641],[108.1015,-6.3609],[108.1061,-6.3593],[108.1124,-6.3541],[108.1164,-6.3554],[108.1157,-6.3597]]]}}]}