{"type":"FeatureCollection","metadata":{"parent_osm_id":"19958073","parent_name":"Sukatani","parent_name_1":"JawaBarat","parent_gid":"IDN.9.22.15_1","parent_level":"6","child_level":"7","count":14,"source":"GADM 4.1","generated":"2026-05-09"},"features":[{"type":"Feature","properties":{"name":"Cianting","name_en":"Cianting","admin_level":"7","osm_id":""},"geometry":{"type":"Polygon","coordinates":[[[107.4438,-6.655],[107.4333,-6.6526],[107.429,-6.6586],[107.4243,-6.6596],[107.4197,-6.6462],[107.4181,-6.6466],[107.4168,-6.6445],[107.4084,-6.6447],[107.4012,-6.6393],[107.4001,-6.6374],[107.4029,-6.6349],[107.4022,-6.6325],[107.4117,-6.6332],[107.4148,-6.6362],[107.4254,-6.6382],[107.4308,-6.646],[107.4468,-6.6459],[107.4557,-6.6423],[107.4561,-6.6491],[107.4438,-6.655]]]}},{"type":"Feature","properties":{"name":"CiantingUtara","name_en":"CiantingUtara","admin_level":"7","osm_id":""},"geometry":{"type":"Polygon","coordinates":[[[107.4022,-6.6325],[107.3998,-6.6324],[107.3976,-6.6298],[107.4005,-6.6294],[107.3993,-6.6263],[107.4003,-6.6249],[107.4023,-6.6254],[107.4029,-6.6237],[107.408,-6.6239],[107.4068,-6.6294],[107.409,-6.6297],[107.4098,-6.6332],[107.4022,-6.6325]]]}},{"type":"Feature","properties":{"name":"Cibodas","name_en":"Cibodas","admin_level":"7","osm_id":""},"geometry":{"type":"Polygon","coordinates":[[[107.4098,-6.6332],[107.409,-6.6297],[107.4068,-6.6292],[107.4086,-6.6176],[107.4141,-6.6217],[107.4207,-6.6229],[107.4276,-6.6217],[107.4303,-6.6253],[107.4279,-6.6273],[107.4267,-6.6323],[107.4203,-6.6364],[107.4148,-6.6362],[107.4098,-6.6332]]]}},{"type":"Feature","properties":{"name":"Cijantung","name_en":"Cijantung","admin_level":"7","osm_id":""},"geometry":{"type":"Polygon","coordinates":[[[107.4171,-6.5872],[107.417,-6.586],[107.4187,-6.5851],[107.42,-6.5799],[107.4259,-6.5768],[107.4311,-6.5759],[107.4372,-6.5797],[107.436,-6.5936],[107.43,-6.5903],[107.4296,-6.588],[107.4279,-6.5876],[107.4254,-6.5896],[107.424,-6.5867],[107.4198,-6.5885],[107.4171,-6.5872]]]}},{"type":"Feature","properties":{"name":"Cilalawi","name_en":"Cilalawi","admin_level":"7","osm_id":""},"geometry":{"type":"Polygon","coordinates":[[[107.4029,-6.6237],[107.402,-6.6222],[107.3952,-6.6215],[107.3919,-6.6167],[107.3882,-6.6176],[107.3863,-6.6163],[107.3869,-6.6143],[107.3897,-6.6124],[107.3928,-6.6132],[107.3967,-6.6118],[107.398,-6.6091],[107.3979,-6.6123],[107.4032,-6.6131],[107.4028,-6.6156],[107.4046,-6.6155],[107.4034,-6.6181],[107.4059,-6.6191],[107.408,-6.6239],[107.4029,-6.6237]]]}},{"type":"Feature","properties":{"name":"Cipicung","name_en":"Cipicung","admin_level":"7","osm_id":""},"geometry":{"type":"Polygon","coordinates":[[[107.3863,-6.6162],[107.3828,-6.615],[107.3713,-6.6154],[107.3632,-6.6117],[107.3667,-6.6085],[107.3691,-6.6027],[107.38,-6.5991],[107.3855,-6.6012],[107.3858,-6.6041],[107.3884,-6.6055],[107.3864,-6.6082],[107.3888,-6.6134],[107.3863,-6.6162]]]}},{"type":"Feature","properties":{"name":"Malangnengah","name_en":"Malangnengah","admin_level":"7","osm_id":""},"geometry":{"type":"Polygon","coordinates":[[[107.4042,-6.6189],[107.4046,-6.6153],[107.4028,-6.6156],[107.4032,-6.6131],[107.3978,-6.6121],[107.3975,-6.6077],[107.4,-6.6057],[107.3979,-6.6035],[107.4018,-6.6022],[107.4006,-6.6009],[107.4048,-6.5975],[107.4029,-6.5957],[107.4044,-6.5946],[107.4137,-6.5947],[107.4099,-6.6001],[107.4092,-6.6096],[107.4042,-6.6189]]]}},{"type":"Feature","properties":{"name":"Panyindangan","name_en":"Panyindangan","admin_level":"7","osm_id":""},"geometry":{"type":"Polygon","coordinates":[[[107.3663,-6.5649],[107.3663,-6.5696],[107.3617,-6.5735],[107.3597,-6.5733],[107.3557,-6.58],[107.3443,-6.5778],[107.3382,-6.5816],[107.3306,-6.5819],[107.3143,-6.5769],[107.3142,-6.5752],[107.3112,-6.5735],[107.3117,-6.5716],[107.3071,-6.5675],[107.3052,-6.5675],[107.3061,-6.5657],[107.3035,-6.5642],[107.3069,-6.5598],[107.3142,-6.5601],[107.3169,-6.5628],[107.3204,-6.5577],[107.3194,-6.556],[107.3226,-6.5567],[107.325,-6.5538],[107.3245,-6.551],[107.3277,-6.5484],[107.3319,-6.5472],[107.3345,-6.5484],[107.3331,-6.5455],[107.3289,-6.5444],[107.3278,-6.5414],[107.3302,-6.5438],[107.3339,-6.5438],[107.3377,-6.548],[107.3472,-6.5493],[107.3547,-6.556],[107.3569,-6.5554],[107.3566,-6.5593],[107.3615,-6.5635],[107.3624,-6.5604],[107.3604,-6.559],[107.3604,-6.5559],[107.3618,-6.5562],[107.3648,-6.5647],[107.3663,-6.5649]]]}},{"type":"Feature","properties":{"name":"Pasirmunjul","name_en":"Pasirmunjul","admin_level":"7","osm_id":""},"geometry":{"type":"Polygon","coordinates":[[[107.4481,-6.6287],[107.4514,-6.6292],[107.4529,-6.6271],[107.4576,-6.6255],[107.4567,-6.6307],[107.4528,-6.6329],[107.4561,-6.6394],[107.4557,-6.6423],[107.4478,-6.6458],[107.4308,-6.646],[107.4254,-6.6382],[107.4203,-6.6364],[107.4267,-6.6323],[107.427,-6.6298],[107.4305,-6.6305],[107.4381,-6.6283],[107.4454,-6.6304],[107.4481,-6.6287]]]}},{"type":"Feature","properties":{"name":"Sindanglaya","name_en":"Sindanglaya","admin_level":"7","osm_id":""},"geometry":{"type":"Polygon","coordinates":[[[107.3781,-6.5989],[107.3688,-6.6029],[107.366,-6.5989],[107.3581,-6.5941],[107.36,-6.5872],[107.3594,-6.5805],[107.3631,-6.5765],[107.3618,-6.5728],[107.3663,-6.5696],[107.3668,-6.5644],[107.3686,-6.5646],[107.3702,-6.5676],[107.3687,-6.5703],[107.3697,-6.5715],[107.3726,-6.5626],[107.3706,-6.5605],[107.3742,-6.5582],[107.3714,-6.5572],[107.373,-6.555],[107.3743,-6.5555],[107.3746,-6.5532],[107.3751,-6.5561],[107.3794,-6.5534],[107.382,-6.5547],[107.3808,-6.555],[107.3813,-6.5598],[107.3792,-6.5662],[107.3752,-6.5719],[107.3775,-6.5831],[107.3756,-6.5911],[107.3781,-6.5989]]]}},{"type":"Feature","properties":{"name":"Sukajaya","name_en":"Sukajaya","admin_level":"7","osm_id":""},"geometry":{"type":"Polygon","coordinates":[[[107.4061,-6.5906],[107.4116,-6.5901],[107.4176,-6.5918],[107.4171,-6.5871],[107.4198,-6.5885],[107.4244,-6.5868],[107.4254,-6.5896],[107.4279,-6.5876],[107.4296,-6.588],[107.4293,-6.5897],[107.4332,-6.5922],[107.4334,-6.6067],[107.4386,-6.6078],[107.4382,-6.6168],[107.4318,-6.6143],[107.4291,-6.6109],[107.4258,-6.6111],[107.42,-6.6066],[107.415,-6.599],[107.4181,-6.5974],[107.4175,-6.5946],[107.4064,-6.5953],[107.4061,-6.5906]]]}},{"type":"Feature","properties":{"name":"Sukamaju","name_en":"Sukamaju","admin_level":"7","osm_id":""},"geometry":{"type":"Polygon","coordinates":[[[107.398,-6.6091],[107.3967,-6.6118],[107.3885,-6.613],[107.3864,-6.6082],[107.3884,-6.6055],[107.3858,-6.6041],[107.3855,-6.6012],[107.394,-6.5986],[107.3966,-6.5958],[107.4047,-6.5974],[107.4006,-6.6009],[107.4017,-6.6023],[107.3979,-6.6035],[107.4,-6.6057],[107.3977,-6.6072],[107.398,-6.6091]]]}},{"type":"Feature","properties":{"name":"Sukatani","name_en":"Sukatani","admin_level":"7","osm_id":""},"geometry":{"type":"Polygon","coordinates":[[[107.4382,-6.6168],[107.4467,-6.6195],[107.4477,-6.6299],[107.4372,-6.6283],[107.4284,-6.6303],[107.427,-6.6298],[107.4279,-6.6273],[107.4303,-6.6253],[107.4276,-6.6217],[107.4207,-6.6229],[107.4141,-6.6217],[107.4095,-6.6175],[107.4078,-6.6229],[107.4059,-6.6191],[107.4042,-6.6189],[107.4092,-6.6096],[107.41,-6.5999],[107.4137,-6.5947],[107.4164,-6.5944],[107.4187,-6.5962],[107.415,-6.599],[107.42,-6.6066],[107.4258,-6.6111],[107.4291,-6.6109],[107.4318,-6.6143],[107.4382,-6.6168]]]}},{"type":"Feature","properties":{"name":"Tajursindang","name_en":"Tajursindang","admin_level":"7","osm_id":""},"geometry":{"type":"Polygon","coordinates":[[[107.4092,-6.575],[107.4102,-6.5834],[107.4076,-6.5869],[107.4059,-6.5867],[107.4066,-6.5919],[107.403,-6.5956],[107.4038,-6.597],[107.3966,-6.5958],[107.394,-6.5986],[107.3855,-6.6012],[107.3781,-6.5989],[107.3756,-6.5911],[107.3775,-6.5831],[107.3752,-6.5719],[107.3792,-6.5662],[107.3813,-6.5598],[107.3808,-6.555],[107.3826,-6.5538],[107.3837,-6.5553],[107.3858,-6.5539],[107.3883,-6.5548],[107.3933,-6.5599],[107.3936,-6.5632],[107.3974,-6.5635],[107.3941,-6.5651],[107.3941,-6.5684],[107.3965,-6.5677],[107.3908,-6.5773],[107.3937,-6.5754],[107.3998,-6.5765],[107.3999,-6.5776],[107.3979,-6.5772],[107.3996,-6.5783],[107.3979,-6.5804],[107.4016,-6.5815],[107.4015,-6.5788],[107.4046,-6.5789],[107.4025,-6.576],[107.4045,-6.5754],[107.4044,-6.5739],[107.4058,-6.5739],[107.4048,-6.5761],[107.4065,-6.5781],[107.4092,-6.575]]]}}]}