{"type":"FeatureCollection","metadata":{"parent_osm_id":"gid_IDN_35_8_7","parent_name":"MalinauSelatan","parent_name_1":"KalimantanUtara","parent_gid":"IDN.35.8.7","parent_level":"6","child_level":"7","count":24,"source":"GADM 4.1","generated":"2026-05-08"},"features":[{"type":"Feature","properties":{"name":"BatuKajang","name_en":"BatuKajang","admin_level":"7","osm_id":""},"geometry":{"type":"Polygon","coordinates":[[[116.5543,3.4175],[116.5523,3.4032],[116.553,3.3864],[116.5603,3.3821],[116.5671,3.3803],[116.5718,3.3817],[116.5765,3.378],[116.5791,3.3703],[116.5818,3.3697],[116.5821,3.3683],[116.5692,3.3263],[116.5638,3.3179],[116.5579,3.3155],[116.5594,3.3208],[116.5566,3.3245],[116.5536,3.3256],[116.5518,3.3242],[116.5505,3.3281],[116.5613,3.3424],[116.5677,3.3451],[116.5709,3.351],[116.5708,3.3551],[116.5634,3.3575],[116.56,3.3561],[116.5516,3.3664],[116.5462,3.3773],[116.5415,3.3795],[116.5372,3.3926],[116.5336,3.393],[116.5323,3.3966],[116.5334,3.4023],[116.5379,3.4063],[116.5491,3.4118],[116.5543,3.4175]]]}},{"type":"Feature","properties":{"name":"BilaBekayuk","name_en":"BilaBekayuk","admin_level":"7","osm_id":""},"geometry":{"type":"Polygon","coordinates":[[[116.663,3.2213],[116.6758,3.2161],[116.6799,3.2116],[116.6796,3.207],[116.7012,3.1881],[116.7063,3.1802],[116.7126,3.1566],[116.7056,3.157],[116.6962,3.1526],[116.6872,3.1519],[116.6758,3.1611],[116.672,3.1667],[116.6636,3.1692],[116.6478,3.1679],[116.6419,3.172],[116.6381,3.1779],[116.6304,3.1792],[116.6218,3.178],[116.6212,3.1756],[116.6086,3.1766],[116.5958,3.1681],[116.5806,3.1658],[116.5783,3.169],[116.5788,3.1718],[116.5769,3.1756],[116.5797,3.1762],[116.5795,3.1808],[116.5823,3.1809],[116.5908,3.1864],[116.5839,3.1979],[116.5843,3.2004],[116.5825,3.2023],[116.5846,3.203],[116.5783,3.2085],[116.5686,3.2101],[116.566,3.2083],[116.5632,3.2101],[116.5604,3.2071],[116.556,3.2076],[116.553,3.2032],[116.5509,3.1922],[116.5467,3.1889],[116.5437,3.1896],[116.5379,3.1987],[116.5242,3.2042],[116.5212,3.2022],[116.5204,3.1961],[116.5217,3.1921],[116.5189,3.1796],[116.5154,3.1758],[116.5113,3.1774],[116.5051,3.1713],[116.4978,3.1776],[116.4929,3.1765],[116.4891,3.1792],[116.476,3.1757],[116.474,3.178],[116.471,3.1783],[116.4742,3.184],[116.481,3.1863],[116.4817,3.1901],[116.4789,3.1942],[116.4791,3.1969],[116.4837,3.1953],[116.4821,3.2029],[116.4892,3.2042],[116.5001,3.2005],[116.5113,3.2096],[116.5161,3.21],[116.524,3.2154],[116.5328,3.2164],[116.5374,3.2154],[116.5478,3.2229],[116.5525,3.2227],[116.5543,3.2277],[116.556,3.2249],[116.5742,3.2214],[116.5814,3.2211],[116.5853,3.2239],[116.5938,3.2246],[116.6088,3.2236],[116.6277,3.2151],[116.6366,3.2076],[116.6399,3.1955],[116.6459,3.1938],[116.648,3.1946],[116.6496,3.1993],[116.6549,3.2021],[116.6569,3.2051],[116.6493,3.2151],[116.6503,3.2199],[116.663,3.2213]]]}},{"type":"Feature","properties":{"name":"GongSolok","name_en":"GongSolok","admin_level":"7","osm_id":""},"geometry":{"type":"Polygon","coordinates":[[[116.5336,3.3932],[116.5372,3.3926],[116.5415,3.3795],[116.5462,3.3773],[116.5516,3.3664],[116.56,3.3561],[116.5634,3.3575],[116.5708,3.3551],[116.5709,3.351],[116.5677,3.3451],[116.5613,3.3424],[116.5505,3.3281],[116.5351,3.3225],[116.5231,3.3249],[116.5217,3.323],[116.5238,3.3202],[116.5224,3.3162],[116.5185,3.3162],[116.5152,3.3175],[116.5147,3.3248],[116.513,3.3207],[116.506,3.323],[116.4936,3.3326],[116.4778,3.336],[116.4726,3.3389],[116.4682,3.3467],[116.4697,3.3544],[116.4735,3.3618],[116.4795,3.3669],[116.48,3.365],[116.4823,3.3641],[116.4832,3.3676],[116.4882,3.3736],[116.4873,3.3773],[116.4893,3.3776],[116.4893,3.3811],[116.4947,3.389],[116.499,3.3915],[116.4995,3.3961],[116.5049,3.398],[116.5156,3.3885],[116.5246,3.388],[116.5336,3.3932]]]}},{"type":"Feature","properties":{"name":"Halanga","name_en":"Halanga","admin_level":"7","osm_id":""},"geometry":{"type":"Polygon","coordinates":[[[116.4425,3.1],[116.4403,3.0912],[116.4336,3.0805],[116.4237,3.0818],[116.4179,3.0875],[116.4161,3.0951],[116.4111,3.1015],[116.3974,3.1121],[116.3866,3.1108],[116.3878,3.1092],[116.387,3.1054],[116.3845,3.1024],[116.3838,3.098],[116.3698,3.1031],[116.3623,3.0978],[116.3477,3.0983],[116.344,3.0952],[116.3425,3.0832],[116.3389,3.0808],[116.3386,3.0772],[116.3392,3.072],[116.3428,3.0689],[116.3411,3.0655],[116.3459,3.062],[116.3501,3.0622],[116.3367,3.0573],[116.3239,3.0565],[116.3091,3.0509],[116.294,3.0506],[116.2811,3.0475],[116.2712,3.0507],[116.2555,3.0639],[116.2609,3.0942],[116.2572,3.107],[116.2488,3.1135],[116.2472,3.1171],[116.2479,3.1189],[116.2768,3.1248],[116.2807,3.1271],[116.2833,3.1319],[116.2866,3.1283],[116.2908,3.1272],[116.3015,3.1282],[116.3123,3.1243],[116.3183,3.1242],[116.3241,3.1264],[116.3304,3.1224],[116.3332,3.1241],[116.3367,3.1225],[116.343,3.1247],[116.3539,3.124],[116.367,3.1189],[116.3769,3.1131],[116.3786,3.1166],[116.3803,3.117],[116.3801,3.1193],[116.3849,3.1191],[116.3867,3.121],[116.3874,3.1195],[116.3891,3.1198],[116.3991,3.135],[116.4036,3.1308],[116.406,3.1319],[116.4163,3.1302],[116.4176,3.1265],[116.4205,3.1257],[116.4211,3.1205],[116.4249,3.1147],[116.4351,3.104],[116.4425,3.1]]]}},{"type":"Feature","properties":{"name":"LabanNyarit","name_en":"LabanNyarit","admin_level":"7","osm_id":""},"geometry":{"type":"Polygon","coordinates":[[[116.4571,3.1268],[116.4552,3.1201],[116.4503,3.1121],[116.4421,3.1175],[116.4383,3.1156],[116.4389,3.1143],[116.4368,3.1154],[116.433,3.1193],[116.421,3.1399],[116.4225,3.1471],[116.4206,3.1507],[116.4159,3.1545],[116.4112,3.1551],[116.4063,3.1524],[116.396,3.1526],[116.3882,3.1577],[116.3845,3.1581],[116.367,3.1522],[116.361,3.1516],[116.3546,3.1531],[116.3474,3.1526],[116.3429,3.1552],[116.3421,3.1588],[116.3384,3.1628],[116.3295,3.1652],[116.3294,3.1692],[116.3318,3.1739],[116.3307,3.1754],[116.3322,3.1769],[116.3312,3.1824],[116.3352,3.183],[116.3359,3.186],[116.334,3.189],[116.3284,3.1926],[116.3256,3.1964],[116.3259,3.1987],[116.3199,3.2042],[116.3192,3.2066],[116.3134,3.2113],[116.3081,3.2126],[116.3127,3.223],[116.3253,3.2336],[116.3408,3.2386],[116.3452,3.2454],[116.3446,3.247],[116.3566,3.2496],[116.3665,3.247],[116.3757,3.2476],[116.3755,3.2451],[116.3801,3.2366],[116.3773,3.219],[116.3791,3.2129],[116.3735,3.2031],[116.3759,3.1978],[116.3765,3.1933],[116.375,3.1901],[116.3766,3.1865],[116.3854,3.1803],[116.3868,3.1821],[116.388,3.18],[116.3917,3.1792],[116.3937,3.1806],[116.3951,3.1777],[116.3981,3.1782],[116.3957,3.1745],[116.3982,3.1742],[116.3993,3.1765],[116.4057,3.1806],[116.4071,3.1755],[116.4151,3.1746],[116.4205,3.1721],[116.426,3.1726],[116.4248,3.1705],[116.4259,3.1693],[116.4309,3.1737],[116.434,3.1708],[116.4358,3.1714],[116.4369,3.1761],[116.4393,3.1699],[116.4378,3.1629],[116.4334,3.1557],[116.4406,3.1487],[116.4446,3.136],[116.4477,3.1309],[116.4497,3.1306],[116.4489,3.1265],[116.4525,3.1216],[116.4571,3.1268]]]}},{"type":"Feature","properties":{"name":"Langap","name_en":"Langap","admin_level":"7","osm_id":""},"geometry":{"type":"Polygon","coordinates":[[[116.3501,3.0622],[116.3459,3.062],[116.3411,3.0655],[116.3428,3.0689],[116.3392,3.072],[116.3386,3.0772],[116.3389,3.0808],[116.3425,3.0832],[116.344,3.0952],[116.3472,3.0981],[116.3623,3.0978],[116.3698,3.1031],[116.3838,3.098],[116.3845,3.1024],[116.387,3.1054],[116.3878,3.1092],[116.3866,3.1108],[116.3974,3.1121],[116.4111,3.1015],[116.4161,3.0951],[116.4179,3.0875],[116.4237,3.0818],[116.4336,3.0805],[116.4403,3.0912],[116.4451,3.1042],[116.445,3.1074],[116.4414,3.1091],[116.4383,3.1156],[116.4421,3.1175],[116.4503,3.1121],[116.4605,3.1316],[116.4656,3.136],[116.468,3.1347],[116.4666,3.1321],[116.4699,3.1261],[116.4667,3.1138],[116.4666,3.1072],[116.474,3.0887],[116.4695,3.0847],[116.4687,3.0811],[116.4596,3.0758],[116.4607,3.0562],[116.4643,3.0546],[116.4644,3.0532],[116.448,3.0564],[116.4274,3.0566],[116.4178,3.0652],[116.4057,3.0647],[116.4026,3.067],[116.3902,3.0684],[116.3865,3.0707],[116.3765,3.07],[116.3501,3.0622]]]}},{"type":"Feature","properties":{"name":"LongAdiu","name_en":"LongAdiu","admin_level":"7","osm_id":""},"geometry":{"type":"Polygon","coordinates":[[[116.596,3.2617],[116.5962,3.2524],[116.609,3.2474],[116.6111,3.241],[116.6088,3.2381],[116.6083,3.2344],[116.6067,3.2338],[116.6051,3.2351],[116.6057,3.2381],[116.5995,3.2415],[116.5967,3.237],[116.5922,3.2357],[116.5828,3.2378],[116.5717,3.244],[116.5566,3.2431],[116.5478,3.2465],[116.5386,3.2449],[116.532,3.2418],[116.5325,3.2446],[116.5298,3.2455],[116.5253,3.2408],[116.5187,3.2404],[116.5161,3.2433],[116.5118,3.2436],[116.5111,3.2472],[116.5125,3.2496],[116.5107,3.256],[116.508,3.2554],[116.4997,3.2444],[116.4968,3.2435],[116.4891,3.2461],[116.485,3.2446],[116.4758,3.2484],[116.4751,3.2638],[116.4656,3.2726],[116.4659,3.2764],[116.4637,3.2776],[116.4659,3.2795],[116.4665,3.2858],[116.4697,3.2888],[116.4707,3.2932],[116.4812,3.2998],[116.4851,3.3038],[116.4845,3.3057],[116.4959,3.3084],[116.5027,3.3166],[116.5121,3.3184],[116.5147,3.3248],[116.5152,3.3175],[116.5224,3.3162],[116.5238,3.3202],[116.5217,3.323],[116.5231,3.3249],[116.5278,3.3249],[116.5332,3.3234],[116.5321,3.3179],[116.5355,3.3119],[116.5347,3.3093],[116.5317,3.3089],[116.5332,3.3072],[116.5315,3.3055],[116.5315,3.3024],[116.5357,3.2948],[116.534,3.2909],[116.5317,3.2903],[116.5277,3.2832],[116.5285,3.281],[116.5262,3.2788],[116.5274,3.2661],[116.5355,3.2638],[116.5504,3.2682],[116.5718,3.2619],[116.5799,3.2654],[116.5849,3.2654],[116.592,3.2616],[116.596,3.2617]]]}},{"type":"Feature","properties":{"name":"LongJalan","name_en":"LongJalan","admin_level":"7","osm_id":""},"geometry":{"type":"Polygon","coordinates":[[[115.954,2.8721],[115.9746,2.8796],[115.9875,2.8884],[115.9953,2.8917],[116.0069,2.9008],[116.0152,2.9009],[116.0252,2.9052],[116.0308,2.9022],[116.0347,2.902],[116.0409,2.9045],[116.0443,2.9079],[116.0485,2.9246],[116.0555,2.9359],[116.0585,2.9515],[116.0653,2.9645],[116.0678,2.9661],[116.0836,2.9667],[116.1184,2.9493],[116.1382,2.9442],[116.1545,2.9453],[116.1799,2.9397],[116.2062,2.9286],[116.2189,2.913],[116.2226,2.9045],[116.2227,2.8817],[116.2498,2.859],[116.2563,2.8335],[116.2521,2.8298],[116.2473,2.8153],[116.2475,2.8098],[116.2441,2.805],[116.2398,2.7914],[116.2418,2.7863],[116.2413,2.7769],[116.237,2.7715],[116.2323,2.7582],[116.2495,2.7187],[116.2501,2.7125],[116.2478,2.7082],[116.2475,2.7034],[116.2517,2.6978],[116.2309,2.6896],[116.1805,2.6826],[116.124,2.6889],[116.1181,2.6909],[116.1084,2.6992],[116.0982,2.701],[116.0922,2.701],[116.0732,2.6933],[116.0576,2.6893],[116.0251,2.6872],[115.9975,2.6834],[115.9856,2.6841],[115.9838,2.6875],[115.9881,2.6968],[115.9843,2.6992],[115.9768,2.6967],[115.9698,2.7023],[115.9644,2.7085],[115.9625,2.7177],[115.9651,2.7243],[115.9751,2.7283],[115.9801,2.7342],[115.9791,2.7424],[115.9807,2.7489],[115.9736,2.765],[115.9636,2.7761],[115.9477,2.786],[115.9438,2.7906],[115.9344,2.8099],[115.9254,2.816],[115.9196,2.8231],[115.9205,2.8294],[115.9264,2.8357],[115.9378,2.842],[115.9478,2.852],[115.9505,2.8666],[115.954,2.8721]]]}},{"type":"Feature","properties":{"name":"LongLake","name_en":"LongLake","admin_level":"7","osm_id":""},"geometry":{"type":"Polygon","coordinates":[[[116.6585,2.982],[116.6578,2.9761],[116.6555,2.973],[116.6392,2.9742],[116.6236,2.9564],[116.6159,2.9507],[116.6085,2.948],[116.6033,2.9492],[116.5972,2.9478],[116.589,2.9406],[116.5722,2.9498],[116.5681,2.9478],[116.5596,2.9486],[116.5505,2.9533],[116.5469,2.9495],[116.537,2.9528],[116.5349,2.9602],[116.539,2.9641],[116.5388,2.9775],[116.5421,2.9803],[116.5424,2.985],[116.5399,2.9883],[116.538,2.9966],[116.5358,2.9977],[116.5374,3.0002],[116.5347,3.0024],[116.5265,3.0002],[116.5031,3.0118],[116.4976,3.0239],[116.4935,3.0281],[116.4921,3.0275],[116.4918,3.0292],[116.4885,3.0292],[116.4833,3.0363],[116.4805,3.0424],[116.4822,3.0455],[116.4863,3.0435],[116.4879,3.0449],[116.4863,3.056],[116.4805,3.0631],[116.4802,3.0676],[116.4844,3.0772],[116.4842,3.08],[116.4919,3.077],[116.4923,3.0818],[116.4958,3.08],[116.5098,3.0839],[116.5144,3.0747],[116.5137,3.0557],[116.516,3.0489],[116.5183,3.0487],[116.5207,3.0456],[116.5212,3.0415],[116.531,3.0302],[116.5391,3.0274],[116.5405,3.0298],[116.5495,3.0317],[116.5549,3.0408],[116.5683,3.0439],[116.5756,3.0506],[116.5909,3.0468],[116.6011,3.0419],[116.611,3.0349],[116.6206,3.0246],[116.6244,3.0171],[116.634,3.0062],[116.6399,3.0066],[116.6431,3.0036],[116.6499,2.9859],[116.6585,2.982]]]}},{"type":"Feature","properties":{"name":"LongLoreh","name_en":"LongLoreh","admin_level":"7","osm_id":""},"geometry":{"type":"Polygon","coordinates":[[[116.471,3.1783],[116.474,3.178],[116.476,3.1757],[116.4891,3.1792],[116.4929,3.1765],[116.4978,3.1776],[116.5051,3.1713],[116.5113,3.1774],[116.5154,3.1758],[116.5189,3.1796],[116.5217,3.1921],[116.5204,3.1961],[116.5212,3.2022],[116.5242,3.2042],[116.5379,3.1987],[116.5437,3.1896],[116.5467,3.1889],[116.5509,3.1922],[116.553,3.2032],[116.556,3.2076],[116.5604,3.2071],[116.5632,3.2101],[116.566,3.2083],[116.5686,3.2101],[116.5783,3.2085],[116.5846,3.203],[116.5825,3.2023],[116.5843,3.2004],[116.5839,3.1979],[116.5908,3.1864],[116.5823,3.1809],[116.5795,3.1808],[116.5797,3.1762],[116.5769,3.1756],[116.5788,3.1718],[116.5783,3.169],[116.5631,3.1725],[116.5313,3.1684],[116.5252,3.1658],[116.5094,3.1517],[116.4998,3.1496],[116.4785,3.1514],[116.4706,3.1482],[116.4705,3.1442],[116.466,3.1484],[116.4652,3.1514],[116.4686,3.1595],[116.4714,3.1625],[116.4717,3.1657],[116.4693,3.169],[116.471,3.1783]]]}},{"type":"Feature","properties":{"name":"LongRat","name_en":"LongRat","admin_level":"7","osm_id":""},"geometry":{"type":"Polygon","coordinates":[[[116.468,3.1347],[116.4612,3.1367],[116.4565,3.1314],[116.4538,3.1311],[116.4519,3.1416],[116.4554,3.1603],[116.44,3.1917],[116.426,3.2109],[116.4263,3.2169],[116.4321,3.2354],[116.4314,3.2404],[116.4361,3.2527],[116.4339,3.2541],[116.4308,3.2524],[116.4229,3.2547],[116.4178,3.2592],[116.4148,3.2655],[116.4156,3.271],[116.4206,3.2786],[116.4255,3.28],[116.426,3.2825],[116.4281,3.2822],[116.4283,3.2865],[116.4256,3.2886],[116.4254,3.2874],[116.4209,3.2869],[116.4093,3.2897],[116.4027,3.2848],[116.3952,3.2893],[116.391,3.2897],[116.3797,3.2859],[116.37,3.2868],[116.3674,3.2898],[116.3653,3.3006],[116.3597,3.3031],[116.359,3.3066],[116.3509,3.3192],[116.3467,3.3204],[116.3446,3.3224],[116.3452,3.3244],[116.3425,3.3245],[116.3377,3.3369],[116.3411,3.3403],[116.3491,3.3445],[116.3704,3.3474],[116.3741,3.3431],[116.3701,3.3385],[116.3685,3.3319],[116.3759,3.3241],[116.3837,3.3207],[116.3861,3.3223],[116.3988,3.3217],[116.4042,3.325],[116.409,3.3253],[116.4086,3.3235],[116.4151,3.3219],[116.4171,3.3191],[116.4154,3.3164],[116.4175,3.3132],[116.4225,3.3111],[116.43,3.3022],[116.4389,3.2967],[116.4409,3.2873],[116.4337,3.2774],[116.4364,3.2729],[116.435,3.2713],[116.437,3.2661],[116.4357,3.265],[116.437,3.2629],[116.4412,3.2616],[116.4401,3.2567],[116.4554,3.2515],[116.4558,3.2471],[116.4537,3.2436],[116.4521,3.2327],[116.4464,3.2196],[116.4476,3.2145],[116.4511,3.2098],[116.4504,3.1936],[116.4516,3.1884],[116.4559,3.1842],[116.4584,3.1641],[116.4615,3.1608],[116.4686,3.1595],[116.4652,3.1514],[116.466,3.1484],[116.4733,3.1399],[116.4751,3.1343],[116.4716,3.1331],[116.468,3.1347]]]}},{"type":"Feature","properties":{"name":"Metut","name_en":"Metut","admin_level":"7","osm_id":""},"geometry":{"type":"Polygon","coordinates":[[[116.6085,2.948],[116.6104,2.933],[116.6082,2.9262],[116.6015,2.9214],[116.5864,2.9173],[116.583,2.9105],[116.5812,2.89],[116.5691,2.8854],[116.5421,2.8702],[116.5056,2.8405],[116.4957,2.8355],[116.4938,2.8287],[116.4529,2.8231],[116.4437,2.8176],[116.4344,2.8076],[116.43,2.7921],[116.4306,2.7798],[116.4232,2.7742],[116.4108,2.7698],[116.4046,2.7649],[116.4021,2.7544],[116.386,2.7438],[116.3749,2.7333],[116.3629,2.7167],[116.3546,2.7305],[116.3552,2.7366],[116.3615,2.7484],[116.3629,2.7638],[116.3658,2.7736],[116.3762,2.7959],[116.3926,2.8008],[116.404,2.8102],[116.4022,2.8172],[116.4121,2.8305],[116.4162,2.8429],[116.419,2.847],[116.4176,2.8642],[116.4191,2.8697],[116.4256,2.8716],[116.4291,2.8766],[116.4288,2.8813],[116.432,2.883],[116.4315,2.8899],[116.4333,2.8934],[116.4382,2.8969],[116.4384,2.9019],[116.4437,2.9158],[116.4408,2.9243],[116.4419,2.9253],[116.4458,2.923],[116.4439,2.934],[116.448,2.9377],[116.4513,2.9438],[116.4537,2.9611],[116.4525,2.9693],[116.4539,2.9692],[116.4507,2.9749],[116.4531,2.9777],[116.4501,2.9926],[116.4534,2.9967],[116.4536,2.9998],[116.4612,3.0022],[116.4605,3.0104],[116.4654,3.0121],[116.4684,3.0153],[116.4716,3.0154],[116.4727,3.0199],[116.4702,3.0236],[116.4727,3.031],[116.4674,3.0402],[116.4672,3.0464],[116.4694,3.0518],[116.4685,3.0531],[116.4644,3.0532],[116.4643,3.0546],[116.4607,3.0562],[116.4596,3.0758],[116.4687,3.0811],[116.4695,3.0847],[116.4742,3.0888],[116.4816,3.0847],[116.4844,3.0772],[116.4802,3.0676],[116.4805,3.0631],[116.4863,3.056],[116.4879,3.0449],[116.4863,3.0435],[116.4822,3.0455],[116.4805,3.0424],[116.4833,3.0363],[116.4885,3.0292],[116.4918,3.0292],[116.4921,3.0275],[116.4935,3.0281],[116.4976,3.0239],[116.5031,3.0118],[116.5265,3.0002],[116.5347,3.0024],[116.5374,3.0002],[116.5358,2.9977],[116.538,2.9966],[116.5399,2.9883],[116.5424,2.985],[116.5421,2.9803],[116.5388,2.9775],[116.539,2.9641],[116.5349,2.9602],[116.537,2.9528],[116.5469,2.9495],[116.5505,2.9533],[116.5596,2.9486],[116.5681,2.9478],[116.5722,2.9498],[116.589,2.9406],[116.5972,2.9478],[116.6033,2.9492],[116.6085,2.948]]]}},{"type":"Feature","properties":{"name":"NunukTanahKibang","name_en":"NunukTanahKibang","admin_level":"7","osm_id":""},"geometry":{"type":"Polygon","coordinates":[[[116.4571,3.1268],[116.4525,3.1216],[116.4489,3.1265],[116.4497,3.1306],[116.4477,3.1309],[116.4446,3.136],[116.4406,3.1487],[116.4334,3.1557],[116.4378,3.1629],[116.4393,3.1699],[116.4369,3.1761],[116.4358,3.1714],[116.434,3.1708],[116.4309,3.1737],[116.4259,3.1693],[116.4248,3.1705],[116.426,3.1726],[116.4205,3.1721],[116.4151,3.1746],[116.4071,3.1755],[116.4057,3.1806],[116.3993,3.1765],[116.3982,3.1742],[116.3957,3.1745],[116.3981,3.1782],[116.3951,3.1777],[116.3937,3.1806],[116.3917,3.1792],[116.388,3.18],[116.3868,3.1821],[116.3854,3.1803],[116.3763,3.1869],[116.375,3.1901],[116.3765,3.1933],[116.3759,3.1978],[116.3735,3.2031],[116.3791,3.2129],[116.3773,3.219],[116.3801,3.2366],[116.3755,3.2451],[116.3757,3.2476],[116.3665,3.247],[116.3566,3.2496],[116.3446,3.247],[116.3312,3.3178],[116.3343,3.3317],[116.3377,3.3369],[116.3425,3.3245],[116.3452,3.3244],[116.3446,3.3224],[116.3467,3.3204],[116.3509,3.3192],[116.359,3.3066],[116.3597,3.3031],[116.3653,3.3006],[116.3674,3.2898],[116.37,3.2868],[116.3797,3.2859],[116.391,3.2897],[116.3952,3.2893],[116.4027,3.2848],[116.4093,3.2897],[116.4209,3.2869],[116.4254,3.2874],[116.4256,3.2886],[116.4283,3.2865],[116.4281,3.2822],[116.426,3.2825],[116.4255,3.28],[116.4206,3.2786],[116.4156,3.271],[116.4148,3.2655],[116.4178,3.2592],[116.4229,3.2547],[116.4308,3.2524],[116.4339,3.2541],[116.4361,3.2527],[116.4314,3.2404],[116.4321,3.2354],[116.4263,3.2169],[116.426,3.2109],[116.44,3.1917],[116.4554,3.1603],[116.4519,3.1416],[116.4538,3.1311],[116.4565,3.1314],[116.4612,3.1367],[116.4655,3.1359],[116.4571,3.1268]]]}},{"type":"Feature","properties":{"name":"PayaSeturan","name_en":"PayaSeturan","admin_level":"7","osm_id":""},"geometry":{"type":"Polygon","coordinates":[[[116.5783,3.169],[116.5806,3.1658],[116.5759,3.1664],[116.5754,3.1648],[116.5798,3.1632],[116.5846,3.1523],[116.5879,3.1491],[116.5858,3.144],[116.5771,3.1406],[116.5612,3.1392],[116.5557,3.1345],[116.5362,3.1263],[116.521,3.1072],[116.4981,3.0967],[116.4955,3.0935],[116.4919,3.077],[116.4842,3.08],[116.4816,3.0847],[116.474,3.0887],[116.4666,3.1072],[116.4667,3.1138],[116.4699,3.1261],[116.4666,3.1321],[116.468,3.1347],[116.4716,3.1331],[116.4751,3.1343],[116.4705,3.1442],[116.4706,3.1482],[116.4785,3.1514],[116.4998,3.1496],[116.5094,3.1517],[116.5252,3.1658],[116.5313,3.1684],[116.5631,3.1725],[116.5783,3.169]]]}},{"type":"Feature","properties":{"name":"Pelencau","name_en":"Pelencau","admin_level":"7","osm_id":""},"geometry":{"type":"Polygon","coordinates":[[[116.609,3.2474],[116.6161,3.2439],[116.6276,3.2426],[116.6424,3.2358],[116.6444,3.2312],[116.663,3.2213],[116.6503,3.2199],[116.6493,3.2151],[116.6569,3.2051],[116.6549,3.2021],[116.6496,3.1993],[116.648,3.1946],[116.6459,3.1938],[116.6399,3.1955],[116.6366,3.2076],[116.6277,3.2151],[116.6088,3.2236],[116.5938,3.2246],[116.5853,3.2239],[116.5814,3.2211],[116.5742,3.2214],[116.556,3.2249],[116.5543,3.2277],[116.5525,3.2227],[116.5478,3.2229],[116.5374,3.2154],[116.5328,3.2164],[116.524,3.2154],[116.5161,3.21],[116.5113,3.2096],[116.5001,3.2005],[116.4892,3.2042],[116.4821,3.2029],[116.4837,3.1953],[116.4791,3.1969],[116.4789,3.1942],[116.4817,3.1901],[116.481,3.1863],[116.4742,3.184],[116.471,3.1783],[116.4695,3.1692],[116.4664,3.1707],[116.4653,3.1856],[116.4619,3.1897],[116.4615,3.1929],[116.4631,3.1945],[116.4666,3.2092],[116.465,3.2172],[116.469,3.2221],[116.4721,3.244],[116.4758,3.2484],[116.485,3.2446],[116.4891,3.2461],[116.4968,3.2435],[116.4997,3.2444],[116.508,3.2554],[116.5107,3.256],[116.5125,3.2496],[116.5111,3.2472],[116.5118,3.2436],[116.5161,3.2433],[116.5187,3.2404],[116.5253,3.2408],[116.5298,3.2455],[116.5325,3.2446],[116.532,3.2418],[116.5386,3.2449],[116.5478,3.2465],[116.5566,3.2431],[116.5717,3.244],[116.5828,3.2378],[116.5922,3.2357],[116.5967,3.237],[116.5995,3.2415],[116.6057,3.2381],[116.6051,3.2351],[116.6067,3.2338],[116.6083,3.2344],[116.6088,3.2381],[116.6111,3.241],[116.609,3.2474]]]}},{"type":"Feature","properties":{"name":"PunanGongSolok","name_en":"PunanGongSolok","admin_level":"7","osm_id":""},"geometry":{"type":"Polygon","coordinates":[[[116.5949,3.2766],[116.5962,3.2685],[116.596,3.2617],[116.5948,3.2613],[116.5849,3.2654],[116.5799,3.2654],[116.5718,3.2619],[116.5504,3.2682],[116.5355,3.2638],[116.531,3.2641],[116.5263,3.2676],[116.5274,3.2705],[116.5262,3.2788],[116.5285,3.281],[116.5277,3.2832],[116.5317,3.2903],[116.534,3.2909],[116.5357,3.2948],[116.5315,3.3024],[116.5315,3.3055],[116.5332,3.3072],[116.5317,3.3089],[116.5347,3.3093],[116.5355,3.3119],[116.5321,3.3179],[116.5333,3.3231],[116.5351,3.3225],[116.5507,3.3281],[116.5518,3.3242],[116.5536,3.3256],[116.5566,3.3245],[116.5594,3.3208],[116.5579,3.3155],[116.5638,3.3179],[116.5705,3.3299],[116.5767,3.3524],[116.5794,3.3564],[116.5818,3.3697],[116.5864,3.3703],[116.5863,3.3557],[116.5802,3.3467],[116.581,3.3188],[116.5785,3.3026],[116.5788,3.2988],[116.5812,3.2956],[116.5891,3.2927],[116.5925,3.2879],[116.5949,3.2766]]]}},{"type":"Feature","properties":{"name":"PunanLongAdiu","name_en":"PunanLongAdiu","admin_level":"7","osm_id":""},"geometry":{"type":"Polygon","coordinates":[[[116.4773,3.3644],[116.4735,3.3618],[116.4697,3.3544],[116.4682,3.3467],[116.4726,3.3389],[116.4778,3.336],[116.4936,3.3326],[116.504,3.3241],[116.513,3.3207],[116.5121,3.3184],[116.5027,3.3166],[116.4959,3.3084],[116.4845,3.3057],[116.4851,3.3038],[116.4812,3.2998],[116.4707,3.2932],[116.4651,3.2805],[116.4621,3.2873],[116.46,3.2859],[116.4578,3.287],[116.4571,3.2913],[116.4618,3.3092],[116.4613,3.3174],[116.45,3.3268],[116.4433,3.3281],[116.4441,3.3359],[116.4475,3.341],[116.424,3.3578],[116.4199,3.3573],[116.42,3.3646],[116.4239,3.3697],[116.4352,3.3702],[116.4365,3.3775],[116.4424,3.3808],[116.448,3.3776],[116.4478,3.3748],[116.4577,3.3768],[116.4671,3.3724],[116.4683,3.3695],[116.4728,3.3706],[116.4764,3.3676],[116.4773,3.3644]]]}},{"type":"Feature","properties":{"name":"PunanMirau","name_en":"PunanMirau","admin_level":"7","osm_id":""},"geometry":{"type":"Polygon","coordinates":[[[116.4425,3.1],[116.4351,3.104],[116.4249,3.1147],[116.4211,3.1205],[116.4205,3.1257],[116.4176,3.1265],[116.4163,3.1302],[116.406,3.1319],[116.4036,3.1308],[116.3991,3.135],[116.3891,3.1198],[116.3874,3.1195],[116.3867,3.121],[116.3849,3.1191],[116.3801,3.1193],[116.3803,3.117],[116.3786,3.1166],[116.3769,3.1131],[116.3587,3.1228],[116.3505,3.1246],[116.343,3.1247],[116.3372,3.1225],[116.3332,3.1241],[116.3304,3.1224],[116.3241,3.1264],[116.3183,3.1242],[116.3123,3.1243],[116.3015,3.1282],[116.2908,3.1272],[116.2866,3.1283],[116.2833,3.1319],[116.2854,3.1474],[116.2923,3.1572],[116.3072,3.173],[116.3083,3.178],[116.3064,3.1916],[116.3081,3.2126],[116.3134,3.2113],[116.3192,3.2066],[116.3199,3.2042],[116.3259,3.1987],[116.3256,3.1964],[116.3284,3.1926],[116.334,3.189],[116.3365,3.1849],[116.3352,3.183],[116.3312,3.1824],[116.3322,3.1769],[116.3307,3.1754],[116.3318,3.1739],[116.3294,3.1692],[116.3295,3.1652],[116.3384,3.1628],[116.3421,3.1588],[116.3429,3.1552],[116.3474,3.1526],[116.367,3.1522],[116.3845,3.1581],[116.3882,3.1577],[116.396,3.1526],[116.4063,3.1524],[116.4112,3.1551],[116.4187,3.1532],[116.4225,3.1471],[116.421,3.1399],[116.4232,3.1358],[116.433,3.1193],[116.4389,3.1143],[116.4414,3.1091],[116.445,3.1074],[116.4451,3.1042],[116.4425,3.1]]]}},{"type":"Feature","properties":{"name":"PunanRian","name_en":"PunanRian","admin_level":"7","osm_id":""},"geometry":{"type":"Polygon","coordinates":[[[116.7453,3.0438],[116.7422,3.0356],[116.7311,3.03],[116.6945,3.0232],[116.6791,3.0179],[116.6672,3.0074],[116.661,3.0049],[116.6585,2.982],[116.6499,2.9859],[116.6431,3.0036],[116.6399,3.0066],[116.634,3.0062],[116.6244,3.0171],[116.6206,3.0246],[116.611,3.0349],[116.6011,3.0419],[116.5909,3.0468],[116.5756,3.0506],[116.5683,3.0439],[116.5549,3.0408],[116.5495,3.0317],[116.5405,3.0298],[116.5391,3.0274],[116.531,3.0302],[116.5212,3.0415],[116.5207,3.0456],[116.5183,3.0487],[116.516,3.0489],[116.5137,3.0557],[116.5144,3.0747],[116.5122,3.0812],[116.5098,3.0839],[116.4958,3.08],[116.4932,3.0814],[116.4931,3.085],[116.4955,3.0935],[116.4981,3.0967],[116.521,3.1072],[116.5362,3.1263],[116.5557,3.1345],[116.5612,3.1392],[116.5771,3.1406],[116.5858,3.144],[116.5879,3.1491],[116.5846,3.1523],[116.5798,3.1632],[116.5754,3.1648],[116.5759,3.1664],[116.5803,3.1657],[116.5958,3.1681],[116.6086,3.1766],[116.6212,3.1756],[116.6218,3.178],[116.6342,3.1786],[116.6381,3.1779],[116.6419,3.172],[116.6478,3.1679],[116.6636,3.1692],[116.672,3.1667],[116.6758,3.1611],[116.6872,3.1519],[116.6962,3.1526],[116.7056,3.157],[116.7126,3.1566],[116.7178,3.1479],[116.7255,3.1445],[116.7362,3.1364],[116.7375,3.1347],[116.7369,3.1319],[116.7259,3.1132],[116.7245,3.1046],[116.734,3.0969],[116.7423,3.0831],[116.7479,3.0682],[116.7453,3.0438]]]}},{"type":"Feature","properties":{"name":"PunanSetarap","name_en":"PunanSetarap","admin_level":"7","osm_id":""},"geometry":{"type":"Polygon","coordinates":[[[116.5049,3.398],[116.4995,3.3961],[116.499,3.3915],[116.4947,3.389],[116.4916,3.3847],[116.4893,3.3811],[116.4893,3.3776],[116.4873,3.3773],[116.4882,3.3736],[116.4832,3.3676],[116.4823,3.3641],[116.48,3.365],[116.4795,3.3669],[116.4773,3.3644],[116.4751,3.3693],[116.4712,3.3709],[116.4683,3.3695],[116.4671,3.3724],[116.4577,3.3768],[116.4478,3.3748],[116.448,3.3776],[116.4424,3.3808],[116.4365,3.3775],[116.4352,3.3702],[116.4261,3.3703],[116.422,3.3686],[116.42,3.3646],[116.4199,3.3573],[116.4146,3.3554],[116.398,3.3555],[116.3945,3.3586],[116.3912,3.3655],[116.387,3.366],[116.385,3.3685],[116.3952,3.3787],[116.4051,3.3945],[116.4035,3.4129],[116.4052,3.4206],[116.4244,3.4036],[116.4327,3.4012],[116.4421,3.4009],[116.4541,3.3952],[116.4636,3.409],[116.4658,3.419],[116.4687,3.4223],[116.4819,3.4159],[116.4884,3.4154],[116.4932,3.425],[116.4989,3.4267],[116.5023,3.4248],[116.4988,3.415],[116.5016,3.4061],[116.503,3.4047],[116.5072,3.4046],[116.5049,3.398]]]}},{"type":"Feature","properties":{"name":"Sengayan","name_en":"Sengayan","admin_level":"7","osm_id":""},"geometry":{"type":"Polygon","coordinates":[[[116.4651,3.2805],[116.4659,3.2795],[116.4637,3.2776],[116.4659,3.2764],[116.4656,3.2726],[116.4751,3.2638],[116.4758,3.2484],[116.4721,3.244],[116.469,3.2221],[116.465,3.2172],[116.4666,3.2092],[116.4631,3.1945],[116.4615,3.1929],[116.4619,3.1897],[116.4653,3.1856],[116.4664,3.1707],[116.4717,3.1657],[116.4714,3.1625],[116.4686,3.1595],[116.4593,3.1621],[116.4559,3.1842],[116.4516,3.1884],[116.4504,3.1936],[116.4511,3.2098],[116.4476,3.2145],[116.4464,3.2196],[116.4521,3.2327],[116.4537,3.2436],[116.4558,3.2471],[116.4554,3.2515],[116.4401,3.2567],[116.4412,3.2616],[116.437,3.2629],[116.4357,3.265],[116.437,3.2661],[116.435,3.2713],[116.4364,3.2729],[116.4337,3.2774],[116.4409,3.2873],[116.4389,3.2967],[116.43,3.3022],[116.4225,3.3111],[116.4175,3.3132],[116.4154,3.3164],[116.4171,3.3191],[116.4151,3.3219],[116.4086,3.3235],[116.409,3.3253],[116.4042,3.325],[116.3988,3.3217],[116.3861,3.3223],[116.3837,3.3207],[116.3759,3.3241],[116.3685,3.3319],[116.3701,3.3385],[116.3741,3.3431],[116.3704,3.3474],[116.3771,3.3526],[116.3814,3.3646],[116.385,3.3685],[116.387,3.366],[116.3912,3.3655],[116.3945,3.3586],[116.398,3.3555],[116.4098,3.3545],[116.424,3.3578],[116.4475,3.341],[116.4441,3.3359],[116.4433,3.3281],[116.45,3.3268],[116.4613,3.3174],[116.4618,3.3092],[116.4571,3.2913],[116.4578,3.287],[116.46,3.2859],[116.4621,3.2873],[116.4651,3.2805]]]}},{"type":"Feature","properties":{"name":"Setarap","name_en":"Setarap","admin_level":"7","osm_id":""},"geometry":{"type":"Polygon","coordinates":[[[116.5512,3.442],[116.5543,3.4355],[116.5522,3.4233],[116.5543,3.4175],[116.5491,3.4118],[116.5379,3.4063],[116.5334,3.4023],[116.5323,3.3966],[116.5336,3.3932],[116.5309,3.3927],[116.5293,3.3899],[116.5246,3.388],[116.5156,3.3885],[116.5048,3.3981],[116.5072,3.4046],[116.503,3.4047],[116.5016,3.4061],[116.4988,3.415],[116.502,3.4249],[116.5084,3.4221],[116.5131,3.4251],[116.5187,3.4325],[116.5128,3.4464],[116.5142,3.4506],[116.5028,3.4603],[116.505,3.4678],[116.5009,3.4718],[116.5121,3.4707],[116.5223,3.4651],[116.5243,3.4609],[116.5301,3.4553],[116.531,3.4483],[116.5369,3.4438],[116.5425,3.4427],[116.5484,3.4443],[116.5512,3.442]]]}},{"type":"Feature","properties":{"name":"Setulang","name_en":"Setulang","admin_level":"7","osm_id":""},"geometry":{"type":"Polygon","coordinates":[[[116.4162,3.4493],[116.4273,3.4407],[116.4422,3.4376],[116.4519,3.4337],[116.4593,3.4337],[116.469,3.4449],[116.4767,3.4451],[116.48,3.4469],[116.4853,3.457],[116.4861,3.468],[116.5009,3.4718],[116.505,3.4678],[116.5028,3.4603],[116.5142,3.4506],[116.5128,3.4464],[116.5187,3.4325],[116.5131,3.4251],[116.5084,3.4221],[116.5006,3.4263],[116.4956,3.4265],[116.4932,3.425],[116.4884,3.4154],[116.4819,3.4159],[116.4687,3.4223],[116.4658,3.419],[116.4636,3.409],[116.4561,3.3964],[116.452,3.3954],[116.4421,3.4009],[116.4327,3.4012],[116.4244,3.4036],[116.4052,3.4206],[116.4083,3.4389],[116.4162,3.4493]]]}},{"type":"Feature","properties":{"name":"TanjungNanga","name_en":"TanjungNanga","admin_level":"7","osm_id":""},"geometry":{"type":"Polygon","coordinates":[[[116.3629,2.7167],[116.3606,2.7129],[116.3551,2.7098],[116.3209,2.7308],[116.3156,2.7234],[116.3099,2.7189],[116.2847,2.7088],[116.2807,2.7052],[116.2791,2.7011],[116.2613,2.7007],[116.2517,2.6978],[116.2475,2.7034],[116.2478,2.7082],[116.2501,2.7125],[116.2495,2.7187],[116.2323,2.7582],[116.237,2.7715],[116.2413,2.7769],[116.2418,2.7863],[116.2398,2.7914],[116.2441,2.805],[116.2475,2.8098],[116.2473,2.8153],[116.2521,2.8298],[116.2563,2.8335],[116.2498,2.859],[116.2227,2.8817],[116.2226,2.9045],[116.2189,2.913],[116.2062,2.9286],[116.1799,2.9397],[116.1545,2.9453],[116.1382,2.9442],[116.1184,2.9493],[116.0836,2.9667],[116.095,2.9703],[116.1041,2.978],[116.1095,2.9803],[116.1202,2.9786],[116.1342,2.9878],[116.1433,2.9909],[116.1579,3.0004],[116.1651,3.003],[116.1798,3.005],[116.1912,3.0005],[116.2008,2.9994],[116.2049,2.9951],[116.2087,2.9939],[116.2163,3.0042],[116.2309,3.0075],[116.2356,3.0093],[116.2381,3.0123],[116.2413,3.0204],[116.246,3.056],[116.2486,3.0604],[116.2514,3.0595],[116.2555,3.0639],[116.2712,3.0507],[116.2811,3.0475],[116.294,3.0506],[116.3091,3.0509],[116.3239,3.0565],[116.3367,3.0573],[116.3455,3.061],[116.382,3.0709],[116.4026,3.067],[116.4057,3.0647],[116.4178,3.0652],[116.4274,3.0566],[116.448,3.0564],[116.4543,3.0543],[116.4685,3.0531],[116.4674,3.0402],[116.4719,3.0342],[116.4727,3.031],[116.4702,3.0236],[116.4727,3.0199],[116.4716,3.0154],[116.4684,3.0153],[116.4654,3.0121],[116.4605,3.0104],[116.4612,3.0022],[116.4536,2.9998],[116.4534,2.9967],[116.4501,2.9926],[116.4531,2.9777],[116.4507,2.9749],[116.4539,2.9692],[116.4525,2.9693],[116.4534,2.9562],[116.4513,2.9438],[116.448,2.9377],[116.4439,2.934],[116.4458,2.923],[116.4419,2.9253],[116.4408,2.9243],[116.4437,2.9158],[116.4384,2.9019],[116.4382,2.8969],[116.4333,2.8934],[116.4315,2.8899],[116.432,2.883],[116.4288,2.8813],[116.4291,2.8766],[116.4256,2.8716],[116.4191,2.8697],[116.4176,2.8642],[116.419,2.847],[116.4162,2.8429],[116.4121,2.8305],[116.4022,2.8172],[116.404,2.8102],[116.3926,2.8008],[116.3762,2.7959],[116.3658,2.7736],[116.3629,2.7638],[116.3615,2.7484],[116.3552,2.7366],[116.3546,2.7305],[116.3629,2.7167]]]}}]}