{"type":"FeatureCollection","metadata":{"parent_osm_id":"16318869","parent_name":"Cijeungjing","parent_name_1":"JawaBarat","parent_gid":"IDN.9.6.7_1","parent_level":"6","child_level":"7","count":11,"source":"GADM 4.1","generated":"2026-05-09"},"features":[{"type":"Feature","properties":{"name":"Bojongmengger","name_en":"Bojongmengger","admin_level":"7","osm_id":""},"geometry":{"type":"Polygon","coordinates":[[[108.4323,-7.3575],[108.4273,-7.3528],[108.418,-7.3503],[108.4177,-7.3429],[108.4207,-7.3408],[108.4257,-7.3452],[108.4322,-7.337],[108.4391,-7.339],[108.4395,-7.342],[108.4413,-7.3432],[108.451,-7.3401],[108.4484,-7.3442],[108.4495,-7.346],[108.4517,-7.3458],[108.4534,-7.3415],[108.4554,-7.3434],[108.458,-7.3418],[108.4605,-7.3434],[108.4575,-7.3462],[108.4594,-7.348],[108.4515,-7.35],[108.453,-7.3595],[108.443,-7.3602],[108.4424,-7.3561],[108.4393,-7.3571],[108.4358,-7.356],[108.4348,-7.3586],[108.4323,-7.3575]]]}},{"type":"Feature","properties":{"name":"Ciharalang","name_en":"Ciharalang","admin_level":"7","osm_id":""},"geometry":{"type":"Polygon","coordinates":[[[108.4199,-7.3411],[108.4176,-7.343],[108.418,-7.3503],[108.4273,-7.3528],[108.4323,-7.3575],[108.4325,-7.36],[108.4233,-7.3605],[108.4145,-7.3644],[108.406,-7.3626],[108.405,-7.3606],[108.4021,-7.3632],[108.3993,-7.3618],[108.399,-7.3528],[108.4005,-7.352],[108.3988,-7.3487],[108.4021,-7.3474],[108.3996,-7.3463],[108.4027,-7.3422],[108.4004,-7.343],[108.3989,-7.3402],[108.4026,-7.3392],[108.4051,-7.3343],[108.4091,-7.3329],[108.4199,-7.3411]]]}},{"type":"Feature","properties":{"name":"Cijeungjing","name_en":"Cijeungjing","admin_level":"7","osm_id":""},"geometry":{"type":"Polygon","coordinates":[[[108.4353,-7.3379],[108.4322,-7.337],[108.4257,-7.3452],[108.4109,-7.3337],[108.4079,-7.3332],[108.4048,-7.3351],[108.4038,-7.3299],[108.4061,-7.3286],[108.407,-7.3305],[108.4089,-7.329],[108.4118,-7.3303],[108.4167,-7.3296],[108.4175,-7.3277],[108.4208,-7.329],[108.423,-7.325],[108.4248,-7.3253],[108.4277,-7.3325],[108.4293,-7.3315],[108.4345,-7.3343],[108.4353,-7.3379]]]}},{"type":"Feature","properties":{"name":"Dewasari","name_en":"Dewasari","admin_level":"7","osm_id":""},"geometry":{"type":"Polygon","coordinates":[[[108.3783,-7.3397],[108.3764,-7.3365],[108.3772,-7.3341],[108.3749,-7.3274],[108.3748,-7.3253],[108.3765,-7.3241],[108.3819,-7.3247],[108.3812,-7.3267],[108.3866,-7.3286],[108.3862,-7.3332],[108.391,-7.3327],[108.399,-7.3353],[108.401,-7.3395],[108.3859,-7.3408],[108.3783,-7.3397]]]}},{"type":"Feature","properties":{"name":"Handapherang","name_en":"Handapherang","admin_level":"7","osm_id":""},"geometry":{"type":"Polygon","coordinates":[[[108.3804,-7.3559],[108.3769,-7.354],[108.3798,-7.3529],[108.3787,-7.3522],[108.3791,-7.3472],[108.3755,-7.3448],[108.3783,-7.3397],[108.3859,-7.3408],[108.3967,-7.3392],[108.4004,-7.343],[108.4026,-7.342],[108.3996,-7.3463],[108.4021,-7.3474],[108.3988,-7.3487],[108.4005,-7.352],[108.399,-7.3528],[108.3989,-7.3618],[108.3955,-7.3624],[108.393,-7.3596],[108.3903,-7.3619],[108.3885,-7.3588],[108.3857,-7.359],[108.3848,-7.3569],[108.382,-7.3578],[108.3804,-7.3559]]]}},{"type":"Feature","properties":{"name":"Karanganyar","name_en":"Karanganyar","admin_level":"7","osm_id":""},"geometry":{"type":"Polygon","coordinates":[[[108.412,-7.287],[108.4153,-7.2918],[108.4228,-7.2922],[108.426,-7.2962],[108.4232,-7.2987],[108.43,-7.2985],[108.4308,-7.3007],[108.4296,-7.3021],[108.4316,-7.3057],[108.4352,-7.303],[108.4339,-7.3119],[108.4374,-7.3116],[108.4386,-7.3132],[108.4379,-7.3195],[108.4331,-7.3228],[108.4255,-7.3177],[108.4208,-7.329],[108.4182,-7.3288],[108.4172,-7.3244],[108.4136,-7.324],[108.4141,-7.3209],[108.4108,-7.3179],[108.4124,-7.3036],[108.4072,-7.298],[108.4081,-7.2933],[108.4113,-7.292],[108.4106,-7.2883],[108.412,-7.287]]]}},{"type":"Feature","properties":{"name":"Karangkamulyan","name_en":"Karangkamulyan","admin_level":"7","osm_id":""},"geometry":{"type":"Polygon","coordinates":[[[108.4793,-7.3594],[108.4771,-7.3614],[108.4701,-7.3615],[108.4705,-7.3646],[108.4658,-7.3645],[108.4598,-7.362],[108.4544,-7.3625],[108.4522,-7.3612],[108.4534,-7.3614],[108.4508,-7.3521],[108.4527,-7.349],[108.4605,-7.348],[108.4643,-7.3425],[108.4684,-7.3465],[108.4732,-7.3451],[108.4777,-7.3469],[108.4928,-7.3428],[108.4946,-7.3467],[108.4981,-7.3487],[108.4975,-7.35],[108.4966,-7.349],[108.4895,-7.3498],[108.4849,-7.3563],[108.4776,-7.3575],[108.4793,-7.3594]]]}},{"type":"Feature","properties":{"name":"Kertabumi","name_en":"Kertabumi","admin_level":"7","osm_id":""},"geometry":{"type":"Polygon","coordinates":[[[108.4594,-7.348],[108.4575,-7.3462],[108.4605,-7.3434],[108.458,-7.3418],[108.4554,-7.3434],[108.4534,-7.3415],[108.4517,-7.3458],[108.4495,-7.346],[108.4484,-7.3442],[108.451,-7.3401],[108.4408,-7.343],[108.4391,-7.339],[108.4353,-7.3379],[108.4345,-7.3343],[108.4293,-7.3315],[108.4277,-7.3325],[108.4256,-7.3257],[108.423,-7.325],[108.4217,-7.3267],[108.4255,-7.3177],[108.4325,-7.3228],[108.4379,-7.3194],[108.4403,-7.3206],[108.4456,-7.3256],[108.4466,-7.3296],[108.4501,-7.3292],[108.4528,-7.3336],[108.4514,-7.3372],[108.4583,-7.3409],[108.4603,-7.3374],[108.4609,-7.3408],[108.4635,-7.3406],[108.4644,-7.3423],[108.4618,-7.3468],[108.4594,-7.348]]]}},{"type":"Feature","properties":{"name":"Kertaharja","name_en":"Kertaharja","admin_level":"7","osm_id":""},"geometry":{"type":"Polygon","coordinates":[[[108.3956,-7.2906],[108.3981,-7.2894],[108.3999,-7.2858],[108.3982,-7.2857],[108.3987,-7.2847],[108.4056,-7.2806],[108.4067,-7.2815],[108.4061,-7.2849],[108.4088,-7.284],[108.412,-7.2866],[108.4106,-7.2883],[108.4113,-7.292],[108.4081,-7.2933],[108.4072,-7.298],[108.4124,-7.3036],[108.4107,-7.3168],[108.4141,-7.3209],[108.4137,-7.3232],[108.4095,-7.3236],[108.4076,-7.3203],[108.4031,-7.3236],[108.4015,-7.3202],[108.3914,-7.319],[108.384,-7.3135],[108.3851,-7.3124],[108.3833,-7.3114],[108.3835,-7.3094],[108.3881,-7.3114],[108.3933,-7.3098],[108.3915,-7.3085],[108.3909,-7.3047],[108.3874,-7.3027],[108.3846,-7.3034],[108.3863,-7.302],[108.3821,-7.3],[108.382,-7.2962],[108.3848,-7.2962],[108.386,-7.2975],[108.3851,-7.2985],[108.3938,-7.2978],[108.3902,-7.2962],[108.3953,-7.2958],[108.3939,-7.2946],[108.3966,-7.2937],[108.3956,-7.2906]]]}},{"type":"Feature","properties":{"name":"Pamalayan","name_en":"Pamalayan","admin_level":"7","osm_id":""},"geometry":{"type":"Polygon","coordinates":[[[108.4048,-7.3351],[108.4031,-7.3386],[108.401,-7.3395],[108.399,-7.3353],[108.391,-7.3327],[108.3862,-7.3332],[108.3866,-7.3286],[108.3812,-7.3267],[108.3815,-7.3257],[108.3851,-7.323],[108.3879,-7.3245],[108.3909,-7.3218],[108.3926,-7.3224],[108.3962,-7.3203],[108.4016,-7.321],[108.4031,-7.3236],[108.4082,-7.3204],[108.4095,-7.3236],[108.4129,-7.3229],[108.4172,-7.3244],[108.4167,-7.3296],[108.4118,-7.3303],[108.4089,-7.329],[108.407,-7.3305],[108.4067,-7.3287],[108.4042,-7.3294],[108.4048,-7.3351]]]}},{"type":"Feature","properties":{"name":"Utama","name_en":"Utama","admin_level":"7","osm_id":""},"geometry":{"type":"Polygon","coordinates":[[[108.3765,-7.3101],[108.3852,-7.3131],[108.3914,-7.319],[108.4018,-7.3205],[108.3951,-7.3204],[108.3879,-7.3245],[108.3851,-7.323],[108.379,-7.3251],[108.3765,-7.3241],[108.3777,-7.3222],[108.376,-7.3216],[108.3761,-7.3192],[108.3715,-7.3207],[108.3713,-7.3229],[108.3699,-7.3228],[108.3696,-7.3206],[108.3746,-7.3159],[108.3765,-7.3101]]]}}]}