{"type":"FeatureCollection","metadata":{"parent_osm_id":"gid_IDN_31_13_2_1","parent_name":"DempoTengah","parent_name_1":"SumateraSelatan","parent_gid":"IDN.31.13.2_1","parent_level":"6","child_level":"7","count":5,"source":"GADM 4.1","generated":"2026-05-08"},"features":[{"type":"Feature","properties":{"name":"CandiJaya","name_en":"CandiJaya","admin_level":"7","osm_id":""},"geometry":{"type":"Polygon","coordinates":[[[103.1817,-4.2367],[103.1783,-4.2326],[103.1777,-4.2292],[103.1854,-4.2157],[103.1841,-4.1748],[103.187,-4.1752],[103.192,-4.1708],[103.1946,-4.1621],[103.1906,-4.159],[103.1938,-4.1585],[103.1936,-4.1554],[103.1999,-4.1526],[103.2016,-4.1501],[103.2062,-4.149],[103.2157,-4.1392],[103.2145,-4.1338],[103.2164,-4.1328],[103.2149,-4.1295],[103.2178,-4.1237],[103.2182,-4.1177],[103.2244,-4.1171],[103.229,-4.1146],[103.2304,-4.1156],[103.2357,-4.1078],[103.2387,-4.1063],[103.239,-4.0941],[103.2317,-4.084],[103.2326,-4.0808],[103.2388,-4.0744],[103.2409,-4.0697],[103.2447,-4.0669],[103.2445,-4.0651],[103.2454,-4.0641],[103.2465,-4.0765],[103.2501,-4.0809],[103.2497,-4.0839],[103.2553,-4.0947],[103.2513,-4.1105],[103.2453,-4.1209],[103.2447,-4.1254],[103.2393,-4.1327],[103.2296,-4.1373],[103.2286,-4.1409],[103.2315,-4.1482],[103.2372,-4.1512],[103.2408,-4.1511],[103.2383,-4.1702],[103.2352,-4.1718],[103.238,-4.1798],[103.2394,-4.1802],[103.2396,-4.1846],[103.2363,-4.1854],[103.236,-4.1897],[103.2334,-4.1917],[103.2228,-4.193],[103.2173,-4.2012],[103.2125,-4.2024],[103.2139,-4.2055],[103.2104,-4.2076],[103.2149,-4.2137],[103.2133,-4.218],[103.2247,-4.2244],[103.2346,-4.2227],[103.2408,-4.2254],[103.244,-4.23],[103.2491,-4.2313],[103.2579,-4.23],[103.2613,-4.2333],[103.2524,-4.2397],[103.2496,-4.2437],[103.2521,-4.2456],[103.2474,-4.2445],[103.2348,-4.2457],[103.2154,-4.2403],[103.2026,-4.2477],[103.1871,-4.2384],[103.1817,-4.2367]]]}},{"type":"Feature","properties":{"name":"Jokoh","name_en":"Jokoh","admin_level":"7","osm_id":""},"geometry":{"type":"Polygon","coordinates":[[[103.2847,-4.1181],[103.2811,-4.1215],[103.2827,-4.1226],[103.2808,-4.127],[103.282,-4.1292],[103.2813,-4.1351],[103.2794,-4.1369],[103.2775,-4.1487],[103.2803,-4.1535],[103.2812,-4.159],[103.2842,-4.1619],[103.2862,-4.1605],[103.2875,-4.1649],[103.2842,-4.171],[103.2722,-4.18],[103.2637,-4.1983],[103.2608,-4.201],[103.258,-4.2112],[103.2609,-4.2145],[103.2624,-4.2229],[103.2613,-4.2333],[103.2579,-4.23],[103.2491,-4.2313],[103.244,-4.23],[103.2408,-4.2254],[103.2346,-4.2227],[103.2247,-4.2244],[103.2133,-4.218],[103.2149,-4.2137],[103.2104,-4.2076],[103.2139,-4.2055],[103.2125,-4.2024],[103.2173,-4.2012],[103.2228,-4.193],[103.2352,-4.1907],[103.2363,-4.1854],[103.2396,-4.1846],[103.2394,-4.1802],[103.238,-4.1798],[103.2352,-4.1718],[103.2383,-4.1702],[103.2408,-4.1511],[103.2372,-4.1512],[103.2315,-4.1482],[103.2287,-4.1423],[103.2296,-4.1373],[103.2393,-4.1327],[103.2447,-4.1254],[103.2453,-4.1209],[103.2513,-4.1105],[103.2553,-4.0947],[103.2548,-4.0915],[103.2641,-4.0858],[103.2654,-4.0834],[103.2785,-4.0783],[103.2804,-4.0807],[103.2797,-4.0854],[103.2824,-4.0885],[103.2751,-4.1019],[103.2729,-4.1188],[103.2797,-4.1161],[103.2847,-4.1181]]]}},{"type":"Feature","properties":{"name":"KarangDalo","name_en":"KarangDalo","admin_level":"7","osm_id":""},"geometry":{"type":"Polygon","coordinates":[[[103.2793,-4.0388],[103.2829,-4.0428],[103.2886,-4.0441],[103.293,-4.0423],[103.3045,-4.0427],[103.3041,-4.0473],[103.2958,-4.0607],[103.281,-4.0542],[103.2788,-4.0476],[103.2749,-4.0425],[103.2769,-4.0426],[103.2793,-4.0388]]]}},{"type":"Feature","properties":{"name":"PadangTemu","name_en":"PadangTemu","admin_level":"7","osm_id":""},"geometry":{"type":"Polygon","coordinates":[[[103.2547,-4.0917],[103.2497,-4.0839],[103.249,-4.0788],[103.2465,-4.0765],[103.2467,-4.0689],[103.2435,-4.0596],[103.247,-4.0573],[103.2499,-4.0581],[103.2531,-4.0557],[103.2582,-4.0578],[103.2658,-4.055],[103.267,-4.0509],[103.2754,-4.0494],[103.2774,-4.0452],[103.281,-4.0542],[103.2866,-4.0561],[103.2887,-4.0575],[103.2791,-4.0633],[103.2802,-4.0724],[103.2792,-4.0779],[103.2654,-4.0834],[103.2641,-4.0858],[103.2547,-4.0917]]]}},{"type":"Feature","properties":{"name":"PelangKenidai","name_en":"PelangKenidai","admin_level":"7","osm_id":""},"geometry":{"type":"Polygon","coordinates":[[[103.3045,-4.0427],[103.3284,-4.044],[103.3386,-4.039],[103.3432,-4.0416],[103.3446,-4.0491],[103.3382,-4.0588],[103.336,-4.0581],[103.3346,-4.0621],[103.33,-4.0635],[103.33,-4.0652],[103.3282,-4.0644],[103.3244,-4.0721],[103.3158,-4.0704],[103.3146,-4.0723],[103.3089,-4.0744],[103.3085,-4.0766],[103.3051,-4.0762],[103.3067,-4.0803],[103.303,-4.0814],[103.3052,-4.0845],[103.3055,-4.092],[103.3015,-4.0935],[103.3025,-4.0976],[103.3003,-4.0983],[103.3,-4.1003],[103.298,-4.1002],[103.3004,-4.1031],[103.298,-4.1033],[103.2935,-4.1116],[103.2883,-4.1143],[103.2893,-4.1176],[103.2847,-4.1181],[103.2797,-4.1161],[103.2729,-4.1188],[103.2751,-4.1019],[103.2824,-4.0885],[103.2797,-4.0854],[103.2804,-4.0807],[103.2785,-4.0783],[103.2802,-4.0724],[103.2784,-4.0648],[103.2883,-4.0573],[103.2958,-4.0607],[103.3041,-4.0473],[103.3045,-4.0427]]]}}]}