{"type":"FeatureCollection","metadata":{"parent_osm_id":"8224558","parent_name":"Kenjeran","parent_name_1":"JawaTimur","parent_gid":"IDN.11.35.12_1","parent_level":"6","child_level":"7","count":4,"source":"GADM 4.1","generated":"2026-05-09"},"features":[{"type":"Feature","properties":{"name":"BulakBanteng","name_en":"BulakBanteng","admin_level":"7","osm_id":""},"geometry":{"type":"Polygon","coordinates":[[[112.757,-7.1978],[112.76,-7.1959],[112.7636,-7.1959],[112.7724,-7.2017],[112.7697,-7.2148],[112.7707,-7.2152],[112.7687,-7.2201],[112.7696,-7.2214],[112.7636,-7.2233],[112.7655,-7.2136],[112.7609,-7.213],[112.7621,-7.2083],[112.758,-7.2035],[112.757,-7.1978]]]}},{"type":"Feature","properties":{"name":"SidotopoWetan","name_en":"SidotopoWetan","admin_level":"7","osm_id":""},"geometry":{"type":"Polygon","coordinates":[[[112.7609,-7.213],[112.7655,-7.2136],[112.7636,-7.2233],[112.7684,-7.2217],[112.7681,-7.2263],[112.7664,-7.2313],[112.7622,-7.2347],[112.7577,-7.2353],[112.7571,-7.2301],[112.7587,-7.2276],[112.7581,-7.2243],[112.7606,-7.2236],[112.7592,-7.2221],[112.7609,-7.213]]]}},{"type":"Feature","properties":{"name":"TambakWedi","name_en":"TambakWedi","admin_level":"7","osm_id":""},"geometry":{"type":"Polygon","coordinates":[[[112.7787,-7.2134],[112.7771,-7.2189],[112.77,-7.2178],[112.7725,-7.2022],[112.7748,-7.203],[112.7744,-7.2057],[112.7764,-7.2085],[112.78,-7.2087],[112.7787,-7.2134]]]}},{"type":"Feature","properties":{"name":"TanahKaliKedinding","name_en":"TanahKaliKedinding","admin_level":"7","osm_id":""},"geometry":{"type":"Polygon","coordinates":[[[112.7862,-7.2261],[112.7839,-7.2253],[112.7827,-7.2269],[112.7842,-7.228],[112.7837,-7.2315],[112.7812,-7.2306],[112.781,-7.2288],[112.7775,-7.2288],[112.7749,-7.2322],[112.7713,-7.233],[112.7706,-7.2357],[112.7641,-7.2364],[112.7625,-7.2345],[112.7672,-7.2299],[112.77,-7.2178],[112.7755,-7.218],[112.7841,-7.2216],[112.7841,-7.2229],[112.7869,-7.2234],[112.7862,-7.2261]]]}}]}