{"type":"FeatureCollection","metadata":{"parent_osm_id":"gid_IDN_10_13_1_1","parent_name":"Boja","parent_name_1":"JawaTengah","parent_gid":"IDN.10.13.1_1","parent_level":"6","child_level":"7","count":18,"source":"GADM 4.1","generated":"2026-05-07"},"features":[{"type":"Feature","properties":{"name":"Banjarejo","name_en":"Banjarejo","admin_level":"7","osm_id":""},"geometry":{"type":"Polygon","coordinates":[[[110.3488,-7.1128],[110.3464,-7.1089],[110.3468,-7.1068],[110.3457,-7.1077],[110.3436,-7.103],[110.3462,-7.0995],[110.3435,-7.0953],[110.3442,-7.0923],[110.3427,-7.0906],[110.3436,-7.088],[110.3461,-7.0877],[110.3462,-7.0853],[110.3518,-7.1016],[110.3561,-7.1066],[110.355,-7.1078],[110.3535,-7.1069],[110.354,-7.1106],[110.3509,-7.112],[110.3494,-7.1109],[110.3488,-7.1128]]]}},{"type":"Feature","properties":{"name":"Bebengan","name_en":"Bebengan","admin_level":"7","osm_id":""},"geometry":{"type":"Polygon","coordinates":[[[110.2663,-7.1122],[110.2636,-7.114],[110.2588,-7.114],[110.255,-7.1109],[110.2557,-7.108],[110.2525,-7.1067],[110.2533,-7.1003],[110.2562,-7.1005],[110.2568,-7.104],[110.2602,-7.1017],[110.2572,-7.0985],[110.2596,-7.0956],[110.2693,-7.0948],[110.2694,-7.1],[110.266,-7.101],[110.2663,-7.1122]]]}},{"type":"Feature","properties":{"name":"Blimbing","name_en":"Blimbing","admin_level":"7","osm_id":""},"geometry":{"type":"Polygon","coordinates":[[[110.2557,-7.1122],[110.2608,-7.1144],[110.2711,-7.1094],[110.2731,-7.1103],[110.2713,-7.1145],[110.272,-7.1182],[110.2699,-7.1208],[110.2709,-7.1255],[110.2612,-7.1301],[110.2613,-7.1329],[110.2593,-7.1328],[110.256,-7.1267],[110.2566,-7.1207],[110.2547,-7.1195],[110.2542,-7.1157],[110.2557,-7.1122]]]}},{"type":"Feature","properties":{"name":"Boja","name_en":"Boja","admin_level":"7","osm_id":""},"geometry":{"type":"Polygon","coordinates":[[[110.2663,-7.1122],[110.266,-7.101],[110.2693,-7.1002],[110.2693,-7.0954],[110.2734,-7.0928],[110.2844,-7.0904],[110.288,-7.0977],[110.279,-7.1048],[110.281,-7.1062],[110.2816,-7.1099],[110.2786,-7.1061],[110.2663,-7.1122]]]}},{"type":"Feature","properties":{"name":"Campurejo","name_en":"Campurejo","admin_level":"7","osm_id":""},"geometry":{"type":"Polygon","coordinates":[[[110.2881,-7.0967],[110.284,-7.091],[110.2878,-7.0866],[110.3028,-7.0814],[110.3051,-7.0884],[110.3033,-7.0971],[110.2958,-7.103],[110.2924,-7.0963],[110.2881,-7.0967]]]}},{"type":"Feature","properties":{"name":"Kaligading","name_en":"Kaligading","admin_level":"7","osm_id":""},"geometry":{"type":"Polygon","coordinates":[[[110.27,-7.1264],[110.2707,-7.1223],[110.2733,-7.1216],[110.2786,-7.1235],[110.2768,-7.1198],[110.2875,-7.1215],[110.2943,-7.1244],[110.2947,-7.1323],[110.2924,-7.1345],[110.294,-7.135],[110.2874,-7.1338],[110.2861,-7.1379],[110.2834,-7.1376],[110.285,-7.1318],[110.2813,-7.1292],[110.278,-7.1297],[110.2733,-7.1264],[110.27,-7.1264]]]}},{"type":"Feature","properties":{"name":"Karangmanggis","name_en":"Karangmanggis","admin_level":"7","osm_id":""},"geometry":{"type":"Polygon","coordinates":[[[110.2943,-7.1244],[110.2875,-7.1215],[110.2849,-7.1163],[110.2859,-7.1113],[110.2897,-7.1085],[110.2918,-7.1082],[110.2926,-7.1121],[110.2974,-7.1191],[110.2955,-7.12],[110.2958,-7.1248],[110.2943,-7.1244]]]}},{"type":"Feature","properties":{"name":"Kliris","name_en":"Kliris","admin_level":"7","osm_id":""},"geometry":{"type":"Polygon","coordinates":[[[110.3298,-7.1011],[110.3283,-7.1031],[110.3298,-7.105],[110.3282,-7.1067],[110.3297,-7.1077],[110.3271,-7.1093],[110.3282,-7.1106],[110.3265,-7.1121],[110.3273,-7.1185],[110.3291,-7.12],[110.3252,-7.1204],[110.3245,-7.1185],[110.3205,-7.1207],[110.3148,-7.1196],[110.3156,-7.115],[110.3128,-7.1062],[110.3165,-7.1045],[110.3177,-7.1067],[110.324,-7.1015],[110.3285,-7.1022],[110.3298,-7.1011]]]}},{"type":"Feature","properties":{"name":"Leban","name_en":"Leban","admin_level":"7","osm_id":""},"geometry":{"type":"Polygon","coordinates":[[[110.3448,-7.097],[110.3462,-7.0995],[110.3438,-7.1011],[110.3436,-7.1033],[110.3457,-7.1077],[110.3468,-7.1068],[110.3495,-7.117],[110.3477,-7.1145],[110.3431,-7.1142],[110.3414,-7.1177],[110.3413,-7.1161],[110.3368,-7.1151],[110.3348,-7.1096],[110.3296,-7.1085],[110.3272,-7.1096],[110.3296,-7.1078],[110.3282,-7.1067],[110.3298,-7.1047],[110.3283,-7.1031],[110.331,-7.0994],[110.3326,-7.0997],[110.3329,-7.1038],[110.3368,-7.1044],[110.3448,-7.097]]]}},{"type":"Feature","properties":{"name":"Medono","name_en":"Medono","admin_level":"7","osm_id":""},"geometry":{"type":"Polygon","coordinates":[[[110.3347,-7.1313],[110.3383,-7.1269],[110.3413,-7.1301],[110.3429,-7.1264],[110.3452,-7.1291],[110.3449,-7.1314],[110.35,-7.1339],[110.3485,-7.1479],[110.3473,-7.1485],[110.345,-7.1451],[110.3428,-7.1489],[110.3411,-7.148],[110.3358,-7.1409],[110.3347,-7.1313]]]}},{"type":"Feature","properties":{"name":"Metesih","name_en":"Metesih","admin_level":"7","osm_id":""},"geometry":{"type":"Polygon","coordinates":[[[110.2693,-7.0954],[110.2651,-7.0951],[110.2666,-7.0885],[110.2642,-7.0857],[110.2668,-7.0835],[110.2671,-7.0758],[110.2692,-7.0745],[110.2696,-7.071],[110.2717,-7.071],[110.2729,-7.0736],[110.2803,-7.0716],[110.2911,-7.0729],[110.2999,-7.0718],[110.3016,-7.0736],[110.3032,-7.079],[110.3011,-7.0795],[110.3028,-7.0814],[110.3018,-7.0827],[110.2903,-7.085],[110.283,-7.0912],[110.2754,-7.0922],[110.2693,-7.0954]]]}},{"type":"Feature","properties":{"name":"Ngabean","name_en":"Ngabean","admin_level":"7","osm_id":""},"geometry":{"type":"Polygon","coordinates":[[[110.2957,-7.103],[110.3033,-7.0971],[110.3051,-7.1014],[110.3102,-7.103],[110.3132,-7.1063],[110.3156,-7.115],[110.3144,-7.1228],[110.3097,-7.1143],[110.3065,-7.1132],[110.303,-7.1138],[110.3034,-7.1165],[110.3007,-7.1173],[110.3027,-7.1195],[110.3018,-7.1205],[110.2991,-7.1184],[110.2974,-7.1191],[110.2914,-7.109],[110.2957,-7.103]]]}},{"type":"Feature","properties":{"name":"Pasigitan","name_en":"Pasigitan","admin_level":"7","osm_id":""},"geometry":{"type":"Polygon","coordinates":[[[110.3276,-7.1209],[110.3291,-7.1199],[110.3273,-7.1185],[110.3265,-7.1121],[110.3296,-7.1085],[110.3348,-7.1096],[110.3368,-7.1151],[110.3413,-7.1161],[110.3414,-7.1177],[110.3431,-7.1142],[110.3487,-7.1154],[110.3485,-7.1193],[110.3525,-7.1222],[110.351,-7.1324],[110.353,-7.1368],[110.3519,-7.1466],[110.3484,-7.152],[110.35,-7.1339],[110.3449,-7.1314],[110.3452,-7.1291],[110.3429,-7.1264],[110.3413,-7.1301],[110.3383,-7.1269],[110.3347,-7.1313],[110.3325,-7.1258],[110.3297,-7.1263],[110.3276,-7.1209]]]}},{"type":"Feature","properties":{"name":"Puguh","name_en":"Puguh","admin_level":"7","osm_id":""},"geometry":{"type":"Polygon","coordinates":[[[110.3157,-7.1197],[110.3205,-7.1207],[110.3249,-7.1186],[110.3283,-7.122],[110.3297,-7.1263],[110.3274,-7.1259],[110.3271,-7.1282],[110.3247,-7.1268],[110.3175,-7.1275],[110.3143,-7.1226],[110.3157,-7.1197]]]}},{"type":"Feature","properties":{"name":"Purwogondo","name_en":"Purwogondo","admin_level":"7","osm_id":""},"geometry":{"type":"Polygon","coordinates":[[[110.2615,-7.1328],[110.2612,-7.1301],[110.27,-7.1264],[110.2733,-7.1264],[110.278,-7.1297],[110.2813,-7.1292],[110.285,-7.1318],[110.2834,-7.1376],[110.2877,-7.1371],[110.2883,-7.1411],[110.2931,-7.1421],[110.2966,-7.1451],[110.2941,-7.1454],[110.2927,-7.1481],[110.2826,-7.1441],[110.2798,-7.1448],[110.2798,-7.1432],[110.277,-7.1422],[110.2717,-7.142],[110.2662,-7.1347],[110.2615,-7.1328]]]}},{"type":"Feature","properties":{"name":"Salamsari","name_en":"Salamsari","admin_level":"7","osm_id":""},"geometry":{"type":"Polygon","coordinates":[[[110.2707,-7.1223],[110.27,-7.1197],[110.272,-7.1182],[110.2727,-7.1091],[110.2786,-7.1061],[110.2805,-7.1121],[110.2853,-7.1141],[110.2875,-7.1215],[110.2788,-7.1194],[110.2768,-7.1198],[110.2786,-7.1218],[110.2776,-7.124],[110.2733,-7.1216],[110.2707,-7.1223]]]}},{"type":"Feature","properties":{"name":"Tampingan","name_en":"Tampingan","admin_level":"7","osm_id":""},"geometry":{"type":"Polygon","coordinates":[[[110.2787,-7.1067],[110.2816,-7.1099],[110.281,-7.1062],[110.279,-7.1048],[110.2822,-7.1013],[110.286,-7.1004],[110.2891,-7.0964],[110.2924,-7.0963],[110.2957,-7.103],[110.2918,-7.1082],[110.2859,-7.1113],[110.2853,-7.1146],[110.2805,-7.1121],[110.2787,-7.1067]]]}},{"type":"Feature","properties":{"name":"Trisobo","name_en":"Trisobo","admin_level":"7","osm_id":""},"geometry":{"type":"Polygon","coordinates":[[[110.3016,-7.0736],[110.2999,-7.0718],[110.2911,-7.0729],[110.2803,-7.0716],[110.2729,-7.0736],[110.2706,-7.0707],[110.2686,-7.0747],[110.2712,-7.0644],[110.273,-7.0628],[110.2722,-7.0557],[110.275,-7.0553],[110.2745,-7.051],[110.2832,-7.0494],[110.2858,-7.0522],[110.2877,-7.0505],[110.2927,-7.052],[110.2945,-7.0542],[110.292,-7.0556],[110.3008,-7.0646],[110.2992,-7.0676],[110.3014,-7.0684],[110.3016,-7.0736]]]}}]}