{"type":"FeatureCollection","metadata":{"parent_osm_id":"gid_IDN_32_18_17_1","parent_name":"TelukDalam","parent_name_1":"SumateraUtara","parent_gid":"IDN.32.18.17_1","parent_level":"6","child_level":"7","count":12,"source":"GADM 4.1","generated":"2026-05-09"},"features":[{"type":"Feature","properties":{"name":"Bawodobara","name_en":"Bawodobara","admin_level":"7","osm_id":""},"geometry":{"type":"Polygon","coordinates":[[[97.8338,0.5926],[97.8326,0.5957],[97.834,0.5969],[97.8322,0.5986],[97.8341,0.6026],[97.8326,0.6109],[97.8391,0.6107],[97.8411,0.6118],[97.84,0.6158],[97.841,0.6165],[97.8546,0.6213],[97.862,0.6115],[97.8561,0.6096],[97.8553,0.6068],[97.8503,0.6018],[97.8387,0.5965],[97.8338,0.5926]]]}},{"type":"Feature","properties":{"name":"Bawolowalani","name_en":"Bawolowalani","admin_level":"7","osm_id":""},"geometry":{"type":"Polygon","coordinates":[[[97.8336,0.5932],[97.8341,0.5869],[97.8373,0.5792],[97.8316,0.5774],[97.8212,0.5795],[97.8161,0.5773],[97.8172,0.5688],[97.8105,0.5694],[97.8073,0.5863],[97.8148,0.5899],[97.8269,0.5906],[97.8336,0.5932]]]}},{"type":"Feature","properties":{"name":"Bawonifaoso","name_en":"Bawonifaoso","admin_level":"7","osm_id":""},"geometry":{"type":"Polygon","coordinates":[[[97.8338,0.5926],[97.8387,0.5965],[97.8503,0.6018],[97.8553,0.6068],[97.8558,0.6043],[97.8586,0.6037],[97.8617,0.6001],[97.8616,0.5972],[97.8634,0.5953],[97.8587,0.5939],[97.8527,0.5883],[97.8454,0.5741],[97.8367,0.5702],[97.8381,0.5624],[97.8367,0.5584],[97.8294,0.5598],[97.8323,0.5655],[97.8278,0.5653],[97.8264,0.5677],[97.8259,0.5778],[97.8316,0.5774],[97.8373,0.5792],[97.8341,0.5869],[97.8338,0.5926]]]}},{"type":"Feature","properties":{"name":"Bawozaua","name_en":"Bawozaua","admin_level":"7","osm_id":""},"geometry":{"type":"Polygon","coordinates":[[[97.8553,0.6068],[97.8561,0.6096],[97.862,0.6115],[97.8691,0.6015],[97.8688,0.599],[97.8634,0.5953],[97.8616,0.5972],[97.8617,0.6001],[97.8586,0.6037],[97.8558,0.6043],[97.8553,0.6068]]]}},{"type":"Feature","properties":{"name":"Hilifalago","name_en":"Hilifalago","admin_level":"7","osm_id":""},"geometry":{"type":"Polygon","coordinates":[[[97.8487,0.6714],[97.8589,0.6738],[97.8661,0.6697],[97.8645,0.6603],[97.8565,0.6407],[97.856,0.6335],[97.8581,0.6268],[97.8612,0.6242],[97.84,0.6158],[97.8432,0.6221],[97.8399,0.6362],[97.8403,0.6435],[97.8458,0.6573],[97.8487,0.6714]]]}},{"type":"Feature","properties":{"name":"Hiliganowo","name_en":"Hiliganowo","admin_level":"7","osm_id":""},"geometry":{"type":"Polygon","coordinates":[[[97.862,0.6115],[97.8546,0.6213],[97.8569,0.6222],[97.8663,0.6204],[97.884,0.6063],[97.8786,0.6012],[97.8688,0.599],[97.8691,0.6015],[97.862,0.6115]]]}},{"type":"Feature","properties":{"name":"Hiligeho","name_en":"Hiligeho","admin_level":"7","osm_id":""},"geometry":{"type":"Polygon","coordinates":[[[97.786,0.6005],[97.8015,0.5993],[97.8041,0.5912],[97.8032,0.5871],[97.8073,0.5863],[97.8089,0.5801],[97.8106,0.5696],[97.8073,0.5636],[97.8088,0.5594],[97.8048,0.5576],[97.8038,0.5596],[97.7992,0.5583],[97.798,0.5558],[97.7998,0.5525],[97.7977,0.5504],[97.7944,0.5518],[97.7937,0.5564],[97.7956,0.5594],[97.7935,0.5617],[97.7956,0.5676],[97.7928,0.5707],[97.7958,0.5704],[97.7969,0.5687],[97.7973,0.5713],[97.7963,0.5713],[97.7979,0.5746],[97.7964,0.5785],[97.7934,0.5794],[97.794,0.5811],[97.7918,0.5826],[97.7937,0.5838],[97.7926,0.5845],[97.7955,0.5907],[97.792,0.5938],[97.7913,0.5925],[97.7893,0.5934],[97.786,0.6005]]]}},{"type":"Feature","properties":{"name":"Hilimondregeraya","name_en":"Hilimondregeraya","admin_level":"7","osm_id":""},"geometry":{"type":"Polygon","coordinates":[[[97.8071,0.6186],[97.7988,0.6248],[97.8107,0.6258],[97.8215,0.6339],[97.8333,0.6237],[97.84,0.6158],[97.8411,0.6118],[97.8351,0.6098],[97.8226,0.6157],[97.8136,0.616],[97.8071,0.6186]]]}},{"type":"Feature","properties":{"name":"Hilinamozaua","name_en":"Hilinamozaua","admin_level":"7","osm_id":""},"geometry":{"type":"Polygon","coordinates":[[[97.819,0.6545],[97.8238,0.6549],[97.8296,0.6602],[97.833,0.6664],[97.8334,0.6729],[97.8453,0.6702],[97.8487,0.6714],[97.8458,0.6573],[97.8403,0.6435],[97.8399,0.6362],[97.8432,0.6221],[97.84,0.6158],[97.8215,0.6339],[97.8165,0.6499],[97.819,0.6545]]]}},{"type":"Feature","properties":{"name":"Hilisaootoniha","name_en":"Hilisaootoniha","admin_level":"7","osm_id":""},"geometry":{"type":"Polygon","coordinates":[[[97.8015,0.5993],[97.8045,0.6033],[97.8066,0.6031],[97.809,0.612],[97.8071,0.6186],[97.8136,0.616],[97.8226,0.6157],[97.8322,0.6122],[97.8341,0.6026],[97.8322,0.5986],[97.834,0.5969],[97.8326,0.5957],[97.8336,0.5932],[97.8269,0.5906],[97.8148,0.5899],[97.8052,0.5857],[97.8032,0.5871],[97.8041,0.5912],[97.8015,0.5993]]]}},{"type":"Feature","properties":{"name":"Hilitobara","name_en":"Hilitobara","admin_level":"7","osm_id":""},"geometry":{"type":"Polygon","coordinates":[[[97.8048,0.5576],[97.8062,0.5591],[97.8207,0.5617],[97.8184,0.5576],[97.8202,0.5548],[97.8216,0.5553],[97.822,0.5548],[97.8216,0.5532],[97.8279,0.5451],[97.8216,0.5432],[97.8149,0.5452],[97.8074,0.551],[97.8048,0.5576]]]}},{"type":"Feature","properties":{"name":"PasarTelukDalam","name_en":"PasarTelukDalam","admin_level":"7","osm_id":""},"geometry":{"type":"Polygon","coordinates":[[[97.8105,0.5694],[97.8172,0.5688],[97.8161,0.5773],[97.8212,0.5795],[97.8258,0.5783],[97.8266,0.5662],[97.8197,0.5677],[97.8207,0.5617],[97.8087,0.5596],[97.8073,0.5636],[97.8105,0.5694]]]}}]}