{"type":"FeatureCollection","metadata":{"parent_osm_id":"8154786","parent_name":"Sukorejo","parent_name_1":"JawaTimur","parent_gid":"IDN.11.29.21_1","parent_level":"6","child_level":"7","count":18,"source":"GADM 4.1","generated":"2026-05-09"},"features":[{"type":"Feature","properties":{"name":"Bangunrejo","name_en":"Bangunrejo","admin_level":"7","osm_id":""},"geometry":{"type":"Polygon","coordinates":[[[111.408,-7.8471],[111.394,-7.8457],[111.3874,-7.8492],[111.3876,-7.8369],[111.3831,-7.8287],[111.383,-7.8227],[111.3854,-7.8219],[111.3861,-7.824],[111.3906,-7.8262],[111.3904,-7.8294],[111.3929,-7.8311],[111.3937,-7.8292],[111.3954,-7.8317],[111.3981,-7.8318],[111.396,-7.8296],[111.3972,-7.8242],[111.4059,-7.8294],[111.4058,-7.8336],[111.4073,-7.8349],[111.4092,-7.8339],[111.4106,-7.8361],[111.4104,-7.8411],[111.4075,-7.8404],[111.4068,-7.8461],[111.408,-7.8471]]]}},{"type":"Feature","properties":{"name":"Gandukepuh","name_en":"Gandukepuh","admin_level":"7","osm_id":""},"geometry":{"type":"Polygon","coordinates":[[[111.4272,-7.8633],[111.4279,-7.8566],[111.4263,-7.8566],[111.4255,-7.8523],[111.4365,-7.8489],[111.4364,-7.8516],[111.4334,-7.8531],[111.4333,-7.8554],[111.4352,-7.8577],[111.4464,-7.8583],[111.4459,-7.8618],[111.4481,-7.863],[111.4483,-7.8663],[111.4468,-7.8688],[111.4485,-7.8714],[111.4456,-7.8716],[111.4445,-7.8671],[111.4425,-7.8671],[111.4433,-7.8699],[111.4414,-7.8695],[111.4416,-7.8669],[111.4375,-7.8669],[111.4375,-7.8653],[111.4389,-7.8653],[111.4378,-7.8615],[111.4272,-7.8633]]]}},{"type":"Feature","properties":{"name":"Gegeran","name_en":"Gegeran","admin_level":"7","osm_id":""},"geometry":{"type":"Polygon","coordinates":[[[111.3959,-7.8066],[111.3997,-7.7995],[111.3972,-7.7968],[111.3957,-7.7915],[111.3982,-7.7851],[111.4129,-7.7869],[111.4177,-7.7898],[111.4173,-7.7912],[111.4115,-7.7911],[111.4107,-7.7954],[111.4104,-7.7989],[111.4133,-7.7993],[111.4142,-7.8052],[111.4172,-7.8052],[111.4171,-7.8097],[111.4148,-7.8093],[111.4149,-7.8126],[111.4244,-7.8128],[111.4279,-7.8171],[111.4275,-7.8201],[111.42,-7.8171],[111.4171,-7.8182],[111.4167,-7.8217],[111.4127,-7.8209],[111.4127,-7.8151],[111.4085,-7.8095],[111.4063,-7.8094],[111.4054,-7.8133],[111.4039,-7.8109],[111.397,-7.8096],[111.3959,-7.8066]]]}},{"type":"Feature","properties":{"name":"GelangLor","name_en":"GelangLor","admin_level":"7","osm_id":""},"geometry":{"type":"Polygon","coordinates":[[[111.4473,-7.8141],[111.4468,-7.8228],[111.436,-7.8242],[111.4345,-7.8275],[111.4279,-7.8301],[111.4213,-7.827],[111.4203,-7.8248],[111.4156,-7.8237],[111.4118,-7.8281],[111.4099,-7.8242],[111.4102,-7.8174],[111.4133,-7.8176],[111.4127,-7.8209],[111.4167,-7.8217],[111.418,-7.8174],[111.4236,-7.8176],[111.4275,-7.8201],[111.4279,-7.8175],[111.4337,-7.8181],[111.4405,-7.8165],[111.4405,-7.8154],[111.4459,-7.8158],[111.446,-7.8141],[111.4473,-7.8141]]]}},{"type":"Feature","properties":{"name":"Golan","name_en":"Golan","admin_level":"7","osm_id":""},"geometry":{"type":"Polygon","coordinates":[[[111.4258,-7.8538],[111.4239,-7.8548],[111.4198,-7.8532],[111.4182,-7.8592],[111.4142,-7.8588],[111.4146,-7.8554],[111.4128,-7.8552],[111.4126,-7.8571],[111.4063,-7.8567],[111.4092,-7.8526],[111.407,-7.8506],[111.4072,-7.8424],[111.4091,-7.8421],[111.4079,-7.8457],[111.4103,-7.846],[111.4111,-7.8499],[111.4146,-7.8484],[111.4207,-7.849],[111.4258,-7.8538]]]}},{"type":"Feature","properties":{"name":"Kalimalang","name_en":"Kalimalang","admin_level":"7","osm_id":""},"geometry":{"type":"Polygon","coordinates":[[[111.4381,-7.8962],[111.437,-7.8992],[111.4343,-7.8985],[111.4346,-7.8966],[111.4297,-7.8971],[111.4303,-7.8925],[111.4349,-7.8934],[111.4357,-7.8904],[111.4374,-7.8906],[111.4382,-7.8851],[111.4402,-7.8853],[111.4404,-7.8868],[111.4386,-7.8932],[111.4433,-7.8952],[111.4419,-7.8975],[111.4381,-7.8962]]]}},{"type":"Feature","properties":{"name":"KarangloLor","name_en":"KarangloLor","admin_level":"7","osm_id":""},"geometry":{"type":"Polygon","coordinates":[[[111.4232,-7.866],[111.4269,-7.8657],[111.4272,-7.8633],[111.4332,-7.8616],[111.4332,-7.8656],[111.4376,-7.8656],[111.4375,-7.8687],[111.4344,-7.8695],[111.4338,-7.8721],[111.4374,-7.8715],[111.4373,-7.8732],[111.4256,-7.8737],[111.4247,-7.8702],[111.423,-7.8698],[111.4232,-7.866]]]}},{"type":"Feature","properties":{"name":"KedungBanteng","name_en":"KedungBanteng","admin_level":"7","osm_id":""},"geometry":{"type":"Polygon","coordinates":[[[111.4499,-7.779],[111.4507,-7.7812],[111.4483,-7.7862],[111.4495,-7.7897],[111.4464,-7.7916],[111.4433,-7.7903],[111.4394,-7.7911],[111.4354,-7.7882],[111.4173,-7.7912],[111.4177,-7.7898],[111.4089,-7.7855],[111.4053,-7.7867],[111.3982,-7.7851],[111.398,-7.7811],[111.4021,-7.7784],[111.4315,-7.7759],[111.4427,-7.7791],[111.4499,-7.779]]]}},{"type":"Feature","properties":{"name":"Kranggan","name_en":"Kranggan","admin_level":"7","osm_id":""},"geometry":{"type":"Polygon","coordinates":[[[111.4477,-7.8299],[111.4467,-7.8357],[111.4447,-7.8358],[111.444,-7.8334],[111.4416,-7.8337],[111.4418,-7.8358],[111.4381,-7.8369],[111.4381,-7.8328],[111.4425,-7.8325],[111.4425,-7.8306],[111.4337,-7.8314],[111.4313,-7.8298],[111.428,-7.8301],[111.4345,-7.8275],[111.436,-7.8242],[111.443,-7.8241],[111.4441,-7.8227],[111.4468,-7.8228],[111.4477,-7.8299]]]}},{"type":"Feature","properties":{"name":"Lengkong","name_en":"Lengkong","admin_level":"7","osm_id":""},"geometry":{"type":"Polygon","coordinates":[[[111.4454,-7.8362],[111.449,-7.841],[111.4499,-7.8454],[111.4439,-7.845],[111.4437,-7.8478],[111.4405,-7.8478],[111.4395,-7.8495],[111.4381,-7.848],[111.4286,-7.8511],[111.4298,-7.841],[111.4375,-7.8412],[111.4374,-7.8374],[111.4418,-7.8358],[111.4416,-7.8337],[111.444,-7.8334],[111.4454,-7.8362]]]}},{"type":"Feature","properties":{"name":"Morosari","name_en":"Morosari","admin_level":"7","osm_id":""},"geometry":{"type":"Polygon","coordinates":[[[111.4303,-7.8925],[111.4279,-7.891],[111.4313,-7.8918],[111.4319,-7.8895],[111.4335,-7.8895],[111.4337,-7.8798],[111.4239,-7.8823],[111.4256,-7.8737],[111.4331,-7.8762],[111.4355,-7.8746],[111.4344,-7.8777],[111.436,-7.8794],[111.4397,-7.8797],[111.4393,-7.8828],[111.4379,-7.8826],[111.4374,-7.8906],[111.4357,-7.8904],[111.4349,-7.8934],[111.4303,-7.8925]]]}},{"type":"Feature","properties":{"name":"Nambangrejo","name_en":"Nambangrejo","admin_level":"7","osm_id":""},"geometry":{"type":"Polygon","coordinates":[[[111.4506,-7.8447],[111.4538,-7.8516],[111.4521,-7.8531],[111.4475,-7.8529],[111.4492,-7.8552],[111.4472,-7.8619],[111.4459,-7.8618],[111.4461,-7.8582],[111.4352,-7.8577],[111.4333,-7.8554],[111.4334,-7.8531],[111.4364,-7.8516],[111.438,-7.848],[111.4395,-7.8495],[111.4405,-7.8478],[111.4437,-7.8478],[111.4439,-7.845],[111.4506,-7.8447]]]}},{"type":"Feature","properties":{"name":"Nampan","name_en":"Nampan","admin_level":"7","osm_id":""},"geometry":{"type":"Polygon","coordinates":[[[111.412,-7.8282],[111.4156,-7.8237],[111.4203,-7.8248],[111.4213,-7.827],[111.4278,-7.8301],[111.4313,-7.8298],[111.4337,-7.8314],[111.4425,-7.8306],[111.4425,-7.8325],[111.4381,-7.8328],[111.4376,-7.8368],[111.4402,-7.8371],[111.4374,-7.8374],[111.4375,-7.8412],[111.4323,-7.8414],[111.4326,-7.8355],[111.4277,-7.8329],[111.4269,-7.8305],[111.4198,-7.8305],[111.4173,-7.8286],[111.412,-7.8282]]]}},{"type":"Feature","properties":{"name":"Prajegan","name_en":"Prajegan","admin_level":"7","osm_id":""},"geometry":{"type":"Polygon","coordinates":[[[111.4268,-7.8149],[111.4244,-7.8128],[111.4149,-7.8126],[111.4148,-7.8093],[111.4171,-7.8097],[111.4172,-7.8052],[111.4142,-7.8052],[111.4133,-7.7993],[111.4104,-7.7989],[111.4115,-7.7911],[111.4227,-7.7907],[111.4232,-7.7894],[111.4354,-7.7882],[111.44,-7.7918],[111.4409,-7.7997],[111.4365,-7.8087],[111.4326,-7.8103],[111.4326,-7.8126],[111.4298,-7.8132],[111.4297,-7.8153],[111.4268,-7.8149]]]}},{"type":"Feature","properties":{"name":"Serangan","name_en":"Serangan","admin_level":"7","osm_id":""},"geometry":{"type":"Polygon","coordinates":[[[111.447,-7.8117],[111.4459,-7.8158],[111.4405,-7.8154],[111.4405,-7.8165],[111.4337,-7.8181],[111.4268,-7.8163],[111.4268,-7.8149],[111.4297,-7.8153],[111.4298,-7.8132],[111.4325,-7.8127],[111.4345,-7.8084],[111.4365,-7.8087],[111.4389,-7.8042],[111.4414,-7.7967],[111.4395,-7.791],[111.4464,-7.791],[111.4455,-7.7939],[111.4467,-7.8008],[111.4447,-7.8056],[111.447,-7.8117]]]}},{"type":"Feature","properties":{"name":"Sidorejo","name_en":"Sidorejo","admin_level":"7","osm_id":""},"geometry":{"type":"Polygon","coordinates":[[[111.3851,-7.822],[111.3825,-7.8215],[111.3818,-7.8191],[111.3905,-7.819],[111.3949,-7.8146],[111.3956,-7.8102],[111.4029,-7.8106],[111.4062,-7.8133],[111.4063,-7.8094],[111.4085,-7.8095],[111.4127,-7.8151],[111.4126,-7.8175],[111.4102,-7.8174],[111.4112,-7.8277],[111.4059,-7.8245],[111.4058,-7.8293],[111.3972,-7.8242],[111.396,-7.8296],[111.3977,-7.832],[111.3954,-7.8317],[111.3937,-7.8292],[111.3929,-7.8311],[111.3909,-7.8301],[111.3906,-7.8262],[111.3861,-7.824],[111.3851,-7.822]]]}},{"type":"Feature","properties":{"name":"Sragi","name_en":"Sragi","admin_level":"7","osm_id":""},"geometry":{"type":"Polygon","coordinates":[[[111.4453,-7.8893],[111.444,-7.8938],[111.4386,-7.8932],[111.4404,-7.8868],[111.4402,-7.8853],[111.4376,-7.8851],[111.4397,-7.8797],[111.436,-7.8789],[111.4396,-7.8755],[111.4376,-7.875],[111.4387,-7.8718],[111.4338,-7.8721],[111.4344,-7.8695],[111.4393,-7.869],[111.4413,-7.8707],[111.4427,-7.8782],[111.4469,-7.8794],[111.4427,-7.88],[111.4431,-7.8892],[111.4453,-7.8893]]]}},{"type":"Feature","properties":{"name":"Sukorejo","name_en":"Sukorejo","admin_level":"7","osm_id":""},"geometry":{"type":"Polygon","coordinates":[[[111.4072,-7.8424],[111.4075,-7.8404],[111.41,-7.8417],[111.4108,-7.839],[111.4102,-7.8347],[111.4058,-7.8336],[111.4059,-7.8245],[111.4198,-7.8305],[111.4269,-7.8305],[111.4277,-7.8329],[111.4326,-7.8355],[111.4323,-7.8414],[111.4298,-7.841],[111.4287,-7.8446],[111.4286,-7.8511],[111.4257,-7.8532],[111.4207,-7.849],[111.4146,-7.8484],[111.4111,-7.8499],[111.4103,-7.846],[111.4079,-7.8457],[111.4091,-7.8421],[111.4072,-7.8424]]]}}]}