{"type":"FeatureCollection","metadata":{"parent_osm_id":"gid_IDN_21_2_1_1","parent_name":"AtambuaBarat","parent_name_1":"NusaTenggaraTimur","parent_gid":"IDN.21.2.1_1","parent_level":"6","child_level":"7","count":4,"source":"GADM 4.1","generated":"2026-05-09"},"features":[{"type":"Feature","properties":{"name":"Beirafu","name_en":"Beirafu","admin_level":"7","osm_id":""},"geometry":{"type":"Polygon","coordinates":[[[124.8893,-9.1025],[124.8898,-9.108],[124.8919,-9.1098],[124.8807,-9.11],[124.8797,-9.1057],[124.8812,-9.102],[124.8893,-9.1025]]]}},{"type":"Feature","properties":{"name":"Berdao","name_en":"Berdao","admin_level":"7","osm_id":""},"geometry":{"type":"Polygon","coordinates":[[[124.8919,-9.1086],[124.8898,-9.108],[124.8893,-9.1025],[124.8913,-9.1005],[124.8951,-9.1001],[124.8957,-9.1057],[124.8919,-9.1086]]]}},{"type":"Feature","properties":{"name":"Tulamalae","name_en":"Tulamalae","admin_level":"7","osm_id":""},"geometry":{"type":"Polygon","coordinates":[[[124.8893,-9.1025],[124.8812,-9.102],[124.8811,-9.0993],[124.8828,-9.0979],[124.8804,-9.0964],[124.8806,-9.0943],[124.8828,-9.0923],[124.8908,-9.0919],[124.8922,-9.0942],[124.8946,-9.0944],[124.8951,-9.1001],[124.8913,-9.1005],[124.8893,-9.1025]]]}},{"type":"Feature","properties":{"name":"Umanen","name_en":"Umanen","admin_level":"7","osm_id":""},"geometry":{"type":"Polygon","coordinates":[[[124.8812,-9.102],[124.8797,-9.1057],[124.8809,-9.1098],[124.876,-9.1104],[124.8711,-9.1073],[124.8723,-9.1033],[124.8663,-9.0977],[124.862,-9.0998],[124.8628,-9.1035],[124.8646,-9.1046],[124.8607,-9.1076],[124.8533,-9.0943],[124.851,-9.0869],[124.8619,-9.0817],[124.875,-9.0808],[124.8762,-9.0827],[124.8791,-9.0831],[124.8846,-9.0793],[124.8884,-9.0787],[124.8882,-9.0873],[124.8854,-9.0898],[124.887,-9.0927],[124.8829,-9.0922],[124.8806,-9.0943],[124.8804,-9.0964],[124.8828,-9.0979],[124.8811,-9.0993],[124.8812,-9.102]]]}}]}