{"type":"FeatureCollection","metadata":{"parent_osm_id":"gid_IDN_11_2_21_1","parent_name":"Srono","parent_name_1":"JawaTimur","parent_gid":"IDN.11.2.21_1","parent_level":"6","child_level":"7","count":10,"source":"GADM 4.1","generated":"2026-05-09"},"features":[{"type":"Feature","properties":{"name":"Bagorejo","name_en":"Bagorejo","admin_level":"7","osm_id":""},"geometry":{"type":"Polygon","coordinates":[[[114.3211,-8.4176],[114.3051,-8.4102],[114.3022,-8.4054],[114.2989,-8.4071],[114.2883,-8.4012],[114.2871,-8.3992],[114.2889,-8.3925],[114.2924,-8.3878],[114.2994,-8.3887],[114.301,-8.3845],[114.3135,-8.3901],[114.3151,-8.3934],[114.3232,-8.3952],[114.3245,-8.3995],[114.3211,-8.4176]]]}},{"type":"Feature","properties":{"name":"Kebaman","name_en":"Kebaman","admin_level":"7","osm_id":""},"geometry":{"type":"Polygon","coordinates":[[[114.2714,-8.418],[114.2677,-8.4154],[114.2642,-8.4152],[114.2625,-8.4101],[114.2563,-8.4088],[114.25,-8.4025],[114.2424,-8.4007],[114.2374,-8.3969],[114.2415,-8.3899],[114.2447,-8.3874],[114.2442,-8.3831],[114.2461,-8.3803],[114.2475,-8.3799],[114.2545,-8.3842],[114.2689,-8.3975],[114.2738,-8.3994],[114.2785,-8.4038],[114.2781,-8.4056],[114.282,-8.4095],[114.2834,-8.4142],[114.2752,-8.4164],[114.2745,-8.4186],[114.2714,-8.418]]]}},{"type":"Feature","properties":{"name":"Kepundungan","name_en":"Kepundungan","admin_level":"7","osm_id":""},"geometry":{"type":"Polygon","coordinates":[[[114.2374,-8.3969],[114.2331,-8.3968],[114.2313,-8.3923],[114.2267,-8.3933],[114.2272,-8.3951],[114.2243,-8.393],[114.2284,-8.3809],[114.2233,-8.3786],[114.2226,-8.3749],[114.226,-8.3714],[114.2257,-8.366],[114.2292,-8.3657],[114.2294,-8.3602],[114.2342,-8.3631],[114.2448,-8.3792],[114.2447,-8.3874],[114.2415,-8.3899],[114.2374,-8.3969]]]}},{"type":"Feature","properties":{"name":"ParijatahKulon","name_en":"ParijatahKulon","admin_level":"7","osm_id":""},"geometry":{"type":"Polygon","coordinates":[[[114.205,-8.3439],[114.2174,-8.3297],[114.2183,-8.3326],[114.2203,-8.3334],[114.2212,-8.3381],[114.2255,-8.339],[114.2264,-8.3413],[114.2304,-8.3421],[114.2349,-8.3467],[114.2431,-8.3481],[114.241,-8.3489],[114.2343,-8.3632],[114.2208,-8.3537],[114.2119,-8.3526],[114.205,-8.3439]]]}},{"type":"Feature","properties":{"name":"ParijatahWetan","name_en":"ParijatahWetan","admin_level":"7","osm_id":""},"geometry":{"type":"Polygon","coordinates":[[[114.2454,-8.3486],[114.2508,-8.3555],[114.2571,-8.3554],[114.2577,-8.3535],[114.2612,-8.3533],[114.2639,-8.3554],[114.2592,-8.3677],[114.2521,-8.369],[114.2456,-8.367],[114.2441,-8.3687],[114.2471,-8.3765],[114.2449,-8.3818],[114.2447,-8.3787],[114.2343,-8.3632],[114.241,-8.3489],[114.2454,-8.3486]]]}},{"type":"Feature","properties":{"name":"Rejoagung","name_en":"Rejoagung","admin_level":"7","osm_id":""},"geometry":{"type":"Polygon","coordinates":[[[114.3213,-8.37],[114.3161,-8.3852],[114.3213,-8.3946],[114.3151,-8.3934],[114.3135,-8.3901],[114.301,-8.3845],[114.3057,-8.3738],[114.305,-8.3721],[114.3074,-8.3639],[114.3105,-8.3677],[114.3111,-8.3656],[114.3136,-8.3646],[114.3158,-8.3676],[114.3178,-8.3672],[114.3187,-8.3695],[114.3202,-8.3685],[114.3213,-8.37]]]}},{"type":"Feature","properties":{"name":"Sukomaju","name_en":"Sukomaju","admin_level":"7","osm_id":""},"geometry":{"type":"Polygon","coordinates":[[[114.2699,-8.3979],[114.262,-8.3917],[114.26,-8.3883],[114.2465,-8.38],[114.2471,-8.3764],[114.2441,-8.3687],[114.2456,-8.367],[114.2521,-8.369],[114.2563,-8.3673],[114.259,-8.371],[114.2644,-8.3744],[114.2719,-8.3758],[114.2779,-8.3833],[114.2738,-8.3949],[114.2699,-8.3979]]]}},{"type":"Feature","properties":{"name":"Sukonatar","name_en":"Sukonatar","admin_level":"7","osm_id":""},"geometry":{"type":"Polygon","coordinates":[[[114.2989,-8.4071],[114.2979,-8.4107],[114.2962,-8.4096],[114.2954,-8.4116],[114.2898,-8.4065],[114.2876,-8.4086],[114.2838,-8.408],[114.2844,-8.4104],[114.2832,-8.4118],[114.2781,-8.4056],[114.2785,-8.4038],[114.2699,-8.3979],[114.2738,-8.3949],[114.2801,-8.3791],[114.2845,-8.3858],[114.2924,-8.3878],[114.2889,-8.3925],[114.2871,-8.3992],[114.2882,-8.4011],[114.2989,-8.4071]]]}},{"type":"Feature","properties":{"name":"Sumbersari","name_en":"Sumbersari","admin_level":"7","osm_id":""},"geometry":{"type":"Polygon","coordinates":[[[114.2243,-8.393],[114.2114,-8.3833],[114.2073,-8.3819],[114.2057,-8.3837],[114.2031,-8.381],[114.2039,-8.3798],[114.2024,-8.3792],[114.205,-8.375],[114.2039,-8.3681],[114.2024,-8.3645],[114.1973,-8.3631],[114.1957,-8.3566],[114.191,-8.3485],[114.1953,-8.3478],[114.1981,-8.3439],[114.2048,-8.3437],[114.2119,-8.3526],[114.2207,-8.3536],[114.2269,-8.3568],[114.2294,-8.3602],[114.2292,-8.3657],[114.2257,-8.366],[114.226,-8.3714],[114.2226,-8.3749],[114.2233,-8.3786],[114.2284,-8.3809],[114.2243,-8.393]]]}},{"type":"Feature","properties":{"name":"Wonosobo","name_en":"Wonosobo","admin_level":"7","osm_id":""},"geometry":{"type":"Polygon","coordinates":[[[114.2639,-8.3554],[114.2708,-8.3585],[114.2749,-8.3553],[114.2863,-8.3603],[114.2967,-8.3584],[114.2987,-8.3618],[114.3023,-8.3614],[114.3038,-8.3645],[114.3074,-8.3639],[114.305,-8.3721],[114.3057,-8.3738],[114.2994,-8.3887],[114.2848,-8.386],[114.2801,-8.3791],[114.2779,-8.3833],[114.2719,-8.3758],[114.2644,-8.3744],[114.259,-8.371],[114.2574,-8.3686],[114.2602,-8.3665],[114.2639,-8.3554]]]}}]}