{"type":"FeatureCollection","metadata":{"parent_osm_id":"gid_IDN_8_3_4_1","parent_name":"Jelutung","parent_name_1":"Jambi","parent_gid":"IDN.8.3.4_1","parent_level":"6","child_level":"7","count":7,"source":"GADM 4.1","generated":"2026-05-08"},"features":[{"type":"Feature","properties":{"name":"CempakaPutih","name_en":"CempakaPutih","admin_level":"7","osm_id":""},"geometry":{"type":"Polygon","coordinates":[[[103.6151,-1.609],[103.6153,-1.6105],[103.6119,-1.6106],[103.6104,-1.6052],[103.6117,-1.6007],[103.6162,-1.5994],[103.6183,-1.6023],[103.6151,-1.609]]]}},{"type":"Feature","properties":{"name":"HandilJaya","name_en":"HandilJaya","admin_level":"7","osm_id":""},"geometry":{"type":"Polygon","coordinates":[[[103.6243,-1.6309],[103.6234,-1.6358],[103.6245,-1.6387],[103.6165,-1.636],[103.6119,-1.637],[103.6129,-1.6326],[103.6075,-1.626],[103.6101,-1.6228],[103.6151,-1.631],[103.6243,-1.6309]]]}},{"type":"Feature","properties":{"name":"Jelutung","name_en":"Jelutung","admin_level":"7","osm_id":""},"geometry":{"type":"Polygon","coordinates":[[[103.6193,-1.6097],[103.6235,-1.6164],[103.6207,-1.6192],[103.6191,-1.6181],[103.6146,-1.6199],[103.6118,-1.6239],[103.6096,-1.6233],[103.6081,-1.6214],[103.6097,-1.6173],[103.6057,-1.6171],[103.6063,-1.6154],[103.6119,-1.6106],[103.6153,-1.6105],[103.6151,-1.609],[103.6193,-1.6097]]]}},{"type":"Feature","properties":{"name":"KebunHandil","name_en":"KebunHandil","admin_level":"7","osm_id":""},"geometry":{"type":"Polygon","coordinates":[[[103.6217,-1.618],[103.6244,-1.6202],[103.622,-1.6228],[103.6217,-1.624],[103.6239,-1.6252],[103.6222,-1.6283],[103.6251,-1.6296],[103.6227,-1.6313],[103.6151,-1.631],[103.6117,-1.6249],[103.6126,-1.6219],[103.6178,-1.6184],[103.6207,-1.6192],[103.6217,-1.618]]]}},{"type":"Feature","properties":{"name":"LebakBandung","name_en":"LebakBandung","admin_level":"7","osm_id":""},"geometry":{"type":"Polygon","coordinates":[[[103.6115,-1.6012],[103.6104,-1.6061],[103.6119,-1.6106],[103.6039,-1.618],[103.6052,-1.6066],[103.6037,-1.6022],[103.608,-1.5987],[103.6115,-1.6012]]]}},{"type":"Feature","properties":{"name":"PayoLebar","name_en":"PayoLebar","admin_level":"7","osm_id":""},"geometry":{"type":"Polygon","coordinates":[[[103.6037,-1.6022],[103.6052,-1.6066],[103.6044,-1.6165],[103.5981,-1.6177],[103.5986,-1.6126],[103.597,-1.6097],[103.6037,-1.6022]]]}},{"type":"Feature","properties":{"name":"TalangJauh","name_en":"TalangJauh","admin_level":"7","osm_id":""},"geometry":{"type":"Polygon","coordinates":[[[103.6231,-1.6019],[103.6193,-1.6071],[103.6193,-1.6097],[103.6151,-1.609],[103.6151,-1.6069],[103.6204,-1.5993],[103.6231,-1.6019]]]}}]}