{"type":"FeatureCollection","metadata":{"parent_osm_id":"gid_IDN_11_20_15_1","parent_name":"Wungu","parent_name_1":"JawaTimur","parent_gid":"IDN.11.20.15_1","parent_level":"6","child_level":"7","count":15,"source":"GADM 4.1","generated":"2026-05-07"},"features":[{"type":"Feature","properties":{"name":"Bantengan","name_en":"Bantengan","admin_level":"7","osm_id":""},"geometry":{"type":"Polygon","coordinates":[[[111.5502,-7.6359],[111.5508,-7.6341],[111.5532,-7.6337],[111.5525,-7.6293],[111.5555,-7.6285],[111.5571,-7.6358],[111.5614,-7.638],[111.5627,-7.636],[111.5622,-7.6383],[111.5642,-7.6396],[111.566,-7.6386],[111.567,-7.6401],[111.5675,-7.639],[111.5702,-7.6402],[111.5715,-7.6445],[111.5805,-7.6477],[111.5865,-7.6543],[111.5823,-7.6517],[111.5755,-7.6541],[111.574,-7.6509],[111.5649,-7.6513],[111.5603,-7.6442],[111.5572,-7.6438],[111.5569,-7.6419],[111.5515,-7.6398],[111.5502,-7.6359]]]}},{"type":"Feature","properties":{"name":"Brumbun","name_en":"Brumbun","admin_level":"7","osm_id":""},"geometry":{"type":"Polygon","coordinates":[[[111.5951,-7.6899],[111.5975,-7.6902],[111.5984,-7.6879],[111.6014,-7.6876],[111.6036,-7.6892],[111.6069,-7.6867],[111.609,-7.6883],[111.6106,-7.6872],[111.6119,-7.6889],[111.6101,-7.6906],[111.6089,-7.6963],[111.6057,-7.6983],[111.5975,-7.6936],[111.5931,-7.6946],[111.5883,-7.6923],[111.5951,-7.6899]]]}},{"type":"Feature","properties":{"name":"Hutan","name_en":"Hutan","admin_level":"7","osm_id":""},"geometry":{"type":"Polygon","coordinates":[[[111.6363,-7.6495],[111.6395,-7.6568],[111.644,-7.6605],[111.6446,-7.673],[111.6401,-7.69],[111.6382,-7.6876],[111.6357,-7.6888],[111.635,-7.6842],[111.6289,-7.6791],[111.6272,-7.6791],[111.6269,-7.6812],[111.6235,-7.6814],[111.6241,-7.6773],[111.6214,-7.6734],[111.6189,-7.6729],[111.6171,-7.6754],[111.6189,-7.6782],[111.6181,-7.6805],[111.6132,-7.6778],[111.6129,-7.6796],[111.6113,-7.6792],[111.6008,-7.6713],[111.5991,-7.6729],[111.6014,-7.6758],[111.5959,-7.6725],[111.5846,-7.6514],[111.581,-7.6496],[111.5805,-7.6477],[111.5778,-7.6463],[111.5768,-7.6473],[111.5777,-7.6433],[111.5809,-7.637],[111.5832,-7.6368],[111.5827,-7.6345],[111.5854,-7.6296],[111.5894,-7.6328],[111.5936,-7.6339],[111.6005,-7.6422],[111.6077,-7.642],[111.6099,-7.6395],[111.6059,-7.634],[111.5996,-7.6302],[111.5965,-7.6266],[111.5971,-7.6255],[111.5914,-7.6207],[111.5872,-7.6192],[111.5922,-7.6144],[111.5922,-7.6127],[111.5888,-7.6106],[111.5925,-7.6111],[111.5994,-7.6062],[111.6011,-7.6069],[111.6029,-7.6125],[111.6133,-7.6215],[111.6177,-7.631],[111.6245,-7.6361],[111.6336,-7.6501],[111.6363,-7.6495]]]}},{"type":"Feature","properties":{"name":"Karangrejo","name_en":"Karangrejo","admin_level":"7","osm_id":""},"geometry":{"type":"Polygon","coordinates":[[[111.6014,-7.6758],[111.5993,-7.6789],[111.592,-7.6775],[111.5855,-7.6739],[111.584,-7.6699],[111.5777,-7.665],[111.5745,-7.667],[111.5721,-7.6662],[111.5745,-7.6624],[111.5757,-7.6627],[111.5752,-7.6585],[111.5794,-7.6594],[111.5837,-7.6546],[111.5869,-7.6553],[111.5958,-7.6723],[111.6014,-7.6758]]]}},{"type":"Feature","properties":{"name":"Kresek","name_en":"Kresek","admin_level":"7","osm_id":""},"geometry":{"type":"Polygon","coordinates":[[[111.6353,-7.7167],[111.6293,-7.7145],[111.625,-7.7083],[111.6237,-7.7085],[111.6231,-7.7058],[111.6187,-7.7045],[111.6171,-7.7005],[111.6114,-7.7023],[111.6085,-7.7003],[111.6071,-7.7013],[111.6057,-7.6983],[111.6089,-7.6963],[111.6112,-7.6893],[111.6219,-7.6943],[111.6417,-7.6973],[111.641,-7.6995],[111.644,-7.7069],[111.6396,-7.7149],[111.6353,-7.7167]]]}},{"type":"Feature","properties":{"name":"Mojopurno","name_en":"Mojopurno","admin_level":"7","osm_id":""},"geometry":{"type":"Polygon","coordinates":[[[111.5491,-7.6458],[111.5524,-7.6398],[111.5569,-7.6419],[111.5572,-7.6438],[111.5603,-7.6442],[111.5649,-7.6513],[111.574,-7.6509],[111.5755,-7.6541],[111.5823,-7.6517],[111.5859,-7.6549],[111.5835,-7.6547],[111.5794,-7.6594],[111.5752,-7.6585],[111.5757,-7.6627],[111.5595,-7.6572],[111.5548,-7.6529],[111.5501,-7.6515],[111.5484,-7.6488],[111.55,-7.6464],[111.5491,-7.6458]]]}},{"type":"Feature","properties":{"name":"Mojorayung","name_en":"Mojorayung","admin_level":"7","osm_id":""},"geometry":{"type":"Polygon","coordinates":[[[111.5766,-7.6466],[111.5715,-7.6445],[111.5702,-7.6402],[111.5622,-7.6383],[111.5632,-7.6362],[111.5614,-7.638],[111.5571,-7.6358],[111.5557,-7.6302],[111.5567,-7.6263],[111.5626,-7.6255],[111.5642,-7.6227],[111.5661,-7.6252],[111.5675,-7.6219],[111.5751,-7.6258],[111.5752,-7.6278],[111.5837,-7.633],[111.5832,-7.6368],[111.5802,-7.6381],[111.5766,-7.6466]]]}},{"type":"Feature","properties":{"name":"Munggut","name_en":"Munggut","admin_level":"7","osm_id":""},"geometry":{"type":"Polygon","coordinates":[[[111.5424,-7.6573],[111.5415,-7.6518],[111.5388,-7.6511],[111.5397,-7.6463],[111.546,-7.6476],[111.5489,-7.6457],[111.55,-7.6464],[111.5484,-7.6488],[111.5501,-7.6515],[111.5548,-7.6529],[111.5595,-7.6572],[111.5745,-7.6624],[111.5745,-7.6639],[111.5706,-7.6673],[111.5666,-7.6666],[111.5597,-7.6615],[111.5567,-7.6624],[111.5535,-7.661],[111.5544,-7.6598],[111.5452,-7.6574],[111.5439,-7.6545],[111.5424,-7.6573]]]}},{"type":"Feature","properties":{"name":"Nglambangan","name_en":"Nglambangan","admin_level":"7","osm_id":""},"geometry":{"type":"Polygon","coordinates":[[[111.5727,-7.6133],[111.573,-7.6087],[111.5761,-7.6087],[111.5779,-7.6047],[111.5807,-7.6029],[111.5844,-7.6042],[111.5813,-7.6095],[111.5896,-7.6115],[111.5922,-7.6141],[111.587,-7.6192],[111.5727,-7.6133]]]}},{"type":"Feature","properties":{"name":"Nglanduk","name_en":"Nglanduk","admin_level":"7","osm_id":""},"geometry":{"type":"Polygon","coordinates":[[[111.5567,-7.6137],[111.5586,-7.6082],[111.559,-7.611],[111.5696,-7.6144],[111.5705,-7.6177],[111.5752,-7.6173],[111.5749,-7.6197],[111.5799,-7.6211],[111.5844,-7.6193],[111.5864,-7.6202],[111.5887,-7.629],[111.5867,-7.6307],[111.5854,-7.6296],[111.5827,-7.6327],[111.5752,-7.6278],[111.5747,-7.6255],[111.5662,-7.6221],[111.561,-7.616],[111.5567,-7.6137]]]}},{"type":"Feature","properties":{"name":"Pilangrejo","name_en":"Pilangrejo","admin_level":"7","osm_id":""},"geometry":{"type":"Polygon","coordinates":[[[111.542,-7.6584],[111.5438,-7.6544],[111.5452,-7.6574],[111.5544,-7.6598],[111.5535,-7.661],[111.5567,-7.6624],[111.5597,-7.6615],[111.5638,-7.6652],[111.5706,-7.6673],[111.5731,-7.6693],[111.5729,-7.6761],[111.5657,-7.6741],[111.5636,-7.6717],[111.5604,-7.6721],[111.5604,-7.6748],[111.558,-7.6746],[111.5567,-7.6724],[111.5493,-7.6714],[111.5469,-7.6644],[111.5475,-7.6603],[111.542,-7.6584]]]}},{"type":"Feature","properties":{"name":"Sidorejo","name_en":"Sidorejo","admin_level":"7","osm_id":""},"geometry":{"type":"Polygon","coordinates":[[[111.5333,-7.6602],[111.542,-7.6584],[111.5475,-7.6603],[111.5469,-7.6644],[111.5493,-7.6714],[111.5569,-7.6724],[111.5592,-7.6776],[111.5556,-7.6799],[111.5478,-7.6815],[111.546,-7.6798],[111.5461,-7.6751],[111.5426,-7.6714],[111.5379,-7.6715],[111.5346,-7.6686],[111.5333,-7.6602]]]}},{"type":"Feature","properties":{"name":"Sobrah","name_en":"Sobrah","admin_level":"7","osm_id":""},"geometry":{"type":"Polygon","coordinates":[[[111.5834,-7.6037],[111.5849,-7.6009],[111.5878,-7.6006],[111.5956,-7.6031],[111.5994,-7.6062],[111.5925,-7.6111],[111.584,-7.611],[111.5813,-7.6095],[111.5819,-7.6072],[111.5837,-7.6068],[111.5844,-7.6042],[111.5834,-7.6037]]]}},{"type":"Feature","properties":{"name":"Tempursari","name_en":"Tempursari","admin_level":"7","osm_id":""},"geometry":{"type":"Polygon","coordinates":[[[111.5542,-7.6284],[111.553,-7.6264],[111.5512,-7.6281],[111.5483,-7.6274],[111.5485,-7.626],[111.5521,-7.6218],[111.5531,-7.6141],[111.5546,-7.616],[111.5553,-7.6136],[111.5583,-7.6136],[111.5672,-7.6224],[111.5661,-7.6252],[111.5642,-7.6227],[111.5626,-7.6255],[111.5591,-7.6254],[111.5567,-7.6263],[111.5559,-7.6288],[111.5542,-7.6284]]]}},{"type":"Feature","properties":{"name":"Wungu","name_en":"Wungu","admin_level":"7","osm_id":""},"geometry":{"type":"Polygon","coordinates":[[[111.6039,-7.6889],[111.6071,-7.6822],[111.6032,-7.6789],[111.5994,-7.6717],[111.6014,-7.6715],[111.6113,-7.6792],[111.6129,-7.6796],[111.6132,-7.6778],[111.6181,-7.6805],[111.6189,-7.6782],[111.6171,-7.6754],[111.6186,-7.6731],[111.6206,-7.6731],[111.6241,-7.6773],[111.6235,-7.6814],[111.6269,-7.6812],[111.6272,-7.6791],[111.6289,-7.6791],[111.635,-7.6842],[111.6357,-7.6888],[111.6386,-7.6877],[111.6417,-7.6973],[111.6358,-7.6973],[111.6219,-7.6943],[111.6106,-7.6872],[111.609,-7.6883],[111.6065,-7.6867],[111.6039,-7.6889]]]}}]}