{"type":"FeatureCollection","metadata":{"parent_osm_id":"gid_IDN_12_9_7_1","parent_name":"SungaiKunyit","parent_name_1":"KalimantanBarat","parent_gid":"IDN.12.9.7_1","parent_level":"6","child_level":"7","count":12,"source":"GADM 4.1","generated":"2026-05-07"},"features":[{"type":"Feature","properties":{"name":"BukitBatu","name_en":"BukitBatu","admin_level":"7","osm_id":""},"geometry":{"type":"Polygon","coordinates":[[[109.0305,0.5744],[109.0338,0.5794],[109.0336,0.5875],[109.0454,0.5776],[109.0546,0.5613],[109.0589,0.5582],[109.0031,0.5217],[108.9994,0.5171],[108.9751,0.5125],[108.971,0.518],[108.953,0.5148],[108.9379,0.5148],[108.9252,0.5181],[108.9301,0.5226],[108.9297,0.5286],[108.9329,0.53],[108.9437,0.5297],[108.9459,0.532],[108.944,0.5356],[108.9331,0.5375],[108.9286,0.5399],[108.9268,0.5412],[108.9266,0.5443],[108.9364,0.5447],[108.9399,0.542],[108.9467,0.5405],[108.9475,0.5384],[108.9502,0.5397],[108.9494,0.5342],[108.9515,0.5296],[108.9533,0.5298],[108.9542,0.5279],[108.9568,0.528],[108.9586,0.5314],[108.9617,0.5285],[108.9653,0.5292],[108.9666,0.5322],[108.9675,0.5287],[108.9709,0.529],[108.972,0.5301],[108.9702,0.5324],[108.974,0.5375],[108.9782,0.5386],[108.9791,0.542],[108.9826,0.5402],[108.9824,0.548],[108.9887,0.5511],[108.9909,0.5538],[108.9937,0.5476],[108.9931,0.5446],[108.996,0.5417],[108.9987,0.5417],[108.9988,0.544],[109.0031,0.546],[109.0015,0.5502],[109.0026,0.5536],[109.0089,0.5577],[109.0074,0.5616],[109.0111,0.5606],[109.0112,0.5647],[109.0213,0.5669],[109.0232,0.5693],[109.0272,0.5677],[109.0278,0.5703],[109.0308,0.5693],[109.0305,0.5744]]]}},{"type":"Feature","properties":{"name":"Mendalok","name_en":"Mendalok","admin_level":"7","osm_id":""},"geometry":{"type":"Polygon","coordinates":[[[108.9315,0.4581],[108.9262,0.4632],[108.9383,0.4744],[108.9499,0.4782],[108.9526,0.4776],[108.9539,0.4683],[108.9415,0.4615],[108.9315,0.4581]]]}},{"type":"Feature","properties":{"name":"SeiBundungLaut","name_en":"SeiBundungLaut","admin_level":"7","osm_id":""},"geometry":{"type":"Polygon","coordinates":[[[108.9338,0.53],[108.9297,0.5286],[108.9301,0.5226],[108.9232,0.5162],[108.9111,0.5173],[108.9165,0.5323],[108.9338,0.53]]]}},{"type":"Feature","properties":{"name":"SeiDungun","name_en":"SeiDungun","admin_level":"7","osm_id":""},"geometry":{"type":"Polygon","coordinates":[[[108.9499,0.4782],[108.9383,0.4744],[108.9262,0.4632],[108.9162,0.4702],[108.9222,0.4789],[108.9333,0.4789],[108.9397,0.4822],[108.955,0.4855],[108.9499,0.4782]]]}},{"type":"Feature","properties":{"name":"SeiDuriI","name_en":"SeiDuriI","admin_level":"7","osm_id":""},"geometry":{"type":"Polygon","coordinates":[[[108.9264,0.5612],[108.9279,0.56],[108.9262,0.5569],[108.9277,0.5563],[108.9285,0.5586],[108.9305,0.5585],[108.9295,0.5534],[108.9325,0.5516],[108.93,0.5526],[108.9289,0.5514],[108.931,0.549],[108.9332,0.549],[108.9314,0.5462],[108.9343,0.546],[108.9347,0.5445],[108.9203,0.5441],[108.9264,0.5612]]]}},{"type":"Feature","properties":{"name":"SeiDuriIi","name_en":"SeiDuriIi","admin_level":"7","osm_id":""},"geometry":{"type":"Polygon","coordinates":[[[108.9266,0.5443],[108.9268,0.5412],[108.932,0.5379],[108.944,0.5356],[108.9459,0.5342],[108.9454,0.531],[108.9437,0.5297],[108.9338,0.53],[108.9165,0.5323],[108.9203,0.5441],[108.9266,0.5443]]]}},{"type":"Feature","properties":{"name":"SeiKunyitDalam","name_en":"SeiKunyitDalam","admin_level":"7","osm_id":""},"geometry":{"type":"Polygon","coordinates":[[[108.9252,0.5181],[108.9379,0.5148],[108.9505,0.5148],[108.948,0.507],[108.9489,0.5038],[108.9471,0.4862],[108.925,0.4863],[108.9226,0.4886],[108.9222,0.5019],[108.9259,0.5093],[108.9229,0.5162],[108.9252,0.5181]]]}},{"type":"Feature","properties":{"name":"SeiKunyitLaut","name_en":"SeiKunyitLaut","admin_level":"7","osm_id":""},"geometry":{"type":"Polygon","coordinates":[[[108.8597,0.5101],[108.8577,0.5026],[108.8622,0.4963],[108.8619,0.4905],[108.8639,0.4871],[108.8628,0.481],[108.8584,0.4752],[108.8575,0.481],[108.8544,0.4869],[108.8492,0.4896],[108.8472,0.4936],[108.8433,0.4933],[108.8397,0.4951],[108.8382,0.4994],[108.8408,0.5011],[108.8389,0.503],[108.8396,0.5048],[108.8481,0.5041],[108.8507,0.5064],[108.8518,0.5112],[108.8501,0.5138],[108.8563,0.5107],[108.8577,0.5125],[108.8568,0.516],[108.8586,0.5167],[108.8606,0.5131],[108.8597,0.5101]]]}},{"type":"Feature","properties":{"name":"SeiLimau","name_en":"SeiLimau","admin_level":"7","osm_id":""},"geometry":{"type":"Polygon","coordinates":[[[108.9526,0.4858],[108.9333,0.4789],[108.9222,0.4789],[108.9162,0.4702],[108.911,0.4734],[108.9082,0.4785],[108.9087,0.4952],[108.9221,0.4954],[108.9226,0.4886],[108.925,0.4863],[108.9526,0.4858]]]}},{"type":"Feature","properties":{"name":"SemparongParitRaden","name_en":"SemparongParitRaden","admin_level":"7","osm_id":""},"geometry":{"type":"Polygon","coordinates":[[[109.0875,0.5289],[109.0855,0.5267],[109.0692,0.5202],[109.0611,0.5142],[109.052,0.51],[109.0468,0.5055],[109.0358,0.4878],[109.0206,0.4766],[109.0108,0.4749],[108.9912,0.475],[108.9853,0.4716],[108.9728,0.4586],[108.9609,0.4555],[108.9595,0.4583],[108.959,0.4711],[108.9535,0.4688],[108.9526,0.4776],[108.9499,0.4782],[108.955,0.4855],[108.976,0.495],[108.9985,0.4955],[109.01,0.5111],[109.0422,0.5212],[109.067,0.5322],[109.0742,0.5429],[109.0845,0.5385],[109.0875,0.5289]]]}},{"type":"Feature","properties":{"name":"Semudun","name_en":"Semudun","admin_level":"7","osm_id":""},"geometry":{"type":"Polygon","coordinates":[[[108.9609,0.4555],[108.9374,0.4504],[108.9315,0.4581],[108.9415,0.4615],[108.959,0.4711],[108.9595,0.4583],[108.9609,0.4555]]]}},{"type":"Feature","properties":{"name":"SungaiKunyitHulu","name_en":"SungaiKunyitHulu","admin_level":"7","osm_id":""},"geometry":{"type":"Polygon","coordinates":[[[109.0589,0.5582],[109.0649,0.5546],[109.0742,0.5429],[109.067,0.5322],[109.0422,0.5212],[109.01,0.5111],[108.9985,0.4955],[108.976,0.495],[108.955,0.4855],[108.9471,0.4862],[108.9489,0.5038],[108.948,0.507],[108.9505,0.5148],[108.971,0.518],[108.9751,0.5125],[108.9994,0.5171],[109.0031,0.5217],[109.0589,0.5582]]]}}]}