{"type":"FeatureCollection","metadata":{"parent_osm_id":"gid_IDN_16_2_1_1","parent_name":"BintanPesisir","parent_name_1":"KepulauanRiau","parent_gid":"IDN.16.2.1_1","parent_level":"6","child_level":"7","count":4,"source":"GADM 4.1","generated":"2026-05-07"},"features":[{"type":"Feature","properties":{"name":"AirGlubi","name_en":"AirGlubi","admin_level":"7","osm_id":""},"geometry":{"type":"Polygon","coordinates":[[[104.6324,0.8947],[104.647,0.8926],[104.6512,0.8952],[104.6564,0.8948],[104.6592,0.892],[104.6584,0.8879],[104.6616,0.8798],[104.6544,0.8782],[104.6445,0.8731],[104.6381,0.8656],[104.6332,0.8629],[104.6315,0.8575],[104.6279,0.854],[104.6241,0.862],[104.6188,0.8639],[104.6171,0.8716],[104.6191,0.8847],[104.6245,0.897],[104.6324,0.8947]]]}},{"type":"Feature","properties":{"name":"Kelong","name_en":"Kelong","admin_level":"7","osm_id":""},"geometry":{"type":"Polygon","coordinates":[[[104.6889,0.8968],[104.6931,0.8933],[104.6936,0.8907],[104.7,0.8866],[104.6937,0.8834],[104.6944,0.8791],[104.6931,0.8773],[104.6952,0.8739],[104.694,0.8653],[104.6954,0.8619],[104.6899,0.8584],[104.6909,0.8551],[104.6941,0.854],[104.6959,0.8485],[104.6917,0.8474],[104.6847,0.8507],[104.6868,0.8452],[104.6841,0.8458],[104.6822,0.8487],[104.6768,0.845],[104.6733,0.8483],[104.6723,0.8516],[104.6673,0.8522],[104.6615,0.8597],[104.6607,0.8639],[104.6664,0.871],[104.6727,0.8853],[104.6738,0.8924],[104.6788,0.8964],[104.6799,0.8939],[104.6814,0.8959],[104.6889,0.8968]]]}},{"type":"Feature","properties":{"name":"Mapur","name_en":"Mapur","admin_level":"7","osm_id":""},"geometry":{"type":"Polygon","coordinates":[[[104.7887,1.0275],[104.7907,1.0282],[104.7915,1.0257],[104.7956,1.0255],[104.7957,1.0229],[104.7996,1.0228],[104.8002,1.0199],[104.8038,1.0178],[104.8153,1.019],[104.829,1.0146],[104.8355,1.0164],[104.8358,1.0143],[104.8388,1.0149],[104.8407,1.0129],[104.8466,1.0145],[104.8495,1.0133],[104.8502,1.0108],[104.8438,1.0009],[104.8436,0.9971],[104.8486,0.9872],[104.8507,0.9859],[104.854,0.9873],[104.8526,0.9855],[104.8543,0.9827],[104.8489,0.98],[104.8501,0.9782],[104.8477,0.9783],[104.8463,0.9704],[104.8401,0.9619],[104.8353,0.9613],[104.8307,0.9577],[104.8256,0.9565],[104.8212,0.9577],[104.8139,0.9632],[104.8126,0.967],[104.8179,0.9659],[104.8219,0.9679],[104.8215,0.9706],[104.8262,0.9725],[104.8247,0.9805],[104.8177,0.9824],[104.8122,0.9875],[104.8075,0.9866],[104.8049,0.9893],[104.8034,0.9957],[104.8043,0.9981],[104.8059,0.9998],[104.8109,1.0004],[104.811,1.0024],[104.8052,1.0012],[104.803,1.0038],[104.7949,1.0011],[104.7874,1.0043],[104.7885,1.0043],[104.7881,1.0067],[104.7856,1.007],[104.7833,1.0117],[104.7869,1.0158],[104.7822,1.02],[104.784,1.022],[104.7855,1.0203],[104.7857,1.0216],[104.7826,1.0231],[104.7823,1.0256],[104.7838,1.0254],[104.786,1.0285],[104.7887,1.0275]]]}},{"type":"Feature","properties":{"name":"Numbing","name_en":"Numbing","admin_level":"7","osm_id":""},"geometry":{"type":"Polygon","coordinates":[[[104.7003,0.7929],[104.7011,0.7943],[104.7006,0.792],[104.7022,0.7908],[104.7074,0.7917],[104.7171,0.7878],[104.7193,0.7883],[104.7203,0.7905],[104.7249,0.7885],[104.7265,0.7903],[104.7292,0.7895],[104.7306,0.7908],[104.7376,0.7915],[104.7409,0.7887],[104.7466,0.7876],[104.7466,0.7836],[104.7491,0.7817],[104.7491,0.7772],[104.7509,0.773],[104.7525,0.7728],[104.7507,0.7701],[104.7538,0.7684],[104.7519,0.7653],[104.7537,0.758],[104.7504,0.7534],[104.7458,0.7513],[104.7364,0.7531],[104.7223,0.7611],[104.7099,0.7646],[104.7034,0.7644],[104.6945,0.7694],[104.6919,0.7694],[104.687,0.7746],[104.6855,0.7811],[104.6883,0.7815],[104.6893,0.7868],[104.6959,0.7905],[104.6976,0.7937],[104.6993,0.7943],[104.7003,0.7929]]]}}]}