{"type":"FeatureCollection","metadata":{"parent_osm_id":"9674160","parent_name":"Situbondo","parent_name_1":"JawaTimur","parent_gid":"IDN.11.33.15_1","parent_level":"6","child_level":"7","count":6,"source":"GADM 4.1","generated":"2026-05-09"},"features":[{"type":"Feature","properties":{"name":"Dawuhan","name_en":"Dawuhan","admin_level":"7","osm_id":""},"geometry":{"type":"Polygon","coordinates":[[[114.0092,-7.7124],[114.0052,-7.7109],[114.0024,-7.7077],[113.9995,-7.7023],[113.999,-7.6963],[114.0042,-7.6972],[114.0052,-7.6949],[114.0038,-7.6941],[114.0122,-7.6961],[114.0092,-7.7124]]]}},{"type":"Feature","properties":{"name":"Kalibagor","name_en":"Kalibagor","admin_level":"7","osm_id":""},"geometry":{"type":"Polygon","coordinates":[[[114.0059,-7.757],[114.0051,-7.7625],[114.0012,-7.7702],[113.9969,-7.7751],[113.9915,-7.7783],[113.9905,-7.7756],[113.9806,-7.7715],[113.9631,-7.7735],[113.9622,-7.7714],[113.9597,-7.7715],[113.9508,-7.7652],[113.9543,-7.7596],[113.9627,-7.7601],[113.9644,-7.7586],[113.9708,-7.7619],[113.9852,-7.7619],[113.9884,-7.7653],[113.999,-7.7624],[114.0023,-7.7571],[114.0059,-7.757]]]}},{"type":"Feature","properties":{"name":"Kotakan","name_en":"Kotakan","admin_level":"7","osm_id":""},"geometry":{"type":"Polygon","coordinates":[[[114.0066,-7.7568],[114.0023,-7.7571],[113.999,-7.7624],[113.9884,-7.7653],[113.9852,-7.7619],[113.9782,-7.7628],[113.9708,-7.7619],[113.9681,-7.76],[113.9779,-7.7567],[113.9792,-7.7583],[113.9838,-7.7585],[113.9957,-7.7507],[114.0036,-7.7351],[114.0072,-7.7206],[114.0123,-7.7133],[114.0168,-7.721],[114.0156,-7.7224],[114.0136,-7.7213],[114.0133,-7.7227],[114.0151,-7.7285],[114.0143,-7.731],[114.0164,-7.7331],[114.0166,-7.7364],[114.0126,-7.7399],[114.0107,-7.7458],[114.0079,-7.7476],[114.0059,-7.7535],[114.0066,-7.7568]]]}},{"type":"Feature","properties":{"name":"Olean","name_en":"Olean","admin_level":"7","osm_id":""},"geometry":{"type":"Polygon","coordinates":[[[114.0063,-7.6623],[114.0144,-7.6664],[114.0165,-7.6643],[114.0209,-7.6651],[114.0126,-7.6868],[114.0092,-7.6848],[114.0121,-7.6761],[114.0025,-7.6735],[114.0013,-7.6695],[113.9962,-7.6685],[113.9947,-7.6711],[113.998,-7.6626],[114.0051,-7.6638],[114.0063,-7.6623]]]}},{"type":"Feature","properties":{"name":"Patokan","name_en":"Patokan","admin_level":"7","osm_id":""},"geometry":{"type":"Polygon","coordinates":[[[113.9912,-7.6919],[114.0004,-7.6928],[114.0052,-7.6949],[114.0042,-7.6972],[113.999,-7.6963],[113.9995,-7.7023],[114.0025,-7.7079],[114.0048,-7.7091],[114.0045,-7.7115],[113.9888,-7.7117],[113.9794,-7.7078],[113.98,-7.6946],[113.9833,-7.6954],[113.9851,-7.6913],[113.9892,-7.6922],[113.9886,-7.6958],[113.991,-7.6959],[113.9912,-7.6919]]]}},{"type":"Feature","properties":{"name":"Talkandang","name_en":"Talkandang","admin_level":"7","osm_id":""},"geometry":{"type":"Polygon","coordinates":[[[113.9985,-7.693],[113.9994,-7.6886],[113.9885,-7.683],[113.9931,-7.6826],[113.9967,-7.6686],[114.0013,-7.6695],[114.0025,-7.6735],[114.0121,-7.6761],[114.0092,-7.6848],[114.0113,-7.6865],[114.0138,-7.6862],[114.014,-7.6963],[113.9985,-7.693]]]}}]}