{"type":"FeatureCollection","metadata":{"parent_osm_id":"gid_IDN_16_1_8_1","parent_name":"LubukBaja","parent_name_1":"KepulauanRiau","parent_gid":"IDN.16.1.8_1","parent_level":"6","child_level":"7","count":5,"source":"GADM 4.1","generated":"2026-05-09"},"features":[{"type":"Feature","properties":{"name":"BaloiIndah","name_en":"BaloiIndah","admin_level":"7","osm_id":""},"geometry":{"type":"Polygon","coordinates":[[[104.0185,1.1238],[104.0146,1.1216],[104.0157,1.115],[104.0053,1.1081],[104.0035,1.1112],[104.0057,1.1259],[103.9998,1.1311],[103.9988,1.1398],[104.0001,1.1399],[104.0025,1.1353],[104.0078,1.1313],[104.017,1.1322],[104.0185,1.1238]]]}},{"type":"Feature","properties":{"name":"BatuSelicin","name_en":"BatuSelicin","admin_level":"7","osm_id":""},"geometry":{"type":"Polygon","coordinates":[[[104.0154,1.1328],[104.0078,1.1313],[104.0025,1.1353],[104.0005,1.1399],[104.0032,1.1428],[104.0073,1.1422],[104.014,1.1364],[104.0154,1.1328]]]}},{"type":"Feature","properties":{"name":"KampungPelita","name_en":"KampungPelita","admin_level":"7","osm_id":""},"geometry":{"type":"Polygon","coordinates":[[[104.0229,1.1428],[104.0228,1.1344],[104.0179,1.1312],[104.0157,1.14],[104.0172,1.1421],[104.0166,1.1468],[104.0204,1.1529],[104.0228,1.1502],[104.0215,1.1453],[104.0229,1.1428]]]}},{"type":"Feature","properties":{"name":"LubukBajaKota","name_en":"LubukBajaKota","admin_level":"7","osm_id":""},"geometry":{"type":"Polygon","coordinates":[[[104.0122,1.1496],[104.0172,1.1456],[104.0157,1.1397],[104.017,1.1322],[104.0075,1.1421],[104.0032,1.1428],[104.0033,1.1482],[104.0122,1.1496]]]}},{"type":"Feature","properties":{"name":"TanjungUma","name_en":"TanjungUma","admin_level":"7","osm_id":""},"geometry":{"type":"Polygon","coordinates":[[[104.0009,1.1492],[104.0033,1.1482],[104.0032,1.1426],[103.9984,1.1388],[103.9998,1.1311],[104.0055,1.1265],[104.0043,1.1196],[104.0022,1.1225],[104.0005,1.1216],[103.9978,1.1227],[103.9933,1.1296],[103.9901,1.139],[103.9866,1.1428],[103.985,1.1425],[103.9846,1.144],[103.9861,1.1446],[103.9854,1.143],[103.9866,1.1441],[103.9877,1.1417],[103.9908,1.1411],[103.9924,1.1432],[103.9923,1.1479],[103.9909,1.1486],[103.9927,1.149],[103.9921,1.1501],[103.9937,1.1489],[103.9929,1.148],[103.9964,1.1496],[104.0009,1.1492]]]}}]}