{"type":"FeatureCollection","metadata":{"parent_osm_id":"gid_IDN_17_2_14_1","parent_name":"Sekincau","parent_name_1":"Lampung","parent_gid":"IDN.17.2.14_1","parent_level":"6","child_level":"7","count":11,"source":"GADM 4.1","generated":"2026-05-09"},"features":[{"type":"Feature","properties":{"name":"Basungan","name_en":"Basungan","admin_level":"7","osm_id":""},"geometry":{"type":"Polygon","coordinates":[[[104.3875,-4.8995],[104.4004,-4.9029],[104.4072,-4.8841],[104.4108,-4.879],[104.4174,-4.8748],[104.4196,-4.8822],[104.4193,-4.8922],[104.4224,-4.9039],[104.4288,-4.9119],[104.4382,-4.917],[104.4404,-4.9203],[104.4373,-4.9278],[104.4371,-4.9335],[104.4379,-4.9373],[104.4412,-4.9393],[104.4412,-4.9435],[104.4429,-4.9448],[104.4379,-4.9572],[104.4302,-4.9648],[104.4171,-4.9726],[104.4124,-4.9783],[104.4061,-4.9804],[104.4029,-4.9776],[104.3911,-4.976],[104.3852,-4.9652],[104.3688,-4.954],[104.3706,-4.9472],[104.3762,-4.945],[104.3734,-4.9397],[104.3739,-4.9345],[104.3752,-4.9324],[104.3771,-4.9328],[104.3753,-4.9293],[104.3758,-4.9224],[104.3776,-4.9222],[104.3798,-4.9174],[104.3839,-4.9153],[104.3861,-4.9119],[104.3845,-4.9035],[104.3875,-4.8995]]]}},{"type":"Feature","properties":{"name":"GihamSukamaju","name_en":"GihamSukamaju","admin_level":"7","osm_id":""},"geometry":{"type":"Polygon","coordinates":[[[104.2729,-5.0289],[104.2749,-5.0235],[104.2759,-5.0091],[104.2875,-5.0101],[104.2903,-5.0123],[104.2929,-5.0179],[104.2981,-5.0226],[104.3012,-5.0223],[104.3056,-5.027],[104.3083,-5.0335],[104.3077,-5.0397],[104.2854,-5.0464],[104.2797,-5.0459],[104.2729,-5.0289]]]}},{"type":"Feature","properties":{"name":"Hutan","name_en":"Hutan","admin_level":"7","osm_id":""},"geometry":{"type":"Polygon","coordinates":[[[104.4174,-4.8748],[104.4108,-4.879],[104.4072,-4.8841],[104.4004,-4.9029],[104.388,-4.9],[104.3859,-4.8912],[104.381,-4.8871],[104.3763,-4.8858],[104.3669,-4.8862],[104.3557,-4.8985],[104.3512,-4.9004],[104.3406,-4.8984],[104.332,-4.8933],[104.3281,-4.8842],[104.3211,-4.8795],[104.3335,-4.8722],[104.3405,-4.8647],[104.3435,-4.869],[104.348,-4.8697],[104.3528,-4.8746],[104.3585,-4.8704],[104.3646,-4.8689],[104.368,-4.8707],[104.3817,-4.8697],[104.3865,-4.873],[104.3936,-4.8721],[104.4064,-4.8687],[104.4101,-4.8653],[104.4174,-4.8748]]]}},{"type":"Feature","properties":{"name":"MekarSari","name_en":"MekarSari","admin_level":"7","osm_id":""},"geometry":{"type":"Polygon","coordinates":[[[104.2726,-4.9356],[104.2747,-4.9314],[104.2808,-4.928],[104.2807,-4.9174],[104.2773,-4.9108],[104.2812,-4.907],[104.2798,-4.905],[104.2805,-4.9005],[104.282,-4.9],[104.299,-4.9288],[104.3054,-4.9308],[104.3054,-4.9599],[104.3039,-4.9675],[104.2805,-4.9691],[104.2799,-4.964],[104.2829,-4.9564],[104.2852,-4.9557],[104.2854,-4.9501],[104.2785,-4.9394],[104.2726,-4.9356]]]}},{"type":"Feature","properties":{"name":"PahayuJaya","name_en":"PahayuJaya","admin_level":"7","osm_id":""},"geometry":{"type":"Polygon","coordinates":[[[104.3706,-4.9472],[104.3688,-4.954],[104.3852,-4.9652],[104.3911,-4.976],[104.3888,-4.9873],[104.3717,-5.0032],[104.3627,-5.0083],[104.359,-5.0078],[104.3567,-5.0099],[104.3479,-5.009],[104.3413,-5.0016],[104.333,-4.9954],[104.3214,-4.9819],[104.3039,-4.9675],[104.3054,-4.9599],[104.3054,-4.9307],[104.3177,-4.9159],[104.3473,-4.9393],[104.3622,-4.9464],[104.3706,-4.9472]]]}},{"type":"Feature","properties":{"name":"Pampangan","name_en":"Pampangan","admin_level":"7","osm_id":""},"geometry":{"type":"Polygon","coordinates":[[[104.2759,-5.0091],[104.2787,-4.9986],[104.2785,-4.988],[104.2822,-4.9829],[104.2803,-4.9775],[104.2805,-4.9691],[104.3039,-4.9675],[104.3214,-4.9819],[104.333,-4.9954],[104.3413,-5.0016],[104.3479,-5.009],[104.3426,-5.0121],[104.3254,-5.0156],[104.3227,-5.0268],[104.3188,-5.0212],[104.3158,-5.0199],[104.2981,-5.0226],[104.2875,-5.0101],[104.2759,-5.0091]]]}},{"type":"Feature","properties":{"name":"Sekincau","name_en":"Sekincau","admin_level":"7","osm_id":""},"geometry":{"type":"Polygon","coordinates":[[[104.2854,-5.0464],[104.3077,-5.0397],[104.3083,-5.0335],[104.3056,-5.027],[104.3012,-5.0223],[104.3158,-5.0199],[104.3188,-5.0212],[104.3227,-5.0268],[104.3226,-5.0446],[104.3171,-5.0562],[104.3173,-5.0624],[104.3084,-5.0702],[104.2974,-5.056],[104.2881,-5.0519],[104.2847,-5.0528],[104.2854,-5.0464]]]}},{"type":"Feature","properties":{"name":"Sidodadi","name_en":"Sidodadi","admin_level":"7","osm_id":""},"geometry":{"type":"Polygon","coordinates":[[[104.3875,-4.8995],[104.3845,-4.9035],[104.3861,-4.9119],[104.3839,-4.9153],[104.3798,-4.9174],[104.3776,-4.9222],[104.3758,-4.9224],[104.3753,-4.9293],[104.3771,-4.9328],[104.3752,-4.9324],[104.3739,-4.9345],[104.3734,-4.9397],[104.3762,-4.945],[104.3721,-4.9472],[104.3622,-4.9464],[104.3473,-4.9393],[104.3177,-4.9159],[104.332,-4.8933],[104.3406,-4.8984],[104.3512,-4.9004],[104.3557,-4.8985],[104.3669,-4.8862],[104.3763,-4.8858],[104.381,-4.8871],[104.3859,-4.8912],[104.3875,-4.8995]]]}},{"type":"Feature","properties":{"name":"Sidomulyo","name_en":"Sidomulyo","admin_level":"7","osm_id":""},"geometry":{"type":"Polygon","coordinates":[[[104.2815,-4.9001],[104.2811,-4.8971],[104.2836,-4.8919],[104.2827,-4.8881],[104.2845,-4.8864],[104.2843,-4.8843],[104.2867,-4.8832],[104.2868,-4.8725],[104.2958,-4.876],[104.3008,-4.8831],[104.313,-4.8839],[104.3211,-4.8795],[104.3281,-4.8842],[104.332,-4.8933],[104.3178,-4.9158],[104.3054,-4.9308],[104.299,-4.9288],[104.2913,-4.9139],[104.2866,-4.9092],[104.2835,-4.9009],[104.2815,-4.9001]]]}},{"type":"Feature","properties":{"name":"TigaJaya","name_en":"TigaJaya","admin_level":"7","osm_id":""},"geometry":{"type":"Polygon","coordinates":[[[104.3162,-5.1078],[104.3173,-5.1072],[104.3115,-5.0995],[104.3038,-5.0995],[104.2995,-5.103],[104.2916,-5.1041],[104.2896,-5.1027],[104.2899,-5.0916],[104.2874,-5.0894],[104.285,-5.0898],[104.2732,-5.1059],[104.2697,-5.1073],[104.264,-5.1016],[104.2626,-5.0878],[104.2668,-5.086],[104.278,-5.0906],[104.2904,-5.0809],[104.289,-5.0752],[104.2834,-5.0744],[104.2838,-5.0725],[104.289,-5.0705],[104.2804,-5.0676],[104.2791,-5.0623],[104.2802,-5.0576],[104.2783,-5.0567],[104.2819,-5.053],[104.2881,-5.0519],[104.2974,-5.056],[104.3084,-5.0702],[104.3173,-5.0624],[104.3174,-5.0792],[104.3225,-5.0821],[104.3285,-5.0904],[104.3324,-5.0993],[104.3314,-5.1024],[104.333,-5.1051],[104.3313,-5.1125],[104.3334,-5.1153],[104.3321,-5.121],[104.3338,-5.1279],[104.3247,-5.1231],[104.314,-5.1276],[104.3106,-5.1257],[104.3089,-5.121],[104.3075,-5.1206],[104.3082,-5.1173],[104.3096,-5.113],[104.3162,-5.1078]]]}},{"type":"Feature","properties":{"name":"Waspada","name_en":"Waspada","admin_level":"7","osm_id":""},"geometry":{"type":"Polygon","coordinates":[[[104.2758,-5.059],[104.2684,-5.0551],[104.2549,-5.043],[104.2542,-5.033],[104.2571,-5.0303],[104.2594,-5.0291],[104.2729,-5.0289],[104.2797,-5.0459],[104.2854,-5.0464],[104.2847,-5.0528],[104.2819,-5.053],[104.2758,-5.059]]]}}]}