{"type":"FeatureCollection","metadata":{"parent_osm_id":"gid_IDN_14_9_5_1","parent_name":"Delang","parent_name_1":"KalimantanTengah","parent_gid":"IDN.14.9.5_1","parent_level":"6","child_level":"7","count":10,"source":"GADM 4.1","generated":"2026-05-09"},"features":[{"type":"Feature","properties":{"name":"Kubung","name_en":"Kubung","admin_level":"7","osm_id":""},"geometry":{"type":"Polygon","coordinates":[[[110.9786,-1.6718],[110.9745,-1.6691],[110.963,-1.6722],[110.9597,-1.6751],[110.9527,-1.6841],[110.9486,-1.7],[110.9429,-1.7104],[110.9288,-1.7181],[110.9166,-1.7203],[110.9043,-1.7124],[110.9007,-1.7131],[110.9113,-1.6796],[110.9275,-1.6661],[110.9302,-1.652],[110.9365,-1.6412],[110.9392,-1.6295],[110.9586,-1.6309],[110.9695,-1.6397],[110.9764,-1.6517],[110.9758,-1.6568],[110.979,-1.666],[110.9786,-1.6718]]]}},{"type":"Feature","properties":{"name":"Kudangan","name_en":"Kudangan","admin_level":"7","osm_id":""},"geometry":{"type":"Polygon","coordinates":[[[110.9239,-1.5838],[110.9452,-1.5822],[110.9522,-1.5791],[110.9557,-1.5748],[110.9564,-1.57],[110.9623,-1.5594],[110.9691,-1.5521],[110.9731,-1.5441],[110.9793,-1.5392],[110.9839,-1.5387],[110.9897,-1.5405],[110.9955,-1.5558],[111.0084,-1.5619],[111.0163,-1.5627],[111.0269,-1.5831],[111.0394,-1.5953],[111.0711,-1.5941],[111.0948,-1.5908],[111.1021,-1.5842],[111.1123,-1.5818],[111.1427,-1.58],[111.1437,-1.5912],[111.136,-1.5929],[111.1257,-1.5984],[111.1131,-1.5969],[111.1021,-1.5977],[111.0895,-1.6032],[111.0808,-1.6008],[111.0596,-1.6048],[111.0403,-1.619],[110.9592,-1.6314],[110.9614,-1.6252],[110.9586,-1.6202],[110.953,-1.6146],[110.9464,-1.6133],[110.9239,-1.5838]]]}},{"type":"Feature","properties":{"name":"LandauKantu","name_en":"LandauKantu","admin_level":"7","osm_id":""},"geometry":{"type":"Polygon","coordinates":[[[111.0054,-1.7169],[111.0067,-1.7065],[111.005,-1.701],[111.0337,-1.6777],[111.0503,-1.6689],[111.0706,-1.6492],[111.0816,-1.6412],[111.1092,-1.6309],[111.1375,-1.627],[111.1486,-1.6239],[111.1522,-1.6489],[111.1234,-1.6492],[111.0966,-1.6555],[111.0218,-1.7046],[111.0054,-1.7169]]]}},{"type":"Feature","properties":{"name":"Lopus","name_en":"Lopus","admin_level":"7","osm_id":""},"geometry":{"type":"Polygon","coordinates":[[[110.987,-1.6776],[110.9786,-1.6718],[110.979,-1.666],[110.9758,-1.6568],[110.9764,-1.6517],[110.9695,-1.6397],[110.9592,-1.6314],[111.0403,-1.619],[111.0596,-1.6048],[111.0808,-1.6008],[111.0895,-1.6032],[111.1021,-1.5977],[111.1131,-1.5969],[111.1257,-1.5984],[111.136,-1.5929],[111.1437,-1.5912],[111.1445,-1.5985],[111.1336,-1.6072],[111.1155,-1.6143],[111.0698,-1.6206],[111.0532,-1.6324],[111.0356,-1.6517],[111.0262,-1.6517],[111.0133,-1.6589],[110.987,-1.6776]]]}},{"type":"Feature","properties":{"name":"Nyalang","name_en":"Nyalang","admin_level":"7","osm_id":""},"geometry":{"type":"Polygon","coordinates":[[[111.005,-1.701],[111.0033,-1.6968],[110.987,-1.6776],[111.0133,-1.6589],[111.0262,-1.6517],[111.0356,-1.6517],[111.0532,-1.6324],[111.0698,-1.6206],[111.1155,-1.6143],[111.1336,-1.6072],[111.1445,-1.5985],[111.1486,-1.6239],[111.1375,-1.627],[111.1092,-1.6309],[111.0816,-1.6412],[111.0706,-1.6492],[111.0503,-1.6689],[111.0337,-1.6777],[111.005,-1.701]]]}},{"type":"Feature","properties":{"name":"Penyombaan","name_en":"Penyombaan","admin_level":"7","osm_id":""},"geometry":{"type":"Polygon","coordinates":[[[111.0163,-1.5627],[111.0215,-1.5584],[111.0275,-1.5481],[111.0349,-1.5407],[111.0491,-1.5397],[111.0598,-1.5355],[111.0683,-1.5392],[111.0696,-1.5515],[111.0718,-1.5567],[111.0754,-1.5595],[111.0843,-1.5588],[111.098,-1.5524],[111.1187,-1.5528],[111.1223,-1.5495],[111.1232,-1.5443],[111.1186,-1.5311],[111.1182,-1.5174],[111.1218,-1.5072],[111.1277,-1.4988],[111.129,-1.4734],[111.1348,-1.4832],[111.1403,-1.5065],[111.144,-1.5802],[111.1123,-1.5818],[111.1021,-1.5842],[111.0948,-1.5908],[111.0711,-1.5941],[111.0394,-1.5953],[111.0269,-1.5831],[111.0163,-1.5627]]]}},{"type":"Feature","properties":{"name":"RiamPenahan","name_en":"RiamPenahan","admin_level":"7","osm_id":""},"geometry":{"type":"Polygon","coordinates":[[[111.0133,-1.7668],[111.0122,-1.7579],[111.016,-1.7452],[111.0391,-1.7466],[111.0842,-1.7191],[111.1093,-1.712],[111.1354,-1.6948],[111.1522,-1.6901],[111.1553,-1.7077],[111.1527,-1.712],[111.1334,-1.7235],[111.1269,-1.7412],[111.1145,-1.7526],[111.0849,-1.7628],[111.0627,-1.7676],[111.0275,-1.765],[111.0133,-1.7668]]]}},{"type":"Feature","properties":{"name":"RiamTinggi","name_en":"RiamTinggi","admin_level":"7","osm_id":""},"geometry":{"type":"Polygon","coordinates":[[[111.0075,-1.7294],[111.0052,-1.7256],[111.0054,-1.7169],[111.0218,-1.7046],[111.0966,-1.6555],[111.1234,-1.6492],[111.1522,-1.6489],[111.154,-1.6621],[111.1415,-1.6626],[111.1312,-1.665],[111.1052,-1.677],[111.0681,-1.691],[111.0504,-1.7082],[111.0075,-1.7294]]]}},{"type":"Feature","properties":{"name":"Sekombulan","name_en":"Sekombulan","admin_level":"7","osm_id":""},"geometry":{"type":"Polygon","coordinates":[[[110.9007,-1.7131],[110.8935,-1.7016],[110.8927,-1.6892],[110.8865,-1.6815],[110.8825,-1.6794],[110.8638,-1.6826],[110.8551,-1.6738],[110.8567,-1.6449],[110.8538,-1.6364],[110.8589,-1.6305],[110.8816,-1.6189],[110.8897,-1.6125],[110.8939,-1.6011],[110.8997,-1.5917],[110.9133,-1.5846],[110.9239,-1.5838],[110.9464,-1.6133],[110.953,-1.6146],[110.9614,-1.6252],[110.9586,-1.6309],[110.9392,-1.6295],[110.9365,-1.6412],[110.9302,-1.652],[110.9275,-1.6661],[110.9113,-1.6796],[110.9007,-1.7131]]]}},{"type":"Feature","properties":{"name":"Sepoyu","name_en":"Sepoyu","admin_level":"7","osm_id":""},"geometry":{"type":"Polygon","coordinates":[[[111.016,-1.7452],[111.0132,-1.7365],[111.0075,-1.7294],[111.0504,-1.7082],[111.0681,-1.691],[111.1052,-1.677],[111.1312,-1.665],[111.1415,-1.6626],[111.154,-1.6621],[111.1549,-1.6737],[111.1522,-1.6901],[111.1354,-1.6948],[111.1093,-1.712],[111.0842,-1.7191],[111.0391,-1.7466],[111.016,-1.7452]]]}}]}