{"type":"FeatureCollection","metadata":{"parent_osm_id":"3986083","parent_name":"Rao","parent_name_1":"SumateraBarat","parent_gid":"IDN.30.13.10_1","parent_level":"6","child_level":"7","count":2,"source":"GADM 4.1","generated":"2026-05-09"},"features":[{"type":"Feature","properties":{"name":"PadangMantinggi","name_en":"PadangMantinggi","admin_level":"7","osm_id":""},"geometry":{"type":"Polygon","coordinates":[[[100.0368,0.5737],[100.0321,0.5696],[100.0297,0.5634],[100.031,0.562],[100.0212,0.5642],[100.0046,0.5592],[100.0003,0.5609],[99.996,0.5599],[99.9927,0.5552],[99.9937,0.5512],[99.992,0.5449],[99.9838,0.5359],[99.9775,0.5309],[99.9551,0.5187],[99.952,0.5205],[99.9502,0.5242],[99.9564,0.5308],[99.9647,0.5458],[99.9645,0.556],[99.9608,0.5603],[99.9598,0.5695],[99.9517,0.5762],[99.9408,0.5928],[99.9308,0.5972],[99.9272,0.6042],[99.9204,0.6054],[99.9233,0.6153],[99.9092,0.6256],[99.9096,0.629],[99.9251,0.6312],[99.9205,0.6433],[99.916,0.6496],[99.9158,0.6573],[99.9189,0.6573],[99.9234,0.6524],[99.9268,0.652],[99.9343,0.6464],[99.9402,0.6456],[99.944,0.6418],[99.9608,0.6392],[99.9694,0.6279],[99.9724,0.6155],[99.9903,0.6061],[99.9986,0.5906],[100.0229,0.5839],[100.0255,0.5797],[100.0318,0.5793],[100.0368,0.5737]]]}},{"type":"Feature","properties":{"name":"Taruang-taruang","name_en":"Taruang-taruang","admin_level":"7","osm_id":""},"geometry":{"type":"Polygon","coordinates":[[[99.963,0.4763],[99.9558,0.4736],[99.9498,0.4738],[99.9453,0.4765],[99.9338,0.4774],[99.9188,0.4853],[99.9278,0.4962],[99.9423,0.5077],[99.9483,0.5104],[99.9552,0.5104],[99.9607,0.5132],[99.9596,0.5161],[99.9546,0.5192],[99.9775,0.5309],[99.9894,0.5412],[99.9937,0.5512],[99.9927,0.5552],[99.996,0.5599],[100.0003,0.5609],[100.0046,0.5592],[100.0212,0.5642],[100.031,0.562],[100.0356,0.5563],[100.0389,0.5553],[100.0429,0.551],[100.0501,0.5483],[100.056,0.543],[100.0445,0.5328],[100.0439,0.5234],[100.0405,0.5158],[100.0354,0.5134],[100.0303,0.515],[100.0151,0.5037],[99.9852,0.5013],[99.9844,0.4989],[99.979,0.4949],[99.9734,0.4933],[99.9721,0.4876],[99.9678,0.4852],[99.9662,0.4798],[99.963,0.4763]]]}}]}