{"type":"FeatureCollection","metadata":{"parent_osm_id":"gid_IDN_29_8_3_1","parent_name":"KotamobaguTimur","parent_name_1":"SulawesiUtara","parent_gid":"IDN.29.8.3_1","parent_level":"6","child_level":"7","count":10,"source":"GADM 4.1","generated":"2026-05-09"},"features":[{"type":"Feature","properties":{"name":"KoboBesar","name_en":"KoboBesar","admin_level":"7","osm_id":""},"geometry":{"type":"Polygon","coordinates":[[[124.3448,0.7253],[124.3459,0.7191],[124.3348,0.7185],[124.3215,0.7216],[124.3216,0.7232],[124.3248,0.7252],[124.3303,0.7252],[124.3346,0.7271],[124.3448,0.7253]]]}},{"type":"Feature","properties":{"name":"KoboKecil","name_en":"KoboKecil","admin_level":"7","osm_id":""},"geometry":{"type":"Polygon","coordinates":[[[124.347,0.7147],[124.349,0.7086],[124.3385,0.71],[124.332,0.7139],[124.3285,0.7126],[124.328,0.714],[124.3248,0.7137],[124.3234,0.7162],[124.347,0.7147]]]}},{"type":"Feature","properties":{"name":"Kotabangon","name_en":"Kotabangon","admin_level":"7","osm_id":""},"geometry":{"type":"Polygon","coordinates":[[[124.3116,0.7348],[124.3202,0.7412],[124.3218,0.7455],[124.3258,0.7496],[124.3329,0.7449],[124.334,0.7389],[124.3326,0.7317],[124.3236,0.7301],[124.318,0.7342],[124.3116,0.7348]]]}},{"type":"Feature","properties":{"name":"Matali","name_en":"Matali","admin_level":"7","osm_id":""},"geometry":{"type":"Polygon","coordinates":[[[124.3068,0.7254],[124.3105,0.7275],[124.3158,0.7266],[124.3208,0.7249],[124.3215,0.7215],[124.318,0.7174],[124.315,0.7194],[124.3075,0.7195],[124.3081,0.7243],[124.3068,0.7254]]]}},{"type":"Feature","properties":{"name":"MotoboiBesar","name_en":"MotoboiBesar","admin_level":"7","osm_id":""},"geometry":{"type":"Polygon","coordinates":[[[124.3473,0.7178],[124.347,0.7147],[124.3242,0.7168],[124.3243,0.7145],[124.3201,0.7147],[124.3201,0.7133],[124.3142,0.7123],[124.3143,0.7153],[124.3213,0.7215],[124.3354,0.7185],[124.3468,0.7194],[124.3473,0.7178]]]}},{"type":"Feature","properties":{"name":"Moyag","name_en":"Moyag","admin_level":"7","osm_id":""},"geometry":{"type":"Polygon","coordinates":[[[124.3549,0.7549],[124.3499,0.7373],[124.3449,0.7363],[124.3419,0.7456],[124.3429,0.7491],[124.3407,0.7502],[124.3413,0.7521],[124.3448,0.7552],[124.3549,0.7549]]]}},{"type":"Feature","properties":{"name":"MoyagTampoan","name_en":"MoyagTampoan","admin_level":"7","osm_id":""},"geometry":{"type":"Polygon","coordinates":[[[124.3366,0.7271],[124.3325,0.7324],[124.334,0.7389],[124.3312,0.7502],[124.3336,0.7569],[124.3394,0.7596],[124.3448,0.7552],[124.3407,0.7504],[124.3429,0.7491],[124.3419,0.7456],[124.3449,0.7362],[124.3431,0.7309],[124.3366,0.7271]]]}},{"type":"Feature","properties":{"name":"MoyagTodulan","name_en":"MoyagTodulan","admin_level":"7","osm_id":""},"geometry":{"type":"Polygon","coordinates":[[[124.3499,0.7373],[124.3499,0.7335],[124.3448,0.7253],[124.3366,0.7271],[124.3431,0.7309],[124.3449,0.7362],[124.3499,0.7373]]]}},{"type":"Feature","properties":{"name":"Sinindian","name_en":"Sinindian","admin_level":"7","osm_id":""},"geometry":{"type":"Polygon","coordinates":[[[124.3111,0.7346],[124.3193,0.7334],[124.318,0.7256],[124.3074,0.7275],[124.3087,0.7311],[124.3112,0.7317],[124.3111,0.7346]]]}},{"type":"Feature","properties":{"name":"Tumobuy","name_en":"Tumobuy","admin_level":"7","osm_id":""},"geometry":{"type":"Polygon","coordinates":[[[124.3363,0.7274],[124.3303,0.7252],[124.325,0.7253],[124.322,0.7233],[124.318,0.7256],[124.3178,0.7278],[124.3195,0.7325],[124.3236,0.7301],[124.3328,0.7318],[124.3363,0.7274]]]}}]}