{"type":"FeatureCollection","metadata":{"parent_osm_id":"19336587","parent_name":"Rejoso","parent_name_1":"JawaTimur","parent_gid":"IDN.11.28.18_1","parent_level":"6","child_level":"7","count":16,"source":"GADM 4.1","generated":"2026-05-09"},"features":[{"type":"Feature","properties":{"name":"Arjosari","name_en":"Arjosari","admin_level":"7","osm_id":""},"geometry":{"type":"Polygon","coordinates":[[[112.9761,-7.6994],[112.9744,-7.7008],[112.9706,-7.6988],[112.9653,-7.6995],[112.9635,-7.6944],[112.9617,-7.6936],[112.9601,-7.6853],[112.9686,-7.6894],[112.9683,-7.6953],[112.9726,-7.6971],[112.9731,-7.6907],[112.9775,-7.6906],[112.9769,-7.6954],[112.9839,-7.6992],[112.9836,-7.7017],[112.9761,-7.6994]]]}},{"type":"Feature","properties":{"name":"Jarangan","name_en":"Jarangan","admin_level":"7","osm_id":""},"geometry":{"type":"Polygon","coordinates":[[[112.9347,-7.6645],[112.938,-7.6604],[112.937,-7.6543],[112.9455,-7.6514],[112.9439,-7.6485],[112.9464,-7.644],[112.9477,-7.6367],[112.9573,-7.6281],[112.9526,-7.6514],[112.9554,-7.6596],[112.9589,-7.6623],[112.9557,-7.661],[112.9513,-7.6617],[112.9531,-7.6641],[112.9508,-7.6684],[112.9456,-7.6714],[112.9421,-7.6672],[112.9403,-7.6711],[112.9347,-7.6645]]]}},{"type":"Feature","properties":{"name":"KarangPandan","name_en":"KarangPandan","admin_level":"7","osm_id":""},"geometry":{"type":"Polygon","coordinates":[[[112.9108,-7.6785],[112.9141,-7.6795],[112.9152,-7.6779],[112.9205,-7.6805],[112.9189,-7.6837],[112.9194,-7.6865],[112.9095,-7.6825],[112.9108,-7.6785]]]}},{"type":"Feature","properties":{"name":"KawisRejo","name_en":"KawisRejo","admin_level":"7","osm_id":""},"geometry":{"type":"Polygon","coordinates":[[[112.9533,-7.6986],[112.95,-7.6977],[112.9493,-7.7012],[112.9458,-7.7001],[112.9446,-7.6978],[112.9468,-7.696],[112.9431,-7.6934],[112.9455,-7.6931],[112.9466,-7.6896],[112.9452,-7.6891],[112.947,-7.6886],[112.9473,-7.6868],[112.9463,-7.6858],[112.9501,-7.6795],[112.9536,-7.6816],[112.9508,-7.684],[112.955,-7.687],[112.9525,-7.6916],[112.9552,-7.6932],[112.9533,-7.6986]]]}},{"type":"Feature","properties":{"name":"KedungBako","name_en":"KedungBako","admin_level":"7","osm_id":""},"geometry":{"type":"Polygon","coordinates":[[[112.9403,-7.6711],[112.9421,-7.6672],[112.9457,-7.672],[112.9498,-7.6728],[112.9474,-7.6776],[112.9461,-7.6766],[112.9444,-7.6794],[112.9451,-7.6834],[112.9365,-7.6819],[112.9383,-7.6769],[112.9395,-7.6776],[112.9404,-7.6738],[112.9389,-7.6729],[112.9403,-7.6711]]]}},{"type":"Feature","properties":{"name":"KemantrenRejo","name_en":"KemantrenRejo","admin_level":"7","osm_id":""},"geometry":{"type":"Polygon","coordinates":[[[112.9768,-7.6848],[112.9797,-7.6858],[112.978,-7.6915],[112.9738,-7.69],[112.9726,-7.6971],[112.9683,-7.6953],[112.9686,-7.6894],[112.9661,-7.6884],[112.9686,-7.6835],[112.9768,-7.6848]]]}},{"type":"Feature","properties":{"name":"Ketegan","name_en":"Ketegan","admin_level":"7","osm_id":""},"geometry":{"type":"Polygon","coordinates":[[[112.9467,-7.712],[112.948,-7.7086],[112.9521,-7.7074],[112.9528,-7.7053],[112.959,-7.7076],[112.9565,-7.7146],[112.9467,-7.712]]]}},{"type":"Feature","properties":{"name":"ManikRejo","name_en":"ManikRejo","admin_level":"7","osm_id":""},"geometry":{"type":"Polygon","coordinates":[[[112.9171,-7.6785],[112.9185,-7.674],[112.9271,-7.6779],[112.926,-7.6803],[112.9296,-7.6814],[112.9314,-7.678],[112.9345,-7.6783],[112.9307,-7.6843],[112.9319,-7.6853],[112.931,-7.6876],[112.9291,-7.6885],[112.9216,-7.6847],[112.9197,-7.6853],[112.9189,-7.6837],[112.9205,-7.6805],[112.9171,-7.6785]]]}},{"type":"Feature","properties":{"name":"PandanRejo","name_en":"PandanRejo","admin_level":"7","osm_id":""},"geometry":{"type":"Polygon","coordinates":[[[112.9392,-7.7145],[112.938,-7.7096],[112.9401,-7.7065],[112.9421,-7.7072],[112.9439,-7.705],[112.9462,-7.6994],[112.9493,-7.7012],[112.95,-7.6977],[112.9568,-7.7003],[112.9556,-7.7061],[112.9528,-7.7053],[112.9521,-7.7074],[112.948,-7.7086],[112.9481,-7.7107],[112.9449,-7.7137],[112.9406,-7.7131],[112.9392,-7.7145]]]}},{"type":"Feature","properties":{"name":"Patuguran","name_en":"Patuguran","admin_level":"7","osm_id":""},"geometry":{"type":"Polygon","coordinates":[[[112.9619,-7.6594],[112.9634,-7.661],[112.9589,-7.6608],[112.9618,-7.6622],[112.9624,-7.6655],[112.9718,-7.6706],[112.9672,-7.6764],[112.9688,-7.6766],[112.9689,-7.6829],[112.9711,-7.6839],[112.9686,-7.6835],[112.9666,-7.6874],[112.9601,-7.6853],[112.9614,-7.6831],[112.9598,-7.6689],[112.9555,-7.663],[112.9583,-7.6631],[112.959,-7.6615],[112.9554,-7.6596],[112.9535,-7.6529],[112.9596,-7.6594],[112.9619,-7.6594]]]}},{"type":"Feature","properties":{"name":"RejosoKidul","name_en":"RejosoKidul","admin_level":"7","osm_id":""},"geometry":{"type":"Polygon","coordinates":[[[112.9325,-7.6922],[112.9275,-7.6889],[112.931,-7.6876],[112.9319,-7.6853],[112.9307,-7.6843],[112.9334,-7.6799],[112.9369,-7.6807],[112.9377,-7.6824],[112.9417,-7.6824],[112.9383,-7.6897],[112.9425,-7.6908],[112.9442,-7.6881],[112.9466,-7.6896],[112.9455,-7.6931],[112.9432,-7.6932],[112.9448,-7.6969],[112.9439,-7.6976],[112.9414,-7.6959],[112.9424,-7.6935],[112.9365,-7.6917],[112.9357,-7.6941],[112.9341,-7.6944],[112.9322,-7.6938],[112.9338,-7.6919],[112.9325,-7.6922]]]}},{"type":"Feature","properties":{"name":"Rejosolor","name_en":"Rejosolor","admin_level":"7","osm_id":""},"geometry":{"type":"Polygon","coordinates":[[[112.96,-7.6855],[112.9573,-7.6895],[112.9541,-7.6898],[112.955,-7.687],[112.9508,-7.6831],[112.9536,-7.6816],[112.9501,-7.6795],[112.9463,-7.6858],[112.947,-7.6886],[112.943,-7.6881],[112.9425,-7.6908],[112.9383,-7.6897],[112.9417,-7.6824],[112.9453,-7.6832],[112.9444,-7.6794],[112.9461,-7.6766],[112.9474,-7.6776],[112.9498,-7.6729],[112.9456,-7.6717],[112.9508,-7.6684],[112.9531,-7.6641],[112.9513,-7.6617],[112.9557,-7.661],[112.9555,-7.6631],[112.9596,-7.6683],[112.9614,-7.6831],[112.96,-7.6855]]]}},{"type":"Feature","properties":{"name":"SadengRejo","name_en":"SadengRejo","admin_level":"7","osm_id":""},"geometry":{"type":"Polygon","coordinates":[[[112.9296,-7.694],[112.933,-7.6913],[112.9322,-7.6938],[112.935,-7.6945],[112.9368,-7.6917],[112.9424,-7.6935],[112.9414,-7.6959],[112.9437,-7.6975],[112.9448,-7.6969],[112.9434,-7.6934],[112.9468,-7.696],[112.9446,-7.6978],[112.9458,-7.7001],[112.9439,-7.705],[112.9421,-7.7072],[112.9401,-7.7065],[112.9376,-7.7117],[112.934,-7.7135],[112.9303,-7.7097],[112.9316,-7.7074],[112.9333,-7.7083],[112.9376,-7.702],[112.9363,-7.6989],[112.9335,-7.698],[112.9343,-7.6967],[112.9296,-7.694]]]}},{"type":"Feature","properties":{"name":"Sambirejo","name_en":"Sambirejo","admin_level":"7","osm_id":""},"geometry":{"type":"Polygon","coordinates":[[[112.9227,-7.676],[112.9266,-7.6689],[112.9286,-7.6672],[112.932,-7.6687],[112.9347,-7.6645],[112.9403,-7.6711],[112.9389,-7.6729],[112.9404,-7.6738],[112.9395,-7.6776],[112.9383,-7.6769],[112.9369,-7.6807],[112.9336,-7.6799],[112.9345,-7.6783],[112.9321,-7.6777],[112.9296,-7.6814],[112.926,-7.6803],[112.9271,-7.6779],[112.9227,-7.676]]]}},{"type":"Feature","properties":{"name":"Segoropuro","name_en":"Segoropuro","admin_level":"7","osm_id":""},"geometry":{"type":"Polygon","coordinates":[[[112.9783,-7.681],[112.9767,-7.6853],[112.9689,-7.6829],[112.9688,-7.6766],[112.9672,-7.6764],[112.9725,-7.6697],[112.9795,-7.6729],[112.9783,-7.681]]]}},{"type":"Feature","properties":{"name":"Toyaning","name_en":"Toyaning","admin_level":"7","osm_id":""},"geometry":{"type":"Polygon","coordinates":[[[112.9735,-7.7007],[112.9738,-7.7038],[112.9663,-7.7011],[112.9649,-7.7065],[112.9633,-7.7063],[112.9615,-7.7149],[112.957,-7.7137],[112.959,-7.7076],[112.9556,-7.7061],[112.9568,-7.7003],[112.9532,-7.6988],[112.9552,-7.6932],[112.9525,-7.6913],[112.9569,-7.6899],[112.9602,-7.6865],[112.9617,-7.6936],[112.9635,-7.6944],[112.9653,-7.6995],[112.9706,-7.6988],[112.9735,-7.7007]]]}}]}