{"type":"FeatureCollection","metadata":{"parent_osm_id":"gid_IDN_29_12_11_1","parent_name":"Wori","parent_name_1":"SulawesiUtara","parent_gid":"IDN.29.12.11_1","parent_level":"6","child_level":"7","count":19,"source":"GADM 4.1","generated":"2026-05-09"},"features":[{"type":"Feature","properties":{"name":"Budo","name_en":"Budo","admin_level":"7","osm_id":""},"geometry":{"type":"Polygon","coordinates":[[[124.8783,1.627],[124.888,1.6355],[124.8932,1.6363],[124.8958,1.6385],[124.9011,1.6305],[124.9021,1.6245],[124.9007,1.6209],[124.9026,1.6175],[124.8862,1.6178],[124.8808,1.6259],[124.8783,1.627]]]}},{"type":"Feature","properties":{"name":"Bulo","name_en":"Bulo","admin_level":"7","osm_id":""},"geometry":{"type":"Polygon","coordinates":[[[124.917,1.6273],[124.908,1.6164],[124.9086,1.6368],[124.9117,1.6489],[124.9118,1.6565],[124.9172,1.6598],[124.9181,1.6629],[124.921,1.664],[124.9219,1.6609],[124.9195,1.6587],[124.9163,1.6503],[124.9171,1.6442],[124.9192,1.6418],[124.9188,1.6379],[124.9156,1.6322],[124.917,1.6273]]]}},{"type":"Feature","properties":{"name":"Darunu","name_en":"Darunu","admin_level":"7","osm_id":""},"geometry":{"type":"Polygon","coordinates":[[[124.908,1.6164],[124.9068,1.6148],[124.9009,1.6202],[124.9015,1.6291],[124.8958,1.6385],[124.9019,1.6495],[124.9109,1.6536],[124.9117,1.6489],[124.9086,1.6368],[124.908,1.6164]]]}},{"type":"Feature","properties":{"name":"KimaBajo","name_en":"KimaBajo","admin_level":"7","osm_id":""},"geometry":{"type":"Polygon","coordinates":[[[124.8837,1.6203],[124.8876,1.6174],[124.8956,1.6183],[124.8944,1.6089],[124.8888,1.6025],[124.8891,1.5964],[124.8875,1.5918],[124.8891,1.5892],[124.8837,1.5891],[124.879,1.5865],[124.8703,1.59],[124.8696,1.587],[124.8667,1.587],[124.867,1.5912],[124.8724,1.5954],[124.8747,1.6067],[124.8841,1.6165],[124.8837,1.6203]]]}},{"type":"Feature","properties":{"name":"Kulu","name_en":"Kulu","admin_level":"7","osm_id":""},"geometry":{"type":"Polygon","coordinates":[[[124.9604,1.6781],[124.9585,1.6767],[124.9598,1.6753],[124.9588,1.6743],[124.9604,1.674],[124.9614,1.6648],[124.9571,1.6599],[124.9545,1.6624],[124.9519,1.6621],[124.9479,1.6566],[124.9418,1.6718],[124.9398,1.6827],[124.9445,1.6865],[124.9496,1.6816],[124.9518,1.6829],[124.9564,1.6826],[124.9604,1.6781]]]}},{"type":"Feature","properties":{"name":"Lansa","name_en":"Lansa","admin_level":"7","osm_id":""},"geometry":{"type":"Polygon","coordinates":[[[124.9463,1.646],[124.9454,1.6348],[124.9415,1.6308],[124.9335,1.6306],[124.9253,1.6345],[124.9222,1.6521],[124.9231,1.6557],[124.9247,1.6546],[124.9246,1.6524],[124.9258,1.6518],[124.9251,1.6548],[124.9234,1.6563],[124.9246,1.662],[124.9271,1.6615],[124.9313,1.6565],[124.9281,1.6617],[124.9337,1.6605],[124.9463,1.646]]]}},{"type":"Feature","properties":{"name":"Lantung","name_en":"Lantung","admin_level":"7","osm_id":""},"geometry":{"type":"Polygon","coordinates":[[[124.9479,1.6566],[124.9463,1.646],[124.9378,1.6568],[124.9286,1.6629],[124.9301,1.6654],[124.9317,1.6648],[124.9323,1.6648],[124.9305,1.6658],[124.9255,1.6646],[124.9241,1.6676],[124.924,1.673],[124.926,1.676],[124.9304,1.6753],[124.93,1.6837],[124.9357,1.6883],[124.9372,1.6875],[124.9381,1.6916],[124.9406,1.6935],[124.939,1.6842],[124.9408,1.6841],[124.9393,1.6804],[124.9479,1.6566]]]}},{"type":"Feature","properties":{"name":"Mantehage","name_en":"Mantehage","admin_level":"7","osm_id":""},"geometry":{"type":"Polygon","coordinates":[[[124.7576,1.7104],[124.7542,1.7171],[124.7486,1.7224],[124.7702,1.7237],[124.7775,1.7119],[124.772,1.7088],[124.7576,1.7104]]]}},{"type":"Feature","properties":{"name":"MantehageI","name_en":"MantehageI","admin_level":"7","osm_id":""},"geometry":{"type":"Polygon","coordinates":[[[124.7542,1.7171],[124.7576,1.7104],[124.7718,1.6926],[124.7644,1.6929],[124.7441,1.7036],[124.7334,1.7144],[124.7314,1.728],[124.7346,1.7307],[124.7369,1.7301],[124.7361,1.732],[124.7391,1.7332],[124.7403,1.7285],[124.7451,1.7227],[124.7542,1.7171]]]}},{"type":"Feature","properties":{"name":"MantehageIi","name_en":"MantehageIi","admin_level":"7","osm_id":""},"geometry":{"type":"Polygon","coordinates":[[[124.7668,1.7228],[124.7486,1.7224],[124.7481,1.7252],[124.7532,1.7363],[124.7569,1.7398],[124.7664,1.7446],[124.7696,1.7401],[124.7706,1.7342],[124.7691,1.7309],[124.771,1.7249],[124.7668,1.7228]]]}},{"type":"Feature","properties":{"name":"MantehageIii","name_en":"MantehageIii","admin_level":"7","osm_id":""},"geometry":{"type":"Polygon","coordinates":[[[124.7718,1.6926],[124.7638,1.7031],[124.7576,1.7104],[124.772,1.7088],[124.7775,1.7109],[124.7798,1.7074],[124.7807,1.6975],[124.7784,1.698],[124.7784,1.6951],[124.7718,1.6926]]]}},{"type":"Feature","properties":{"name":"Minaesa","name_en":"Minaesa","admin_level":"7","osm_id":""},"geometry":{"type":"Polygon","coordinates":[[[124.8783,1.627],[124.8827,1.6231],[124.8841,1.6165],[124.8747,1.6067],[124.8724,1.5954],[124.8695,1.5921],[124.8666,1.5913],[124.8632,1.5969],[124.8671,1.599],[124.869,1.6023],[124.8674,1.6074],[124.868,1.614],[124.8723,1.6173],[124.8713,1.6206],[124.8783,1.627]]]}},{"type":"Feature","properties":{"name":"Nain","name_en":"Nain","admin_level":"7","osm_id":""},"geometry":{"type":"Polygon","coordinates":[[[124.7963,1.7885],[124.798,1.7764],[124.7969,1.7756],[124.7896,1.778],[124.7882,1.784],[124.7887,1.7869],[124.7963,1.7885]]]}},{"type":"Feature","properties":{"name":"Ponto","name_en":"Ponto","admin_level":"7","osm_id":""},"geometry":{"type":"Polygon","coordinates":[[[124.925,1.6344],[124.917,1.6273],[124.9156,1.6322],[124.9188,1.6379],[124.9192,1.6418],[124.9171,1.6442],[124.9163,1.6503],[124.9188,1.6518],[124.9207,1.6563],[124.9231,1.6557],[124.9223,1.6508],[124.9253,1.6398],[124.925,1.6344]]]}},{"type":"Feature","properties":{"name":"TalawaanAtas","name_en":"TalawaanAtas","admin_level":"7","osm_id":""},"geometry":{"type":"Polygon","coordinates":[[[124.8966,1.5705],[124.8908,1.5692],[124.8863,1.574],[124.8825,1.5714],[124.8797,1.5729],[124.8767,1.571],[124.8774,1.5754],[124.8716,1.5793],[124.8743,1.5815],[124.8728,1.5856],[124.8736,1.589],[124.879,1.5865],[124.8837,1.5891],[124.8891,1.5892],[124.8911,1.5822],[124.8972,1.5753],[124.8977,1.5698],[124.8966,1.5705]]]}},{"type":"Feature","properties":{"name":"TalawaanBantik","name_en":"TalawaanBantik","admin_level":"7","osm_id":""},"geometry":{"type":"Polygon","coordinates":[[[124.9065,1.5724],[124.8977,1.5698],[124.8972,1.5753],[124.8911,1.5822],[124.8875,1.5918],[124.8891,1.6035],[124.8944,1.6089],[124.8956,1.6183],[124.9026,1.6175],[124.9068,1.6148],[124.9015,1.5996],[124.9062,1.5846],[124.9053,1.5799],[124.9065,1.5724]]]}},{"type":"Feature","properties":{"name":"Tatampi","name_en":"Tatampi","admin_level":"7","osm_id":""},"geometry":{"type":"Polygon","coordinates":[[[124.7963,1.7885],[124.7887,1.7869],[124.7895,1.7909],[124.7929,1.7954],[124.7986,1.7939],[124.7963,1.7885]]]}},{"type":"Feature","properties":{"name":"Tiwoho","name_en":"Tiwoho","admin_level":"7","osm_id":""},"geometry":{"type":"Polygon","coordinates":[[[124.8426,1.5673],[124.8269,1.5769],[124.8206,1.5825],[124.8276,1.5883],[124.8293,1.592],[124.8383,1.5938],[124.8464,1.5982],[124.8474,1.5968],[124.8475,1.5984],[124.8494,1.5978],[124.8511,1.5996],[124.8526,1.5939],[124.852,1.5865],[124.8441,1.5737],[124.8426,1.5673]]]}},{"type":"Feature","properties":{"name":"Wori","name_en":"Wori","admin_level":"7","osm_id":""},"geometry":{"type":"Polygon","coordinates":[[[124.8446,1.5657],[124.8426,1.5673],[124.8433,1.5712],[124.8527,1.5896],[124.8512,1.5991],[124.8542,1.5983],[124.8582,1.5996],[124.8622,1.6033],[124.8622,1.6002],[124.866,1.5996],[124.8632,1.5969],[124.867,1.5912],[124.8667,1.587],[124.8696,1.587],[124.8703,1.59],[124.8736,1.589],[124.8728,1.5856],[124.8743,1.5815],[124.8716,1.5793],[124.8752,1.5767],[124.8702,1.5718],[124.857,1.569],[124.8499,1.569],[124.8446,1.5657]]]}}]}