{"type":"FeatureCollection","metadata":{"parent_osm_id":"gid_IDN_11_28_1_1","parent_name":"Bangil","parent_name_1":"JawaTimur","parent_gid":"IDN.11.28.1_1","parent_level":"6","child_level":"7","count":15,"source":"GADM 4.1","generated":"2026-05-09"},"features":[{"type":"Feature","properties":{"name":"BendoMungal","name_en":"BendoMungal","admin_level":"7","osm_id":""},"geometry":{"type":"Polygon","coordinates":[[[112.7875,-7.5855],[112.7903,-7.5874],[112.785,-7.5983],[112.7831,-7.5955],[112.7831,-7.5916],[112.7856,-7.591],[112.7875,-7.5855]]]}},{"type":"Feature","properties":{"name":"Dermo","name_en":"Dermo","admin_level":"7","osm_id":""},"geometry":{"type":"Polygon","coordinates":[[[112.79,-7.6086],[112.7909,-7.5998],[112.7937,-7.6011],[112.7958,-7.5998],[112.7991,-7.6007],[112.8003,-7.5991],[112.803,-7.6001],[112.7959,-7.6087],[112.7958,-7.6189],[112.7939,-7.6204],[112.7911,-7.6176],[112.7941,-7.6121],[112.7903,-7.6131],[112.79,-7.6086]]]}},{"type":"Feature","properties":{"name":"Gempeng","name_en":"Gempeng","admin_level":"7","osm_id":""},"geometry":{"type":"Polygon","coordinates":[[[112.803,-7.6001],[112.8003,-7.5991],[112.7991,-7.6007],[112.7958,-7.5998],[112.7937,-7.6011],[112.791,-7.5997],[112.79,-7.6086],[112.7853,-7.6069],[112.7891,-7.5987],[112.7926,-7.5955],[112.7926,-7.5927],[112.7939,-7.5932],[112.795,-7.5914],[112.7955,-7.593],[112.8033,-7.5947],[112.8024,-7.5966],[112.8061,-7.5979],[112.8052,-7.5999],[112.803,-7.6001]]]}},{"type":"Feature","properties":{"name":"Kalianyar","name_en":"Kalianyar","admin_level":"7","osm_id":""},"geometry":{"type":"Polygon","coordinates":[[[112.8389,-7.5702],[112.8367,-7.5708],[112.8337,-7.5685],[112.8333,-7.5732],[112.8291,-7.5743],[112.8199,-7.5848],[112.8159,-7.5861],[112.8136,-7.589],[112.8101,-7.5879],[112.806,-7.5814],[112.8045,-7.5824],[112.805,-7.5798],[112.8017,-7.5779],[112.7979,-7.5763],[112.7942,-7.5803],[112.7974,-7.572],[112.795,-7.5677],[112.793,-7.567],[112.8001,-7.5656],[112.8021,-7.5591],[112.805,-7.5593],[112.8065,-7.555],[112.8116,-7.5546],[112.8109,-7.5568],[112.8129,-7.5587],[112.8165,-7.5589],[112.832,-7.5524],[112.8342,-7.5539],[112.8362,-7.5645],[112.8389,-7.5702]]]}},{"type":"Feature","properties":{"name":"Kalirejo","name_en":"Kalirejo","admin_level":"7","osm_id":""},"geometry":{"type":"Polygon","coordinates":[[[112.7894,-7.5908],[112.7903,-7.5874],[112.787,-7.5847],[112.7881,-7.5786],[112.7907,-7.5754],[112.796,-7.5749],[112.7969,-7.5756],[112.7942,-7.5803],[112.7979,-7.5763],[112.7995,-7.5782],[112.7942,-7.5821],[112.7955,-7.585],[112.7917,-7.5905],[112.7936,-7.5917],[112.792,-7.5916],[112.7908,-7.5942],[112.7894,-7.5908]]]}},{"type":"Feature","properties":{"name":"Kauman","name_en":"Kauman","admin_level":"7","osm_id":""},"geometry":{"type":"Polygon","coordinates":[[[112.7831,-7.5916],[112.7831,-7.5955],[112.785,-7.5983],[112.7787,-7.5977],[112.7795,-7.5947],[112.7762,-7.5903],[112.7809,-7.5918],[112.7813,-7.59],[112.7831,-7.5916]]]}},{"type":"Feature","properties":{"name":"Kersikan","name_en":"Kersikan","admin_level":"7","osm_id":""},"geometry":{"type":"Polygon","coordinates":[[[112.785,-7.5983],[112.7894,-7.5908],[112.7908,-7.5942],[112.792,-7.5916],[112.7936,-7.5917],[112.7917,-7.5945],[112.7926,-7.5955],[112.7883,-7.6],[112.785,-7.5983]]]}},{"type":"Feature","properties":{"name":"KidulDalem","name_en":"KidulDalem","admin_level":"7","osm_id":""},"geometry":{"type":"Polygon","coordinates":[[[112.7883,-7.6],[112.7882,-7.6027],[112.7869,-7.604],[112.7848,-7.6029],[112.7829,-7.6059],[112.778,-7.6023],[112.781,-7.6006],[112.779,-7.5978],[112.7883,-7.6]]]}},{"type":"Feature","properties":{"name":"Kolursari","name_en":"Kolursari","admin_level":"7","osm_id":""},"geometry":{"type":"Polygon","coordinates":[[[112.7579,-7.6088],[112.7662,-7.6031],[112.7684,-7.6076],[112.7668,-7.6086],[112.7727,-7.6115],[112.7697,-7.6162],[112.7654,-7.6191],[112.7659,-7.6206],[112.7626,-7.621],[112.7646,-7.6196],[112.7638,-7.6151],[112.7583,-7.6144],[112.7579,-7.6088]]]}},{"type":"Feature","properties":{"name":"Latek","name_en":"Latek","admin_level":"7","osm_id":""},"geometry":{"type":"Polygon","coordinates":[[[112.7962,-7.611],[112.7959,-7.6087],[112.8015,-7.6034],[112.8019,-7.6008],[112.8052,-7.5999],[112.8061,-7.5979],[112.8082,-7.5984],[112.807,-7.5998],[112.8092,-7.6007],[112.8093,-7.606],[112.8036,-7.6072],[112.7992,-7.615],[112.7962,-7.611]]]}},{"type":"Feature","properties":{"name":"Manaruwi","name_en":"Manaruwi","admin_level":"7","osm_id":""},"geometry":{"type":"Polygon","coordinates":[[[112.8061,-7.5979],[112.8024,-7.5966],[112.8033,-7.5947],[112.7955,-7.593],[112.7954,-7.5915],[112.7939,-7.5932],[112.7933,-7.5908],[112.7917,-7.5908],[112.7955,-7.585],[112.7942,-7.5821],[112.7999,-7.5773],[112.805,-7.5798],[112.8045,-7.5827],[112.8064,-7.5859],[112.8052,-7.5887],[112.8065,-7.5892],[112.805,-7.5921],[112.8099,-7.593],[112.8083,-7.5984],[112.8061,-7.5979]]]}},{"type":"Feature","properties":{"name":"Masangan","name_en":"Masangan","admin_level":"7","osm_id":""},"geometry":{"type":"Polygon","coordinates":[[[112.8045,-7.5824],[112.806,-7.5814],[112.8101,-7.5879],[112.8136,-7.589],[112.8159,-7.5861],[112.8199,-7.5848],[112.8291,-7.5743],[112.8333,-7.5732],[112.8337,-7.5685],[112.8413,-7.5723],[112.8365,-7.5816],[112.8306,-7.5856],[112.8238,-7.5933],[112.823,-7.5954],[112.8252,-7.5971],[112.819,-7.6054],[112.8121,-7.606],[112.8115,-7.6022],[112.807,-7.5998],[112.8099,-7.593],[112.805,-7.5921],[112.8064,-7.5859],[112.8045,-7.5824]]]}},{"type":"Feature","properties":{"name":"Pogar","name_en":"Pogar","admin_level":"7","osm_id":""},"geometry":{"type":"Polygon","coordinates":[[[112.7762,-7.5903],[112.7795,-7.5947],[112.7787,-7.5977],[112.781,-7.6006],[112.7757,-7.6035],[112.7755,-7.6051],[112.7718,-7.6057],[112.7697,-7.6048],[112.7718,-7.5985],[112.7695,-7.5977],[112.7691,-7.5955],[112.7707,-7.5958],[112.773,-7.5891],[112.7726,-7.584],[112.7777,-7.587],[112.7762,-7.5903]]]}},{"type":"Feature","properties":{"name":"Raci","name_en":"Raci","admin_level":"7","osm_id":""},"geometry":{"type":"Polygon","coordinates":[[[112.8191,-7.6053],[112.8252,-7.5971],[112.823,-7.5954],[112.8238,-7.5933],[112.8306,-7.5856],[112.8365,-7.5816],[112.8413,-7.5723],[112.8454,-7.5783],[112.8554,-7.5837],[112.8374,-7.6024],[112.838,-7.608],[112.8427,-7.6053],[112.8417,-7.6071],[112.8436,-7.609],[112.8435,-7.6133],[112.8419,-7.6126],[112.841,-7.6151],[112.8234,-7.6135],[112.8249,-7.6061],[112.8191,-7.6053]]]}},{"type":"Feature","properties":{"name":"Tambakan","name_en":"Tambakan","admin_level":"7","osm_id":""},"geometry":{"type":"Polygon","coordinates":[[[112.8014,-7.562],[112.7997,-7.5659],[112.7933,-7.5662],[112.7974,-7.572],[112.7963,-7.5752],[112.7903,-7.5756],[112.7875,-7.5827],[112.7768,-7.5761],[112.7775,-7.5691],[112.7847,-7.5628],[112.7902,-7.5644],[112.7959,-7.5612],[112.7995,-7.5605],[112.8014,-7.562]]]}}]}