{"type":"FeatureCollection","metadata":{"parent_osm_id":"gid_IDN_10_22_12_1","parent_name":"Petungkriyono","parent_name_1":"JawaTengah","parent_gid":"IDN.10.22.12_1","parent_level":"6","child_level":"7","count":9,"source":"GADM 4.1","generated":"2026-05-09"},"features":[{"type":"Feature","properties":{"name":"Curugmuncar","name_en":"Curugmuncar","admin_level":"7","osm_id":""},"geometry":{"type":"Polygon","coordinates":[[[109.729,-7.168],[109.7273,-7.1745],[109.7224,-7.1803],[109.718,-7.1811],[109.7146,-7.1794],[109.7115,-7.1742],[109.7085,-7.1728],[109.7166,-7.162],[109.7183,-7.1643],[109.729,-7.168]]]}},{"type":"Feature","properties":{"name":"Gumelem","name_en":"Gumelem","admin_level":"7","osm_id":""},"geometry":{"type":"Polygon","coordinates":[[[109.7616,-7.1766],[109.7538,-7.1807],[109.7521,-7.1794],[109.7476,-7.1828],[109.7454,-7.1825],[109.7441,-7.1844],[109.7454,-7.1879],[109.7437,-7.1904],[109.7261,-7.2018],[109.7272,-7.1961],[109.7263,-7.1906],[109.7191,-7.1806],[109.7245,-7.1789],[109.7279,-7.1733],[109.729,-7.168],[109.741,-7.1682],[109.7428,-7.1636],[109.7455,-7.1654],[109.7456,-7.1678],[109.7518,-7.1708],[109.7596,-7.168],[109.7616,-7.1766]]]}},{"type":"Feature","properties":{"name":"Kasimpar","name_en":"Kasimpar","admin_level":"7","osm_id":""},"geometry":{"type":"Polygon","coordinates":[[[109.7239,-7.1275],[109.7335,-7.1291],[109.7422,-7.136],[109.7458,-7.1366],[109.746,-7.1485],[109.7404,-7.1505],[109.733,-7.1408],[109.7289,-7.1381],[109.7243,-7.1312],[109.7239,-7.1275]]]}},{"type":"Feature","properties":{"name":"Kayupuring","name_en":"Kayupuring","admin_level":"7","osm_id":""},"geometry":{"type":"Polygon","coordinates":[[[109.7388,-7.1007],[109.7436,-7.1115],[109.7532,-7.1126],[109.7593,-7.1181],[109.7569,-7.1241],[109.7591,-7.132],[109.755,-7.1433],[109.7586,-7.1516],[109.7516,-7.148],[109.746,-7.1485],[109.7458,-7.1366],[109.7422,-7.136],[109.7335,-7.1291],[109.7239,-7.1275],[109.7244,-7.1235],[109.7216,-7.1199],[109.7235,-7.1169],[109.7221,-7.1153],[109.7229,-7.1081],[109.7201,-7.0974],[109.7218,-7.092],[109.7276,-7.0909],[109.7334,-7.0917],[109.7388,-7.1007]]]}},{"type":"Feature","properties":{"name":"Simego","name_en":"Simego","admin_level":"7","osm_id":""},"geometry":{"type":"Polygon","coordinates":[[[109.7075,-7.1997],[109.7041,-7.1953],[109.6949,-7.1963],[109.69,-7.1951],[109.6903,-7.1925],[109.6831,-7.1851],[109.682,-7.1805],[109.683,-7.1775],[109.6814,-7.1745],[109.6884,-7.1671],[109.6905,-7.1703],[109.6933,-7.1671],[109.7006,-7.1723],[109.7057,-7.1712],[109.7102,-7.1733],[109.7131,-7.1782],[109.7191,-7.1806],[109.7244,-7.187],[109.7271,-7.1937],[109.7261,-7.2018],[109.7141,-7.1982],[109.7075,-7.1997]]]}},{"type":"Feature","properties":{"name":"Songgodadi","name_en":"Songgodadi","admin_level":"7","osm_id":""},"geometry":{"type":"Polygon","coordinates":[[[109.6933,-7.1671],[109.6997,-7.162],[109.7008,-7.1517],[109.7074,-7.1535],[109.7091,-7.1525],[109.7149,-7.1564],[109.7146,-7.1591],[109.7166,-7.1619],[109.7085,-7.1728],[109.7057,-7.1712],[109.7006,-7.1723],[109.6933,-7.1671]]]}},{"type":"Feature","properties":{"name":"Tlogohendro","name_en":"Tlogohendro","admin_level":"7","osm_id":""},"geometry":{"type":"Polygon","coordinates":[[[109.7679,-7.1799],[109.7607,-7.1765],[109.7595,-7.1676],[109.7568,-7.1628],[109.759,-7.1605],[109.7589,-7.1527],[109.755,-7.1433],[109.7591,-7.132],[109.7569,-7.1249],[109.7574,-7.1211],[109.7596,-7.1198],[109.7568,-7.1151],[109.7532,-7.1126],[109.762,-7.1163],[109.7668,-7.1148],[109.7717,-7.1162],[109.7723,-7.1195],[109.7743,-7.1209],[109.7747,-7.1257],[109.7729,-7.1317],[109.7737,-7.1347],[109.7707,-7.139],[109.7714,-7.1428],[109.775,-7.1447],[109.778,-7.1511],[109.7781,-7.1558],[109.7834,-7.1605],[109.784,-7.163],[109.7876,-7.1662],[109.7944,-7.168],[109.7987,-7.1712],[109.792,-7.1752],[109.781,-7.1788],[109.7679,-7.1799]]]}},{"type":"Feature","properties":{"name":"Tlogopakis","name_en":"Tlogopakis","admin_level":"7","osm_id":""},"geometry":{"type":"Polygon","coordinates":[[[109.6823,-7.1351],[109.6936,-7.1297],[109.7079,-7.1269],[109.7133,-7.1397],[109.7311,-7.1612],[109.7302,-7.1663],[109.7269,-7.1678],[109.7183,-7.1643],[109.7146,-7.1591],[109.7139,-7.1553],[109.7091,-7.1525],[109.7079,-7.1535],[109.7022,-7.1514],[109.7,-7.1522],[109.6994,-7.15],[109.6951,-7.1481],[109.695,-7.1457],[109.6908,-7.145],[109.6897,-7.1414],[109.686,-7.1399],[109.6823,-7.1351]]]}},{"type":"Feature","properties":{"name":"Yosorejo","name_en":"Yosorejo","admin_level":"7","osm_id":""},"geometry":{"type":"Polygon","coordinates":[[[109.7079,-7.1269],[109.7177,-7.1305],[109.7239,-7.1275],[109.7243,-7.1312],[109.7289,-7.1381],[109.733,-7.1408],[109.7407,-7.1507],[109.7494,-7.1475],[109.7582,-7.1512],[109.759,-7.1605],[109.7568,-7.1628],[109.7596,-7.168],[109.7518,-7.1708],[109.7456,-7.1678],[109.7455,-7.1654],[109.7428,-7.1636],[109.741,-7.1682],[109.729,-7.168],[109.7311,-7.1612],[109.7133,-7.1397],[109.7079,-7.1269]]]}}]}