{"type":"FeatureCollection","metadata":{"parent_osm_id":"gid_IDN_17_6_16_1","parent_name":"Kotabumi","parent_name_1":"Lampung","parent_gid":"IDN.17.6.16_1","parent_level":"6","child_level":"7","count":13,"source":"GADM 4.1","generated":"2026-05-09"},"features":[{"type":"Feature","properties":{"name":"BojongBarat","name_en":"BojongBarat","admin_level":"7","osm_id":""},"geometry":{"type":"Polygon","coordinates":[[[104.7994,-4.8382],[104.7879,-4.8366],[104.792,-4.8313],[104.7982,-4.8285],[104.7985,-4.8223],[104.8153,-4.8313],[104.8156,-4.8445],[104.8071,-4.8401],[104.7994,-4.8382]]]}},{"type":"Feature","properties":{"name":"Cempedak","name_en":"Cempedak","admin_level":"7","osm_id":""},"geometry":{"type":"Polygon","coordinates":[[[104.8815,-4.8252],[104.8778,-4.8252],[104.8782,-4.8197],[104.8813,-4.8178],[104.8836,-4.8239],[104.8815,-4.8252]]]}},{"type":"Feature","properties":{"name":"KotaGapura","name_en":"KotaGapura","admin_level":"7","osm_id":""},"geometry":{"type":"Polygon","coordinates":[[[104.9099,-4.8327],[104.9079,-4.8389],[104.902,-4.8393],[104.9002,-4.8352],[104.8891,-4.8355],[104.8838,-4.8319],[104.8834,-4.8275],[104.8861,-4.8264],[104.8929,-4.8272],[104.9099,-4.8327]]]}},{"type":"Feature","properties":{"name":"KotabumiIlir","name_en":"KotabumiIlir","admin_level":"7","osm_id":""},"geometry":{"type":"Polygon","coordinates":[[[104.9219,-4.795],[104.9341,-4.7994],[104.9367,-4.8031],[104.9343,-4.805],[104.9216,-4.8033],[104.9183,-4.8063],[104.9243,-4.8173],[104.9213,-4.8166],[104.9156,-4.8188],[104.9045,-4.8183],[104.9026,-4.8155],[104.8879,-4.8163],[104.8822,-4.8141],[104.8804,-4.8107],[104.8777,-4.8133],[104.8771,-4.8033],[104.8819,-4.7998],[104.8753,-4.789],[104.8796,-4.7896],[104.8896,-4.796],[104.9017,-4.7995],[104.9107,-4.8003],[104.9141,-4.798],[104.9148,-4.7995],[104.9158,-4.7973],[104.9219,-4.795]]]}},{"type":"Feature","properties":{"name":"KotabumiPasar","name_en":"KotabumiPasar","admin_level":"7","osm_id":""},"geometry":{"type":"Polygon","coordinates":[[[104.8813,-4.8178],[104.8781,-4.8202],[104.8743,-4.8199],[104.8741,-4.8139],[104.8789,-4.8134],[104.8813,-4.8178]]]}},{"type":"Feature","properties":{"name":"KotabumiTengah","name_en":"KotabumiTengah","admin_level":"7","osm_id":""},"geometry":{"type":"Polygon","coordinates":[[[104.8836,-4.8239],[104.878,-4.8135],[104.8804,-4.8107],[104.8822,-4.8141],[104.8879,-4.8163],[104.8859,-4.8234],[104.8836,-4.8239]]]}},{"type":"Feature","properties":{"name":"KotabumiTengahBarat","name_en":"KotabumiTengahBarat","admin_level":"7","osm_id":""},"geometry":{"type":"Polygon","coordinates":[[[104.7879,-4.8366],[104.7801,-4.8388],[104.7795,-4.8454],[104.7731,-4.8458],[104.7687,-4.8408],[104.771,-4.836],[104.7685,-4.8338],[104.7752,-4.8168],[104.7939,-4.8111],[104.7985,-4.8223],[104.7982,-4.8285],[104.792,-4.8313],[104.7879,-4.8366]]]}},{"type":"Feature","properties":{"name":"KotabumiUdik","name_en":"KotabumiUdik","admin_level":"7","osm_id":""},"geometry":{"type":"Polygon","coordinates":[[[104.8778,-4.8252],[104.8629,-4.8356],[104.8539,-4.8489],[104.8507,-4.8511],[104.8456,-4.8324],[104.8147,-4.8258],[104.8129,-4.8302],[104.7985,-4.8223],[104.7939,-4.8111],[104.8033,-4.809],[104.8082,-4.8026],[104.8061,-4.7977],[104.8457,-4.7953],[104.8529,-4.8031],[104.8529,-4.806],[104.8561,-4.8096],[104.8672,-4.8145],[104.8743,-4.8199],[104.8781,-4.8202],[104.8778,-4.8252]]]}},{"type":"Feature","properties":{"name":"Rejosari","name_en":"Rejosari","admin_level":"7","osm_id":""},"geometry":{"type":"Polygon","coordinates":[[[104.9171,-4.8367],[104.91,-4.8324],[104.8951,-4.8286],[104.8945,-4.8245],[104.897,-4.8226],[104.8945,-4.815],[104.9026,-4.8155],[104.9045,-4.8183],[104.9251,-4.8174],[104.9265,-4.821],[104.9181,-4.8288],[104.9171,-4.8367]]]}},{"type":"Feature","properties":{"name":"SindangSari","name_en":"SindangSari","admin_level":"7","osm_id":""},"geometry":{"type":"Polygon","coordinates":[[[104.8661,-4.799],[104.8706,-4.7986],[104.8712,-4.7929],[104.8749,-4.7894],[104.8819,-4.7998],[104.8771,-4.8033],[104.878,-4.8135],[104.8741,-4.8139],[104.8734,-4.819],[104.8672,-4.8145],[104.8561,-4.8096],[104.8529,-4.806],[104.8529,-4.8031],[104.8457,-4.7953],[104.855,-4.7986],[104.8661,-4.799]]]}},{"type":"Feature","properties":{"name":"Sribasuki","name_en":"Sribasuki","admin_level":"7","osm_id":""},"geometry":{"type":"Polygon","coordinates":[[[104.8834,-4.8275],[104.8815,-4.8252],[104.8859,-4.8234],[104.8867,-4.8172],[104.8894,-4.8153],[104.8946,-4.8153],[104.897,-4.8226],[104.8945,-4.8245],[104.8951,-4.8286],[104.8861,-4.8264],[104.8834,-4.8275]]]}},{"type":"Feature","properties":{"name":"SumberArum","name_en":"SumberArum","admin_level":"7","osm_id":""},"geometry":{"type":"Polygon","coordinates":[[[104.9504,-4.8157],[104.9379,-4.8227],[104.926,-4.8197],[104.9183,-4.8063],[104.9216,-4.8033],[104.9343,-4.805],[104.9367,-4.8031],[104.9341,-4.7994],[104.9484,-4.8019],[104.9516,-4.8093],[104.9516,-4.8151],[104.9504,-4.8157]]]}},{"type":"Feature","properties":{"name":"TalangBojong","name_en":"TalangBojong","admin_level":"7","osm_id":""},"geometry":{"type":"Polygon","coordinates":[[[104.8315,-4.8541],[104.8283,-4.8538],[104.8156,-4.8445],[104.8153,-4.8313],[104.8129,-4.8302],[104.8147,-4.8258],[104.8456,-4.8324],[104.8507,-4.8511],[104.8462,-4.8525],[104.8446,-4.8549],[104.8421,-4.8525],[104.8385,-4.8542],[104.8315,-4.8541]]]}}]}