{"type":"FeatureCollection","metadata":{"parent_osm_id":"10621266","parent_name":"Meranti","parent_name_1":"SumateraUtara","parent_gid":"IDN.32.1.11_1","parent_level":"6","child_level":"7","count":7,"source":"GADM 4.1","generated":"2026-05-09"},"features":[{"type":"Feature","properties":{"name":"AirPutih","name_en":"AirPutih","admin_level":"7","osm_id":""},"geometry":{"type":"Polygon","coordinates":[[[99.6102,3.1037],[99.6259,3.1186],[99.6299,3.1241],[99.6327,3.1172],[99.6314,3.1133],[99.6361,3.1025],[99.6314,3.0926],[99.6267,3.0904],[99.616,3.0907],[99.6128,3.0852],[99.6075,3.0821],[99.607,3.0943],[99.611,3.0983],[99.6102,3.1037]]]}},{"type":"Feature","properties":{"name":"DesaGajah","name_en":"DesaGajah","admin_level":"7","osm_id":""},"geometry":{"type":"Polygon","coordinates":[[[99.6183,3.1122],[99.6102,3.1037],[99.6066,3.1019],[99.602,3.102],[99.5999,3.0983],[99.589,3.1107],[99.6076,3.1269],[99.6116,3.1269],[99.6157,3.1196],[99.6151,3.1117],[99.6183,3.1122]]]}},{"type":"Feature","properties":{"name":"Meranti","name_en":"Meranti","admin_level":"7","osm_id":""},"geometry":{"type":"Polygon","coordinates":[[[99.6324,3.0616],[99.6182,3.0616],[99.6168,3.0694],[99.6185,3.0698],[99.6235,3.0772],[99.6302,3.0771],[99.631,3.0749],[99.6342,3.0754],[99.6369,3.0792],[99.6397,3.0787],[99.6324,3.0616]]]}},{"type":"Feature","properties":{"name":"PerkebunanSeiBalai","name_en":"PerkebunanSeiBalai","admin_level":"7","osm_id":""},"geometry":{"type":"Polygon","coordinates":[[[99.6168,3.0664],[99.6182,3.0616],[99.6324,3.0616],[99.6325,3.0418],[99.6309,3.0418],[99.631,3.0364],[99.5956,3.0362],[99.5945,3.0432],[99.5982,3.0577],[99.5952,3.0669],[99.5984,3.0691],[99.6154,3.0686],[99.6155,3.0664],[99.6168,3.0664]]]}},{"type":"Feature","properties":{"name":"SeiBeluru","name_en":"SeiBeluru","admin_level":"7","osm_id":""},"geometry":{"type":"Polygon","coordinates":[[[99.6076,3.0821],[99.6128,3.0852],[99.616,3.0907],[99.6267,3.0904],[99.6245,3.0772],[99.6168,3.0694],[99.6168,3.0664],[99.6155,3.0664],[99.6154,3.0686],[99.5984,3.0691],[99.6046,3.074],[99.6076,3.0821]]]}},{"type":"Feature","properties":{"name":"Serdang","name_en":"Serdang","admin_level":"7","osm_id":""},"geometry":{"type":"Polygon","coordinates":[[[99.6267,3.0904],[99.6314,3.0926],[99.632,3.0962],[99.6358,3.1009],[99.6346,3.1079],[99.6314,3.1133],[99.6326,3.1174],[99.6353,3.1197],[99.6414,3.1147],[99.6483,3.1055],[99.6492,3.0979],[99.6429,3.0897],[99.6397,3.0787],[99.6369,3.0792],[99.6341,3.0753],[99.631,3.0749],[99.6302,3.0771],[99.6245,3.0772],[99.6267,3.0904]]]}},{"type":"Feature","properties":{"name":"Sukajadi","name_en":"Sukajadi","admin_level":"7","osm_id":""},"geometry":{"type":"Polygon","coordinates":[[[99.6299,3.1241],[99.6197,3.1134],[99.6151,3.1117],[99.6157,3.1196],[99.6116,3.1269],[99.6192,3.128],[99.6218,3.1304],[99.6299,3.1241]]]}}]}