{"type":"FeatureCollection","metadata":{"parent_osm_id":"5615255","parent_name":"Tanjungsari","parent_name_1":"JawaBarat","parent_gid":"IDN.9.25.23_1","parent_level":"6","child_level":"7","count":12,"source":"GADM 4.1","generated":"2026-05-09"},"features":[{"type":"Feature","properties":{"name":"Cijambu","name_en":"Cijambu","admin_level":"7","osm_id":""},"geometry":{"type":"Polygon","coordinates":[[[107.7677,-6.8075],[107.7773,-6.8025],[107.781,-6.8067],[107.7863,-6.8062],[107.7928,-6.8098],[107.8061,-6.8221],[107.8059,-6.8329],[107.8075,-6.8361],[107.806,-6.8388],[107.8086,-6.8445],[107.8057,-6.844],[107.809,-6.8506],[107.8051,-6.8554],[107.8025,-6.8563],[107.803,-6.8547],[107.7988,-6.8488],[107.7961,-6.8479],[107.7945,-6.8491],[107.7934,-6.8468],[107.7862,-6.8449],[107.7837,-6.8344],[107.781,-6.8309],[107.7758,-6.8295],[107.7762,-6.8187],[107.7679,-6.811],[107.7677,-6.8075]]]}},{"type":"Feature","properties":{"name":"Cinanjung","name_en":"Cinanjung","admin_level":"7","osm_id":""},"geometry":{"type":"Polygon","coordinates":[[[107.8084,-6.9313],[107.8074,-6.9335],[107.8031,-6.9348],[107.8002,-6.9275],[107.7903,-6.9211],[107.7931,-6.9181],[107.7953,-6.9115],[107.801,-6.9128],[107.8012,-6.9101],[107.8036,-6.9101],[107.81,-6.9115],[107.8116,-6.9161],[107.8113,-6.9219],[107.8134,-6.9244],[107.8102,-6.925],[107.8076,-6.9291],[107.8084,-6.9313]]]}},{"type":"Feature","properties":{"name":"Gudang","name_en":"Gudang","admin_level":"7","osm_id":""},"geometry":{"type":"Polygon","coordinates":[[[107.8146,-6.8946],[107.8153,-6.8964],[107.8179,-6.8973],[107.812,-6.8968],[107.8049,-6.8987],[107.8039,-6.8973],[107.8043,-6.8851],[107.8016,-6.8791],[107.8065,-6.8756],[107.8099,-6.8765],[107.8112,-6.8793],[107.8067,-6.8845],[107.8062,-6.8882],[107.809,-6.8919],[107.8146,-6.8946]]]}},{"type":"Feature","properties":{"name":"Gunungmanik","name_en":"Gunungmanik","admin_level":"7","osm_id":""},"geometry":{"type":"Polygon","coordinates":[[[107.818,-6.8971],[107.8276,-6.897],[107.8292,-6.8988],[107.8269,-6.902],[107.827,-6.9062],[107.8342,-6.916],[107.8322,-6.9189],[107.8247,-6.9145],[107.8199,-6.9145],[107.8185,-6.9118],[107.8209,-6.9086],[107.8189,-6.9062],[107.8198,-6.9042],[107.8159,-6.9033],[107.8166,-6.8973],[107.818,-6.8971]]]}},{"type":"Feature","properties":{"name":"Jatisari","name_en":"Jatisari","admin_level":"7","osm_id":""},"geometry":{"type":"Polygon","coordinates":[[[107.797,-6.9034],[107.8005,-6.8969],[107.8039,-6.8973],[107.8006,-6.905],[107.8022,-6.9054],[107.801,-6.9128],[107.7953,-6.9115],[107.7964,-6.9075],[107.7945,-6.9069],[107.797,-6.9034]]]}},{"type":"Feature","properties":{"name":"Kadakajaya","name_en":"Kadakajaya","admin_level":"7","osm_id":""},"geometry":{"type":"Polygon","coordinates":[[[107.7529,-6.8132],[107.7613,-6.8111],[107.7677,-6.8075],[107.7679,-6.811],[107.7762,-6.8187],[107.7758,-6.8295],[107.781,-6.8309],[107.7837,-6.8344],[107.7862,-6.8449],[107.7934,-6.8468],[107.7945,-6.8491],[107.7961,-6.8479],[107.7991,-6.8491],[107.8031,-6.8551],[107.8034,-6.8611],[107.8002,-6.8643],[107.8,-6.867],[107.7971,-6.8675],[107.7967,-6.8728],[107.7953,-6.8737],[107.7925,-6.8715],[107.7942,-6.8679],[107.7935,-6.8628],[107.7907,-6.8605],[107.7901,-6.8567],[107.7873,-6.8549],[107.787,-6.8517],[107.7824,-6.8442],[107.7771,-6.843],[107.7741,-6.8395],[107.7735,-6.8355],[107.7684,-6.8325],[107.7596,-6.8224],[107.7567,-6.8158],[107.7529,-6.8132]]]}},{"type":"Feature","properties":{"name":"Kutamandiri","name_en":"Kutamandiri","admin_level":"7","osm_id":""},"geometry":{"type":"Polygon","coordinates":[[[107.7826,-6.9092],[107.7874,-6.905],[107.7919,-6.9061],[107.7949,-6.9028],[107.797,-6.9034],[107.7945,-6.9069],[107.7964,-6.9075],[107.7944,-6.9155],[107.7888,-6.9222],[107.7857,-6.9216],[107.786,-6.9175],[107.7846,-6.9179],[107.7844,-6.9147],[107.7831,-6.9145],[107.7844,-6.9108],[107.7826,-6.9092]]]}},{"type":"Feature","properties":{"name":"MargaJaya","name_en":"MargaJaya","admin_level":"7","osm_id":""},"geometry":{"type":"Polygon","coordinates":[[[107.81,-6.9115],[107.8047,-6.9103],[107.8078,-6.9038],[107.8049,-6.8987],[107.812,-6.8968],[107.8166,-6.8973],[107.8159,-6.9033],[107.8195,-6.9036],[107.8189,-6.9062],[107.8211,-6.9078],[107.8185,-6.9118],[107.8199,-6.914],[107.81,-6.9115]]]}},{"type":"Feature","properties":{"name":"Margaluyu","name_en":"Margaluyu","admin_level":"7","osm_id":""},"geometry":{"type":"Polygon","coordinates":[[[107.7875,-6.8931],[107.7889,-6.8898],[107.7978,-6.8841],[107.8021,-6.886],[107.801,-6.8898],[107.8016,-6.8921],[107.8042,-6.8918],[107.8043,-6.897],[107.8001,-6.8976],[107.7987,-6.8952],[107.7875,-6.8931]]]}},{"type":"Feature","properties":{"name":"Pasigaran","name_en":"Pasigaran","admin_level":"7","osm_id":""},"geometry":{"type":"Polygon","coordinates":[[[107.8031,-6.8619],[107.8073,-6.8633],[107.8078,-6.8686],[107.8054,-6.8723],[107.8066,-6.8756],[107.8016,-6.8791],[107.8043,-6.8851],[107.8042,-6.8918],[107.8016,-6.8921],[107.8021,-6.886],[107.7962,-6.8838],[107.7954,-6.8783],[107.7975,-6.8756],[107.7982,-6.868],[107.8031,-6.8619]]]}},{"type":"Feature","properties":{"name":"Raharja","name_en":"Raharja","admin_level":"7","osm_id":""},"geometry":{"type":"Polygon","coordinates":[[[107.8276,-6.9348],[107.8241,-6.934],[107.8189,-6.9291],[107.8082,-6.9313],[107.8076,-6.9291],[107.8102,-6.925],[107.8134,-6.9244],[107.8113,-6.9219],[107.8116,-6.9161],[107.81,-6.9115],[107.8247,-6.9145],[107.8322,-6.9189],[107.8272,-6.9272],[107.8276,-6.9348]]]}},{"type":"Feature","properties":{"name":"Tanjungsari","name_en":"Tanjungsari","admin_level":"7","osm_id":""},"geometry":{"type":"Polygon","coordinates":[[[107.8047,-6.9103],[107.8012,-6.9101],[107.8022,-6.9054],[107.8006,-6.905],[107.8039,-6.8973],[107.8078,-6.9038],[107.8047,-6.9103]]]}}]}