{"type":"FeatureCollection","metadata":{"parent_osm_id":"gid_IDN_28_7_18_1","parent_name":"Watubangga","parent_name_1":"SulawesiTenggara","parent_gid":"IDN.28.7.18_1","parent_level":"6","child_level":"7","count":12,"source":"GADM 4.1","generated":"2026-05-08"},"features":[{"type":"Feature","properties":{"name":"GunungSari","name_en":"GunungSari","admin_level":"7","osm_id":""},"geometry":{"type":"Polygon","coordinates":[[[121.5279,-4.5276],[121.5154,-4.5181],[121.5166,-4.5144],[121.513,-4.5135],[121.5155,-4.5041],[121.5194,-4.5049],[121.5325,-4.5021],[121.5343,-4.4995],[121.5558,-4.4857],[121.5491,-4.4986],[121.5381,-4.5078],[121.542,-4.5126],[121.5389,-4.5142],[121.5387,-4.5173],[121.543,-4.5223],[121.5279,-4.5276]]]}},{"type":"Feature","properties":{"name":"Kastura","name_en":"Kastura","admin_level":"7","osm_id":""},"geometry":{"type":"Polygon","coordinates":[[[121.6133,-4.489],[121.6271,-4.486],[121.6336,-4.4898],[121.6364,-4.4972],[121.6301,-4.4964],[121.6231,-4.4988],[121.6165,-4.4975],[121.6121,-4.4916],[121.6133,-4.489]]]}},{"type":"Feature","properties":{"name":"Kukutio","name_en":"Kukutio","admin_level":"7","osm_id":""},"geometry":{"type":"Polygon","coordinates":[[[121.6,-4.4901],[121.6032,-4.4929],[121.6073,-4.4934],[121.6133,-4.489],[121.6121,-4.4916],[121.6146,-4.4959],[121.6194,-4.4985],[121.6261,-4.4985],[121.6301,-4.4964],[121.6364,-4.4972],[121.6349,-4.5353],[121.6321,-4.539],[121.6243,-4.5371],[121.6195,-4.5428],[121.6149,-4.542],[121.6141,-4.5447],[121.6111,-4.5463],[121.6051,-4.5447],[121.5974,-4.5383],[121.5906,-4.5395],[121.5884,-4.5383],[121.5879,-4.5351],[121.5911,-4.5301],[121.5917,-4.5178],[121.5839,-4.5207],[121.5763,-4.5207],[121.5784,-4.5196],[121.5784,-4.5157],[121.5759,-4.5101],[121.5808,-4.5086],[121.5914,-4.4954],[121.6,-4.4901]]]}},{"type":"Feature","properties":{"name":"Lamunde","name_en":"Lamunde","admin_level":"7","osm_id":""},"geometry":{"type":"Polygon","coordinates":[[[121.4955,-4.5369],[121.4844,-4.5459],[121.4789,-4.5447],[121.4863,-4.5303],[121.4921,-4.5102],[121.4944,-4.5086],[121.4957,-4.4992],[121.5023,-4.501],[121.5019,-4.5024],[121.5075,-4.5048],[121.5102,-4.5045],[121.5083,-4.509],[121.5111,-4.5098],[121.5104,-4.5122],[121.508,-4.5112],[121.5075,-4.5183],[121.4955,-4.5369]]]}},{"type":"Feature","properties":{"name":"Longgosipi","name_en":"Longgosipi","admin_level":"7","osm_id":""},"geometry":{"type":"Polygon","coordinates":[[[121.6367,-4.5651],[121.6343,-4.563],[121.6329,-4.5639],[121.6324,-4.5625],[121.6279,-4.5625],[121.6269,-4.561],[121.6233,-4.5614],[121.6228,-4.5599],[121.6203,-4.5628],[121.5963,-4.5535],[121.5878,-4.5537],[121.5786,-4.55],[121.5463,-4.554],[121.542,-4.5532],[121.5408,-4.5515],[121.5452,-4.5462],[121.551,-4.5427],[121.5572,-4.5324],[121.5648,-4.5286],[121.5663,-4.5254],[121.5733,-4.529],[121.5753,-4.528],[121.575,-4.5219],[121.576,-4.5224],[121.5763,-4.5207],[121.5839,-4.5207],[121.5917,-4.5178],[121.5911,-4.5301],[121.5879,-4.5351],[121.5884,-4.5383],[121.5906,-4.5395],[121.5974,-4.5383],[121.6027,-4.5434],[121.6111,-4.5463],[121.6141,-4.5447],[121.6149,-4.542],[121.6195,-4.5428],[121.6243,-4.5371],[121.6305,-4.5393],[121.6349,-4.5353],[121.6351,-4.5551],[121.6367,-4.5651]]]}},{"type":"Feature","properties":{"name":"Mataosu","name_en":"Mataosu","admin_level":"7","osm_id":""},"geometry":{"type":"Polygon","coordinates":[[[121.8038,-4.4156],[121.8055,-4.4207],[121.8029,-4.4208],[121.7979,-4.4245],[121.7983,-4.4306],[121.7928,-4.4314],[121.7948,-4.4374],[121.7877,-4.4398],[121.789,-4.4444],[121.7872,-4.4488],[121.7828,-4.4498],[121.7825,-4.4557],[121.7786,-4.4542],[121.7747,-4.4583],[121.7722,-4.4588],[121.7703,-4.4636],[121.7676,-4.4655],[121.7642,-4.4642],[121.7617,-4.4649],[121.7604,-4.4673],[121.7561,-4.4662],[121.7513,-4.469],[121.7502,-4.4714],[121.7533,-4.475],[121.7511,-4.4786],[121.7529,-4.4802],[121.7501,-4.4792],[121.746,-4.4855],[121.7422,-4.4849],[121.7373,-4.487],[121.7381,-4.491],[121.7325,-4.4929],[121.7286,-4.4912],[121.7263,-4.4926],[121.724,-4.4916],[121.7236,-4.4939],[121.7266,-4.4956],[121.7254,-4.4982],[121.7235,-4.4985],[121.7232,-4.5015],[121.7202,-4.5002],[121.7187,-4.5133],[121.7218,-4.5139],[121.7238,-4.5119],[121.7252,-4.5144],[121.7234,-4.5173],[121.7251,-4.5191],[121.7225,-4.5214],[121.7228,-4.5246],[121.7201,-4.523],[121.7168,-4.5275],[121.7137,-4.5248],[121.7129,-4.5275],[121.7103,-4.527],[121.7106,-4.5302],[121.7138,-4.5316],[121.7101,-4.5321],[121.7118,-4.5356],[121.705,-4.536],[121.699,-4.5397],[121.6957,-4.545],[121.6904,-4.545],[121.6904,-4.5463],[121.6864,-4.5466],[121.6838,-4.5496],[121.6831,-4.5479],[121.6812,-4.5479],[121.6772,-4.5522],[121.6699,-4.5532],[121.6679,-4.5555],[121.6659,-4.5549],[121.6629,-4.5602],[121.6599,-4.5608],[121.6609,-4.5652],[121.656,-4.5642],[121.6497,-4.5661],[121.647,-4.5658],[121.6474,-4.5638],[121.6448,-4.5669],[121.6422,-4.5655],[121.641,-4.5679],[121.6394,-4.566],[121.6378,-4.5679],[121.6345,-4.5449],[121.6364,-4.4972],[121.6439,-4.4749],[121.6513,-4.4608],[121.6591,-4.4469],[121.6683,-4.4384],[121.6779,-4.4332],[121.6906,-4.438],[121.6934,-4.4414],[121.6974,-4.44],[121.6987,-4.4416],[121.7084,-4.4235],[121.7324,-4.4049],[121.7985,-4.4072],[121.8012,-4.408],[121.8038,-4.4156]]]}},{"type":"Feature","properties":{"name":"Peoho","name_en":"Peoho","admin_level":"7","osm_id":""},"geometry":{"type":"Polygon","coordinates":[[[121.5567,-4.4757],[121.5749,-4.4806],[121.6,-4.4901],[121.5914,-4.4954],[121.5858,-4.5036],[121.5788,-4.5095],[121.5519,-4.5088],[121.5496,-4.5054],[121.5491,-4.4986],[121.5563,-4.4847],[121.5567,-4.4757]]]}},{"type":"Feature","properties":{"name":"Polenga","name_en":"Polenga","admin_level":"7","osm_id":""},"geometry":{"type":"Polygon","coordinates":[[[121.5798,-4.4132],[121.5807,-4.4226],[121.5784,-4.4263],[121.559,-4.4277],[121.5548,-4.432],[121.5367,-4.4413],[121.5287,-4.4402],[121.5287,-4.4369],[121.5325,-4.4302],[121.5489,-4.4136],[121.558,-4.4076],[121.5736,-4.4066],[121.5752,-4.4083],[121.5738,-4.409],[121.5798,-4.4132]]]}},{"type":"Feature","properties":{"name":"SumberRejeki","name_en":"SumberRejeki","admin_level":"7","osm_id":""},"geometry":{"type":"Polygon","coordinates":[[[121.5452,-4.5462],[121.546,-4.538],[121.5438,-4.5346],[121.5396,-4.5331],[121.5293,-4.533],[121.5279,-4.5276],[121.543,-4.5223],[121.5387,-4.5173],[121.5389,-4.5142],[121.542,-4.5126],[121.5381,-4.5078],[121.5491,-4.4986],[121.551,-4.5083],[121.5759,-4.5101],[121.5778,-4.5122],[121.5784,-4.5196],[121.575,-4.5219],[121.5753,-4.528],[121.5733,-4.529],[121.5663,-4.5254],[121.5648,-4.5286],[121.5572,-4.5324],[121.551,-4.5427],[121.5452,-4.5462]]]}},{"type":"Feature","properties":{"name":"Tandebura","name_en":"Tandebura","admin_level":"7","osm_id":""},"geometry":{"type":"Polygon","coordinates":[[[121.5154,-4.5181],[121.5101,-4.5169],[121.5075,-4.5183],[121.508,-4.5112],[121.5104,-4.5122],[121.5111,-4.5098],[121.5083,-4.509],[121.5102,-4.5045],[121.5051,-4.5037],[121.5078,-4.495],[121.5096,-4.4955],[121.5105,-4.4914],[121.5185,-4.4921],[121.5189,-4.49],[121.5214,-4.4903],[121.5219,-4.4861],[121.5292,-4.4882],[121.5308,-4.4861],[121.5333,-4.4869],[121.5336,-4.4852],[121.5363,-4.4853],[121.5368,-4.4875],[121.5387,-4.4861],[121.5403,-4.4912],[121.5444,-4.4933],[121.5343,-4.4995],[121.5325,-4.5021],[121.5194,-4.5049],[121.5155,-4.5041],[121.513,-4.5135],[121.5166,-4.5144],[121.5154,-4.5181]]]}},{"type":"Feature","properties":{"name":"Watubangga","name_en":"Watubangga","admin_level":"7","osm_id":""},"geometry":{"type":"Polygon","coordinates":[[[121.5331,-4.4662],[121.5373,-4.4689],[121.5567,-4.4757],[121.5558,-4.4857],[121.5444,-4.4933],[121.5403,-4.4912],[121.5401,-4.4874],[121.5383,-4.4881],[121.5385,-4.4861],[121.5368,-4.4875],[121.5363,-4.4853],[121.5336,-4.4852],[121.5333,-4.4869],[121.5308,-4.4861],[121.5292,-4.4882],[121.5219,-4.4861],[121.5214,-4.4903],[121.5189,-4.49],[121.5185,-4.4921],[121.5105,-4.4914],[121.5096,-4.4955],[121.5078,-4.495],[121.5051,-4.5037],[121.5019,-4.5024],[121.5023,-4.501],[121.4957,-4.4992],[121.5003,-4.4835],[121.5119,-4.4574],[121.5331,-4.4662]]]}},{"type":"Feature","properties":{"name":"Wolulu","name_en":"Wolulu","admin_level":"7","osm_id":""},"geometry":{"type":"Polygon","coordinates":[[[121.5357,-4.4598],[121.5331,-4.4662],[121.5119,-4.4574],[121.5126,-4.4488],[121.5162,-4.4424],[121.5176,-4.4312],[121.5234,-4.4383],[121.5266,-4.4389],[121.5287,-4.4369],[121.5287,-4.4402],[121.5367,-4.4413],[121.5398,-4.4521],[121.5357,-4.4598]]]}}]}