{"type":"FeatureCollection","metadata":{"parent_osm_id":"gid_IDN_26_22_2_1","parent_name":"Bonggakaradeng","parent_name_1":"SulawesiSelatan","parent_gid":"IDN.26.22.2_1","parent_level":"6","child_level":"7","count":6,"source":"GADM 4.1","generated":"2026-05-08"},"features":[{"type":"Feature","properties":{"name":"KelurahanRatteButtu","name_en":"KelurahanRatteButtu","admin_level":"7","osm_id":""},"geometry":{"type":"Polygon","coordinates":[[[119.7188,-3.2849],[119.7144,-3.2846],[119.7066,-3.2808],[119.6967,-3.2836],[119.6934,-3.2826],[119.6897,-3.2779],[119.6904,-3.2729],[119.6866,-3.2719],[119.6836,-3.2683],[119.6824,-3.2609],[119.6875,-3.2452],[119.6919,-3.2388],[119.7023,-3.2114],[119.7048,-3.2083],[119.7077,-3.2074],[119.7119,-3.2154],[119.7158,-3.2166],[119.7214,-3.2152],[119.7223,-3.2171],[119.7194,-3.2269],[119.7214,-3.2297],[119.7171,-3.2379],[119.7245,-3.2456],[119.7245,-3.254],[119.7276,-3.2573],[119.7266,-3.2638],[119.7282,-3.2706],[119.7234,-3.2818],[119.7188,-3.2849]]]}},{"type":"Feature","properties":{"name":"LembangBau","name_en":"LembangBau","admin_level":"7","osm_id":""},"geometry":{"type":"Polygon","coordinates":[[[119.7258,-3.2897],[119.7166,-3.2985],[119.7135,-3.3119],[119.7105,-3.3137],[119.6944,-3.316],[119.6852,-3.3132],[119.6754,-3.3167],[119.6577,-3.3119],[119.6448,-3.3176],[119.641,-3.3171],[119.6425,-3.3084],[119.6406,-3.3023],[119.6447,-3.281],[119.6446,-3.2674],[119.6532,-3.2497],[119.6556,-3.2337],[119.6635,-3.2357],[119.6767,-3.2351],[119.6955,-3.2287],[119.6915,-3.2395],[119.6875,-3.2452],[119.6826,-3.2601],[119.6836,-3.2683],[119.6866,-3.2719],[119.6904,-3.2729],[119.6897,-3.2779],[119.6941,-3.283],[119.7088,-3.2811],[119.7144,-3.2846],[119.7175,-3.284],[119.7184,-3.2867],[119.7213,-3.2884],[119.7267,-3.2885],[119.7258,-3.2897]]]}},{"type":"Feature","properties":{"name":"LembangBauSelatan","name_en":"LembangBauSelatan","admin_level":"7","osm_id":""},"geometry":{"type":"Polygon","coordinates":[[[119.7199,-3.3525],[119.7169,-3.3532],[119.7127,-3.3505],[119.7037,-3.3492],[119.695,-3.3504],[119.6917,-3.3588],[119.6797,-3.3664],[119.6745,-3.3662],[119.6595,-3.3599],[119.65,-3.36],[119.6478,-3.3511],[119.6508,-3.3461],[119.6507,-3.3436],[119.6422,-3.3355],[119.6427,-3.3314],[119.6467,-3.3275],[119.6433,-3.3176],[119.6577,-3.3119],[119.6754,-3.3167],[119.6852,-3.3132],[119.6944,-3.316],[119.7021,-3.3157],[119.7135,-3.3119],[119.7177,-3.3205],[119.7223,-3.3247],[119.7236,-3.3301],[119.7172,-3.3405],[119.7213,-3.3503],[119.7213,-3.3525],[119.7199,-3.3525]]]}},{"type":"Feature","properties":{"name":"LembangBuaKayu","name_en":"LembangBuaKayu","admin_level":"7","osm_id":""},"geometry":{"type":"Polygon","coordinates":[[[119.7214,-3.2152],[119.7158,-3.2166],[119.7119,-3.2154],[119.7032,-3.198],[119.6927,-3.1888],[119.6943,-3.1831],[119.7142,-3.1719],[119.7235,-3.1517],[119.7267,-3.1466],[119.7301,-3.1446],[119.741,-3.1539],[119.7484,-3.1566],[119.757,-3.1767],[119.7525,-3.1865],[119.7491,-3.1878],[119.7451,-3.1929],[119.7388,-3.1944],[119.7332,-3.2027],[119.7294,-3.2057],[119.7288,-3.2092],[119.7225,-3.2107],[119.7214,-3.2152]]]}},{"type":"Feature","properties":{"name":"LembangMappa","name_en":"LembangMappa","admin_level":"7","osm_id":""},"geometry":{"type":"Polygon","coordinates":[[[119.6361,-3.1285],[119.6364,-3.1271],[119.6315,-3.1242],[119.6347,-3.1214],[119.6392,-3.1228],[119.6503,-3.1193],[119.6703,-3.1184],[119.6797,-3.1132],[119.6907,-3.1145],[119.697,-3.1054],[119.707,-3.1114],[119.7148,-3.1109],[119.7225,-3.1179],[119.7329,-3.12],[119.7392,-3.1187],[119.7399,-3.1202],[119.7374,-3.1265],[119.7296,-3.1372],[119.7301,-3.1446],[119.7267,-3.1466],[119.7235,-3.1517],[119.7142,-3.1719],[119.6959,-3.1832],[119.6852,-3.1864],[119.666,-3.1667],[119.6527,-3.1636],[119.6458,-3.1692],[119.6449,-3.1628],[119.6425,-3.1591],[119.6432,-3.1493],[119.6392,-3.1458],[119.6362,-3.1377],[119.6372,-3.1343],[119.6347,-3.1314],[119.6361,-3.1285]]]}},{"type":"Feature","properties":{"name":"LembangPoton","name_en":"LembangPoton","admin_level":"7","osm_id":""},"geometry":{"type":"Polygon","coordinates":[[[119.7077,-3.2074],[119.7026,-3.2108],[119.6968,-3.2263],[119.6934,-3.2297],[119.6767,-3.2351],[119.6635,-3.2357],[119.6556,-3.2337],[119.6574,-3.2169],[119.6588,-3.2148],[119.6552,-3.2093],[119.6578,-3.2044],[119.6555,-3.2034],[119.6562,-3.2],[119.6523,-3.1933],[119.6522,-3.1894],[119.6503,-3.1856],[119.6473,-3.1835],[119.6455,-3.1786],[119.6458,-3.1692],[119.6527,-3.1636],[119.6603,-3.1644],[119.6666,-3.1672],[119.6846,-3.1863],[119.6943,-3.1831],[119.6928,-3.1894],[119.7024,-3.1971],[119.7077,-3.2074]]]}}]}