{"type":"FeatureCollection","metadata":{"parent_osm_id":"gid_IDN_17_2_1_1","parent_name":"BalikBukit","parent_name_1":"Lampung","parent_gid":"IDN.17.2.1_1","parent_level":"6","child_level":"7","count":12,"source":"GADM 4.1","generated":"2026-05-07"},"features":[{"type":"Feature","properties":{"name":"Bahway","name_en":"Bahway","admin_level":"7","osm_id":""},"geometry":{"type":"Polygon","coordinates":[[[104.1374,-4.9814],[104.1304,-4.9805],[104.1172,-4.9855],[104.108,-4.9852],[104.0969,-4.9777],[104.0925,-4.9767],[104.0856,-4.961],[104.0933,-4.9561],[104.0934,-4.9535],[104.0984,-4.9558],[104.104,-4.9548],[104.1031,-4.9368],[104.1156,-4.9291],[104.118,-4.9257],[104.1228,-4.9266],[104.1324,-4.9221],[104.1406,-4.9229],[104.1426,-4.9249],[104.1414,-4.9304],[104.1452,-4.9388],[104.1431,-4.9448],[104.144,-4.9539],[104.1413,-4.9657],[104.1415,-4.9783],[104.1374,-4.9814]]]}},{"type":"Feature","properties":{"name":"GunungSugih","name_en":"GunungSugih","admin_level":"7","osm_id":""},"geometry":{"type":"Polygon","coordinates":[[[104.1031,-5.0376],[104.098,-5.0295],[104.0986,-5.0236],[104.1185,-5.0324],[104.1177,-5.0346],[104.1128,-5.0366],[104.1031,-5.0376]]]}},{"type":"Feature","properties":{"name":"KubuPerahu","name_en":"KubuPerahu","admin_level":"7","osm_id":""},"geometry":{"type":"Polygon","coordinates":[[[104.073,-5.0313],[104.0842,-5.0377],[104.0844,-5.0427],[104.0907,-5.0443],[104.0872,-5.0713],[104.092,-5.0799],[104.0986,-5.0854],[104.0932,-5.0918],[104.09,-5.101],[104.0918,-5.1097],[104.0863,-5.1158],[104.0831,-5.1159],[104.0793,-5.1092],[104.0583,-5.0921],[104.0433,-5.0907],[104.0344,-5.0843],[104.0295,-5.0835],[104.0168,-5.093],[104.0088,-5.0821],[104.0174,-5.07],[104.0189,-5.0531],[104.0541,-5.0494],[104.0639,-5.0452],[104.0711,-5.0371],[104.0706,-5.0313],[104.073,-5.0313]]]}},{"type":"Feature","properties":{"name":"PadangCahya","name_en":"PadangCahya","admin_level":"7","osm_id":""},"geometry":{"type":"Polygon","coordinates":[[[104.0096,-5.0224],[104.0198,-5.011],[104.0143,-5.0049],[104.0086,-4.9912],[104.0061,-4.9924],[104.0019,-4.9848],[104.0001,-4.9711],[104.0082,-4.9735],[104.0104,-4.9722],[104.0113,-4.9672],[104.0134,-4.9654],[104.0187,-4.9653],[104.0238,-4.967],[104.0394,-4.995],[104.0446,-4.9971],[104.044,-5.0211],[104.0425,-5.026],[104.0397,-5.0282],[104.024,-5.0357],[104.0189,-5.0349],[104.0096,-5.0224]]]}},{"type":"Feature","properties":{"name":"PadangDalom","name_en":"PadangDalom","admin_level":"7","osm_id":""},"geometry":{"type":"Polygon","coordinates":[[[104.0894,-5.0112],[104.0876,-4.9959],[104.0901,-4.9986],[104.0939,-4.9985],[104.0978,-5.0011],[104.1196,-5.005],[104.1155,-5.0131],[104.1118,-5.0167],[104.1111,-5.021],[104.1088,-5.0212],[104.1033,-5.0161],[104.0894,-5.0112]]]}},{"type":"Feature","properties":{"name":"PasarLiwa","name_en":"PasarLiwa","admin_level":"7","osm_id":""},"geometry":{"type":"Polygon","coordinates":[[[104.0864,-5.0428],[104.0836,-5.0418],[104.0842,-5.0377],[104.0823,-5.036],[104.073,-5.0313],[104.0767,-5.0274],[104.0764,-5.0255],[104.0719,-5.0135],[104.0687,-5.013],[104.0782,-5.0041],[104.0835,-5.0014],[104.0876,-4.9959],[104.0907,-5.0261],[104.0864,-5.0428]]]}},{"type":"Feature","properties":{"name":"Sebarus","name_en":"Sebarus","admin_level":"7","osm_id":""},"geometry":{"type":"Polygon","coordinates":[[[104.0986,-5.0236],[104.098,-5.0295],[104.1031,-5.0376],[104.0928,-5.042],[104.0907,-5.0443],[104.0864,-5.0428],[104.0884,-5.0389],[104.088,-5.0328],[104.0905,-5.0289],[104.0894,-5.0112],[104.0998,-5.0152],[104.0986,-5.0236]]]}},{"type":"Feature","properties":{"name":"SedampahIndah","name_en":"SedampahIndah","admin_level":"7","osm_id":""},"geometry":{"type":"Polygon","coordinates":[[[104.0001,-4.9711],[104.0019,-4.9848],[104.0061,-4.9924],[104.0086,-4.9912],[104.0143,-5.0049],[104.0198,-5.011],[104.0096,-5.0224],[103.9958,-5.0159],[103.9839,-5.0034],[103.9793,-5.0007],[103.9812,-4.9936],[103.9797,-4.9793],[103.9809,-4.9761],[103.9914,-4.9693],[104.0001,-4.9711]]]}},{"type":"Feature","properties":{"name":"Sukarame","name_en":"Sukarame","admin_level":"7","osm_id":""},"geometry":{"type":"Polygon","coordinates":[[[104.0925,-4.9767],[104.0969,-4.9777],[104.108,-4.9852],[104.1172,-4.9855],[104.1304,-4.9805],[104.1374,-4.9814],[104.1404,-4.9846],[104.1397,-4.991],[104.13,-4.9997],[104.1298,-5.0071],[104.1255,-5.0052],[104.1112,-5.0042],[104.0978,-5.0011],[104.0939,-4.9985],[104.0901,-4.9986],[104.0876,-4.9959],[104.0925,-4.9767]]]}},{"type":"Feature","properties":{"name":"Watas","name_en":"Watas","admin_level":"7","osm_id":""},"geometry":{"type":"Polygon","coordinates":[[[104.1185,-5.0324],[104.0986,-5.0236],[104.0991,-5.0168],[104.0998,-5.0152],[104.1033,-5.0161],[104.1088,-5.0212],[104.1111,-5.021],[104.1118,-5.0167],[104.1155,-5.0131],[104.1196,-5.005],[104.1255,-5.0052],[104.1298,-5.0071],[104.125,-5.0158],[104.1291,-5.0313],[104.1185,-5.0324]]]}},{"type":"Feature","properties":{"name":"WayEmpulauUlu","name_en":"WayEmpulauUlu","admin_level":"7","osm_id":""},"geometry":{"type":"Polygon","coordinates":[[[104.1031,-5.0376],[104.1128,-5.0366],[104.1177,-5.0346],[104.1185,-5.0324],[104.1291,-5.0314],[104.126,-5.0381],[104.1199,-5.0428],[104.115,-5.0599],[104.1047,-5.0728],[104.0986,-5.0854],[104.092,-5.0799],[104.0872,-5.0713],[104.0907,-5.0441],[104.1031,-5.0376]]]}},{"type":"Feature","properties":{"name":"WayMengaku","name_en":"WayMengaku","admin_level":"7","osm_id":""},"geometry":{"type":"Polygon","coordinates":[[[104.073,-5.0313],[104.0706,-5.0313],[104.0711,-5.0371],[104.0639,-5.0452],[104.0541,-5.0494],[104.0189,-5.0531],[104.0218,-5.0496],[104.0227,-5.0438],[104.0189,-5.0349],[104.0269,-5.035],[104.0425,-5.026],[104.0453,-5.0102],[104.0446,-4.9971],[104.0571,-5.0011],[104.0708,-5.0103],[104.0687,-5.013],[104.0719,-5.0135],[104.0767,-5.0274],[104.073,-5.0313]]]}}]}