{"type":"FeatureCollection","metadata":{"parent_osm_id":"gid_IDN_34_5_15_1","parent_name":"MuaraLawa","parent_name_1":"KalimantanTimur","parent_gid":"IDN.34.5.15_1","parent_level":"6","child_level":"7","count":8,"source":"GADM 4.1","generated":"2026-05-08"},"features":[{"type":"Feature","properties":{"name":"Benggeris","name_en":"Benggeris","admin_level":"7","osm_id":""},"geometry":{"type":"Polygon","coordinates":[[[115.7216,-0.4665],[115.7247,-0.4384],[115.7342,-0.4262],[115.7417,-0.4266],[115.7422,-0.4294],[115.7365,-0.4356],[115.735,-0.448],[115.7365,-0.4499],[115.7484,-0.4533],[115.7508,-0.4576],[115.7498,-0.4657],[115.7441,-0.4681],[115.7216,-0.4665]]]}},{"type":"Feature","properties":{"name":"Cempedas","name_en":"Cempedas","admin_level":"7","osm_id":""},"geometry":{"type":"Polygon","coordinates":[[[115.7093,-0.4964],[115.7191,-0.4818],[115.7303,-0.4805],[115.7369,-0.4767],[115.7536,-0.4762],[115.7672,-0.4785],[115.7689,-0.4819],[115.7646,-0.4938],[115.7659,-0.4945],[115.7336,-0.4934],[115.7131,-0.511],[115.708,-0.5116],[115.7112,-0.5078],[115.7093,-0.4964]]]}},{"type":"Feature","properties":{"name":"Dingin","name_en":"Dingin","admin_level":"7","osm_id":""},"geometry":{"type":"Polygon","coordinates":[[[115.7788,-0.3766],[115.8038,-0.3805],[115.8327,-0.3766],[115.8355,-0.3809],[115.8327,-0.3805],[115.8308,-0.4364],[115.8413,-0.4785],[115.8166,-0.4977],[115.7889,-0.5015],[115.7737,-0.4986],[115.7646,-0.4938],[115.7689,-0.4819],[115.7672,-0.4785],[115.7684,-0.4786],[115.7703,-0.4743],[115.7691,-0.461],[115.7727,-0.4504],[115.7746,-0.4342],[115.777,-0.3846],[115.7788,-0.3766]]]}},{"type":"Feature","properties":{"name":"Lambing","name_en":"Lambing","admin_level":"7","osm_id":""},"geometry":{"type":"Polygon","coordinates":[[[115.7342,-0.4262],[115.7498,-0.4017],[115.7772,-0.3743],[115.7788,-0.3766],[115.777,-0.3846],[115.7727,-0.4504],[115.7699,-0.46],[115.766,-0.4652],[115.7608,-0.4652],[115.7503,-0.4615],[115.7508,-0.4576],[115.7484,-0.4533],[115.7365,-0.4499],[115.735,-0.448],[115.7365,-0.4356],[115.7422,-0.4294],[115.7417,-0.4266],[115.7342,-0.4262]]]}},{"type":"Feature","properties":{"name":"Lotaq","name_en":"Lotaq","admin_level":"7","osm_id":""},"geometry":{"type":"Polygon","coordinates":[[[115.6159,-0.5899],[115.6167,-0.5811],[115.6263,-0.5734],[115.6553,-0.5599],[115.675,-0.5457],[115.7064,-0.5382],[115.7255,-0.5234],[115.7422,-0.5172],[115.757,-0.5168],[115.767,-0.5125],[115.778,-0.512],[115.7832,-0.5086],[115.7884,-0.5014],[115.8166,-0.4977],[115.8413,-0.4785],[115.8501,-0.5058],[115.8308,-0.5753],[115.8267,-0.5799],[115.8138,-0.5754],[115.7813,-0.5754],[115.7627,-0.5735],[115.7093,-0.5635],[115.6902,-0.563],[115.653,-0.5745],[115.6159,-0.5899]]]}},{"type":"Feature","properties":{"name":"MuaraBegai","name_en":"MuaraBegai","admin_level":"7","osm_id":""},"geometry":{"type":"Polygon","coordinates":[[[115.8203,-0.6401],[115.8166,-0.6451],[115.8067,-0.6463],[115.7511,-0.629],[115.7301,-0.6266],[115.7153,-0.6204],[115.7092,-0.6204],[115.6721,-0.6228],[115.6585,-0.6278],[115.6462,-0.6303],[115.6354,-0.6425],[115.6186,-0.6313],[115.6109,-0.6159],[115.6147,-0.6043],[115.6159,-0.5899],[115.653,-0.5745],[115.6902,-0.563],[115.7093,-0.5635],[115.7627,-0.5735],[115.7813,-0.5754],[115.8138,-0.5754],[115.8267,-0.5799],[115.8135,-0.5946],[115.8154,-0.6352],[115.8203,-0.6401]]]}},{"type":"Feature","properties":{"name":"MuaraLawa","name_en":"MuaraLawa","admin_level":"7","osm_id":""},"geometry":{"type":"Polygon","coordinates":[[[115.7191,-0.4818],[115.7216,-0.4665],[115.7441,-0.4681],[115.7498,-0.4657],[115.7503,-0.4615],[115.7608,-0.4652],[115.766,-0.4652],[115.7691,-0.461],[115.7703,-0.4638],[115.7703,-0.4743],[115.7684,-0.4786],[115.7536,-0.4762],[115.7369,-0.4767],[115.7303,-0.4805],[115.7191,-0.4818]]]}},{"type":"Feature","properties":{"name":"Payang","name_en":"Payang","admin_level":"7","osm_id":""},"geometry":{"type":"Polygon","coordinates":[[[115.6756,-0.5448],[115.708,-0.5116],[115.7131,-0.511],[115.7336,-0.4934],[115.7659,-0.4945],[115.7737,-0.4986],[115.7884,-0.5014],[115.7832,-0.5086],[115.778,-0.512],[115.767,-0.5125],[115.757,-0.5168],[115.7422,-0.5172],[115.7255,-0.5234],[115.7064,-0.5382],[115.675,-0.5457],[115.6756,-0.5448]]]}}]}