{"type":"FeatureCollection","metadata":{"parent_osm_id":"gid_IDN_30_19_5_1","parent_name":"HiliranGumanti","parent_name_1":"SumateraBarat","parent_gid":"IDN.30.19.5_1","parent_level":"6","child_level":"7","count":3,"source":"GADM 4.1","generated":"2026-05-09"},"features":[{"type":"Feature","properties":{"name":"SariakAlahanTigo","name_en":"SariakAlahanTigo","admin_level":"7","osm_id":""},"geometry":{"type":"Polygon","coordinates":[[[100.9871,-1.1241],[100.9517,-1.15],[100.9203,-1.1638],[100.9103,-1.1665],[100.9063,-1.1654],[100.9063,-1.1603],[100.9035,-1.156],[100.8909,-1.1469],[100.8834,-1.1436],[100.9085,-1.1116],[100.9006,-1.0956],[100.9063,-1.0772],[100.9053,-1.071],[100.9365,-1.0849],[100.9575,-1.0995],[100.9871,-1.1241]]]}},{"type":"Feature","properties":{"name":"SungaiAbu","name_en":"SungaiAbu","admin_level":"7","osm_id":""},"geometry":{"type":"Polygon","coordinates":[[[100.9966,-1.1358],[101.0192,-1.1688],[101.021,-1.1754],[101.0221,-1.2017],[101.0179,-1.2269],[101.0089,-1.2411],[100.9906,-1.2612],[100.9852,-1.2516],[100.9664,-1.2295],[100.9401,-1.2023],[100.939,-1.199],[100.9337,-1.1972],[100.9013,-1.1712],[100.9063,-1.1654],[100.9103,-1.1665],[100.9203,-1.1638],[100.9517,-1.15],[100.9871,-1.1241],[100.9966,-1.1358]]]}},{"type":"Feature","properties":{"name":"TalangBabungo","name_en":"TalangBabungo","admin_level":"7","osm_id":""},"geometry":{"type":"Polygon","coordinates":[[[100.9053,-1.071],[100.9063,-1.0772],[100.9006,-1.0956],[100.9085,-1.1116],[100.8834,-1.1436],[100.8562,-1.1335],[100.8417,-1.1258],[100.838,-1.1095],[100.8358,-1.086],[100.8363,-1.0759],[100.8451,-1.0678],[100.8559,-1.0509],[100.8624,-1.0445],[100.8745,-1.0543],[100.9053,-1.071]]]}}]}