{"type":"FeatureCollection","metadata":{"parent_osm_id":"gid_IDN_23_26_17_1","parent_name":"Kondaga","parent_name_1":"Papua","parent_gid":"IDN.23.26.17_1","parent_level":"6","child_level":"7","count":17,"source":"GADM 4.1","generated":"2026-05-09"},"features":[{"type":"Feature","properties":{"name":"Aburage","name_en":"Aburage","admin_level":"7","osm_id":""},"geometry":{"type":"Polygon","coordinates":[[[138.4488,-3.6206],[138.4558,-3.6158],[138.46,-3.6164],[138.4613,-3.6189],[138.4593,-3.6219],[138.4595,-3.6252],[138.4488,-3.6206]]]}},{"type":"Feature","properties":{"name":"Arikoba","name_en":"Arikoba","admin_level":"7","osm_id":""},"geometry":{"type":"Polygon","coordinates":[[[138.4576,-3.5972],[138.455,-3.5927],[138.4551,-3.5859],[138.4526,-3.5839],[138.4576,-3.5835],[138.4598,-3.5807],[138.4666,-3.5832],[138.4666,-3.5959],[138.4576,-3.5972]]]}},{"type":"Feature","properties":{"name":"Arulo","name_en":"Arulo","admin_level":"7","osm_id":""},"geometry":{"type":"Polygon","coordinates":[[[138.4457,-3.6099],[138.4434,-3.615],[138.4389,-3.6197],[138.4315,-3.6151],[138.4273,-3.6096],[138.4282,-3.6071],[138.4435,-3.6083],[138.4457,-3.6099]]]}},{"type":"Feature","properties":{"name":"Arumagi","name_en":"Arumagi","admin_level":"7","osm_id":""},"geometry":{"type":"Polygon","coordinates":[[[138.4152,-3.5943],[138.4176,-3.5885],[138.4205,-3.5877],[138.4214,-3.5902],[138.4293,-3.5933],[138.4332,-3.5977],[138.425,-3.6037],[138.4152,-3.5943]]]}},{"type":"Feature","properties":{"name":"Ganage","name_en":"Ganage","admin_level":"7","osm_id":""},"geometry":{"type":"Polygon","coordinates":[[[138.4655,-3.6093],[138.4651,-3.6058],[138.4674,-3.6026],[138.4701,-3.6003],[138.4752,-3.6004],[138.4725,-3.6084],[138.4705,-3.6099],[138.4699,-3.6066],[138.4655,-3.6093]]]}},{"type":"Feature","properties":{"name":"Gimo","name_en":"Gimo","admin_level":"7","osm_id":""},"geometry":{"type":"Polygon","coordinates":[[[138.4551,-3.5877],[138.455,-3.5927],[138.4576,-3.5972],[138.4555,-3.6005],[138.4427,-3.5924],[138.445,-3.5886],[138.4551,-3.5877]]]}},{"type":"Feature","properties":{"name":"Kogoyapura","name_en":"Kogoyapura","admin_level":"7","osm_id":""},"geometry":{"type":"Polygon","coordinates":[[[138.4332,-3.5977],[138.4293,-3.5933],[138.4214,-3.5902],[138.4205,-3.5877],[138.4328,-3.5854],[138.435,-3.589],[138.44,-3.5901],[138.4453,-3.5884],[138.4367,-3.6011],[138.4332,-3.5977]]]}},{"type":"Feature","properties":{"name":"Konda","name_en":"Konda","admin_level":"7","osm_id":""},"geometry":{"type":"Polygon","coordinates":[[[138.4558,-3.6158],[138.4488,-3.6206],[138.4436,-3.6214],[138.4389,-3.6197],[138.4434,-3.615],[138.4457,-3.6099],[138.4549,-3.6136],[138.4558,-3.6158]]]}},{"type":"Feature","properties":{"name":"Mandura","name_en":"Mandura","admin_level":"7","osm_id":""},"geometry":{"type":"Polygon","coordinates":[[[138.46,-3.6164],[138.4558,-3.6158],[138.4549,-3.6136],[138.4434,-3.6083],[138.4418,-3.6043],[138.4434,-3.601],[138.4531,-3.5996],[138.4555,-3.6005],[138.4562,-3.6062],[138.4621,-3.6131],[138.46,-3.6164]]]}},{"type":"Feature","properties":{"name":"Mowilome","name_en":"Mowilome","admin_level":"7","osm_id":""},"geometry":{"type":"Polygon","coordinates":[[[138.4434,-3.6083],[138.4282,-3.6071],[138.425,-3.6037],[138.4332,-3.5977],[138.4418,-3.6043],[138.4434,-3.6083]]]}},{"type":"Feature","properties":{"name":"Silabul","name_en":"Silabul","admin_level":"7","osm_id":""},"geometry":{"type":"Polygon","coordinates":[[[138.4779,-3.5918],[138.4793,-3.5867],[138.4937,-3.5864],[138.4884,-3.5946],[138.4804,-3.5967],[138.477,-3.6],[138.4779,-3.5918]]]}},{"type":"Feature","properties":{"name":"Silabulo","name_en":"Silabulo","admin_level":"7","osm_id":""},"geometry":{"type":"Polygon","coordinates":[[[138.4665,-3.5918],[138.4666,-3.5832],[138.4793,-3.5867],[138.4779,-3.5918],[138.4665,-3.5918]]]}},{"type":"Feature","properties":{"name":"Tingapura","name_en":"Tingapura","admin_level":"7","osm_id":""},"geometry":{"type":"Polygon","coordinates":[[[138.4576,-3.5972],[138.4666,-3.5959],[138.4701,-3.6003],[138.4651,-3.6058],[138.4655,-3.6093],[138.4621,-3.6131],[138.4562,-3.6062],[138.4555,-3.6005],[138.4576,-3.5972]]]}},{"type":"Feature","properties":{"name":"Wiyaluk","name_en":"Wiyaluk","admin_level":"7","osm_id":""},"geometry":{"type":"Polygon","coordinates":[[[138.4613,-3.6189],[138.46,-3.6164],[138.4625,-3.6125],[138.4699,-3.6066],[138.4703,-3.6126],[138.4661,-3.6175],[138.4613,-3.6189]]]}},{"type":"Feature","properties":{"name":"Yalikaluk","name_en":"Yalikaluk","admin_level":"7","osm_id":""},"geometry":{"type":"Polygon","coordinates":[[[138.4526,-3.5839],[138.4551,-3.5859],[138.4551,-3.5877],[138.4433,-3.5883],[138.44,-3.5901],[138.435,-3.589],[138.4329,-3.5864],[138.4328,-3.5854],[138.4435,-3.5829],[138.4526,-3.5839]]]}},{"type":"Feature","properties":{"name":"Yaneko","name_en":"Yaneko","admin_level":"7","osm_id":""},"geometry":{"type":"Polygon","coordinates":[[[138.4427,-3.5924],[138.4509,-3.597],[138.4534,-3.5997],[138.4434,-3.601],[138.4418,-3.6043],[138.4386,-3.6028],[138.4367,-3.6011],[138.4427,-3.5924]]]}},{"type":"Feature","properties":{"name":"Yawineri","name_en":"Yawineri","admin_level":"7","osm_id":""},"geometry":{"type":"Polygon","coordinates":[[[138.4666,-3.5959],[138.4665,-3.5918],[138.4779,-3.5918],[138.477,-3.6],[138.4701,-3.6003],[138.4666,-3.5959]]]}}]}