{"type":"FeatureCollection","metadata":{"parent_osm_id":"gid_IDN_10_28_14_1","parent_name":"Suruh","parent_name_1":"JawaTengah","parent_gid":"IDN.10.28.14_1","parent_level":"6","child_level":"7","count":17,"source":"GADM 4.1","generated":"2026-05-09"},"features":[{"type":"Feature","properties":{"name":"BejiLor","name_en":"BejiLor","admin_level":"7","osm_id":""},"geometry":{"type":"Polygon","coordinates":[[[110.5746,-7.3888],[110.5784,-7.3923],[110.5714,-7.3944],[110.5619,-7.3858],[110.5587,-7.386],[110.556,-7.3896],[110.5504,-7.3897],[110.552,-7.3833],[110.5549,-7.3789],[110.5575,-7.3783],[110.5628,-7.3806],[110.5637,-7.3845],[110.5689,-7.385],[110.5746,-7.3888]]]}},{"type":"Feature","properties":{"name":"Bonomerto","name_en":"Bonomerto","admin_level":"7","osm_id":""},"geometry":{"type":"Polygon","coordinates":[[[110.6329,-7.3643],[110.6288,-7.3689],[110.6214,-7.3715],[110.6185,-7.3757],[110.616,-7.3743],[110.6131,-7.3762],[110.6087,-7.3729],[110.609,-7.3705],[110.6118,-7.3687],[110.611,-7.365],[110.6124,-7.3636],[110.6143,-7.3643],[110.6192,-7.3599],[110.6211,-7.3621],[110.6269,-7.3629],[110.6298,-7.3595],[110.6345,-7.3625],[110.6329,-7.3643]]]}},{"type":"Feature","properties":{"name":"Cukilan","name_en":"Cukilan","admin_level":"7","osm_id":""},"geometry":{"type":"Polygon","coordinates":[[[110.6089,-7.3276],[110.6079,-7.331],[110.6141,-7.3339],[110.615,-7.34],[110.6133,-7.3432],[110.6059,-7.3446],[110.6014,-7.3439],[110.6022,-7.3425],[110.6009,-7.342],[110.5982,-7.3434],[110.595,-7.3421],[110.594,-7.3433],[110.59,-7.342],[110.589,-7.3388],[110.5829,-7.3396],[110.5821,-7.3364],[110.5787,-7.3349],[110.5804,-7.3236],[110.5856,-7.3217],[110.5886,-7.3246],[110.5987,-7.3207],[110.6064,-7.3281],[110.6089,-7.3276]]]}},{"type":"Feature","properties":{"name":"Dadapayam","name_en":"Dadapayam","admin_level":"7","osm_id":""},"geometry":{"type":"Polygon","coordinates":[[[110.6217,-7.2893],[110.6046,-7.2901],[110.6009,-7.2919],[110.6036,-7.3],[110.5993,-7.3071],[110.5994,-7.3161],[110.6043,-7.3236],[110.6101,-7.3246],[110.6089,-7.3276],[110.6064,-7.3281],[110.5987,-7.3207],[110.5886,-7.3246],[110.5837,-7.3206],[110.5827,-7.3119],[110.5857,-7.3073],[110.5834,-7.3019],[110.5875,-7.2962],[110.5905,-7.2978],[110.5931,-7.2957],[110.5901,-7.2863],[110.5924,-7.2817],[110.6015,-7.2824],[110.6019,-7.2784],[110.6048,-7.2758],[110.6051,-7.2734],[110.6071,-7.2728],[110.613,-7.2803],[110.6127,-7.2831],[110.6217,-7.2893]]]}},{"type":"Feature","properties":{"name":"Dersansari","name_en":"Dersansari","admin_level":"7","osm_id":""},"geometry":{"type":"Polygon","coordinates":[[[110.5778,-7.3929],[110.5787,-7.3914],[110.5746,-7.3888],[110.5772,-7.3854],[110.5746,-7.3759],[110.5791,-7.3739],[110.5826,-7.3764],[110.5817,-7.3774],[110.5833,-7.3789],[110.581,-7.3844],[110.5826,-7.3849],[110.5825,-7.388],[110.5809,-7.3891],[110.5849,-7.3886],[110.588,-7.3906],[110.5804,-7.3947],[110.5778,-7.3929]]]}},{"type":"Feature","properties":{"name":"GunungTumpeng","name_en":"GunungTumpeng","admin_level":"7","osm_id":""},"geometry":{"type":"Polygon","coordinates":[[[110.594,-7.3433],[110.595,-7.3421],[110.5982,-7.3434],[110.6009,-7.342],[110.6022,-7.3425],[110.6014,-7.3439],[110.6059,-7.3446],[110.6133,-7.3432],[110.6165,-7.3505],[110.6207,-7.3502],[110.6215,-7.3518],[110.6193,-7.3539],[110.6147,-7.3542],[110.6087,-7.357],[110.6039,-7.3546],[110.596,-7.3553],[110.5974,-7.3513],[110.5928,-7.3483],[110.5921,-7.3453],[110.594,-7.3433]]]}},{"type":"Feature","properties":{"name":"Jatirejo","name_en":"Jatirejo","admin_level":"7","osm_id":""},"geometry":{"type":"Polygon","coordinates":[[[110.5746,-7.3888],[110.5689,-7.385],[110.5637,-7.3845],[110.5628,-7.3806],[110.5642,-7.3777],[110.5625,-7.3766],[110.564,-7.3765],[110.5643,-7.3746],[110.5687,-7.3743],[110.5718,-7.3759],[110.5779,-7.3742],[110.5746,-7.3759],[110.5772,-7.3854],[110.5746,-7.3888]]]}},{"type":"Feature","properties":{"name":"Kebowan","name_en":"Kebowan","admin_level":"7","osm_id":""},"geometry":{"type":"Polygon","coordinates":[[[110.5628,-7.3806],[110.5575,-7.3783],[110.5549,-7.3789],[110.549,-7.3917],[110.5447,-7.392],[110.5424,-7.3899],[110.5343,-7.391],[110.5352,-7.3843],[110.5389,-7.3777],[110.5454,-7.3729],[110.5493,-7.3745],[110.5506,-7.3699],[110.5593,-7.3749],[110.5608,-7.3732],[110.5643,-7.3746],[110.564,-7.3765],[110.5625,-7.3766],[110.5642,-7.3777],[110.5628,-7.3806]]]}},{"type":"Feature","properties":{"name":"Kedungringin","name_en":"Kedungringin","admin_level":"7","osm_id":""},"geometry":{"type":"Polygon","coordinates":[[[110.6466,-7.3326],[110.6429,-7.3343],[110.6387,-7.3443],[110.6216,-7.3518],[110.6207,-7.3502],[110.6165,-7.3505],[110.616,-7.347],[110.6139,-7.3455],[110.6144,-7.3332],[110.6223,-7.3322],[110.6311,-7.3271],[110.6358,-7.3282],[110.6408,-7.3258],[110.6426,-7.326],[110.6438,-7.3314],[110.6466,-7.3326]]]}},{"type":"Feature","properties":{"name":"Ketanggi","name_en":"Ketanggi","admin_level":"7","osm_id":""},"geometry":{"type":"Polygon","coordinates":[[[110.5937,-7.3759],[110.5976,-7.3767],[110.6023,-7.3731],[110.6068,-7.372],[110.6034,-7.3819],[110.6001,-7.3824],[110.5982,-7.3879],[110.5956,-7.3876],[110.5954,-7.3891],[110.5921,-7.3898],[110.5909,-7.3802],[110.5937,-7.3759]]]}},{"type":"Feature","properties":{"name":"KrandonLor","name_en":"KrandonLor","admin_level":"7","osm_id":""},"geometry":{"type":"Polygon","coordinates":[[[110.5622,-7.3442],[110.5644,-7.3412],[110.5655,-7.3301],[110.5742,-7.3272],[110.5798,-7.3297],[110.5787,-7.3349],[110.5821,-7.3364],[110.5829,-7.3396],[110.589,-7.3388],[110.5897,-7.3415],[110.5837,-7.3473],[110.5821,-7.3557],[110.5768,-7.359],[110.5751,-7.3555],[110.573,-7.3549],[110.5718,-7.3509],[110.5628,-7.3507],[110.5612,-7.3463],[110.5622,-7.3442]]]}},{"type":"Feature","properties":{"name":"Medayu","name_en":"Medayu","admin_level":"7","osm_id":""},"geometry":{"type":"Polygon","coordinates":[[[110.611,-7.365],[110.6115,-7.3691],[110.6058,-7.3706],[110.5976,-7.3767],[110.5908,-7.3749],[110.5977,-7.3713],[110.5928,-7.3617],[110.5938,-7.3598],[110.5965,-7.3593],[110.5966,-7.3554],[110.6039,-7.3546],[110.6059,-7.3559],[110.611,-7.365]]]}},{"type":"Feature","properties":{"name":"Plumbon","name_en":"Plumbon","admin_level":"7","osm_id":""},"geometry":{"type":"Polygon","coordinates":[[[110.557,-7.3461],[110.5622,-7.3442],[110.5612,-7.3463],[110.563,-7.3509],[110.5613,-7.3606],[110.5639,-7.3656],[110.5628,-7.3688],[110.5693,-7.3746],[110.5642,-7.3748],[110.5608,-7.3732],[110.5593,-7.3749],[110.5434,-7.3655],[110.548,-7.3587],[110.5512,-7.3578],[110.557,-7.3461]]]}},{"type":"Feature","properties":{"name":"Purworejo","name_en":"Purworejo","admin_level":"7","osm_id":""},"geometry":{"type":"Polygon","coordinates":[[[110.588,-7.3906],[110.5849,-7.3886],[110.5809,-7.3891],[110.5825,-7.388],[110.5826,-7.3849],[110.581,-7.3844],[110.5832,-7.3787],[110.5817,-7.3774],[110.5826,-7.3764],[110.5771,-7.3738],[110.5771,-7.3722],[110.5815,-7.3739],[110.5832,-7.3724],[110.5866,-7.3728],[110.5937,-7.3759],[110.5909,-7.3802],[110.5921,-7.3898],[110.588,-7.3906]]]}},{"type":"Feature","properties":{"name":"Reksosari","name_en":"Reksosari","admin_level":"7","osm_id":""},"geometry":{"type":"Polygon","coordinates":[[[110.5897,-7.3415],[110.594,-7.3433],[110.592,-7.3449],[110.5928,-7.3483],[110.5974,-7.3513],[110.5976,-7.3528],[110.5955,-7.3542],[110.5971,-7.356],[110.5965,-7.3593],[110.5938,-7.3598],[110.5928,-7.3617],[110.5977,-7.3713],[110.5908,-7.3749],[110.5866,-7.3728],[110.5832,-7.3724],[110.5815,-7.3739],[110.5785,-7.3727],[110.5806,-7.3723],[110.5797,-7.3707],[110.5823,-7.369],[110.5812,-7.3673],[110.5767,-7.3661],[110.5726,-7.3675],[110.5757,-7.3648],[110.5774,-7.3657],[110.577,-7.364],[110.576,-7.3644],[110.5763,-7.3593],[110.5821,-7.3557],[110.5837,-7.3473],[110.5897,-7.3415]]]}},{"type":"Feature","properties":{"name":"Sukorejo","name_en":"Sukorejo","admin_level":"7","osm_id":""},"geometry":{"type":"Polygon","coordinates":[[[110.6402,-7.3507],[110.6382,-7.3503],[110.6361,-7.3524],[110.636,-7.3615],[110.6329,-7.3643],[110.6345,-7.3625],[110.6298,-7.3595],[110.6269,-7.3629],[110.6211,-7.3621],[110.6199,-7.3598],[110.6143,-7.3643],[110.6124,-7.3636],[110.611,-7.365],[110.6068,-7.3571],[110.6193,-7.3539],[110.6253,-7.3493],[110.6398,-7.3434],[110.641,-7.3437],[110.6402,-7.3507]]]}},{"type":"Feature","properties":{"name":"Suruh","name_en":"Suruh","admin_level":"7","osm_id":""},"geometry":{"type":"Polygon","coordinates":[[[110.5771,-7.3738],[110.5706,-7.3757],[110.5628,-7.3688],[110.5639,-7.3656],[110.5613,-7.3606],[110.563,-7.3509],[110.5718,-7.3509],[110.573,-7.3549],[110.5754,-7.3559],[110.5768,-7.359],[110.576,-7.3644],[110.577,-7.364],[110.5774,-7.3657],[110.5757,-7.3648],[110.5726,-7.3675],[110.5767,-7.3661],[110.5824,-7.3681],[110.5797,-7.3707],[110.5806,-7.3723],[110.5771,-7.3722],[110.5771,-7.3738]]]}}]}