{"type":"FeatureCollection","metadata":{"parent_osm_id":"gid_IDN_23_19_2_1","parent_name":"Geselma","parent_name_1":"Papua","parent_gid":"IDN.23.19.2_1","parent_level":"6","child_level":"7","count":4,"source":"GADM 4.1","generated":"2026-05-08"},"features":[{"type":"Feature","properties":{"name":"Geselema","name_en":"Geselema","admin_level":"7","osm_id":""},"geometry":{"type":"Polygon","coordinates":[[[137.8573,-4.6085],[137.7915,-4.6203],[137.7849,-4.6053],[137.7834,-4.5825],[137.759,-4.5324],[137.7438,-4.4883],[137.7499,-4.4457],[137.7393,-4.3925],[137.7058,-4.3545],[137.6715,-4.345],[137.6743,-4.2745],[137.767,-4.2758],[137.7838,-4.2767],[137.8083,-4.2806],[137.8619,-4.2775],[137.8948,-4.283],[137.929,-4.2818],[137.9872,-4.2862],[137.996,-4.3098],[137.9989,-4.326],[137.9989,-4.3378],[137.9953,-4.3488],[138.0004,-4.3577],[138.0129,-4.3724],[138.0197,-4.4055],[138.011,-4.4297],[138.0175,-4.4757],[138.0175,-4.5196],[138.0132,-4.5547],[138.0115,-4.6077],[137.9662,-4.5984],[137.9126,-4.6063],[137.8699,-4.6063],[137.8573,-4.6085]]]}},{"type":"Feature","properties":{"name":"Meborok","name_en":"Meborok","admin_level":"7","osm_id":""},"geometry":{"type":"Polygon","coordinates":[[[137.7915,-4.6203],[137.6674,-4.64],[137.5775,-4.6521],[137.5686,-4.6152],[137.5789,-4.5842],[137.5966,-4.5724],[137.6144,-4.5488],[137.6277,-4.5222],[137.6498,-4.4912],[137.6646,-4.4735],[137.668,-4.4336],[137.6715,-4.345],[137.7058,-4.3545],[137.7393,-4.3925],[137.7499,-4.4457],[137.7438,-4.4883],[137.759,-4.5324],[137.7834,-4.5825],[137.7849,-4.6053],[137.7915,-4.6203]]]}},{"type":"Feature","properties":{"name":"Yuguru","name_en":"Yuguru","admin_level":"7","osm_id":""},"geometry":{"type":"Polygon","coordinates":[[[138.167,-4.6376],[138.1372,-4.6307],[138.1116,-4.6282],[138.0115,-4.6077],[138.0132,-4.5547],[138.0175,-4.5196],[138.0175,-4.4757],[138.011,-4.4297],[138.0197,-4.4055],[138.0129,-4.3724],[138.0004,-4.3577],[137.9953,-4.3488],[137.9989,-4.3378],[137.9989,-4.326],[137.996,-4.3098],[137.9872,-4.2862],[138.0053,-4.239],[138.0053,-4.2162],[138.0083,-4.1995],[138.019,-4.1797],[138.0179,-4.1362],[138.0699,-4.1341],[138.1249,-4.1341],[138.1612,-4.1371],[138.1541,-4.1828],[138.1541,-4.2129],[138.163,-4.2661],[138.1718,-4.2927],[138.186,-4.3742],[138.1895,-4.4061],[138.163,-4.4735],[138.1594,-4.5266],[138.1594,-4.5727],[138.167,-4.6376]]]}},{"type":"Feature","properties":{"name":"Yutpul","name_en":"Yutpul","admin_level":"7","osm_id":""},"geometry":{"type":"Polygon","coordinates":[[[137.6784,-4.1723],[137.7008,-4.1603],[137.7401,-4.1445],[137.7584,-4.1419],[137.7924,-4.1341],[137.816,-4.1315],[137.8422,-4.1498],[137.8657,-4.155],[137.8945,-4.1472],[138.0179,-4.1362],[138.019,-4.1797],[138.0083,-4.1995],[138.0053,-4.2162],[138.0053,-4.239],[137.9872,-4.2862],[137.929,-4.2818],[137.8948,-4.283],[137.8619,-4.2775],[137.8083,-4.2806],[137.7838,-4.2767],[137.767,-4.2758],[137.6743,-4.2745],[137.6784,-4.1723]]]}}]}