{"type":"FeatureCollection","metadata":{"parent_osm_id":"gid_IDN_1_10_9_1","parent_name":"IndraMakmur","parent_name_1":"Aceh","parent_gid":"IDN.1.10.9_1","parent_level":"6","child_level":"7","count":13,"source":"GADM 4.1","generated":"2026-05-09"},"features":[{"type":"Feature","properties":{"name":"AlueIeItam","name_en":"AlueIeItam","admin_level":"7","osm_id":""},"geometry":{"type":"Polygon","coordinates":[[[97.6133,4.9107],[97.6146,4.909],[97.6226,4.8985],[97.6097,4.8967],[97.6053,4.905],[97.6133,4.9107]]]}},{"type":"Feature","properties":{"name":"AlueIeMirah","name_en":"AlueIeMirah","admin_level":"7","osm_id":""},"geometry":{"type":"Polygon","coordinates":[[[97.5843,4.9296],[97.5903,4.9295],[97.5918,4.9311],[97.5962,4.9303],[97.5954,4.9128],[97.5861,4.9085],[97.5882,4.923],[97.5864,4.9239],[97.5843,4.9296]]]}},{"type":"Feature","properties":{"name":"AluePatong","name_en":"AluePatong","admin_level":"7","osm_id":""},"geometry":{"type":"Polygon","coordinates":[[[97.5905,4.9499],[97.5816,4.9831],[97.5854,4.9802],[97.606,4.9779],[97.6174,4.9734],[97.6211,4.9633],[97.6208,4.9543],[97.6146,4.9483],[97.5905,4.9499]]]}},{"type":"Feature","properties":{"name":"BandarBaro","name_en":"BandarBaro","admin_level":"7","osm_id":""},"geometry":{"type":"Polygon","coordinates":[[[97.5816,4.9831],[97.5905,4.9499],[97.5846,4.9503],[97.5697,4.9562],[97.5458,4.9509],[97.5482,4.9656],[97.552,4.969],[97.5538,4.975],[97.5524,4.9794],[97.5555,4.9862],[97.5673,4.9942],[97.5664,4.9981],[97.5711,4.9966],[97.5796,4.9887],[97.5816,4.9831]]]}},{"type":"Feature","properties":{"name":"BlangNisam","name_en":"BlangNisam","admin_level":"7","osm_id":""},"geometry":{"type":"Polygon","coordinates":[[[97.6226,4.8985],[97.6133,4.9107],[97.6017,4.919],[97.5955,4.9215],[97.5962,4.9303],[97.5918,4.9311],[97.5903,4.9295],[97.5843,4.9296],[97.585,4.938],[97.5824,4.9438],[97.5723,4.949],[97.5669,4.95],[97.5412,4.9431],[97.5458,4.9509],[97.5697,4.9562],[97.5846,4.9503],[97.6146,4.9483],[97.6208,4.9543],[97.6211,4.9633],[97.6285,4.9655],[97.6352,4.9622],[97.6347,4.9579],[97.6394,4.9536],[97.6411,4.9487],[97.6411,4.9448],[97.6385,4.9417],[97.6401,4.9361],[97.6444,4.9326],[97.6441,4.9266],[97.6389,4.9195],[97.6321,4.9189],[97.6337,4.9001],[97.6226,4.8985]]]}},{"type":"Feature","properties":{"name":"JamboBalee","name_en":"JamboBalee","admin_level":"7","osm_id":""},"geometry":{"type":"Polygon","coordinates":[[[97.5393,4.9259],[97.5595,4.923],[97.564,4.9266],[97.5711,4.9081],[97.5713,4.903],[97.5384,4.8924],[97.5348,4.9017],[97.5378,4.9083],[97.5363,4.9104],[97.5393,4.9259]]]}},{"type":"Feature","properties":{"name":"JamboLubok","name_en":"JamboLubok","admin_level":"7","osm_id":""},"geometry":{"type":"Polygon","coordinates":[[[97.5843,4.9296],[97.5864,4.9239],[97.5882,4.923],[97.5861,4.9085],[97.5732,4.8956],[97.5711,4.9081],[97.564,4.9266],[97.5595,4.923],[97.5393,4.9259],[97.5412,4.9431],[97.5629,4.9493],[97.5723,4.949],[97.5824,4.9438],[97.5841,4.9414],[97.5843,4.9296]]]}},{"type":"Feature","properties":{"name":"PelitaSagupJaya","name_en":"PelitaSagupJaya","admin_level":"7","osm_id":""},"geometry":{"type":"Polygon","coordinates":[[[97.6541,4.8719],[97.6522,4.8582],[97.6531,4.8546],[97.615,4.8562],[97.6152,4.8761],[97.6114,4.8872],[97.6385,4.89],[97.6431,4.8786],[97.6541,4.8719]]]}},{"type":"Feature","properties":{"name":"PerkJulokRayeukSelatan","name_en":"PerkJulokRayeukSelatan","admin_level":"7","osm_id":""},"geometry":{"type":"Polygon","coordinates":[[[97.6533,4.8539],[97.6563,4.8422],[97.6458,4.8401],[97.644,4.8382],[97.6444,4.8349],[97.6393,4.8306],[97.6036,4.8308],[97.6012,4.8264],[97.5766,4.8266],[97.573,4.8238],[97.571,4.8269],[97.5718,4.8522],[97.615,4.8522],[97.615,4.8562],[97.6533,4.8539]]]}},{"type":"Feature","properties":{"name":"PerkJulokRayeukUtara","name_en":"PerkJulokRayeukUtara","admin_level":"7","osm_id":""},"geometry":{"type":"Polygon","coordinates":[[[97.6053,4.905],[97.6097,4.8967],[97.6096,4.8921],[97.6152,4.8761],[97.615,4.8522],[97.5718,4.8522],[97.5732,4.8956],[97.5861,4.9085],[97.5954,4.9128],[97.6053,4.905]]]}},{"type":"Feature","properties":{"name":"SeuneubokBayu","name_en":"SeuneubokBayu","admin_level":"7","osm_id":""},"geometry":{"type":"Polygon","coordinates":[[[97.5385,4.8925],[97.5713,4.903],[97.5732,4.8956],[97.571,4.8269],[97.573,4.8238],[97.5766,4.8266],[97.6012,4.8264],[97.6036,4.8308],[97.6393,4.8306],[97.6372,4.8257],[97.6213,4.8111],[97.6071,4.8132],[97.5934,4.8012],[97.5927,4.7823],[97.5801,4.7802],[97.5788,4.7734],[97.5811,4.7654],[97.5867,4.7612],[97.6035,4.7254],[97.5483,4.7375],[97.5466,4.7483],[97.5367,4.7613],[97.5365,4.7647],[97.5445,4.7742],[97.543,4.7831],[97.5251,4.7894],[97.5234,4.7946],[97.5254,4.8005],[97.5217,4.8234],[97.5257,4.8336],[97.5438,4.8623],[97.5447,4.876],[97.5385,4.8925]]]}},{"type":"Feature","properties":{"name":"SeuneubokCina","name_en":"SeuneubokCina","admin_level":"7","osm_id":""},"geometry":{"type":"Polygon","coordinates":[[[97.6097,4.8967],[97.6337,4.9001],[97.6377,4.8966],[97.6385,4.89],[97.6114,4.8872],[97.6097,4.8967]]]}},{"type":"Feature","properties":{"name":"SukaMakmur","name_en":"SukaMakmur","admin_level":"7","osm_id":""},"geometry":{"type":"Polygon","coordinates":[[[97.6133,4.9107],[97.6053,4.905],[97.5954,4.9128],[97.5955,4.9215],[97.6017,4.919],[97.6133,4.9107]]]}}]}