{"type":"FeatureCollection","metadata":{"parent_osm_id":"17992213","parent_name":"Pulau","parent_name_1":"Lampung","parent_gid":"IDN.17.5.18_1","parent_level":"6","child_level":"7","count":1,"source":"GADM 4.1","generated":"2026-05-09"},"features":[{"type":"Feature","properties":{"name":"PulauSegamaKecil","name_en":"PulauSegamaKecil","admin_level":"7","osm_id":""},"geometry":{"type":"Polygon","coordinates":[[[106.2109,-5.2085],[106.2101,-5.2082],[106.2103,-5.2074],[106.2113,-5.2075],[106.2109,-5.2085]]]}}]}