{"type":"FeatureCollection","metadata":{"parent_osm_id":"gid_IDN_9_8_1_1","parent_name":"CimahiSelatan","parent_name_1":"JawaBarat","parent_gid":"IDN.9.8.1_1","parent_level":"6","child_level":"7","count":5,"source":"GADM 4.1","generated":"2026-05-08"},"features":[{"type":"Feature","properties":{"name":"Cibeber","name_en":"Cibeber","admin_level":"7","osm_id":""},"geometry":{"type":"Polygon","coordinates":[[[107.5169,-6.9062],[107.5109,-6.9012],[107.5102,-6.8983],[107.5145,-6.8921],[107.517,-6.8921],[107.5173,-6.8849],[107.5196,-6.8806],[107.5247,-6.8834],[107.5254,-6.8864],[107.5299,-6.8873],[107.5251,-6.8913],[107.5277,-6.8935],[107.5284,-6.8972],[107.5221,-6.8992],[107.5204,-6.9042],[107.5188,-6.9063],[107.5169,-6.9062]]]}},{"type":"Feature","properties":{"name":"Cibeureum","name_en":"Cibeureum","admin_level":"7","osm_id":""},"geometry":{"type":"Polygon","coordinates":[[[107.5657,-6.9122],[107.5635,-6.9117],[107.5614,-6.9177],[107.559,-6.9157],[107.559,-6.9137],[107.5583,-6.9148],[107.5558,-6.9134],[107.5536,-6.914],[107.552,-6.917],[107.5496,-6.9154],[107.5528,-6.9039],[107.5572,-6.8997],[107.559,-6.8998],[107.5585,-6.8972],[107.5606,-6.8965],[107.569,-6.9103],[107.5657,-6.9122]]]}},{"type":"Feature","properties":{"name":"Leuwigajah","name_en":"Leuwigajah","admin_level":"7","osm_id":""},"geometry":{"type":"Polygon","coordinates":[[[107.525,-6.9207],[107.5241,-6.9186],[107.5185,-6.9152],[107.521,-6.9106],[107.5169,-6.9062],[107.5188,-6.9063],[107.5204,-6.9042],[107.5221,-6.8992],[107.5284,-6.8972],[107.5277,-6.8935],[107.5336,-6.8974],[107.5344,-6.8946],[107.5366,-6.8946],[107.5361,-6.9004],[107.5314,-6.908],[107.534,-6.9108],[107.5335,-6.9181],[107.5308,-6.9165],[107.525,-6.9207]]]}},{"type":"Feature","properties":{"name":"Melong","name_en":"Melong","admin_level":"7","osm_id":""},"geometry":{"type":"Polygon","coordinates":[[[107.5453,-6.9268],[107.5438,-6.919],[107.545,-6.9178],[107.5454,-6.9195],[107.5475,-6.9192],[107.5496,-6.9154],[107.552,-6.917],[107.553,-6.9144],[107.5558,-6.9134],[107.56,-6.9143],[107.559,-6.9157],[107.5614,-6.9177],[107.5635,-6.9117],[107.5657,-6.9122],[107.5651,-6.9243],[107.5627,-6.9273],[107.5652,-6.9297],[107.5641,-6.9329],[107.5591,-6.9308],[107.5604,-6.9279],[107.5587,-6.9262],[107.5579,-6.9298],[107.5503,-6.9262],[107.5453,-6.9268]]]}},{"type":"Feature","properties":{"name":"Utama","name_en":"Utama","admin_level":"7","osm_id":""},"geometry":{"type":"Polygon","coordinates":[[[107.5438,-6.919],[107.5333,-6.9175],[107.534,-6.9108],[107.5314,-6.9078],[107.5361,-6.9004],[107.5374,-6.894],[107.5379,-6.8984],[107.5434,-6.8991],[107.5445,-6.9014],[107.5504,-6.8994],[107.5501,-6.906],[107.5532,-6.9048],[107.5506,-6.9099],[107.5494,-6.9175],[107.5475,-6.9192],[107.5454,-6.9195],[107.545,-6.9178],[107.5438,-6.919]]]}}]}