{"type":"FeatureCollection","metadata":{"parent_osm_id":"gid_IDN_20_7_5_1","parent_name":"Tanjung","parent_name_1":"NusaTenggaraBarat","parent_gid":"IDN.20.7.5_1","parent_level":"6","child_level":"7","count":7,"source":"GADM 4.1","generated":"2026-05-09"},"features":[{"type":"Feature","properties":{"name":"Jenggala","name_en":"Jenggala","admin_level":"7","osm_id":""},"geometry":{"type":"Polygon","coordinates":[[[116.1998,-8.4785],[116.1923,-8.4732],[116.193,-8.4701],[116.1907,-8.4668],[116.1902,-8.4584],[116.1838,-8.4461],[116.1775,-8.4428],[116.1808,-8.4348],[116.1767,-8.4272],[116.1785,-8.4248],[116.1764,-8.4204],[116.1784,-8.4186],[116.1776,-8.4165],[116.1802,-8.412],[116.1787,-8.4105],[116.1814,-8.4105],[116.1823,-8.4059],[116.1794,-8.4055],[116.1795,-8.3954],[116.1751,-8.3893],[116.1751,-8.3846],[116.1707,-8.3819],[116.167,-8.3747],[116.1659,-8.3646],[116.158,-8.344],[116.1659,-8.3453],[116.1754,-8.3419],[116.1769,-8.3428],[116.1773,-8.3475],[116.1719,-8.3535],[116.1744,-8.3558],[116.1773,-8.3652],[116.1803,-8.3679],[116.1779,-8.3696],[116.1829,-8.3831],[116.1862,-8.3831],[116.1891,-8.3886],[116.1902,-8.3957],[116.1874,-8.3963],[116.1848,-8.3995],[116.1867,-8.4039],[116.1902,-8.4049],[116.1955,-8.4037],[116.1987,-8.4001],[116.2081,-8.4045],[116.2097,-8.4032],[116.2165,-8.4037],[116.2176,-8.407],[116.2218,-8.4106],[116.223,-8.4157],[116.2265,-8.4149],[116.2359,-8.4184],[116.2361,-8.4227],[116.2395,-8.4271],[116.2401,-8.4308],[116.2441,-8.4344],[116.2514,-8.4324],[116.2559,-8.4368],[116.2641,-8.438],[116.2647,-8.4406],[116.2684,-8.4391],[116.2785,-8.4404],[116.2772,-8.445],[116.2648,-8.4513],[116.256,-8.4527],[116.248,-8.4518],[116.2448,-8.4537],[116.2359,-8.4525],[116.2299,-8.4557],[116.2229,-8.4564],[116.2145,-8.4802],[116.2053,-8.4802],[116.1998,-8.4785]]]}},{"type":"Feature","properties":{"name":"Medana","name_en":"Medana","admin_level":"7","osm_id":""},"geometry":{"type":"Polygon","coordinates":[[[116.1237,-8.3593],[116.1244,-8.3596],[116.1256,-8.3625],[116.13,-8.3655],[116.1355,-8.3628],[116.1373,-8.3585],[116.1393,-8.3663],[116.1383,-8.3781],[116.1417,-8.3943],[116.1395,-8.4047],[116.1305,-8.4029],[116.1281,-8.3784],[116.1293,-8.3747],[116.1237,-8.3593]]]}},{"type":"Feature","properties":{"name":"SigarPenjalin","name_en":"SigarPenjalin","admin_level":"7","osm_id":""},"geometry":{"type":"Polygon","coordinates":[[[116.1421,-8.4544],[116.1374,-8.457],[116.1345,-8.462],[116.1287,-8.4544],[116.128,-8.4477],[116.1227,-8.4418],[116.1156,-8.4404],[116.1105,-8.4425],[116.1052,-8.4371],[116.1096,-8.4372],[116.1094,-8.4327],[116.1126,-8.4305],[116.1139,-8.4269],[116.1234,-8.4271],[116.1241,-8.4236],[116.1205,-8.4147],[116.1222,-8.4132],[116.121,-8.4072],[116.1183,-8.4041],[116.1163,-8.3972],[116.1171,-8.3931],[116.1141,-8.3885],[116.1057,-8.3856],[116.1059,-8.379],[116.0995,-8.3632],[116.1008,-8.3613],[116.109,-8.3619],[116.1142,-8.3676],[116.1198,-8.3703],[116.1217,-8.3689],[116.1213,-8.3639],[116.1237,-8.3594],[116.1293,-8.3747],[116.1281,-8.3784],[116.1308,-8.3961],[116.1301,-8.405],[116.127,-8.4119],[116.1318,-8.4247],[116.1356,-8.4424],[116.1421,-8.4544]]]}},{"type":"Feature","properties":{"name":"Sokong","name_en":"Sokong","admin_level":"7","osm_id":""},"geometry":{"type":"Polygon","coordinates":[[[116.1395,-8.4047],[116.1417,-8.3943],[116.1383,-8.3781],[116.1393,-8.3663],[116.1372,-8.3584],[116.1447,-8.3551],[116.1475,-8.3495],[116.1489,-8.352],[116.1509,-8.3522],[116.1527,-8.357],[116.1565,-8.359],[116.1595,-8.365],[116.1643,-8.3689],[116.1635,-8.3747],[116.1666,-8.3767],[116.1646,-8.3775],[116.1655,-8.3846],[116.1594,-8.3972],[116.1605,-8.3991],[116.1588,-8.4018],[116.1604,-8.4033],[116.1592,-8.4051],[116.1602,-8.407],[116.1591,-8.4133],[116.1527,-8.4119],[116.1532,-8.4066],[116.1395,-8.4047]]]}},{"type":"Feature","properties":{"name":"Tanjung","name_en":"Tanjung","admin_level":"7","osm_id":""},"geometry":{"type":"Polygon","coordinates":[[[116.158,-8.344],[116.1671,-8.3692],[116.1659,-8.3753],[116.1635,-8.3747],[116.1643,-8.3689],[116.1595,-8.365],[116.1565,-8.359],[116.1527,-8.357],[116.1509,-8.3522],[116.1489,-8.352],[116.1475,-8.3495],[116.1526,-8.3437],[116.158,-8.344]]]}},{"type":"Feature","properties":{"name":"TegalMaja","name_en":"TegalMaja","admin_level":"7","osm_id":""},"geometry":{"type":"Polygon","coordinates":[[[116.1742,-8.4651],[116.1675,-8.4656],[116.1635,-8.4628],[116.1614,-8.4567],[116.1509,-8.4453],[116.1513,-8.4408],[116.1492,-8.4338],[116.1512,-8.4233],[116.1593,-8.4143],[116.1602,-8.407],[116.1592,-8.4051],[116.1604,-8.4033],[116.1588,-8.4014],[116.1605,-8.3991],[116.1594,-8.3972],[116.1652,-8.3856],[116.1646,-8.3775],[116.1666,-8.3767],[116.167,-8.3747],[116.1707,-8.3819],[116.1751,-8.3846],[116.1751,-8.3893],[116.1795,-8.3954],[116.1794,-8.4055],[116.1823,-8.4059],[116.1814,-8.4105],[116.1787,-8.4105],[116.1802,-8.412],[116.1776,-8.4165],[116.1784,-8.4186],[116.1764,-8.4204],[116.1785,-8.4248],[116.1767,-8.4272],[116.1808,-8.4348],[116.1775,-8.4428],[116.1838,-8.4461],[116.19,-8.4578],[116.1908,-8.4629],[116.1907,-8.4668],[116.1823,-8.4627],[116.1742,-8.4651]]]}},{"type":"Feature","properties":{"name":"Teniga","name_en":"Teniga","admin_level":"7","osm_id":""},"geometry":{"type":"Polygon","coordinates":[[[116.1578,-8.4586],[116.1549,-8.4599],[116.1462,-8.4583],[116.1385,-8.449],[116.127,-8.4119],[116.1305,-8.4029],[116.1532,-8.4066],[116.1527,-8.4119],[116.1591,-8.4133],[116.1582,-8.4169],[116.1512,-8.4233],[116.1492,-8.4338],[116.1513,-8.4408],[116.1509,-8.4453],[116.1602,-8.4561],[116.1578,-8.4586]]]}}]}