{"type":"FeatureCollection","metadata":{"parent_osm_id":"18199050","parent_name":"Sukaresmi","parent_name_1":"Banten","parent_gid":"IDN.4.5.34_1","parent_level":"6","child_level":"7","count":10,"source":"GADM 4.1","generated":"2026-05-09"},"features":[{"type":"Feature","properties":{"name":"Cibungur","name_en":"Cibungur","admin_level":"7","osm_id":""},"geometry":{"type":"Polygon","coordinates":[[[105.8084,-6.4719],[105.8124,-6.4699],[105.8166,-6.4606],[105.8207,-6.4561],[105.8207,-6.4537],[105.824,-6.4534],[105.8246,-6.4472],[105.8283,-6.4438],[105.8281,-6.4411],[105.8315,-6.4413],[105.8303,-6.4462],[105.8313,-6.4477],[105.829,-6.4491],[105.8309,-6.4544],[105.8283,-6.4692],[105.8272,-6.4734],[105.8229,-6.4717],[105.8225,-6.4798],[105.8164,-6.476],[105.8155,-6.4774],[105.8131,-6.4761],[105.8119,-6.4786],[105.8058,-6.4761],[105.8084,-6.4719]]]}},{"type":"Feature","properties":{"name":"Cikuya","name_en":"Cikuya","admin_level":"7","osm_id":""},"geometry":{"type":"Polygon","coordinates":[[[105.8464,-6.4364],[105.8488,-6.4361],[105.8472,-6.439],[105.8481,-6.4399],[105.8458,-6.4463],[105.8421,-6.4496],[105.8396,-6.4591],[105.8308,-6.4558],[105.829,-6.4491],[105.8313,-6.4477],[105.8303,-6.4462],[105.8321,-6.4405],[105.83,-6.4387],[105.83,-6.4361],[105.8337,-6.4374],[105.8347,-6.4341],[105.8391,-6.4366],[105.8382,-6.433],[105.8428,-6.4317],[105.8443,-6.4323],[105.8426,-6.4373],[105.8464,-6.4364]]]}},{"type":"Feature","properties":{"name":"Karyasari","name_en":"Karyasari","admin_level":"7","osm_id":""},"geometry":{"type":"Polygon","coordinates":[[[105.8531,-6.5442],[105.8465,-6.5553],[105.84,-6.5553],[105.8365,-6.5528],[105.8281,-6.5539],[105.8265,-6.5534],[105.8295,-6.5423],[105.8243,-6.5356],[105.8267,-6.5328],[105.8338,-6.5334],[105.836,-6.5309],[105.8394,-6.5317],[105.8416,-6.5355],[105.8505,-6.5335],[105.8548,-6.536],[105.8552,-6.5324],[105.8589,-6.5359],[105.8573,-6.5355],[105.8519,-6.5391],[105.8522,-6.5411],[105.8539,-6.5407],[105.8518,-6.5423],[105.8531,-6.5442]]]}},{"type":"Feature","properties":{"name":"Kubangkampil","name_en":"Kubangkampil","admin_level":"7","osm_id":""},"geometry":{"type":"Polygon","coordinates":[[[105.8506,-6.4766],[105.8513,-6.4971],[105.8482,-6.4973],[105.8283,-6.4855],[105.8288,-6.4844],[105.821,-6.4809],[105.8226,-6.4801],[105.8229,-6.4717],[105.8404,-6.4774],[105.8408,-6.4759],[105.8506,-6.4766]]]}},{"type":"Feature","properties":{"name":"Pasirkadu","name_en":"Pasirkadu","admin_level":"7","osm_id":""},"geometry":{"type":"Polygon","coordinates":[[[105.8513,-6.4971],[105.8722,-6.4988],[105.871,-6.51],[105.8681,-6.515],[105.8736,-6.5337],[105.8637,-6.5357],[105.8625,-6.5375],[105.859,-6.5366],[105.8579,-6.5338],[105.8552,-6.5324],[105.8545,-6.536],[105.8473,-6.53],[105.8481,-6.528],[105.8434,-6.5312],[105.8436,-6.5292],[105.842,-6.5281],[105.8454,-6.5228],[105.8406,-6.5225],[105.8397,-6.5206],[105.8377,-6.522],[105.8389,-6.5175],[105.8371,-6.5164],[105.8388,-6.5168],[105.8452,-6.513],[105.8482,-6.4973],[105.8513,-6.4971]]]}},{"type":"Feature","properties":{"name":"Perdana","name_en":"Perdana","admin_level":"7","osm_id":""},"geometry":{"type":"Polygon","coordinates":[[[105.8369,-6.5314],[105.8356,-6.5287],[105.8341,-6.5298],[105.8315,-6.5274],[105.8322,-6.5266],[105.8303,-6.5269],[105.8312,-6.5237],[105.8324,-6.5238],[105.8279,-6.5204],[105.8297,-6.5177],[105.8323,-6.5203],[105.8337,-6.5177],[105.8388,-6.5174],[105.8381,-6.5224],[105.8397,-6.5206],[105.8406,-6.5225],[105.8458,-6.5232],[105.842,-6.5281],[105.8436,-6.5292],[105.8434,-6.5312],[105.8481,-6.528],[105.8472,-6.5298],[105.8505,-6.5335],[105.8416,-6.5355],[105.8394,-6.5317],[105.8369,-6.5314]]]}},{"type":"Feature","properties":{"name":"Seuseupan","name_en":"Seuseupan","admin_level":"7","osm_id":""},"geometry":{"type":"Polygon","coordinates":[[[105.8265,-6.5534],[105.8128,-6.5508],[105.809,-6.549],[105.8087,-6.5468],[105.816,-6.5402],[105.8243,-6.5356],[105.8297,-6.5434],[105.8265,-6.5534]]]}},{"type":"Feature","properties":{"name":"Sidamukti","name_en":"Sidamukti","admin_level":"7","osm_id":""},"geometry":{"type":"Polygon","coordinates":[[[105.8262,-6.4957],[105.8239,-6.4965],[105.823,-6.4945],[105.8217,-6.4981],[105.8195,-6.4966],[105.8194,-6.4939],[105.8177,-6.4958],[105.8175,-6.4901],[105.8109,-6.4883],[105.8129,-6.4857],[105.812,-6.4845],[105.8098,-6.4852],[105.8092,-6.4884],[105.8059,-6.4853],[105.8045,-6.4887],[105.7961,-6.4912],[105.8058,-6.4761],[105.8119,-6.4786],[105.8131,-6.4761],[105.8155,-6.4774],[105.8164,-6.476],[105.8225,-6.4798],[105.821,-6.4809],[105.8289,-6.4844],[105.8245,-6.4911],[105.8271,-6.4926],[105.8262,-6.4957]]]}},{"type":"Feature","properties":{"name":"Sukaresmi","name_en":"Sukaresmi","admin_level":"7","osm_id":""},"geometry":{"type":"Polygon","coordinates":[[[105.8266,-6.5119],[105.8261,-6.5051],[105.8286,-6.505],[105.8295,-6.5002],[105.8262,-6.4978],[105.8271,-6.4926],[105.8245,-6.4911],[105.8283,-6.4855],[105.8482,-6.4973],[105.8441,-6.5143],[105.8337,-6.5177],[105.8323,-6.5203],[105.8301,-6.5176],[105.8278,-6.5182],[105.8279,-6.515],[105.8312,-6.5146],[105.828,-6.5105],[105.8266,-6.5119]]]}},{"type":"Feature","properties":{"name":"Weru","name_en":"Weru","admin_level":"7","osm_id":""},"geometry":{"type":"Polygon","coordinates":[[[105.8405,-6.4565],[105.8409,-6.4645],[105.8444,-6.4658],[105.8404,-6.4774],[105.8362,-6.4767],[105.8355,-6.4748],[105.8272,-6.4734],[105.8308,-6.4558],[105.8396,-6.4591],[105.8405,-6.4565]]]}}]}