{"type":"FeatureCollection","metadata":{"parent_osm_id":"19958071","parent_name":"Bojong","parent_name_1":"JawaTengah","parent_gid":"IDN.10.22.1_1","parent_level":"6","child_level":"7","count":22,"source":"GADM 4.1","generated":"2026-05-09"},"features":[{"type":"Feature","properties":{"name":"BabalanKidul","name_en":"BabalanKidul","admin_level":"7","osm_id":""},"geometry":{"type":"Polygon","coordinates":[[[109.6084,-6.9363],[109.6122,-6.9424],[109.617,-6.9462],[109.6127,-6.9451],[109.6104,-6.9426],[109.6099,-6.9464],[109.6081,-6.9461],[109.608,-6.9497],[109.6026,-6.9486],[109.6013,-6.9468],[109.602,-6.9444],[109.5991,-6.9442],[109.5997,-6.9418],[109.6073,-6.9427],[109.6051,-6.9381],[109.6084,-6.9363]]]}},{"type":"Feature","properties":{"name":"Babalanlor","name_en":"Babalanlor","admin_level":"7","osm_id":""},"geometry":{"type":"Polygon","coordinates":[[[109.617,-6.9462],[109.6122,-6.9424],[109.6087,-6.9365],[109.6068,-6.9349],[109.6041,-6.9367],[109.6013,-6.9322],[109.6042,-6.9309],[109.6078,-6.9319],[109.6112,-6.9334],[109.611,-6.9356],[109.6197,-6.9386],[109.6191,-6.9409],[109.617,-6.9416],[109.617,-6.9462]]]}},{"type":"Feature","properties":{"name":"BojongMinggir","name_en":"BojongMinggir","admin_level":"7","osm_id":""},"geometry":{"type":"Polygon","coordinates":[[[109.6013,-6.9468],[109.6026,-6.9486],[109.608,-6.9497],[109.6081,-6.9461],[109.6099,-6.9464],[109.6106,-6.9501],[109.6092,-6.9551],[109.6077,-6.9549],[109.6055,-6.9583],[109.5939,-6.9539],[109.5949,-6.9518],[109.6009,-6.9537],[109.6013,-6.9468]]]}},{"type":"Feature","properties":{"name":"BojongWetan","name_en":"BojongWetan","admin_level":"7","osm_id":""},"geometry":{"type":"Polygon","coordinates":[[[109.5831,-6.9782],[109.5852,-6.9695],[109.5936,-6.9712],[109.5944,-6.9688],[109.5924,-6.9675],[109.5918,-6.9639],[109.6069,-6.9648],[109.6049,-6.9723],[109.5905,-6.9736],[109.5894,-6.9783],[109.5831,-6.9782]]]}},{"type":"Feature","properties":{"name":"Bojonglor","name_en":"Bojonglor","admin_level":"7","osm_id":""},"geometry":{"type":"Polygon","coordinates":[[[109.5967,-6.9551],[109.6055,-6.9583],[109.6077,-6.9564],[109.6075,-6.9614],[109.6016,-6.9599],[109.6013,-6.9619],[109.5981,-6.9617],[109.5986,-6.9647],[109.5918,-6.9639],[109.5967,-6.9551]]]}},{"type":"Feature","properties":{"name":"Bukur","name_en":"Bukur","admin_level":"7","osm_id":""},"geometry":{"type":"Polygon","coordinates":[[[109.5489,-6.9832],[109.5526,-6.9946],[109.5568,-6.9953],[109.5605,-6.9999],[109.5593,-7.0047],[109.5559,-7.0061],[109.552,-7.0053],[109.5493,-7.0094],[109.5482,-7.0086],[109.5496,-7.0068],[109.5482,-7.0064],[109.5442,-7.0089],[109.5412,-7.0089],[109.5407,-7.0077],[109.5379,-7.0091],[109.5356,-7.0056],[109.5365,-7.0025],[109.5389,-7.003],[109.5414,-6.9985],[109.54,-6.9928],[109.5443,-6.9916],[109.5479,-6.9829],[109.5489,-6.9832]]]}},{"type":"Feature","properties":{"name":"Duwet","name_en":"Duwet","admin_level":"7","osm_id":""},"geometry":{"type":"Polygon","coordinates":[[[109.5894,-6.9783],[109.5905,-6.9736],[109.5984,-6.9734],[109.5997,-6.9718],[109.6049,-6.9723],[109.6048,-6.9735],[109.6096,-6.9766],[109.6115,-6.9773],[109.6126,-6.9755],[109.6145,-6.9776],[109.6137,-6.9793],[109.599,-6.9771],[109.5972,-6.9785],[109.5894,-6.9783]]]}},{"type":"Feature","properties":{"name":"JajarWayang","name_en":"JajarWayang","admin_level":"7","osm_id":""},"geometry":{"type":"Polygon","coordinates":[[[109.6099,-6.9464],[109.6104,-6.9426],[109.6166,-6.9466],[109.6171,-6.9414],[109.6191,-6.9409],[109.6186,-6.9479],[109.6228,-6.9548],[109.6161,-6.9567],[109.6159,-6.9533],[109.6138,-6.9532],[109.6143,-6.949],[109.6099,-6.9464]]]}},{"type":"Feature","properties":{"name":"Kalipancur","name_en":"Kalipancur","admin_level":"7","osm_id":""},"geometry":{"type":"Polygon","coordinates":[[[109.5593,-7.0047],[109.5605,-6.9999],[109.5568,-6.9953],[109.5526,-6.9946],[109.5489,-6.9832],[109.5521,-6.9834],[109.5565,-6.978],[109.5666,-6.9778],[109.5669,-6.9819],[109.5711,-6.9899],[109.5707,-6.9965],[109.5735,-6.9974],[109.5679,-7.0063],[109.5633,-7.0079],[109.5593,-7.0047]]]}},{"type":"Feature","properties":{"name":"Karangsari","name_en":"Karangsari","admin_level":"7","osm_id":""},"geometry":{"type":"Polygon","coordinates":[[[109.6084,-6.9363],[109.6051,-6.9381],[109.6068,-6.9428],[109.5997,-6.9418],[109.5966,-6.9357],[109.5973,-6.9337],[109.6011,-6.9326],[109.6041,-6.9367],[109.6068,-6.9349],[109.6084,-6.9363]]]}},{"type":"Feature","properties":{"name":"Kemasan","name_en":"Kemasan","admin_level":"7","osm_id":""},"geometry":{"type":"Polygon","coordinates":[[[109.6162,-6.9567],[109.6228,-6.9548],[109.6258,-6.9573],[109.6254,-6.9639],[109.6213,-6.9629],[109.6218,-6.959],[109.6162,-6.959],[109.6162,-6.9567]]]}},{"type":"Feature","properties":{"name":"KetitangKidul","name_en":"KetitangKidul","admin_level":"7","osm_id":""},"geometry":{"type":"Polygon","coordinates":[[[109.6049,-6.9723],[109.6058,-6.9687],[109.6123,-6.9707],[109.6124,-6.9651],[109.6144,-6.9656],[109.6137,-6.971],[109.6168,-6.9718],[109.6145,-6.9776],[109.6126,-6.9755],[109.6115,-6.9773],[109.6096,-6.9766],[109.6048,-6.9735],[109.6049,-6.9723]]]}},{"type":"Feature","properties":{"name":"Ketitanglor","name_en":"Ketitanglor","admin_level":"7","osm_id":""},"geometry":{"type":"Polygon","coordinates":[[[109.6058,-6.9687],[109.607,-6.9642],[109.6106,-6.9659],[109.6114,-6.9587],[109.6143,-6.959],[109.6144,-6.9656],[109.6124,-6.9651],[109.6123,-6.9707],[109.6058,-6.9687]]]}},{"type":"Feature","properties":{"name":"LegokClile","name_en":"LegokClile","admin_level":"7","osm_id":""},"geometry":{"type":"Polygon","coordinates":[[[109.5938,-6.9525],[109.5966,-6.9551],[109.5912,-6.9646],[109.5944,-6.9687],[109.5935,-6.9714],[109.5852,-6.9695],[109.5874,-6.9654],[109.584,-6.9652],[109.5807,-6.9709],[109.5779,-6.9703],[109.5803,-6.9593],[109.5827,-6.9608],[109.5875,-6.9597],[109.5901,-6.9566],[109.5904,-6.9543],[109.5889,-6.9536],[109.5928,-6.9544],[109.5926,-6.9514],[109.5934,-6.9503],[109.5938,-6.9525]]]}},{"type":"Feature","properties":{"name":"Menjangan","name_en":"Menjangan","admin_level":"7","osm_id":""},"geometry":{"type":"Polygon","coordinates":[[[109.6162,-6.959],[109.6198,-6.9591],[109.6199,-6.9621],[109.6229,-6.9655],[109.624,-6.9716],[109.6221,-6.9748],[109.6245,-6.9748],[109.6239,-6.9761],[109.6212,-6.9754],[109.6197,-6.9725],[109.6178,-6.972],[109.6175,-6.9738],[109.6163,-6.9737],[109.6168,-6.9718],[109.6137,-6.971],[109.6143,-6.959],[109.6162,-6.959]]]}},{"type":"Feature","properties":{"name":"Pantianom","name_en":"Pantianom","admin_level":"7","osm_id":""},"geometry":{"type":"Polygon","coordinates":[[[109.5479,-6.9829],[109.5443,-6.9916],[109.5418,-6.9917],[109.5381,-6.9882],[109.5375,-6.9854],[109.5399,-6.9859],[109.5405,-6.9834],[109.5391,-6.982],[109.5407,-6.9806],[109.5377,-6.9789],[109.5396,-6.9765],[109.5412,-6.9783],[109.5419,-6.9753],[109.5436,-6.9751],[109.5411,-6.9724],[109.5437,-6.9728],[109.5493,-6.9668],[109.5512,-6.9683],[109.5523,-6.9729],[109.5503,-6.9755],[109.5488,-6.9747],[109.5474,-6.9782],[109.5447,-6.9779],[109.5453,-6.9824],[109.5479,-6.9829]]]}},{"type":"Feature","properties":{"name":"RanduMuktiwaren","name_en":"RanduMuktiwaren","admin_level":"7","osm_id":""},"geometry":{"type":"Polygon","coordinates":[[[109.5805,-6.9609],[109.5764,-6.9766],[109.571,-6.9762],[109.5618,-6.9723],[109.5604,-6.9757],[109.5512,-6.9744],[109.5518,-6.9698],[109.5491,-6.9654],[109.5524,-6.9643],[109.5574,-6.9657],[109.5568,-6.9639],[109.5585,-6.9627],[109.5564,-6.9619],[109.5586,-6.9608],[109.5581,-6.9585],[109.5626,-6.9599],[109.5635,-6.9633],[109.564,-6.9599],[109.5733,-6.9635],[109.5779,-6.9595],[109.5805,-6.9609]]]}},{"type":"Feature","properties":{"name":"Rejosari","name_en":"Rejosari","admin_level":"7","osm_id":""},"geometry":{"type":"Polygon","coordinates":[[[109.6069,-6.9648],[109.6033,-6.9636],[109.5986,-6.9647],[109.5976,-6.9632],[109.5981,-6.9617],[109.6013,-6.9619],[109.6016,-6.9599],[109.6075,-6.9614],[109.6079,-6.9589],[109.6114,-6.9587],[109.6106,-6.9659],[109.6069,-6.9648]]]}},{"type":"Feature","properties":{"name":"SembungJambu","name_en":"SembungJambu","admin_level":"7","osm_id":""},"geometry":{"type":"Polygon","coordinates":[[[109.5997,-6.9418],[109.5991,-6.9442],[109.6022,-6.9449],[109.6008,-6.9475],[109.6019,-6.9492],[109.6009,-6.9537],[109.5938,-6.9525],[109.5932,-6.9509],[109.5962,-6.9491],[109.5948,-6.9479],[109.5967,-6.9449],[109.5919,-6.9422],[109.592,-6.9351],[109.5874,-6.9379],[109.5815,-6.9317],[109.5835,-6.931],[109.5892,-6.9334],[109.5918,-6.9285],[109.5959,-6.9277],[109.6005,-6.9292],[109.6021,-6.932],[109.5973,-6.9337],[109.5966,-6.9357],[109.5997,-6.9418]]]}},{"type":"Feature","properties":{"name":"SumurJomblangbogo","name_en":"SumurJomblangbogo","admin_level":"7","osm_id":""},"geometry":{"type":"Polygon","coordinates":[[[109.5831,-6.9782],[109.5951,-6.9785],[109.5943,-6.982],[109.5965,-6.9823],[109.5964,-6.9851],[109.5945,-6.9882],[109.5894,-6.9903],[109.5803,-6.9908],[109.5768,-6.9926],[109.5739,-6.9976],[109.5707,-6.9965],[109.5711,-6.9899],[109.5669,-6.9819],[109.5666,-6.9778],[109.5565,-6.978],[109.5521,-6.9834],[109.5453,-6.9824],[109.5447,-6.9779],[109.5474,-6.9782],[109.5488,-6.9747],[109.5512,-6.9744],[109.5604,-6.9757],[109.5618,-6.9723],[109.571,-6.9762],[109.5764,-6.9766],[109.5774,-6.9699],[109.5815,-6.9708],[109.5808,-6.9781],[109.5831,-6.9782]]]}},{"type":"Feature","properties":{"name":"Wangandowo","name_en":"Wangandowo","admin_level":"7","osm_id":""},"geometry":{"type":"Polygon","coordinates":[[[109.5951,-6.9785],[109.599,-6.9771],[109.6103,-6.9786],[109.6067,-6.9877],[109.6072,-6.992],[109.605,-6.9954],[109.6032,-6.9907],[109.5999,-6.9916],[109.5945,-6.9882],[109.5965,-6.9843],[109.5965,-6.9823],[109.5943,-6.982],[109.5951,-6.9785]]]}},{"type":"Feature","properties":{"name":"Wiroditan","name_en":"Wiroditan","admin_level":"7","osm_id":""},"geometry":{"type":"Polygon","coordinates":[[[109.6077,-6.9564],[109.6106,-6.9501],[109.6098,-6.9471],[109.6143,-6.949],[109.6138,-6.9532],[109.6159,-6.9533],[109.6162,-6.959],[109.6079,-6.9589],[109.6077,-6.9564]]]}}]}