{"type":"FeatureCollection","metadata":{"parent_osm_id":"gid_IDN_5_7_2_1","parent_name":"BinginKuning","parent_name_1":"Bengkulu","parent_gid":"IDN.5.7.2_1","parent_level":"6","child_level":"7","count":9,"source":"GADM 4.1","generated":"2026-05-09"},"features":[{"type":"Feature","properties":{"name":"BukitNibung","name_en":"BukitNibung","admin_level":"7","osm_id":""},"geometry":{"type":"Polygon","coordinates":[[[102.2874,-3.1846],[102.2969,-3.198],[102.2728,-3.214],[102.2685,-3.1994],[102.2717,-3.1952],[102.2874,-3.1846]]]}},{"type":"Feature","properties":{"name":"Bungin","name_en":"Bungin","admin_level":"7","osm_id":""},"geometry":{"type":"Polygon","coordinates":[[[102.2761,-3.1656],[102.2795,-3.1705],[102.2621,-3.1812],[102.2554,-3.1684],[102.2539,-3.1613],[102.2653,-3.1557],[102.2761,-3.1656]]]}},{"type":"Feature","properties":{"name":"KarangDapoAtas","name_en":"KarangDapoAtas","admin_level":"7","osm_id":""},"geometry":{"type":"Polygon","coordinates":[[[102.2969,-3.198],[102.2874,-3.1846],[102.2939,-3.1796],[102.2991,-3.1777],[102.2997,-3.1746],[102.3041,-3.1744],[102.3115,-3.1702],[102.3178,-3.1795],[102.2969,-3.198]]]}},{"type":"Feature","properties":{"name":"KarangDapoBawah","name_en":"KarangDapoBawah","admin_level":"7","osm_id":""},"geometry":{"type":"Polygon","coordinates":[[[102.2874,-3.1846],[102.2717,-3.1952],[102.2685,-3.1994],[102.2677,-3.191],[102.2834,-3.1803],[102.2872,-3.1761],[102.308,-3.1647],[102.3115,-3.1702],[102.3041,-3.1744],[102.2997,-3.1746],[102.2991,-3.1777],[102.2939,-3.1796],[102.2874,-3.1846]]]}},{"type":"Feature","properties":{"name":"PelabuhanTalangLeak","name_en":"PelabuhanTalangLeak","admin_level":"7","osm_id":""},"geometry":{"type":"Polygon","coordinates":[[[102.2795,-3.1705],[102.2761,-3.1656],[102.2796,-3.158],[102.2864,-3.1529],[102.2959,-3.1509],[102.302,-3.1477],[102.3038,-3.1551],[102.284,-3.1662],[102.2795,-3.1705]]]}},{"type":"Feature","properties":{"name":"PunggukPedaro","name_en":"PunggukPedaro","admin_level":"7","osm_id":""},"geometry":{"type":"Polygon","coordinates":[[[102.308,-3.1647],[102.2872,-3.1761],[102.2834,-3.1803],[102.2677,-3.191],[102.2653,-3.1868],[102.2776,-3.1788],[102.2857,-3.1723],[102.2873,-3.1692],[102.3056,-3.1596],[102.308,-3.1647]]]}},{"type":"Feature","properties":{"name":"TalangKerinci","name_en":"TalangKerinci","admin_level":"7","osm_id":""},"geometry":{"type":"Polygon","coordinates":[[[102.2621,-3.1812],[102.2754,-3.1735],[102.284,-3.1662],[102.3038,-3.1551],[102.3056,-3.1596],[102.2873,-3.1692],[102.2857,-3.1723],[102.2776,-3.1788],[102.2653,-3.1868],[102.2621,-3.1812]]]}},{"type":"Feature","properties":{"name":"TalangLeakI","name_en":"TalangLeakI","admin_level":"7","osm_id":""},"geometry":{"type":"Polygon","coordinates":[[[102.2761,-3.1656],[102.2653,-3.1557],[102.2539,-3.1613],[102.2547,-3.1531],[102.2615,-3.1472],[102.2789,-3.1616],[102.2761,-3.1656]]]}},{"type":"Feature","properties":{"name":"TalangLeakIi","name_en":"TalangLeakIi","admin_level":"7","osm_id":""},"geometry":{"type":"Polygon","coordinates":[[[102.302,-3.1477],[102.2959,-3.1509],[102.2864,-3.1529],[102.2778,-3.161],[102.2742,-3.158],[102.2863,-3.1437],[102.2995,-3.1365],[102.302,-3.1477]]]}}]}