{"type":"FeatureCollection","metadata":{"parent_osm_id":"gid_IDN_32_21_5_1","parent_name":"HuluSihapas","parent_name_1":"SumateraUtara","parent_gid":"IDN.32.21.5_1","parent_level":"6","child_level":"7","count":10,"source":"GADM 4.1","generated":"2026-05-08"},"features":[{"type":"Feature","properties":{"name":"AekGodang","name_en":"AekGodang","admin_level":"7","osm_id":""},"geometry":{"type":"Polygon","coordinates":[[[99.4305,1.4029],[99.4185,1.4059],[99.411,1.4124],[99.3998,1.4136],[99.4002,1.4259],[99.3966,1.4307],[99.3976,1.4334],[99.4005,1.4349],[99.4054,1.4316],[99.407,1.4322],[99.4029,1.4501],[99.4086,1.4489],[99.416,1.4386],[99.4201,1.4286],[99.4185,1.4235],[99.4222,1.4207],[99.4194,1.4181],[99.4192,1.4123],[99.4219,1.4089],[99.4282,1.408],[99.4305,1.4029]]]}},{"type":"Feature","properties":{"name":"AekNauli","name_en":"AekNauli","admin_level":"7","osm_id":""},"geometry":{"type":"Polygon","coordinates":[[[99.4395,1.4027],[99.4305,1.4029],[99.4282,1.408],[99.4254,1.4081],[99.4241,1.4168],[99.4255,1.4202],[99.4248,1.424],[99.4264,1.425],[99.4248,1.4309],[99.4268,1.4342],[99.4354,1.4321],[99.4418,1.4335],[99.4399,1.4199],[99.448,1.4005],[99.4395,1.4027]]]}},{"type":"Feature","properties":{"name":"Pangirkiran","name_en":"Pangirkiran","admin_level":"7","osm_id":""},"geometry":{"type":"Polygon","coordinates":[[[99.4086,1.4489],[99.4029,1.4501],[99.4012,1.4543],[99.4029,1.4628],[99.4029,1.4814],[99.4155,1.4761],[99.4231,1.4765],[99.4239,1.4752],[99.4239,1.4689],[99.4204,1.4644],[99.4213,1.4542],[99.4198,1.4465],[99.4086,1.4489]]]}},{"type":"Feature","properties":{"name":"Parmeraan","name_en":"Parmeraan","admin_level":"7","osm_id":""},"geometry":{"type":"Polygon","coordinates":[[[99.4539,1.4948],[99.4481,1.4925],[99.442,1.4965],[99.4415,1.4986],[99.4376,1.5001],[99.4416,1.5026],[99.4533,1.4988],[99.4539,1.4948]]]}},{"type":"Feature","properties":{"name":"PintuBosi","name_en":"PintuBosi","admin_level":"7","osm_id":""},"geometry":{"type":"Polygon","coordinates":[[[99.4481,1.4925],[99.4539,1.4948],[99.4538,1.4908],[99.4502,1.4861],[99.4496,1.4819],[99.4394,1.4783],[99.4367,1.4754],[99.434,1.4791],[99.4357,1.4836],[99.4347,1.4891],[99.4369,1.4877],[99.4405,1.4883],[99.4481,1.4925]]]}},{"type":"Feature","properties":{"name":"SampuranSimarloting","name_en":"SampuranSimarloting","admin_level":"7","osm_id":""},"geometry":{"type":"Polygon","coordinates":[[[99.4254,1.4081],[99.4219,1.4089],[99.4192,1.4123],[99.4194,1.4181],[99.4222,1.4207],[99.4185,1.4235],[99.4201,1.4286],[99.416,1.4386],[99.4086,1.4489],[99.4207,1.4457],[99.422,1.444],[99.42,1.4441],[99.427,1.4359],[99.4248,1.4309],[99.4264,1.425],[99.4248,1.424],[99.4255,1.4202],[99.4241,1.4168],[99.4254,1.4081]]]}},{"type":"Feature","properties":{"name":"Sidong-dong","name_en":"Sidong-dong","admin_level":"7","osm_id":""},"geometry":{"type":"Polygon","coordinates":[[[99.4376,1.5001],[99.4415,1.4986],[99.442,1.4965],[99.4481,1.4925],[99.4369,1.4877],[99.4275,1.495],[99.4191,1.4978],[99.4311,1.4977],[99.4376,1.5001]]]}},{"type":"Feature","properties":{"name":"SimaninggirPb","name_en":"SimaninggirPb","admin_level":"7","osm_id":""},"geometry":{"type":"Polygon","coordinates":[[[99.4231,1.4765],[99.4166,1.4758],[99.4029,1.4817],[99.4059,1.488],[99.4178,1.4948],[99.4191,1.4978],[99.4323,1.4921],[99.4352,1.4878],[99.4357,1.4836],[99.4341,1.4803],[99.4231,1.4765]]]}},{"type":"Feature","properties":{"name":"Sitabar","name_en":"Sitabar","admin_level":"7","osm_id":""},"geometry":{"type":"Polygon","coordinates":[[[99.4416,1.5026],[99.4311,1.4977],[99.4212,1.4974],[99.4165,1.4993],[99.4142,1.5031],[99.4295,1.5117],[99.4329,1.5151],[99.4381,1.5157],[99.4398,1.5101],[99.4475,1.506],[99.4416,1.5026]]]}},{"type":"Feature","properties":{"name":"Sukadame","name_en":"Sukadame","admin_level":"7","osm_id":""},"geometry":{"type":"Polygon","coordinates":[[[99.4533,1.4988],[99.4462,1.5003],[99.4416,1.5026],[99.4475,1.506],[99.4529,1.5049],[99.4572,1.5019],[99.4533,1.4988]]]}}]}