{"type":"FeatureCollection","metadata":{"parent_osm_id":"gid_IDN_11_12_1_1","parent_name":"KotaKediri","parent_name_1":"JawaTimur","parent_gid":"IDN.11.12.1_1","parent_level":"6","child_level":"7","count":17,"source":"GADM 4.1","generated":"2026-05-07"},"features":[{"type":"Feature","properties":{"name":"Balowerti","name_en":"Balowerti","admin_level":"7","osm_id":""},"geometry":{"type":"Polygon","coordinates":[[[112.0161,-7.7958],[112.02,-7.7979],[112.0157,-7.8178],[112.0132,-7.8175],[112.0151,-7.8117],[112.0111,-7.8111],[112.0111,-7.8069],[112.0128,-7.8068],[112.0133,-7.8032],[112.0146,-7.8036],[112.0161,-7.7958]]]}},{"type":"Feature","properties":{"name":"Banjaran","name_en":"Banjaran","admin_level":"7","osm_id":""},"geometry":{"type":"Polygon","coordinates":[[[112.0358,-7.8129],[112.0324,-7.8206],[112.0288,-7.8193],[112.0253,-7.8238],[112.0226,-7.8231],[112.023,-7.8211],[112.0191,-7.8202],[112.0197,-7.8172],[112.0241,-7.8167],[112.0252,-7.8135],[112.0304,-7.8156],[112.032,-7.8113],[112.0358,-7.8129]]]}},{"type":"Feature","properties":{"name":"Dandangan","name_en":"Dandangan","admin_level":"7","osm_id":""},"geometry":{"type":"Polygon","coordinates":[[[112.02,-7.7979],[112.0245,-7.7996],[112.0259,-7.8041],[112.0237,-7.8105],[112.0206,-7.8125],[112.0195,-7.8183],[112.0157,-7.8178],[112.02,-7.7979]]]}},{"type":"Feature","properties":{"name":"Jagalan","name_en":"Jagalan","admin_level":"7","osm_id":""},"geometry":{"type":"Polygon","coordinates":[[[112.0126,-7.8193],[112.0191,-7.8204],[112.0187,-7.8221],[112.0122,-7.8205],[112.0126,-7.8193]]]}},{"type":"Feature","properties":{"name":"Kaliombo","name_en":"Kaliombo","admin_level":"7","osm_id":""},"geometry":{"type":"Polygon","coordinates":[[[112.0098,-7.8284],[112.0168,-7.8294],[112.0175,-7.8339],[112.0256,-7.8366],[112.0212,-7.8371],[112.0202,-7.8393],[112.011,-7.8368],[112.0106,-7.833],[112.0087,-7.8333],[112.0098,-7.8284]]]}},{"type":"Feature","properties":{"name":"KampungDalem","name_en":"KampungDalem","admin_level":"7","osm_id":""},"geometry":{"type":"Polygon","coordinates":[[[112.0171,-7.8296],[112.0099,-7.8285],[112.0094,-7.8233],[112.0144,-7.8253],[112.0141,-7.8272],[112.0177,-7.8275],[112.0171,-7.8296]]]}},{"type":"Feature","properties":{"name":"Kemasan","name_en":"Kemasan","admin_level":"7","osm_id":""},"geometry":{"type":"Polygon","coordinates":[[[112.0132,-7.8175],[112.0195,-7.8183],[112.0191,-7.8204],[112.0126,-7.8193],[112.0132,-7.8175]]]}},{"type":"Feature","properties":{"name":"Manisrenggo","name_en":"Manisrenggo","admin_level":"7","osm_id":""},"geometry":{"type":"Polygon","coordinates":[[[112.0167,-7.8615],[112.011,-7.8618],[112.0113,-7.8557],[111.9999,-7.8527],[112.0063,-7.844],[112.0133,-7.8471],[112.0127,-7.8498],[112.0177,-7.8519],[112.0149,-7.8556],[112.0167,-7.8615]]]}},{"type":"Feature","properties":{"name":"Ngadirejo","name_en":"Ngadirejo","admin_level":"7","osm_id":""},"geometry":{"type":"Polygon","coordinates":[[[112.0259,-7.8041],[112.0286,-7.8062],[112.0304,-7.8156],[112.0252,-7.8135],[112.0241,-7.8167],[112.0197,-7.8172],[112.0206,-7.8125],[112.0237,-7.8105],[112.0259,-7.8041]]]}},{"type":"Feature","properties":{"name":"Ngronggo","name_en":"Ngronggo","admin_level":"7","osm_id":""},"geometry":{"type":"Polygon","coordinates":[[[112.0043,-7.8456],[112.0036,-7.8425],[112.0087,-7.8333],[112.0106,-7.833],[112.011,-7.8368],[112.0164,-7.8373],[112.022,-7.8409],[112.0306,-7.8433],[112.0302,-7.8458],[112.0343,-7.8474],[112.0336,-7.8494],[112.0376,-7.8527],[112.0371,-7.8541],[112.0301,-7.8525],[112.0247,-7.8473],[112.0251,-7.8458],[112.0183,-7.8436],[112.0162,-7.8477],[112.0189,-7.8494],[112.0177,-7.8519],[112.0127,-7.8498],[112.0133,-7.8471],[112.0079,-7.8442],[112.0043,-7.8456]]]}},{"type":"Feature","properties":{"name":"Pakelan","name_en":"Pakelan","admin_level":"7","osm_id":""},"geometry":{"type":"Polygon","coordinates":[[[112.0143,-7.8145],[112.0138,-7.8159],[112.0112,-7.8153],[112.0106,-7.8174],[112.0129,-7.8183],[112.012,-7.8211],[112.0087,-7.8204],[112.0083,-7.8133],[112.0143,-7.8145]]]}},{"type":"Feature","properties":{"name":"Pocanan","name_en":"Pocanan","admin_level":"7","osm_id":""},"geometry":{"type":"Polygon","coordinates":[[[112.0111,-7.8111],[112.0151,-7.8117],[112.0143,-7.8145],[112.0083,-7.8133],[112.0086,-7.8108],[112.0111,-7.8111]]]}},{"type":"Feature","properties":{"name":"Rejomulyo","name_en":"Rejomulyo","admin_level":"7","osm_id":""},"geometry":{"type":"Polygon","coordinates":[[[112.0221,-7.8684],[112.02,-7.867],[112.019,-7.8626],[112.0167,-7.8615],[112.0149,-7.8572],[112.0189,-7.8494],[112.0162,-7.8477],[112.0183,-7.8436],[112.0251,-7.8458],[112.0247,-7.8473],[112.0298,-7.8514],[112.0295,-7.856],[112.0264,-7.8548],[112.0221,-7.8684]]]}},{"type":"Feature","properties":{"name":"RinginAnom","name_en":"RinginAnom","admin_level":"7","osm_id":""},"geometry":{"type":"Polygon","coordinates":[[[112.0112,-7.8239],[112.0094,-7.8233],[112.0087,-7.8204],[112.012,-7.8211],[112.0112,-7.8239]]]}},{"type":"Feature","properties":{"name":"Semampir","name_en":"Semampir","admin_level":"7","osm_id":""},"geometry":{"type":"Polygon","coordinates":[[[112.0092,-7.7901],[112.016,-7.7916],[112.0148,-7.8031],[112.0133,-7.8032],[112.0128,-7.8068],[112.0111,-7.8069],[112.0111,-7.8111],[112.0086,-7.8108],[112.01,-7.8018],[112.0092,-7.7901]]]}},{"type":"Feature","properties":{"name":"SetonoGedong","name_en":"SetonoGedong","admin_level":"7","osm_id":""},"geometry":{"type":"Polygon","coordinates":[[[112.0138,-7.8159],[112.0129,-7.8183],[112.0106,-7.8174],[112.0112,-7.8153],[112.0138,-7.8159]]]}},{"type":"Feature","properties":{"name":"SetonoPande","name_en":"SetonoPande","admin_level":"7","osm_id":""},"geometry":{"type":"Polygon","coordinates":[[[112.0122,-7.8205],[112.0187,-7.8221],[112.0177,-7.8275],[112.0141,-7.8272],[112.0144,-7.8253],[112.0112,-7.8239],[112.0122,-7.8205]]]}}]}