{"type":"FeatureCollection","metadata":{"parent_osm_id":"gid_IDN_19_6_6_1","parent_name":"Nusalaut","parent_name_1":"Maluku","parent_gid":"IDN.19.6.6_1","parent_level":"6","child_level":"7","count":7,"source":"GADM 4.1","generated":"2026-05-09"},"features":[{"type":"Feature","properties":{"name":"Abubu","name_en":"Abubu","admin_level":"7","osm_id":""},"geometry":{"type":"Polygon","coordinates":[[[128.8048,-3.6865],[128.7867,-3.6933],[128.78,-3.6666],[128.7823,-3.6656],[128.8048,-3.6865]]]}},{"type":"Feature","properties":{"name":"Akoon","name_en":"Akoon","admin_level":"7","osm_id":""},"geometry":{"type":"Polygon","coordinates":[[[128.8048,-3.6865],[128.7938,-3.6764],[128.7824,-3.6657],[128.8095,-3.6687],[128.8114,-3.6753],[128.8048,-3.6865]]]}},{"type":"Feature","properties":{"name":"Ameth","name_en":"Ameth","admin_level":"7","osm_id":""},"geometry":{"type":"Polygon","coordinates":[[[128.7824,-3.6657],[128.7916,-3.6419],[128.7976,-3.6447],[128.8004,-3.6438],[128.8028,-3.6491],[128.8061,-3.6488],[128.8091,-3.6632],[128.8079,-3.6655],[128.8095,-3.6687],[128.7824,-3.6657]]]}},{"type":"Feature","properties":{"name":"Leinitu","name_en":"Leinitu","admin_level":"7","osm_id":""},"geometry":{"type":"Polygon","coordinates":[[[128.7614,-3.6754],[128.7575,-3.6554],[128.7578,-3.6494],[128.7625,-3.6472],[128.7752,-3.6688],[128.7614,-3.6754]]]}},{"type":"Feature","properties":{"name":"Nalahia","name_en":"Nalahia","admin_level":"7","osm_id":""},"geometry":{"type":"Polygon","coordinates":[[[128.7883,-3.6485],[128.7867,-3.6563],[128.7823,-3.6656],[128.7708,-3.6451],[128.7723,-3.6395],[128.7773,-3.645],[128.7807,-3.6462],[128.7804,-3.6505],[128.7849,-3.6512],[128.7883,-3.6485]]]}},{"type":"Feature","properties":{"name":"Sila","name_en":"Sila","admin_level":"7","osm_id":""},"geometry":{"type":"Polygon","coordinates":[[[128.7823,-3.6656],[128.7752,-3.6688],[128.7625,-3.6472],[128.7652,-3.6454],[128.7664,-3.6479],[128.7701,-3.6488],[128.7708,-3.6451],[128.7823,-3.6656]]]}},{"type":"Feature","properties":{"name":"Titawaai","name_en":"Titawaai","admin_level":"7","osm_id":""},"geometry":{"type":"Polygon","coordinates":[[[128.78,-3.6666],[128.7868,-3.695],[128.7842,-3.6954],[128.7812,-3.6918],[128.7664,-3.6935],[128.7615,-3.6892],[128.7629,-3.681],[128.7614,-3.6754],[128.78,-3.6666]]]}}]}