{"type":"FeatureCollection","metadata":{"parent_osm_id":"gid_IDN_32_7_15_1","parent_name":"Tigabinanga","parent_name_1":"SumateraUtara","parent_gid":"IDN.32.7.15_1","parent_level":"6","child_level":"7","count":19,"source":"GADM 4.1","generated":"2026-05-08"},"features":[{"type":"Feature","properties":{"name":"BungaBaru","name_en":"BungaBaru","admin_level":"7","osm_id":""},"geometry":{"type":"Polygon","coordinates":[[[98.3153,3.0742],[98.2942,3.0682],[98.2908,3.0765],[98.2864,3.0799],[98.2773,3.0819],[98.2721,3.085],[98.2647,3.0966],[98.2597,3.0982],[98.2501,3.0982],[98.2412,3.1034],[98.2455,3.1062],[98.2552,3.1058],[98.2666,3.1077],[98.2741,3.1129],[98.2781,3.1058],[98.2896,3.0937],[98.293,3.092],[98.2961,3.0863],[98.3059,3.0781],[98.3137,3.0772],[98.3153,3.0742]]]}},{"type":"Feature","properties":{"name":"Gunung","name_en":"Gunung","admin_level":"7","osm_id":""},"geometry":{"type":"Polygon","coordinates":[[[98.2358,3.0505],[98.2294,3.0612],[98.2323,3.0702],[98.2476,3.0697],[98.2489,3.0661],[98.2481,3.0631],[98.2358,3.0505]]]}},{"type":"Feature","properties":{"name":"KemKem","name_en":"KemKem","admin_level":"7","osm_id":""},"geometry":{"type":"Polygon","coordinates":[[[98.2385,3.0429],[98.2144,3.0355],[98.2149,3.0417],[98.2186,3.0477],[98.2171,3.0568],[98.2236,3.0602],[98.2294,3.0612],[98.2362,3.05],[98.2385,3.0429]]]}},{"type":"Feature","properties":{"name":"Kuala","name_en":"Kuala","admin_level":"7","osm_id":""},"geometry":{"type":"Polygon","coordinates":[[[98.2323,3.0702],[98.2297,3.0612],[98.2236,3.0602],[98.2208,3.0578],[98.2171,3.0568],[98.2149,3.0593],[98.2065,3.0621],[98.212,3.0722],[98.2107,3.0791],[98.2209,3.0794],[98.2273,3.0848],[98.2324,3.078],[98.2323,3.0702]]]}},{"type":"Feature","properties":{"name":"KutaBangun","name_en":"KutaBangun","admin_level":"7","osm_id":""},"geometry":{"type":"Polygon","coordinates":[[[98.1877,3.0593],[98.1738,3.0796],[98.1723,3.0798],[98.1557,3.0672],[98.1404,3.0492],[98.1363,3.0533],[98.1359,3.0568],[98.1389,3.0765],[98.1488,3.0776],[98.1551,3.0906],[98.1693,3.0955],[98.1815,3.1035],[98.1853,3.0955],[98.1908,3.0696],[98.19,3.0627],[98.1877,3.0593]]]}},{"type":"Feature","properties":{"name":"KutaBuara","name_en":"KutaBuara","admin_level":"7","osm_id":""},"geometry":{"type":"Polygon","coordinates":[[[98.2273,3.0848],[98.2209,3.0794],[98.2075,3.0789],[98.2015,3.0733],[98.1907,3.0698],[98.1853,3.0955],[98.1815,3.1035],[98.1879,3.1047],[98.1939,3.1086],[98.2035,3.1018],[98.2191,3.1004],[98.2237,3.1008],[98.2253,3.1027],[98.2313,3.1008],[98.2324,3.1003],[98.2319,3.0916],[98.2273,3.0848]]]}},{"type":"Feature","properties":{"name":"KutaGaloh","name_en":"KutaGaloh","admin_level":"7","osm_id":""},"geometry":{"type":"Polygon","coordinates":[[[98.2769,3.06],[98.2634,3.0528],[98.2618,3.0555],[98.2614,3.0635],[98.2656,3.0707],[98.2703,3.0653],[98.2745,3.0648],[98.2769,3.06]]]}},{"type":"Feature","properties":{"name":"KutaGerat","name_en":"KutaGerat","admin_level":"7","osm_id":""},"geometry":{"type":"Polygon","coordinates":[[[98.1848,3.1455],[98.2037,3.1331],[98.2246,3.1325],[98.2265,3.1065],[98.2237,3.1008],[98.2035,3.1018],[98.1939,3.1086],[98.1866,3.1193],[98.1814,3.1234],[98.1848,3.1455]]]}},{"type":"Feature","properties":{"name":"KutaRaya","name_en":"KutaRaya","admin_level":"7","osm_id":""},"geometry":{"type":"Polygon","coordinates":[[[98.2942,3.0682],[98.2774,3.0602],[98.2745,3.0648],[98.2703,3.0653],[98.2659,3.07],[98.2639,3.0749],[98.2744,3.0834],[98.2864,3.0799],[98.2908,3.0765],[98.2942,3.0682]]]}},{"type":"Feature","properties":{"name":"KutambaruPunti","name_en":"KutambaruPunti","admin_level":"7","osm_id":""},"geometry":{"type":"Polygon","coordinates":[[[98.168,3.1546],[98.1848,3.1455],[98.1813,3.1221],[98.1572,3.112],[98.1519,3.1116],[98.1424,3.1158],[98.137,3.116],[98.1344,3.1256],[98.1262,3.1353],[98.1266,3.1417],[98.1326,3.1467],[98.1536,3.1551],[98.1592,3.1562],[98.168,3.1546]]]}},{"type":"Feature","properties":{"name":"LauKapur","name_en":"LauKapur","admin_level":"7","osm_id":""},"geometry":{"type":"Polygon","coordinates":[[[98.1964,3.0299],[98.1982,3.0445],[98.1954,3.0507],[98.2065,3.0621],[98.2149,3.0593],[98.2178,3.0553],[98.2186,3.0477],[98.2149,3.0417],[98.2144,3.0355],[98.1964,3.0299]]]}},{"type":"Feature","properties":{"name":"Limang","name_en":"Limang","admin_level":"7","osm_id":""},"geometry":{"type":"Polygon","coordinates":[[[98.2249,3.1325],[98.2545,3.131],[98.2548,3.1216],[98.2531,3.1123],[98.2383,3.1007],[98.2329,3.1001],[98.2253,3.1027],[98.2264,3.1112],[98.2249,3.1325]]]}},{"type":"Feature","properties":{"name":"Perbesi","name_en":"Perbesi","admin_level":"7","osm_id":""},"geometry":{"type":"Polygon","coordinates":[[[98.2757,3.1263],[98.2824,3.1203],[98.2719,3.1106],[98.2666,3.1077],[98.2572,3.106],[98.2455,3.1062],[98.2531,3.1123],[98.2548,3.1216],[98.2545,3.131],[98.2661,3.1274],[98.2715,3.128],[98.2757,3.1263]]]}},{"type":"Feature","properties":{"name":"Pergendangen","name_en":"Pergendangen","admin_level":"7","osm_id":""},"geometry":{"type":"Polygon","coordinates":[[[98.2472,3.0442],[98.2385,3.0429],[98.2358,3.0505],[98.2478,3.0627],[98.2533,3.0463],[98.2472,3.0442]]]}},{"type":"Feature","properties":{"name":"Pertumbuken","name_en":"Pertumbuken","admin_level":"7","osm_id":""},"geometry":{"type":"Polygon","coordinates":[[[98.2824,3.1203],[98.2882,3.1205],[98.2993,3.1133],[98.3071,3.112],[98.3133,3.1048],[98.3047,3.105],[98.296,3.1003],[98.2837,3.0997],[98.2741,3.1129],[98.2824,3.1203]]]}},{"type":"Feature","properties":{"name":"Simolap","name_en":"Simolap","admin_level":"7","osm_id":""},"geometry":{"type":"Polygon","coordinates":[[[98.1954,3.0507],[98.1915,3.053],[98.1877,3.0593],[98.19,3.0627],[98.1907,3.0698],[98.2015,3.0733],[98.2075,3.0789],[98.2107,3.0791],[98.212,3.0722],[98.2106,3.0687],[98.2055,3.0609],[98.1954,3.0507]]]}},{"type":"Feature","properties":{"name":"SimpangPergendangen","name_en":"SimpangPergendangen","admin_level":"7","osm_id":""},"geometry":{"type":"Polygon","coordinates":[[[98.2634,3.0528],[98.2533,3.0463],[98.2491,3.0565],[98.2476,3.0697],[98.2553,3.0707],[98.2639,3.0749],[98.2656,3.0707],[98.2614,3.0635],[98.2618,3.0555],[98.2634,3.0528]]]}},{"type":"Feature","properties":{"name":"Sukajulu","name_en":"Sukajulu","admin_level":"7","osm_id":""},"geometry":{"type":"Polygon","coordinates":[[[98.1299,3.0901],[98.1271,3.0953],[98.128,3.1017],[98.137,3.116],[98.1424,3.1158],[98.1519,3.1116],[98.1572,3.112],[98.165,3.1143],[98.1696,3.1181],[98.1764,3.1197],[98.1813,3.1221],[98.1814,3.1234],[98.1866,3.1193],[98.1939,3.1086],[98.1879,3.1047],[98.1783,3.1024],[98.1693,3.0955],[98.1551,3.0906],[98.1488,3.0776],[98.1389,3.0765],[98.1299,3.0901]]]}},{"type":"Feature","properties":{"name":"Tigabinanga","name_en":"Tigabinanga","admin_level":"7","osm_id":""},"geometry":{"type":"Polygon","coordinates":[[[98.2412,3.1034],[98.2501,3.0982],[98.2597,3.0982],[98.2647,3.0966],[98.2691,3.0888],[98.2744,3.0834],[98.271,3.0796],[98.2553,3.0707],[98.2406,3.0689],[98.2323,3.0702],[98.2324,3.078],[98.2273,3.0848],[98.2313,3.0894],[98.2324,3.1003],[98.2383,3.1007],[98.2412,3.1034]]]}}]}