{"type":"FeatureCollection","metadata":{"parent_osm_id":"gid_IDN_22_5_1_1","parent_name":"AifatSelatan","parent_name_1":"PapuaBarat","parent_gid":"IDN.22.5.1_1","parent_level":"6","child_level":"7","count":7,"source":"GADM 4.1","generated":"2026-05-08"},"features":[{"type":"Feature","properties":{"name":"Fuog","name_en":"Fuog","admin_level":"7","osm_id":""},"geometry":{"type":"Polygon","coordinates":[[[132.5171,-1.4499],[132.5245,-1.4312],[132.5247,-1.3996],[132.5728,-1.3984],[132.5946,-1.4394],[132.5782,-1.5372],[132.5171,-1.4499]]]}},{"type":"Feature","properties":{"name":"Imsun","name_en":"Imsun","admin_level":"7","osm_id":""},"geometry":{"type":"Polygon","coordinates":[[[132.5247,-1.3996],[132.5245,-1.4312],[132.5165,-1.4515],[132.4932,-1.4548],[132.5073,-1.4227],[132.5047,-1.4083],[132.5108,-1.3924],[132.5249,-1.3808],[132.5247,-1.3996]]]}},{"type":"Feature","properties":{"name":"Kisor","name_en":"Kisor","admin_level":"7","osm_id":""},"geometry":{"type":"Polygon","coordinates":[[[132.5066,-1.4186],[132.5073,-1.4227],[132.4932,-1.4548],[132.4224,-1.4652],[132.4236,-1.4637],[132.4236,-1.4317],[132.5025,-1.4179],[132.5066,-1.4186]]]}},{"type":"Feature","properties":{"name":"Sabah","name_en":"Sabah","admin_level":"7","osm_id":""},"geometry":{"type":"Polygon","coordinates":[[[132.4331,-1.668],[132.4855,-1.6359],[132.5523,-1.6432],[132.5245,-1.7052],[132.5167,-1.7334],[132.4967,-1.7814],[132.4931,-1.7647],[132.4635,-1.7382],[132.4385,-1.7039],[132.4331,-1.668]]]}},{"type":"Feature","properties":{"name":"Sory","name_en":"Sory","admin_level":"7","osm_id":""},"geometry":{"type":"Polygon","coordinates":[[[132.5249,-1.3808],[132.5108,-1.3924],[132.5047,-1.4083],[132.5066,-1.4186],[132.5025,-1.4179],[132.4236,-1.4317],[132.4236,-1.4254],[132.4106,-1.3945],[132.4046,-1.3867],[132.4131,-1.3773],[132.4285,-1.3657],[132.437,-1.3654],[132.4572,-1.361],[132.5218,-1.3589],[132.525,-1.3656],[132.5249,-1.3808]]]}},{"type":"Feature","properties":{"name":"Tasimara","name_en":"Tasimara","admin_level":"7","osm_id":""},"geometry":{"type":"Polygon","coordinates":[[[132.5569,-1.3988],[132.5247,-1.3996],[132.525,-1.3656],[132.5218,-1.3589],[132.5356,-1.3411],[132.5397,-1.325],[132.5479,-1.3386],[132.5531,-1.3429],[132.5566,-1.3432],[132.5661,-1.3548],[132.5569,-1.3988]]]}},{"type":"Feature","properties":{"name":"Womba","name_en":"Womba","admin_level":"7","osm_id":""},"geometry":{"type":"Polygon","coordinates":[[[132.5171,-1.4499],[132.5782,-1.5372],[132.5681,-1.5941],[132.5523,-1.6432],[132.4855,-1.6359],[132.4331,-1.668],[132.4136,-1.6276],[132.3934,-1.6105],[132.3701,-1.5958],[132.3725,-1.587],[132.3337,-1.5557],[132.3282,-1.5498],[132.378,-1.5308],[132.3877,-1.5208],[132.3899,-1.5081],[132.4224,-1.4652],[132.5165,-1.4515],[132.5171,-1.4499]]]}}]}