{"type":"FeatureCollection","metadata":{"parent_osm_id":"gid_IDN_13_5_8_1","parent_name":"Jejangkit","parent_name_1":"KalimantanSelatan","parent_gid":"IDN.13.5.8_1","parent_level":"6","child_level":"7","count":7,"source":"GADM 4.1","generated":"2026-05-09"},"features":[{"type":"Feature","properties":{"name":"Bahandang","name_en":"Bahandang","admin_level":"7","osm_id":""},"geometry":{"type":"Polygon","coordinates":[[[114.7635,-3.2324],[114.7534,-3.2347],[114.7283,-3.2444],[114.7143,-3.2068],[114.7179,-3.1991],[114.7196,-3.1978],[114.7224,-3.1986],[114.734,-3.2068],[114.7402,-3.2093],[114.7438,-3.2048],[114.7432,-3.1948],[114.7443,-3.1925],[114.7534,-3.1943],[114.7538,-3.1973],[114.7514,-3.2021],[114.7522,-3.2057],[114.7554,-3.2084],[114.7612,-3.2065],[114.7633,-3.21],[114.7624,-3.2151],[114.7559,-3.2179],[114.7535,-3.2234],[114.7543,-3.2252],[114.7598,-3.2276],[114.7635,-3.2324]]]}},{"type":"Feature","properties":{"name":"CahayaBaru","name_en":"CahayaBaru","admin_level":"7","osm_id":""},"geometry":{"type":"Polygon","coordinates":[[[114.721,-3.198],[114.7179,-3.1991],[114.7143,-3.2068],[114.7111,-3.2072],[114.7053,-3.2054],[114.7053,-3.2033],[114.6818,-3.1912],[114.6927,-3.1676],[114.7003,-3.1706],[114.7079,-3.1559],[114.7264,-3.1659],[114.721,-3.1888],[114.721,-3.198]]]}},{"type":"Feature","properties":{"name":"JejangkitBarat","name_en":"JejangkitBarat","admin_level":"7","osm_id":""},"geometry":{"type":"Polygon","coordinates":[[[114.792,-3.1777],[114.7901,-3.1965],[114.7739,-3.1813],[114.7549,-3.1601],[114.7463,-3.156],[114.7443,-3.1528],[114.7649,-3.1351],[114.7722,-3.1561],[114.792,-3.1777]]]}},{"type":"Feature","properties":{"name":"JejangkitMuara","name_en":"JejangkitMuara","admin_level":"7","osm_id":""},"geometry":{"type":"Polygon","coordinates":[[[114.7879,-3.21],[114.7864,-3.2149],[114.7895,-3.2182],[114.7895,-3.2203],[114.7822,-3.2253],[114.7796,-3.2297],[114.7757,-3.2302],[114.7682,-3.2269],[114.7635,-3.2324],[114.7598,-3.2276],[114.7543,-3.2252],[114.7543,-3.2198],[114.7624,-3.2151],[114.7633,-3.21],[114.7612,-3.2065],[114.7554,-3.2084],[114.7522,-3.2057],[114.7514,-3.2021],[114.7538,-3.1973],[114.7534,-3.1943],[114.7443,-3.1925],[114.7435,-3.1941],[114.739,-3.1883],[114.7483,-3.169],[114.7879,-3.21]]]}},{"type":"Feature","properties":{"name":"JejangkitPasar","name_en":"JejangkitPasar","admin_level":"7","osm_id":""},"geometry":{"type":"Polygon","coordinates":[[[114.7901,-3.1965],[114.7879,-3.21],[114.75,-3.1705],[114.7384,-3.165],[114.7351,-3.1603],[114.7443,-3.1528],[114.7463,-3.156],[114.7549,-3.1601],[114.7739,-3.1813],[114.7901,-3.1965]]]}},{"type":"Feature","properties":{"name":"JejangkitTimur","name_en":"JejangkitTimur","admin_level":"7","osm_id":""},"geometry":{"type":"Polygon","coordinates":[[[114.8312,-3.1301],[114.8217,-3.189],[114.8226,-3.1993],[114.8109,-3.2011],[114.8006,-3.1871],[114.7722,-3.1561],[114.7649,-3.1351],[114.7952,-3.1097],[114.8312,-3.1301]]]}},{"type":"Feature","properties":{"name":"Sampurna","name_en":"Sampurna","admin_level":"7","osm_id":""},"geometry":{"type":"Polygon","coordinates":[[[114.7435,-3.1941],[114.7438,-3.2048],[114.7402,-3.2093],[114.721,-3.198],[114.721,-3.1888],[114.7264,-3.1657],[114.7351,-3.1603],[114.7384,-3.165],[114.748,-3.17],[114.739,-3.1883],[114.7435,-3.1941]]]}}]}