{"type":"FeatureCollection","metadata":{"parent_osm_id":"gid_IDN_24_8_4_1","parent_name":"PayungSekaki","parent_name_1":"Riau","parent_gid":"IDN.24.8.4_1","parent_level":"6","child_level":"7","count":4,"source":"GADM 4.1","generated":"2026-05-09"},"features":[{"type":"Feature","properties":{"name":"AirHitam","name_en":"AirHitam","admin_level":"7","osm_id":""},"geometry":{"type":"Polygon","coordinates":[[[101.3629,0.5335],[101.3629,0.5361],[101.3653,0.5368],[101.3672,0.5414],[101.3704,0.5437],[101.3788,0.5423],[101.3915,0.5351],[101.4276,0.5352],[101.4277,0.5283],[101.42,0.5283],[101.42,0.5255],[101.4025,0.5262],[101.3932,0.5331],[101.3629,0.5335]]]}},{"type":"Feature","properties":{"name":"LabuhBaruBarat","name_en":"LabuhBaruBarat","admin_level":"7","osm_id":""},"geometry":{"type":"Polygon","coordinates":[[[101.363,0.4989],[101.3629,0.5335],[101.3932,0.5331],[101.4025,0.5262],[101.42,0.5255],[101.4192,0.5007],[101.3943,0.4975],[101.3848,0.5028],[101.363,0.4989]]]}},{"type":"Feature","properties":{"name":"LabuhBaruTimur","name_en":"LabuhBaruTimur","admin_level":"7","osm_id":""},"geometry":{"type":"Polygon","coordinates":[[[101.4327,0.5048],[101.4192,0.5007],[101.42,0.5283],[101.4277,0.5283],[101.4281,0.5256],[101.4322,0.5214],[101.4302,0.5131],[101.4327,0.5048]]]}},{"type":"Feature","properties":{"name":"Tampan","name_en":"Tampan","admin_level":"7","osm_id":""},"geometry":{"type":"Polygon","coordinates":[[[101.3704,0.5437],[101.3736,0.5533],[101.3748,0.5542],[101.3766,0.5525],[101.3783,0.5581],[101.3845,0.5596],[101.3855,0.5584],[101.3816,0.5514],[101.3849,0.5476],[101.391,0.5525],[101.3936,0.5594],[101.3962,0.5577],[101.3935,0.5527],[101.3963,0.5485],[101.4016,0.5523],[101.4039,0.5504],[101.4094,0.5505],[101.413,0.5486],[101.4214,0.552],[101.4228,0.5511],[101.423,0.5472],[101.4297,0.5451],[101.4281,0.5422],[101.4276,0.5352],[101.3915,0.5351],[101.3788,0.5423],[101.3704,0.5437]]]}}]}