{"type":"FeatureCollection","metadata":{"parent_osm_id":"gid_IDN_11_1_12_1","parent_name":"Labang","parent_name_1":"JawaTimur","parent_gid":"IDN.11.1.12_1","parent_level":"6","child_level":"7","count":13,"source":"GADM 4.1","generated":"2026-05-09"},"features":[{"type":"Feature","properties":{"name":"Ba'engas","name_en":"Ba'engas","admin_level":"7","osm_id":""},"geometry":{"type":"Polygon","coordinates":[[[112.7949,-7.1311],[112.7964,-7.1307],[112.7982,-7.1332],[112.7971,-7.1373],[112.8091,-7.143],[112.8086,-7.1483],[112.804,-7.1485],[112.8008,-7.1524],[112.7933,-7.1518],[112.7888,-7.1487],[112.7902,-7.146],[112.7884,-7.1449],[112.7913,-7.1433],[112.7916,-7.1346],[112.7949,-7.1311]]]}},{"type":"Feature","properties":{"name":"Bringin","name_en":"Bringin","admin_level":"7","osm_id":""},"geometry":{"type":"Polygon","coordinates":[[[112.8091,-7.143],[112.8051,-7.1422],[112.804,-7.1398],[112.7968,-7.1369],[112.7982,-7.1332],[112.7964,-7.1307],[112.7949,-7.1311],[112.7981,-7.122],[112.7992,-7.1206],[112.7989,-7.1228],[112.8034,-7.1231],[112.8027,-7.126],[112.8041,-7.1267],[112.8129,-7.1273],[112.8135,-7.1326],[112.8156,-7.134],[112.8152,-7.1372],[112.8091,-7.143]]]}},{"type":"Feature","properties":{"name":"Bunajih","name_en":"Bunajih","admin_level":"7","osm_id":""},"geometry":{"type":"Polygon","coordinates":[[[112.8245,-7.1358],[112.8248,-7.1406],[112.8298,-7.1445],[112.8212,-7.1566],[112.8149,-7.1534],[112.8123,-7.1474],[112.8089,-7.1467],[112.8091,-7.143],[112.8152,-7.1372],[112.8156,-7.134],[112.8135,-7.1326],[112.8127,-7.1269],[112.8149,-7.1257],[112.8223,-7.1301],[112.8217,-7.1312],[112.8243,-7.1324],[112.8245,-7.1358]]]}},{"type":"Feature","properties":{"name":"Jukong","name_en":"Jukong","admin_level":"7","osm_id":""},"geometry":{"type":"Polygon","coordinates":[[[112.7467,-7.1462],[112.7491,-7.1397],[112.7512,-7.1391],[112.7517,-7.1333],[112.7562,-7.1318],[112.7547,-7.127],[112.7738,-7.1272],[112.773,-7.1357],[112.7703,-7.1361],[112.7675,-7.147],[112.7621,-7.143],[112.7624,-7.1404],[112.7594,-7.1393],[112.7566,-7.1397],[112.756,-7.1407],[112.7582,-7.1419],[112.7574,-7.1438],[112.7518,-7.1445],[112.7517,-7.1471],[112.7467,-7.1462]]]}},{"type":"Feature","properties":{"name":"Kesek","name_en":"Kesek","admin_level":"7","osm_id":""},"geometry":{"type":"Polygon","coordinates":[[[112.7495,-7.1505],[112.7482,-7.1469],[112.7517,-7.1471],[112.7518,-7.1445],[112.7574,-7.1438],[112.7582,-7.1419],[112.756,-7.1407],[112.7599,-7.1394],[112.7624,-7.1404],[112.7621,-7.143],[112.7651,-7.1456],[112.7739,-7.1506],[112.7742,-7.1603],[112.7689,-7.1629],[112.768,-7.1592],[112.7647,-7.1563],[112.7652,-7.1522],[112.7495,-7.1505]]]}},{"type":"Feature","properties":{"name":"Labang","name_en":"Labang","admin_level":"7","osm_id":""},"geometry":{"type":"Polygon","coordinates":[[[112.768,-7.1435],[112.7703,-7.1361],[112.773,-7.1357],[112.7736,-7.13],[112.7806,-7.1281],[112.7803,-7.1315],[112.7825,-7.1321],[112.7803,-7.1392],[112.7833,-7.1423],[112.7827,-7.1437],[112.7791,-7.1438],[112.7776,-7.1457],[112.7706,-7.1459],[112.768,-7.1435]]]}},{"type":"Feature","properties":{"name":"Morkepek","name_en":"Morkepek","admin_level":"7","osm_id":""},"geometry":{"type":"Polygon","coordinates":[[[112.7941,-7.1325],[112.7916,-7.1346],[112.7913,-7.1433],[112.7884,-7.1449],[112.7902,-7.146],[112.7888,-7.1487],[112.7803,-7.1392],[112.7825,-7.1321],[112.7803,-7.1315],[112.7806,-7.1281],[112.7986,-7.1209],[112.7941,-7.1325]]]}},{"type":"Feature","properties":{"name":"Pangpong","name_en":"Pangpong","admin_level":"7","osm_id":""},"geometry":{"type":"Polygon","coordinates":[[[112.7675,-7.147],[112.7677,-7.1456],[112.7761,-7.1476],[112.7761,-7.1456],[112.7828,-7.1433],[112.7879,-7.1474],[112.7869,-7.1498],[112.7881,-7.1502],[112.7808,-7.1574],[112.7742,-7.1569],[112.7739,-7.1506],[112.7675,-7.147]]]}},{"type":"Feature","properties":{"name":"Petapan","name_en":"Petapan","admin_level":"7","osm_id":""},"geometry":{"type":"Polygon","coordinates":[[[112.7992,-7.1206],[112.7936,-7.1231],[112.7944,-7.1183],[112.7909,-7.1135],[112.7899,-7.1013],[112.7982,-7.1009],[112.803,-7.1041],[112.8046,-7.1088],[112.8038,-7.1135],[112.7992,-7.1206]]]}},{"type":"Feature","properties":{"name":"SendangDajah","name_en":"SendangDajah","admin_level":"7","osm_id":""},"geometry":{"type":"Polygon","coordinates":[[[112.7908,-7.1088],[112.7909,-7.1135],[112.7942,-7.1176],[112.7943,-7.1217],[112.7704,-7.1161],[112.7672,-7.1116],[112.7751,-7.1075],[112.7864,-7.1111],[112.7908,-7.1088]]]}},{"type":"Feature","properties":{"name":"SendangLaok","name_en":"SendangLaok","admin_level":"7","osm_id":""},"geometry":{"type":"Polygon","coordinates":[[[112.7677,-7.1268],[112.7669,-7.1246],[112.7684,-7.1228],[112.7659,-7.122],[112.7659,-7.1174],[112.7621,-7.1172],[112.7629,-7.1093],[112.7672,-7.1116],[112.7704,-7.1161],[112.7943,-7.1217],[112.7936,-7.1231],[112.7748,-7.1303],[112.7736,-7.13],[112.7738,-7.1272],[112.7677,-7.1268]]]}},{"type":"Feature","properties":{"name":"SukoliloBarat","name_en":"SukoliloBarat","admin_level":"7","osm_id":""},"geometry":{"type":"Polygon","coordinates":[[[112.7888,-7.1487],[112.7933,-7.1518],[112.7987,-7.1521],[112.799,-7.1578],[112.793,-7.159],[112.791,-7.1616],[112.7894,-7.1599],[112.7819,-7.1594],[112.7742,-7.1603],[112.7742,-7.1569],[112.7808,-7.1574],[112.7878,-7.1507],[112.7879,-7.1474],[112.7888,-7.1487]]]}},{"type":"Feature","properties":{"name":"SukoliloTimur","name_en":"SukoliloTimur","admin_level":"7","osm_id":""},"geometry":{"type":"Polygon","coordinates":[[[112.8212,-7.1566],[112.8211,-7.1603],[112.799,-7.1578],[112.7987,-7.1521],[112.8008,-7.1524],[112.8044,-7.1483],[112.8113,-7.1467],[112.8149,-7.1534],[112.8212,-7.1566]]]}}]}