{"type":"FeatureCollection","metadata":{"parent_osm_id":"gid_IDN_14_2_7_1","parent_name":"Paku","parent_name_1":"KalimantanTengah","parent_gid":"IDN.14.2.7_1","parent_level":"6","child_level":"7","count":12,"source":"GADM 4.1","generated":"2026-05-09"},"features":[{"type":"Feature","properties":{"name":"BantaiNapu","name_en":"BantaiNapu","admin_level":"7","osm_id":""},"geometry":{"type":"Polygon","coordinates":[[[115.1965,-1.9454],[115.1848,-1.9531],[115.1665,-1.9482],[115.1629,-1.943],[115.1629,-1.9399],[115.1716,-1.941],[115.1747,-1.9353],[115.1773,-1.9337],[115.1927,-1.941],[115.1965,-1.9454]]]}},{"type":"Feature","properties":{"name":"Gandrung","name_en":"Gandrung","admin_level":"7","osm_id":""},"geometry":{"type":"Polygon","coordinates":[[[115.3084,-1.8464],[115.3087,-1.8493],[115.3157,-1.8517],[115.3024,-1.8571],[115.2965,-1.8659],[115.2791,-1.8635],[115.2673,-1.8645],[115.258,-1.8682],[115.2441,-1.8769],[115.2258,-1.8858],[115.2344,-1.8707],[115.237,-1.85],[115.2298,-1.8469],[115.2174,-1.8475],[115.2222,-1.8444],[115.2433,-1.8374],[115.2616,-1.843],[115.2841,-1.843],[115.3084,-1.8464]]]}},{"type":"Feature","properties":{"name":"Kalamus","name_en":"Kalamus","admin_level":"7","osm_id":""},"geometry":{"type":"Polygon","coordinates":[[[115.2965,-1.8659],[115.263,-1.9134],[115.2545,-1.9204],[115.2363,-1.9204],[115.2294,-1.9184],[115.2133,-1.894],[115.2123,-1.8903],[115.2261,-1.8857],[115.258,-1.8682],[115.2673,-1.8645],[115.2791,-1.8635],[115.2965,-1.8659]]]}},{"type":"Feature","properties":{"name":"KupangBaru","name_en":"KupangBaru","admin_level":"7","osm_id":""},"geometry":{"type":"Polygon","coordinates":[[[115.1086,-1.9491],[115.0983,-1.9401],[115.1011,-1.9288],[115.0941,-1.9134],[115.0957,-1.9089],[115.1095,-1.915],[115.1095,-1.9176],[115.1223,-1.9228],[115.1244,-1.9285],[115.1243,-1.95],[115.1086,-1.9491]]]}},{"type":"Feature","properties":{"name":"LuauJawuk","name_en":"LuauJawuk","admin_level":"7","osm_id":""},"geometry":{"type":"Polygon","coordinates":[[[115.0957,-1.9089],[115.0995,-1.898],[115.1085,-1.8969],[115.111,-1.8928],[115.1193,-1.8939],[115.13,-1.9016],[115.1347,-1.9083],[115.1229,-1.9244],[115.1177,-1.9202],[115.1095,-1.9176],[115.1095,-1.915],[115.1069,-1.9135],[115.1049,-1.914],[115.0957,-1.9089]]]}},{"type":"Feature","properties":{"name":"PakuBeto","name_en":"PakuBeto","admin_level":"7","osm_id":""},"geometry":{"type":"Polygon","coordinates":[[[115.2364,-1.9216],[115.2391,-1.95],[115.2292,-1.9556],[115.2137,-1.9542],[115.2014,-1.9419],[115.2045,-1.9312],[115.2107,-1.9219],[115.2179,-1.9172],[115.2323,-1.9188],[115.2364,-1.9216]]]}},{"type":"Feature","properties":{"name":"Pangkan","name_en":"Pangkan","admin_level":"7","osm_id":""},"geometry":{"type":"Polygon","coordinates":[[[115.1951,-1.859],[115.1982,-1.8599],[115.2174,-1.8475],[115.2298,-1.8469],[115.237,-1.85],[115.2344,-1.8707],[115.2258,-1.8858],[115.201,-1.8934],[115.1922,-1.8903],[115.1841,-1.8835],[115.1951,-1.859]]]}},{"type":"Feature","properties":{"name":"Patung","name_en":"Patung","admin_level":"7","osm_id":""},"geometry":{"type":"Polygon","coordinates":[[[115.1328,-1.8692],[115.1673,-1.8514],[115.1951,-1.859],[115.1841,-1.8835],[115.1742,-1.8831],[115.1681,-1.8794],[115.1599,-1.8805],[115.1552,-1.8768],[115.1455,-1.8758],[115.1328,-1.8692]]]}},{"type":"Feature","properties":{"name":"RungguRaya","name_en":"RungguRaya","admin_level":"7","osm_id":""},"geometry":{"type":"Polygon","coordinates":[[[115.2014,-1.9419],[115.1965,-1.9454],[115.1927,-1.941],[115.1773,-1.9337],[115.1747,-1.9353],[115.1716,-1.941],[115.1629,-1.9399],[115.1629,-1.943],[115.1665,-1.9482],[115.1848,-1.9531],[115.1687,-1.9612],[115.1647,-1.9733],[115.1574,-1.9697],[115.1481,-1.9537],[115.1505,-1.9471],[115.1526,-1.9254],[115.1496,-1.9058],[115.1511,-1.9042],[115.1732,-1.9068],[115.1948,-1.9048],[115.2015,-1.9017],[115.2022,-1.8931],[115.2123,-1.8903],[115.2184,-1.9033],[115.2294,-1.9184],[115.2179,-1.9172],[115.2107,-1.9219],[115.2045,-1.9312],[115.2014,-1.9419]]]}},{"type":"Feature","properties":{"name":"SimpangBingkuang","name_en":"SimpangBingkuang","admin_level":"7","osm_id":""},"geometry":{"type":"Polygon","coordinates":[[[115.1071,-1.8861],[115.1237,-1.874],[115.1328,-1.8692],[115.1455,-1.8758],[115.1552,-1.8768],[115.1599,-1.8805],[115.1681,-1.8794],[115.1742,-1.8831],[115.1835,-1.8831],[115.1922,-1.8903],[115.2022,-1.8931],[115.2025,-1.8945],[115.202,-1.8986],[115.1979,-1.9022],[115.1588,-1.8939],[115.1393,-1.8882],[115.1071,-1.8861]]]}},{"type":"Feature","properties":{"name":"Tampa","name_en":"Tampa","admin_level":"7","osm_id":""},"geometry":{"type":"Polygon","coordinates":[[[115.1016,-1.892],[115.1026,-1.8894],[115.1071,-1.8861],[115.1198,-1.8861],[115.1393,-1.8882],[115.1588,-1.8939],[115.1979,-1.9022],[115.2015,-1.8991],[115.2015,-1.9017],[115.1948,-1.9048],[115.1732,-1.9068],[115.1511,-1.9042],[115.1496,-1.9058],[115.1513,-1.9128],[115.1454,-1.912],[115.1418,-1.914],[115.1387,-1.9218],[115.1429,-1.9249],[115.1459,-1.9249],[115.1423,-1.9332],[115.1405,-1.9517],[115.1243,-1.95],[115.1244,-1.9285],[115.1229,-1.9244],[115.1347,-1.9083],[115.1341,-1.9063],[115.1193,-1.8939],[115.111,-1.8928],[115.1085,-1.8969],[115.0995,-1.898],[115.1016,-1.892]]]}},{"type":"Feature","properties":{"name":"Tarinsing","name_en":"Tarinsing","admin_level":"7","osm_id":""},"geometry":{"type":"Polygon","coordinates":[[[115.1481,-1.9537],[115.1405,-1.9517],[115.1423,-1.9332],[115.1459,-1.9249],[115.1429,-1.9249],[115.1387,-1.9218],[115.1418,-1.914],[115.1454,-1.912],[115.1513,-1.9128],[115.1526,-1.9254],[115.1505,-1.9471],[115.1481,-1.9537]]]}}]}