{"type":"FeatureCollection","metadata":{"parent_osm_id":"14954916","parent_name":"Bintuni","parent_name_1":"PapuaBarat","parent_gid":"IDN.22.10.4_1","parent_level":"6","child_level":"7","count":8,"source":"GADM 4.1","generated":"2026-05-09"},"features":[{"type":"Feature","properties":{"name":"Beimes/Hogut","name_en":"Beimes/Hogut","admin_level":"7","osm_id":""},"geometry":{"type":"Polygon","coordinates":[[[133.6794,-2.1991],[133.6767,-2.2021],[133.674,-2.2027],[133.6708,-2.207],[133.6525,-2.1848],[133.6393,-2.1511],[133.621,-2.1225],[133.621,-2.11],[133.6292,-2.1031],[133.6313,-2.1049],[133.6361,-2.1017],[133.6423,-2.1247],[133.6503,-2.1423],[133.6584,-2.1518],[133.6635,-2.1702],[133.6794,-2.1991]]]}},{"type":"Feature","properties":{"name":"BintuniBarat","name_en":"BintuniBarat","admin_level":"7","osm_id":""},"geometry":{"type":"Polygon","coordinates":[[[133.5664,-2.2251],[133.56,-2.2289],[133.5448,-2.2321],[133.5437,-2.2344],[133.5378,-2.2346],[133.5338,-2.237],[133.5279,-2.2373],[133.5228,-2.235],[133.4984,-2.1476],[133.5132,-2.1174],[133.5132,-2.1034],[133.5176,-2.0917],[133.5301,-2.0822],[133.5345,-2.0616],[133.5345,-2.0287],[133.5464,-2.028],[133.5491,-2.0492],[133.544,-2.077],[133.5411,-2.1086],[133.5308,-2.113],[133.5308,-2.124],[133.5338,-2.1401],[133.5543,-2.1812],[133.5653,-2.2068],[133.5664,-2.2251]]]}},{"type":"Feature","properties":{"name":"BintuniTimur","name_en":"BintuniTimur","admin_level":"7","osm_id":""},"geometry":{"type":"Polygon","coordinates":[[[133.5664,-2.2251],[133.5653,-2.2068],[133.5543,-2.1812],[133.5338,-2.1401],[133.5308,-2.124],[133.5308,-2.113],[133.5411,-2.1086],[133.544,-2.077],[133.5491,-2.0492],[133.5464,-2.028],[133.5756,-2.0262],[133.5726,-2.0477],[133.5733,-2.0594],[133.5778,-2.0638],[133.591,-2.1034],[133.5961,-2.1284],[133.6144,-2.1672],[133.632,-2.1922],[133.6401,-2.209],[133.6456,-2.2294],[133.6379,-2.2329],[133.6356,-2.2325],[133.6285,-2.2203],[133.6204,-2.2162],[133.6097,-2.2179],[133.6055,-2.2234],[133.5985,-2.2268],[133.5944,-2.2256],[133.5915,-2.2223],[133.5868,-2.2112],[133.5878,-2.1946],[133.5963,-2.1841],[133.6013,-2.1829],[133.6052,-2.1852],[133.6055,-2.1819],[133.6,-2.1764],[133.5954,-2.1762],[133.5929,-2.1779],[133.5836,-2.1874],[133.5771,-2.2017],[133.579,-2.208],[133.5778,-2.2142],[133.5728,-2.2206],[133.5664,-2.2251]]]}},{"type":"Feature","properties":{"name":"Iguriji","name_en":"Iguriji","admin_level":"7","osm_id":""},"geometry":{"type":"Polygon","coordinates":[[[133.6361,-2.1017],[133.6313,-2.1049],[133.6217,-2.0968],[133.5932,-2.0492],[133.5932,-2.0251],[133.6071,-2.0216],[133.6093,-2.0492],[133.6328,-2.0924],[133.6361,-2.1017]]]}},{"type":"Feature","properties":{"name":"Masina","name_en":"Masina","admin_level":"7","osm_id":""},"geometry":{"type":"Polygon","coordinates":[[[133.7645,-2.1831],[133.7742,-2.1796],[133.779,-2.1807],[133.7752,-2.1888],[133.7608,-2.2066],[133.7525,-2.207],[133.7477,-2.2093],[133.7399,-2.2159],[133.727,-2.2235],[133.7079,-2.2402],[133.6994,-2.2411],[133.6921,-2.2341],[133.6862,-2.2317],[133.6854,-2.2289],[133.6866,-2.2245],[133.6894,-2.2226],[133.7087,-2.2183],[133.7234,-2.2067],[133.7287,-2.1988],[133.7307,-2.1818],[133.7338,-2.1769],[133.7371,-2.176],[133.7534,-2.1823],[133.7645,-2.1831]]]}},{"type":"Feature","properties":{"name":"SpVManimery/ArgoSigem","name_en":"SpVManimery/ArgoSigem","admin_level":"7","osm_id":""},"geometry":{"type":"Polygon","coordinates":[[[133.6292,-2.1031],[133.621,-2.11],[133.621,-2.1225],[133.6393,-2.1511],[133.6481,-2.176],[133.6563,-2.1899],[133.635,-2.1985],[133.6144,-2.1672],[133.5961,-2.1284],[133.591,-2.1034],[133.5778,-2.0638],[133.5733,-2.0594],[133.5726,-2.0477],[133.5756,-2.0262],[133.5932,-2.0251],[133.5932,-2.0492],[133.6181,-2.0917],[133.6292,-2.1031]]]}},{"type":"Feature","properties":{"name":"Tuasai","name_en":"Tuasai","admin_level":"7","osm_id":""},"geometry":{"type":"Polygon","coordinates":[[[133.6794,-2.1991],[133.6635,-2.1702],[133.6584,-2.1518],[133.6503,-2.1423],[133.6423,-2.1247],[133.6399,-2.1132],[133.6328,-2.0924],[133.6093,-2.0492],[133.6071,-2.0216],[133.626,-2.0168],[133.7083,-2.1984],[133.7033,-2.1993],[133.6836,-2.197],[133.6794,-2.1991]]]}},{"type":"Feature","properties":{"name":"Wesiri","name_en":"Wesiri","admin_level":"7","osm_id":""},"geometry":{"type":"Polygon","coordinates":[[[133.5345,-2.0287],[133.5345,-2.0616],[133.5301,-2.0822],[133.5176,-2.0917],[133.5132,-2.1034],[133.5132,-2.1174],[133.4984,-2.1476],[133.4891,-2.1219],[133.4473,-2.095],[133.4254,-2.0694],[133.3893,-2.0401],[133.5345,-2.0287]]]}}]}