{"type":"FeatureCollection","metadata":{"parent_osm_id":"gid_IDN_21_1_15_1","parent_name":"PulauPura","parent_name_1":"NusaTenggaraTimur","parent_gid":"IDN.21.1.15_1","parent_level":"6","child_level":"7","count":6,"source":"GADM 4.1","generated":"2026-05-07"},"features":[{"type":"Feature","properties":{"name":"Maru","name_en":"Maru","admin_level":"7","osm_id":""},"geometry":{"type":"Polygon","coordinates":[[[124.3738,-8.3011],[124.3737,-8.3064],[124.3699,-8.3092],[124.3662,-8.3149],[124.366,-8.3195],[124.3643,-8.3202],[124.3623,-8.325],[124.3577,-8.3262],[124.3562,-8.32],[124.3463,-8.3068],[124.3502,-8.2998],[124.3638,-8.2991],[124.3738,-8.3011]]]}},{"type":"Feature","properties":{"name":"Pura","name_en":"Pura","admin_level":"7","osm_id":""},"geometry":{"type":"Polygon","coordinates":[[[124.3473,-8.2937],[124.343,-8.2929],[124.3417,-8.281],[124.3382,-8.2763],[124.343,-8.2754],[124.3468,-8.277],[124.3493,-8.2754],[124.3519,-8.2769],[124.3552,-8.275],[124.3574,-8.2775],[124.3473,-8.2937]]]}},{"type":"Feature","properties":{"name":"PuraBarat","name_en":"PuraBarat","admin_level":"7","osm_id":""},"geometry":{"type":"Polygon","coordinates":[[[124.3239,-8.3174],[124.3215,-8.3157],[124.3201,-8.3077],[124.3152,-8.2981],[124.3212,-8.2897],[124.3372,-8.2987],[124.3376,-8.3057],[124.3239,-8.3174]]]}},{"type":"Feature","properties":{"name":"PuraSelatan","name_en":"PuraSelatan","admin_level":"7","osm_id":""},"geometry":{"type":"Polygon","coordinates":[[[124.3502,-8.2998],[124.3463,-8.3068],[124.3562,-8.32],[124.3577,-8.3262],[124.3527,-8.3246],[124.3421,-8.3255],[124.3371,-8.3238],[124.3296,-8.324],[124.3275,-8.3198],[124.3239,-8.3174],[124.3376,-8.3057],[124.3367,-8.3026],[124.3382,-8.2965],[124.343,-8.2929],[124.3473,-8.2937],[124.3481,-8.2998],[124.3502,-8.2998]]]}},{"type":"Feature","properties":{"name":"PuraTimur","name_en":"PuraTimur","admin_level":"7","osm_id":""},"geometry":{"type":"Polygon","coordinates":[[[124.3738,-8.3011],[124.3557,-8.2986],[124.3481,-8.2998],[124.3471,-8.294],[124.3574,-8.2775],[124.3694,-8.2822],[124.376,-8.2955],[124.3738,-8.3011]]]}},{"type":"Feature","properties":{"name":"PuraUtara","name_en":"PuraUtara","admin_level":"7","osm_id":""},"geometry":{"type":"Polygon","coordinates":[[[124.3372,-8.2987],[124.3212,-8.2897],[124.3253,-8.2858],[124.3256,-8.283],[124.3382,-8.2763],[124.3417,-8.281],[124.343,-8.2929],[124.3372,-8.2987]]]}}]}