{"type":"FeatureCollection","metadata":{"parent_osm_id":"gid_IDN_7_2_3_1","parent_name":"JoharBaru","parent_name_1":"JakartaRaya","parent_gid":"IDN.7.2.3_1","parent_level":"6","child_level":"7","count":4,"source":"GADM 4.1","generated":"2026-05-09"},"features":[{"type":"Feature","properties":{"name":"Galur","name_en":"Galur","admin_level":"7","osm_id":""},"geometry":{"type":"Polygon","coordinates":[[[106.8576,-6.174],[106.8588,-6.178],[106.8518,-6.178],[106.852,-6.1747],[106.8576,-6.174]]]}},{"type":"Feature","properties":{"name":"JoharBaru","name_en":"JoharBaru","admin_level":"7","osm_id":""},"geometry":{"type":"Polygon","coordinates":[[[106.8599,-6.1812],[106.8615,-6.1813],[106.8637,-6.1881],[106.8553,-6.1921],[106.8516,-6.1872],[106.8517,-6.1813],[106.8599,-6.1812]]]}},{"type":"Feature","properties":{"name":"KampungRawa","name_en":"KampungRawa","admin_level":"7","osm_id":""},"geometry":{"type":"Polygon","coordinates":[[[106.8588,-6.178],[106.8599,-6.1812],[106.8517,-6.1813],[106.8518,-6.178],[106.8588,-6.178]]]}},{"type":"Feature","properties":{"name":"TanahTinggi","name_en":"TanahTinggi","admin_level":"7","osm_id":""},"geometry":{"type":"Polygon","coordinates":[[[106.852,-6.1747],[106.8514,-6.1852],[106.8516,-6.1872],[106.8468,-6.1808],[106.845,-6.1755],[106.852,-6.1747]]]}}]}