{"type":"FeatureCollection","metadata":{"parent_osm_id":"gid_IDN_10_11_6_1","parent_name":"Jenawi","parent_name_1":"JawaTengah","parent_gid":"IDN.10.11.6_1","parent_level":"6","child_level":"7","count":9,"source":"GADM 4.1","generated":"2026-05-07"},"features":[{"type":"Feature","properties":{"name":"Anggrasmanis","name_en":"Anggrasmanis","admin_level":"7","osm_id":""},"geometry":{"type":"Polygon","coordinates":[[[111.1752,-7.5951],[111.1611,-7.5942],[111.1562,-7.5921],[111.156,-7.5898],[111.1507,-7.5877],[111.1467,-7.5826],[111.1418,-7.5812],[111.1439,-7.5767],[111.143,-7.5726],[111.1463,-7.5726],[111.1484,-7.5698],[111.1475,-7.5657],[111.1486,-7.5631],[111.1541,-7.5642],[111.1622,-7.5748],[111.1633,-7.5803],[111.1668,-7.5823],[111.169,-7.5902],[111.1731,-7.5918],[111.1752,-7.5951]]]}},{"type":"Feature","properties":{"name":"Balong","name_en":"Balong","admin_level":"7","osm_id":""},"geometry":{"type":"Polygon","coordinates":[[[111.1126,-7.5432],[111.1189,-7.5452],[111.1219,-7.5409],[111.1266,-7.5423],[111.1268,-7.5459],[111.1232,-7.5472],[111.1228,-7.5506],[111.1258,-7.5516],[111.1287,-7.5575],[111.128,-7.5606],[111.1247,-7.5596],[111.1249,-7.562],[111.1235,-7.5607],[111.1226,-7.5626],[111.1166,-7.5638],[111.1124,-7.5671],[111.1128,-7.5696],[111.108,-7.5685],[111.1087,-7.5599],[111.1043,-7.5573],[111.1073,-7.5545],[111.1107,-7.5541],[111.1129,-7.5485],[111.1126,-7.5432]]]}},{"type":"Feature","properties":{"name":"Gumeng","name_en":"Gumeng","admin_level":"7","osm_id":""},"geometry":{"type":"Polygon","coordinates":[[[111.1418,-7.5812],[111.1467,-7.5826],[111.1507,-7.5877],[111.156,-7.5898],[111.1562,-7.5921],[111.1611,-7.5942],[111.1752,-7.5951],[111.1784,-7.6001],[111.192,-7.6122],[111.1945,-7.6206],[111.183,-7.6176],[111.1649,-7.6088],[111.158,-7.6071],[111.1474,-7.5998],[111.1415,-7.5981],[111.1384,-7.5948],[111.1345,-7.5948],[111.135,-7.5926],[111.1304,-7.5871],[111.1326,-7.5825],[111.1348,-7.5815],[111.1411,-7.5832],[111.1418,-7.5812]]]}},{"type":"Feature","properties":{"name":"Jenawi","name_en":"Jenawi","admin_level":"7","osm_id":""},"geometry":{"type":"Polygon","coordinates":[[[111.143,-7.5726],[111.1439,-7.5767],[111.1418,-7.5827],[111.1341,-7.5815],[111.1307,-7.5866],[111.126,-7.5849],[111.1261,-7.5834],[111.1214,-7.579],[111.1247,-7.5768],[111.1239,-7.5743],[111.127,-7.5665],[111.1296,-7.5658],[111.1291,-7.5637],[111.138,-7.5653],[111.1411,-7.5717],[111.143,-7.5726]]]}},{"type":"Feature","properties":{"name":"Lempong","name_en":"Lempong","admin_level":"7","osm_id":""},"geometry":{"type":"Polygon","coordinates":[[[111.1301,-7.544],[111.1303,-7.5376],[111.1265,-7.5343],[111.1234,-7.5171],[111.125,-7.5129],[111.1297,-7.511],[111.1308,-7.5153],[111.1396,-7.5239],[111.148,-7.5248],[111.1463,-7.5254],[111.1461,-7.5275],[111.1494,-7.531],[111.1515,-7.5389],[111.1506,-7.5401],[111.1519,-7.5411],[111.1501,-7.543],[111.1516,-7.5467],[111.1497,-7.5447],[111.1461,-7.5466],[111.1433,-7.5451],[111.1356,-7.5467],[111.1301,-7.544]]]}},{"type":"Feature","properties":{"name":"Menjing","name_en":"Menjing","admin_level":"7","osm_id":""},"geometry":{"type":"Polygon","coordinates":[[[111.1273,-7.5438],[111.1237,-7.5408],[111.1213,-7.5412],[111.1189,-7.5452],[111.1126,-7.5432],[111.1144,-7.5367],[111.11,-7.5348],[111.1061,-7.5302],[111.1113,-7.5313],[111.1154,-7.5292],[111.116,-7.5262],[111.1177,-7.5259],[111.1167,-7.5214],[111.1194,-7.5222],[111.1239,-7.5191],[111.1265,-7.5343],[111.1304,-7.5379],[111.1301,-7.544],[111.1273,-7.5438]]]}},{"type":"Feature","properties":{"name":"Seloromo","name_en":"Seloromo","admin_level":"7","osm_id":""},"geometry":{"type":"Polygon","coordinates":[[[111.1126,-7.5432],[111.1129,-7.5485],[111.1107,-7.5541],[111.1039,-7.5572],[111.0996,-7.5529],[111.0992,-7.5493],[111.0847,-7.534],[111.0847,-7.5308],[111.0817,-7.5276],[111.0884,-7.5283],[111.0923,-7.5306],[111.0963,-7.5292],[111.1061,-7.5302],[111.11,-7.5348],[111.1144,-7.5367],[111.1126,-7.5432]]]}},{"type":"Feature","properties":{"name":"Sidomukti","name_en":"Sidomukti","admin_level":"7","osm_id":""},"geometry":{"type":"Polygon","coordinates":[[[111.1538,-7.5639],[111.1532,-7.5649],[111.1486,-7.5631],[111.1472,-7.558],[111.1451,-7.5566],[111.1392,-7.5557],[111.135,-7.5584],[111.1286,-7.5595],[111.1265,-7.5526],[111.1228,-7.5506],[111.1232,-7.5472],[111.1268,-7.5459],[111.1273,-7.5438],[111.1356,-7.5467],[111.1433,-7.5451],[111.1461,-7.5466],[111.1497,-7.5447],[111.1538,-7.5498],[111.1521,-7.551],[111.1519,-7.5546],[111.1538,-7.5639]]]}},{"type":"Feature","properties":{"name":"Trengguli","name_en":"Trengguli","admin_level":"7","osm_id":""},"geometry":{"type":"Polygon","coordinates":[[[111.1486,-7.5631],[111.1475,-7.5657],[111.1484,-7.5698],[111.1463,-7.5726],[111.1418,-7.5724],[111.138,-7.5653],[111.1291,-7.5637],[111.1296,-7.5658],[111.127,-7.5665],[111.1239,-7.5743],[111.1247,-7.5768],[111.1203,-7.5785],[111.1122,-7.5674],[111.119,-7.5625],[111.1226,-7.5626],[111.1235,-7.5607],[111.1249,-7.562],[111.1247,-7.5596],[111.128,-7.5606],[111.1392,-7.5557],[111.1467,-7.5574],[111.1486,-7.5631]]]}}]}