{"type":"FeatureCollection","metadata":{"parent_osm_id":"gid_IDN_32_18_7_1","parent_name":"Lahusa","parent_name_1":"SumateraUtara","parent_gid":"IDN.32.18.7_1","parent_level":"6","child_level":"7","count":15,"source":"GADM 4.1","generated":"2026-05-08"},"features":[{"type":"Feature","properties":{"name":"Bawolato","name_en":"Bawolato","admin_level":"7","osm_id":""},"geometry":{"type":"Polygon","coordinates":[[[97.8732,0.7616],[97.8641,0.7559],[97.8588,0.7554],[97.8571,0.761],[97.8483,0.7689],[97.864,0.7827],[97.872,0.7874],[97.8781,0.7811],[97.8757,0.7807],[97.8733,0.7776],[97.8699,0.7697],[97.8732,0.7616]]]}},{"type":"Feature","properties":{"name":"Bawootalua","name_en":"Bawootalua","admin_level":"7","osm_id":""},"geometry":{"type":"Polygon","coordinates":[[[97.8588,0.7554],[97.8641,0.7559],[97.8736,0.7618],[97.8903,0.7622],[97.8934,0.759],[97.891,0.7532],[97.8915,0.7505],[97.8872,0.7449],[97.8875,0.7404],[97.8741,0.7357],[97.8596,0.7405],[97.856,0.7484],[97.8588,0.7554]]]}},{"type":"Feature","properties":{"name":"Bawozihono","name_en":"Bawozihono","admin_level":"7","osm_id":""},"geometry":{"type":"Polygon","coordinates":[[[97.8596,0.7405],[97.8741,0.7357],[97.8875,0.7404],[97.8929,0.7386],[97.8941,0.7333],[97.8913,0.7267],[97.8937,0.7197],[97.889,0.719],[97.8802,0.722],[97.8602,0.7245],[97.8596,0.7405]]]}},{"type":"Feature","properties":{"name":"GolambanuaI","name_en":"GolambanuaI","admin_level":"7","osm_id":""},"geometry":{"type":"Polygon","coordinates":[[[97.7699,0.7493],[97.7708,0.754],[97.7697,0.7579],[97.7722,0.7621],[97.7775,0.7658],[97.7783,0.7698],[97.7824,0.7708],[97.7886,0.769],[97.791,0.7746],[97.79,0.7776],[97.7977,0.7722],[97.808,0.7779],[97.8163,0.792],[97.8204,0.7903],[97.8188,0.7898],[97.8204,0.7862],[97.8187,0.7766],[97.8225,0.7706],[97.8266,0.7555],[97.8257,0.7504],[97.8218,0.749],[97.8231,0.7461],[97.8212,0.7371],[97.8134,0.7379],[97.8072,0.7344],[97.8084,0.7312],[97.8038,0.7235],[97.8001,0.7246],[97.7924,0.7232],[97.7909,0.7288],[97.7819,0.7316],[97.7753,0.7389],[97.7749,0.7428],[97.7699,0.7493]]]}},{"type":"Feature","properties":{"name":"GolambanuaIi","name_en":"GolambanuaIi","admin_level":"7","osm_id":""},"geometry":{"type":"Polygon","coordinates":[[[97.9018,0.8846],[97.9039,0.8778],[97.8966,0.8616],[97.8875,0.8651],[97.8848,0.862],[97.8784,0.865],[97.8758,0.8646],[97.8616,0.8741],[97.8575,0.8847],[97.8663,0.8904],[97.874,0.8859],[97.8768,0.8893],[97.8854,0.8905],[97.8889,0.8883],[97.8911,0.8889],[97.8926,0.8851],[97.8973,0.8837],[97.9018,0.8846]]]}},{"type":"Feature","properties":{"name":"Hilidohona","name_en":"Hilidohona","admin_level":"7","osm_id":""},"geometry":{"type":"Polygon","coordinates":[[[97.823,0.7897],[97.8234,0.7932],[97.8215,0.7936],[97.8231,0.7999],[97.8549,0.8189],[97.8634,0.8204],[97.8699,0.8044],[97.8424,0.7937],[97.8347,0.7886],[97.8315,0.795],[97.8253,0.7874],[97.823,0.7897]]]}},{"type":"Feature","properties":{"name":"Hilihoya","name_en":"Hilihoya","admin_level":"7","osm_id":""},"geometry":{"type":"Polygon","coordinates":[[[97.8023,0.8325],[97.8052,0.8359],[97.8083,0.8354],[97.8116,0.8258],[97.8107,0.8201],[97.8135,0.8168],[97.8184,0.8165],[97.8241,0.8091],[97.8259,0.8087],[97.8261,0.8067],[97.8215,0.7936],[97.8234,0.7932],[97.823,0.7897],[97.8163,0.792],[97.808,0.7779],[97.7977,0.7722],[97.7885,0.7788],[97.7906,0.7861],[97.7951,0.7886],[97.7955,0.7964],[97.806,0.8126],[97.7985,0.8219],[97.7994,0.8239],[97.7953,0.826],[97.7974,0.8315],[97.8001,0.831],[97.8023,0.8325]]]}},{"type":"Feature","properties":{"name":"Hilisao'oto","name_en":"Hilisao'oto","admin_level":"7","osm_id":""},"geometry":{"type":"Polygon","coordinates":[[[97.8228,0.8579],[97.8563,0.8761],[97.8572,0.8846],[97.8616,0.8741],[97.8674,0.8711],[97.866,0.8706],[97.8648,0.8636],[97.8673,0.8567],[97.8586,0.8473],[97.8388,0.8374],[97.8286,0.8265],[97.8134,0.817],[97.8107,0.8201],[97.8116,0.8258],[97.8083,0.8354],[97.81,0.8354],[97.811,0.8331],[97.8155,0.8365],[97.8156,0.8399],[97.8128,0.8461],[97.8181,0.8546],[97.8228,0.8579]]]}},{"type":"Feature","properties":{"name":"Hilisimaetano","name_en":"Hilisimaetano","admin_level":"7","osm_id":""},"geometry":{"type":"Polygon","coordinates":[[[97.8484,0.769],[97.8571,0.761],[97.8588,0.7554],[97.856,0.7484],[97.8596,0.7405],[97.8602,0.7245],[97.8505,0.7245],[97.8459,0.7262],[97.8367,0.7417],[97.8321,0.7407],[97.8277,0.7375],[97.823,0.7392],[97.8212,0.7371],[97.8231,0.7461],[97.8218,0.749],[97.8257,0.7504],[97.8266,0.7555],[97.8225,0.7706],[97.8187,0.7766],[97.8204,0.7862],[97.8188,0.7898],[97.8218,0.7908],[97.8253,0.7874],[97.8315,0.795],[97.8351,0.7852],[97.8377,0.7844],[97.8371,0.7759],[97.8435,0.7746],[97.8484,0.769]]]}},{"type":"Feature","properties":{"name":"Lahusa","name_en":"Lahusa","admin_level":"7","osm_id":""},"geometry":{"type":"Polygon","coordinates":[[[97.8781,0.7811],[97.872,0.7874],[97.8697,0.7871],[97.8484,0.769],[97.8435,0.7746],[97.8371,0.7759],[97.8382,0.7823],[97.8377,0.7844],[97.8351,0.7852],[97.8347,0.7886],[97.8424,0.7937],[97.8699,0.8044],[97.8769,0.8036],[97.8781,0.7811]]]}},{"type":"Feature","properties":{"name":"Sihareo","name_en":"Sihareo","admin_level":"7","osm_id":""},"geometry":{"type":"Polygon","coordinates":[[[97.8848,0.862],[97.8875,0.8651],[97.8966,0.8616],[97.895,0.8556],[97.8977,0.8502],[97.8943,0.8423],[97.8979,0.8384],[97.8969,0.8371],[97.8896,0.8389],[97.8865,0.833],[97.8865,0.8355],[97.8821,0.8399],[97.883,0.8426],[97.8798,0.8442],[97.8827,0.8464],[97.8813,0.8613],[97.8848,0.862]]]}},{"type":"Feature","properties":{"name":"Silimabanua","name_en":"Silimabanua","admin_level":"7","osm_id":""},"geometry":{"type":"Polygon","coordinates":[[[97.8699,0.8044],[97.8632,0.8203],[97.8636,0.8282],[97.8755,0.8433],[97.8773,0.842],[97.8798,0.8442],[97.883,0.8426],[97.8821,0.8399],[97.8865,0.8355],[97.8865,0.833],[97.8896,0.8389],[97.8969,0.8371],[97.8981,0.8354],[97.8953,0.8293],[97.8954,0.8242],[97.8971,0.8217],[97.9099,0.8151],[97.9077,0.8065],[97.9017,0.8072],[97.8915,0.8035],[97.8699,0.8044]]]}},{"type":"Feature","properties":{"name":"Siwalubanua","name_en":"Siwalubanua","admin_level":"7","osm_id":""},"geometry":{"type":"Polygon","coordinates":[[[97.8785,0.7809],[97.8769,0.8038],[97.8915,0.8035],[97.9017,0.8072],[97.9077,0.8065],[97.9083,0.8029],[97.9115,0.8026],[97.9119,0.7986],[97.8948,0.7742],[97.8785,0.7809]]]}},{"type":"Feature","properties":{"name":"Tetezou","name_en":"Tetezou","admin_level":"7","osm_id":""},"geometry":{"type":"Polygon","coordinates":[[[97.8732,0.7616],[97.8699,0.7697],[97.8757,0.7807],[97.8776,0.7812],[97.8948,0.7742],[97.8908,0.7668],[97.8903,0.7622],[97.8732,0.7616]]]}},{"type":"Feature","properties":{"name":"UluIdanoduo","name_en":"UluIdanoduo","admin_level":"7","osm_id":""},"geometry":{"type":"Polygon","coordinates":[[[97.8674,0.8711],[97.8758,0.8646],[97.8784,0.865],[97.8848,0.862],[97.8813,0.8613],[97.8827,0.8464],[97.8773,0.842],[97.8755,0.8433],[97.8636,0.8282],[97.8632,0.8203],[97.8549,0.8189],[97.8231,0.7999],[97.8259,0.8087],[97.8241,0.8091],[97.8184,0.8165],[97.8134,0.817],[97.8286,0.8265],[97.8388,0.8374],[97.8586,0.8473],[97.8673,0.8567],[97.8648,0.8636],[97.866,0.8706],[97.8674,0.8711]]]}}]}