{"type":"FeatureCollection","metadata":{"parent_osm_id":"gid_IDN_17_5_9_1","parent_name":"LabuhanMaringgai","parent_name_1":"Lampung","parent_gid":"IDN.17.5.9_1","parent_level":"6","child_level":"7","count":11,"source":"GADM 4.1","generated":"2026-05-07"},"features":[{"type":"Feature","properties":{"name":"BandarNegeri","name_en":"BandarNegeri","admin_level":"7","osm_id":""},"geometry":{"type":"Polygon","coordinates":[[[105.8196,-5.3835],[105.8217,-5.4203],[105.8031,-5.4193],[105.8014,-5.4134],[105.8021,-5.4028],[105.8047,-5.3963],[105.803,-5.3826],[105.8196,-5.3835]]]}},{"type":"Feature","properties":{"name":"KarangAnyar","name_en":"KarangAnyar","admin_level":"7","osm_id":""},"geometry":{"type":"Polygon","coordinates":[[[105.8052,-5.2437],[105.8153,-5.2298],[105.8155,-5.2263],[105.8128,-5.2222],[105.8126,-5.217],[105.8187,-5.2143],[105.8252,-5.2086],[105.8282,-5.2072],[105.8315,-5.2079],[105.8337,-5.2119],[105.8327,-5.2186],[105.834,-5.22],[105.8352,-5.235],[105.8301,-5.2561],[105.8098,-5.2595],[105.8101,-5.2619],[105.8059,-5.2628],[105.8055,-5.2602],[105.7976,-5.2573],[105.796,-5.2514],[105.8052,-5.2437]]]}},{"type":"Feature","properties":{"name":"KaryaMakmur","name_en":"KaryaMakmur","admin_level":"7","osm_id":""},"geometry":{"type":"Polygon","coordinates":[[[105.7672,-5.4192],[105.766,-5.4103],[105.7768,-5.4033],[105.7785,-5.4127],[105.7815,-5.4192],[105.7826,-5.4179],[105.7838,-5.419],[105.7855,-5.4176],[105.795,-5.417],[105.8049,-5.4197],[105.8217,-5.4203],[105.8227,-5.4363],[105.7717,-5.4366],[105.7734,-5.424],[105.7672,-5.4192]]]}},{"type":"Feature","properties":{"name":"Karyatani","name_en":"Karyatani","admin_level":"7","osm_id":""},"geometry":{"type":"Polygon","coordinates":[[[105.7642,-5.4712],[105.7686,-5.4588],[105.7717,-5.4366],[105.8227,-5.4363],[105.825,-5.4826],[105.783,-5.4718],[105.7642,-5.4712]]]}},{"type":"Feature","properties":{"name":"LabuhanMaringai","name_en":"LabuhanMaringai","admin_level":"7","osm_id":""},"geometry":{"type":"Polygon","coordinates":[[[105.7582,-5.3232],[105.7609,-5.3137],[105.7672,-5.317],[105.789,-5.3049],[105.7949,-5.2998],[105.8018,-5.3013],[105.8086,-5.2817],[105.8114,-5.2816],[105.8093,-5.2913],[105.8105,-5.2931],[105.8023,-5.3296],[105.8112,-5.3314],[105.8081,-5.3516],[105.8027,-5.3546],[105.794,-5.3513],[105.7937,-5.3477],[105.7908,-5.3439],[105.7887,-5.3441],[105.7885,-5.3455],[105.7795,-5.3465],[105.7779,-5.3439],[105.7737,-5.3455],[105.7698,-5.3424],[105.7624,-5.3411],[105.7582,-5.3232]]]}},{"type":"Feature","properties":{"name":"Margasari","name_en":"Margasari","admin_level":"7","osm_id":""},"geometry":{"type":"Polygon","coordinates":[[[105.8517,-5.2551],[105.8539,-5.2562],[105.8634,-5.2546],[105.8623,-5.2605],[105.8551,-5.2714],[105.8416,-5.2826],[105.8288,-5.2818],[105.83,-5.2561],[105.8399,-5.256],[105.8441,-5.2541],[105.8517,-5.2551]]]}},{"type":"Feature","properties":{"name":"Maringgai","name_en":"Maringgai","admin_level":"7","osm_id":""},"geometry":{"type":"Polygon","coordinates":[[[105.7795,-5.3465],[105.7885,-5.3455],[105.7887,-5.3441],[105.7908,-5.3439],[105.7937,-5.3477],[105.794,-5.3513],[105.8027,-5.3546],[105.8081,-5.3516],[105.8038,-5.3783],[105.8031,-5.376],[105.7925,-5.3727],[105.7944,-5.3714],[105.7954,-5.3668],[105.7912,-5.3612],[105.7869,-5.359],[105.7767,-5.3582],[105.7767,-5.3535],[105.7795,-5.3465]]]}},{"type":"Feature","properties":{"name":"MuaraGadingMas","name_en":"MuaraGadingMas","admin_level":"7","osm_id":""},"geometry":{"type":"Polygon","coordinates":[[[105.8196,-5.3835],[105.803,-5.3824],[105.8111,-5.3303],[105.8198,-5.3311],[105.8195,-5.3538],[105.8216,-5.3596],[105.8196,-5.3654],[105.8196,-5.3835]]]}},{"type":"Feature","properties":{"name":"SriGading","name_en":"SriGading","admin_level":"7","osm_id":""},"geometry":{"type":"Polygon","coordinates":[[[105.7976,-5.2573],[105.8055,-5.2602],[105.8059,-5.2628],[105.8101,-5.2619],[105.8098,-5.2595],[105.83,-5.2561],[105.8288,-5.2818],[105.8085,-5.2817],[105.8036,-5.2794],[105.8032,-5.2766],[105.7994,-5.2762],[105.797,-5.2616],[105.7982,-5.2601],[105.7964,-5.2585],[105.7976,-5.2573]]]}},{"type":"Feature","properties":{"name":"SriMinosari","name_en":"SriMinosari","admin_level":"7","osm_id":""},"geometry":{"type":"Polygon","coordinates":[[[105.8112,-5.3314],[105.8023,-5.3296],[105.8105,-5.2931],[105.8093,-5.2913],[105.8115,-5.2814],[105.8416,-5.2826],[105.8365,-5.2875],[105.8271,-5.3015],[105.8219,-5.3168],[105.8198,-5.3311],[105.8111,-5.3303],[105.8112,-5.3314]]]}},{"type":"Feature","properties":{"name":"Sukorahayu","name_en":"Sukorahayu","admin_level":"7","osm_id":""},"geometry":{"type":"Polygon","coordinates":[[[105.834,-5.22],[105.8452,-5.2196],[105.8525,-5.2223],[105.8518,-5.2314],[105.8557,-5.2381],[105.8519,-5.246],[105.8517,-5.2551],[105.8441,-5.2541],[105.8399,-5.256],[105.8301,-5.2561],[105.8352,-5.235],[105.834,-5.22]]]}}]}