{"type":"FeatureCollection","metadata":{"parent_osm_id":"gid_IDN_9_26_19_1","parent_name":"Leuwisari","parent_name_1":"JawaBarat","parent_gid":"IDN.9.26.19_1","parent_level":"6","child_level":"7","count":7,"source":"GADM 4.1","generated":"2026-05-09"},"features":[{"type":"Feature","properties":{"name":"Arjasari","name_en":"Arjasari","admin_level":"7","osm_id":""},"geometry":{"type":"Polygon","coordinates":[[[108.1085,-7.3293],[108.1201,-7.3398],[108.1199,-7.3426],[108.1228,-7.3459],[108.1191,-7.3463],[108.1179,-7.3484],[108.1157,-7.3479],[108.1151,-7.341],[108.1055,-7.3448],[108.1003,-7.3443],[108.0968,-7.3214],[108.0995,-7.3217],[108.1049,-7.3306],[108.1085,-7.3293]]]}},{"type":"Feature","properties":{"name":"Ciawang","name_en":"Ciawang","admin_level":"7","osm_id":""},"geometry":{"type":"Polygon","coordinates":[[[108.1171,-7.3379],[108.1085,-7.3293],[108.1097,-7.3283],[108.1096,-7.3183],[108.1087,-7.3145],[108.1059,-7.3137],[108.1088,-7.3109],[108.1143,-7.3131],[108.1182,-7.3178],[108.1184,-7.3246],[108.1238,-7.3292],[108.1228,-7.3343],[108.1171,-7.3379]]]}},{"type":"Feature","properties":{"name":"Cigadog","name_en":"Cigadog","admin_level":"7","osm_id":""},"geometry":{"type":"Polygon","coordinates":[[[108.1,-7.3078],[108.0977,-7.3082],[108.098,-7.3124],[108.0936,-7.3125],[108.0912,-7.3165],[108.0901,-7.3157],[108.0821,-7.2862],[108.0745,-7.2675],[108.0741,-7.2626],[108.0815,-7.2636],[108.0797,-7.2668],[108.0873,-7.2828],[108.0903,-7.2955],[108.0932,-7.2965],[108.0943,-7.3],[108.0989,-7.2996],[108.1,-7.3078]]]}},{"type":"Feature","properties":{"name":"Jayamukti","name_en":"Jayamukti","admin_level":"7","osm_id":""},"geometry":{"type":"Polygon","coordinates":[[[108.1085,-7.3293],[108.1049,-7.3306],[108.0995,-7.3217],[108.0972,-7.321],[108.0959,-7.3238],[108.093,-7.321],[108.0912,-7.3165],[108.0936,-7.3125],[108.0981,-7.3122],[108.0977,-7.3082],[108.1016,-7.3084],[108.1059,-7.3137],[108.1087,-7.3145],[108.1098,-7.3277],[108.1085,-7.3293]]]}},{"type":"Feature","properties":{"name":"Linggamulya","name_en":"Linggamulya","admin_level":"7","osm_id":""},"geometry":{"type":"Polygon","coordinates":[[[108.0741,-7.2626],[108.0745,-7.2675],[108.0821,-7.2862],[108.0853,-7.3013],[108.0932,-7.3241],[108.091,-7.3238],[108.0905,-7.3204],[108.0901,-7.3236],[108.0886,-7.3235],[108.0883,-7.3211],[108.0877,-7.3228],[108.0861,-7.3225],[108.0835,-7.3142],[108.0789,-7.3149],[108.0786,-7.3073],[108.0756,-7.2993],[108.0764,-7.2898],[108.0733,-7.2834],[108.0713,-7.2715],[108.0715,-7.2608],[108.0741,-7.2626]]]}},{"type":"Feature","properties":{"name":"Linggawangi","name_en":"Linggawangi","admin_level":"7","osm_id":""},"geometry":{"type":"Polygon","coordinates":[[[108.0715,-7.2608],[108.0713,-7.2715],[108.0733,-7.2834],[108.0764,-7.2898],[108.0756,-7.2993],[108.0786,-7.3073],[108.0788,-7.3148],[108.0835,-7.3142],[108.0857,-7.319],[108.0858,-7.3241],[108.0828,-7.3272],[108.0811,-7.3267],[108.0818,-7.3233],[108.0778,-7.321],[108.0743,-7.31],[108.0732,-7.3087],[108.0694,-7.3098],[108.067,-7.3086],[108.0686,-7.2986],[108.0656,-7.2742],[108.0677,-7.2576],[108.0715,-7.2608]]]}},{"type":"Feature","properties":{"name":"Mandalagiri","name_en":"Mandalagiri","admin_level":"7","osm_id":""},"geometry":{"type":"Polygon","coordinates":[[[108.1088,-7.3109],[108.1059,-7.3137],[108.1036,-7.3097],[108.1,-7.3078],[108.0989,-7.2996],[108.0943,-7.3],[108.0932,-7.2965],[108.0903,-7.2955],[108.0873,-7.2828],[108.0797,-7.2668],[108.082,-7.2633],[108.0855,-7.2636],[108.0885,-7.2697],[108.0927,-7.2727],[108.0961,-7.2875],[108.1007,-7.2943],[108.1034,-7.2956],[108.1055,-7.3026],[108.1093,-7.3056],[108.1088,-7.3109]]]}}]}