{"type":"FeatureCollection","metadata":{"parent_osm_id":"gid_IDN_23_23_7_1","parent_name":"Sinak","parent_name_1":"Papua","parent_gid":"IDN.23.23.7_1","parent_level":"6","child_level":"7","count":12,"source":"GADM 4.1","generated":"2026-05-08"},"features":[{"type":"Feature","properties":{"name":"Akenggen","name_en":"Akenggen","admin_level":"7","osm_id":""},"geometry":{"type":"Polygon","coordinates":[[[137.9152,-3.8319],[137.9204,-3.8376],[137.9091,-3.8421],[137.8896,-3.8557],[137.8695,-3.8551],[137.86,-3.8592],[137.8529,-3.8669],[137.8423,-3.8675],[137.8192,-3.8646],[137.7969,-3.8596],[137.7978,-3.852],[137.8016,-3.849],[137.8084,-3.8469],[137.8282,-3.8448],[137.8447,-3.8461],[137.8556,-3.8435],[137.8571,-3.8266],[137.87,-3.8305],[137.8882,-3.8305],[137.9034,-3.8355],[137.9152,-3.8319]]]}},{"type":"Feature","properties":{"name":"Amulume","name_en":"Amulume","admin_level":"7","osm_id":""},"geometry":{"type":"Polygon","coordinates":[[[137.8914,-3.7713],[137.8946,-3.7832],[137.8861,-3.7851],[137.8842,-3.7879],[137.8585,-3.7926],[137.8476,-3.7895],[137.8478,-3.7807],[137.8625,-3.7799],[137.8737,-3.7761],[137.8863,-3.7745],[137.8914,-3.7713]]]}},{"type":"Feature","properties":{"name":"Gigobak/Gogobak","name_en":"Gigobak/Gogobak","admin_level":"7","osm_id":""},"geometry":{"type":"Polygon","coordinates":[[[137.7969,-3.8596],[137.7595,-3.8663],[137.7518,-3.8705],[137.7322,-3.8619],[137.7204,-3.8518],[137.7021,-3.8445],[137.6774,-3.8427],[137.6563,-3.8271],[137.654,-3.8231],[137.6891,-3.8212],[137.717,-3.8217],[137.7537,-3.8184],[137.7682,-3.8187],[137.7852,-3.8159],[137.8032,-3.8159],[137.8341,-3.8095],[137.852,-3.8024],[137.8549,-3.8052],[137.8578,-3.8118],[137.8556,-3.8435],[137.8447,-3.8461],[137.8282,-3.8448],[137.8084,-3.8469],[137.8016,-3.849],[137.7978,-3.852],[137.7969,-3.8596]]]}},{"type":"Feature","properties":{"name":"Iskalebuk/Kawibut","name_en":"Iskalebuk/Kawibut","admin_level":"7","osm_id":""},"geometry":{"type":"Polygon","coordinates":[[[137.8461,-3.7903],[137.8473,-3.7944],[137.8342,-3.8007],[137.7943,-3.8078],[137.7554,-3.8089],[137.7476,-3.8078],[137.739,-3.8106],[137.7203,-3.8128],[137.658,-3.812],[137.6487,-3.8132],[137.6454,-3.7988],[137.6736,-3.8028],[137.6949,-3.8017],[137.7143,-3.8032],[137.7444,-3.7962],[137.7745,-3.797],[137.8002,-3.7929],[137.8109,-3.7937],[137.8337,-3.7903],[137.8461,-3.7903]]]}},{"type":"Feature","properties":{"name":"Isweli/Weni","name_en":"Isweli/Weni","admin_level":"7","osm_id":""},"geometry":{"type":"Polygon","coordinates":[[[137.8946,-3.7832],[137.8963,-3.7895],[137.8843,-3.7936],[137.8535,-3.8001],[137.8507,-3.8005],[137.8503,-3.7976],[137.8459,-3.7926],[137.8476,-3.7895],[137.8585,-3.7926],[137.8677,-3.7918],[137.8809,-3.7891],[137.8842,-3.7879],[137.8861,-3.7851],[137.8946,-3.7832]]]}},{"type":"Feature","properties":{"name":"Jiginggi","name_en":"Jiginggi","admin_level":"7","osm_id":""},"geometry":{"type":"Polygon","coordinates":[[[137.8911,-3.7624],[137.8914,-3.7713],[137.8886,-3.7735],[137.8551,-3.7808],[137.8478,-3.7807],[137.8485,-3.7764],[137.8434,-3.7751],[137.8395,-3.7709],[137.8375,-3.7636],[137.8488,-3.7611],[137.8503,-3.7673],[137.8601,-3.7668],[137.8665,-3.7682],[137.8911,-3.7624]]]}},{"type":"Feature","properties":{"name":"Kelemame","name_en":"Kelemame","admin_level":"7","osm_id":""},"geometry":{"type":"Polygon","coordinates":[[[137.7496,-3.7668],[137.7771,-3.7741],[137.8109,-3.7668],[137.8375,-3.7636],[137.8395,-3.7709],[137.8434,-3.7751],[137.8363,-3.7807],[137.829,-3.7834],[137.8142,-3.783],[137.7794,-3.7876],[137.7637,-3.7857],[137.748,-3.7868],[137.7031,-3.7933],[137.672,-3.7933],[137.6674,-3.7853],[137.6993,-3.7732],[137.7368,-3.7695],[137.7496,-3.7668]]]}},{"type":"Feature","properties":{"name":"Kilunggame","name_en":"Kilunggame","admin_level":"7","osm_id":""},"geometry":{"type":"Polygon","coordinates":[[[137.6454,-3.7988],[137.6674,-3.7853],[137.672,-3.7933],[137.7031,-3.7933],[137.748,-3.7868],[137.7637,-3.7857],[137.7794,-3.7876],[137.8142,-3.783],[137.829,-3.7834],[137.8363,-3.7807],[137.8434,-3.7751],[137.8485,-3.7764],[137.8476,-3.7895],[137.8461,-3.7903],[137.8337,-3.7903],[137.8109,-3.7937],[137.8002,-3.7929],[137.7745,-3.797],[137.7444,-3.7962],[137.7143,-3.8032],[137.6949,-3.8017],[137.6736,-3.8028],[137.6454,-3.7988]]]}},{"type":"Feature","properties":{"name":"Kumikomo","name_en":"Kumikomo","admin_level":"7","osm_id":""},"geometry":{"type":"Polygon","coordinates":[[[137.8907,-3.7497],[137.8911,-3.7624],[137.8701,-3.768],[137.8503,-3.7673],[137.8488,-3.7611],[137.8682,-3.757],[137.8907,-3.7497]]]}},{"type":"Feature","properties":{"name":"Nigolome/Nikoame","name_en":"Nigolome/Nikoame","admin_level":"7","osm_id":""},"geometry":{"type":"Polygon","coordinates":[[[137.8963,-3.7895],[137.899,-3.7993],[137.8906,-3.7997],[137.8686,-3.8048],[137.8572,-3.8092],[137.8507,-3.8005],[137.8843,-3.7936],[137.8963,-3.7895]]]}},{"type":"Feature","properties":{"name":"Pamebut","name_en":"Pamebut","admin_level":"7","osm_id":""},"geometry":{"type":"Polygon","coordinates":[[[137.899,-3.7993],[137.9152,-3.8319],[137.9034,-3.8355],[137.8882,-3.8305],[137.87,-3.8305],[137.8571,-3.8266],[137.8572,-3.8092],[137.8686,-3.8048],[137.8906,-3.7997],[137.899,-3.7993]]]}},{"type":"Feature","properties":{"name":"Yauria/Wambru","name_en":"Yauria/Wambru","admin_level":"7","osm_id":""},"geometry":{"type":"Polygon","coordinates":[[[137.852,-3.8024],[137.8341,-3.8095],[137.8032,-3.8159],[137.7852,-3.8159],[137.7682,-3.8187],[137.7537,-3.8184],[137.717,-3.8217],[137.6891,-3.8212],[137.654,-3.8231],[137.6487,-3.8132],[137.658,-3.812],[137.7203,-3.8128],[137.739,-3.8106],[137.7476,-3.8078],[137.7554,-3.8089],[137.7943,-3.8078],[137.8342,-3.8007],[137.8473,-3.7944],[137.8503,-3.7976],[137.852,-3.8024]]]}}]}