{"type":"FeatureCollection","metadata":{"parent_osm_id":"gid_IDN_30_19_2_1","parent_name":"DanauKembar","parent_name_1":"SumateraBarat","parent_gid":"IDN.30.19.2_1","parent_level":"6","child_level":"7","count":3,"source":"GADM 4.1","generated":"2026-05-09"},"features":[{"type":"Feature","properties":{"name":"Danau/waduk","name_en":"Danau/waduk","admin_level":"7","osm_id":""},"geometry":{"type":"Polygon","coordinates":[[[100.7397,-1.0361],[100.7285,-1.0274],[100.7153,-1.0066],[100.7165,-1.005],[100.7159,-0.9963],[100.7233,-0.9936],[100.7249,-0.9896],[100.7315,-0.9903],[100.7427,-1.001],[100.7451,-1.0089],[100.7411,-1.0213],[100.7439,-1.0313],[100.7425,-1.0357],[100.7397,-1.0361]]]}},{"type":"Feature","properties":{"name":"KampuangBatuDalam","name_en":"KampuangBatuDalam","admin_level":"7","osm_id":""},"geometry":{"type":"Polygon","coordinates":[[[100.7425,-1.0357],[100.7439,-1.0313],[100.7411,-1.0213],[100.7451,-1.0089],[100.7427,-1.001],[100.7315,-0.9903],[100.7249,-0.9896],[100.7233,-0.9936],[100.7159,-0.9963],[100.7165,-1.005],[100.7153,-1.0066],[100.7285,-1.0274],[100.7397,-1.0361],[100.7249,-1.0381],[100.7125,-1.0326],[100.7075,-1.032],[100.7029,-1.0345],[100.6977,-1.0338],[100.6919,-1.0299],[100.6833,-1.0286],[100.6765,-1.0073],[100.6831,-1.0075],[100.7119,-0.9958],[100.7293,-0.9851],[100.7515,-0.9995],[100.7597,-1.0021],[100.7598,-1.025],[100.7581,-1.0381],[100.7425,-1.0357]]]}},{"type":"Feature","properties":{"name":"SimpangTanjuangNanIv","name_en":"SimpangTanjuangNanIv","admin_level":"7","osm_id":""},"geometry":{"type":"Polygon","coordinates":[[[100.6293,-1.1038],[100.6215,-1.0958],[100.6234,-1.0824],[100.6203,-1.0749],[100.6226,-1.0698],[100.6227,-1.063],[100.6191,-1.0606],[100.6179,-1.0617],[100.6155,-1.059],[100.6167,-1.0517],[100.6215,-1.0478],[100.6294,-1.0458],[100.6543,-1.0446],[100.6785,-1.052],[100.6847,-1.0464],[100.6869,-1.0385],[100.6833,-1.0286],[100.6919,-1.0299],[100.6977,-1.0338],[100.7029,-1.0345],[100.7075,-1.032],[100.7125,-1.0326],[100.7249,-1.0381],[100.7425,-1.0357],[100.7581,-1.0381],[100.7571,-1.0526],[100.7485,-1.058],[100.7477,-1.0562],[100.7405,-1.0552],[100.7287,-1.0627],[100.7303,-1.0662],[100.7349,-1.0699],[100.7403,-1.0691],[100.7407,-1.0725],[100.7371,-1.0749],[100.7373,-1.0772],[100.7417,-1.0817],[100.7495,-1.0824],[100.7529,-1.0854],[100.7479,-1.0847],[100.7425,-1.0917],[100.7429,-1.0968],[100.7399,-1.0978],[100.7321,-1.1135],[100.7244,-1.1041],[100.7206,-1.0963],[100.7009,-1.0905],[100.6935,-1.0935],[100.6867,-1.0987],[100.6501,-1.1109],[100.6454,-1.1094],[100.6374,-1.1099],[100.6293,-1.1038]]]}}]}