{"type":"FeatureCollection","metadata":{"parent_osm_id":"gid_IDN_1_10_16_1","parent_name":"PeureulakBarat","parent_name_1":"Aceh","parent_gid":"IDN.1.10.16_1","parent_level":"6","child_level":"7","count":15,"source":"GADM 4.1","generated":"2026-05-07"},"features":[{"type":"Feature","properties":{"name":"AlueBuJalan","name_en":"AlueBuJalan","admin_level":"7","osm_id":""},"geometry":{"type":"Polygon","coordinates":[[[97.8546,4.8747],[97.8562,4.8801],[97.87,4.8742],[97.8798,4.8901],[97.894,4.8887],[97.8924,4.8825],[97.8891,4.8821],[97.8843,4.885],[97.8597,4.8626],[97.8565,4.8679],[97.8529,4.8699],[97.8546,4.8747]]]}},{"type":"Feature","properties":{"name":"AlueBuJalanBaroh","name_en":"AlueBuJalanBaroh","admin_level":"7","osm_id":""},"geometry":{"type":"Polygon","coordinates":[[[97.851,4.8765],[97.856,4.8842],[97.8586,4.8937],[97.8611,4.8973],[97.8798,4.8901],[97.87,4.8742],[97.8562,4.8801],[97.8546,4.8747],[97.851,4.8765]]]}},{"type":"Feature","properties":{"name":"AlueBuTuha","name_en":"AlueBuTuha","admin_level":"7","osm_id":""},"geometry":{"type":"Polygon","coordinates":[[[97.8366,4.8644],[97.8435,4.8679],[97.8443,4.8705],[97.851,4.8765],[97.8546,4.8747],[97.8529,4.8699],[97.8565,4.8679],[97.8597,4.8626],[97.8476,4.8554],[97.8366,4.8644]]]}},{"type":"Feature","properties":{"name":"AlueBuTunong","name_en":"AlueBuTunong","admin_level":"7","osm_id":""},"geometry":{"type":"Polygon","coordinates":[[[97.8213,4.8615],[97.8366,4.8644],[97.8476,4.8554],[97.8436,4.8471],[97.8369,4.8405],[97.8286,4.8466],[97.8213,4.8615]]]}},{"type":"Feature","properties":{"name":"Beuringin","name_en":"Beuringin","admin_level":"7","osm_id":""},"geometry":{"type":"Polygon","coordinates":[[[97.8718,4.8434],[97.8697,4.8417],[97.8787,4.8329],[97.873,4.8169],[97.8729,4.8143],[97.8761,4.8118],[97.8752,4.8087],[97.873,4.8119],[97.8691,4.8116],[97.8686,4.8162],[97.8642,4.8169],[97.8608,4.831],[97.855,4.8393],[97.8645,4.8505],[97.8718,4.8434]]]}},{"type":"Feature","properties":{"name":"BeusaBaroh","name_en":"BeusaBaroh","admin_level":"7","osm_id":""},"geometry":{"type":"Polygon","coordinates":[[[97.8924,4.8511],[97.8807,4.854],[97.8835,4.8639],[97.8903,4.8668],[97.8971,4.8754],[97.9006,4.8769],[97.9013,4.875],[97.8986,4.8701],[97.8948,4.869],[97.8905,4.8635],[97.8955,4.8614],[97.8947,4.8573],[97.8964,4.8556],[97.8978,4.8556],[97.898,4.8612],[97.8996,4.8631],[97.9002,4.8505],[97.8984,4.8497],[97.8937,4.8536],[97.8924,4.8511]]]}},{"type":"Feature","properties":{"name":"BeusaSeberang","name_en":"BeusaSeberang","admin_level":"7","osm_id":""},"geometry":{"type":"Polygon","coordinates":[[[97.8773,4.8351],[97.8697,4.8417],[97.8807,4.854],[97.8924,4.8511],[97.8919,4.8471],[97.8935,4.8486],[97.899,4.846],[97.8987,4.8443],[97.8965,4.8442],[97.8956,4.8408],[97.8916,4.8423],[97.8895,4.8412],[97.8899,4.8299],[97.8876,4.8297],[97.8773,4.8351]]]}},{"type":"Feature","properties":{"name":"Kabu","name_en":"Kabu","admin_level":"7","osm_id":""},"geometry":{"type":"Polygon","coordinates":[[[97.8632,4.8196],[97.8674,4.8133],[97.8669,4.8116],[97.8641,4.8106],[97.8592,4.8132],[97.8533,4.8137],[97.8515,4.8159],[97.8493,4.8252],[97.8632,4.8196]]]}},{"type":"Feature","properties":{"name":"KebunTeumpeun","name_en":"KebunTeumpeun","admin_level":"7","osm_id":""},"geometry":{"type":"Polygon","coordinates":[[[97.8215,4.8612],[97.8287,4.8466],[97.8515,4.8319],[97.8493,4.8252],[97.8431,4.8258],[97.8396,4.8182],[97.8244,4.8359],[97.8251,4.8376],[97.8214,4.8527],[97.8215,4.8612]]]}},{"type":"Feature","properties":{"name":"MonGeudong","name_en":"MonGeudong","admin_level":"7","osm_id":""},"geometry":{"type":"Polygon","coordinates":[[[97.8476,4.8554],[97.8551,4.8595],[97.8645,4.8505],[97.855,4.8393],[97.8538,4.8395],[97.8529,4.8378],[97.8544,4.8373],[97.8515,4.8319],[97.8369,4.8405],[97.8436,4.8471],[97.8476,4.8554]]]}},{"type":"Feature","properties":{"name":"PayaBiek","name_en":"PayaBiek","admin_level":"7","osm_id":""},"geometry":{"type":"Polygon","coordinates":[[[97.8106,4.8569],[97.8213,4.8615],[97.8244,4.8359],[97.8114,4.8373],[97.8087,4.8391],[97.8074,4.8464],[97.8106,4.8569]]]}},{"type":"Feature","properties":{"name":"PayaGajah","name_en":"PayaGajah","admin_level":"7","osm_id":""},"geometry":{"type":"Polygon","coordinates":[[[97.8597,4.8626],[97.8843,4.885],[97.8891,4.8821],[97.8928,4.8833],[97.8945,4.8819],[97.8949,4.8792],[97.8916,4.8746],[97.8895,4.8672],[97.8835,4.8639],[97.8807,4.854],[97.8721,4.8435],[97.8551,4.8595],[97.8597,4.8626]]]}},{"type":"Feature","properties":{"name":"PayaSeungat","name_en":"PayaSeungat","admin_level":"7","osm_id":""},"geometry":{"type":"Polygon","coordinates":[[[97.855,4.8393],[97.8608,4.831],[97.8632,4.8196],[97.8493,4.8252],[97.8544,4.8373],[97.8529,4.8378],[97.855,4.8393]]]}},{"type":"Feature","properties":{"name":"TanjungTualang","name_en":"TanjungTualang","admin_level":"7","osm_id":""},"geometry":{"type":"Polygon","coordinates":[[[97.8731,4.8157],[97.8783,4.8306],[97.8773,4.8351],[97.8876,4.8297],[97.8862,4.8256],[97.8828,4.825],[97.8828,4.8225],[97.886,4.8242],[97.8865,4.8196],[97.8915,4.816],[97.8952,4.8155],[97.8939,4.8125],[97.8895,4.8095],[97.8877,4.8114],[97.8903,4.814],[97.8869,4.8163],[97.8787,4.8138],[97.8731,4.8157]]]}},{"type":"Feature","properties":{"name":"Teumpeun","name_en":"Teumpeun","admin_level":"7","osm_id":""},"geometry":{"type":"Polygon","coordinates":[[[97.8493,4.8252],[97.8464,4.8225],[97.8462,4.821],[97.8486,4.82],[97.848,4.8165],[97.8407,4.8198],[97.8431,4.8258],[97.8493,4.8252]]]}}]}