{"type":"FeatureCollection","metadata":{"parent_osm_id":"18555847","parent_name":"Bulu","parent_name_1":"JawaTengah","parent_gid":"IDN.10.30.3_1","parent_level":"6","child_level":"7","count":12,"source":"GADM 4.1","generated":"2026-05-09"},"features":[{"type":"Feature","properties":{"name":"Bulu","name_en":"Bulu","admin_level":"7","osm_id":""},"geometry":{"type":"Polygon","coordinates":[[[110.8357,-7.7671],[110.8333,-7.7703],[110.8331,-7.7738],[110.8312,-7.7744],[110.8291,-7.7678],[110.8301,-7.7633],[110.8258,-7.7609],[110.829,-7.7512],[110.8376,-7.7518],[110.8456,-7.7604],[110.8424,-7.7628],[110.8422,-7.766],[110.836,-7.7627],[110.8347,-7.7663],[110.8357,-7.7671]]]}},{"type":"Feature","properties":{"name":"Gentan","name_en":"Gentan","admin_level":"7","osm_id":""},"geometry":{"type":"Polygon","coordinates":[[[110.8314,-7.7745],[110.8331,-7.7738],[110.8333,-7.7703],[110.8357,-7.7671],[110.8433,-7.7726],[110.8467,-7.7726],[110.8452,-7.776],[110.8458,-7.7787],[110.8503,-7.7827],[110.8414,-7.7952],[110.8417,-7.7979],[110.8397,-7.8013],[110.8378,-7.7976],[110.8318,-7.7954],[110.8277,-7.7867],[110.8269,-7.7837],[110.8303,-7.78],[110.8314,-7.7745]]]}},{"type":"Feature","properties":{"name":"Kamal","name_en":"Kamal","admin_level":"7","osm_id":""},"geometry":{"type":"Polygon","coordinates":[[[110.8291,-7.7678],[110.8316,-7.7762],[110.8278,-7.7833],[110.8079,-7.7765],[110.8071,-7.7623],[110.8086,-7.7649],[110.8291,-7.7678]]]}},{"type":"Feature","properties":{"name":"Karangasem","name_en":"Karangasem","admin_level":"7","osm_id":""},"geometry":{"type":"Polygon","coordinates":[[[110.8456,-7.7604],[110.8376,-7.7519],[110.8394,-7.7487],[110.8441,-7.7496],[110.8501,-7.747],[110.8486,-7.752],[110.8514,-7.7555],[110.8537,-7.7535],[110.8541,-7.7479],[110.86,-7.7468],[110.8616,-7.7484],[110.8638,-7.7562],[110.8602,-7.7592],[110.8625,-7.7661],[110.8598,-7.7662],[110.8588,-7.7685],[110.8567,-7.7676],[110.8537,-7.7628],[110.8456,-7.7604]]]}},{"type":"Feature","properties":{"name":"Kedungsono","name_en":"Kedungsono","admin_level":"7","osm_id":""},"geometry":{"type":"Polygon","coordinates":[[[110.8416,-7.7983],[110.8414,-7.7952],[110.8492,-7.7832],[110.856,-7.7865],[110.8601,-7.7962],[110.8558,-7.8014],[110.8575,-7.8084],[110.8567,-7.8118],[110.85,-7.8152],[110.8461,-7.8133],[110.8408,-7.8054],[110.8416,-7.7983]]]}},{"type":"Feature","properties":{"name":"Kunden","name_en":"Kunden","admin_level":"7","osm_id":""},"geometry":{"type":"Polygon","coordinates":[[[110.829,-7.7512],[110.8258,-7.7609],[110.8301,-7.7633],[110.8288,-7.7679],[110.8241,-7.7676],[110.825,-7.7665],[110.8229,-7.766],[110.8086,-7.7649],[110.8071,-7.7623],[110.8079,-7.7591],[110.8151,-7.7547],[110.8179,-7.7475],[110.829,-7.7512]]]}},{"type":"Feature","properties":{"name":"Lengking","name_en":"Lengking","admin_level":"7","osm_id":""},"geometry":{"type":"Polygon","coordinates":[[[110.8177,-7.7435],[110.8157,-7.7391],[110.8115,-7.7363],[110.8122,-7.7325],[110.806,-7.7306],[110.8064,-7.7278],[110.822,-7.7323],[110.8242,-7.7278],[110.8314,-7.7265],[110.8313,-7.7306],[110.8279,-7.7346],[110.8312,-7.7347],[110.8305,-7.7392],[110.8202,-7.7372],[110.8194,-7.7421],[110.8177,-7.7435]]]}},{"type":"Feature","properties":{"name":"Malangan","name_en":"Malangan","admin_level":"7","osm_id":""},"geometry":{"type":"Polygon","coordinates":[[[110.806,-7.7306],[110.8122,-7.7325],[110.8115,-7.7363],[110.8157,-7.7391],[110.8175,-7.7444],[110.8057,-7.7437],[110.8048,-7.7476],[110.8004,-7.7471],[110.7998,-7.7403],[110.7981,-7.7398],[110.801,-7.7375],[110.7992,-7.7328],[110.8015,-7.731],[110.8012,-7.7291],[110.806,-7.7306]]]}},{"type":"Feature","properties":{"name":"Ngasinan","name_en":"Ngasinan","admin_level":"7","osm_id":""},"geometry":{"type":"Polygon","coordinates":[[[110.8376,-7.7518],[110.8322,-7.7519],[110.8179,-7.7475],[110.8177,-7.7437],[110.8194,-7.7421],[110.8202,-7.7372],[110.8304,-7.7393],[110.8315,-7.7334],[110.833,-7.7332],[110.8376,-7.7424],[110.8423,-7.7403],[110.8455,-7.745],[110.8474,-7.7418],[110.8509,-7.7429],[110.8501,-7.747],[110.8441,-7.7496],[110.8394,-7.7487],[110.8376,-7.7518]]]}},{"type":"Feature","properties":{"name":"Puron","name_en":"Puron","admin_level":"7","osm_id":""},"geometry":{"type":"Polygon","coordinates":[[[110.8179,-7.7475],[110.8151,-7.7547],[110.8101,-7.7582],[110.8035,-7.7581],[110.8029,-7.7608],[110.7987,-7.7583],[110.8001,-7.7543],[110.8018,-7.7542],[110.7995,-7.7511],[110.8004,-7.7471],[110.8048,-7.7476],[110.8057,-7.7437],[110.8177,-7.7437],[110.8179,-7.7475]]]}},{"type":"Feature","properties":{"name":"Sanggang","name_en":"Sanggang","admin_level":"7","osm_id":""},"geometry":{"type":"Polygon","coordinates":[[[110.8269,-7.7837],[110.832,-7.7938],[110.8312,-7.7961],[110.8271,-7.7973],[110.8258,-7.7946],[110.8147,-7.7941],[110.8097,-7.791],[110.8013,-7.7922],[110.8019,-7.7897],[110.7946,-7.7853],[110.7906,-7.7815],[110.7908,-7.7801],[110.7891,-7.7803],[110.7884,-7.7772],[110.7928,-7.7714],[110.7916,-7.7688],[110.7926,-7.7659],[110.8014,-7.7721],[110.8051,-7.773],[110.8088,-7.7777],[110.8153,-7.7782],[110.8269,-7.7837]]]}},{"type":"Feature","properties":{"name":"Tiyaran","name_en":"Tiyaran","admin_level":"7","osm_id":""},"geometry":{"type":"Polygon","coordinates":[[[110.8357,-7.7671],[110.8347,-7.7663],[110.836,-7.7627],[110.8422,-7.766],[110.8424,-7.7628],[110.8456,-7.7604],[110.8554,-7.7642],[110.8593,-7.7697],[110.8568,-7.776],[110.8582,-7.7802],[110.8547,-7.7847],[110.856,-7.7865],[110.8458,-7.7787],[110.8452,-7.776],[110.8467,-7.7726],[110.8433,-7.7726],[110.8357,-7.7671]]]}}]}