{"type":"FeatureCollection","metadata":{"parent_osm_id":"gid_IDN_21_19_22_1","parent_name":"Wulawaijelu","parent_name_1":"NusaTenggaraTimur","parent_gid":"IDN.21.19.22_1","parent_level":"6","child_level":"7","count":7,"source":"GADM 4.1","generated":"2026-05-09"},"features":[{"type":"Feature","properties":{"name":"Hadakamali","name_en":"Hadakamali","admin_level":"7","osm_id":""},"geometry":{"type":"Polygon","coordinates":[[[120.6073,-10.2533],[120.5887,-10.2506],[120.5709,-10.2394],[120.5509,-10.238],[120.5523,-10.2371],[120.5526,-10.233],[120.5488,-10.2264],[120.55,-10.2196],[120.554,-10.2224],[120.5625,-10.2238],[120.5739,-10.2219],[120.5826,-10.2186],[120.5864,-10.2114],[120.5966,-10.2067],[120.5982,-10.2038],[120.6057,-10.2034],[120.6064,-10.2162],[120.6049,-10.2307],[120.6073,-10.2533]]]}},{"type":"Feature","properties":{"name":"LaTena","name_en":"LaTena","admin_level":"7","osm_id":""},"geometry":{"type":"Polygon","coordinates":[[[120.5149,-10.2096],[120.5301,-10.2054],[120.5304,-10.2077],[120.5326,-10.2084],[120.5319,-10.2134],[120.5358,-10.2141],[120.5406,-10.2099],[120.5443,-10.216],[120.5441,-10.2186],[120.5391,-10.2204],[120.5351,-10.2251],[120.5347,-10.2235],[120.533,-10.2249],[120.5256,-10.2232],[120.5173,-10.2168],[120.5149,-10.2096]]]}},{"type":"Feature","properties":{"name":"LaiPandak","name_en":"LaiPandak","admin_level":"7","osm_id":""},"geometry":{"type":"Polygon","coordinates":[[[120.5015,-10.1902],[120.5013,-10.1801],[120.5111,-10.172],[120.5106,-10.1699],[120.5138,-10.1669],[120.5218,-10.1646],[120.5239,-10.1705],[120.5214,-10.1748],[120.5274,-10.1818],[120.5286,-10.1859],[120.5327,-10.1876],[120.5323,-10.1903],[120.5376,-10.1967],[120.5423,-10.2],[120.5415,-10.2089],[120.5358,-10.2141],[120.5317,-10.2132],[120.5326,-10.2085],[120.5304,-10.2077],[120.5301,-10.2054],[120.5149,-10.2096],[120.5099,-10.2045],[120.5091,-10.2002],[120.5015,-10.1902]]]}},{"type":"Feature","properties":{"name":"Lainjanji","name_en":"Lainjanji","admin_level":"7","osm_id":""},"geometry":{"type":"Polygon","coordinates":[[[120.4898,-10.18],[120.5052,-10.1942],[120.5092,-10.2005],[120.5099,-10.2045],[120.5142,-10.2077],[120.5173,-10.2168],[120.5256,-10.2232],[120.5235,-10.2325],[120.5287,-10.2365],[120.5296,-10.2396],[120.5324,-10.2389],[120.5323,-10.2399],[120.5171,-10.2473],[120.5134,-10.2565],[120.5058,-10.2557],[120.5003,-10.2589],[120.4856,-10.263],[120.479,-10.2741],[120.4784,-10.2872],[120.4751,-10.2927],[120.473,-10.3019],[120.4687,-10.306],[120.4637,-10.3054],[120.4571,-10.3088],[120.4542,-10.3126],[120.4541,-10.3171],[120.452,-10.309],[120.4488,-10.3049],[120.4476,-10.2974],[120.4423,-10.2936],[120.441,-10.282],[120.4362,-10.2739],[120.4383,-10.2578],[120.4344,-10.2517],[120.4349,-10.2468],[120.4293,-10.2448],[120.4239,-10.2304],[120.4227,-10.222],[120.4302,-10.2111],[120.4307,-10.208],[120.4304,-10.2039],[120.4232,-10.2],[120.4257,-10.1961],[120.433,-10.1906],[120.4345,-10.1922],[120.4411,-10.1909],[120.4452,-10.1942],[120.4478,-10.194],[120.4493,-10.1918],[120.4511,-10.1923],[120.4517,-10.1907],[120.4536,-10.1933],[120.454,-10.1911],[120.4561,-10.1928],[120.4565,-10.1906],[120.4587,-10.19],[120.4579,-10.1884],[120.4599,-10.189],[120.4598,-10.1868],[120.4622,-10.19],[120.4632,-10.1889],[120.4677,-10.1919],[120.467,-10.1892],[120.4682,-10.1882],[120.47,-10.1904],[120.4713,-10.1885],[120.4746,-10.1901],[120.4787,-10.1866],[120.4852,-10.1851],[120.4898,-10.18]]]}},{"type":"Feature","properties":{"name":"LumbuManggit","name_en":"LumbuManggit","admin_level":"7","osm_id":""},"geometry":{"type":"Polygon","coordinates":[[[120.55,-10.2196],[120.5488,-10.2264],[120.5526,-10.233],[120.5523,-10.2371],[120.5509,-10.238],[120.5301,-10.2398],[120.5287,-10.2365],[120.5235,-10.2325],[120.5256,-10.2232],[120.533,-10.2249],[120.5347,-10.2235],[120.5351,-10.2251],[120.5391,-10.2204],[120.5453,-10.2178],[120.55,-10.2196]]]}},{"type":"Feature","properties":{"name":"Paranda","name_en":"Paranda","admin_level":"7","osm_id":""},"geometry":{"type":"Polygon","coordinates":[[[120.5218,-10.1646],[120.5296,-10.1566],[120.5348,-10.1538],[120.5398,-10.1542],[120.5402,-10.1563],[120.5419,-10.1555],[120.542,-10.1571],[120.5464,-10.1579],[120.5469,-10.1593],[120.5515,-10.1578],[120.5525,-10.1601],[120.5625,-10.1575],[120.5699,-10.159],[120.5803,-10.164],[120.5866,-10.1651],[120.5971,-10.1738],[120.6025,-10.1823],[120.6059,-10.1823],[120.6102,-10.1862],[120.6107,-10.1847],[120.615,-10.1961],[120.6112,-10.202],[120.5982,-10.2038],[120.5966,-10.2067],[120.5871,-10.2107],[120.5816,-10.2193],[120.5664,-10.224],[120.554,-10.2224],[120.549,-10.2182],[120.544,-10.2184],[120.5443,-10.216],[120.5406,-10.2099],[120.5425,-10.2003],[120.5376,-10.1967],[120.5323,-10.1903],[120.5327,-10.1876],[120.5286,-10.1859],[120.5274,-10.1818],[120.5214,-10.1748],[120.5239,-10.1705],[120.5218,-10.1646]]]}},{"type":"Feature","properties":{"name":"WULA","name_en":"WULA","admin_level":"7","osm_id":""},"geometry":{"type":"Polygon","coordinates":[[[120.635,-10.1883],[120.6338,-10.1891],[120.6363,-10.1934],[120.6372,-10.1999],[120.6439,-10.2081],[120.6438,-10.2159],[120.6462,-10.2276],[120.6479,-10.2283],[120.6403,-10.2289],[120.6357,-10.2315],[120.6294,-10.2377],[120.6246,-10.2474],[120.62,-10.2508],[120.6073,-10.2533],[120.6049,-10.2307],[120.6064,-10.2162],[120.6057,-10.2034],[120.6069,-10.202],[120.6077,-10.203],[120.6113,-10.2019],[120.615,-10.1961],[120.6122,-10.1898],[120.6156,-10.184],[120.6143,-10.1808],[120.621,-10.1809],[120.6228,-10.1795],[120.6269,-10.1809],[120.6317,-10.183],[120.632,-10.1861],[120.635,-10.1883]]]}}]}