{"type":"FeatureCollection","metadata":{"parent_osm_id":"gid_IDN_32_18_1_1","parent_name":"Amandraya","parent_name_1":"SumateraUtara","parent_gid":"IDN.32.18.1_1","parent_level":"6","child_level":"7","count":13,"source":"GADM 4.1","generated":"2026-05-09"},"features":[{"type":"Feature","properties":{"name":"Fondrakoraya","name_en":"Fondrakoraya","admin_level":"7","osm_id":""},"geometry":{"type":"Polygon","coordinates":[[[97.6907,0.7847],[97.6874,0.7787],[97.6813,0.7837],[97.6741,0.7855],[97.6708,0.789],[97.6727,0.796],[97.6814,0.8031],[97.6801,0.8107],[97.6775,0.8153],[97.6775,0.8212],[97.6806,0.8319],[97.6797,0.8383],[97.6851,0.8431],[97.687,0.8515],[97.6947,0.8547],[97.7076,0.856],[97.7098,0.8542],[97.7113,0.845],[97.7144,0.8416],[97.7189,0.8406],[97.7199,0.8376],[97.7252,0.8358],[97.727,0.8275],[97.7186,0.8295],[97.7148,0.8258],[97.711,0.8277],[97.7104,0.8264],[97.706,0.8267],[97.7073,0.8161],[97.706,0.8147],[97.7084,0.8099],[97.7024,0.8048],[97.6968,0.8032],[97.6934,0.8003],[97.6903,0.7924],[97.6907,0.7847]]]}},{"type":"Feature","properties":{"name":"Hilifadolo","name_en":"Hilifadolo","admin_level":"7","osm_id":""},"geometry":{"type":"Polygon","coordinates":[[[97.6874,0.7787],[97.6907,0.7847],[97.6951,0.78],[97.7014,0.7809],[97.7001,0.7684],[97.6897,0.7725],[97.6847,0.7655],[97.6802,0.7719],[97.6874,0.7787]]]}},{"type":"Feature","properties":{"name":"Hilihoru","name_en":"Hilihoru","admin_level":"7","osm_id":""},"geometry":{"type":"Polygon","coordinates":[[[97.686,0.6351],[97.6805,0.641],[97.6709,0.659],[97.667,0.6626],[97.6675,0.6669],[97.6619,0.6756],[97.6615,0.6798],[97.6772,0.6797],[97.685,0.6841],[97.6937,0.6774],[97.6974,0.6793],[97.6966,0.6831],[97.7044,0.6879],[97.7041,0.6838],[97.7076,0.6812],[97.7065,0.6782],[97.7083,0.6743],[97.7071,0.672],[97.7123,0.6694],[97.7137,0.6642],[97.7111,0.6627],[97.7134,0.6617],[97.7096,0.6603],[97.7098,0.659],[97.7074,0.6609],[97.7066,0.6597],[97.7034,0.6601],[97.7033,0.6624],[97.7012,0.661],[97.703,0.6601],[97.7001,0.6599],[97.6984,0.6544],[97.6957,0.6532],[97.6963,0.6463],[97.6909,0.6461],[97.6935,0.6422],[97.6979,0.6424],[97.6999,0.6404],[97.6937,0.6401],[97.689,0.6426],[97.6912,0.6393],[97.6912,0.6349],[97.688,0.6376],[97.686,0.6351]]]}},{"type":"Feature","properties":{"name":"Hilimbowo","name_en":"Hilimbowo","admin_level":"7","osm_id":""},"geometry":{"type":"Polygon","coordinates":[[[97.6641,0.7047],[97.6586,0.7132],[97.6522,0.7141],[97.6533,0.7204],[97.6558,0.7225],[97.6557,0.7257],[97.6648,0.7273],[97.6708,0.7319],[97.6746,0.73],[97.687,0.733],[97.6909,0.7285],[97.6925,0.7283],[97.6932,0.7304],[97.6966,0.7289],[97.6989,0.7237],[97.7015,0.7249],[97.7024,0.7222],[97.7004,0.7227],[97.6954,0.7174],[97.6783,0.7078],[97.6641,0.7047]]]}},{"type":"Feature","properties":{"name":"Hilimbulawa","name_en":"Hilimbulawa","admin_level":"7","osm_id":""},"geometry":{"type":"Polygon","coordinates":[[[97.7044,0.6879],[97.6966,0.6831],[97.6974,0.6793],[97.6937,0.6774],[97.685,0.6841],[97.6772,0.6797],[97.6615,0.6798],[97.6627,0.6831],[97.667,0.6853],[97.6682,0.688],[97.6661,0.7008],[97.6641,0.7047],[97.6714,0.7056],[97.6752,0.7079],[97.6776,0.7054],[97.6767,0.701],[97.6803,0.6997],[97.6934,0.7039],[97.6964,0.7066],[97.7005,0.7043],[97.7021,0.706],[97.7062,0.7056],[97.7066,0.7042],[97.7122,0.7026],[97.7123,0.7009],[97.7155,0.7006],[97.7176,0.6986],[97.718,0.6947],[97.7078,0.688],[97.7044,0.6879]]]}},{"type":"Feature","properties":{"name":"Lolomoyo","name_en":"Lolomoyo","admin_level":"7","osm_id":""},"geometry":{"type":"Polygon","coordinates":[[[97.6727,0.796],[97.6706,0.7905],[97.6724,0.7868],[97.6813,0.7837],[97.6874,0.7787],[97.6774,0.769],[97.6585,0.7612],[97.6469,0.7572],[97.6452,0.759],[97.6366,0.7587],[97.6355,0.7615],[97.6414,0.7666],[97.6388,0.7797],[97.6347,0.7836],[97.6442,0.7868],[97.6496,0.7866],[97.6561,0.7839],[97.6727,0.796]]]}},{"type":"Feature","properties":{"name":"Lolozaria","name_en":"Lolozaria","admin_level":"7","osm_id":""},"geometry":{"type":"Polygon","coordinates":[[[97.687,0.733],[97.6746,0.73],[97.6708,0.7319],[97.6648,0.7273],[97.6557,0.7257],[97.6496,0.7323],[97.6553,0.7382],[97.6553,0.7424],[97.6483,0.7515],[97.6469,0.7572],[97.6585,0.7612],[97.6622,0.7521],[97.6698,0.7524],[97.6728,0.7486],[97.6758,0.7478],[97.6757,0.7445],[97.6788,0.7439],[97.6798,0.7401],[97.6838,0.7398],[97.6829,0.7369],[97.687,0.733]]]}},{"type":"Feature","properties":{"name":"OrahiliEho","name_en":"OrahiliEho","admin_level":"7","osm_id":""},"geometry":{"type":"Polygon","coordinates":[[[97.6847,0.7655],[97.6897,0.7725],[97.7083,0.7639],[97.6986,0.7582],[97.6988,0.7548],[97.6938,0.7543],[97.6906,0.752],[97.6814,0.7601],[97.6803,0.7637],[97.6847,0.7655]]]}},{"type":"Feature","properties":{"name":"RambaRamba","name_en":"RambaRamba","admin_level":"7","osm_id":""},"geometry":{"type":"Polygon","coordinates":[[[97.6907,0.7847],[97.6915,0.7874],[97.69,0.7899],[97.6919,0.7978],[97.6951,0.8023],[97.6994,0.8044],[97.7025,0.805],[97.7098,0.8019],[97.7211,0.7941],[97.7164,0.7908],[97.7106,0.7896],[97.7076,0.7869],[97.7079,0.7852],[97.7014,0.7809],[97.6951,0.78],[97.6907,0.7847]]]}},{"type":"Feature","properties":{"name":"Sifaoroasi","name_en":"Sifaoroasi","admin_level":"7","osm_id":""},"geometry":{"type":"Polygon","coordinates":[[[97.7082,0.6706],[97.7065,0.6782],[97.7076,0.6812],[97.7041,0.6838],[97.7044,0.688],[97.7078,0.688],[97.7175,0.6936],[97.718,0.6959],[97.7221,0.6949],[97.7238,0.6961],[97.7264,0.69],[97.7324,0.6876],[97.7335,0.685],[97.7307,0.6833],[97.7313,0.6821],[97.728,0.6828],[97.724,0.6805],[97.7224,0.6813],[97.7195,0.6789],[97.7179,0.6802],[97.7153,0.6776],[97.716,0.6753],[97.7139,0.6745],[97.7153,0.6728],[97.7131,0.6728],[97.7133,0.671],[97.7094,0.6721],[97.7082,0.6706]]]}},{"type":"Feature","properties":{"name":"SisarahiliSusua","name_en":"SisarahiliSusua","admin_level":"7","osm_id":""},"geometry":{"type":"Polygon","coordinates":[[[97.7025,0.805],[97.7084,0.8099],[97.706,0.8147],[97.7073,0.8161],[97.706,0.8267],[97.7104,0.8264],[97.711,0.8277],[97.7148,0.8258],[97.7186,0.8295],[97.727,0.8275],[97.726,0.8211],[97.7221,0.8164],[97.7228,0.8123],[97.7204,0.8119],[97.7211,0.8095],[97.7193,0.8075],[97.7228,0.7951],[97.7194,0.7942],[97.7098,0.8019],[97.7025,0.805]]]}},{"type":"Feature","properties":{"name":"Sisobahili","name_en":"Sisobahili","admin_level":"7","osm_id":""},"geometry":{"type":"Polygon","coordinates":[[[97.7001,0.7684],[97.7014,0.7809],[97.7079,0.7852],[97.7096,0.7781],[97.7111,0.7768],[97.7148,0.7775],[97.7209,0.7731],[97.7197,0.7718],[97.7217,0.7658],[97.7205,0.7604],[97.7176,0.7583],[97.7127,0.7456],[97.7092,0.745],[97.7095,0.7366],[97.7046,0.7334],[97.7039,0.7361],[97.6903,0.7494],[97.6906,0.752],[97.6938,0.7543],[97.6988,0.7548],[97.6986,0.7582],[97.7083,0.7639],[97.7001,0.7684]]]}},{"type":"Feature","properties":{"name":"Tuindrao","name_en":"Tuindrao","admin_level":"7","osm_id":""},"geometry":{"type":"Polygon","coordinates":[[[97.6802,0.7719],[97.6847,0.7655],[97.6803,0.7637],[97.6814,0.7601],[97.6865,0.7564],[97.687,0.7541],[97.6906,0.752],[97.6903,0.7494],[97.7039,0.7361],[97.7046,0.7334],[97.6996,0.7303],[97.6976,0.7269],[97.6932,0.7304],[97.6925,0.7283],[97.6881,0.7306],[97.6829,0.7369],[97.6838,0.7398],[97.6798,0.7401],[97.6788,0.7439],[97.6757,0.7445],[97.6758,0.7478],[97.6728,0.7486],[97.6698,0.7524],[97.6622,0.7521],[97.659,0.76],[97.6585,0.7613],[97.6774,0.769],[97.6802,0.7719]]]}}]}