{"type":"FeatureCollection","metadata":{"parent_osm_id":"gid_IDN_1_10_5_1","parent_name":"DarulIhsan","parent_name_1":"Aceh","parent_gid":"IDN.1.10.5_1","parent_level":"6","child_level":"7","count":16,"source":"GADM 4.1","generated":"2026-05-09"},"features":[{"type":"Feature","properties":{"name":"AlueJangat","name_en":"AlueJangat","admin_level":"7","osm_id":""},"geometry":{"type":"Polygon","coordinates":[[[97.7562,4.9352],[97.756,4.9307],[97.7517,4.9261],[97.7449,4.9269],[97.748,4.9319],[97.7452,4.9343],[97.7467,4.9339],[97.7502,4.9365],[97.754,4.9339],[97.7533,4.9369],[97.7562,4.9352]]]}},{"type":"Feature","properties":{"name":"BuketPeulawi","name_en":"BuketPeulawi","admin_level":"7","osm_id":""},"geometry":{"type":"Polygon","coordinates":[[[97.7722,4.9345],[97.766,4.9245],[97.7642,4.9226],[97.761,4.9261],[97.762,4.9296],[97.7658,4.9342],[97.773,4.9389],[97.7722,4.9345]]]}},{"type":"Feature","properties":{"name":"GunongPutoh","name_en":"GunongPutoh","admin_level":"7","osm_id":""},"geometry":{"type":"Polygon","coordinates":[[[97.766,4.9245],[97.7722,4.9345],[97.7835,4.9293],[97.7842,4.9271],[97.7788,4.9252],[97.7747,4.9265],[97.766,4.9245]]]}},{"type":"Feature","properties":{"name":"KeudeDua","name_en":"KeudeDua","admin_level":"7","osm_id":""},"geometry":{"type":"Polygon","coordinates":[[[97.7517,4.9261],[97.756,4.9307],[97.7562,4.9352],[97.7575,4.9361],[97.7596,4.9345],[97.7616,4.9367],[97.7658,4.9342],[97.7584,4.9226],[97.7541,4.9234],[97.7517,4.9261]]]}},{"type":"Feature","properties":{"name":"KhokPanjou","name_en":"KhokPanjou","admin_level":"7","osm_id":""},"geometry":{"type":"Polygon","coordinates":[[[97.7449,4.9269],[97.7517,4.9261],[97.7514,4.9231],[97.7437,4.9169],[97.7413,4.9213],[97.7449,4.9269]]]}},{"type":"Feature","properties":{"name":"LhokDalam","name_en":"LhokDalam","admin_level":"7","osm_id":""},"geometry":{"type":"Polygon","coordinates":[[[97.7436,4.9119],[97.7471,4.9127],[97.7488,4.9098],[97.7483,4.9042],[97.7389,4.901],[97.7436,4.9119]]]}},{"type":"Feature","properties":{"name":"LhokLeumak","name_en":"LhokLeumak","admin_level":"7","osm_id":""},"geometry":{"type":"Polygon","coordinates":[[[97.7385,4.8657],[97.7369,4.8713],[97.7394,4.8831],[97.7424,4.8855],[97.7424,4.8874],[97.7481,4.8908],[97.7565,4.8991],[97.7565,4.9044],[97.7602,4.905],[97.7633,4.8967],[97.7669,4.8917],[97.7702,4.8898],[97.7695,4.8686],[97.7592,4.8645],[97.7538,4.8689],[97.7385,4.8657]]]}},{"type":"Feature","properties":{"name":"LhokMeureu","name_en":"LhokMeureu","admin_level":"7","osm_id":""},"geometry":{"type":"Polygon","coordinates":[[[97.7565,4.9044],[97.7565,4.8991],[97.7481,4.8908],[97.7424,4.8874],[97.7398,4.8889],[97.7395,4.892],[97.7512,4.8998],[97.7514,4.9081],[97.7548,4.912],[97.7572,4.9119],[97.7565,4.9044]]]}},{"type":"Feature","properties":{"name":"MedangAra","name_en":"MedangAra","admin_level":"7","osm_id":""},"geometry":{"type":"Polygon","coordinates":[[[97.761,4.9261],[97.7649,4.9203],[97.7572,4.9119],[97.7548,4.912],[97.7592,4.9199],[97.7584,4.9226],[97.761,4.9261]]]}},{"type":"Feature","properties":{"name":"MeunasahAron","name_en":"MeunasahAron","admin_level":"7","osm_id":""},"geometry":{"type":"Polygon","coordinates":[[[97.7517,4.9261],[97.7541,4.9234],[97.7535,4.9215],[97.7495,4.9184],[97.7471,4.9127],[97.7436,4.9119],[97.7448,4.9145],[97.7437,4.9169],[97.7514,4.9231],[97.7517,4.9261]]]}},{"type":"Feature","properties":{"name":"Pt.Meureubo","name_en":"Pt.Meureubo","admin_level":"7","osm_id":""},"geometry":{"type":"Polygon","coordinates":[[[97.7702,4.8898],[97.7669,4.8917],[97.7633,4.8967],[97.7616,4.9039],[97.7592,4.9054],[97.7565,4.9044],[97.7572,4.9119],[97.7603,4.9164],[97.7721,4.899],[97.7702,4.8898]]]}},{"type":"Feature","properties":{"name":"PuloBlang","name_en":"PuloBlang","admin_level":"7","osm_id":""},"geometry":{"type":"Polygon","coordinates":[[[97.773,4.9389],[97.7658,4.9342],[97.7624,4.9363],[97.7647,4.9476],[97.7733,4.9439],[97.773,4.9389]]]}},{"type":"Feature","properties":{"name":"SeuneubokAcehBaro","name_en":"SeuneubokAcehBaro","admin_level":"7","osm_id":""},"geometry":{"type":"Polygon","coordinates":[[[97.7541,4.9234],[97.7584,4.9226],[97.7592,4.9199],[97.7546,4.9125],[97.75,4.9128],[97.7484,4.915],[97.7495,4.9184],[97.7541,4.9234]]]}},{"type":"Feature","properties":{"name":"SeuneubokKulam","name_en":"SeuneubokKulam","admin_level":"7","osm_id":""},"geometry":{"type":"Polygon","coordinates":[[[97.7603,4.9164],[97.7617,4.9179],[97.7707,4.9173],[97.7772,4.9218],[97.7788,4.9252],[97.7805,4.907],[97.7787,4.9024],[97.7759,4.9023],[97.7721,4.899],[97.7603,4.9164]]]}},{"type":"Feature","properties":{"name":"SeuneubokLapang","name_en":"SeuneubokLapang","admin_level":"7","osm_id":""},"geometry":{"type":"Polygon","coordinates":[[[97.7642,4.9226],[97.7724,4.9262],[97.7788,4.9252],[97.7772,4.9218],[97.7707,4.9173],[97.7617,4.9179],[97.7649,4.9203],[97.7642,4.9226]]]}},{"type":"Feature","properties":{"name":"SeuneubokTeungoh(kdIi)","name_en":"SeuneubokTeungoh(kdIi)","admin_level":"7","osm_id":""},"geometry":{"type":"Polygon","coordinates":[[[97.7389,4.901],[97.7483,4.9042],[97.7488,4.9098],[97.7471,4.9127],[97.7484,4.915],[97.75,4.9128],[97.7546,4.9125],[97.7545,4.9105],[97.7514,4.9081],[97.7512,4.8998],[97.7395,4.892],[97.7389,4.901]]]}}]}