{"type":"FeatureCollection","metadata":{"parent_osm_id":"gid_IDN_23_3_14_1","parent_name":"Manggelum","parent_name_1":"Papua","parent_gid":"IDN.23.3.14_1","parent_level":"6","child_level":"7","count":6,"source":"GADM 4.1","generated":"2026-05-09"},"features":[{"type":"Feature","properties":{"name":"Bayanggop","name_en":"Bayanggop","admin_level":"7","osm_id":""},"geometry":{"type":"Polygon","coordinates":[[[140.655,-5.2427],[140.6505,-5.2671],[140.6394,-5.2806],[140.5989,-5.3076],[140.5679,-5.325],[140.5306,-5.3401],[140.5203,-5.3393],[140.5108,-5.3354],[140.5052,-5.3243],[140.4973,-5.3131],[140.487,-5.3036],[140.4735,-5.3012],[140.46,-5.3084],[140.4544,-5.3018],[140.4534,-5.2962],[140.4544,-5.2912],[140.461,-5.2851],[140.4706,-5.27],[140.4796,-5.2594],[140.4903,-5.2198],[140.655,-5.2427]]]}},{"type":"Feature","properties":{"name":"Burunggop","name_en":"Burunggop","admin_level":"7","osm_id":""},"geometry":{"type":"Polygon","coordinates":[[[140.46,-5.3084],[140.4411,-5.332],[140.4014,-5.3283],[140.3622,-5.3123],[140.3723,-5.2907],[140.3733,-5.2801],[140.3632,-5.2619],[140.3571,-5.2559],[140.3591,-5.2448],[140.3662,-5.2291],[140.3677,-5.2206],[140.3778,-5.2041],[140.4903,-5.2198],[140.4796,-5.2594],[140.4706,-5.27],[140.461,-5.2851],[140.4544,-5.2912],[140.4534,-5.2962],[140.4544,-5.3018],[140.46,-5.3084]]]}},{"type":"Feature","properties":{"name":"Gaguop","name_en":"Gaguop","admin_level":"7","osm_id":""},"geometry":{"type":"Polygon","coordinates":[[[140.3176,-5.3933],[140.3116,-5.3803],[140.3076,-5.3778],[140.2975,-5.3818],[140.2899,-5.3818],[140.2894,-5.3768],[140.2939,-5.3722],[140.2939,-5.3671],[140.2858,-5.3565],[140.2848,-5.3489],[140.2873,-5.3433],[140.2914,-5.3444],[140.298,-5.3423],[140.3015,-5.3363],[140.299,-5.3266],[140.3,-5.313],[140.3172,-5.2973],[140.3192,-5.2927],[140.3172,-5.2856],[140.3182,-5.277],[140.3045,-5.2639],[140.3015,-5.2563],[140.3045,-5.2507],[140.301,-5.2431],[140.2904,-5.233],[140.2883,-5.2082],[140.2985,-5.2036],[140.3067,-5.1942],[140.3778,-5.2041],[140.3677,-5.2206],[140.3662,-5.2291],[140.3591,-5.2448],[140.3571,-5.2559],[140.3632,-5.2619],[140.3733,-5.2801],[140.3723,-5.2907],[140.3622,-5.3123],[140.3551,-5.3179],[140.3405,-5.3255],[140.341,-5.3491],[140.3365,-5.3623],[140.336,-5.3789],[140.3304,-5.387],[140.3176,-5.3933]]]}},{"type":"Feature","properties":{"name":"Kewam","name_en":"Kewam","admin_level":"7","osm_id":""},"geometry":{"type":"Polygon","coordinates":[[[140.4577,-5.4225],[140.4544,-5.429],[140.4425,-5.4378],[140.4266,-5.4425],[140.4139,-5.4485],[140.4067,-5.4416],[140.4104,-5.4403],[140.414,-5.4362],[140.4115,-5.4238],[140.414,-5.4193],[140.4232,-5.4199],[140.4325,-5.417],[140.4513,-5.4189],[140.4577,-5.4225]]]}},{"type":"Feature","properties":{"name":"ManggaTiga","name_en":"ManggaTiga","admin_level":"7","osm_id":""},"geometry":{"type":"Polygon","coordinates":[[[140.3231,-5.4305],[140.3192,-5.4243],[140.3228,-5.4193],[140.3283,-5.4178],[140.3283,-5.4132],[140.3263,-5.4092],[140.3212,-5.4046],[140.3223,-5.3975],[140.3176,-5.3933],[140.3304,-5.387],[140.336,-5.3789],[140.3365,-5.3623],[140.341,-5.3491],[140.3405,-5.3255],[140.3551,-5.3179],[140.3622,-5.3123],[140.4014,-5.3283],[140.3995,-5.348],[140.4034,-5.3727],[140.4123,-5.3933],[140.4178,-5.4196],[140.414,-5.4193],[140.4121,-5.4211],[140.414,-5.4362],[140.4104,-5.4403],[140.4067,-5.4416],[140.4139,-5.4485],[140.396,-5.4575],[140.3821,-5.4595],[140.3603,-5.4595],[140.3544,-5.4544],[140.3322,-5.4441],[140.3231,-5.4305]]]}},{"type":"Feature","properties":{"name":"Manggelum","name_en":"Manggelum","admin_level":"7","osm_id":""},"geometry":{"type":"Polygon","coordinates":[[[140.4411,-5.332],[140.4386,-5.3425],[140.4322,-5.3544],[140.4314,-5.3647],[140.4425,-5.3751],[140.4489,-5.3885],[140.4616,-5.3957],[140.4616,-5.4147],[140.4577,-5.4225],[140.4513,-5.4189],[140.4325,-5.417],[140.4232,-5.4199],[140.4178,-5.4196],[140.4123,-5.3933],[140.4034,-5.3727],[140.3995,-5.348],[140.4014,-5.3283],[140.4411,-5.332]]]}}]}