{"type":"FeatureCollection","metadata":{"parent_osm_id":"gid_IDN_1_10_7_1","parent_name":"IdiTimur","parent_name_1":"Aceh","parent_gid":"IDN.1.10.7_1","parent_level":"6","child_level":"7","count":13,"source":"GADM 4.1","generated":"2026-05-09"},"features":[{"type":"Feature","properties":{"name":"KetapangDua","name_en":"KetapangDua","admin_level":"7","osm_id":""},"geometry":{"type":"Polygon","coordinates":[[[97.7891,4.9222],[97.793,4.9222],[97.7958,4.9259],[97.7949,4.929],[97.7984,4.9322],[97.8031,4.9277],[97.7942,4.9181],[97.7891,4.9222]]]}},{"type":"Feature","properties":{"name":"LhokAsahan","name_en":"LhokAsahan","admin_level":"7","osm_id":""},"geometry":{"type":"Polygon","coordinates":[[[97.779,4.9186],[97.7796,4.9223],[97.782,4.9209],[97.7872,4.9233],[97.7942,4.9181],[97.7992,4.9109],[97.7885,4.915],[97.7873,4.9194],[97.779,4.9186]]]}},{"type":"Feature","properties":{"name":"MatangBungong","name_en":"MatangBungong","admin_level":"7","osm_id":""},"geometry":{"type":"Polygon","coordinates":[[[97.8031,4.9277],[97.8019,4.9288],[97.8073,4.9349],[97.8152,4.9288],[97.8092,4.9223],[97.8031,4.9277]]]}},{"type":"Feature","properties":{"name":"MatangRayeuk(pr)","name_en":"MatangRayeuk(pr)","admin_level":"7","osm_id":""},"geometry":{"type":"Polygon","coordinates":[[[97.7935,4.9453],[97.7934,4.9473],[97.8073,4.9349],[97.8019,4.9288],[97.7937,4.9365],[97.7941,4.9406],[97.7919,4.9408],[97.7937,4.9423],[97.7935,4.9453]]]}},{"type":"Feature","properties":{"name":"MatangRayeuk(smk)","name_en":"MatangRayeuk(smk)","admin_level":"7","osm_id":""},"geometry":{"type":"Polygon","coordinates":[[[97.8092,4.9223],[97.8152,4.9288],[97.823,4.9234],[97.8171,4.9154],[97.8092,4.9223]]]}},{"type":"Feature","properties":{"name":"MenunasahJeumpa","name_en":"MenunasahJeumpa","admin_level":"7","osm_id":""},"geometry":{"type":"Polygon","coordinates":[[[97.7788,4.9252],[97.7842,4.9271],[97.7872,4.9233],[97.782,4.9209],[97.7786,4.9218],[97.7788,4.9252]]]}},{"type":"Feature","properties":{"name":"SeuneubokBarat","name_en":"SeuneubokBarat","admin_level":"7","osm_id":""},"geometry":{"type":"Polygon","coordinates":[[[97.7966,4.8915],[97.7929,4.8916],[97.7898,4.8953],[97.7921,4.899],[97.7981,4.8941],[97.7966,4.8915]]]}},{"type":"Feature","properties":{"name":"SeuneubokDalam(smk)","name_en":"SeuneubokDalam(smk)","admin_level":"7","osm_id":""},"geometry":{"type":"Polygon","coordinates":[[[97.7992,4.9109],[97.807,4.9043],[97.7999,4.8969],[97.7938,4.9031],[97.7992,4.9109]]]}},{"type":"Feature","properties":{"name":"SeuneubokKuyun","name_en":"SeuneubokKuyun","admin_level":"7","osm_id":""},"geometry":{"type":"Polygon","coordinates":[[[97.7701,4.8793],[97.7721,4.8987],[97.79,4.8956],[97.7929,4.8916],[97.7814,4.8834],[97.7774,4.8787],[97.7731,4.8788],[97.7701,4.8767],[97.7701,4.8793]]]}},{"type":"Feature","properties":{"name":"SeuneubokTeungoh(smk)","name_en":"SeuneubokTeungoh(smk)","admin_level":"7","osm_id":""},"geometry":{"type":"Polygon","coordinates":[[[97.798,4.9223],[97.8031,4.9277],[97.8127,4.9192],[97.8027,4.9084],[97.7985,4.9116],[97.8026,4.9157],[97.798,4.9223]]]}},{"type":"Feature","properties":{"name":"SeuneubokTimur","name_en":"SeuneubokTimur","admin_level":"7","osm_id":""},"geometry":{"type":"Polygon","coordinates":[[[97.8127,4.9192],[97.8171,4.9154],[97.807,4.9043],[97.8027,4.9084],[97.8127,4.9192]]]}},{"type":"Feature","properties":{"name":"TualangDalam","name_en":"TualangDalam","admin_level":"7","osm_id":""},"geometry":{"type":"Polygon","coordinates":[[[97.7885,4.915],[97.7992,4.9109],[97.7938,4.9031],[97.7909,4.9059],[97.7907,4.9105],[97.7877,4.9129],[97.7885,4.915]]]}},{"type":"Feature","properties":{"name":"UleeGle","name_en":"UleeGle","admin_level":"7","osm_id":""},"geometry":{"type":"Polygon","coordinates":[[[97.7721,4.8987],[97.7759,4.9023],[97.7787,4.9024],[97.7801,4.9057],[97.7909,4.9059],[97.7999,4.8969],[97.7981,4.8941],[97.7921,4.899],[97.79,4.8956],[97.7721,4.8987]]]}}]}