{"type":"FeatureCollection","metadata":{"parent_osm_id":"gid_IDN_17_2_8_1","parent_name":"KaryaPenggawa","parent_name_1":"Lampung","parent_gid":"IDN.17.2.8_1","parent_level":"6","child_level":"7","count":10,"source":"GADM 4.1","generated":"2026-05-09"},"features":[{"type":"Feature","properties":{"name":"Kebuayan","name_en":"Kebuayan","admin_level":"7","osm_id":""},"geometry":{"type":"Polygon","coordinates":[[[103.9526,-5.0812],[103.9571,-5.0794],[103.9687,-5.0796],[103.9743,-5.0769],[103.9467,-5.113],[103.935,-5.1242],[103.9282,-5.1272],[103.9233,-5.1332],[103.9171,-5.1344],[103.9147,-5.1317],[103.9221,-5.1278],[103.9526,-5.0812]]]}},{"type":"Feature","properties":{"name":"Laay","name_en":"Laay","admin_level":"7","osm_id":""},"geometry":{"type":"Polygon","coordinates":[[[103.9271,-5.1455],[103.9229,-5.1406],[103.9276,-5.1341],[103.9303,-5.1338],[103.9356,-5.1404],[103.9271,-5.1455]]]}},{"type":"Feature","properties":{"name":"Menyancang","name_en":"Menyancang","admin_level":"7","osm_id":""},"geometry":{"type":"Polygon","coordinates":[[[103.9899,-5.0833],[103.9988,-5.0879],[103.984,-5.1019],[103.9738,-5.1175],[103.9655,-5.1243],[103.9446,-5.1491],[103.9434,-5.1537],[103.9454,-5.1551],[103.9416,-5.1567],[103.9403,-5.1546],[103.9333,-5.1574],[103.9326,-5.1553],[103.9365,-5.1507],[103.9406,-5.1486],[103.9899,-5.0833]]]}},{"type":"Feature","properties":{"name":"Penengahan","name_en":"Penengahan","admin_level":"7","osm_id":""},"geometry":{"type":"Polygon","coordinates":[[[103.9839,-5.0816],[103.9869,-5.082],[103.9442,-5.1357],[103.9389,-5.132],[103.9372,-5.1292],[103.9404,-5.1279],[103.9444,-5.1285],[103.9454,-5.1254],[103.9503,-5.1225],[103.9839,-5.0816]]]}},{"type":"Feature","properties":{"name":"PenggawaLimaTengah","name_en":"PenggawaLimaTengah","admin_level":"7","osm_id":""},"geometry":{"type":"Polygon","coordinates":[[[103.9869,-5.082],[103.9899,-5.0833],[103.9406,-5.1486],[103.9365,-5.1507],[103.9326,-5.1553],[103.9271,-5.1455],[103.9303,-5.1424],[103.9442,-5.1357],[103.9869,-5.082]]]}},{"type":"Feature","properties":{"name":"PenggawaLimaUlu","name_en":"PenggawaLimaUlu","admin_level":"7","osm_id":""},"geometry":{"type":"Polygon","coordinates":[[[103.9356,-5.1404],[103.9303,-5.1338],[103.9372,-5.1292],[103.9439,-5.1359],[103.9356,-5.1404]]]}},{"type":"Feature","properties":{"name":"TebakakWaySindi","name_en":"TebakakWaySindi","admin_level":"7","osm_id":""},"geometry":{"type":"Polygon","coordinates":[[[103.8844,-5.0681],[103.8851,-5.0703],[103.8954,-5.0724],[103.9062,-5.0792],[103.8892,-5.1097],[103.883,-5.1109],[103.8804,-5.1089],[103.8762,-5.1131],[103.8722,-5.1125],[103.8667,-5.1104],[103.8632,-5.1018],[103.857,-5.1003],[103.8844,-5.0681]]]}},{"type":"Feature","properties":{"name":"WayNukak","name_en":"WayNukak","admin_level":"7","osm_id":""},"geometry":{"type":"Polygon","coordinates":[[[103.9743,-5.0769],[103.9775,-5.0806],[103.9839,-5.0816],[103.9503,-5.1225],[103.9442,-5.1268],[103.9444,-5.1285],[103.9385,-5.1283],[103.9303,-5.1338],[103.9276,-5.1341],[103.9229,-5.1406],[103.9171,-5.1344],[103.9233,-5.1332],[103.9282,-5.1272],[103.935,-5.1242],[103.9467,-5.113],[103.9743,-5.0769]]]}},{"type":"Feature","properties":{"name":"WaySindi","name_en":"WaySindi","admin_level":"7","osm_id":""},"geometry":{"type":"Polygon","coordinates":[[[103.9062,-5.0792],[103.913,-5.082],[103.9214,-5.076],[103.9311,-5.0811],[103.9442,-5.0839],[103.9483,-5.0839],[103.9526,-5.0812],[103.9221,-5.1278],[103.9147,-5.1317],[103.9122,-5.1278],[103.8952,-5.1188],[103.8929,-5.1156],[103.8862,-5.1174],[103.8812,-5.1129],[103.8838,-5.1105],[103.8894,-5.1094],[103.9062,-5.0792]]]}},{"type":"Feature","properties":{"name":"WaySindiUtara","name_en":"WaySindiUtara","admin_level":"7","osm_id":""},"geometry":{"type":"Polygon","coordinates":[[[103.8727,-5.0584],[103.8812,-5.0688],[103.8844,-5.0681],[103.8568,-5.1005],[103.854,-5.0984],[103.852,-5.092],[103.8437,-5.0826],[103.8433,-5.0758],[103.8578,-5.0707],[103.8727,-5.0584]]]}}]}