{"type":"FeatureCollection","metadata":{"parent_osm_id":"gid_IDN_31_7_8_1","parent_name":"MuaraLakitan","parent_name_1":"SumateraSelatan","parent_gid":"IDN.31.7.8_1","parent_level":"6","child_level":"7","count":20,"source":"GADM 4.1","generated":"2026-05-08"},"features":[{"type":"Feature","properties":{"name":"Anyar","name_en":"Anyar","admin_level":"7","osm_id":""},"geometry":{"type":"Polygon","coordinates":[[[103.3078,-2.9471],[103.3247,-2.9338],[103.3457,-2.9352],[103.3457,-2.9368],[103.3483,-2.9371],[103.3484,-2.94],[103.3508,-2.9404],[103.3512,-2.9442],[103.3566,-2.9443],[103.3617,-2.953],[103.3623,-2.9823],[103.3595,-2.9841],[103.3549,-2.9839],[103.353,-2.983],[103.3521,-2.9799],[103.3412,-2.9775],[103.3207,-2.9552],[103.3237,-2.9493],[103.3078,-2.9471]]]}},{"type":"Feature","properties":{"name":"BumiMakmur","name_en":"BumiMakmur","admin_level":"7","osm_id":""},"geometry":{"type":"Polygon","coordinates":[[[103.4839,-3.304],[103.4846,-3.2988],[103.489,-3.2958],[103.4876,-3.2936],[103.487,-3.2951],[103.4857,-3.2946],[103.4839,-3.2902],[103.482,-3.2904],[103.4834,-3.2878],[103.48,-3.2871],[103.481,-3.2833],[103.4792,-3.2819],[103.486,-3.2778],[103.4888,-3.2784],[103.4901,-3.2759],[103.4893,-3.2718],[103.4928,-3.2687],[103.4904,-3.2649],[103.4934,-3.2663],[103.4915,-3.2619],[103.4934,-3.2613],[103.4922,-3.2558],[103.495,-3.254],[103.4953,-3.2516],[103.4953,-3.248],[103.4937,-3.2479],[103.4925,-3.2449],[103.4942,-3.2399],[103.4908,-3.2364],[103.492,-3.233],[103.4877,-3.2345],[103.4881,-3.2318],[103.4862,-3.2305],[103.4893,-3.2283],[103.4899,-3.225],[103.4908,-3.2246],[103.4908,-3.2268],[103.4938,-3.2235],[103.4959,-3.2238],[103.4955,-3.2215],[103.5012,-3.2225],[103.5042,-3.2204],[103.5069,-3.2249],[103.5126,-3.2276],[103.514,-3.2315],[103.5223,-3.2349],[103.5306,-3.2486],[103.538,-3.2542],[103.5386,-3.2627],[103.546,-3.2717],[103.547,-3.2834],[103.5505,-3.288],[103.554,-3.2893],[103.5526,-3.3031],[103.5442,-3.3121],[103.5445,-3.3148],[103.5401,-3.3209],[103.5377,-3.3207],[103.5359,-3.3164],[103.5326,-3.3163],[103.5306,-3.3143],[103.5278,-3.315],[103.5273,-3.3133],[103.5225,-3.3164],[103.5214,-3.3151],[103.5142,-3.3165],[103.5087,-3.3091],[103.5079,-3.3109],[103.5066,-3.309],[103.5017,-3.31],[103.5009,-3.3072],[103.4972,-3.3066],[103.4959,-3.3044],[103.4926,-3.3042],[103.4918,-3.3058],[103.4879,-3.3069],[103.4856,-3.3038],[103.4839,-3.304]]]}},{"type":"Feature","properties":{"name":"HarapanMakmur","name_en":"HarapanMakmur","admin_level":"7","osm_id":""},"geometry":{"type":"Polygon","coordinates":[[[103.4792,-3.2827],[103.481,-3.2833],[103.48,-3.2871],[103.4834,-3.2878],[103.482,-3.2904],[103.4839,-3.2902],[103.4857,-3.2946],[103.487,-3.2951],[103.4876,-3.2936],[103.489,-3.2958],[103.4846,-3.2988],[103.4847,-3.3029],[103.482,-3.3044],[103.4796,-3.3106],[103.4805,-3.3118],[103.4783,-3.3131],[103.4791,-3.323],[103.4827,-3.3269],[103.4776,-3.3425],[103.4852,-3.349],[103.4865,-3.3545],[103.4852,-3.3571],[103.488,-3.3588],[103.4911,-3.3653],[103.494,-3.3673],[103.4923,-3.3722],[103.4905,-3.3724],[103.4922,-3.3739],[103.4923,-3.3772],[103.4964,-3.3787],[103.5003,-3.3841],[103.4975,-3.3879],[103.5018,-3.3952],[103.5028,-3.4038],[103.5042,-3.406],[103.5093,-3.409],[103.5133,-3.4089],[103.5163,-3.412],[103.5158,-3.4176],[103.5136,-3.4202],[103.5131,-3.4293],[103.518,-3.4331],[103.5205,-3.4333],[103.518,-3.4406],[103.5151,-3.4437],[103.5167,-3.4442],[103.5151,-3.4473],[103.5197,-3.456],[103.5188,-3.4733],[103.5218,-3.4803],[103.5213,-3.4823],[103.4813,-3.4934],[103.4716,-3.4891],[103.4612,-3.4807],[103.4609,-3.4754],[103.4639,-3.4695],[103.4635,-3.462],[103.4595,-3.4538],[103.4564,-3.4416],[103.4541,-3.4397],[103.4506,-3.4395],[103.438,-3.4488],[103.4337,-3.4504],[103.4296,-3.4492],[103.4277,-3.4367],[103.4305,-3.4365],[103.4306,-3.4247],[103.4331,-3.4217],[103.4305,-3.4215],[103.426,-3.4164],[103.424,-3.4171],[103.4205,-3.4138],[103.4189,-3.4038],[103.4134,-3.401],[103.4157,-3.3942],[103.4136,-3.3908],[103.4144,-3.3872],[103.4114,-3.3861],[103.4139,-3.3831],[103.4097,-3.3785],[103.4088,-3.3709],[103.4067,-3.3718],[103.4066,-3.3703],[103.4048,-3.3738],[103.4024,-3.3704],[103.4003,-3.3712],[103.3965,-3.3683],[103.3965,-3.3623],[103.3995,-3.3615],[103.4005,-3.3572],[103.4057,-3.356],[103.4089,-3.3586],[103.4117,-3.3585],[103.4168,-3.35],[103.4184,-3.352],[103.4184,-3.3481],[103.4218,-3.3484],[103.4436,-3.3382],[103.4476,-3.3287],[103.4459,-3.3198],[103.4492,-3.3144],[103.4558,-3.3139],[103.4593,-3.3087],[103.4622,-3.3078],[103.4657,-3.3008],[103.4642,-3.2981],[103.4656,-3.2959],[103.471,-3.2947],[103.4726,-3.2911],[103.4761,-3.2918],[103.4792,-3.2827]]]}},{"type":"Feature","properties":{"name":"LubukPandan","name_en":"LubukPandan","admin_level":"7","osm_id":""},"geometry":{"type":"Polygon","coordinates":[[[103.0839,-2.8678],[103.0928,-2.8545],[103.1162,-2.859],[103.1303,-2.8528],[103.1345,-2.8534],[103.1341,-2.849],[103.1315,-2.8466],[103.1354,-2.8429],[103.1489,-2.8389],[103.1755,-2.8399],[103.2235,-2.833],[103.2269,-2.8324],[103.2395,-2.8235],[103.231,-2.8422],[103.2336,-2.8512],[103.2392,-2.8549],[103.241,-2.8588],[103.2457,-2.8613],[103.2498,-2.8617],[103.2553,-2.8592],[103.2591,-2.8633],[103.2672,-2.8638],[103.2708,-2.8662],[103.2722,-2.8716],[103.2684,-2.884],[103.2653,-2.8822],[103.2675,-2.88],[103.2635,-2.8807],[103.2617,-2.8826],[103.2616,-2.8864],[103.2633,-2.8879],[103.2674,-2.8875],[103.2674,-2.8897],[103.2656,-2.8908],[103.2612,-2.8884],[103.2636,-2.8913],[103.2624,-2.8943],[103.2587,-2.8929],[103.256,-2.8955],[103.252,-2.8938],[103.2481,-2.8987],[103.2448,-2.8985],[103.2444,-2.9018],[103.2406,-2.9049],[103.2411,-2.9064],[103.2376,-2.911],[103.2362,-2.9165],[103.2348,-2.9164],[103.2318,-2.921],[103.2148,-2.9073],[103.1945,-2.9016],[103.1374,-2.9024],[103.1329,-2.9088],[103.1156,-2.9094],[103.0839,-2.8678]]]}},{"type":"Feature","properties":{"name":"MargaBaru","name_en":"MargaBaru","admin_level":"7","osm_id":""},"geometry":{"type":"Polygon","coordinates":[[[103.0977,-2.8468],[103.1005,-2.8429],[103.1003,-2.8267],[103.1018,-2.8239],[103.101,-2.7821],[103.1207,-2.782],[103.129,-2.7702],[103.1327,-2.7705],[103.1435,-2.7783],[103.1473,-2.7783],[103.1475,-2.8062],[103.1498,-2.8076],[103.1492,-2.8388],[103.1354,-2.8429],[103.1315,-2.8466],[103.1341,-2.849],[103.1345,-2.8534],[103.1303,-2.8528],[103.1162,-2.859],[103.0928,-2.8545],[103.0977,-2.8468]]]}},{"type":"Feature","properties":{"name":"MuaraLakitan","name_en":"MuaraLakitan","admin_level":"7","osm_id":""},"geometry":{"type":"Polygon","coordinates":[[[103.2624,-2.8943],[103.2636,-2.8913],[103.261,-2.8887],[103.2661,-2.8908],[103.2674,-2.8875],[103.2624,-2.8873],[103.2617,-2.8826],[103.2635,-2.8807],[103.2675,-2.88],[103.2656,-2.8828],[103.2678,-2.8842],[103.2691,-2.8832],[103.272,-2.8746],[103.2708,-2.8662],[103.2672,-2.8638],[103.2591,-2.8633],[103.2553,-2.8592],[103.2477,-2.8616],[103.241,-2.8588],[103.2392,-2.8549],[103.2336,-2.8512],[103.231,-2.8422],[103.239,-2.8237],[103.2468,-2.8123],[103.2814,-2.8357],[103.3128,-2.8512],[103.322,-2.8536],[103.3527,-2.8572],[103.3547,-2.8603],[103.3531,-2.8694],[103.3588,-2.8791],[103.3534,-2.8913],[103.3513,-2.8921],[103.3481,-2.8904],[103.3411,-2.8912],[103.3353,-2.8848],[103.334,-2.8799],[103.3314,-2.8783],[103.3301,-2.8751],[103.3276,-2.8751],[103.3233,-2.8713],[103.3191,-2.8737],[103.3107,-2.867],[103.2978,-2.874],[103.2858,-2.8859],[103.2624,-2.8943]]]}},{"type":"Feature","properties":{"name":"MuaraRengas","name_en":"MuaraRengas","admin_level":"7","osm_id":""},"geometry":{"type":"Polygon","coordinates":[[[103.2824,-2.9585],[103.2673,-2.9425],[103.3093,-2.9274],[103.3248,-2.9335],[103.306,-2.9483],[103.2824,-2.9585]]]}},{"type":"Feature","properties":{"name":"MuktiKarya","name_en":"MuktiKarya","admin_level":"7","osm_id":""},"geometry":{"type":"Polygon","coordinates":[[[103.4439,-3.1736],[103.441,-3.169],[103.437,-3.1671],[103.4382,-3.1615],[103.4342,-3.1561],[103.4291,-3.1598],[103.4231,-3.1513],[103.4216,-3.1509],[103.4198,-3.1549],[103.4125,-3.1484],[103.4148,-3.1466],[103.4123,-3.1414],[103.4137,-3.1377],[103.4159,-3.1371],[103.4155,-3.1331],[103.4196,-3.13],[103.4196,-3.124],[103.4136,-3.1262],[103.4129,-3.1241],[103.4161,-3.1194],[103.4139,-3.1166],[103.4184,-3.1155],[103.4148,-3.113],[103.411,-3.1129],[103.4059,-3.1042],[103.4044,-3.1043],[103.4001,-3.111],[103.3994,-3.104],[103.4067,-3.1002],[103.4074,-3.094],[103.4118,-3.0952],[103.4171,-3.0925],[103.416,-3.0906],[103.4191,-3.0868],[103.4286,-3.0814],[103.4321,-3.0773],[103.4371,-3.078],[103.4377,-3.075],[103.4656,-3.0926],[103.518,-3.0865],[103.497,-3.1959],[103.4708,-3.1895],[103.4688,-3.1883],[103.4692,-3.1866],[103.4661,-3.1819],[103.4651,-3.1813],[103.4645,-3.1838],[103.4625,-3.1797],[103.4625,-3.1827],[103.4544,-3.1803],[103.4569,-3.177],[103.4547,-3.1747],[103.4439,-3.1736]]]}},{"type":"Feature","properties":{"name":"PelitaJaya","name_en":"PelitaJaya","admin_level":"7","osm_id":""},"geometry":{"type":"Polygon","coordinates":[[[103.239,-2.8238],[103.2269,-2.8324],[103.1755,-2.8399],[103.1759,-2.8078],[103.184,-2.7567],[103.2024,-2.7558],[103.2117,-2.7572],[103.227,-2.7556],[103.2343,-2.759],[103.2368,-2.7743],[103.239,-2.8238]]]}},{"type":"Feature","properties":{"name":"Pendingan","name_en":"Pendingan","admin_level":"7","osm_id":""},"geometry":{"type":"Polygon","coordinates":[[[103.2999,-2.9862],[103.2993,-2.9799],[103.2962,-2.9755],[103.2924,-2.9751],[103.2866,-2.9715],[103.2829,-2.9733],[103.2799,-2.9725],[103.2773,-2.9617],[103.2788,-2.9597],[103.2822,-2.9595],[103.2854,-2.9627],[103.2942,-2.9663],[103.2982,-2.9661],[103.3032,-2.9614],[103.3091,-2.9618],[103.3136,-2.9691],[103.3139,-3.0002],[103.307,-2.9915],[103.2999,-2.9862]]]}},{"type":"Feature","properties":{"name":"PianJaya","name_en":"PianJaya","admin_level":"7","osm_id":""},"geometry":{"type":"Polygon","coordinates":[[[103.3875,-3.2994],[103.3892,-3.2977],[103.3876,-3.2961],[103.3903,-3.2958],[103.3932,-3.2923],[103.4001,-3.2932],[103.399,-3.2918],[103.4022,-3.2895],[103.4008,-3.2876],[103.4018,-3.2848],[103.3996,-3.2849],[103.4024,-3.2808],[103.4061,-3.2809],[103.4081,-3.2759],[103.4054,-3.2714],[103.4117,-3.2663],[103.4143,-3.2609],[103.4144,-3.264],[103.4167,-3.2628],[103.4434,-3.2678],[103.4475,-3.2708],[103.4485,-3.276],[103.4552,-3.2842],[103.4615,-3.2857],[103.4683,-3.2834],[103.479,-3.2829],[103.4761,-3.2918],[103.4726,-3.2911],[103.471,-3.2947],[103.4656,-3.2959],[103.4642,-3.2981],[103.4657,-3.3008],[103.4622,-3.3078],[103.4593,-3.3087],[103.4558,-3.3139],[103.4512,-3.3133],[103.4491,-3.3152],[103.4454,-3.3141],[103.4416,-3.3154],[103.4311,-3.3131],[103.4208,-3.3143],[103.4152,-3.32],[103.4116,-3.3209],[103.4072,-3.3139],[103.3983,-3.3085],[103.3951,-3.3087],[103.3875,-3.2994]]]}},{"type":"Feature","properties":{"name":"PrabumulihI","name_en":"PrabumulihI","admin_level":"7","osm_id":""},"geometry":{"type":"Polygon","coordinates":[[[103.2712,-2.753],[103.3381,-2.8229],[103.3343,-2.8257],[103.3474,-2.8393],[103.3231,-2.8313],[103.3254,-2.8448],[103.3196,-2.8522],[103.3159,-2.852],[103.2845,-2.8375],[103.2476,-2.8124],[103.2388,-2.8236],[103.2356,-2.7623],[103.2461,-2.7624],[103.2518,-2.758],[103.2631,-2.7559],[103.2633,-2.7572],[103.2712,-2.753]]]}},{"type":"Feature","properties":{"name":"PrabumulihIi","name_en":"PrabumulihIi","admin_level":"7","osm_id":""},"geometry":{"type":"Polygon","coordinates":[[[103.3474,-2.8393],[103.3536,-2.8511],[103.3832,-2.861],[103.322,-2.8536],[103.3196,-2.8522],[103.3254,-2.8448],[103.3231,-2.8313],[103.3474,-2.8393]]]}},{"type":"Feature","properties":{"name":"Semangus","name_en":"Semangus","admin_level":"7","osm_id":""},"geometry":{"type":"Polygon","coordinates":[[[103.5377,-3.5937],[103.527,-3.5979],[103.5157,-3.5979],[103.5112,-3.593],[103.5126,-3.5917],[103.5105,-3.5763],[103.5039,-3.5572],[103.4986,-3.5487],[103.4987,-3.5149],[103.493,-3.51],[103.4841,-3.5087],[103.4452,-3.5095],[103.4319,-3.5168],[103.4299,-3.4999],[103.4125,-3.4937],[103.4032,-3.4824],[103.405,-3.4778],[103.4001,-3.477],[103.4026,-3.474],[103.4055,-3.4732],[103.4064,-3.471],[103.402,-3.4649],[103.404,-3.4628],[103.4014,-3.4623],[103.4024,-3.4603],[103.4006,-3.4599],[103.4005,-3.457],[103.3976,-3.4569],[103.3964,-3.4543],[103.3944,-3.4541],[103.3937,-3.4556],[103.3934,-3.4533],[103.3904,-3.4542],[103.3851,-3.4508],[103.388,-3.4451],[103.3873,-3.4432],[103.3857,-3.4431],[103.3859,-3.4402],[103.3839,-3.4406],[103.382,-3.4378],[103.3799,-3.4397],[103.3775,-3.4395],[103.3758,-3.4349],[103.3744,-3.4353],[103.3731,-3.4301],[103.3713,-3.4296],[103.3731,-3.4289],[103.3732,-3.4253],[103.3702,-3.4253],[103.3702,-3.4233],[103.3655,-3.4213],[103.3661,-3.4195],[103.3636,-3.42],[103.3624,-3.4174],[103.364,-3.4159],[103.3618,-3.4148],[103.3632,-3.4125],[103.3604,-3.4128],[103.3589,-3.4108],[103.3605,-3.4109],[103.3593,-3.4067],[103.3611,-3.408],[103.3615,-3.4037],[103.3675,-3.4023],[103.3677,-3.3972],[103.37,-3.3983],[103.3704,-3.396],[103.3727,-3.3946],[103.3692,-3.3878],[103.3698,-3.381],[103.3674,-3.3807],[103.3691,-3.3773],[103.3682,-3.3674],[103.3717,-3.3578],[103.3738,-3.3577],[103.3741,-3.3548],[103.3751,-3.357],[103.3773,-3.3507],[103.3786,-3.3511],[103.3822,-3.3449],[103.3814,-3.3404],[103.383,-3.3368],[103.3797,-3.332],[103.3808,-3.3301],[103.3823,-3.3319],[103.3844,-3.3313],[103.3829,-3.3289],[103.3835,-3.3267],[103.3825,-3.3274],[103.3825,-3.3254],[103.3803,-3.3252],[103.3819,-3.3232],[103.3798,-3.3225],[103.3826,-3.3209],[103.3829,-3.3162],[103.3869,-3.3154],[103.3876,-3.3124],[103.3897,-3.3128],[103.3895,-3.3111],[103.3863,-3.3097],[103.3865,-3.3074],[103.3843,-3.3079],[103.3836,-3.3054],[103.3846,-3.3029],[103.3856,-3.3048],[103.3865,-3.3041],[103.3873,-3.2995],[103.3899,-3.3008],[103.3951,-3.3087],[103.3983,-3.3085],[103.4072,-3.3139],[103.4116,-3.3209],[103.4152,-3.32],[103.4208,-3.3143],[103.4311,-3.3131],[103.4416,-3.3154],[103.4485,-3.3145],[103.4488,-3.3162],[103.4459,-3.3198],[103.4476,-3.3287],[103.4436,-3.3382],[103.4218,-3.3484],[103.4184,-3.3481],[103.4184,-3.352],[103.4168,-3.35],[103.4117,-3.3585],[103.4089,-3.3586],[103.4057,-3.356],[103.4005,-3.3572],[103.3995,-3.3615],[103.3965,-3.3623],[103.3965,-3.3683],[103.4003,-3.3712],[103.4024,-3.3704],[103.4048,-3.3738],[103.4066,-3.3703],[103.4067,-3.3718],[103.4088,-3.3709],[103.4097,-3.3785],[103.4139,-3.3831],[103.4114,-3.3861],[103.4144,-3.3872],[103.4136,-3.3908],[103.4157,-3.3942],[103.4134,-3.401],[103.4189,-3.4038],[103.4205,-3.4138],[103.424,-3.4171],[103.426,-3.4164],[103.4305,-3.4215],[103.4331,-3.4217],[103.4306,-3.4247],[103.4305,-3.4365],[103.4277,-3.4367],[103.4296,-3.4492],[103.4337,-3.4504],[103.438,-3.4488],[103.4506,-3.4395],[103.4541,-3.4397],[103.4564,-3.4416],[103.4595,-3.4538],[103.4635,-3.462],[103.4639,-3.4695],[103.4609,-3.4754],[103.4612,-3.4807],[103.4716,-3.4891],[103.4813,-3.4934],[103.5213,-3.4823],[103.5218,-3.4803],[103.5188,-3.4733],[103.5197,-3.456],[103.5151,-3.4473],[103.5167,-3.4442],[103.5151,-3.4437],[103.518,-3.4406],[103.5205,-3.4333],[103.518,-3.4331],[103.5131,-3.4293],[103.5136,-3.4202],[103.5158,-3.4176],[103.5163,-3.412],[103.5133,-3.4089],[103.5093,-3.409],[103.5042,-3.406],[103.5016,-3.395],[103.5501,-3.3742],[103.5705,-3.3618],[103.5689,-3.358],[103.5706,-3.3558],[103.5686,-3.3525],[103.5698,-3.3444],[103.5636,-3.3417],[103.5612,-3.3368],[103.5545,-3.3313],[103.5529,-3.3325],[103.5512,-3.3304],[103.5487,-3.3315],[103.546,-3.3305],[103.5454,-3.3229],[103.5439,-3.3213],[103.542,-3.3222],[103.5412,-3.3201],[103.5445,-3.3148],[103.5442,-3.3121],[103.5526,-3.3031],[103.554,-3.2893],[103.5505,-3.288],[103.547,-3.2834],[103.546,-3.2717],[103.5386,-3.2627],[103.538,-3.2542],[103.5306,-3.2486],[103.5223,-3.2349],[103.514,-3.2315],[103.5126,-3.2276],[103.5069,-3.2249],[103.5042,-3.2204],[103.5012,-3.2225],[103.4955,-3.2215],[103.4959,-3.2238],[103.4938,-3.2235],[103.4908,-3.2268],[103.4908,-3.2246],[103.4899,-3.225],[103.4893,-3.2283],[103.4862,-3.2305],[103.4881,-3.2318],[103.4877,-3.2345],[103.492,-3.233],[103.4908,-3.2364],[103.4942,-3.2399],[103.4925,-3.2449],[103.4937,-3.2479],[103.4953,-3.248],[103.495,-3.254],[103.4922,-3.2558],[103.4934,-3.2613],[103.4915,-3.2619],[103.4934,-3.2663],[103.4904,-3.2649],[103.4928,-3.2687],[103.4893,-3.2718],[103.4901,-3.2759],[103.4888,-3.2784],[103.486,-3.2778],[103.479,-3.2829],[103.4683,-3.2834],[103.4605,-3.2857],[103.4536,-3.2832],[103.4485,-3.276],[103.4475,-3.2708],[103.4434,-3.2678],[103.4167,-3.2628],[103.4182,-3.2613],[103.4171,-3.2596],[103.4237,-3.2546],[103.4222,-3.2531],[103.4305,-3.2499],[103.4295,-3.248],[103.4309,-3.2445],[103.4288,-3.2416],[103.4299,-3.2396],[103.4201,-3.2329],[103.4214,-3.2315],[103.421,-3.229],[103.4167,-3.2217],[103.418,-3.2173],[103.4263,-3.2115],[103.4279,-3.2127],[103.4315,-3.2079],[103.4369,-3.2079],[103.4386,-3.2105],[103.4411,-3.2088],[103.4356,-3.1914],[103.4381,-3.1878],[103.4377,-3.1847],[103.4393,-3.1821],[103.4381,-3.1814],[103.4405,-3.178],[103.4391,-3.1753],[103.4418,-3.1765],[103.439,-3.1718],[103.4547,-3.1747],[103.4569,-3.177],[103.4544,-3.1803],[103.4625,-3.1827],[103.4625,-3.1797],[103.4645,-3.1838],[103.4651,-3.1813],[103.4661,-3.1819],[103.4692,-3.1866],[103.4688,-3.1883],[103.4708,-3.1895],[103.497,-3.1959],[103.5182,-3.0886],[103.5182,-3.0859],[103.4877,-3.0509],[103.4585,-3.0338],[103.4433,-3.0336],[103.4521,-2.983],[103.4608,-2.9928],[103.4762,-3.0228],[103.4815,-3.0366],[103.4859,-3.0375],[103.4999,-3.0323],[103.5026,-3.0573],[103.5071,-3.0698],[103.5121,-3.0781],[103.5182,-3.0825],[103.5278,-3.084],[103.5301,-3.0856],[103.5401,-3.0992],[103.5479,-3.1007],[103.5592,-3.0967],[103.5778,-3.1113],[103.5817,-3.1194],[103.581,-3.1226],[103.5751,-3.1292],[103.5739,-3.1378],[103.5814,-3.1415],[103.5937,-3.1361],[103.595,-3.1601],[103.5963,-3.1608],[103.599,-3.1586],[103.5986,-3.162],[103.6072,-3.173],[103.6092,-3.1797],[103.6157,-3.1798],[103.6379,-3.1883],[103.6396,-3.1969],[103.6448,-3.2046],[103.6383,-3.214],[103.633,-3.2159],[103.6337,-3.2191],[103.6393,-3.2249],[103.6388,-3.2302],[103.6407,-3.2353],[103.65,-3.2412],[103.6493,-3.2456],[103.6419,-3.2516],[103.6323,-3.256],[103.6244,-3.2761],[103.6105,-3.2788],[103.6069,-3.2893],[103.6113,-3.3086],[103.6104,-3.3165],[103.6191,-3.3235],[103.6139,-3.3445],[103.6252,-3.3568],[103.6247,-3.3757],[103.616,-3.3871],[103.6141,-3.4196],[103.5932,-3.4493],[103.5906,-3.4572],[103.5862,-3.4528],[103.5862,-3.4607],[103.5766,-3.4545],[103.5722,-3.4554],[103.5664,-3.4731],[103.561,-3.4814],[103.5463,-3.4879],[103.5406,-3.4928],[103.5486,-3.5217],[103.5485,-3.5291],[103.539,-3.536],[103.5377,-3.5937]]]}},{"type":"Feature","properties":{"name":"SemangusBaru","name_en":"SemangusBaru","admin_level":"7","osm_id":""},"geometry":{"type":"Polygon","coordinates":[[[103.282,-2.9595],[103.2812,-2.9584],[103.2831,-2.959],[103.3078,-2.9471],[103.3231,-2.9489],[103.324,-2.95],[103.3207,-2.9552],[103.3389,-2.9759],[103.346,-2.9792],[103.3521,-2.9799],[103.353,-2.983],[103.3549,-2.9839],[103.3617,-2.9832],[103.3633,-2.98],[103.3689,-2.9879],[103.3829,-2.9939],[103.3876,-3.0011],[103.4002,-3.0067],[103.4024,-3.0111],[103.4067,-3.0479],[103.3509,-3.0285],[103.342,-3.0301],[103.3325,-3.0273],[103.3271,-3.0227],[103.3253,-3.0232],[103.3187,-3.0103],[103.3218,-3.0069],[103.3288,-3.0102],[103.3315,-3.0095],[103.3346,-3.0108],[103.3367,-3.0046],[103.3261,-3.0038],[103.3293,-2.9995],[103.3282,-2.9956],[103.3244,-2.9928],[103.3233,-2.9899],[103.327,-2.9907],[103.3261,-2.9868],[103.3277,-2.9853],[103.3241,-2.9823],[103.3286,-2.978],[103.319,-2.9787],[103.3198,-2.9766],[103.3231,-2.9751],[103.3205,-2.9722],[103.3229,-2.9702],[103.3234,-2.9673],[103.3196,-2.966],[103.3185,-2.9622],[103.3111,-2.9542],[103.3093,-2.9555],[103.3081,-2.9621],[103.3032,-2.9614],[103.2982,-2.9661],[103.2894,-2.9645],[103.282,-2.9595]]]}},{"type":"Feature","properties":{"name":"Semeteh","name_en":"Semeteh","admin_level":"7","osm_id":""},"geometry":{"type":"Polygon","coordinates":[[[103.4016,-2.8671],[103.4313,-2.8771],[103.4217,-2.8951],[103.3248,-2.8954],[103.3248,-2.8993],[103.3101,-2.9036],[103.2602,-2.9365],[103.2585,-2.9337],[103.2496,-2.9278],[103.2352,-2.9235],[103.2314,-2.921],[103.2348,-2.9164],[103.2362,-2.9165],[103.2376,-2.911],[103.2411,-2.9064],[103.2406,-2.9049],[103.2444,-2.9018],[103.2448,-2.8985],[103.2481,-2.8987],[103.252,-2.8938],[103.256,-2.8955],[103.2587,-2.8929],[103.2622,-2.8946],[103.2858,-2.8859],[103.2978,-2.874],[103.3107,-2.867],[103.3191,-2.8737],[103.3233,-2.8713],[103.3276,-2.8751],[103.3301,-2.8751],[103.3314,-2.8783],[103.334,-2.8799],[103.3353,-2.8848],[103.3411,-2.8912],[103.3481,-2.8904],[103.3513,-2.8921],[103.3534,-2.8913],[103.3588,-2.8791],[103.3531,-2.8694],[103.3547,-2.8603],[103.3526,-2.8565],[103.3832,-2.861],[103.4016,-2.8671]]]}},{"type":"Feature","properties":{"name":"SidoMulyo","name_en":"SidoMulyo","admin_level":"7","osm_id":""},"geometry":{"type":"Polygon","coordinates":[[[103.1755,-2.8392],[103.1492,-2.8388],[103.1498,-2.8076],[103.1475,-2.8062],[103.1472,-2.7744],[103.1524,-2.7717],[103.1544,-2.7745],[103.1593,-2.7728],[103.1726,-2.7589],[103.1838,-2.7575],[103.1759,-2.8078],[103.1755,-2.8392]]]}},{"type":"Feature","properties":{"name":"SindangLaya","name_en":"SindangLaya","admin_level":"7","osm_id":""},"geometry":{"type":"Polygon","coordinates":[[[103.438,-3.0751],[103.4364,-3.0331],[103.4585,-3.0338],[103.4877,-3.0509],[103.5182,-3.0859],[103.4656,-3.0926],[103.438,-3.0751]]]}},{"type":"Feature","properties":{"name":"SpVTriAnggunjaya","name_en":"SpVTriAnggunjaya","admin_level":"7","osm_id":""},"geometry":{"type":"Polygon","coordinates":[[[103.4839,-3.304],[103.4856,-3.3038],[103.4879,-3.3069],[103.4918,-3.3058],[103.4926,-3.3042],[103.4959,-3.3044],[103.4972,-3.3066],[103.5009,-3.3072],[103.5017,-3.31],[103.5066,-3.309],[103.5079,-3.3109],[103.5087,-3.3091],[103.5142,-3.3165],[103.5214,-3.3151],[103.5225,-3.3164],[103.5273,-3.3133],[103.5278,-3.315],[103.5306,-3.3143],[103.5326,-3.3163],[103.5366,-3.3168],[103.5377,-3.3207],[103.5412,-3.3201],[103.5426,-3.3223],[103.5439,-3.3213],[103.5454,-3.3229],[103.546,-3.3305],[103.5487,-3.3315],[103.5512,-3.3304],[103.5529,-3.3325],[103.5545,-3.3313],[103.5612,-3.3368],[103.5636,-3.3417],[103.5701,-3.3448],[103.5686,-3.3517],[103.5707,-3.3566],[103.5689,-3.358],[103.5705,-3.3609],[103.5693,-3.3636],[103.5501,-3.3742],[103.5016,-3.395],[103.4975,-3.3879],[103.5003,-3.3841],[103.4964,-3.3787],[103.4923,-3.3772],[103.4922,-3.3739],[103.4905,-3.3724],[103.4923,-3.3722],[103.494,-3.3673],[103.4911,-3.3653],[103.488,-3.3588],[103.4852,-3.3571],[103.4865,-3.3545],[103.4852,-3.349],[103.4776,-3.3425],[103.4827,-3.3269],[103.4791,-3.323],[103.4783,-3.3131],[103.4805,-3.3118],[103.4796,-3.3106],[103.482,-3.3044],[103.4839,-3.304]]]}},{"type":"Feature","properties":{"name":"SungaiPinang","name_en":"SungaiPinang","admin_level":"7","osm_id":""},"geometry":{"type":"Polygon","coordinates":[[[103.4217,-2.8951],[103.4177,-2.9025],[103.4111,-2.9246],[103.4264,-2.9433],[103.4385,-2.9476],[103.4456,-2.9675],[103.4583,-2.9887],[103.4521,-2.983],[103.4433,-3.0336],[103.4364,-3.0331],[103.4377,-3.0572],[103.4177,-3.0476],[103.4067,-3.0479],[103.4024,-3.0111],[103.4002,-3.0067],[103.3884,-3.0017],[103.3829,-2.9939],[103.3689,-2.9879],[103.3633,-2.98],[103.3624,-2.9819],[103.3617,-2.953],[103.3566,-2.9443],[103.3512,-2.9442],[103.3508,-2.9404],[103.3484,-2.94],[103.3483,-2.9371],[103.3457,-2.9368],[103.3457,-2.9352],[103.3247,-2.9338],[103.3093,-2.9274],[103.2675,-2.9424],[103.2602,-2.9365],[103.3101,-2.9036],[103.3248,-2.8993],[103.3248,-2.8954],[103.4217,-2.8951]]]}}]}