{"type":"FeatureCollection","metadata":{"parent_osm_id":"1795267","parent_name":"Kendari","parent_name_1":"SulawesiTenggara","parent_gid":"IDN.28.5.6_1","parent_level":"6","child_level":"7","count":9,"source":"GADM 4.1","generated":"2026-05-09"},"features":[{"type":"Feature","properties":{"name":"GunungJati","name_en":"GunungJati","admin_level":"7","osm_id":""},"geometry":{"type":"Polygon","coordinates":[[[122.5788,-3.9641],[122.5808,-3.9396],[122.5941,-3.9411],[122.5938,-3.9658],[122.5907,-3.9656],[122.5894,-3.9675],[122.5788,-3.9641]]]}},{"type":"Feature","properties":{"name":"JatiMekar","name_en":"JatiMekar","admin_level":"7","osm_id":""},"geometry":{"type":"Polygon","coordinates":[[[122.5824,-3.9689],[122.5788,-3.9669],[122.5788,-3.9641],[122.5894,-3.9675],[122.5864,-3.9701],[122.5824,-3.9689]]]}},{"type":"Feature","properties":{"name":"KampungSalo","name_en":"KampungSalo","admin_level":"7","osm_id":""},"geometry":{"type":"Polygon","coordinates":[[[122.5894,-3.9675],[122.5907,-3.9656],[122.5938,-3.9658],[122.5893,-3.9716],[122.588,-3.969],[122.5894,-3.9675]]]}},{"type":"Feature","properties":{"name":"Kandai","name_en":"Kandai","admin_level":"7","osm_id":""},"geometry":{"type":"Polygon","coordinates":[[[122.5813,-3.9715],[122.5824,-3.9689],[122.5894,-3.9698],[122.5875,-3.975],[122.584,-3.9743],[122.5813,-3.9715]]]}},{"type":"Feature","properties":{"name":"KendariCaddi","name_en":"KendariCaddi","admin_level":"7","osm_id":""},"geometry":{"type":"Polygon","coordinates":[[[122.5899,-3.9714],[122.5925,-3.9697],[122.5962,-3.971],[122.595,-3.974],[122.5966,-3.9745],[122.5967,-3.9779],[122.5923,-3.9765],[122.592,-3.9731],[122.5908,-3.9735],[122.5899,-3.9714]]]}},{"type":"Feature","properties":{"name":"Kessilampe","name_en":"Kessilampe","admin_level":"7","osm_id":""},"geometry":{"type":"Polygon","coordinates":[[[122.5967,-3.9777],[122.5966,-3.9745],[122.595,-3.974],[122.5964,-3.9712],[122.6037,-3.9671],[122.6059,-3.9686],[122.6062,-3.9709],[122.6025,-3.9723],[122.5993,-3.9791],[122.5967,-3.9777]]]}},{"type":"Feature","properties":{"name":"ManggaDua","name_en":"ManggaDua","admin_level":"7","osm_id":""},"geometry":{"type":"Polygon","coordinates":[[[122.5938,-3.9658],[122.5939,-3.9574],[122.5941,-3.9411],[122.6031,-3.9438],[122.6037,-3.9671],[122.5964,-3.9712],[122.5917,-3.9702],[122.5938,-3.9658]]]}},{"type":"Feature","properties":{"name":"Mata","name_en":"Mata","admin_level":"7","osm_id":""},"geometry":{"type":"Polygon","coordinates":[[[122.6062,-3.9709],[122.6062,-3.9689],[122.6037,-3.9668],[122.6031,-3.9438],[122.6125,-3.9474],[122.6137,-3.9545],[122.6138,-3.9623],[122.6088,-3.9628],[122.6109,-3.9674],[122.6086,-3.971],[122.6062,-3.9709]]]}},{"type":"Feature","properties":{"name":"Purirano","name_en":"Purirano","admin_level":"7","osm_id":""},"geometry":{"type":"Polygon","coordinates":[[[122.6136,-3.9625],[122.6125,-3.9474],[122.6172,-3.9492],[122.6261,-3.9492],[122.6251,-3.9587],[122.622,-3.9595],[122.6202,-3.962],[122.6136,-3.9625]]]}}]}