{"type":"FeatureCollection","metadata":{"parent_osm_id":"gid_IDN_28_10_29_1","parent_name":"Wawotobi","parent_name_1":"SulawesiTenggara","parent_gid":"IDN.28.10.29_1","parent_level":"6","child_level":"7","count":19,"source":"GADM 4.1","generated":"2026-05-09"},"features":[{"type":"Feature","properties":{"name":"Analahumbuti","name_en":"Analahumbuti","admin_level":"7","osm_id":""},"geometry":{"type":"Polygon","coordinates":[[[122.099,-3.8364],[122.1008,-3.8355],[122.1055,-3.8383],[122.1286,-3.8414],[122.132,-3.8434],[122.1333,-3.8414],[122.1361,-3.8449],[122.1486,-3.848],[122.1555,-3.8451],[122.1744,-3.8438],[122.188,-3.8555],[122.1842,-3.8569],[122.1697,-3.8556],[122.1506,-3.8567],[122.1281,-3.854],[122.1101,-3.8483],[122.0983,-3.838],[122.099,-3.8364]]]}},{"type":"Feature","properties":{"name":"Anggotoa","name_en":"Anggotoa","admin_level":"7","osm_id":""},"geometry":{"type":"Polygon","coordinates":[[[122.1008,-3.8355],[122.1049,-3.8145],[122.11,-3.8145],[122.1126,-3.8234],[122.1255,-3.8329],[122.1328,-3.8347],[122.1663,-3.8339],[122.1671,-3.8375],[122.1744,-3.8438],[122.1555,-3.8451],[122.1486,-3.848],[122.1361,-3.8449],[122.1333,-3.8414],[122.132,-3.8434],[122.1286,-3.8414],[122.1055,-3.8383],[122.1008,-3.8355]]]}},{"type":"Feature","properties":{"name":"BoseBose","name_en":"BoseBose","admin_level":"7","osm_id":""},"geometry":{"type":"Polygon","coordinates":[[[122.1106,-3.8865],[122.1027,-3.8822],[122.1012,-3.8806],[122.1023,-3.8786],[122.1108,-3.8774],[122.1138,-3.8791],[122.1106,-3.8865]]]}},{"type":"Feature","properties":{"name":"Hopa-hopa","name_en":"Hopa-hopa","admin_level":"7","osm_id":""},"geometry":{"type":"Polygon","coordinates":[[[122.1392,-3.8872],[122.1442,-3.8834],[122.1591,-3.8786],[122.1728,-3.8955],[122.1728,-3.9033],[122.143,-3.9004],[122.1387,-3.9028],[122.1396,-3.8981],[122.1493,-3.8941],[122.1487,-3.8895],[122.1404,-3.8931],[122.1392,-3.8872]]]}},{"type":"Feature","properties":{"name":"Inalahi","name_en":"Inalahi","admin_level":"7","osm_id":""},"geometry":{"type":"Polygon","coordinates":[[[122.1091,-3.8676],[122.1136,-3.8676],[122.1136,-3.8694],[122.1164,-3.8696],[122.1203,-3.8669],[122.118,-3.8758],[122.1041,-3.8722],[122.1048,-3.8681],[122.1091,-3.8676]]]}},{"type":"Feature","properties":{"name":"Inolobu","name_en":"Inolobu","admin_level":"7","osm_id":""},"geometry":{"type":"Polygon","coordinates":[[[122.1203,-3.8669],[122.1164,-3.8696],[122.1136,-3.8694],[122.1136,-3.8676],[122.1091,-3.8676],[122.1094,-3.8623],[122.1128,-3.862],[122.1146,-3.8591],[122.128,-3.8592],[122.1203,-3.8669]]]}},{"type":"Feature","properties":{"name":"Karandu","name_en":"Karandu","admin_level":"7","osm_id":""},"geometry":{"type":"Polygon","coordinates":[[[122.1911,-3.8777],[122.1838,-3.9039],[122.1728,-3.9033],[122.1728,-3.8955],[122.1771,-3.8942],[122.1771,-3.8856],[122.1822,-3.8692],[122.1822,-3.8568],[122.188,-3.8555],[122.1948,-3.8652],[122.1911,-3.8777]]]}},{"type":"Feature","properties":{"name":"Kasumewuho","name_en":"Kasumewuho","admin_level":"7","osm_id":""},"geometry":{"type":"Polygon","coordinates":[[[122.085,-3.8611],[122.0852,-3.8569],[122.09,-3.8486],[122.0911,-3.8467],[122.0949,-3.8462],[122.0983,-3.838],[122.1073,-3.8459],[122.1016,-3.8677],[122.085,-3.8665],[122.085,-3.8611]]]}},{"type":"Feature","properties":{"name":"Kasupute","name_en":"Kasupute","admin_level":"7","osm_id":""},"geometry":{"type":"Polygon","coordinates":[[[122.1201,-3.8907],[122.1164,-3.8865],[122.1168,-3.8787],[122.1203,-3.8669],[122.1284,-3.8592],[122.1364,-3.8633],[122.1295,-3.8796],[122.1201,-3.8907]]]}},{"type":"Feature","properties":{"name":"Korumba","name_en":"Korumba","admin_level":"7","osm_id":""},"geometry":{"type":"Polygon","coordinates":[[[122.1428,-3.8564],[122.1697,-3.8556],[122.1773,-3.8565],[122.1699,-3.8622],[122.1702,-3.8691],[122.1675,-3.8725],[122.1617,-3.8736],[122.1484,-3.8672],[122.1439,-3.8666],[122.1428,-3.8564]]]}},{"type":"Feature","properties":{"name":"Kukuluri","name_en":"Kukuluri","admin_level":"7","osm_id":""},"geometry":{"type":"Polygon","coordinates":[[[122.11,-3.8145],[122.1549,-3.8142],[122.1641,-3.8243],[122.1663,-3.8339],[122.1328,-3.8347],[122.1255,-3.8329],[122.1126,-3.8234],[122.11,-3.8145]]]}},{"type":"Feature","properties":{"name":"Kulahi","name_en":"Kulahi","admin_level":"7","osm_id":""},"geometry":{"type":"Polygon","coordinates":[[[122.1073,-3.8459],[122.1133,-3.8491],[122.1143,-3.8503],[122.113,-3.8522],[122.1166,-3.8559],[122.1128,-3.862],[122.1094,-3.8623],[122.1091,-3.8681],[122.1016,-3.8677],[122.1073,-3.8459]]]}},{"type":"Feature","properties":{"name":"Lalosabila","name_en":"Lalosabila","admin_level":"7","osm_id":""},"geometry":{"type":"Polygon","coordinates":[[[122.0995,-3.8835],[122.0983,-3.8744],[122.085,-3.8744],[122.085,-3.8665],[122.1048,-3.8681],[122.1046,-3.878],[122.1012,-3.8806],[122.1027,-3.8822],[122.0995,-3.8835]]]}},{"type":"Feature","properties":{"name":"NarioIndah","name_en":"NarioIndah","admin_level":"7","osm_id":""},"geometry":{"type":"Polygon","coordinates":[[[122.1773,-3.8565],[122.1822,-3.8568],[122.1822,-3.8692],[122.1771,-3.8856],[122.1771,-3.8942],[122.1728,-3.8955],[122.1553,-3.874],[122.1492,-3.8722],[122.1466,-3.868],[122.1433,-3.8669],[122.1484,-3.8672],[122.1617,-3.8736],[122.1662,-3.8732],[122.1702,-3.8691],[122.1699,-3.8622],[122.1773,-3.8565]]]}},{"type":"Feature","properties":{"name":"NohuNohu","name_en":"NohuNohu","admin_level":"7","osm_id":""},"geometry":{"type":"Polygon","coordinates":[[[122.1228,-3.9153],[122.1204,-3.9043],[122.1165,-3.9017],[122.1202,-3.8905],[122.1295,-3.8796],[122.1364,-3.8633],[122.1466,-3.868],[122.1492,-3.8722],[122.1553,-3.874],[122.1591,-3.8786],[122.1442,-3.8834],[122.1259,-3.8963],[122.1257,-3.9047],[122.1276,-3.9116],[122.1228,-3.9153]]]}},{"type":"Feature","properties":{"name":"Palarahi","name_en":"Palarahi","admin_level":"7","osm_id":""},"geometry":{"type":"Polygon","coordinates":[[[122.1143,-3.8503],[122.1428,-3.8564],[122.1439,-3.8666],[122.1284,-3.8592],[122.1146,-3.8591],[122.1166,-3.8559],[122.113,-3.8522],[122.1143,-3.8503]]]}},{"type":"Feature","properties":{"name":"Puusinauwi","name_en":"Puusinauwi","admin_level":"7","osm_id":""},"geometry":{"type":"Polygon","coordinates":[[[122.1097,-3.8905],[122.102,-3.8864],[122.0995,-3.8835],[122.1027,-3.8822],[122.1106,-3.8865],[122.1097,-3.8905]]]}},{"type":"Feature","properties":{"name":"Ranoeya","name_en":"Ranoeya","admin_level":"7","osm_id":""},"geometry":{"type":"Polygon","coordinates":[[[122.1389,-3.8874],[122.1404,-3.8931],[122.1487,-3.8895],[122.1493,-3.8941],[122.1396,-3.8981],[122.1387,-3.9028],[122.1276,-3.9116],[122.1257,-3.9047],[122.1259,-3.8963],[122.1389,-3.8874]]]}},{"type":"Feature","properties":{"name":"Wawotobi","name_en":"Wawotobi","admin_level":"7","osm_id":""},"geometry":{"type":"Polygon","coordinates":[[[122.1138,-3.8791],[122.1108,-3.8774],[122.1046,-3.878],[122.1048,-3.8723],[122.118,-3.8758],[122.1168,-3.8787],[122.1138,-3.8791]]]}}]}