{"type":"FeatureCollection","metadata":{"parent_osm_id":"gid_IDN_27_5_5_1","parent_name":"BungkuTengah","parent_name_1":"SulawesiTengah","parent_gid":"IDN.27.5.5_1","parent_level":"6","child_level":"7","count":29,"source":"GADM 4.1","generated":"2026-05-09"},"features":[{"type":"Feature","properties":{"name":"Bahomante","name_en":"Bahomante","admin_level":"7","osm_id":""},"geometry":{"type":"Polygon","coordinates":[[[121.9036,-2.43],[121.9053,-2.4299],[121.9117,-2.4388],[121.9047,-2.4435],[121.8977,-2.465],[121.8846,-2.4786],[121.8453,-2.5049],[121.839,-2.5103],[121.8354,-2.5172],[121.826,-2.5207],[121.8273,-2.5128],[121.834,-2.506],[121.8323,-2.5051],[121.8323,-2.4948],[121.8364,-2.484],[121.856,-2.4565],[121.8577,-2.4567],[121.8595,-2.4539],[121.8638,-2.4549],[121.8664,-2.4515],[121.8776,-2.4523],[121.8853,-2.4498],[121.8881,-2.446],[121.8879,-2.4426],[121.8998,-2.4351],[121.9006,-2.431],[121.9047,-2.432],[121.9036,-2.43]]]}},{"type":"Feature","properties":{"name":"Bahomoahi","name_en":"Bahomoahi","admin_level":"7","osm_id":""},"geometry":{"type":"Polygon","coordinates":[[[122.0067,-2.6949],[122.0079,-2.7109],[122.0039,-2.7099],[122.0009,-2.711],[121.9857,-2.726],[121.9696,-2.7343],[121.9233,-2.7435],[121.9053,-2.7493],[121.8849,-2.7592],[121.8742,-2.7627],[121.8428,-2.7655],[121.8263,-2.7627],[121.805,-2.7664],[121.8314,-2.7499],[121.8468,-2.7334],[121.8673,-2.7197],[121.8796,-2.7205],[121.8967,-2.7277],[121.9227,-2.7288],[121.9483,-2.7238],[121.9621,-2.7192],[121.972,-2.7143],[121.9921,-2.6996],[122.0067,-2.6949]]]}},{"type":"Feature","properties":{"name":"Bahomohoni","name_en":"Bahomohoni","admin_level":"7","osm_id":""},"geometry":{"type":"Polygon","coordinates":[[[121.7556,-2.6105],[121.7459,-2.6006],[121.7605,-2.5763],[121.7706,-2.5654],[121.7787,-2.5618],[121.7959,-2.5473],[121.8173,-2.5346],[121.8253,-2.5339],[121.8586,-2.5219],[121.8849,-2.5035],[121.8923,-2.4964],[121.9156,-2.4692],[121.9203,-2.4611],[121.923,-2.4599],[121.928,-2.4631],[121.935,-2.4761],[121.9338,-2.4782],[121.9258,-2.4824],[121.8745,-2.5317],[121.8515,-2.5383],[121.8393,-2.5443],[121.8337,-2.548],[121.8243,-2.5581],[121.7995,-2.6008],[121.787,-2.626],[121.7797,-2.6349],[121.7799,-2.6307],[121.7753,-2.6246],[121.7556,-2.6105]]]}},{"type":"Feature","properties":{"name":"Bahomoleo","name_en":"Bahomoleo","admin_level":"7","osm_id":""},"geometry":{"type":"Polygon","coordinates":[[[121.7459,-2.6006],[121.7362,-2.59],[121.7199,-2.5623],[121.7309,-2.5545],[121.7624,-2.5392],[121.812,-2.5257],[121.8354,-2.5172],[121.839,-2.5103],[121.8453,-2.5049],[121.8777,-2.4836],[121.8914,-2.4718],[121.8977,-2.465],[121.9047,-2.4435],[121.9117,-2.4388],[121.9123,-2.4479],[121.919,-2.4575],[121.923,-2.4599],[121.9203,-2.4611],[121.9156,-2.4692],[121.8923,-2.4964],[121.8849,-2.5035],[121.8586,-2.5219],[121.8253,-2.5339],[121.8173,-2.5346],[121.7959,-2.5473],[121.7787,-2.5618],[121.7706,-2.5654],[121.7654,-2.5703],[121.7459,-2.6006]]]}},{"type":"Feature","properties":{"name":"Bahomotefe","name_en":"Bahomotefe","admin_level":"7","osm_id":""},"geometry":{"type":"Polygon","coordinates":[[[121.724,-2.808],[121.7222,-2.7683],[121.7242,-2.7658],[121.7415,-2.7563],[121.743,-2.7496],[121.7544,-2.7346],[121.7557,-2.7225],[121.7622,-2.7461],[121.7685,-2.7569],[121.7934,-2.7647],[121.805,-2.7664],[121.8263,-2.7627],[121.8428,-2.7655],[121.8742,-2.7627],[121.8849,-2.7592],[121.9053,-2.7493],[121.9233,-2.7435],[121.9734,-2.733],[121.9857,-2.726],[122.0026,-2.71],[122.0079,-2.7109],[122.0117,-2.72],[122.0191,-2.7228],[122.0202,-2.7213],[122.0292,-2.7248],[122.0389,-2.7328],[122.0268,-2.7464],[122.0165,-2.7498],[122.0002,-2.7615],[121.972,-2.7741],[121.9512,-2.7804],[121.9435,-2.7856],[121.9318,-2.7884],[121.9002,-2.7945],[121.8776,-2.8007],[121.8326,-2.8015],[121.8075,-2.7995],[121.8023,-2.8015],[121.7736,-2.8049],[121.7335,-2.8031],[121.724,-2.808]]]}},{"type":"Feature","properties":{"name":"Bahontobungku","name_en":"Bahontobungku","admin_level":"7","osm_id":""},"geometry":{"type":"Polygon","coordinates":[[[121.979,-2.5619],[121.9807,-2.5681],[121.9865,-2.5773],[121.985,-2.5816],[121.931,-2.6393],[121.9159,-2.6472],[121.9033,-2.6505],[121.8663,-2.6493],[121.8747,-2.6325],[121.8859,-2.6404],[121.8918,-2.6412],[121.9084,-2.634],[121.9308,-2.6188],[121.9591,-2.5911],[121.9707,-2.5768],[121.979,-2.5619]]]}},{"type":"Feature","properties":{"name":"Bahoruru","name_en":"Bahoruru","admin_level":"7","osm_id":""},"geometry":{"type":"Polygon","coordinates":[[[121.955,-2.5083],[121.9585,-2.5172],[121.9616,-2.5202],[121.956,-2.5234],[121.9265,-2.551],[121.8985,-2.5666],[121.8972,-2.5545],[121.9172,-2.5432],[121.9346,-2.5294],[121.9413,-2.5198],[121.9483,-2.5126],[121.955,-2.5083]]]}},{"type":"Feature","properties":{"name":"Bente","name_en":"Bente","admin_level":"7","osm_id":""},"geometry":{"type":"Polygon","coordinates":[[[121.7557,-2.7225],[121.7568,-2.7089],[121.76,-2.7009],[121.7649,-2.6956],[121.7772,-2.6875],[121.7896,-2.667],[121.7898,-2.6564],[121.7806,-2.6492],[121.7784,-2.6449],[121.7797,-2.6349],[121.787,-2.626],[121.7995,-2.6008],[121.8243,-2.5581],[121.8337,-2.548],[121.8393,-2.5443],[121.8515,-2.5383],[121.8745,-2.5317],[121.9258,-2.4824],[121.9338,-2.4782],[121.935,-2.4761],[121.9396,-2.4775],[121.9419,-2.4823],[121.9417,-2.4893],[121.9437,-2.493],[121.9491,-2.4973],[121.9293,-2.5048],[121.9243,-2.517],[121.9136,-2.5247],[121.9099,-2.5335],[121.8951,-2.5495],[121.8972,-2.5545],[121.8984,-2.5692],[121.9012,-2.5784],[121.8978,-2.5907],[121.8663,-2.6493],[121.8377,-2.6961],[121.8285,-2.7011],[121.8186,-2.7016],[121.803,-2.7075],[121.7975,-2.7148],[121.7894,-2.7208],[121.7753,-2.723],[121.7671,-2.7263],[121.7557,-2.7225]]]}},{"type":"Feature","properties":{"name":"Bungi","name_en":"Bungi","admin_level":"7","osm_id":""},"geometry":{"type":"Polygon","coordinates":[[[121.9653,-2.5427],[121.9629,-2.5422],[121.9566,-2.5443],[121.9604,-2.5369],[121.9631,-2.536],[121.9653,-2.5427]]]}},{"type":"Feature","properties":{"name":"Geresa","name_en":"Geresa","admin_level":"7","osm_id":""},"geometry":{"type":"Polygon","coordinates":[[[122.0359,-2.6597],[122.0368,-2.6705],[122.0322,-2.6741],[122.03,-2.6743],[122.0254,-2.6703],[122.0199,-2.6692],[122.0112,-2.6739],[121.9942,-2.6783],[121.9846,-2.6774],[122.0091,-2.6657],[122.0359,-2.6597]]]}},{"type":"Feature","properties":{"name":"Ipi","name_en":"Ipi","admin_level":"7","osm_id":""},"geometry":{"type":"Polygon","coordinates":[[[121.955,-2.5083],[121.9483,-2.5126],[121.9413,-2.5198],[121.9346,-2.5294],[121.9172,-2.5432],[121.8972,-2.5545],[121.8951,-2.5495],[121.9099,-2.5335],[121.9136,-2.5247],[121.9243,-2.517],[121.9293,-2.5048],[121.9491,-2.4973],[121.955,-2.5083]]]}},{"type":"Feature","properties":{"name":"Kolono","name_en":"Kolono","admin_level":"7","osm_id":""},"geometry":{"type":"Polygon","coordinates":[[[122.0067,-2.6949],[121.9921,-2.6996],[121.9792,-2.7087],[121.9756,-2.7066],[121.9732,-2.7027],[121.9737,-2.6933],[121.9986,-2.6816],[121.9974,-2.6788],[121.9942,-2.6783],[122.0105,-2.6741],[122.0067,-2.6949]]]}},{"type":"Feature","properties":{"name":"Lahuafu","name_en":"Lahuafu","admin_level":"7","osm_id":""},"geometry":{"type":"Polygon","coordinates":[[[121.8398,-2.6913],[121.8535,-2.6706],[121.8943,-2.6779],[121.9204,-2.6739],[121.9377,-2.6679],[121.9516,-2.6601],[121.9604,-2.6506],[121.9764,-2.6257],[121.9922,-2.6069],[121.9942,-2.6069],[121.9975,-2.6148],[122.0015,-2.617],[122.0018,-2.6193],[121.9872,-2.6358],[121.9737,-2.6449],[121.965,-2.662],[121.9594,-2.6684],[121.9464,-2.6812],[121.9408,-2.6841],[121.9047,-2.6913],[121.8398,-2.6913]]]}},{"type":"Feature","properties":{"name":"Lamberea","name_en":"Lamberea","admin_level":"7","osm_id":""},"geometry":{"type":"Polygon","coordinates":[[[121.9122,-2.6308],[121.9025,-2.6368],[121.8888,-2.6415],[121.8747,-2.6325],[121.8978,-2.5907],[121.9012,-2.5784],[121.9217,-2.5659],[121.9251,-2.5601],[121.9443,-2.5517],[121.9566,-2.5443],[121.9629,-2.5422],[121.9683,-2.5438],[121.969,-2.5529],[121.9566,-2.5525],[121.952,-2.5567],[121.9483,-2.5644],[121.9419,-2.5721],[121.9414,-2.5757],[121.943,-2.5793],[121.92,-2.6058],[121.9152,-2.6174],[121.9122,-2.6308]]]}},{"type":"Feature","properties":{"name":"Lanona","name_en":"Lanona","admin_level":"7","osm_id":""},"geometry":{"type":"Polygon","coordinates":[[[121.7835,-2.4966],[121.7891,-2.4957],[121.7994,-2.4872],[121.8293,-2.4547],[121.8493,-2.4413],[121.8631,-2.425],[121.882,-2.4093],[121.8883,-2.413],[121.8891,-2.4169],[121.8947,-2.42],[121.8961,-2.4244],[121.9022,-2.4269],[121.9049,-2.4316],[121.9006,-2.431],[121.8998,-2.4351],[121.8879,-2.4426],[121.8881,-2.446],[121.8853,-2.4498],[121.8776,-2.4523],[121.8664,-2.4515],[121.8638,-2.4549],[121.8595,-2.4539],[121.8577,-2.4567],[121.856,-2.4565],[121.8364,-2.484],[121.8323,-2.4948],[121.8323,-2.5051],[121.834,-2.506],[121.8273,-2.5128],[121.826,-2.5207],[121.7763,-2.5357],[121.7733,-2.4991],[121.7835,-2.4966]]]}},{"type":"Feature","properties":{"name":"Laroue","name_en":"Laroue","admin_level":"7","osm_id":""},"geometry":{"type":"Polygon","coordinates":[[[122.0359,-2.6597],[122.0091,-2.6657],[121.9846,-2.6774],[121.9713,-2.6785],[121.964,-2.6814],[121.9551,-2.6911],[121.9449,-2.6982],[121.9366,-2.6977],[121.9278,-2.6992],[121.951,-2.689],[121.9638,-2.6778],[121.9963,-2.662],[122.0064,-2.6534],[122.021,-2.6479],[122.0238,-2.6454],[122.0354,-2.657],[122.0359,-2.6597]]]}},{"type":"Feature","properties":{"name":"Marsaoleh","name_en":"Marsaoleh","admin_level":"7","osm_id":""},"geometry":{"type":"Polygon","coordinates":[[[121.9683,-2.5479],[121.9686,-2.5431],[121.9723,-2.5425],[121.974,-2.5468],[121.9683,-2.5479]]]}},{"type":"Feature","properties":{"name":"Matano","name_en":"Matano","admin_level":"7","osm_id":""},"geometry":{"type":"Polygon","coordinates":[[[121.9653,-2.5427],[121.9631,-2.536],[121.9698,-2.5345],[121.9708,-2.5422],[121.9683,-2.5438],[121.9653,-2.5427]]]}},{"type":"Feature","properties":{"name":"Matansala","name_en":"Matansala","admin_level":"7","osm_id":""},"geometry":{"type":"Polygon","coordinates":[[[121.8985,-2.5666],[121.9265,-2.551],[121.956,-2.5234],[121.9616,-2.5202],[121.9682,-2.5281],[121.9694,-2.5345],[121.9604,-2.5369],[121.9566,-2.5443],[121.9443,-2.5517],[121.9251,-2.5601],[121.9217,-2.5659],[121.9012,-2.5784],[121.8985,-2.5666]]]}},{"type":"Feature","properties":{"name":"Mendui","name_en":"Mendui","admin_level":"7","osm_id":""},"geometry":{"type":"Polygon","coordinates":[[[121.969,-2.5529],[121.9683,-2.5479],[121.9712,-2.5471],[121.9743,-2.5528],[121.971,-2.5581],[121.969,-2.5529]]]}},{"type":"Feature","properties":{"name":"Nambo","name_en":"Nambo","admin_level":"7","osm_id":""},"geometry":{"type":"Polygon","coordinates":[[[122.0238,-2.6454],[122.021,-2.6479],[122.0064,-2.6534],[121.9963,-2.662],[121.9638,-2.6778],[121.9737,-2.6585],[121.9805,-2.651],[122.0037,-2.6346],[122.0108,-2.6334],[122.0166,-2.6458],[122.0182,-2.6469],[122.0238,-2.6454]]]}},{"type":"Feature","properties":{"name":"OneputeJaya","name_en":"OneputeJaya","admin_level":"7","osm_id":""},"geometry":{"type":"Polygon","coordinates":[[[121.9989,-2.7501],[121.9922,-2.7518],[121.9861,-2.7509],[121.9832,-2.746],[121.9905,-2.7297],[121.9946,-2.7253],[122.004,-2.7213],[122.0136,-2.7226],[122.018,-2.7279],[122.0195,-2.7357],[122.0178,-2.7399],[122.0103,-2.7456],[121.9989,-2.7501]]]}},{"type":"Feature","properties":{"name":"Puungkoilu","name_en":"Puungkoilu","admin_level":"7","osm_id":""},"geometry":{"type":"Polygon","coordinates":[[[121.8535,-2.6706],[121.8596,-2.6601],[121.8978,-2.6641],[121.911,-2.6634],[121.9321,-2.6568],[121.9431,-2.65],[121.9724,-2.6158],[121.9826,-2.5987],[121.9877,-2.5933],[121.989,-2.5952],[121.9899,-2.6011],[121.9934,-2.6063],[121.9811,-2.6193],[121.9604,-2.6506],[121.9516,-2.6601],[121.9377,-2.6679],[121.9204,-2.6739],[121.8943,-2.6779],[121.8535,-2.6706]]]}},{"type":"Feature","properties":{"name":"Sakita","name_en":"Sakita","admin_level":"7","osm_id":""},"geometry":{"type":"Polygon","coordinates":[[[121.943,-2.5793],[121.9414,-2.5757],[121.9419,-2.5721],[121.9483,-2.5644],[121.952,-2.5567],[121.9566,-2.5525],[121.969,-2.5529],[121.971,-2.5581],[121.9581,-2.5683],[121.951,-2.571],[121.943,-2.5793]]]}},{"type":"Feature","properties":{"name":"Tofoiso","name_en":"Tofoiso","admin_level":"7","osm_id":""},"geometry":{"type":"Polygon","coordinates":[[[121.972,-2.5479],[121.974,-2.5468],[121.9772,-2.5512],[121.9743,-2.5528],[121.972,-2.5479]]]}},{"type":"Feature","properties":{"name":"Tofuti","name_en":"Tofuti","admin_level":"7","osm_id":""},"geometry":{"type":"Polygon","coordinates":[[[121.979,-2.5619],[121.9707,-2.5768],[121.9404,-2.6105],[121.9267,-2.6218],[121.9122,-2.6308],[121.9152,-2.6174],[121.92,-2.6058],[121.951,-2.571],[121.9581,-2.5683],[121.9713,-2.5579],[121.9743,-2.5528],[121.9772,-2.5512],[121.979,-2.5619]]]}},{"type":"Feature","properties":{"name":"Tudua","name_en":"Tudua","admin_level":"7","osm_id":""},"geometry":{"type":"Polygon","coordinates":[[[121.8663,-2.6493],[121.9033,-2.6505],[121.9237,-2.644],[121.9365,-2.6341],[121.9858,-2.5801],[121.9859,-2.5843],[121.9884,-2.5886],[121.9877,-2.5933],[121.9826,-2.5987],[121.9724,-2.6158],[121.9431,-2.65],[121.9321,-2.6568],[121.911,-2.6634],[121.8978,-2.6641],[121.8596,-2.6601],[121.8663,-2.6493]]]}},{"type":"Feature","properties":{"name":"Ululere","name_en":"Ululere","admin_level":"7","osm_id":""},"geometry":{"type":"Polygon","coordinates":[[[121.9792,-2.7087],[121.972,-2.7143],[121.9621,-2.7192],[121.9483,-2.7238],[121.9227,-2.7288],[121.8967,-2.7277],[121.8796,-2.7205],[121.8673,-2.7197],[121.8468,-2.7334],[121.8314,-2.7499],[121.805,-2.7664],[121.7934,-2.7647],[121.7685,-2.7569],[121.7622,-2.7461],[121.7557,-2.7225],[121.7671,-2.7263],[121.7753,-2.723],[121.7894,-2.7208],[121.7975,-2.7148],[121.803,-2.7075],[121.8145,-2.7027],[121.8231,-2.7009],[121.8285,-2.7011],[121.8398,-2.7048],[121.9218,-2.7013],[121.9366,-2.6977],[121.9449,-2.6982],[121.9551,-2.6911],[121.9629,-2.6819],[121.9713,-2.6785],[121.9817,-2.6771],[121.9974,-2.6788],[121.9986,-2.6816],[121.9737,-2.6933],[121.9732,-2.7027],[121.9756,-2.7066],[121.9792,-2.7087]]]}},{"type":"Feature","properties":{"name":"Unsongi","name_en":"Unsongi","admin_level":"7","osm_id":""},"geometry":{"type":"Polygon","coordinates":[[[121.8285,-2.7011],[121.8377,-2.6961],[121.8398,-2.6913],[121.9047,-2.6913],[121.9408,-2.6841],[121.9464,-2.6812],[121.9594,-2.6684],[121.965,-2.662],[121.9737,-2.6449],[121.9872,-2.6358],[122.0007,-2.6199],[122.0031,-2.6188],[122.0052,-2.6212],[122.0009,-2.6244],[122.0017,-2.6278],[122.0087,-2.6293],[122.0108,-2.6334],[122.0037,-2.6346],[121.9805,-2.651],[121.9737,-2.6585],[121.9638,-2.6778],[121.9573,-2.6848],[121.951,-2.689],[121.9278,-2.6992],[121.9218,-2.7013],[121.8398,-2.7048],[121.8285,-2.7011]]]}}]}