{"type":"FeatureCollection","metadata":{"parent_osm_id":"gid_IDN_8_10_8_1","parent_name":"NipahPanjang","parent_name_1":"Jambi","parent_gid":"IDN.8.10.8_1","parent_level":"6","child_level":"7","count":10,"source":"GADM 4.1","generated":"2026-05-09"},"features":[{"type":"Feature","properties":{"name":"BungaTanjung","name_en":"BungaTanjung","admin_level":"7","osm_id":""},"geometry":{"type":"Polygon","coordinates":[[[104.1278,-1.0474],[104.1346,-1.0505],[104.1637,-1.0481],[104.1653,-1.0601],[104.1612,-1.0705],[104.159,-1.0926],[104.1442,-1.0922],[104.1316,-1.0842],[104.1337,-1.0808],[104.1305,-1.076],[104.1202,-1.0761],[104.1195,-1.0709],[104.1159,-1.0643],[104.1199,-1.0583],[104.1214,-1.0524],[104.1278,-1.0474]]]}},{"type":"Feature","properties":{"name":"NipahPanjangI","name_en":"NipahPanjangI","admin_level":"7","osm_id":""},"geometry":{"type":"Polygon","coordinates":[[[104.1612,-1.0705],[104.1653,-1.0601],[104.1638,-1.0485],[104.1728,-1.0501],[104.1803,-1.0363],[104.1927,-1.0356],[104.2051,-1.0315],[104.2142,-1.0337],[104.25,-1.0331],[104.266,-1.0425],[104.2801,-1.043],[104.2589,-1.0779],[104.244,-1.0852],[104.2416,-1.0889],[104.2328,-1.0946],[104.2241,-1.1039],[104.2129,-1.0933],[104.2021,-1.0897],[104.1989,-1.0838],[104.1612,-1.0705]]]}},{"type":"Feature","properties":{"name":"NipahPanjangIi","name_en":"NipahPanjangIi","admin_level":"7","osm_id":""},"geometry":{"type":"Polygon","coordinates":[[[104.157,-1.0932],[104.159,-1.0926],[104.1612,-1.0705],[104.1985,-1.0836],[104.2002,-1.0866],[104.1921,-1.095],[104.188,-1.1029],[104.1773,-1.1101],[104.169,-1.1053],[104.1618,-1.1071],[104.1526,-1.1059],[104.157,-1.0932]]]}},{"type":"Feature","properties":{"name":"Pemusiran","name_en":"Pemusiran","admin_level":"7","osm_id":""},"geometry":{"type":"Polygon","coordinates":[[[104.1278,-1.0474],[104.1214,-1.0524],[104.1199,-1.0583],[104.1159,-1.0643],[104.1195,-1.0709],[104.1202,-1.0761],[104.1305,-1.076],[104.1337,-1.0819],[104.1266,-1.0895],[104.1247,-1.089],[104.122,-1.0825],[104.119,-1.0821],[104.1162,-1.0849],[104.1181,-1.0922],[104.1153,-1.0941],[104.1092,-1.0918],[104.1056,-1.0925],[104.1038,-1.0988],[104.1006,-1.101],[104.096,-1.0996],[104.0956,-1.0965],[104.0994,-1.0953],[104.1007,-1.0905],[104.0966,-1.085],[104.0951,-1.0783],[104.0932,-1.0753],[104.0803,-1.0664],[104.0893,-1.0287],[104.0997,-1.029],[104.1086,-1.0316],[104.1143,-1.0377],[104.1301,-1.0431],[104.1278,-1.0474]]]}},{"type":"Feature","properties":{"name":"SimpangDatuk","name_en":"SimpangDatuk","admin_level":"7","osm_id":""},"geometry":{"type":"Polygon","coordinates":[[[104.3298,-1.1519],[104.3155,-1.143],[104.2507,-1.1419],[104.2624,-1.1165],[104.2336,-1.0942],[104.2416,-1.0889],[104.2455,-1.0842],[104.2589,-1.0779],[104.2666,-1.0785],[104.2723,-1.0759],[104.2752,-1.0714],[104.2794,-1.0743],[104.284,-1.0722],[104.2874,-1.0766],[104.2968,-1.0749],[104.2993,-1.0799],[104.2941,-1.0806],[104.2953,-1.0845],[104.2921,-1.0885],[104.2873,-1.0885],[104.2898,-1.0861],[104.2891,-1.0832],[104.287,-1.0853],[104.282,-1.0852],[104.2835,-1.092],[104.2871,-1.0944],[104.2872,-1.0972],[104.2935,-1.1041],[104.2979,-1.105],[104.3019,-1.108],[104.3069,-1.1075],[104.3076,-1.1137],[104.3094,-1.1156],[104.3192,-1.1138],[104.3281,-1.121],[104.332,-1.1292],[104.3298,-1.1519]]]}},{"type":"Feature","properties":{"name":"SimpangJelita","name_en":"SimpangJelita","admin_level":"7","osm_id":""},"geometry":{"type":"Polygon","coordinates":[[[104.2589,-1.0779],[104.2803,-1.0428],[104.2876,-1.0478],[104.2992,-1.0482],[104.3043,-1.0457],[104.3194,-1.0438],[104.3224,-1.0413],[104.3258,-1.0411],[104.3356,-1.0507],[104.326,-1.0543],[104.3233,-1.0576],[104.3211,-1.0655],[104.3153,-1.0646],[104.3146,-1.0697],[104.3113,-1.0737],[104.3058,-1.0756],[104.3035,-1.0797],[104.2912,-1.0917],[104.2919,-1.0966],[104.2979,-1.105],[104.2959,-1.1056],[104.2896,-1.1003],[104.2872,-1.0972],[104.2871,-1.0944],[104.2835,-1.092],[104.2815,-1.0861],[104.287,-1.0853],[104.2891,-1.0832],[104.2898,-1.0861],[104.2873,-1.0885],[104.2921,-1.0885],[104.2953,-1.0845],[104.2941,-1.0806],[104.2993,-1.0799],[104.2968,-1.0749],[104.2874,-1.0766],[104.284,-1.0722],[104.2794,-1.0743],[104.2758,-1.0714],[104.2723,-1.0759],[104.2666,-1.0785],[104.2589,-1.0779]]]}},{"type":"Feature","properties":{"name":"SungaiJeruk","name_en":"SungaiJeruk","admin_level":"7","osm_id":""},"geometry":{"type":"Polygon","coordinates":[[[104.2507,-1.1419],[104.2419,-1.1477],[104.2327,-1.148],[104.2258,-1.1327],[104.2109,-1.1302],[104.1986,-1.1333],[104.1942,-1.1322],[104.1858,-1.1368],[104.1801,-1.1322],[104.1744,-1.1218],[104.1748,-1.1135],[104.1772,-1.1099],[104.188,-1.1029],[104.1921,-1.095],[104.2002,-1.0866],[104.2021,-1.0897],[104.2129,-1.0933],[104.2177,-1.0967],[104.2241,-1.1039],[104.2336,-1.0942],[104.2624,-1.1165],[104.2507,-1.1419]]]}},{"type":"Feature","properties":{"name":"SungaiRaya","name_en":"SungaiRaya","admin_level":"7","osm_id":""},"geometry":{"type":"Polygon","coordinates":[[[104.0803,-1.0664],[104.094,-1.0761],[104.0966,-1.085],[104.1007,-1.0905],[104.0994,-1.0953],[104.0956,-1.0965],[104.096,-1.0996],[104.0998,-1.101],[104.0622,-1.1229],[104.0641,-1.1172],[104.0603,-1.1099],[104.0609,-1.1056],[104.0582,-1.1052],[104.0673,-1.0609],[104.0803,-1.0664]]]}},{"type":"Feature","properties":{"name":"SungaiTering","name_en":"SungaiTering","admin_level":"7","osm_id":""},"geometry":{"type":"Polygon","coordinates":[[[104.1315,-1.0841],[104.1442,-1.0922],[104.157,-1.0932],[104.1526,-1.1059],[104.1618,-1.1071],[104.169,-1.1053],[104.1763,-1.1084],[104.1772,-1.1099],[104.1748,-1.1135],[104.1744,-1.1218],[104.1801,-1.1322],[104.1853,-1.1365],[104.1624,-1.1474],[104.1597,-1.1451],[104.1625,-1.1344],[104.1523,-1.1163],[104.1303,-1.0975],[104.1009,-1.1007],[104.1043,-1.0984],[104.1056,-1.0925],[104.1092,-1.0918],[104.1153,-1.0941],[104.1181,-1.0922],[104.1162,-1.0849],[104.1182,-1.0825],[104.122,-1.0825],[104.1253,-1.0894],[104.1281,-1.0893],[104.1315,-1.0841]]]}},{"type":"Feature","properties":{"name":"TelukKijing","name_en":"TelukKijing","admin_level":"7","osm_id":""},"geometry":{"type":"Polygon","coordinates":[[[104.0893,-1.0287],[104.0803,-1.0664],[104.0673,-1.0609],[104.0582,-1.1051],[104.0381,-1.1043],[104.0616,-1.0169],[104.0893,-1.0287]]]}}]}