{"type":"FeatureCollection","metadata":{"parent_osm_id":"gid_IDN_28_4_2_1","parent_name":"BatuAtas","parent_name_1":"SulawesiTenggara","parent_gid":"IDN.28.4.2_1","parent_level":"6","child_level":"7","count":7,"source":"GADM 4.1","generated":"2026-05-08"},"features":[{"type":"Feature","properties":{"name":"BatuAtasLiwu","name_en":"BatuAtasLiwu","admin_level":"7","osm_id":""},"geometry":{"type":"Polygon","coordinates":[[[122.6892,-6.2049],[122.6846,-6.2029],[122.6935,-6.1937],[122.6929,-6.1842],[122.6965,-6.1849],[122.7098,-6.1982],[122.7056,-6.2056],[122.6986,-6.2018],[122.6946,-6.2016],[122.6892,-6.2049]]]}},{"type":"Feature","properties":{"name":"BatuatasBarat","name_en":"BatuatasBarat","admin_level":"7","osm_id":""},"geometry":{"type":"Polygon","coordinates":[[[122.6929,-6.1842],[122.6935,-6.1937],[122.6846,-6.2029],[122.682,-6.2017],[122.6781,-6.1982],[122.6838,-6.1918],[122.6869,-6.1839],[122.6929,-6.1842]]]}},{"type":"Feature","properties":{"name":"BatuatasTimur","name_en":"BatuatasTimur","admin_level":"7","osm_id":""},"geometry":{"type":"Polygon","coordinates":[[[122.7146,-6.2008],[122.7231,-6.2072],[122.7366,-6.2096],[122.7368,-6.2132],[122.7227,-6.2129],[122.7159,-6.2107],[122.7146,-6.2008]]]}},{"type":"Feature","properties":{"name":"Taduasa","name_en":"Taduasa","admin_level":"7","osm_id":""},"geometry":{"type":"Polygon","coordinates":[[[122.7056,-6.2056],[122.7098,-6.1982],[122.7146,-6.2008],[122.7159,-6.2107],[122.7056,-6.2056]]]}},{"type":"Feature","properties":{"name":"TolandoJaya","name_en":"TolandoJaya","admin_level":"7","osm_id":""},"geometry":{"type":"Polygon","coordinates":[[[122.7159,-6.2107],[122.7227,-6.2129],[122.7368,-6.2132],[122.7325,-6.2175],[122.7197,-6.2161],[122.7157,-6.2182],[122.7147,-6.2175],[122.7159,-6.2107]]]}},{"type":"Feature","properties":{"name":"Wacuala","name_en":"Wacuala","admin_level":"7","osm_id":""},"geometry":{"type":"Polygon","coordinates":[[[122.6892,-6.2049],[122.6946,-6.2016],[122.6986,-6.2018],[122.7159,-6.2107],[122.7147,-6.2175],[122.7069,-6.2127],[122.6977,-6.2134],[122.6957,-6.21],[122.6917,-6.208],[122.691,-6.2049],[122.6892,-6.2049]]]}},{"type":"Feature","properties":{"name":"Wambongi","name_en":"Wambongi","admin_level":"7","osm_id":""},"geometry":{"type":"Polygon","coordinates":[[[122.6869,-6.1839],[122.6838,-6.1918],[122.6781,-6.1982],[122.6753,-6.1943],[122.6757,-6.1871],[122.6723,-6.1838],[122.6725,-6.1815],[122.6794,-6.1807],[122.6829,-6.1834],[122.6869,-6.1839]]]}}]}