{"type":"FeatureCollection","metadata":{"parent_osm_id":"8922289","parent_name":"Penanggalan","parent_name_1":"Aceh","parent_gid":"IDN.1.23.2_1","parent_level":"6","child_level":"7","count":10,"source":"GADM 4.1","generated":"2026-05-09"},"features":[{"type":"Feature","properties":{"name":"Cepu","name_en":"Cepu","admin_level":"7","osm_id":""},"geometry":{"type":"Polygon","coordinates":[[[98.0544,2.649],[98.0559,2.6432],[98.054,2.6261],[98.0463,2.623],[98.0384,2.6237],[98.0368,2.6203],[98.0284,2.6232],[98.0318,2.6324],[98.042,2.631],[98.0444,2.6394],[98.0509,2.648],[98.0544,2.649]]]}},{"type":"Feature","properties":{"name":"Jontor","name_en":"Jontor","admin_level":"7","osm_id":""},"geometry":{"type":"Polygon","coordinates":[[[98.0884,2.6556],[98.0905,2.6202],[98.0887,2.6107],[98.0848,2.6024],[98.0748,2.5998],[98.0759,2.6082],[98.0801,2.619],[98.0789,2.6509],[98.0884,2.6556]]]}},{"type":"Feature","properties":{"name":"KampungBaru","name_en":"KampungBaru","admin_level":"7","osm_id":""},"geometry":{"type":"Polygon","coordinates":[[[98.0507,2.6157],[98.0517,2.6195],[98.0583,2.6208],[98.0626,2.6259],[98.0642,2.6508],[98.0715,2.6512],[98.0703,2.6378],[98.0715,2.6256],[98.0657,2.6134],[98.0612,2.6129],[98.0585,2.6097],[98.055,2.6085],[98.0526,2.6151],[98.0507,2.6157]]]}},{"type":"Feature","properties":{"name":"KutaTengah","name_en":"KutaTengah","admin_level":"7","osm_id":""},"geometry":{"type":"Polygon","coordinates":[[[98.0368,2.6203],[98.0384,2.6237],[98.0463,2.623],[98.054,2.6261],[98.0559,2.6432],[98.0544,2.649],[98.0642,2.6508],[98.0626,2.6259],[98.0595,2.6218],[98.0552,2.6195],[98.0517,2.6195],[98.0507,2.6157],[98.0368,2.6203]]]}},{"type":"Feature","properties":{"name":"LaeBersih","name_en":"LaeBersih","admin_level":"7","osm_id":""},"geometry":{"type":"Polygon","coordinates":[[[98.0509,2.648],[98.0444,2.6394],[98.042,2.631],[98.0353,2.6309],[98.0175,2.6383],[98.0297,2.6552],[98.0509,2.648]]]}},{"type":"Feature","properties":{"name":"LaeIkan","name_en":"LaeIkan","admin_level":"7","osm_id":""},"geometry":{"type":"Polygon","coordinates":[[[98.0853,2.6035],[98.0872,2.6056],[98.0905,2.6191],[98.0884,2.6556],[98.1047,2.6632],[98.1034,2.6522],[98.1078,2.629],[98.1053,2.6263],[98.106,2.6205],[98.1104,2.6128],[98.1095,2.6065],[98.1074,2.6045],[98.1001,2.6032],[98.0853,2.6035]]]}},{"type":"Feature","properties":{"name":"LaeMotong","name_en":"LaeMotong","admin_level":"7","osm_id":""},"geometry":{"type":"Polygon","coordinates":[[[98.036,2.5875],[98.0042,2.5986],[97.9883,2.6097],[97.9772,2.62],[98.0002,2.6221],[98.0072,2.6179],[98.0156,2.6099],[98.0262,2.6055],[98.0342,2.6035],[98.0494,2.6036],[98.0663,2.5976],[98.0848,2.6024],[98.0835,2.5921],[98.0788,2.5831],[98.0636,2.5856],[98.0499,2.5903],[98.0473,2.5863],[98.036,2.5875]]]}},{"type":"Feature","properties":{"name":"Penanggalan","name_en":"Penanggalan","admin_level":"7","osm_id":""},"geometry":{"type":"Polygon","coordinates":[[[98.0318,2.6324],[98.0284,2.6232],[98.0526,2.6151],[98.055,2.6085],[98.0503,2.6034],[98.0342,2.6035],[98.0262,2.6055],[98.0156,2.6099],[98.0072,2.6179],[98.0002,2.6221],[98.0175,2.6383],[98.0318,2.6324]]]}},{"type":"Feature","properties":{"name":"Penuntungan","name_en":"Penuntungan","admin_level":"7","osm_id":""},"geometry":{"type":"Polygon","coordinates":[[[98.0544,2.649],[98.0518,2.6476],[98.0297,2.6552],[98.0412,2.6787],[98.0427,2.6909],[98.0399,2.7209],[98.0441,2.7304],[98.0441,2.7352],[98.0415,2.7472],[98.0418,2.7713],[98.0337,2.7935],[98.0301,2.7987],[98.0284,2.8131],[98.0287,2.8271],[98.0335,2.8333],[98.0417,2.8377],[98.0481,2.824],[98.0583,2.8179],[98.0677,2.8174],[98.099,2.8228],[98.098,2.8186],[98.1051,2.7903],[98.1169,2.785],[98.1081,2.7763],[98.0952,2.7748],[98.0696,2.7648],[98.0763,2.7496],[98.0725,2.7424],[98.072,2.7343],[98.0864,2.7051],[98.102,2.687],[98.104,2.6821],[98.1047,2.6632],[98.0797,2.6509],[98.0567,2.6503],[98.0544,2.649]]]}},{"type":"Feature","properties":{"name":"Sikelang","name_en":"Sikelang","admin_level":"7","osm_id":""},"geometry":{"type":"Polygon","coordinates":[[[98.0789,2.6509],[98.0801,2.619],[98.0759,2.6082],[98.0748,2.5998],[98.0663,2.5976],[98.0503,2.6034],[98.0612,2.6129],[98.0657,2.6134],[98.0715,2.6256],[98.0703,2.6378],[98.0715,2.6512],[98.0789,2.6509]]]}}]}