{"type":"FeatureCollection","metadata":{"parent_osm_id":"gid_IDN_17_12_2_1","parent_name":"GunungTerang","parent_name_1":"Lampung","parent_gid":"IDN.17.12.2_1","parent_level":"6","child_level":"7","count":12,"source":"GADM 4.1","generated":"2026-05-09"},"features":[{"type":"Feature","properties":{"name":"GunungAgung","name_en":"GunungAgung","admin_level":"7","osm_id":""},"geometry":{"type":"Polygon","coordinates":[[[105.0912,-4.296],[105.0946,-4.2918],[105.0884,-4.2847],[105.0963,-4.2834],[105.0968,-4.2783],[105.1247,-4.278],[105.1281,-4.2806],[105.1276,-4.2929],[105.1239,-4.2995],[105.1196,-4.3033],[105.1068,-4.3058],[105.104,-4.3112],[105.092,-4.3051],[105.0866,-4.2967],[105.0912,-4.296]]]}},{"type":"Feature","properties":{"name":"GunungTerang","name_en":"GunungTerang","admin_level":"7","osm_id":""},"geometry":{"type":"Polygon","coordinates":[[[105.0969,-4.3961],[105.0941,-4.3914],[105.0898,-4.3926],[105.0895,-4.394],[105.092,-4.3964],[105.0873,-4.3989],[105.0905,-4.4036],[105.0862,-4.4079],[105.0826,-4.4076],[105.0788,-4.4104],[105.0806,-4.4073],[105.0788,-4.4058],[105.0784,-4.3773],[105.0834,-4.3773],[105.0847,-4.3745],[105.086,-4.355],[105.0848,-4.3482],[105.0919,-4.3434],[105.0943,-4.3456],[105.1018,-4.3461],[105.093,-4.3505],[105.0914,-4.3535],[105.0922,-4.3714],[105.0955,-4.3742],[105.1048,-4.3761],[105.1079,-4.3799],[105.1083,-4.3944],[105.0969,-4.3961]]]}},{"type":"Feature","properties":{"name":"KagunganJaya","name_en":"KagunganJaya","admin_level":"7","osm_id":""},"geometry":{"type":"Polygon","coordinates":[[[105.0643,-4.2061],[105.0662,-4.2073],[105.0669,-4.2162],[105.0689,-4.2179],[105.0784,-4.2179],[105.0823,-4.2221],[105.0807,-4.2243],[105.0754,-4.2243],[105.0704,-4.222],[105.0617,-4.2229],[105.0598,-4.2194],[105.0634,-4.2184],[105.0643,-4.2061]]]}},{"type":"Feature","properties":{"name":"MargaMulyo","name_en":"MargaMulyo","admin_level":"7","osm_id":""},"geometry":{"type":"Polygon","coordinates":[[[104.9904,-4.316],[105.0134,-4.3228],[105.0373,-4.3099],[105.0391,-4.3294],[105.0308,-4.3334],[105.0305,-4.336],[105.0236,-4.3462],[105.0245,-4.3397],[105.02,-4.3397],[105.0192,-4.3454],[105.0086,-4.3395],[104.9896,-4.3327],[104.9904,-4.316]]]}},{"type":"Feature","properties":{"name":"MargaSari","name_en":"MargaSari","admin_level":"7","osm_id":""},"geometry":{"type":"Polygon","coordinates":[[[104.9896,-4.3327],[105.0086,-4.3395],[105.0192,-4.3454],[105.02,-4.3675],[105.0129,-4.4046],[105.0082,-4.404],[104.9971,-4.3984],[104.9908,-4.4012],[104.9894,-4.4049],[104.9862,-4.4036],[104.996,-4.3681],[104.992,-4.3525],[104.9896,-4.3327]]]}},{"type":"Feature","properties":{"name":"PancaMarga","name_en":"PancaMarga","admin_level":"7","osm_id":""},"geometry":{"type":"Polygon","coordinates":[[[105.0848,-4.3482],[105.086,-4.355],[105.0847,-4.3745],[105.0834,-4.3773],[105.0451,-4.3777],[105.0452,-4.3466],[105.0618,-4.3466],[105.0666,-4.3449],[105.0848,-4.3482]]]}},{"type":"Feature","properties":{"name":"SaktiJaya","name_en":"SaktiJaya","admin_level":"7","osm_id":""},"geometry":{"type":"Polygon","coordinates":[[[104.9979,-4.2878],[105.0086,-4.2851],[105.0105,-4.2906],[105.0153,-4.2885],[105.017,-4.2902],[105.0207,-4.2881],[105.0354,-4.2878],[105.0344,-4.298],[105.0479,-4.2987],[105.0478,-4.3051],[105.0393,-4.3053],[105.0373,-4.3099],[105.0134,-4.3228],[104.9992,-4.3185],[104.994,-4.2936],[104.994,-4.2887],[104.9979,-4.2878]]]}},{"type":"Feature","properties":{"name":"SetiaBumi","name_en":"SetiaBumi","admin_level":"7","osm_id":""},"geometry":{"type":"Polygon","coordinates":[[[105.0695,-4.2979],[105.0866,-4.2967],[105.0938,-4.3066],[105.104,-4.3112],[105.1017,-4.3155],[105.1018,-4.3461],[105.0943,-4.3456],[105.0919,-4.3434],[105.0851,-4.3483],[105.0666,-4.3449],[105.0654,-4.3274],[105.0695,-4.3164],[105.0695,-4.2979]]]}},{"type":"Feature","properties":{"name":"TerangMulya","name_en":"TerangMulya","admin_level":"7","osm_id":""},"geometry":{"type":"Polygon","coordinates":[[[105.0784,-4.3773],[105.0788,-4.4058],[105.0737,-4.4035],[105.0728,-4.4069],[105.0677,-4.412],[105.0599,-4.4152],[105.056,-4.4144],[105.0527,-4.4114],[105.0569,-4.4088],[105.0564,-4.4062],[105.0483,-4.4075],[105.0499,-4.4034],[105.0485,-4.4004],[105.0469,-4.4012],[105.0455,-4.4062],[105.0418,-4.4045],[105.0401,-4.3858],[105.0469,-4.3782],[105.0784,-4.3773]]]}},{"type":"Feature","properties":{"name":"TotoKaton","name_en":"TotoKaton","admin_level":"7","osm_id":""},"geometry":{"type":"Polygon","coordinates":[[[105.0192,-4.3454],[105.02,-4.3397],[105.0245,-4.3397],[105.0236,-4.3462],[105.0305,-4.336],[105.0308,-4.3334],[105.0391,-4.3294],[105.0398,-4.344],[105.0452,-4.3466],[105.0452,-4.3708],[105.0301,-4.3722],[105.0199,-4.3681],[105.0192,-4.3454]]]}},{"type":"Feature","properties":{"name":"TotoMulyo","name_en":"TotoMulyo","admin_level":"7","osm_id":""},"geometry":{"type":"Polygon","coordinates":[[[105.0479,-4.2989],[105.0695,-4.2979],[105.0695,-4.3164],[105.0654,-4.3274],[105.0666,-4.3455],[105.0431,-4.3466],[105.0398,-4.344],[105.0397,-4.3309],[105.0368,-4.311],[105.0393,-4.3053],[105.0478,-4.3051],[105.0479,-4.2989]]]}},{"type":"Feature","properties":{"name":"TotoWonodadi","name_en":"TotoWonodadi","admin_level":"7","osm_id":""},"geometry":{"type":"Polygon","coordinates":[[[105.0129,-4.4046],[105.0199,-4.3681],[105.0301,-4.3722],[105.0452,-4.3708],[105.0451,-4.3777],[105.0469,-4.3782],[105.0401,-4.3858],[105.041,-4.3957],[105.0403,-4.3994],[105.0382,-4.4004],[105.039,-4.4035],[105.0376,-4.4099],[105.0317,-4.4098],[105.0322,-4.4032],[105.0295,-4.4009],[105.0255,-4.4012],[105.029,-4.4065],[105.0268,-4.4092],[105.025,-4.4085],[105.0239,-4.4026],[105.0186,-4.4],[105.0185,-4.41],[105.0161,-4.4106],[105.0127,-4.4089],[105.0129,-4.4046]]]}}]}