{"type":"FeatureCollection","metadata":{"parent_osm_id":"gid_IDN_9_4_14_1","parent_name":"Pebayuran","parent_name_1":"JawaBarat","parent_gid":"IDN.9.4.14_1","parent_level":"6","child_level":"7","count":13,"source":"GADM 4.1","generated":"2026-05-08"},"features":[{"type":"Feature","properties":{"name":"Bantarjaya","name_en":"Bantarjaya","admin_level":"7","osm_id":""},"geometry":{"type":"Polygon","coordinates":[[[107.2694,-6.233],[107.2528,-6.2202],[107.2632,-6.1971],[107.2783,-6.2135],[107.2786,-6.2154],[107.2725,-6.2163],[107.2729,-6.22],[107.2756,-6.2228],[107.2807,-6.2234],[107.2836,-6.2255],[107.2821,-6.2289],[107.2744,-6.2336],[107.2702,-6.2315],[107.2694,-6.233]]]}},{"type":"Feature","properties":{"name":"Bantarsari","name_en":"Bantarsari","admin_level":"7","osm_id":""},"geometry":{"type":"Polygon","coordinates":[[[107.2457,-6.215],[107.2289,-6.2026],[107.2281,-6.1967],[107.2632,-6.1971],[107.2529,-6.2203],[107.2503,-6.2197],[107.2457,-6.215]]]}},{"type":"Feature","properties":{"name":"Karangharja","name_en":"Karangharja","admin_level":"7","osm_id":""},"geometry":{"type":"Polygon","coordinates":[[[107.1882,-6.1132],[107.1965,-6.0916],[107.2216,-6.1039],[107.2301,-6.1026],[107.2375,-6.1044],[107.2444,-6.1007],[107.2468,-6.1011],[107.2482,-6.1037],[107.2482,-6.1086],[107.2367,-6.1157],[107.2295,-6.1244],[107.2188,-6.1244],[107.2057,-6.1212],[107.1882,-6.1132]]]}},{"type":"Feature","properties":{"name":"Karanghaur","name_en":"Karanghaur","admin_level":"7","osm_id":""},"geometry":{"type":"Polygon","coordinates":[[[107.267,-6.1895],[107.2638,-6.1738],[107.261,-6.169],[107.2722,-6.1684],[107.2799,-6.1658],[107.2794,-6.1711],[107.2832,-6.1737],[107.2795,-6.1789],[107.2699,-6.1836],[107.267,-6.1895]]]}},{"type":"Feature","properties":{"name":"Karangjaya","name_en":"Karangjaya","admin_level":"7","osm_id":""},"geometry":{"type":"Polygon","coordinates":[[[107.261,-6.169],[107.2468,-6.1698],[107.2427,-6.1608],[107.2436,-6.1566],[107.2397,-6.1458],[107.2516,-6.145],[107.261,-6.169]]]}},{"type":"Feature","properties":{"name":"Karangpatri","name_en":"Karangpatri","admin_level":"7","osm_id":""},"geometry":{"type":"Polygon","coordinates":[[[107.2632,-6.1971],[107.2281,-6.1967],[107.2246,-6.1711],[107.261,-6.169],[107.2638,-6.1738],[107.267,-6.1895],[107.2632,-6.1971]]]}},{"type":"Feature","properties":{"name":"Karangreja","name_en":"Karangreja","admin_level":"7","osm_id":""},"geometry":{"type":"Polygon","coordinates":[[[107.2397,-6.1458],[107.2436,-6.1566],[107.2427,-6.1608],[107.2468,-6.1698],[107.2246,-6.1711],[107.2085,-6.1389],[107.2397,-6.1458]]]}},{"type":"Feature","properties":{"name":"Karangsegar","name_en":"Karangsegar","admin_level":"7","osm_id":""},"geometry":{"type":"Polygon","coordinates":[[[107.2048,-6.1207],[107.2188,-6.1244],[107.2297,-6.1243],[107.235,-6.1171],[107.2482,-6.1086],[107.2478,-6.1149],[107.2506,-6.1164],[107.2506,-6.125],[107.2469,-6.1245],[107.2404,-6.1294],[107.2424,-6.133],[107.2486,-6.1366],[107.2423,-6.1402],[107.2397,-6.1458],[107.2085,-6.1389],[107.2048,-6.1295],[107.2048,-6.1207]]]}},{"type":"Feature","properties":{"name":"Kertajaya","name_en":"Kertajaya","admin_level":"7","osm_id":""},"geometry":{"type":"Polygon","coordinates":[[[107.267,-6.1895],[107.2699,-6.1836],[107.2795,-6.1789],[107.2832,-6.1737],[107.2845,-6.1741],[107.2869,-6.1776],[107.2862,-6.1839],[107.2921,-6.1901],[107.2911,-6.201],[107.2788,-6.2051],[107.2763,-6.2032],[107.2712,-6.193],[107.267,-6.1895]]]}},{"type":"Feature","properties":{"name":"Kertasari","name_en":"Kertasari","admin_level":"7","osm_id":""},"geometry":{"type":"Polygon","coordinates":[[[107.2786,-6.2154],[107.2772,-6.212],[107.2632,-6.1971],[107.267,-6.1895],[107.2712,-6.193],[107.2763,-6.2032],[107.2788,-6.2051],[107.2875,-6.2015],[107.2964,-6.2016],[107.2917,-6.2166],[107.289,-6.2175],[107.2786,-6.2154]]]}},{"type":"Feature","properties":{"name":"Sumberreja","name_en":"Sumberreja","admin_level":"7","osm_id":""},"geometry":{"type":"Polygon","coordinates":[[[107.2556,-6.1553],[107.2514,-6.1448],[107.2397,-6.1458],[107.2423,-6.1402],[107.2494,-6.1355],[107.2691,-6.1313],[107.2706,-6.1297],[107.2736,-6.1303],[107.2771,-6.1274],[107.2807,-6.1271],[107.2815,-6.1292],[107.2795,-6.1334],[107.2834,-6.1354],[107.2839,-6.1373],[107.281,-6.1448],[107.2684,-6.1467],[107.2624,-6.1537],[107.2556,-6.1553]]]}},{"type":"Feature","properties":{"name":"Sumbersari","name_en":"Sumbersari","admin_level":"7","osm_id":""},"geometry":{"type":"Polygon","coordinates":[[[107.2799,-6.1658],[107.2722,-6.1684],[107.261,-6.169],[107.2556,-6.1553],[107.2624,-6.1537],[107.2684,-6.1467],[107.2803,-6.1447],[107.2824,-6.148],[107.2858,-6.1487],[107.289,-6.1419],[107.2921,-6.1406],[107.2888,-6.1557],[107.2803,-6.1581],[107.2785,-6.1611],[107.2799,-6.1658]]]}},{"type":"Feature","properties":{"name":"Sumberurip","name_en":"Sumberurip","admin_level":"7","osm_id":""},"geometry":{"type":"Polygon","coordinates":[[[107.2486,-6.1366],[107.2424,-6.133],[107.2404,-6.1291],[107.2469,-6.1245],[107.2506,-6.125],[107.2506,-6.1164],[107.2625,-6.111],[107.2653,-6.1113],[107.2694,-6.1156],[107.2706,-6.1297],[107.2691,-6.1313],[107.2486,-6.1366]]]}}]}