{"type":"FeatureCollection","metadata":{"parent_osm_id":"gid_IDN_11_22_30_1","parent_name":"Turen","parent_name_1":"JawaTimur","parent_gid":"IDN.11.22.30_1","parent_level":"6","child_level":"7","count":17,"source":"GADM 4.1","generated":"2026-05-07"},"features":[{"type":"Feature","properties":{"name":"GedogKulon","name_en":"GedogKulon","admin_level":"7","osm_id":""},"geometry":{"type":"Polygon","coordinates":[[[112.6884,-8.1956],[112.6825,-8.215],[112.6814,-8.2133],[112.6757,-8.2129],[112.6747,-8.2111],[112.6805,-8.2019],[112.6807,-8.1979],[112.6842,-8.1974],[112.6855,-8.1934],[112.6884,-8.1956]]]}},{"type":"Feature","properties":{"name":"GedogWetan","name_en":"GedogWetan","admin_level":"7","osm_id":""},"geometry":{"type":"Polygon","coordinates":[[[112.7049,-8.2012],[112.7021,-8.2056],[112.7035,-8.2061],[112.703,-8.2081],[112.7012,-8.2071],[112.6983,-8.2112],[112.7,-8.2152],[112.6997,-8.2195],[112.6969,-8.2196],[112.6964,-8.2209],[112.6988,-8.224],[112.6922,-8.2226],[112.6926,-8.2216],[112.6842,-8.2145],[112.6825,-8.215],[112.6884,-8.1956],[112.7049,-8.2012]]]}},{"type":"Feature","properties":{"name":"Jeru","name_en":"Jeru","admin_level":"7","osm_id":""},"geometry":{"type":"Polygon","coordinates":[[[112.6734,-8.1686],[112.6647,-8.1589],[112.6708,-8.1541],[112.6714,-8.1491],[112.6872,-8.1552],[112.6882,-8.16],[112.6904,-8.1606],[112.6898,-8.1647],[112.6784,-8.1649],[112.6775,-8.1674],[112.6734,-8.1686]]]}},{"type":"Feature","properties":{"name":"Kedok","name_en":"Kedok","admin_level":"7","osm_id":""},"geometry":{"type":"Polygon","coordinates":[[[112.6899,-8.1647],[112.6904,-8.1606],[112.6882,-8.16],[112.6871,-8.1563],[112.6897,-8.148],[112.6929,-8.1468],[112.6973,-8.1368],[112.7027,-8.1321],[112.7076,-8.1335],[112.7041,-8.1404],[112.7061,-8.1412],[112.7022,-8.1508],[112.6982,-8.1543],[112.6978,-8.1534],[112.6946,-8.1616],[112.6899,-8.1647]]]}},{"type":"Feature","properties":{"name":"Kemulan","name_en":"Kemulan","admin_level":"7","osm_id":""},"geometry":{"type":"Polygon","coordinates":[[[112.64,-8.2378],[112.6408,-8.2348],[112.6393,-8.2342],[112.6459,-8.2218],[112.6491,-8.2224],[112.6521,-8.2191],[112.6632,-8.2207],[112.6696,-8.2232],[112.6656,-8.2336],[112.6635,-8.2349],[112.6577,-8.2361],[112.6554,-8.2344],[112.6509,-8.2362],[112.6505,-8.2332],[112.6449,-8.2318],[112.6443,-8.235],[112.64,-8.2378]]]}},{"type":"Feature","properties":{"name":"Pagedangan","name_en":"Pagedangan","admin_level":"7","osm_id":""},"geometry":{"type":"Polygon","coordinates":[[[112.7292,-8.1572],[112.729,-8.1609],[112.7248,-8.1683],[112.7155,-8.174],[112.7151,-8.1776],[112.7131,-8.1772],[112.7126,-8.1801],[112.7096,-8.1812],[112.7021,-8.1769],[112.705,-8.1699],[112.7047,-8.1675],[112.7022,-8.1667],[112.7028,-8.1631],[112.6951,-8.1606],[112.6963,-8.1553],[112.7019,-8.1513],[112.7051,-8.1441],[112.7074,-8.145],[112.7077,-8.1501],[112.7133,-8.1543],[112.7132,-8.156],[112.717,-8.1553],[112.7221,-8.1569],[112.7243,-8.1594],[112.7276,-8.1565],[112.7292,-8.1572]]]}},{"type":"Feature","properties":{"name":"Sanankerto","name_en":"Sanankerto","admin_level":"7","osm_id":""},"geometry":{"type":"Polygon","coordinates":[[[112.7712,-8.1627],[112.7609,-8.1614],[112.7575,-8.1534],[112.7459,-8.1576],[112.7332,-8.1575],[112.7316,-8.1566],[112.735,-8.1548],[112.7366,-8.1513],[112.7352,-8.1506],[112.7358,-8.1482],[112.7375,-8.1484],[112.733,-8.1452],[112.7428,-8.1445],[112.7511,-8.1491],[112.7608,-8.1486],[112.7614,-8.1528],[112.772,-8.1515],[112.7711,-8.1547],[112.773,-8.1552],[112.7733,-8.1579],[112.7712,-8.1627]]]}},{"type":"Feature","properties":{"name":"Sananrejo","name_en":"Sananrejo","admin_level":"7","osm_id":""},"geometry":{"type":"Polygon","coordinates":[[[112.7316,-8.1566],[112.7307,-8.1578],[112.7276,-8.1565],[112.7243,-8.1594],[112.7221,-8.1569],[112.717,-8.1553],[112.7132,-8.156],[112.7133,-8.1543],[112.7087,-8.1517],[112.707,-8.1487],[112.7074,-8.145],[112.7051,-8.1441],[112.7061,-8.1412],[112.7129,-8.1425],[112.7133,-8.1408],[112.7214,-8.1403],[112.7234,-8.1458],[112.7289,-8.1458],[112.7297,-8.1478],[112.734,-8.1458],[112.7375,-8.1484],[112.7358,-8.1482],[112.7352,-8.1506],[112.7366,-8.1513],[112.735,-8.1548],[112.7316,-8.1566]]]}},{"type":"Feature","properties":{"name":"Sawahan","name_en":"Sawahan","admin_level":"7","osm_id":""},"geometry":{"type":"Polygon","coordinates":[[[112.6501,-8.2063],[112.6688,-8.2046],[112.6758,-8.2084],[112.6725,-8.2209],[112.6696,-8.2232],[112.6632,-8.2207],[112.6521,-8.2191],[112.6491,-8.2224],[112.6459,-8.2218],[112.6477,-8.2168],[112.6449,-8.2143],[112.6501,-8.2063]]]}},{"type":"Feature","properties":{"name":"Sedayu","name_en":"Sedayu","admin_level":"7","osm_id":""},"geometry":{"type":"Polygon","coordinates":[[[112.6749,-8.1938],[112.6732,-8.1928],[112.6744,-8.1899],[112.6755,-8.1904],[112.6757,-8.1881],[112.6774,-8.1875],[112.6833,-8.1761],[112.6941,-8.1829],[112.6887,-8.1869],[112.6879,-8.1915],[112.6772,-8.188],[112.6749,-8.1938]]]}},{"type":"Feature","properties":{"name":"Talangsuko","name_en":"Talangsuko","admin_level":"7","osm_id":""},"geometry":{"type":"Polygon","coordinates":[[[112.6739,-8.1335],[112.6754,-8.1336],[112.681,-8.1271],[112.6832,-8.128],[112.6821,-8.1334],[112.6972,-8.1373],[112.6929,-8.1468],[112.6897,-8.148],[112.6872,-8.1552],[112.6714,-8.1491],[112.6753,-8.1406],[112.6739,-8.1335]]]}},{"type":"Feature","properties":{"name":"Talok","name_en":"Talok","admin_level":"7","osm_id":""},"geometry":{"type":"Polygon","coordinates":[[[112.7096,-8.1812],[112.71,-8.1846],[112.7065,-8.1878],[112.707,-8.1906],[112.7041,-8.192],[112.7036,-8.1945],[112.7052,-8.1984],[112.7072,-8.1984],[112.7062,-8.1997],[112.7072,-8.201],[112.6932,-8.1981],[112.6875,-8.1947],[112.6883,-8.1875],[112.6928,-8.1847],[112.6954,-8.1812],[112.6942,-8.1794],[112.6972,-8.179],[112.6981,-8.1759],[112.7096,-8.1812]]]}},{"type":"Feature","properties":{"name":"Tanggung","name_en":"Tanggung","admin_level":"7","osm_id":""},"geometry":{"type":"Polygon","coordinates":[[[112.6738,-8.1912],[112.6705,-8.1894],[112.6681,-8.1789],[112.6715,-8.1744],[112.6729,-8.169],[112.6775,-8.1674],[112.6784,-8.1649],[112.6898,-8.1647],[112.6868,-8.1698],[112.6809,-8.1729],[112.6798,-8.1752],[112.6827,-8.177],[112.6774,-8.1875],[112.6738,-8.1912]]]}},{"type":"Feature","properties":{"name":"Tawangrejeni","name_en":"Tawangrejeni","admin_level":"7","osm_id":""},"geometry":{"type":"Polygon","coordinates":[[[112.6955,-8.2239],[112.697,-8.2249],[112.6916,-8.2269],[112.6892,-8.2299],[112.6857,-8.2281],[112.6847,-8.2312],[112.681,-8.2342],[112.6768,-8.2318],[112.6748,-8.2337],[112.6768,-8.2343],[112.6765,-8.2358],[112.6721,-8.2336],[112.668,-8.2367],[112.6657,-8.2365],[112.6696,-8.2232],[112.6737,-8.2187],[112.6748,-8.2116],[112.6776,-8.2138],[112.6814,-8.2133],[112.6836,-8.2154],[112.6841,-8.2144],[112.6926,-8.2216],[112.6922,-8.2226],[112.6955,-8.2239]]]}},{"type":"Feature","properties":{"name":"Tumpukrenteng","name_en":"Tumpukrenteng","admin_level":"7","osm_id":""},"geometry":{"type":"Polygon","coordinates":[[[112.6827,-8.1242],[112.6876,-8.1184],[112.6953,-8.1197],[112.6965,-8.1166],[112.6981,-8.1171],[112.6976,-8.1196],[112.6999,-8.1199],[112.6996,-8.1219],[112.7016,-8.1224],[112.7012,-8.1246],[112.707,-8.126],[112.7096,-8.1239],[112.7064,-8.1298],[112.7091,-8.1324],[112.7076,-8.1335],[112.7027,-8.1321],[112.6972,-8.1373],[112.6821,-8.1334],[112.6832,-8.128],[112.6809,-8.127],[112.6827,-8.1242]]]}},{"type":"Feature","properties":{"name":"Turen","name_en":"Turen","admin_level":"7","osm_id":""},"geometry":{"type":"Polygon","coordinates":[[[112.6898,-8.1647],[112.6951,-8.1606],[112.7028,-8.1631],[112.7022,-8.1667],[112.7047,-8.1675],[112.7021,-8.1769],[112.6981,-8.1759],[112.6972,-8.179],[112.6942,-8.1794],[112.6954,-8.1812],[112.6941,-8.1829],[112.6844,-8.1763],[112.6827,-8.177],[112.6798,-8.1752],[112.6811,-8.1727],[112.6868,-8.1698],[112.6898,-8.1647]]]}},{"type":"Feature","properties":{"name":"Undaan","name_en":"Undaan","admin_level":"7","osm_id":""},"geometry":{"type":"Polygon","coordinates":[[[112.6688,-8.2046],[112.6772,-8.188],[112.6878,-8.1915],[112.6842,-8.1974],[112.6807,-8.1979],[112.6805,-8.2019],[112.6759,-8.2084],[112.6688,-8.2046]]]}}]}