{"type":"FeatureCollection","metadata":{"parent_osm_id":"gid_IDN_27_2_5_1","parent_name":"Bualemo","parent_name_1":"SulawesiTengah","parent_gid":"IDN.27.2.5_1","parent_level":"6","child_level":"7","count":19,"source":"GADM 4.1","generated":"2026-05-08"},"features":[{"type":"Feature","properties":{"name":"BimaKarya","name_en":"BimaKarya","admin_level":"7","osm_id":""},"geometry":{"type":"Polygon","coordinates":[[[123.354,-0.7659],[123.351,-0.7716],[123.331,-0.7773],[123.3174,-0.7857],[123.3148,-0.7689],[123.317,-0.7648],[123.317,-0.7572],[123.3153,-0.7174],[123.3135,-0.7066],[123.3148,-0.6865],[123.3059,-0.639],[123.301,-0.6332],[123.2975,-0.6202],[123.2975,-0.6135],[123.3023,-0.6059],[123.3118,-0.6114],[123.3177,-0.6106],[123.3158,-0.6159],[123.3161,-0.6278],[123.3197,-0.6372],[123.3206,-0.6583],[123.3228,-0.6627],[123.3281,-0.6927],[123.3277,-0.7044],[123.3442,-0.7603],[123.354,-0.7659]]]}},{"type":"Feature","properties":{"name":"BinsilK","name_en":"BinsilK","admin_level":"7","osm_id":""},"geometry":{"type":"Polygon","coordinates":[[[123.2619,-0.5969],[123.269,-0.5978],[123.2761,-0.6036],[123.2779,-0.6144],[123.2823,-0.6206],[123.2872,-0.6386],[123.2966,-0.6524],[123.2961,-0.6614],[123.2912,-0.669],[123.2859,-0.6641],[123.2832,-0.6515],[123.277,-0.6404],[123.2743,-0.6386],[123.2734,-0.6256],[123.2654,-0.6144],[123.2672,-0.6121],[123.2672,-0.6023],[123.2619,-0.5969]]]}},{"type":"Feature","properties":{"name":"BinsilPadang","name_en":"BinsilPadang","admin_level":"7","osm_id":""},"geometry":{"type":"Polygon","coordinates":[[[123.3174,-0.7857],[123.3043,-0.7849],[123.3041,-0.7707],[123.3108,-0.7581],[123.3059,-0.712],[123.3081,-0.6905],[123.3055,-0.6842],[123.3055,-0.6771],[123.2912,-0.669],[123.2961,-0.6614],[123.2966,-0.6524],[123.2872,-0.6386],[123.2823,-0.6206],[123.2779,-0.6144],[123.2761,-0.6036],[123.269,-0.5978],[123.2619,-0.5969],[123.2628,-0.5803],[123.2685,-0.5824],[123.3024,-0.6059],[123.2975,-0.6135],[123.2975,-0.6202],[123.301,-0.6332],[123.3059,-0.639],[123.3148,-0.6865],[123.3135,-0.7066],[123.3153,-0.7174],[123.317,-0.7572],[123.317,-0.7648],[123.3148,-0.7689],[123.3174,-0.7857]]]}},{"type":"Feature","properties":{"name":"BualemoA","name_en":"BualemoA","admin_level":"7","osm_id":""},"geometry":{"type":"Polygon","coordinates":[[[123.1505,-0.5783],[123.1499,-0.5768],[123.1636,-0.5837],[123.1699,-0.5834],[123.1704,-0.5915],[123.1814,-0.6112],[123.1889,-0.6215],[123.192,-0.6336],[123.2005,-0.648],[123.2,-0.6574],[123.2018,-0.6659],[123.2072,-0.6713],[123.208,-0.6847],[123.2147,-0.6968],[123.2214,-0.7026],[123.2245,-0.7187],[123.2276,-0.7268],[123.2276,-0.7348],[123.233,-0.7474],[123.2325,-0.7569],[123.2272,-0.7543],[123.2133,-0.7515],[123.205,-0.7584],[123.1916,-0.7638],[123.1925,-0.7496],[123.1903,-0.7362],[123.1809,-0.716],[123.1809,-0.7044],[123.1787,-0.6981],[123.172,-0.6538],[123.1716,-0.6395],[123.1689,-0.6327],[123.1631,-0.6301],[123.1613,-0.6247],[123.1516,-0.6113],[123.1496,-0.5983],[123.1524,-0.5933],[123.1524,-0.5875],[123.1504,-0.5844],[123.1505,-0.5783]]]}},{"type":"Feature","properties":{"name":"BualemoB","name_en":"BualemoB","admin_level":"7","osm_id":""},"geometry":{"type":"Polygon","coordinates":[[[123.1505,-0.5783],[123.1524,-0.5933],[123.1493,-0.5987],[123.1493,-0.6027],[123.145,-0.6093],[123.1245,-0.6143],[123.1206,-0.6223],[123.1206,-0.6101],[123.1251,-0.5966],[123.1259,-0.5728],[123.1374,-0.576],[123.1443,-0.5748],[123.1494,-0.5762],[123.1505,-0.5783]]]}},{"type":"Feature","properties":{"name":"DwiKarya","name_en":"DwiKarya","admin_level":"7","osm_id":""},"geometry":{"type":"Polygon","coordinates":[[[123.1002,-0.6399],[123.1024,-0.659],[123.1048,-0.6669],[123.1036,-0.6925],[123.1001,-0.7073],[123.1011,-0.7245],[123.0977,-0.7294],[123.0896,-0.7324],[123.0644,-0.7285],[123.0586,-0.716],[123.0586,-0.7094],[123.0594,-0.7053],[123.0677,-0.6937],[123.0733,-0.6731],[123.0711,-0.6581],[123.0716,-0.6406],[123.0642,-0.6111],[123.0679,-0.6111],[123.0864,-0.5978],[123.0945,-0.5999],[123.0923,-0.6039],[123.094,-0.617],[123.0992,-0.6295],[123.1002,-0.6399]]]}},{"type":"Feature","properties":{"name":"LembahMakmur","name_en":"LembahMakmur","admin_level":"7","osm_id":""},"geometry":{"type":"Polygon","coordinates":[[[123.0896,-0.7324],[123.0977,-0.7294],[123.1011,-0.7245],[123.1001,-0.7073],[123.1036,-0.6925],[123.1048,-0.6669],[123.1024,-0.659],[123.1002,-0.6399],[123.1026,-0.6399],[123.1049,-0.635],[123.1178,-0.6224],[123.1206,-0.6224],[123.1202,-0.6298],[123.1263,-0.6437],[123.1292,-0.6572],[123.1313,-0.6826],[123.137,-0.7126],[123.1362,-0.7232],[123.1378,-0.7392],[123.1353,-0.7515],[123.116,-0.7515],[123.1035,-0.7598],[123.093,-0.7588],[123.0896,-0.7324]]]}},{"type":"Feature","properties":{"name":"LembahTompotika","name_en":"LembahTompotika","admin_level":"7","osm_id":""},"geometry":{"type":"Polygon","coordinates":[[[123.0642,-0.6111],[123.0716,-0.6406],[123.0711,-0.6581],[123.0733,-0.6731],[123.0677,-0.6937],[123.0594,-0.7053],[123.0586,-0.7094],[123.0586,-0.716],[123.0644,-0.7285],[123.0033,-0.7201],[123.0063,-0.7056],[123.0109,-0.7005],[123.0101,-0.697],[123.0154,-0.6868],[123.02,-0.6833],[123.0233,-0.6635],[123.0246,-0.6416],[123.0304,-0.6226],[123.0311,-0.5986],[123.0356,-0.595],[123.038,-0.5965],[123.0425,-0.5948],[123.0485,-0.5876],[123.0558,-0.5962],[123.0588,-0.5936],[123.0654,-0.5919],[123.0642,-0.6111]]]}},{"type":"Feature","properties":{"name":"LongkogaBarat","name_en":"LongkogaBarat","admin_level":"7","osm_id":""},"geometry":{"type":"Polygon","coordinates":[[[123.0945,-0.5999],[123.0864,-0.5978],[123.0679,-0.6111],[123.0642,-0.6111],[123.0654,-0.5919],[123.0588,-0.5936],[123.0558,-0.5962],[123.0487,-0.5872],[123.0532,-0.5783],[123.0498,-0.5742],[123.0501,-0.5686],[123.057,-0.5643],[123.0602,-0.5643],[123.0779,-0.5714],[123.0833,-0.5701],[123.0872,-0.5714],[123.0892,-0.5728],[123.0867,-0.5754],[123.0897,-0.5769],[123.0978,-0.5768],[123.0977,-0.5926],[123.0945,-0.5999]]]}},{"type":"Feature","properties":{"name":"LongkogaTimur","name_en":"LongkogaTimur","admin_level":"7","osm_id":""},"geometry":{"type":"Polygon","coordinates":[[[123.1251,-0.5807],[123.1251,-0.5966],[123.1206,-0.6101],[123.1206,-0.6224],[123.1178,-0.6224],[123.1049,-0.635],[123.1026,-0.6399],[123.1002,-0.6399],[123.0992,-0.6295],[123.094,-0.617],[123.0923,-0.6039],[123.0977,-0.5926],[123.0976,-0.5767],[123.0993,-0.5744],[123.1151,-0.57],[123.1258,-0.5729],[123.1251,-0.5807]]]}},{"type":"Feature","properties":{"name":"Malik","name_en":"Malik","admin_level":"7","osm_id":""},"geometry":{"type":"Polygon","coordinates":[[[123.2619,-0.5969],[123.2672,-0.6023],[123.2672,-0.6121],[123.2654,-0.6144],[123.2734,-0.6256],[123.2743,-0.6386],[123.277,-0.6404],[123.2832,-0.6515],[123.2859,-0.6641],[123.2917,-0.6695],[123.3055,-0.6771],[123.3055,-0.6842],[123.3081,-0.6905],[123.3059,-0.712],[123.3108,-0.7581],[123.3041,-0.7707],[123.3043,-0.7849],[123.3006,-0.7835],[123.2981,-0.7779],[123.2967,-0.7682],[123.2915,-0.7627],[123.2939,-0.7501],[123.2832,-0.7196],[123.2814,-0.6883],[123.277,-0.6735],[123.2699,-0.665],[123.2694,-0.6601],[123.2592,-0.6448],[123.2561,-0.6332],[123.2525,-0.6314],[123.2525,-0.6283],[123.2499,-0.626],[123.2476,-0.6148],[123.2454,-0.6099],[123.2423,-0.609],[123.2346,-0.5823],[123.2448,-0.583],[123.2527,-0.582],[123.2588,-0.5791],[123.2627,-0.58],[123.2619,-0.5969]]]}},{"type":"Feature","properties":{"name":"MalikMakmur","name_en":"MalikMakmur","admin_level":"7","osm_id":""},"geometry":{"type":"Polygon","coordinates":[[[123.2346,-0.5823],[123.2423,-0.609],[123.2454,-0.6099],[123.2476,-0.6148],[123.2499,-0.626],[123.2525,-0.6283],[123.2525,-0.6314],[123.2561,-0.6332],[123.2592,-0.6448],[123.2694,-0.6601],[123.2699,-0.665],[123.277,-0.6735],[123.2814,-0.6883],[123.2832,-0.7196],[123.2939,-0.7501],[123.2915,-0.7627],[123.2778,-0.7538],[123.2669,-0.7514],[123.2668,-0.7492],[123.2629,-0.745],[123.258,-0.7353],[123.251,-0.7293],[123.2417,-0.706],[123.2341,-0.659],[123.2318,-0.6526],[123.2235,-0.6396],[123.2073,-0.5976],[123.2046,-0.5863],[123.2055,-0.5803],[123.2089,-0.573],[123.2201,-0.5786],[123.2346,-0.5823]]]}},{"type":"Feature","properties":{"name":"Mayayap","name_en":"Mayayap","admin_level":"7","osm_id":""},"geometry":{"type":"Polygon","coordinates":[[[122.9417,-0.6485],[122.9383,-0.6482],[122.9337,-0.6442],[122.9327,-0.6409],[122.9274,-0.6383],[122.9144,-0.6401],[122.9154,-0.6482],[122.9223,-0.6614],[122.9205,-0.6662],[122.9175,-0.6688],[122.9167,-0.6772],[122.9126,-0.6845],[122.9162,-0.6861],[122.9167,-0.6916],[122.9101,-0.7026],[122.9098,-0.7072],[122.8663,-0.7012],[122.8695,-0.682],[122.8667,-0.6718],[122.8682,-0.669],[122.868,-0.6619],[122.8641,-0.6574],[122.8649,-0.648],[122.8639,-0.6431],[122.8606,-0.6398],[122.8593,-0.6325],[122.8613,-0.6225],[122.8652,-0.6218],[122.8645,-0.6254],[122.8675,-0.6283],[122.8736,-0.6292],[122.8746,-0.6351],[122.8791,-0.6385],[122.8816,-0.6385],[122.894,-0.6341],[122.8968,-0.6269],[122.8945,-0.6229],[122.905,-0.6256],[122.9203,-0.6264],[122.9234,-0.6259],[122.9243,-0.6205],[122.9281,-0.6183],[122.9405,-0.6212],[122.9541,-0.6179],[122.9426,-0.6231],[122.9402,-0.6261],[122.9407,-0.6272],[122.9427,-0.6256],[122.9459,-0.6265],[122.9452,-0.6307],[122.9478,-0.6334],[122.9465,-0.6376],[122.9517,-0.6378],[122.9528,-0.6436],[122.952,-0.6481],[122.9417,-0.6485]]]}},{"type":"Feature","properties":{"name":"NipaKalemoan","name_en":"NipaKalemoan","admin_level":"7","osm_id":""},"geometry":{"type":"Polygon","coordinates":[[[123.2325,-0.7569],[123.233,-0.7474],[123.2276,-0.7348],[123.2276,-0.7268],[123.2245,-0.7187],[123.2214,-0.7026],[123.2147,-0.6968],[123.208,-0.6847],[123.2072,-0.6713],[123.2018,-0.6659],[123.2,-0.6574],[123.2005,-0.648],[123.192,-0.6336],[123.1889,-0.6215],[123.1814,-0.6112],[123.1704,-0.5915],[123.1699,-0.5837],[123.1789,-0.5806],[123.1946,-0.5694],[123.2029,-0.5697],[123.2089,-0.573],[123.2055,-0.5803],[123.2046,-0.5863],[123.2073,-0.5976],[123.2235,-0.6396],[123.2318,-0.6526],[123.2341,-0.659],[123.2377,-0.6866],[123.2454,-0.7173],[123.251,-0.7293],[123.258,-0.7353],[123.2629,-0.745],[123.2668,-0.7492],[123.2669,-0.7514],[123.2606,-0.7501],[123.2481,-0.7556],[123.2325,-0.7569]]]}},{"type":"Feature","properties":{"name":"Sampaka","name_en":"Sampaka","admin_level":"7","osm_id":""},"geometry":{"type":"Polygon","coordinates":[[[123.1496,-0.5983],[123.1516,-0.6113],[123.1613,-0.6247],[123.1631,-0.6301],[123.1689,-0.6327],[123.1716,-0.6395],[123.172,-0.6538],[123.1787,-0.6981],[123.1809,-0.7044],[123.1809,-0.716],[123.1903,-0.7362],[123.1925,-0.7496],[123.1916,-0.7638],[123.1772,-0.7696],[123.1633,-0.7709],[123.141,-0.7598],[123.1353,-0.7515],[123.1378,-0.7392],[123.1362,-0.7232],[123.137,-0.7126],[123.1313,-0.6826],[123.1292,-0.6572],[123.1263,-0.6437],[123.1202,-0.6298],[123.1206,-0.6223],[123.1245,-0.6143],[123.145,-0.6093],[123.1493,-0.6027],[123.1496,-0.5983]]]}},{"type":"Feature","properties":{"name":"SumberWangi","name_en":"SumberWangi","admin_level":"7","osm_id":""},"geometry":{"type":"Polygon","coordinates":[[[122.9098,-0.7072],[122.9101,-0.7026],[122.9167,-0.6916],[122.9162,-0.6861],[122.9126,-0.6845],[122.9167,-0.6772],[122.9175,-0.6688],[122.9205,-0.6662],[122.9223,-0.6614],[122.9154,-0.6482],[122.9144,-0.6401],[122.9274,-0.6383],[122.9327,-0.6409],[122.9337,-0.6442],[122.9383,-0.6482],[122.9519,-0.6481],[122.951,-0.6536],[122.9474,-0.6561],[122.9479,-0.6845],[122.9431,-0.6916],[122.9454,-0.7121],[122.9098,-0.7072]]]}},{"type":"Feature","properties":{"name":"Taima","name_en":"Taima","admin_level":"7","osm_id":""},"geometry":{"type":"Polygon","coordinates":[[[123.3584,-0.7256],[123.3641,-0.7289],[123.3624,-0.75],[123.354,-0.7659],[123.3442,-0.7603],[123.3277,-0.7044],[123.3281,-0.6927],[123.3228,-0.6627],[123.3206,-0.6583],[123.3197,-0.6372],[123.3161,-0.6278],[123.3158,-0.6159],[123.3178,-0.6101],[123.325,-0.6148],[123.3494,-0.6249],[123.354,-0.6311],[123.3726,-0.6362],[123.3759,-0.6394],[123.3796,-0.6373],[123.3793,-0.6421],[123.3822,-0.6446],[123.3885,-0.6455],[123.3945,-0.6418],[123.4005,-0.6486],[123.4075,-0.6505],[123.4112,-0.6541],[123.4112,-0.6552],[123.4059,-0.6554],[123.3977,-0.6587],[123.3544,-0.6577],[123.3362,-0.6646],[123.3533,-0.6879],[123.3453,-0.7181],[123.3584,-0.7256]]]}},{"type":"Feature","properties":{"name":"Tikupon","name_en":"Tikupon","admin_level":"7","osm_id":""},"geometry":{"type":"Polygon","coordinates":[[[122.8594,-0.6301],[122.8606,-0.6398],[122.8639,-0.6431],[122.8649,-0.648],[122.8641,-0.6574],[122.868,-0.6619],[122.8682,-0.669],[122.8667,-0.6718],[122.8695,-0.682],[122.8663,-0.7012],[122.8038,-0.6926],[122.8053,-0.6835],[122.8085,-0.6763],[122.8086,-0.6683],[122.8115,-0.6566],[122.8109,-0.633],[122.8229,-0.6298],[122.8207,-0.6343],[122.8181,-0.6353],[122.8174,-0.6378],[122.8185,-0.6386],[122.8272,-0.6342],[122.8331,-0.6362],[122.8341,-0.6408],[122.842,-0.6415],[122.8473,-0.6395],[122.852,-0.6318],[122.852,-0.6288],[122.8599,-0.6261],[122.8594,-0.6301]]]}},{"type":"Feature","properties":{"name":"Toiba","name_en":"Toiba","admin_level":"7","osm_id":""},"geometry":{"type":"Polygon","coordinates":[[[123.0311,-0.6052],[123.0304,-0.6226],[123.0246,-0.6416],[123.0233,-0.6635],[123.02,-0.6833],[123.0154,-0.6868],[123.0101,-0.697],[123.0109,-0.7005],[123.0063,-0.7056],[123.0033,-0.7201],[122.9454,-0.7121],[122.9431,-0.6916],[122.9479,-0.6845],[122.9474,-0.6561],[122.951,-0.6536],[122.9527,-0.6442],[122.9577,-0.6438],[122.9564,-0.6336],[122.9619,-0.6328],[122.9634,-0.6241],[122.9665,-0.6223],[122.9681,-0.6189],[122.9817,-0.6181],[122.982,-0.6202],[122.9864,-0.6164],[122.9868,-0.6208],[122.9894,-0.6233],[122.9938,-0.6169],[122.9986,-0.6171],[123.0063,-0.612],[123.0125,-0.605],[123.0124,-0.6011],[123.0227,-0.5984],[123.0258,-0.5958],[123.0289,-0.5988],[123.0309,-0.5986],[123.0311,-0.6052]]]}}]}