{"type":"FeatureCollection","metadata":{"parent_osm_id":"gid_IDN_22_10_16_1","parent_name":"MoskonaSelatan","parent_name_1":"PapuaBarat","parent_gid":"IDN.22.10.16_1","parent_level":"6","child_level":"7","count":5,"source":"GADM 4.1","generated":"2026-05-09"},"features":[{"type":"Feature","properties":{"name":"BarmaBarat","name_en":"BarmaBarat","admin_level":"7","osm_id":""},"geometry":{"type":"Polygon","coordinates":[[[132.8621,-1.8456],[132.8548,-1.8432],[132.7892,-1.8478],[132.7432,-1.8493],[132.7811,-1.7717],[132.7811,-1.7281],[132.871,-1.7303],[132.9306,-1.718],[132.9221,-1.762],[132.8978,-1.8009],[132.8764,-1.8454],[132.8621,-1.8456]]]}},{"type":"Feature","properties":{"name":"Inggof","name_en":"Inggof","admin_level":"7","osm_id":""},"geometry":{"type":"Polygon","coordinates":[[[132.9195,-1.5797],[132.9766,-1.58],[133.0152,-1.5821],[133.0364,-1.6063],[133.0411,-1.6743],[132.9416,-1.7158],[132.9306,-1.718],[132.9391,-1.6744],[132.9318,-1.6209],[132.9195,-1.5797]]]}},{"type":"Feature","properties":{"name":"Jagiro","name_en":"Jagiro","admin_level":"7","osm_id":""},"geometry":{"type":"Polygon","coordinates":[[[132.763,-1.5825],[132.8601,-1.5822],[132.9195,-1.5797],[132.9318,-1.6209],[132.9391,-1.6744],[132.9306,-1.718],[132.871,-1.7303],[132.7811,-1.7281],[132.7811,-1.6914],[132.7689,-1.6452],[132.7665,-1.5966],[132.763,-1.5825]]]}},{"type":"Feature","properties":{"name":"Meyenda","name_en":"Meyenda","admin_level":"7","osm_id":""},"geometry":{"type":"Polygon","coordinates":[[[133.0381,-1.7292],[133.034,-1.7984],[133.0198,-1.841],[133.0183,-1.8409],[133.0072,-1.8083],[132.9997,-1.7913],[132.9833,-1.7756],[132.9537,-1.7398],[132.9308,-1.718],[132.9416,-1.7158],[133.0411,-1.6743],[133.0381,-1.7292]]]}},{"type":"Feature","properties":{"name":"Rawara","name_en":"Rawara","admin_level":"7","osm_id":""},"geometry":{"type":"Polygon","coordinates":[[[132.8764,-1.8454],[132.8978,-1.8009],[132.9221,-1.762],[132.9308,-1.718],[132.9537,-1.7398],[132.9833,-1.7756],[132.9997,-1.7913],[133.0072,-1.8083],[133.0183,-1.8409],[132.8764,-1.8454]]]}}]}