{"type":"FeatureCollection","metadata":{"parent_osm_id":"gid_IDN_11_1_13_1","parent_name":"Modung","parent_name_1":"JawaTimur","parent_gid":"IDN.11.1.13_1","parent_level":"6","child_level":"7","count":17,"source":"GADM 4.1","generated":"2026-05-09"},"features":[{"type":"Feature","properties":{"name":"Alaskokon","name_en":"Alaskokon","admin_level":"7","osm_id":""},"geometry":{"type":"Polygon","coordinates":[[[112.9141,-7.1101],[112.917,-7.11],[112.9178,-7.1113],[112.9141,-7.1192],[112.9174,-7.12],[112.918,-7.1238],[112.9208,-7.1271],[112.9176,-7.1334],[112.9168,-7.1394],[112.9079,-7.1394],[112.905,-7.1374],[112.9072,-7.1178],[112.9109,-7.1133],[112.9139,-7.1135],[112.9141,-7.1101]]]}},{"type":"Feature","properties":{"name":"BrakasDajah","name_en":"BrakasDajah","admin_level":"7","osm_id":""},"geometry":{"type":"Polygon","coordinates":[[[112.9338,-7.1739],[112.9363,-7.163],[112.9445,-7.1648],[112.9476,-7.1584],[112.9484,-7.1523],[112.949,-7.1541],[112.9526,-7.1553],[112.9539,-7.154],[112.9588,-7.1578],[112.9564,-7.1601],[112.9505,-7.1738],[112.9481,-7.1722],[112.9442,-7.1784],[112.9429,-7.1759],[112.9393,-7.1762],[112.9338,-7.1739]]]}},{"type":"Feature","properties":{"name":"Glisgis","name_en":"Glisgis","admin_level":"7","osm_id":""},"geometry":{"type":"Polygon","coordinates":[[[112.9178,-7.1611],[112.9134,-7.1562],[112.9176,-7.1505],[112.9164,-7.1486],[112.917,-7.1369],[112.9201,-7.1288],[112.9269,-7.1328],[112.9286,-7.1367],[112.9266,-7.1386],[112.927,-7.1408],[112.9241,-7.143],[112.9233,-7.1508],[112.9246,-7.1522],[112.9222,-7.1595],[112.9178,-7.1611]]]}},{"type":"Feature","properties":{"name":"Karanganyar","name_en":"Karanganyar","admin_level":"7","osm_id":""},"geometry":{"type":"Polygon","coordinates":[[[112.9525,-7.1506],[112.959,-7.152],[112.9596,-7.1575],[112.9539,-7.154],[112.9526,-7.1553],[112.949,-7.1541],[112.9484,-7.1523],[112.9476,-7.1584],[112.9445,-7.1648],[112.9363,-7.163],[112.9352,-7.1721],[112.9288,-7.1811],[112.9267,-7.1865],[112.9197,-7.1846],[112.9186,-7.1829],[112.9202,-7.1712],[112.9177,-7.1673],[112.9174,-7.1623],[112.9222,-7.1595],[112.9235,-7.1536],[112.9245,-7.1525],[112.9282,-7.1544],[112.9308,-7.1523],[112.9355,-7.1542],[112.9386,-7.1517],[112.9391,-7.1492],[112.9446,-7.1482],[112.9525,-7.1506]]]}},{"type":"Feature","properties":{"name":"Kolla","name_en":"Kolla","admin_level":"7","osm_id":""},"geometry":{"type":"Polygon","coordinates":[[[113.0378,-7.1854],[113.0434,-7.184],[113.0401,-7.1773],[113.0472,-7.1774],[113.0495,-7.1794],[113.0483,-7.1845],[113.0612,-7.1901],[113.0619,-7.1921],[113.0597,-7.1929],[113.0609,-7.1962],[113.0556,-7.1943],[113.0503,-7.1958],[113.0449,-7.2015],[113.0351,-7.2004],[113.0378,-7.1854]]]}},{"type":"Feature","properties":{"name":"Langpanggang","name_en":"Langpanggang","admin_level":"7","osm_id":""},"geometry":{"type":"Polygon","coordinates":[[[112.9777,-7.1991],[112.9648,-7.1997],[112.9529,-7.1929],[112.9582,-7.1834],[112.9588,-7.1783],[112.9663,-7.1816],[112.9723,-7.1867],[112.971,-7.191],[112.978,-7.1967],[112.9777,-7.1991]]]}},{"type":"Feature","properties":{"name":"Manggaan","name_en":"Manggaan","admin_level":"7","osm_id":""},"geometry":{"type":"Polygon","coordinates":[[[112.9425,-7.1186],[112.9467,-7.1245],[112.9466,-7.1482],[112.9391,-7.1492],[112.9386,-7.1517],[112.9355,-7.1542],[112.9308,-7.1523],[112.9282,-7.1544],[112.9254,-7.1536],[112.9233,-7.1508],[112.9241,-7.143],[112.927,-7.1408],[112.9266,-7.1386],[112.9286,-7.1367],[112.9269,-7.1328],[112.9314,-7.1309],[112.9383,-7.1187],[112.9425,-7.1186]]]}},{"type":"Feature","properties":{"name":"Modung","name_en":"Modung","admin_level":"7","osm_id":""},"geometry":{"type":"Polygon","coordinates":[[[112.9338,-7.1739],[112.9393,-7.1762],[112.9429,-7.1759],[112.9456,-7.1797],[112.9486,-7.1798],[112.9451,-7.1922],[112.9267,-7.1865],[112.9338,-7.1739]]]}},{"type":"Feature","properties":{"name":"Neroh","name_en":"Neroh","admin_level":"7","osm_id":""},"geometry":{"type":"Polygon","coordinates":[[[113.0203,-7.1718],[113.0204,-7.1697],[113.0232,-7.1678],[113.0262,-7.1704],[113.0353,-7.163],[113.0403,-7.1679],[113.0429,-7.1682],[113.0427,-7.1763],[113.0401,-7.1773],[113.0434,-7.184],[113.0378,-7.1854],[113.0369,-7.1784],[113.0289,-7.177],[113.0269,-7.1736],[113.0203,-7.1718]]]}},{"type":"Feature","properties":{"name":"Paeng","name_en":"Paeng","admin_level":"7","osm_id":""},"geometry":{"type":"Polygon","coordinates":[[[113.0429,-7.1682],[113.0468,-7.166],[113.0497,-7.1609],[113.0577,-7.1636],[113.0568,-7.1686],[113.0548,-7.1699],[113.0565,-7.1748],[113.0538,-7.1781],[113.0495,-7.1794],[113.0461,-7.177],[113.0423,-7.1769],[113.0429,-7.1682]]]}},{"type":"Feature","properties":{"name":"Pakong","name_en":"Pakong","admin_level":"7","osm_id":""},"geometry":{"type":"Polygon","coordinates":[[[112.9174,-7.12],[112.9242,-7.1229],[112.9287,-7.12],[112.9333,-7.1207],[112.9383,-7.1187],[112.9314,-7.1309],[112.9269,-7.1328],[112.9201,-7.1288],[112.9208,-7.1269],[112.918,-7.1238],[112.9174,-7.12]]]}},{"type":"Feature","properties":{"name":"Pangpajung","name_en":"Pangpajung","admin_level":"7","osm_id":""},"geometry":{"type":"Polygon","coordinates":[[[113.0151,-7.2059],[113.0079,-7.2062],[113.0009,-7.2095],[112.9969,-7.2075],[113.0024,-7.2007],[113.0049,-7.1922],[113.0079,-7.1901],[113.0066,-7.1865],[113.0075,-7.1845],[113.015,-7.1847],[113.0226,-7.187],[113.0288,-7.1955],[113.0296,-7.199],[113.0276,-7.2006],[113.0212,-7.1978],[113.0151,-7.2059]]]}},{"type":"Feature","properties":{"name":"Patengteng","name_en":"Patengteng","admin_level":"7","osm_id":""},"geometry":{"type":"Polygon","coordinates":[[[112.9774,-7.1517],[112.9909,-7.1593],[112.9893,-7.1615],[112.9903,-7.1639],[112.989,-7.1685],[112.9849,-7.1771],[112.9862,-7.1906],[112.9911,-7.2024],[112.9787,-7.2002],[112.978,-7.1967],[112.9714,-7.1918],[112.9723,-7.1867],[112.9663,-7.1816],[112.9588,-7.1783],[112.9629,-7.1675],[112.9615,-7.1661],[112.9639,-7.1618],[112.9637,-7.1585],[112.9665,-7.1537],[112.9747,-7.1541],[112.9774,-7.1517]]]}},{"type":"Feature","properties":{"name":"Patereman","name_en":"Patereman","admin_level":"7","osm_id":""},"geometry":{"type":"Polygon","coordinates":[[[113.0348,-7.2002],[113.0449,-7.2015],[113.0404,-7.2129],[113.0224,-7.2097],[113.0168,-7.2079],[113.0151,-7.2059],[113.0212,-7.1978],[113.0272,-7.2005],[113.0302,-7.1991],[113.0317,-7.2017],[113.0348,-7.2002]]]}},{"type":"Feature","properties":{"name":"SerabiBarat","name_en":"SerabiBarat","admin_level":"7","osm_id":""},"geometry":{"type":"Polygon","coordinates":[[[112.9909,-7.1593],[112.9943,-7.1601],[112.9943,-7.1619],[112.9966,-7.1628],[113.0014,-7.1629],[113.0028,-7.1656],[113.009,-7.1653],[113.0098,-7.1691],[113.0126,-7.1694],[113.0067,-7.1859],[113.008,-7.19],[113.0049,-7.1922],[113.0019,-7.2016],[112.9968,-7.2066],[112.9886,-7.1978],[112.986,-7.1898],[112.9849,-7.1771],[112.989,-7.1685],[112.9903,-7.1639],[112.9893,-7.1615],[112.9909,-7.1593]]]}},{"type":"Feature","properties":{"name":"SerabiTimur","name_en":"SerabiTimur","admin_level":"7","osm_id":""},"geometry":{"type":"Polygon","coordinates":[[[113.0121,-7.1717],[113.024,-7.1726],[113.0274,-7.174],[113.0289,-7.177],[113.0369,-7.1784],[113.0377,-7.1878],[113.0348,-7.2002],[113.0317,-7.2017],[113.0255,-7.1895],[113.0226,-7.187],[113.015,-7.1847],[113.0075,-7.1845],[113.0121,-7.1717]]]}},{"type":"Feature","properties":{"name":"Suwaan","name_en":"Suwaan","admin_level":"7","osm_id":""},"geometry":{"type":"Polygon","coordinates":[[[112.959,-7.152],[112.9622,-7.1516],[112.9665,-7.1537],[112.9615,-7.1659],[112.9629,-7.1675],[112.9582,-7.1834],[112.9529,-7.1929],[112.9487,-7.1921],[112.9469,-7.1932],[112.9451,-7.1922],[112.9487,-7.1799],[112.9442,-7.1784],[112.9481,-7.1722],[112.9505,-7.1738],[112.9566,-7.1598],[112.9596,-7.1575],[112.959,-7.152]]]}}]}