{"type":"FeatureCollection","metadata":{"parent_osm_id":"19896387","parent_name":"AdianKoting","parent_name_1":"SumateraUtara","parent_gid":"IDN.32.32.1_1","parent_level":"6","child_level":"7","count":14,"source":"GADM 4.1","generated":"2026-05-09"},"features":[{"type":"Feature","properties":{"name":"AdianKoting","name_en":"AdianKoting","admin_level":"7","osm_id":""},"geometry":{"type":"Polygon","coordinates":[[[98.9705,1.8875],[98.9762,1.8781],[98.9757,1.8738],[98.9834,1.8617],[98.9893,1.8388],[99.0013,1.8271],[99.0041,1.8267],[99.0048,1.819],[99.0027,1.7988],[98.9955,1.7906],[98.9921,1.7962],[98.9791,1.8092],[98.9783,1.8118],[98.9751,1.8132],[98.9703,1.8226],[98.9657,1.8269],[98.9564,1.841],[98.9432,1.8477],[98.9396,1.8512],[98.9348,1.8513],[98.9324,1.8565],[98.928,1.8594],[98.9147,1.8644],[98.9155,1.8752],[98.9226,1.8832],[98.9231,1.8911],[98.959,1.8854],[98.9705,1.8875]]]}},{"type":"Feature","properties":{"name":"BanuajiI","name_en":"BanuajiI","admin_level":"7","osm_id":""},"geometry":{"type":"Polygon","coordinates":[[[99.0041,1.8267],[99.0013,1.8271],[98.9893,1.8388],[98.9834,1.8617],[98.9757,1.8738],[98.9762,1.8781],[98.9744,1.8822],[98.9622,1.8985],[98.9634,1.9281],[98.9666,1.9372],[98.9744,1.9342],[98.9816,1.9419],[98.9817,1.9455],[98.9874,1.9526],[98.9948,1.9469],[98.992,1.9342],[98.9883,1.93],[98.9868,1.9226],[98.9846,1.9038],[98.9863,1.8963],[98.9959,1.8898],[99.0032,1.8797],[99.0109,1.8729],[99.0074,1.8346],[99.0041,1.8267]]]}},{"type":"Feature","properties":{"name":"BanuajiIi","name_en":"BanuajiIi","admin_level":"7","osm_id":""},"geometry":{"type":"Polygon","coordinates":[[[98.9874,1.9526],[98.9817,1.9455],[98.9816,1.9419],[98.9744,1.9342],[98.9666,1.9372],[98.9631,1.9407],[98.9493,1.9485],[98.958,1.9646],[98.9586,1.9697],[98.9649,1.9675],[98.9874,1.9526]]]}},{"type":"Feature","properties":{"name":"BanuajiIv","name_en":"BanuajiIv","admin_level":"7","osm_id":""},"geometry":{"type":"Polygon","coordinates":[[[99.0109,1.8729],[99.0032,1.8797],[98.9959,1.8898],[98.9882,1.8939],[98.9847,1.9018],[98.9883,1.93],[98.992,1.9342],[98.9948,1.9469],[99.0022,1.9415],[99.0173,1.922],[99.0185,1.9147],[99.0137,1.9046],[99.0109,1.8729]]]}},{"type":"Feature","properties":{"name":"DolokNauli","name_en":"DolokNauli","admin_level":"7","osm_id":""},"geometry":{"type":"Polygon","coordinates":[[[98.9705,1.8875],[98.959,1.8854],[98.9425,1.8876],[98.9231,1.8911],[98.9219,1.8929],[98.9063,1.8988],[98.8961,1.9072],[98.8881,1.9176],[98.8926,1.924],[98.8964,1.9421],[98.8994,1.937],[98.9111,1.9341],[98.9369,1.9407],[98.9443,1.9439],[98.9495,1.9485],[98.9631,1.9407],[98.9666,1.9372],[98.9634,1.9281],[98.9622,1.8985],[98.9705,1.8875]]]}},{"type":"Feature","properties":{"name":"PagaranLambungI","name_en":"PagaranLambungI","admin_level":"7","osm_id":""},"geometry":{"type":"Polygon","coordinates":[[[98.907,1.7561],[98.8918,1.7544],[98.8811,1.7689],[98.8731,1.7933],[98.872,1.8021],[98.8605,1.8156],[98.8446,1.8221],[98.8373,1.8322],[98.8481,1.8347],[98.8624,1.8416],[98.8733,1.8515],[98.8804,1.8524],[98.8849,1.8474],[98.8929,1.8466],[98.8897,1.8343],[98.8914,1.8284],[98.9109,1.8112],[98.9129,1.8012],[98.9209,1.7878],[98.924,1.7792],[98.9247,1.7643],[98.9227,1.7577],[98.9212,1.7563],[98.9129,1.7588],[98.907,1.7561]]]}},{"type":"Feature","properties":{"name":"PagaranLambungIi","name_en":"PagaranLambungIi","admin_level":"7","osm_id":""},"geometry":{"type":"Polygon","coordinates":[[[98.9158,1.8755],[98.9147,1.8644],[98.8989,1.8539],[98.8922,1.8465],[98.8849,1.8474],[98.8804,1.8524],[98.8755,1.8517],[98.8799,1.8611],[98.9002,1.8724],[98.9158,1.8755]]]}},{"type":"Feature","properties":{"name":"PagaranLambungIii","name_en":"PagaranLambungIii","admin_level":"7","osm_id":""},"geometry":{"type":"Polygon","coordinates":[[[98.8373,1.8322],[98.8242,1.8513],[98.815,1.8616],[98.8158,1.8636],[98.8237,1.8628],[98.8342,1.8705],[98.852,1.8751],[98.8576,1.8648],[98.8683,1.8669],[98.8717,1.8729],[98.882,1.8814],[98.8847,1.8877],[98.8996,1.9038],[98.9063,1.8988],[98.9219,1.8929],[98.9231,1.8911],[98.9226,1.8832],[98.9158,1.8755],[98.9002,1.8724],[98.8799,1.8611],[98.8755,1.8517],[98.8733,1.8515],[98.8624,1.8416],[98.8481,1.8347],[98.8373,1.8322]]]}},{"type":"Feature","properties":{"name":"PagaranLambungIv","name_en":"PagaranLambungIv","admin_level":"7","osm_id":""},"geometry":{"type":"Polygon","coordinates":[[[98.7885,1.8615],[98.7855,1.8685],[98.7852,1.8781],[98.7909,1.8894],[98.796,1.8891],[98.8087,1.8842],[98.8138,1.8862],[98.8159,1.8925],[98.8213,1.8996],[98.8202,1.9042],[98.832,1.9186],[98.8452,1.915],[98.8468,1.912],[98.8578,1.9132],[98.8675,1.9256],[98.8693,1.923],[98.8792,1.9276],[98.8996,1.9038],[98.8847,1.8877],[98.882,1.8814],[98.8717,1.8729],[98.8683,1.8669],[98.8576,1.8648],[98.852,1.8751],[98.8342,1.8705],[98.8213,1.8623],[98.8158,1.8636],[98.8176,1.8664],[98.8158,1.8685],[98.8036,1.8724],[98.7885,1.8615]]]}},{"type":"Feature","properties":{"name":"PagaranPisang","name_en":"PagaranPisang","admin_level":"7","osm_id":""},"geometry":{"type":"Polygon","coordinates":[[[98.9791,1.7729],[98.9683,1.7652],[98.9669,1.7697],[98.9531,1.7822],[98.9507,1.7893],[98.9502,1.8032],[98.9433,1.815],[98.9174,1.837],[98.902,1.8454],[98.8974,1.8512],[98.8989,1.8539],[98.907,1.8598],[98.9097,1.86],[98.9143,1.8646],[98.928,1.8594],[98.9324,1.8565],[98.9348,1.8513],[98.9396,1.8512],[98.9432,1.8477],[98.9564,1.841],[98.9657,1.8269],[98.9703,1.8226],[98.9751,1.8132],[98.9783,1.8118],[98.9791,1.8092],[98.9921,1.7962],[98.9955,1.7906],[98.9791,1.7729]]]}},{"type":"Feature","properties":{"name":"PansurBatu","name_en":"PansurBatu","admin_level":"7","osm_id":""},"geometry":{"type":"Polygon","coordinates":[[[98.9586,1.9697],[98.958,1.9646],[98.9513,1.9513],[98.9443,1.9439],[98.9111,1.9341],[98.9032,1.9352],[98.8994,1.937],[98.8958,1.9431],[98.8988,1.9556],[98.8975,1.9588],[98.8941,1.9614],[98.8897,1.9737],[98.8858,1.9751],[98.8824,1.9788],[98.8783,1.9884],[98.8861,1.9869],[98.9068,1.987],[98.9106,1.9875],[98.9163,1.9915],[98.9288,1.9919],[98.9371,1.9825],[98.9386,1.9785],[98.9586,1.9697]]]}},{"type":"Feature","properties":{"name":"PardomuanNauli","name_en":"PardomuanNauli","admin_level":"7","osm_id":""},"geometry":{"type":"Polygon","coordinates":[[[98.8964,1.9421],[98.8926,1.924],[98.8881,1.9176],[98.8792,1.9276],[98.8693,1.923],[98.8673,1.9265],[98.8648,1.9267],[98.8619,1.9296],[98.8535,1.9428],[98.853,1.949],[98.858,1.956],[98.8531,1.9684],[98.8519,1.986],[98.8492,1.9966],[98.8584,1.9941],[98.8663,1.9939],[98.8783,1.9884],[98.8824,1.9788],[98.8858,1.9751],[98.8897,1.9737],[98.8941,1.9614],[98.8988,1.9556],[98.8964,1.9421]]]}},{"type":"Feature","properties":{"name":"SiantarNaipospos","name_en":"SiantarNaipospos","admin_level":"7","osm_id":""},"geometry":{"type":"Polygon","coordinates":[[[98.8234,1.9093],[98.8249,1.9117],[98.8228,1.919],[98.8236,1.926],[98.8196,1.9354],[98.8181,1.9441],[98.813,1.9446],[98.8071,1.9565],[98.8011,1.9597],[98.8034,1.9594],[98.8099,1.9634],[98.8095,1.9652],[98.812,1.9678],[98.8112,1.9722],[98.8187,1.9833],[98.8478,1.9971],[98.8492,1.9966],[98.8519,1.986],[98.8531,1.9684],[98.858,1.956],[98.853,1.949],[98.8535,1.9428],[98.8589,1.9331],[98.8675,1.9256],[98.8578,1.9132],[98.8468,1.912],[98.8452,1.915],[98.832,1.9186],[98.8277,1.9145],[98.8254,1.9095],[98.8234,1.9093]]]}},{"type":"Feature","properties":{"name":"Sibalanga","name_en":"Sibalanga","admin_level":"7","osm_id":""},"geometry":{"type":"Polygon","coordinates":[[[98.9683,1.7652],[98.9581,1.7609],[98.9392,1.7604],[98.9331,1.7583],[98.9227,1.7577],[98.9247,1.7643],[98.924,1.7792],[98.9209,1.7878],[98.9129,1.8012],[98.9109,1.8112],[98.9019,1.8201],[98.8944,1.8251],[98.8914,1.8284],[98.8897,1.8343],[98.8933,1.8447],[98.8922,1.8465],[98.8965,1.8511],[98.905,1.8432],[98.9112,1.8409],[98.93,1.8275],[98.9433,1.815],[98.9502,1.8032],[98.9507,1.7893],[98.9531,1.7822],[98.9669,1.7697],[98.9683,1.7652]]]}}]}