{"type":"FeatureCollection","metadata":{"parent_osm_id":"8931961","parent_name":"Bendahara","parent_name_1":"Aceh","parent_gid":"IDN.1.7.3_1","parent_level":"6","child_level":"7","count":33,"source":"GADM 4.1","generated":"2026-05-09"},"features":[{"type":"Feature","properties":{"name":"AlurCantik","name_en":"AlurCantik","admin_level":"7","osm_id":""},"geometry":{"type":"Polygon","coordinates":[[[98.1681,4.4002],[98.1678,4.3967],[98.1588,4.3986],[98.1583,4.4046],[98.1595,4.4046],[98.1602,4.4091],[98.1644,4.4076],[98.1641,4.4037],[98.1669,4.4033],[98.1681,4.4002]]]}},{"type":"Feature","properties":{"name":"Balai","name_en":"Balai","admin_level":"7","osm_id":""},"geometry":{"type":"Polygon","coordinates":[[[98.135,4.3973],[98.1476,4.3974],[98.1476,4.382],[98.135,4.3792],[98.135,4.3973]]]}},{"type":"Feature","properties":{"name":"BandarBaru","name_en":"BandarBaru","admin_level":"7","osm_id":""},"geometry":{"type":"Polygon","coordinates":[[[98.1678,4.3967],[98.1681,4.4002],[98.1701,4.4015],[98.1714,4.4055],[98.1687,4.4097],[98.1726,4.4109],[98.1734,4.4145],[98.1682,4.4196],[98.1695,4.4232],[98.1733,4.4235],[98.173,4.4187],[98.1763,4.4167],[98.179,4.417],[98.1808,4.4198],[98.1851,4.4195],[98.1888,4.4127],[98.1891,4.4092],[98.1824,4.4003],[98.1817,4.3939],[98.1677,4.3956],[98.1678,4.3967]]]}},{"type":"Feature","properties":{"name":"BandarKhalifah","name_en":"BandarKhalifah","admin_level":"7","osm_id":""},"geometry":{"type":"Polygon","coordinates":[[[98.1624,4.4349],[98.167,4.4365],[98.169,4.4344],[98.1705,4.4382],[98.1727,4.4378],[98.1735,4.4354],[98.1752,4.4365],[98.1755,4.4382],[98.173,4.4392],[98.1731,4.4406],[98.1817,4.4453],[98.1796,4.4524],[98.1815,4.4536],[98.1835,4.4524],[98.1854,4.4493],[98.1837,4.4474],[98.1854,4.4436],[98.1812,4.4379],[98.1832,4.4363],[98.1829,4.4326],[98.1809,4.4326],[98.1787,4.4287],[98.1726,4.43],[98.1622,4.4228],[98.1657,4.4211],[98.1618,4.4122],[98.1566,4.4167],[98.1536,4.4259],[98.1546,4.4326],[98.1624,4.4349]]]}},{"type":"Feature","properties":{"name":"CintaRaja","name_en":"CintaRaja","admin_level":"7","osm_id":""},"geometry":{"type":"Polygon","coordinates":[[[98.1817,4.3939],[98.1824,4.4003],[98.1891,4.4092],[98.1862,4.418],[98.1886,4.4186],[98.1871,4.4222],[98.1907,4.4255],[98.1998,4.4244],[98.2009,4.4255],[98.1943,4.4301],[98.1943,4.4323],[98.1992,4.4337],[98.2002,4.4287],[98.2044,4.4271],[98.2056,4.4296],[98.208,4.4269],[98.2115,4.426],[98.2106,4.4213],[98.2076,4.4184],[98.2094,4.4147],[98.2094,4.4101],[98.2163,4.4075],[98.2169,4.404],[98.2133,4.4035],[98.2126,4.3996],[98.2097,4.4019],[98.2066,4.4011],[98.2062,4.3981],[98.1973,4.3931],[98.1952,4.3946],[98.1908,4.3943],[98.1878,4.3965],[98.1855,4.3929],[98.1817,4.3939]]]}},{"type":"Feature","properties":{"name":"KebonSungaiIyu","name_en":"KebonSungaiIyu","admin_level":"7","osm_id":""},"geometry":{"type":"Polygon","coordinates":[[[98.1292,4.3973],[98.1278,4.4033],[98.1336,4.4066],[98.1531,4.4067],[98.1531,4.3973],[98.1292,4.3973]]]}},{"type":"Feature","properties":{"name":"KualaGeunting","name_en":"KualaGeunting","admin_level":"7","osm_id":""},"geometry":{"type":"Polygon","coordinates":[[[98.2168,4.4068],[98.2094,4.4101],[98.2094,4.4147],[98.2076,4.4184],[98.2106,4.4213],[98.2118,4.4255],[98.208,4.4269],[98.2037,4.4322],[98.2104,4.4375],[98.2129,4.4347],[98.2149,4.4351],[98.2171,4.4417],[98.2155,4.4429],[98.2111,4.4407],[98.2093,4.4423],[98.2142,4.4456],[98.2082,4.4494],[98.2075,4.4582],[98.2091,4.4602],[98.2076,4.4617],[98.211,4.4657],[98.2098,4.4669],[98.2104,4.4704],[98.2077,4.4707],[98.2054,4.4736],[98.2043,4.4721],[98.201,4.472],[98.2012,4.4764],[98.1995,4.4767],[98.2001,4.4792],[98.1979,4.4812],[98.2099,4.4775],[98.2241,4.4683],[98.2269,4.4646],[98.2374,4.4602],[98.236,4.4545],[98.2302,4.4491],[98.2313,4.4473],[98.2302,4.4406],[98.2312,4.4383],[98.2361,4.4405],[98.2369,4.4306],[98.2358,4.4285],[98.2338,4.4303],[98.2332,4.4291],[98.2365,4.4229],[98.2426,4.4223],[98.2428,4.4256],[98.2444,4.4209],[98.2427,4.4192],[98.2403,4.4203],[98.2371,4.4161],[98.234,4.4164],[98.234,4.4143],[98.2315,4.4121],[98.2243,4.4119],[98.2238,4.4089],[98.2197,4.4098],[98.2168,4.4068]]]}},{"type":"Feature","properties":{"name":"KualaPeunaga","name_en":"KualaPeunaga","admin_level":"7","osm_id":""},"geometry":{"type":"Polygon","coordinates":[[[98.2432,4.4194],[98.2446,4.4225],[98.243,4.4254],[98.2418,4.425],[98.2426,4.4223],[98.2398,4.4235],[98.2368,4.4226],[98.2333,4.4302],[98.2358,4.4285],[98.237,4.4347],[98.242,4.4354],[98.2462,4.434],[98.2472,4.4385],[98.2485,4.4346],[98.2497,4.435],[98.2489,4.4448],[98.2523,4.4439],[98.2649,4.4316],[98.2769,4.4235],[98.2669,4.4112],[98.2642,4.4101],[98.2542,4.4132],[98.2485,4.4189],[98.2432,4.4194]]]}},{"type":"Feature","properties":{"name":"LambungBlang","name_en":"LambungBlang","admin_level":"7","osm_id":""},"geometry":{"type":"Polygon","coordinates":[[[98.1472,4.3817],[98.1476,4.3974],[98.1531,4.3973],[98.153,4.383],[98.1583,4.3837],[98.1574,4.3772],[98.1554,4.3773],[98.1544,4.3742],[98.1518,4.3728],[98.1472,4.3817]]]}},{"type":"Feature","properties":{"name":"LubukBatil","name_en":"LubukBatil","admin_level":"7","osm_id":""},"geometry":{"type":"Polygon","coordinates":[[[98.1518,4.3728],[98.1544,4.3742],[98.1554,4.3773],[98.1574,4.3772],[98.1583,4.3837],[98.1662,4.385],[98.1665,4.3771],[98.1629,4.3695],[98.159,4.3649],[98.1569,4.3671],[98.1531,4.3609],[98.1493,4.3603],[98.1468,4.3644],[98.1497,4.3655],[98.1498,4.3716],[98.1518,4.3728]]]}},{"type":"Feature","properties":{"name":"Marlempang","name_en":"Marlempang","admin_level":"7","osm_id":""},"geometry":{"type":"Polygon","coordinates":[[[98.1293,4.3874],[98.1292,4.3973],[98.135,4.3973],[98.135,4.3783],[98.1372,4.3751],[98.1345,4.3658],[98.1328,4.3673],[98.1331,4.3737],[98.1306,4.3743],[98.1292,4.3792],[98.1293,4.3874]]]}},{"type":"Feature","properties":{"name":"MatangTeupah","name_en":"MatangTeupah","admin_level":"7","osm_id":""},"geometry":{"type":"Polygon","coordinates":[[[98.0998,4.3985],[98.097,4.3887],[98.0956,4.3886],[98.0927,4.3815],[98.0814,4.394],[98.0772,4.3964],[98.0821,4.4023],[98.0896,4.3994],[98.0911,4.4008],[98.0998,4.3985]]]}},{"type":"Feature","properties":{"name":"MesjidBdh","name_en":"MesjidBdh","admin_level":"7","osm_id":""},"geometry":{"type":"Polygon","coordinates":[[[98.1677,4.3956],[98.1832,4.3938],[98.1828,4.3906],[98.1864,4.385],[98.1841,4.3846],[98.1832,4.3825],[98.18,4.3832],[98.1754,4.3773],[98.1673,4.3851],[98.1677,4.3956]]]}},{"type":"Feature","properties":{"name":"MesjidS.iyu","name_en":"MesjidS.iyu","admin_level":"7","osm_id":""},"geometry":{"type":"Polygon","coordinates":[[[98.1681,4.4002],[98.1669,4.4033],[98.1641,4.4037],[98.1643,4.4058],[98.1646,4.4073],[98.1671,4.4067],[98.1687,4.4097],[98.1714,4.4055],[98.1701,4.4015],[98.1681,4.4002]]]}},{"type":"Feature","properties":{"name":"PerkebunanUpah","name_en":"PerkebunanUpah","admin_level":"7","osm_id":""},"geometry":{"type":"Polygon","coordinates":[[[98.1087,4.3859],[98.1293,4.3874],[98.1306,4.3743],[98.1254,4.3712],[98.124,4.3658],[98.1178,4.365],[98.1104,4.3673],[98.1087,4.3859]]]}},{"type":"Feature","properties":{"name":"Raja","name_en":"Raja","admin_level":"7","osm_id":""},"geometry":{"type":"Polygon","coordinates":[[[98.1665,4.3771],[98.1662,4.385],[98.1673,4.3851],[98.1754,4.3773],[98.1665,4.3771]]]}},{"type":"Feature","properties":{"name":"RantauPakam","name_en":"RantauPakam","admin_level":"7","osm_id":""},"geometry":{"type":"Polygon","coordinates":[[[98.1973,4.3931],[98.2062,4.3981],[98.2066,4.4011],[98.2097,4.4019],[98.2126,4.3996],[98.2122,4.4022],[98.2148,4.4041],[98.2169,4.404],[98.2196,4.4011],[98.2191,4.3971],[98.2178,4.3963],[98.2156,4.3982],[98.2113,4.391],[98.2041,4.393],[98.2017,4.3903],[98.1973,4.3931]]]}},{"type":"Feature","properties":{"name":"SeuneubokAceh","name_en":"SeuneubokAceh","admin_level":"7","osm_id":""},"geometry":{"type":"Polygon","coordinates":[[[98.1512,4.4161],[98.1472,4.4204],[98.1439,4.4211],[98.1484,4.4256],[98.1527,4.424],[98.1536,4.4259],[98.1566,4.4167],[98.1512,4.4161]]]}},{"type":"Feature","properties":{"name":"SeuneubokDalamMesjid","name_en":"SeuneubokDalamMesjid","admin_level":"7","osm_id":""},"geometry":{"type":"Polygon","coordinates":[[[98.1622,4.3974],[98.1678,4.3967],[98.1673,4.3851],[98.153,4.383],[98.1531,4.3973],[98.1622,4.3974]]]}},{"type":"Feature","properties":{"name":"SeuneubokDalamUpah","name_en":"SeuneubokDalamUpah","admin_level":"7","osm_id":""},"geometry":{"type":"Polygon","coordinates":[[[98.1007,4.4214],[98.108,4.4182],[98.106,4.4115],[98.1072,4.4007],[98.1035,4.4008],[98.0998,4.3985],[98.0911,4.4008],[98.0896,4.3994],[98.0821,4.4023],[98.1007,4.4214]]]}},{"type":"Feature","properties":{"name":"SukamuliaBd/s.iyu","name_en":"SukamuliaBd/s.iyu","admin_level":"7","osm_id":""},"geometry":{"type":"Polygon","coordinates":[[[98.1846,4.4707],[98.1853,4.4791],[98.1861,4.4779],[98.1979,4.4812],[98.2001,4.4792],[98.1995,4.4767],[98.2012,4.4764],[98.201,4.472],[98.2043,4.4721],[98.2054,4.4736],[98.2077,4.4707],[98.2103,4.4706],[98.2098,4.4669],[98.211,4.4657],[98.2076,4.4617],[98.2091,4.4602],[98.2075,4.4582],[98.2082,4.4494],[98.2141,4.446],[98.2094,4.4426],[98.2099,4.4413],[98.2169,4.4423],[98.2156,4.4362],[98.2129,4.4347],[98.2104,4.4375],[98.2051,4.4344],[98.2037,4.4322],[98.2044,4.4271],[98.2002,4.4287],[98.1992,4.4337],[98.1953,4.433],[98.1939,4.4306],[98.2,4.4273],[98.2007,4.425],[98.1899,4.4253],[98.1869,4.4217],[98.1887,4.4191],[98.1876,4.4179],[98.1814,4.42],[98.179,4.417],[98.1763,4.4167],[98.173,4.4187],[98.1733,4.4235],[98.1701,4.4238],[98.1679,4.4205],[98.1697,4.4173],[98.1733,4.4157],[98.1727,4.4111],[98.1706,4.4093],[98.1671,4.4099],[98.1618,4.4122],[98.1657,4.4211],[98.1622,4.4228],[98.1726,4.43],[98.1787,4.4287],[98.1809,4.4326],[98.1829,4.4326],[98.1832,4.4363],[98.1812,4.4379],[98.1854,4.4431],[98.1837,4.4474],[98.1869,4.4507],[98.1822,4.4627],[98.1846,4.4707]]]}},{"type":"Feature","properties":{"name":"Tanjung","name_en":"Tanjung","admin_level":"7","osm_id":""},"geometry":{"type":"Polygon","coordinates":[[[98.159,4.3649],[98.1665,4.3771],[98.1703,4.3729],[98.1725,4.3658],[98.1708,4.364],[98.1711,4.3619],[98.1737,4.356],[98.17,4.3539],[98.167,4.3551],[98.159,4.3649]]]}},{"type":"Feature","properties":{"name":"TanjungBinjai","name_en":"TanjungBinjai","admin_level":"7","osm_id":""},"geometry":{"type":"Polygon","coordinates":[[[98.2169,4.404],[98.2168,4.4068],[98.2197,4.4098],[98.2238,4.4089],[98.2243,4.4119],[98.2315,4.4121],[98.234,4.4143],[98.234,4.4164],[98.2371,4.4161],[98.2406,4.4204],[98.2493,4.4186],[98.2535,4.4136],[98.2592,4.4112],[98.2437,4.4025],[98.2418,4.3964],[98.2358,4.3956],[98.237,4.3876],[98.231,4.3842],[98.2268,4.3851],[98.2272,4.3963],[98.2252,4.4003],[98.2196,4.4011],[98.2169,4.404]]]}},{"type":"Feature","properties":{"name":"TanjungLipatI","name_en":"TanjungLipatI","admin_level":"7","osm_id":""},"geometry":{"type":"Polygon","coordinates":[[[98.15,4.4138],[98.1514,4.4163],[98.1566,4.4167],[98.1618,4.4122],[98.1686,4.4099],[98.1685,4.4083],[98.1671,4.4067],[98.1514,4.4104],[98.15,4.4138]]]}},{"type":"Feature","properties":{"name":"TanjungLipatIi","name_en":"TanjungLipatIi","admin_level":"7","osm_id":""},"geometry":{"type":"Polygon","coordinates":[[[98.1602,4.4091],[98.1581,4.4002],[98.1622,4.3974],[98.1531,4.3973],[98.1531,4.4067],[98.1514,4.4072],[98.1514,4.4104],[98.1602,4.4091]]]}},{"type":"Feature","properties":{"name":"TanjungMulia","name_en":"TanjungMulia","admin_level":"7","osm_id":""},"geometry":{"type":"Polygon","coordinates":[[[98.1772,4.3704],[98.1833,4.3756],[98.1874,4.3726],[98.1873,4.3608],[98.1832,4.355],[98.1806,4.3562],[98.1772,4.3704]]]}},{"type":"Feature","properties":{"name":"TanjungParet","name_en":"TanjungParet","admin_level":"7","osm_id":""},"geometry":{"type":"Polygon","coordinates":[[[98.135,4.3792],[98.1472,4.3817],[98.1518,4.3728],[98.1498,4.3716],[98.1497,4.3655],[98.1468,4.3644],[98.1471,4.3691],[98.1457,4.37],[98.1345,4.3658],[98.1372,4.3751],[98.135,4.3792]]]}},{"type":"Feature","properties":{"name":"TelukHalban","name_en":"TelukHalban","admin_level":"7","osm_id":""},"geometry":{"type":"Polygon","coordinates":[[[98.1832,4.3938],[98.1855,4.3929],[98.1878,4.3965],[98.1908,4.3943],[98.1958,4.3944],[98.2008,4.3904],[98.2028,4.3909],[98.2038,4.3858],[98.2026,4.384],[98.1942,4.3828],[98.1898,4.3866],[98.1864,4.385],[98.1828,4.3906],[98.1832,4.3938]]]}},{"type":"Feature","properties":{"name":"TelukKemiri","name_en":"TelukKemiri","admin_level":"7","osm_id":""},"geometry":{"type":"Polygon","coordinates":[[[98.1754,4.3773],[98.18,4.3832],[98.1832,4.3825],[98.1842,4.3846],[98.188,4.3808],[98.1894,4.3743],[98.1874,4.3726],[98.1833,4.3756],[98.1772,4.3704],[98.1754,4.3773]]]}},{"type":"Feature","properties":{"name":"TelukKepayang","name_en":"TelukKepayang","admin_level":"7","osm_id":""},"geometry":{"type":"Polygon","coordinates":[[[98.1842,4.3846],[98.1898,4.3866],[98.1942,4.3828],[98.1938,4.3806],[98.1953,4.3792],[98.2049,4.3771],[98.2054,4.3728],[98.2008,4.3709],[98.1894,4.3743],[98.188,4.3808],[98.1842,4.3846]]]}},{"type":"Feature","properties":{"name":"TengkuTinggi","name_en":"TengkuTinggi","admin_level":"7","osm_id":""},"geometry":{"type":"Polygon","coordinates":[[[98.1311,4.415],[98.1457,4.4157],[98.1502,4.4137],[98.152,4.4082],[98.1503,4.4069],[98.1335,4.4065],[98.1311,4.415]]]}},{"type":"Feature","properties":{"name":"TumpokTeungah","name_en":"TumpokTeungah","admin_level":"7","osm_id":""},"geometry":{"type":"Polygon","coordinates":[[[98.1665,4.3771],[98.1754,4.3773],[98.1793,4.3641],[98.1749,4.3663],[98.1725,4.3658],[98.1698,4.3742],[98.1665,4.3771]]]}},{"type":"Feature","properties":{"name":"Upah","name_en":"Upah","admin_level":"7","osm_id":""},"geometry":{"type":"Polygon","coordinates":[[[98.1085,4.3894],[98.1104,4.3673],[98.1068,4.3637],[98.1023,4.365],[98.0996,4.3695],[98.0957,4.3712],[98.0963,4.3772],[98.0927,4.3815],[98.0956,4.3886],[98.1085,4.3894]]]}}]}