{"type":"FeatureCollection","metadata":{"parent_osm_id":"gid_IDN_9_25_11_1","parent_name":"Jatinangor","parent_name_1":"JawaBarat","parent_gid":"IDN.9.25.11_1","parent_level":"6","child_level":"7","count":12,"source":"GADM 4.1","generated":"2026-05-09"},"features":[{"type":"Feature","properties":{"name":"Cibeusi","name_en":"Cibeusi","admin_level":"7","osm_id":""},"geometry":{"type":"Polygon","coordinates":[[[107.7589,-6.9437],[107.757,-6.9384],[107.758,-6.9348],[107.7569,-6.9292],[107.7601,-6.9206],[107.7585,-6.9144],[107.7623,-6.9095],[107.7644,-6.9188],[107.7671,-6.9222],[107.7668,-6.9278],[107.7687,-6.9331],[107.7661,-6.9389],[107.7666,-6.9425],[107.7632,-6.942],[107.7589,-6.9437]]]}},{"type":"Feature","properties":{"name":"Cikeruh","name_en":"Cikeruh","admin_level":"7","osm_id":""},"geometry":{"type":"Polygon","coordinates":[[[107.7709,-6.9263],[107.7749,-6.9333],[107.7783,-6.9341],[107.7782,-6.9416],[107.7854,-6.9393],[107.7819,-6.942],[107.7789,-6.9507],[107.7743,-6.9496],[107.7754,-6.9464],[107.7732,-6.9459],[107.77,-6.9352],[107.7722,-6.9334],[107.7709,-6.9263]]]}},{"type":"Feature","properties":{"name":"Cilayung","name_en":"Cilayung","admin_level":"7","osm_id":""},"geometry":{"type":"Polygon","coordinates":[[[107.7826,-6.9092],[107.7765,-6.9051],[107.7712,-6.9072],[107.7687,-6.9048],[107.7634,-6.9051],[107.7647,-6.902],[107.7636,-6.8996],[107.7653,-6.8979],[107.7622,-6.8943],[107.7665,-6.8934],[107.771,-6.8983],[107.7781,-6.8947],[107.7803,-6.8958],[107.7824,-6.9005],[107.7852,-6.8999],[107.7868,-6.8958],[107.7882,-6.9014],[107.787,-6.9064],[107.7835,-6.9074],[107.7826,-6.9092]]]}},{"type":"Feature","properties":{"name":"Cileles","name_en":"Cileles","admin_level":"7","osm_id":""},"geometry":{"type":"Polygon","coordinates":[[[107.7667,-6.921],[107.7644,-6.9188],[107.7623,-6.9095],[107.7634,-6.9051],[107.7687,-6.9048],[107.7712,-6.9072],[107.7765,-6.9051],[107.7844,-6.9106],[107.7831,-6.9145],[107.7844,-6.9147],[107.7846,-6.9179],[107.786,-6.9175],[107.7864,-6.9211],[107.7769,-6.9248],[107.7723,-6.9135],[107.7694,-6.9143],[107.7694,-6.916],[107.7677,-6.9156],[107.7696,-6.9217],[107.7667,-6.921]]]}},{"type":"Feature","properties":{"name":"CintaMulya","name_en":"CintaMulya","admin_level":"7","osm_id":""},"geometry":{"type":"Polygon","coordinates":[[[107.7822,-6.9585],[107.7817,-6.9525],[107.7865,-6.9512],[107.7892,-6.947],[107.7915,-6.9477],[107.7924,-6.95],[107.7885,-6.9536],[107.7899,-6.9565],[107.7929,-6.9579],[107.7913,-6.9617],[107.7822,-6.9585]]]}},{"type":"Feature","properties":{"name":"Cipacing","name_en":"Cipacing","admin_level":"7","osm_id":""},"geometry":{"type":"Polygon","coordinates":[[[107.7569,-6.9556],[107.7552,-6.956],[107.7538,-6.9517],[107.7589,-6.9437],[107.7647,-6.9421],[107.7695,-6.9446],[107.7672,-6.9478],[107.7685,-6.9488],[107.7685,-6.9542],[107.7649,-6.9522],[107.7648,-6.955],[107.763,-6.9563],[107.7619,-6.9536],[107.7599,-6.9528],[107.7591,-6.9549],[107.7569,-6.9556]]]}},{"type":"Feature","properties":{"name":"Cisempur","name_en":"Cisempur","admin_level":"7","osm_id":""},"geometry":{"type":"Polygon","coordinates":[[[107.8031,-6.9348],[107.8015,-6.9386],[107.8028,-6.9446],[107.7965,-6.9534],[107.7968,-6.9605],[107.7923,-6.9613],[107.7929,-6.9579],[107.7899,-6.9565],[107.7885,-6.9536],[107.7924,-6.95],[107.789,-6.9456],[107.7965,-6.9422],[107.8031,-6.9348]]]}},{"type":"Feature","properties":{"name":"Hegarmanah","name_en":"Hegarmanah","admin_level":"7","osm_id":""},"geometry":{"type":"Polygon","coordinates":[[[107.7798,-6.9465],[107.7819,-6.942],[107.7854,-6.9393],[107.7782,-6.9416],[107.7783,-6.9341],[107.7749,-6.9333],[107.7687,-6.9221],[107.7695,-6.9182],[107.7677,-6.9156],[107.7694,-6.916],[107.7694,-6.9143],[107.7723,-6.9135],[107.7769,-6.9248],[107.7849,-6.9209],[107.7884,-6.9223],[107.7903,-6.9209],[107.7987,-6.9261],[107.7933,-6.9294],[107.7874,-6.9282],[107.7854,-6.9297],[107.7837,-6.9349],[107.7861,-6.9383],[107.7855,-6.9431],[107.7838,-6.9433],[107.7836,-6.9467],[107.7798,-6.9465]]]}},{"type":"Feature","properties":{"name":"Jatimukti","name_en":"Jatimukti","admin_level":"7","osm_id":""},"geometry":{"type":"Polygon","coordinates":[[[107.7816,-6.9562],[107.7795,-6.9549],[107.7803,-6.9518],[107.7871,-6.9388],[107.79,-6.9415],[107.7985,-6.9391],[107.7963,-6.9424],[107.7895,-6.9446],[107.7895,-6.9479],[107.7865,-6.9512],[107.7814,-6.9529],[107.7816,-6.9562]]]}},{"type":"Feature","properties":{"name":"Jatiroke","name_en":"Jatiroke","admin_level":"7","osm_id":""},"geometry":{"type":"Polygon","coordinates":[[[107.8031,-6.9348],[107.7985,-6.9391],[107.79,-6.9415],[107.7871,-6.9388],[107.7862,-6.9404],[107.7851,-6.9354],[107.7837,-6.9349],[107.787,-6.9284],[107.7918,-6.9297],[107.7987,-6.9261],[107.8031,-6.9348]]]}},{"type":"Feature","properties":{"name":"Mekargalih","name_en":"Mekargalih","admin_level":"7","osm_id":""},"geometry":{"type":"Polygon","coordinates":[[[107.7725,-6.9592],[107.769,-6.9574],[107.7708,-6.9535],[107.7749,-6.9502],[107.7789,-6.9507],[107.7798,-6.9465],[107.7821,-6.9465],[107.7781,-6.9572],[107.774,-6.956],[107.7742,-6.9595],[107.7725,-6.9592]]]}},{"type":"Feature","properties":{"name":"Sayang","name_en":"Sayang","admin_level":"7","osm_id":""},"geometry":{"type":"Polygon","coordinates":[[[107.7701,-6.9548],[107.7685,-6.9542],[107.7685,-6.9488],[107.7672,-6.9478],[107.7696,-6.945],[107.7674,-6.944],[107.7661,-6.9389],[107.7687,-6.9331],[107.7668,-6.9278],[107.7667,-6.921],[107.7706,-6.9244],[107.7722,-6.9334],[107.77,-6.9352],[107.7732,-6.9459],[107.7754,-6.9464],[107.7739,-6.952],[107.7701,-6.9548]]]}}]}