{"type":"FeatureCollection","metadata":{"parent_osm_id":"gid_IDN_8_9_1_1","parent_name":"BatangAsam","parent_name_1":"Jambi","parent_gid":"IDN.8.9.1_1","parent_level":"6","child_level":"7","count":6,"source":"GADM 4.1","generated":"2026-05-09"},"features":[{"type":"Feature","properties":{"name":"DusunKebon","name_en":"DusunKebon","admin_level":"7","osm_id":""},"geometry":{"type":"Polygon","coordinates":[[[102.9282,-1.1424],[102.918,-1.1436],[102.8933,-1.1386],[102.9351,-1.062],[102.9606,-1.0304],[102.9813,-1.0134],[103.0194,-1.0008],[103.0261,-1.0062],[103.0314,-1.0141],[103.0162,-1.0243],[102.984,-1.0416],[102.9434,-1.096],[102.9257,-1.1354],[102.9282,-1.1424]]]}},{"type":"Feature","properties":{"name":"KampungBaru","name_en":"KampungBaru","admin_level":"7","osm_id":""},"geometry":{"type":"Polygon","coordinates":[[[103.0037,-1.1313],[102.9624,-1.1413],[102.9625,-1.1251],[102.9664,-1.0945],[102.9759,-1.0737],[102.9912,-1.0599],[103.0072,-1.0469],[103.0258,-1.0419],[103.0254,-1.0453],[103.0214,-1.0436],[103.0214,-1.0485],[103.0198,-1.0484],[103.0226,-1.0577],[102.9942,-1.086],[102.9906,-1.1024],[102.9952,-1.1219],[103.0037,-1.1313]]]}},{"type":"Feature","properties":{"name":"LubukBernai","name_en":"LubukBernai","admin_level":"7","osm_id":""},"geometry":{"type":"Polygon","coordinates":[[[102.8933,-1.1386],[102.918,-1.1436],[102.9496,-1.1398],[102.9577,-1.1424],[103.0037,-1.1313],[103.0379,-1.1673],[103.0177,-1.206],[103.0132,-1.2077],[103.0092,-1.2115],[103.0032,-1.2221],[103.0008,-1.223],[102.9858,-1.2235],[102.9553,-1.2333],[102.9463,-1.2333],[102.9346,-1.2141],[102.9284,-1.2062],[102.9261,-1.2057],[102.8863,-1.2208],[102.8792,-1.226],[102.8763,-1.2263],[102.8709,-1.2159],[102.8609,-1.2026],[102.8494,-1.1927],[102.8442,-1.1898],[102.8408,-1.192],[102.8308,-1.1936],[102.8429,-1.1425],[102.8609,-1.1321],[102.8933,-1.1386]]]}},{"type":"Feature","properties":{"name":"SriAgung","name_en":"SriAgung","admin_level":"7","osm_id":""},"geometry":{"type":"Polygon","coordinates":[[[102.9581,-1.0336],[102.9557,-1.0365],[102.9507,-1.0372],[102.9413,-1.0431],[102.9287,-1.0539],[102.9148,-1.0483],[102.9146,-1.0454],[102.911,-1.0423],[102.9171,-1.0297],[102.9253,-1.0236],[102.9369,-1.023],[102.9438,-1.0252],[102.9581,-1.0336]]]}},{"type":"Feature","properties":{"name":"Suban","name_en":"Suban","admin_level":"7","osm_id":""},"geometry":{"type":"Polygon","coordinates":[[[102.9557,-1.0365],[102.9351,-1.062],[102.8933,-1.1386],[102.8609,-1.1321],[102.8429,-1.1425],[102.8308,-1.1936],[102.8244,-1.1936],[102.8168,-1.2015],[102.8225,-1.2207],[102.8218,-1.2224],[102.7087,-1.1988],[102.6724,-1.1715],[102.6456,-1.1358],[102.6507,-1.1264],[102.6501,-1.1198],[102.6487,-1.1186],[102.6504,-1.1131],[102.6529,-1.1108],[102.6683,-1.1074],[102.6733,-1.0965],[102.6736,-1.0923],[102.6828,-1.0882],[102.6835,-1.0806],[102.6867,-1.0775],[102.7097,-1.0773],[102.7121,-1.0727],[102.7151,-1.0714],[102.7219,-1.0711],[102.7278,-1.0744],[102.7325,-1.0708],[102.7343,-1.0677],[102.7318,-1.0529],[102.7368,-1.0451],[102.7433,-1.0413],[102.7555,-1.0401],[102.7544,-1.028],[102.7583,-1.0237],[102.7669,-1.0255],[102.7686,-1.0281],[102.7713,-1.028],[102.7749,-1.0247],[102.7761,-1.0278],[102.7788,-1.0291],[102.782,-1.0227],[102.7811,-1.0198],[102.7737,-1.0138],[102.7754,-1.0089],[102.7834,-0.9985],[102.79,-0.9941],[102.8247,-0.9599],[102.8616,-0.9316],[102.8888,-0.9065],[102.9727,-0.9066],[102.9761,-0.9046],[102.9748,-0.8924],[102.977,-0.8772],[102.9849,-0.8695],[102.9944,-0.8762],[102.9955,-0.8756],[102.9956,-0.8827],[103.001,-0.8847],[103.0037,-0.8914],[103.0118,-0.8915],[103.0241,-0.9987],[102.9813,-1.0134],[102.9581,-1.0336],[102.9438,-1.0252],[102.9369,-1.023],[102.9253,-1.0236],[102.9171,-1.0297],[102.911,-1.0423],[102.9146,-1.0454],[102.9148,-1.0483],[102.9287,-1.0539],[102.9462,-1.0399],[102.9507,-1.0372],[102.9557,-1.0365]]]}},{"type":"Feature","properties":{"name":"TanjungBojo","name_en":"TanjungBojo","admin_level":"7","osm_id":""},"geometry":{"type":"Polygon","coordinates":[[[102.9282,-1.1424],[102.9257,-1.1354],[102.9434,-1.096],[102.984,-1.0416],[103.0162,-1.0243],[103.0314,-1.0141],[103.0354,-1.0211],[103.0424,-1.024],[103.0429,-1.0269],[103.031,-1.0275],[103.0252,-1.026],[103.0271,-1.0321],[103.0245,-1.0334],[103.0226,-1.0319],[103.0217,-1.0344],[103.024,-1.0358],[103.0219,-1.0404],[103.0258,-1.0419],[103.0072,-1.0469],[102.9759,-1.0737],[102.9664,-1.0945],[102.9625,-1.1251],[102.9624,-1.1413],[102.9577,-1.1424],[102.9496,-1.1398],[102.9282,-1.1424]]]}}]}