{"type":"FeatureCollection","metadata":{"parent_osm_id":"gid_IDN_27_8_10_1","parent_name":"PamonaSelatan","parent_name_1":"SulawesiTengah","parent_gid":"IDN.27.8.10_1","parent_level":"6","child_level":"7","count":12,"source":"GADM 4.1","generated":"2026-05-08"},"features":[{"type":"Feature","properties":{"name":"Bancea","name_en":"Bancea","admin_level":"7","osm_id":""},"geometry":{"type":"Polygon","coordinates":[[[120.5397,-2.0703],[120.5093,-2.0368],[120.5807,-1.9835],[120.583,-1.9863],[120.5854,-1.9867],[120.5869,-1.9849],[120.5895,-1.9891],[120.5849,-1.9887],[120.5845,-1.9903],[120.5885,-1.9959],[120.5971,-1.9972],[120.5943,-1.9965],[120.5966,-1.9963],[120.5994,-1.9977],[120.6,-2.001],[120.6019,-2.0002],[120.6032,-2.0023],[120.6007,-2.0032],[120.6013,-2.007],[120.5397,-2.0703]]]}},{"type":"Feature","properties":{"name":"BangunJaya","name_en":"BangunJaya","admin_level":"7","osm_id":""},"geometry":{"type":"Polygon","coordinates":[[[120.7408,-2.0921],[120.7189,-2.0857],[120.7146,-2.0861],[120.6931,-2.0956],[120.692,-2.0863],[120.7117,-2.0758],[120.7262,-2.0625],[120.7324,-2.0669],[120.7372,-2.0746],[120.742,-2.0881],[120.7408,-2.0921]]]}},{"type":"Feature","properties":{"name":"Boe","name_en":"Boe","admin_level":"7","osm_id":""},"geometry":{"type":"Polygon","coordinates":[[[120.646,-2.1767],[120.6151,-2.1567],[120.602,-2.1426],[120.5864,-2.1295],[120.5803,-2.1226],[120.5769,-2.1147],[120.6274,-2.0521],[120.6292,-2.0575],[120.6398,-2.069],[120.6408,-2.0721],[120.6483,-2.0725],[120.651,-2.0763],[120.6587,-2.0808],[120.6712,-2.0778],[120.6738,-2.0846],[120.6747,-2.0938],[120.6686,-2.1153],[120.6699,-2.122],[120.6557,-2.1483],[120.646,-2.1767]]]}},{"type":"Feature","properties":{"name":"MayaJaya","name_en":"MayaJaya","admin_level":"7","osm_id":""},"geometry":{"type":"Polygon","coordinates":[[[120.7037,-2.0913],[120.7146,-2.0861],[120.7189,-2.0857],[120.7408,-2.0921],[120.7323,-2.1075],[120.7221,-2.1212],[120.7125,-2.1151],[120.7074,-2.1245],[120.7052,-2.1228],[120.7083,-2.1197],[120.7073,-2.1188],[120.704,-2.1219],[120.7013,-2.1155],[120.7037,-2.0913]]]}},{"type":"Feature","properties":{"name":"MayaSari","name_en":"MayaSari","admin_level":"7","osm_id":""},"geometry":{"type":"Polygon","coordinates":[[[120.7806,-2.1458],[120.7767,-2.1686],[120.7363,-2.1615],[120.7339,-2.1597],[120.733,-2.1489],[120.735,-2.1453],[120.7343,-2.1412],[120.7369,-2.1422],[120.7405,-2.1406],[120.7806,-2.1458]]]}},{"type":"Feature","properties":{"name":"Mayoa","name_en":"Mayoa","admin_level":"7","osm_id":""},"geometry":{"type":"Polygon","coordinates":[[[120.805,-2.2253],[120.791,-2.2385],[120.7566,-2.239],[120.7423,-2.2303],[120.7256,-2.2267],[120.7174,-2.2233],[120.7094,-2.2167],[120.6946,-2.2087],[120.7194,-2.1453],[120.7275,-2.1354],[120.7343,-2.1412],[120.735,-2.1453],[120.733,-2.1489],[120.7339,-2.1596],[120.7363,-2.1615],[120.7749,-2.1691],[120.7767,-2.1685],[120.7806,-2.1458],[120.8371,-2.1482],[120.8415,-2.1832],[120.8421,-2.2184],[120.805,-2.2253]]]}},{"type":"Feature","properties":{"name":"PandaJaya","name_en":"PandaJaya","admin_level":"7","osm_id":""},"geometry":{"type":"Polygon","coordinates":[[[120.6946,-2.2087],[120.6853,-2.2054],[120.6802,-2.1985],[120.6699,-2.1931],[120.7018,-2.1172],[120.704,-2.1219],[120.7073,-2.1188],[120.7083,-2.1197],[120.7052,-2.1228],[120.7074,-2.1245],[120.7125,-2.1151],[120.7221,-2.1212],[120.7323,-2.1075],[120.7408,-2.0921],[120.7359,-2.1039],[120.7352,-2.109],[120.7368,-2.1135],[120.7343,-2.1167],[120.7275,-2.1354],[120.7194,-2.1453],[120.6946,-2.2087]]]}},{"type":"Feature","properties":{"name":"Pandayora","name_en":"Pandayora","admin_level":"7","osm_id":""},"geometry":{"type":"Polygon","coordinates":[[[120.6699,-2.1931],[120.646,-2.1767],[120.6497,-2.1627],[120.6557,-2.1483],[120.6802,-2.1036],[120.6883,-2.0972],[120.7037,-2.0913],[120.7016,-2.1202],[120.6996,-2.1218],[120.6699,-2.1931]]]}},{"type":"Feature","properties":{"name":"Panjo","name_en":"Panjo","admin_level":"7","osm_id":""},"geometry":{"type":"Polygon","coordinates":[[[120.5769,-2.1147],[120.5433,-2.0783],[120.5397,-2.0703],[120.6013,-2.007],[120.6007,-2.0032],[120.6032,-2.0023],[120.6019,-2.0002],[120.6,-2.001],[120.599,-1.9968],[120.5966,-1.9957],[120.5987,-1.9953],[120.6053,-1.997],[120.6132,-2.0031],[120.62,-2.0248],[120.6215,-2.0355],[120.6276,-2.0519],[120.5769,-2.1147]]]}},{"type":"Feature","properties":{"name":"PasirPutih","name_en":"PasirPutih","admin_level":"7","osm_id":""},"geometry":{"type":"Polygon","coordinates":[[[120.6872,-2.0723],[120.6993,-2.0644],[120.7014,-2.0597],[120.6987,-2.0597],[120.6982,-2.0566],[120.701,-2.0557],[120.7016,-2.0537],[120.7119,-2.0544],[120.7265,-2.0621],[120.7117,-2.0758],[120.6921,-2.0864],[120.6885,-2.0751],[120.6866,-2.074],[120.6872,-2.0723]]]}},{"type":"Feature","properties":{"name":"Pendolo","name_en":"Pendolo","admin_level":"7","osm_id":""},"geometry":{"type":"Polygon","coordinates":[[[120.6712,-2.0778],[120.6713,-2.0763],[120.68,-2.0726],[120.6872,-2.0723],[120.6866,-2.074],[120.6885,-2.0751],[120.6921,-2.0864],[120.6931,-2.0956],[120.6883,-2.0972],[120.6802,-2.1036],[120.6699,-2.122],[120.6686,-2.1153],[120.6694,-2.1091],[120.6747,-2.0938],[120.6738,-2.0846],[120.6712,-2.0778]]]}},{"type":"Feature","properties":{"name":"Uelene","name_en":"Uelene","admin_level":"7","osm_id":""},"geometry":{"type":"Polygon","coordinates":[[[120.8316,-2.1218],[120.8371,-2.1482],[120.7892,-2.1467],[120.7405,-2.1406],[120.7369,-2.1422],[120.7275,-2.1354],[120.7372,-2.111],[120.8316,-2.1218]]]}}]}