{"type":"FeatureCollection","metadata":{"parent_osm_id":"gid_IDN_1_10_6_1","parent_name":"IdiRayeuk","parent_name_1":"Aceh","parent_gid":"IDN.1.10.6_1","parent_level":"6","child_level":"7","count":35,"source":"GADM 4.1","generated":"2026-05-09"},"features":[{"type":"Feature","properties":{"name":"AlueDuaMuka0","name_en":"AlueDuaMuka0","admin_level":"7","osm_id":""},"geometry":{"type":"Polygon","coordinates":[[[97.7448,4.984],[97.7461,4.984],[97.7482,4.9885],[97.7602,4.9782],[97.7582,4.9756],[97.7564,4.9767],[97.7546,4.9736],[97.7503,4.9767],[97.7434,4.9783],[97.743,4.9816],[97.7448,4.984]]]}},{"type":"Feature","properties":{"name":"AlueDuaMukaS","name_en":"AlueDuaMukaS","admin_level":"7","osm_id":""},"geometry":{"type":"Polygon","coordinates":[[[97.7418,4.9753],[97.7438,4.978],[97.7468,4.9782],[97.7567,4.9718],[97.755,4.9686],[97.7535,4.9684],[97.7418,4.9753]]]}},{"type":"Feature","properties":{"name":"BantayanTimur","name_en":"BantayanTimur","admin_level":"7","osm_id":""},"geometry":{"type":"Polygon","coordinates":[[[97.7562,4.9352],[97.7533,4.9369],[97.7531,4.94],[97.7636,4.9394],[97.7602,4.9348],[97.7581,4.9361],[97.7562,4.9352]]]}},{"type":"Feature","properties":{"name":"BlangGeulumpang","name_en":"BlangGeulumpang","admin_level":"7","osm_id":""},"geometry":{"type":"Polygon","coordinates":[[[97.7797,4.9615],[97.7792,4.9595],[97.7819,4.9572],[97.7786,4.9546],[97.7752,4.9572],[97.7797,4.9615]]]}},{"type":"Feature","properties":{"name":"BuketJok","name_en":"BuketJok","admin_level":"7","osm_id":""},"geometry":{"type":"Polygon","coordinates":[[[97.7258,4.9617],[97.7244,4.9639],[97.7255,4.9681],[97.7294,4.9676],[97.7369,4.9632],[97.7362,4.9598],[97.7344,4.9591],[97.7258,4.9617]]]}},{"type":"Feature","properties":{"name":"BuketJuara","name_en":"BuketJuara","admin_level":"7","osm_id":""},"geometry":{"type":"Polygon","coordinates":[[[97.7462,4.9559],[97.7449,4.9653],[97.7476,4.9662],[97.7528,4.9627],[97.751,4.9548],[97.7462,4.9559]]]}},{"type":"Feature","properties":{"name":"BuketLanga","name_en":"BuketLanga","admin_level":"7","osm_id":""},"geometry":{"type":"Polygon","coordinates":[[[97.7358,4.9597],[97.7369,4.9632],[97.7405,4.9635],[97.7419,4.9674],[97.7459,4.9629],[97.7462,4.9557],[97.7417,4.9574],[97.7367,4.9569],[97.7358,4.9597]]]}},{"type":"Feature","properties":{"name":"BuketMeulinteung","name_en":"BuketMeulinteung","admin_level":"7","osm_id":""},"geometry":{"type":"Polygon","coordinates":[[[97.7294,4.9676],[97.7326,4.9711],[97.7417,4.9674],[97.7391,4.9631],[97.736,4.9632],[97.7294,4.9676]]]}},{"type":"Feature","properties":{"name":"BuketPala","name_en":"BuketPala","admin_level":"7","osm_id":""},"geometry":{"type":"Polygon","coordinates":[[[97.751,4.9548],[97.7528,4.9627],[97.7596,4.9577],[97.7583,4.9561],[97.759,4.9525],[97.7573,4.9525],[97.7563,4.9486],[97.754,4.9485],[97.754,4.952],[97.751,4.9548]]]}},{"type":"Feature","properties":{"name":"DamaPulo","name_en":"DamaPulo","admin_level":"7","osm_id":""},"geometry":{"type":"Polygon","coordinates":[[[97.7567,4.9401],[97.7488,4.9395],[97.745,4.9446],[97.7467,4.9478],[97.7592,4.9478],[97.7549,4.9425],[97.7567,4.9401]]]}},{"type":"Feature","properties":{"name":"GampongAceh","name_en":"GampongAceh","admin_level":"7","osm_id":""},"geometry":{"type":"Polygon","coordinates":[[[97.7685,4.9454],[97.7662,4.9463],[97.7645,4.951],[97.7668,4.9539],[97.7666,4.9517],[97.7709,4.95],[97.7685,4.9454]]]}},{"type":"Feature","properties":{"name":"GampongBaro","name_en":"GampongBaro","admin_level":"7","osm_id":""},"geometry":{"type":"Polygon","coordinates":[[[97.7693,4.9552],[97.7638,4.9591],[97.7669,4.9647],[97.7701,4.9625],[97.7715,4.9635],[97.7731,4.9598],[97.7727,4.9552],[97.771,4.9571],[97.7693,4.9552]]]}},{"type":"Feature","properties":{"name":"GampongJalan","name_en":"GampongJalan","admin_level":"7","osm_id":""},"geometry":{"type":"Polygon","coordinates":[[[97.7497,4.9705],[97.7623,4.965],[97.7669,4.9647],[97.7638,4.9591],[97.7694,4.9543],[97.7647,4.9533],[97.7558,4.9612],[97.7479,4.9651],[97.7497,4.9705]]]}},{"type":"Feature","properties":{"name":"GurebBlang","name_en":"GurebBlang","admin_level":"7","osm_id":""},"geometry":{"type":"Polygon","coordinates":[[[97.7462,4.9559],[97.7522,4.9542],[97.754,4.952],[97.754,4.9485],[97.7452,4.9484],[97.7422,4.9469],[97.7448,4.9561],[97.7462,4.9559]]]}},{"type":"Feature","properties":{"name":"KampungJawa","name_en":"KampungJawa","admin_level":"7","osm_id":""},"geometry":{"type":"Polygon","coordinates":[[[97.7709,4.95],[97.7671,4.9543],[97.7692,4.9541],[97.771,4.9571],[97.7727,4.9552],[97.7734,4.9572],[97.7751,4.9563],[97.7764,4.9505],[97.7737,4.9484],[97.7709,4.95]]]}},{"type":"Feature","properties":{"name":"KampungTanjong","name_en":"KampungTanjong","admin_level":"7","osm_id":""},"geometry":{"type":"Polygon","coordinates":[[[97.7752,4.9564],[97.7801,4.9547],[97.7822,4.9501],[97.7792,4.9487],[97.7764,4.9505],[97.7752,4.9564]]]}},{"type":"Feature","properties":{"name":"KeudeAceh","name_en":"KeudeAceh","admin_level":"7","osm_id":""},"geometry":{"type":"Polygon","coordinates":[[[97.7707,4.9502],[97.7666,4.9517],[97.7671,4.9543],[97.7712,4.9512],[97.7707,4.9502]]]}},{"type":"Feature","properties":{"name":"KeudeBlang","name_en":"KeudeBlang","admin_level":"7","osm_id":""},"geometry":{"type":"Polygon","coordinates":[[[97.7662,4.9463],[97.7647,4.9476],[97.764,4.9452],[97.7563,4.9486],[97.7573,4.9525],[97.759,4.9525],[97.7583,4.9561],[97.7596,4.9577],[97.7662,4.9535],[97.7645,4.951],[97.7662,4.9463]]]}},{"type":"Feature","properties":{"name":"KeutapangMameh","name_en":"KeutapangMameh","admin_level":"7","osm_id":""},"geometry":{"type":"Polygon","coordinates":[[[97.7715,4.9635],[97.7704,4.9624],[97.7658,4.9653],[97.7623,4.965],[97.7666,4.9725],[97.7738,4.9664],[97.7715,4.9635]]]}},{"type":"Feature","properties":{"name":"KualaIdi","name_en":"KualaIdi","admin_level":"7","osm_id":""},"geometry":{"type":"Polygon","coordinates":[[[97.7797,4.9615],[97.7744,4.956],[97.7715,4.9635],[97.7738,4.9664],[97.7797,4.9615]]]}},{"type":"Feature","properties":{"name":"KualaPdPuntong","name_en":"KualaPdPuntong","admin_level":"7","osm_id":""},"geometry":{"type":"Polygon","coordinates":[[[97.7801,4.9547],[97.7819,4.9572],[97.7935,4.9475],[97.7935,4.9453],[97.7842,4.9484],[97.7801,4.9547]]]}},{"type":"Feature","properties":{"name":"KutaBlang","name_en":"KutaBlang","admin_level":"7","osm_id":""},"geometry":{"type":"Polygon","coordinates":[[[97.7718,4.9443],[97.7685,4.9454],[97.7709,4.95],[97.7734,4.9486],[97.7718,4.9443]]]}},{"type":"Feature","properties":{"name":"KutaLawah","name_en":"KutaLawah","admin_level":"7","osm_id":""},"geometry":{"type":"Polygon","coordinates":[[[97.7326,4.9711],[97.7348,4.9733],[97.74,4.9736],[97.7418,4.9753],[97.7429,4.9706],[97.7419,4.9674],[97.7326,4.9711]]]}},{"type":"Feature","properties":{"name":"MeunasahPuuk","name_en":"MeunasahPuuk","admin_level":"7","osm_id":""},"geometry":{"type":"Polygon","coordinates":[[[97.7643,4.9452],[97.7636,4.9394],[97.7605,4.9402],[97.7587,4.939],[97.7549,4.9415],[97.7592,4.9478],[97.7643,4.9452]]]}},{"type":"Feature","properties":{"name":"SamPaiMah","name_en":"SamPaiMah","admin_level":"7","osm_id":""},"geometry":{"type":"Polygon","coordinates":[[[97.7246,4.9521],[97.727,4.9583],[97.7258,4.9617],[97.7296,4.9615],[97.7327,4.9593],[97.7316,4.9464],[97.7298,4.9458],[97.7247,4.9485],[97.7246,4.9521]]]}},{"type":"Feature","properties":{"name":"SeuneubokBacee","name_en":"SeuneubokBacee","admin_level":"7","osm_id":""},"geometry":{"type":"Polygon","coordinates":[[[97.7722,4.9345],[97.7737,4.9427],[97.7762,4.9455],[97.7838,4.9344],[97.7836,4.9304],[97.7831,4.9295],[97.7722,4.9345]]]}},{"type":"Feature","properties":{"name":"SeuneubokRambong","name_en":"SeuneubokRambong","admin_level":"7","osm_id":""},"geometry":{"type":"Polygon","coordinates":[[[97.792,4.9454],[97.7935,4.9453],[97.7937,4.9423],[97.7919,4.9408],[97.7941,4.9406],[97.7938,4.9374],[97.792,4.9382],[97.7936,4.9365],[97.7838,4.9343],[97.7829,4.9355],[97.792,4.9454]]]}},{"type":"Feature","properties":{"name":"SeuneubokTeungoh(pr)","name_en":"SeuneubokTeungoh(pr)","admin_level":"7","osm_id":""},"geometry":{"type":"Polygon","coordinates":[[[97.7842,4.9271],[97.7835,4.9293],[97.79,4.9296],[97.7921,4.9366],[97.7936,4.9365],[97.7922,4.9385],[97.7984,4.9322],[97.7949,4.929],[97.7958,4.9259],[97.793,4.9222],[97.7878,4.9227],[97.7842,4.9271]]]}},{"type":"Feature","properties":{"name":"SeuneubokTuha","name_en":"SeuneubokTuha","admin_level":"7","osm_id":""},"geometry":{"type":"Polygon","coordinates":[[[97.7327,4.9593],[97.7358,4.9597],[97.7367,4.9569],[97.7384,4.9565],[97.7383,4.9523],[97.7347,4.9469],[97.7316,4.9464],[97.7327,4.9593]]]}},{"type":"Feature","properties":{"name":"SeuneubokTutong","name_en":"SeuneubokTutong","admin_level":"7","osm_id":""},"geometry":{"type":"Polygon","coordinates":[[[97.7384,4.9565],[97.7417,4.9574],[97.7448,4.9561],[97.7414,4.9466],[97.7347,4.9469],[97.7383,4.9523],[97.7384,4.9565]]]}},{"type":"Feature","properties":{"name":"TanjongKapai","name_en":"TanjongKapai","admin_level":"7","osm_id":""},"geometry":{"type":"Polygon","coordinates":[[[97.7546,4.9737],[97.7569,4.9771],[97.7655,4.9693],[97.7623,4.965],[97.755,4.9686],[97.7567,4.9718],[97.7546,4.9737]]]}},{"type":"Feature","properties":{"name":"TanohAnou","name_en":"TanohAnou","admin_level":"7","osm_id":""},"geometry":{"type":"Polygon","coordinates":[[[97.7737,4.9427],[97.7718,4.9443],[97.7734,4.9486],[97.7762,4.9506],[97.7792,4.9487],[97.7825,4.9517],[97.7842,4.9484],[97.7862,4.9487],[97.792,4.9454],[97.7829,4.9355],[97.7762,4.9455],[97.7737,4.9427]]]}},{"type":"Feature","properties":{"name":"TeupinBatee","name_en":"TeupinBatee","admin_level":"7","osm_id":""},"geometry":{"type":"Polygon","coordinates":[[[97.7418,4.9753],[97.7497,4.9705],[97.7484,4.9663],[97.7429,4.9661],[97.7418,4.9753]]]}},{"type":"Feature","properties":{"name":"TitiBaro","name_en":"TitiBaro","admin_level":"7","osm_id":""},"geometry":{"type":"Polygon","coordinates":[[[97.7835,4.9293],[97.7833,4.9335],[97.7848,4.9354],[97.7922,4.9355],[97.79,4.9296],[97.7835,4.9293]]]}},{"type":"Feature","properties":{"name":"UleeBlang","name_en":"UleeBlang","admin_level":"7","osm_id":""},"geometry":{"type":"Polygon","coordinates":[[[97.7583,4.9757],[97.7602,4.9782],[97.7666,4.9725],[97.7655,4.9693],[97.7583,4.9757]]]}}]}