{"type":"FeatureCollection","metadata":{"parent_osm_id":"gid_IDN_32_13_7_1","parent_name":"Pangkatan","parent_name_1":"SumateraUtara","parent_gid":"IDN.32.13.7_1","parent_level":"6","child_level":"7","count":7,"source":"GADM 4.1","generated":"2026-05-08"},"features":[{"type":"Feature","properties":{"name":"KampungPadang","name_en":"KampungPadang","admin_level":"7","osm_id":""},"geometry":{"type":"Polygon","coordinates":[[[99.94,2.1305],[99.9399,2.1349],[99.955,2.1504],[99.9637,2.1732],[99.9671,2.1748],[99.9729,2.1716],[99.9695,2.1788],[99.97,2.1814],[99.9817,2.1899],[99.9915,2.2067],[99.9959,2.2061],[99.9996,2.2024],[100.0065,2.2072],[100.0482,2.1947],[100.0519,2.1992],[100.0754,2.1925],[100.0723,2.1846],[100.0678,2.1822],[100.0643,2.1386],[100.0463,2.1115],[100.0149,2.1147],[100.0255,2.1187],[100.0308,2.1256],[100.0223,2.174],[100.0041,2.1668],[100.0036,2.1554],[99.9967,2.154],[99.9719,2.127],[99.94,2.1305]]]}},{"type":"Feature","properties":{"name":"KampungPangkata","name_en":"KampungPangkata","admin_level":"7","osm_id":""},"geometry":{"type":"Polygon","coordinates":[[[99.9507,2.2327],[99.9441,2.2498],[99.9372,2.2529],[99.9339,2.2572],[99.9333,2.2619],[99.9458,2.2621],[100.0229,2.2515],[100.0385,2.2561],[100.0795,2.2598],[100.0869,2.2218],[100.0903,2.2118],[100.0927,2.1708],[100.0723,2.1846],[100.0754,2.1925],[100.0519,2.1992],[100.0482,2.1947],[100.0065,2.2072],[99.9507,2.2327]]]}},{"type":"Feature","properties":{"name":"KampungSennah","name_en":"KampungSennah","admin_level":"7","osm_id":""},"geometry":{"type":"Polygon","coordinates":[[[99.9333,2.2619],[99.9417,2.2784],[99.9452,2.2889],[99.9957,2.2964],[100.0445,2.3005],[100.0621,2.2964],[100.0682,2.2881],[100.0795,2.2598],[100.0385,2.2561],[100.0229,2.2515],[99.9458,2.2621],[99.9333,2.2619]]]}},{"type":"Feature","properties":{"name":"PerkebunanPangk","name_en":"PerkebunanPangk","admin_level":"7","osm_id":""},"geometry":{"type":"Polygon","coordinates":[[[99.9416,2.1139],[99.9408,2.1208],[99.9597,2.1206],[99.9632,2.1284],[99.9719,2.127],[99.9967,2.154],[100.0036,2.1554],[100.0041,2.1668],[100.0223,2.174],[100.0308,2.1256],[100.0255,2.1187],[100.0149,2.1147],[100.0354,2.1126],[100.0432,2.0876],[100.01,2.0885],[100.0131,2.0922],[99.9975,2.0924],[99.9987,2.1086],[99.9948,2.1102],[99.984,2.1076],[99.9764,2.1118],[99.9675,2.1109],[99.9663,2.0993],[99.9528,2.0991],[99.9544,2.1139],[99.9416,2.1139]]]}},{"type":"Feature","properties":{"name":"Sidorukun","name_en":"Sidorukun","admin_level":"7","osm_id":""},"geometry":{"type":"Polygon","coordinates":[[[99.9263,2.0885],[99.9255,2.1103],[99.9394,2.1116],[99.9416,2.1139],[99.9544,2.1139],[99.9528,2.0991],[99.9663,2.0993],[99.9675,2.1109],[99.9764,2.1118],[99.984,2.1076],[99.9948,2.1102],[99.9987,2.1086],[99.9975,2.0924],[100.0131,2.0922],[100.0048,2.0818],[99.9616,2.0792],[99.9505,2.0809],[99.926,2.0795],[99.9263,2.0885]]]}},{"type":"Feature","properties":{"name":"TanjungHarapan","name_en":"TanjungHarapan","admin_level":"7","osm_id":""},"geometry":{"type":"Polygon","coordinates":[[[99.9636,2.2029],[99.9507,2.2327],[100.0065,2.2072],[99.9996,2.2024],[99.9959,2.2061],[99.9915,2.2067],[99.9817,2.1899],[99.97,2.1814],[99.9695,2.1788],[99.9729,2.1716],[99.9671,2.1748],[99.9637,2.1732],[99.955,2.1504],[99.9447,2.1385],[99.9505,2.1633],[99.9636,2.2029]]]}},{"type":"Feature","properties":{"name":"TebingTinggiPa","name_en":"TebingTinggiPa","admin_level":"7","osm_id":""},"geometry":{"type":"Polygon","coordinates":[[[100.093,2.1066],[100.088,2.1047],[100.0735,2.1051],[100.0445,2.0855],[100.0354,2.1126],[100.0463,2.1115],[100.0643,2.1386],[100.0678,2.1822],[100.0723,2.1846],[100.0927,2.1708],[100.0951,2.1628],[100.1136,2.1611],[100.1202,2.1586],[100.0951,2.1082],[100.093,2.1066]]]}}]}