{"type":"FeatureCollection","metadata":{"parent_osm_id":"gid_IDN_24_4_3_1","parent_name":"BatangPeranap","parent_name_1":"Riau","parent_gid":"IDN.24.4.3_1","parent_level":"6","child_level":"7","count":10,"source":"GADM 4.1","generated":"2026-05-08"},"features":[{"type":"Feature","properties":{"name":"KotoTuo","name_en":"KotoTuo","admin_level":"7","osm_id":""},"geometry":{"type":"Polygon","coordinates":[[[101.9471,-0.5453],[101.9278,-0.5474],[101.9175,-0.5457],[101.905,-0.5403],[101.9063,-0.5381],[101.9081,-0.5108],[101.9105,-0.5073],[101.9134,-0.5084],[101.9209,-0.5344],[101.9241,-0.5384],[101.929,-0.5389],[101.9355,-0.5365],[101.9452,-0.5389],[101.9462,-0.5373],[101.945,-0.5331],[101.9389,-0.5293],[101.9382,-0.527],[101.9446,-0.5233],[101.9495,-0.5248],[101.9514,-0.5299],[101.9487,-0.5346],[101.9495,-0.5416],[101.9471,-0.5453]]]}},{"type":"Feature","properties":{"name":"Peladangan","name_en":"Peladangan","admin_level":"7","osm_id":""},"geometry":{"type":"Polygon","coordinates":[[[101.7995,-0.6932],[101.8055,-0.699],[101.8169,-0.6968],[101.8208,-0.7005],[101.8312,-0.6991],[101.8377,-0.7017],[101.8389,-0.7037],[101.8355,-0.7108],[101.8331,-0.712],[101.8271,-0.709],[101.818,-0.7097],[101.8124,-0.7181],[101.8155,-0.7319],[101.8128,-0.7349],[101.8033,-0.7361],[101.7952,-0.7347],[101.7921,-0.7226],[101.7929,-0.7096],[101.7996,-0.6971],[101.7995,-0.6932]]]}},{"type":"Feature","properties":{"name":"Pematang","name_en":"Pematang","admin_level":"7","osm_id":""},"geometry":{"type":"Polygon","coordinates":[[[101.9691,-0.5579],[101.963,-0.5555],[101.9491,-0.5537],[101.9507,-0.5506],[101.9543,-0.55],[101.961,-0.5441],[101.969,-0.5438],[101.9698,-0.5453],[101.9728,-0.5431],[101.9738,-0.5447],[101.9717,-0.5471],[101.973,-0.5488],[101.9691,-0.5579]]]}},{"type":"Feature","properties":{"name":"PematangBenteng","name_en":"PematangBenteng","admin_level":"7","osm_id":""},"geometry":{"type":"Polygon","coordinates":[[[101.9491,-0.5537],[101.963,-0.5555],[101.9691,-0.5579],[101.9563,-0.5901],[101.9488,-0.597],[101.9387,-0.6157],[101.928,-0.6294],[101.9212,-0.6346],[101.912,-0.6528],[101.8878,-0.6416],[101.895,-0.6329],[101.8968,-0.6284],[101.8962,-0.6188],[101.8989,-0.6147],[101.9026,-0.6141],[101.9109,-0.6061],[101.9172,-0.5952],[101.9199,-0.5848],[101.9205,-0.5738],[101.9491,-0.5537]]]}},{"type":"Feature","properties":{"name":"Pesajian","name_en":"Pesajian","admin_level":"7","osm_id":""},"geometry":{"type":"Polygon","coordinates":[[[101.7952,-0.7347],[101.8033,-0.7361],[101.8144,-0.7343],[101.8155,-0.7319],[101.8124,-0.7181],[101.818,-0.7097],[101.8271,-0.709],[101.8331,-0.712],[101.8355,-0.7108],[101.8389,-0.7048],[101.8377,-0.7017],[101.8312,-0.6991],[101.8223,-0.7009],[101.8169,-0.6968],[101.8055,-0.699],[101.7995,-0.6932],[101.8028,-0.6799],[101.8066,-0.6747],[101.8057,-0.6602],[101.8135,-0.6517],[101.8359,-0.6582],[101.8603,-0.673],[101.8833,-0.6804],[101.9068,-0.6796],[101.9134,-0.7642],[101.9243,-0.8195],[101.9263,-0.8433],[101.9224,-0.8619],[101.9161,-0.8834],[101.9081,-0.8879],[101.896,-0.8911],[101.8816,-0.9095],[101.8781,-0.9109],[101.8681,-0.9095],[101.8648,-0.9123],[101.8578,-0.9145],[101.853,-0.9224],[101.8503,-0.9219],[101.8472,-0.915],[101.8438,-0.9116],[101.8478,-0.9],[101.8397,-0.8802],[101.8266,-0.8747],[101.817,-0.8618],[101.8125,-0.8592],[101.8055,-0.8567],[101.7985,-0.8576],[101.7963,-0.8502],[101.7883,-0.8442],[101.7833,-0.8431],[101.7785,-0.8336],[101.7842,-0.8233],[101.7856,-0.8143],[101.7821,-0.8005],[101.7776,-0.7987],[101.777,-0.7942],[101.7807,-0.7899],[101.7852,-0.7801],[101.7891,-0.7571],[101.787,-0.7541],[101.7884,-0.7405],[101.7952,-0.7347]]]}},{"type":"Feature","properties":{"name":"PuntiKayu","name_en":"PuntiKayu","admin_level":"7","osm_id":""},"geometry":{"type":"Polygon","coordinates":[[[101.9046,-0.6116],[101.9026,-0.6141],[101.8989,-0.6147],[101.8962,-0.6188],[101.8968,-0.6284],[101.895,-0.6329],[101.8878,-0.6416],[101.8707,-0.6367],[101.852,-0.6371],[101.8452,-0.6415],[101.8417,-0.6504],[101.8409,-0.6575],[101.8381,-0.6595],[101.8135,-0.6517],[101.8426,-0.6188],[101.8484,-0.6046],[101.8612,-0.5986],[101.8672,-0.5925],[101.8799,-0.5968],[101.9046,-0.6116]]]}},{"type":"Feature","properties":{"name":"Selunak","name_en":"Selunak","admin_level":"7","osm_id":""},"geometry":{"type":"Polygon","coordinates":[[[101.905,-0.5403],[101.9175,-0.5457],[101.9278,-0.5474],[101.9471,-0.5453],[101.9507,-0.5506],[101.9495,-0.553],[101.9386,-0.5521],[101.9115,-0.5579],[101.9102,-0.5597],[101.9114,-0.5669],[101.9152,-0.5698],[101.9181,-0.5692],[101.9175,-0.5725],[101.921,-0.5745],[101.9199,-0.5848],[101.9172,-0.5952],[101.9109,-0.6061],[101.9046,-0.6116],[101.8799,-0.5968],[101.8672,-0.5925],[101.8845,-0.5725],[101.905,-0.5403]]]}},{"type":"Feature","properties":{"name":"SencanoJaya","name_en":"SencanoJaya","admin_level":"7","osm_id":""},"geometry":{"type":"Polygon","coordinates":[[[101.8878,-0.6416],[101.912,-0.6528],[101.9068,-0.6796],[101.8833,-0.6804],[101.871,-0.6759],[101.874,-0.6633],[101.8727,-0.6599],[101.8591,-0.6506],[101.8563,-0.6432],[101.8562,-0.6374],[101.8707,-0.6367],[101.8878,-0.6416]]]}},{"type":"Feature","properties":{"name":"SukaMaju","name_en":"SukaMaju","admin_level":"7","osm_id":""},"geometry":{"type":"Polygon","coordinates":[[[101.9491,-0.5537],[101.9205,-0.5738],[101.9175,-0.5725],[101.9181,-0.5692],[101.9142,-0.5694],[101.9111,-0.5663],[101.9102,-0.5597],[101.9115,-0.5579],[101.9419,-0.5518],[101.9491,-0.5537]]]}},{"type":"Feature","properties":{"name":"SungaiAur","name_en":"SungaiAur","admin_level":"7","osm_id":""},"geometry":{"type":"Polygon","coordinates":[[[101.871,-0.6759],[101.8603,-0.673],[101.8381,-0.6595],[101.8409,-0.6575],[101.8417,-0.6504],[101.8452,-0.6415],[101.8496,-0.638],[101.8562,-0.6374],[101.8563,-0.6432],[101.8591,-0.6506],[101.8727,-0.6599],[101.874,-0.6665],[101.871,-0.6759]]]}}]}