{"type":"FeatureCollection","metadata":{"parent_osm_id":"gid_IDN_22_4_2_1","parent_name":"AnggiGida","parent_name_1":"PapuaBarat","parent_gid":"IDN.22.4.2_1","parent_level":"6","child_level":"7","count":9,"source":"GADM 4.1","generated":"2026-05-09"},"features":[{"type":"Feature","properties":{"name":"Danau/waduk","name_en":"Danau/waduk","admin_level":"7","osm_id":""},"geometry":{"type":"Polygon","coordinates":[[[133.9592,-1.3808],[133.9594,-1.3832],[133.9613,-1.3846],[133.9683,-1.3844],[133.9738,-1.3827],[133.9793,-1.3779],[133.9887,-1.3772],[133.9973,-1.3782],[133.9993,-1.3796],[133.9995,-1.3817],[133.9976,-1.3874],[133.9884,-1.3918],[133.9847,-1.4005],[133.9793,-1.4056],[133.9804,-1.4144],[133.9728,-1.4158],[133.9644,-1.4148],[133.9458,-1.4215],[133.9339,-1.4218],[133.9307,-1.4191],[133.9333,-1.4092],[133.9398,-1.4044],[133.9411,-1.4015],[133.9361,-1.3955],[133.9379,-1.3925],[133.9368,-1.3876],[133.9378,-1.3854],[133.9475,-1.3822],[133.95,-1.3789],[133.9567,-1.3787],[133.9592,-1.3808]]]}},{"type":"Feature","properties":{"name":"Ingisrow","name_en":"Ingisrow","admin_level":"7","osm_id":""},"geometry":{"type":"Polygon","coordinates":[[[133.9613,-1.3846],[133.9592,-1.3819],[133.9619,-1.3746],[133.9591,-1.3642],[133.9391,-1.3398],[133.9391,-1.3337],[133.9421,-1.324],[133.9473,-1.3301],[133.9567,-1.3317],[133.9623,-1.3347],[133.9692,-1.3429],[133.9869,-1.3537],[133.9919,-1.3585],[133.9818,-1.3611],[133.9732,-1.3667],[133.9642,-1.3769],[133.9613,-1.3846]]]}},{"type":"Feature","properties":{"name":"Itkau","name_en":"Itkau","admin_level":"7","osm_id":""},"geometry":{"type":"Polygon","coordinates":[[[133.9378,-1.3854],[133.9368,-1.3876],[133.9379,-1.3925],[133.9361,-1.3955],[133.9401,-1.399],[133.9409,-1.4029],[133.9335,-1.4089],[133.9309,-1.4161],[133.9311,-1.4198],[133.9283,-1.4183],[133.9261,-1.4141],[133.9272,-1.4036],[133.9259,-1.3966],[133.9174,-1.3763],[133.9218,-1.3766],[133.9378,-1.3854]]]}},{"type":"Feature","properties":{"name":"Krobut/Kiwot","name_en":"Krobut/Kiwot","admin_level":"7","osm_id":""},"geometry":{"type":"Polygon","coordinates":[[[134.0382,-1.4402],[134.004,-1.4284],[133.9896,-1.422],[134.0128,-1.4061],[134.0354,-1.4203],[134.0341,-1.4221],[134.0467,-1.4316],[134.0403,-1.4411],[134.0382,-1.4402]]]}},{"type":"Feature","properties":{"name":"Sakuni/sakurai","name_en":"Sakuni/sakurai","admin_level":"7","osm_id":""},"geometry":{"type":"Polygon","coordinates":[[[134.0467,-1.4316],[134.0341,-1.4221],[134.0354,-1.4203],[134.0128,-1.4061],[134.0288,-1.3835],[134.0608,-1.4115],[134.0467,-1.4316]]]}},{"type":"Feature","properties":{"name":"Seseran/Sisrang","name_en":"Seseran/Sisrang","admin_level":"7","osm_id":""},"geometry":{"type":"Polygon","coordinates":[[[133.9993,-1.3796],[133.9948,-1.3774],[133.9793,-1.3779],[133.9738,-1.3827],[133.9613,-1.3846],[133.9642,-1.3769],[133.9732,-1.3667],[133.9818,-1.3611],[133.9919,-1.3585],[133.9983,-1.3638],[134.0236,-1.3753],[134.0288,-1.3835],[134.0128,-1.4061],[133.9896,-1.422],[133.9774,-1.4146],[133.9804,-1.4144],[133.9809,-1.4126],[133.9793,-1.4056],[133.9847,-1.4005],[133.9884,-1.3918],[133.9981,-1.3868],[134.0036,-1.3863],[134.0032,-1.3812],[133.9993,-1.3796]]]}},{"type":"Feature","properties":{"name":"Sibiogud","name_en":"Sibiogud","admin_level":"7","osm_id":""},"geometry":{"type":"Polygon","coordinates":[[[133.9563,-1.3787],[133.9498,-1.3791],[133.945,-1.3684],[133.9334,-1.3562],[133.9361,-1.3481],[133.9445,-1.3533],[133.9551,-1.363],[133.959,-1.3692],[133.9592,-1.3723],[133.9563,-1.3787]]]}},{"type":"Feature","properties":{"name":"Tombrok","name_en":"Tombrok","admin_level":"7","osm_id":""},"geometry":{"type":"Polygon","coordinates":[[[133.9592,-1.3808],[133.9563,-1.3787],[133.9592,-1.3723],[133.959,-1.3692],[133.9551,-1.363],[133.9445,-1.3533],[133.9361,-1.3481],[133.9385,-1.3372],[133.946,-1.349],[133.9591,-1.3642],[133.9619,-1.3746],[133.9592,-1.3808]]]}},{"type":"Feature","properties":{"name":"Tuabyam","name_en":"Tuabyam","admin_level":"7","osm_id":""},"geometry":{"type":"Polygon","coordinates":[[[133.9498,-1.3791],[133.9475,-1.3822],[133.9378,-1.3854],[133.9218,-1.3766],[133.9174,-1.3763],[133.9146,-1.3718],[133.9172,-1.3687],[133.9309,-1.3606],[133.9334,-1.3562],[133.945,-1.3684],[133.9498,-1.3791]]]}}]}