{"type":"FeatureCollection","metadata":{"parent_osm_id":"gid_IDN_22_1_7_1","parent_name":"Kokas","parent_name_1":"PapuaBarat","parent_gid":"IDN.22.1.7_1","parent_level":"6","child_level":"7","count":23,"source":"GADM 4.1","generated":"2026-05-08"},"features":[{"type":"Feature","properties":{"name":"Andamata","name_en":"Andamata","admin_level":"7","osm_id":""},"geometry":{"type":"Polygon","coordinates":[[[132.4578,-2.7277],[132.456,-2.7256],[132.4591,-2.7246],[132.4582,-2.7227],[132.4633,-2.7202],[132.4667,-2.7129],[132.4692,-2.7116],[132.4757,-2.7128],[132.4774,-2.715],[132.4795,-2.7144],[132.4796,-2.7117],[132.4858,-2.7121],[132.485,-2.7149],[132.4875,-2.7167],[132.4895,-2.7152],[132.4875,-2.7123],[132.494,-2.713],[132.4965,-2.7111],[132.492,-2.7069],[132.4805,-2.7017],[132.4713,-2.6935],[132.4775,-2.6904],[132.4791,-2.6951],[132.482,-2.6953],[132.4817,-2.686],[132.4884,-2.6834],[132.493,-2.685],[132.4957,-2.6837],[132.5009,-2.7204],[132.4837,-2.7254],[132.4578,-2.7277]]]}},{"type":"Feature","properties":{"name":"Arguni","name_en":"Arguni","admin_level":"7","osm_id":""},"geometry":{"type":"Polygon","coordinates":[[[132.5456,-2.6537],[132.5483,-2.6435],[132.5588,-2.6425],[132.5657,-2.644],[132.5685,-2.6479],[132.5738,-2.6486],[132.5754,-2.6504],[132.5712,-2.652],[132.5652,-2.6518],[132.5653,-2.6563],[132.5572,-2.6555],[132.5583,-2.6513],[132.5521,-2.6512],[132.5511,-2.6534],[132.5522,-2.6551],[132.5498,-2.658],[132.548,-2.6533],[132.5456,-2.6537]]]}},{"type":"Feature","properties":{"name":"ArguniBarat","name_en":"ArguniBarat","admin_level":"7","osm_id":""},"geometry":{"type":"Polygon","coordinates":[[[132.5483,-2.6435],[132.5456,-2.6537],[132.545,-2.6538],[132.5442,-2.6519],[132.5396,-2.6498],[132.5455,-2.6437],[132.5483,-2.6435]]]}},{"type":"Feature","properties":{"name":"Batufiafas","name_en":"Batufiafas","admin_level":"7","osm_id":""},"geometry":{"type":"Polygon","coordinates":[[[132.4503,-2.719],[132.4474,-2.7274],[132.4417,-2.7303],[132.4386,-2.7145],[132.4442,-2.7137],[132.4503,-2.719]]]}},{"type":"Feature","properties":{"name":"Darembang","name_en":"Darembang","admin_level":"7","osm_id":""},"geometry":{"type":"Polygon","coordinates":[[[132.6399,-2.9146],[132.6297,-2.9065],[132.6415,-2.736],[132.6442,-2.7354],[132.6481,-2.7408],[132.653,-2.7423],[132.6399,-2.9146]]]}},{"type":"Feature","properties":{"name":"Fior","name_en":"Fior","admin_level":"7","osm_id":""},"geometry":{"type":"Polygon","coordinates":[[[132.5942,-2.8851],[132.5653,-2.8644],[132.5527,-2.8523],[132.5363,-2.845],[132.5421,-2.8008],[132.5405,-2.7221],[132.5417,-2.7222],[132.5381,-2.6879],[132.5482,-2.6944],[132.5543,-2.693],[132.5555,-2.6911],[132.5643,-2.6897],[132.5713,-2.6904],[132.5724,-2.6924],[132.5831,-2.6956],[132.5842,-2.6973],[132.5889,-2.6954],[132.5926,-2.697],[132.5921,-2.6993],[132.5945,-2.6997],[132.5991,-2.7087],[132.6034,-2.7097],[132.5942,-2.8851]]]}},{"type":"Feature","properties":{"name":"Furir","name_en":"Furir","admin_level":"7","osm_id":""},"geometry":{"type":"Polygon","coordinates":[[[132.5993,-2.8887],[132.5942,-2.8851],[132.6034,-2.7097],[132.6052,-2.709],[132.6096,-2.7113],[132.6092,-2.7137],[132.6137,-2.7147],[132.6154,-2.7124],[132.618,-2.7122],[132.6235,-2.7199],[132.6232,-2.7229],[132.6266,-2.7258],[132.6336,-2.726],[132.6418,-2.7284],[132.6418,-2.7308],[132.6436,-2.7321],[132.6395,-2.7345],[132.6415,-2.736],[132.6297,-2.9065],[132.5993,-2.8887]]]}},{"type":"Feature","properties":{"name":"Goras","name_en":"Goras","admin_level":"7","osm_id":""},"geometry":{"type":"Polygon","coordinates":[[[132.6475,-2.8142],[132.653,-2.7423],[132.6544,-2.7464],[132.6574,-2.7468],[132.6568,-2.749],[132.6634,-2.754],[132.6627,-2.7586],[132.6697,-2.7631],[132.6671,-2.7673],[132.6679,-2.7705],[132.6702,-2.7712],[132.672,-2.7694],[132.6741,-2.7707],[132.6745,-2.7731],[132.6769,-2.7726],[132.6741,-2.8193],[132.6475,-2.8142]]]}},{"type":"Feature","properties":{"name":"KampungBaru","name_en":"KampungBaru","admin_level":"7","osm_id":""},"geometry":{"type":"Polygon","coordinates":[[[132.3869,-2.6848],[132.3951,-2.6896],[132.4074,-2.6867],[132.4111,-2.6826],[132.4129,-2.6846],[132.4151,-2.6835],[132.4193,-2.6851],[132.4218,-2.6802],[132.4263,-2.6779],[132.4355,-2.6806],[132.4402,-2.6796],[132.4397,-2.6835],[132.4414,-2.6876],[132.4406,-2.6902],[132.4385,-2.6913],[132.4292,-2.6907],[132.4261,-2.6959],[132.4203,-2.6978],[132.4206,-2.7003],[132.3851,-2.7031],[132.3869,-2.6848]]]}},{"type":"Feature","properties":{"name":"Kinam","name_en":"Kinam","admin_level":"7","osm_id":""},"geometry":{"type":"Polygon","coordinates":[[[132.4503,-2.719],[132.4442,-2.7137],[132.4551,-2.7103],[132.4584,-2.7157],[132.4541,-2.7149],[132.4536,-2.7172],[132.4503,-2.719]]]}},{"type":"Feature","properties":{"name":"KokasKota","name_en":"KokasKota","admin_level":"7","osm_id":""},"geometry":{"type":"Polygon","coordinates":[[[132.4411,-2.7143],[132.4334,-2.7148],[132.4341,-2.7026],[132.4406,-2.7049],[132.4411,-2.7143]]]}},{"type":"Feature","properties":{"name":"Kriawaswas","name_en":"Kriawaswas","admin_level":"7","osm_id":""},"geometry":{"type":"Polygon","coordinates":[[[132.501,-2.8321],[132.4656,-2.8243],[132.4313,-2.8213],[132.4329,-2.8123],[132.4341,-2.7798],[132.4371,-2.7662],[132.4368,-2.7518],[132.4397,-2.7446],[132.4691,-2.7386],[132.5081,-2.7377],[132.5408,-2.7397],[132.5421,-2.8008],[132.5363,-2.845],[132.501,-2.8321]]]}},{"type":"Feature","properties":{"name":"Mambunibuni","name_en":"Mambunibuni","admin_level":"7","osm_id":""},"geometry":{"type":"Polygon","coordinates":[[[132.7232,-2.9767],[132.6899,-2.9567],[132.6399,-2.9146],[132.6475,-2.8142],[132.6741,-2.8193],[132.6769,-2.7726],[132.6826,-2.7789],[132.6873,-2.7776],[132.6891,-2.779],[132.6888,-2.7814],[132.6967,-2.7918],[132.7003,-2.7859],[132.7053,-2.7843],[132.7046,-2.7903],[132.7083,-2.795],[132.7169,-2.8001],[132.7269,-2.8027],[132.7307,-2.8069],[132.7348,-2.8077],[132.7232,-2.9767]]]}},{"type":"Feature","properties":{"name":"Mandoni","name_en":"Mandoni","admin_level":"7","osm_id":""},"geometry":{"type":"Polygon","coordinates":[[[132.4578,-2.7277],[132.4837,-2.7254],[132.5008,-2.72],[132.5405,-2.7221],[132.5408,-2.7397],[132.5081,-2.7377],[132.4691,-2.7386],[132.4397,-2.7446],[132.4411,-2.7398],[132.4556,-2.7333],[132.4578,-2.7277]]]}},{"type":"Feature","properties":{"name":"Mbahamdandara","name_en":"Mbahamdandara","admin_level":"7","osm_id":""},"geometry":{"type":"Polygon","coordinates":[[[132.8099,-3.0257],[132.7832,-3.0099],[132.7896,-2.9377],[132.7877,-2.9107],[132.8096,-2.9119],[132.8099,-3.0257]]]}},{"type":"Feature","properties":{"name":"Metimber","name_en":"Metimber","admin_level":"7","osm_id":""},"geometry":{"type":"Polygon","coordinates":[[[132.9028,-2.7153],[132.9067,-2.8943],[132.909,-2.9177],[132.8096,-2.9119],[132.8106,-2.8743],[132.8182,-2.7583],[132.8281,-2.7518],[132.902,-2.6814],[132.9028,-2.7153]]]}},{"type":"Feature","properties":{"name":"Patimburak","name_en":"Patimburak","admin_level":"7","osm_id":""},"geometry":{"type":"Polygon","coordinates":[[[132.4386,-2.7145],[132.4417,-2.7303],[132.436,-2.7352],[132.4287,-2.7328],[132.4219,-2.738],[132.4198,-2.7359],[132.4165,-2.7357],[132.3904,-2.7418],[132.3811,-2.7177],[132.4386,-2.7145]]]}},{"type":"Feature","properties":{"name":"Sekar","name_en":"Sekar","admin_level":"7","osm_id":""},"geometry":{"type":"Polygon","coordinates":[[[132.4442,-2.7137],[132.4411,-2.7143],[132.4406,-2.7049],[132.4454,-2.7038],[132.4445,-2.7087],[132.4505,-2.7075],[132.4551,-2.7103],[132.4442,-2.7137]]]}},{"type":"Feature","properties":{"name":"Sisir","name_en":"Sisir","admin_level":"7","osm_id":""},"geometry":{"type":"Polygon","coordinates":[[[132.3851,-2.7031],[132.4206,-2.7003],[132.4298,-2.7044],[132.4333,-2.7032],[132.4334,-2.7148],[132.3811,-2.7177],[132.3814,-2.7099],[132.3851,-2.7031]]]}},{"type":"Feature","properties":{"name":"Ugar","name_en":"Ugar","admin_level":"7","osm_id":""},"geometry":{"type":"Polygon","coordinates":[[[132.4888,-2.6344],[132.4906,-2.6334],[132.4922,-2.6349],[132.4956,-2.6347],[132.5001,-2.6319],[132.5019,-2.6327],[132.5037,-2.6367],[132.5083,-2.6375],[132.5102,-2.6394],[132.5115,-2.6502],[132.5087,-2.6544],[132.5064,-2.6566],[132.5012,-2.657],[132.501,-2.6591],[132.4991,-2.66],[132.4921,-2.6595],[132.4814,-2.6623],[132.4783,-2.6668],[132.4737,-2.6695],[132.4638,-2.6685],[132.4576,-2.6588],[132.4536,-2.6462],[132.4557,-2.6451],[132.4578,-2.6465],[132.4644,-2.646],[132.4624,-2.6509],[132.4682,-2.6548],[132.4694,-2.6524],[132.468,-2.6485],[132.4694,-2.6469],[132.4659,-2.6446],[132.4638,-2.6395],[132.4616,-2.639],[132.4602,-2.6409],[132.4585,-2.6397],[132.4585,-2.6352],[132.4641,-2.6318],[132.4688,-2.636],[132.4701,-2.6343],[132.4674,-2.631],[132.4673,-2.6269],[132.472,-2.6259],[132.4755,-2.6321],[132.4874,-2.6328],[132.4888,-2.6344]]]}},{"type":"Feature","properties":{"name":"Wafus","name_en":"Wafus","admin_level":"7","osm_id":""},"geometry":{"type":"Polygon","coordinates":[[[132.7784,-3.007],[132.7232,-2.9767],[132.728,-2.9072],[132.7877,-2.9107],[132.7896,-2.9377],[132.7832,-3.0099],[132.7784,-3.007]]]}},{"type":"Feature","properties":{"name":"Waremu","name_en":"Waremu","admin_level":"7","osm_id":""},"geometry":{"type":"Polygon","coordinates":[[[132.9121,-2.9501],[132.9128,-2.9572],[132.9379,-2.9975],[132.9381,-3.0343],[132.9349,-3.0653],[132.9303,-3.0897],[132.9034,-3.0754],[132.8834,-3.0659],[132.8634,-3.0588],[132.8365,-3.0445],[132.8099,-3.0257],[132.8096,-2.9119],[132.909,-2.9177],[132.9121,-2.9501]]]}},{"type":"Feature","properties":{"name":"Wos","name_en":"Wos","admin_level":"7","osm_id":""},"geometry":{"type":"Polygon","coordinates":[[[132.728,-2.9072],[132.7348,-2.8077],[132.7482,-2.8049],[132.7723,-2.7836],[132.7748,-2.7832],[132.7787,-2.7867],[132.7847,-2.785],[132.7922,-2.7861],[132.7946,-2.7837],[132.7915,-2.7794],[132.792,-2.7769],[132.7964,-2.7741],[132.8063,-2.7723],[132.8101,-2.7682],[132.8101,-2.7642],[132.8182,-2.7583],[132.8106,-2.8743],[132.8096,-2.9119],[132.728,-2.9072]]]}}]}