{"type":"FeatureCollection","metadata":{"parent_osm_id":"gid_IDN_31_8_9_1","parent_name":"PemulutanSelatan","parent_name_1":"SumateraSelatan","parent_gid":"IDN.31.8.9_1","parent_level":"6","child_level":"7","count":15,"source":"GADM 4.1","generated":"2026-05-09"},"features":[{"type":"Feature","properties":{"name":"CahayaMarga","name_en":"CahayaMarga","admin_level":"7","osm_id":""},"geometry":{"type":"Polygon","coordinates":[[[104.7444,-3.2336],[104.7459,-3.2293],[104.7452,-3.225],[104.7416,-3.2222],[104.7435,-3.2189],[104.7485,-3.2199],[104.7542,-3.2164],[104.7582,-3.2166],[104.7567,-3.2333],[104.7444,-3.2336]]]}},{"type":"Feature","properties":{"name":"HarimauTandang","name_en":"HarimauTandang","admin_level":"7","osm_id":""},"geometry":{"type":"Polygon","coordinates":[[[104.8071,-3.2416],[104.7765,-3.2417],[104.778,-3.2301],[104.7816,-3.2284],[104.7826,-3.2218],[104.7909,-3.2238],[104.7944,-3.2276],[104.8043,-3.2259],[104.8073,-3.2291],[104.8049,-3.2311],[104.8071,-3.2416]]]}},{"type":"Feature","properties":{"name":"Kapuk","name_en":"Kapuk","admin_level":"7","osm_id":""},"geometry":{"type":"Polygon","coordinates":[[[104.7542,-3.2164],[104.7604,-3.19],[104.7756,-3.1937],[104.7778,-3.1966],[104.7746,-3.2002],[104.7765,-3.2028],[104.7772,-3.2102],[104.7738,-3.2144],[104.7715,-3.2163],[104.7587,-3.2186],[104.7582,-3.2166],[104.7542,-3.2164]]]}},{"type":"Feature","properties":{"name":"LebakPering","name_en":"LebakPering","admin_level":"7","osm_id":""},"geometry":{"type":"Polygon","coordinates":[[[104.8043,-3.2259],[104.8038,-3.2174],[104.8022,-3.2165],[104.8,-3.2083],[104.8021,-3.2031],[104.8074,-3.1999],[104.8131,-3.2069],[104.8161,-3.2171],[104.8124,-3.2254],[104.8043,-3.2259]]]}},{"type":"Feature","properties":{"name":"MajuJaya","name_en":"MajuJaya","admin_level":"7","osm_id":""},"geometry":{"type":"Polygon","coordinates":[[[104.7765,-3.2417],[104.808,-3.2416],[104.8075,-3.2554],[104.7914,-3.2551],[104.7897,-3.2502],[104.7758,-3.2501],[104.7765,-3.2417]]]}},{"type":"Feature","properties":{"name":"Mayapati","name_en":"Mayapati","admin_level":"7","osm_id":""},"geometry":{"type":"Polygon","coordinates":[[[104.7909,-3.2238],[104.7783,-3.2209],[104.7671,-3.2206],[104.7652,-3.2167],[104.7715,-3.2163],[104.7743,-3.2134],[104.7812,-3.2108],[104.7874,-3.2106],[104.7903,-3.2174],[104.7941,-3.2218],[104.7909,-3.2238]]]}},{"type":"Feature","properties":{"name":"NaikanTembakang","name_en":"NaikanTembakang","admin_level":"7","osm_id":""},"geometry":{"type":"Polygon","coordinates":[[[104.755,-3.2453],[104.7623,-3.2456],[104.7608,-3.2501],[104.7642,-3.2629],[104.7565,-3.2632],[104.7569,-3.2498],[104.7537,-3.2504],[104.755,-3.2453]]]}},{"type":"Feature","properties":{"name":"PematangBangsal","name_en":"PematangBangsal","admin_level":"7","osm_id":""},"geometry":{"type":"Polygon","coordinates":[[[104.8043,-3.2259],[104.7927,-3.2268],[104.7909,-3.2238],[104.7941,-3.2218],[104.79,-3.2169],[104.8034,-3.2169],[104.8043,-3.2259]]]}},{"type":"Feature","properties":{"name":"PematangBungur","name_en":"PematangBungur","admin_level":"7","osm_id":""},"geometry":{"type":"Polygon","coordinates":[[[104.7909,-3.1788],[104.7859,-3.1821],[104.787,-3.1861],[104.7858,-3.1883],[104.7838,-3.1883],[104.7823,-3.1861],[104.7783,-3.1868],[104.7776,-3.184],[104.7733,-3.1841],[104.7695,-3.1819],[104.7697,-3.1778],[104.7772,-3.1766],[104.7831,-3.1761],[104.7909,-3.1788]]]}},{"type":"Feature","properties":{"name":"Segayam","name_en":"Segayam","admin_level":"7","osm_id":""},"geometry":{"type":"Polygon","coordinates":[[[104.7743,-3.2134],[104.7772,-3.2102],[104.7765,-3.2028],[104.7746,-3.2002],[104.7778,-3.1966],[104.7745,-3.193],[104.7783,-3.1868],[104.7823,-3.1861],[104.7838,-3.1883],[104.7858,-3.1883],[104.787,-3.1861],[104.7859,-3.1821],[104.791,-3.1786],[104.8004,-3.1836],[104.7991,-3.1877],[104.8036,-3.1917],[104.8074,-3.1999],[104.8021,-3.2031],[104.8004,-3.2062],[104.8022,-3.2165],[104.79,-3.2169],[104.787,-3.2106],[104.7825,-3.2105],[104.7743,-3.2134]]]}},{"type":"Feature","properties":{"name":"SungaiKeli","name_en":"SungaiKeli","admin_level":"7","osm_id":""},"geometry":{"type":"Polygon","coordinates":[[[104.7758,-3.2501],[104.7897,-3.2502],[104.7914,-3.2551],[104.8075,-3.2554],[104.8078,-3.2669],[104.7988,-3.2715],[104.7871,-3.2658],[104.7751,-3.2659],[104.7758,-3.2501]]]}},{"type":"Feature","properties":{"name":"SungaiLebung","name_en":"SungaiLebung","admin_level":"7","osm_id":""},"geometry":{"type":"Polygon","coordinates":[[[104.7574,-3.2267],[104.7581,-3.2186],[104.7644,-3.2168],[104.7671,-3.2206],[104.7826,-3.2218],[104.7816,-3.2284],[104.778,-3.2301],[104.7763,-3.2431],[104.7716,-3.2402],[104.7727,-3.2361],[104.7713,-3.2332],[104.7681,-3.2321],[104.7656,-3.2288],[104.7574,-3.2267]]]}},{"type":"Feature","properties":{"name":"SungaiLebungUlu","name_en":"SungaiLebungUlu","admin_level":"7","osm_id":""},"geometry":{"type":"Polygon","coordinates":[[[104.7567,-3.2333],[104.7574,-3.2267],[104.7656,-3.2288],[104.772,-3.2342],[104.7716,-3.2402],[104.7763,-3.2431],[104.7754,-3.2459],[104.755,-3.2453],[104.7567,-3.2333]]]}},{"type":"Feature","properties":{"name":"SungaiOndok","name_en":"SungaiOndok","admin_level":"7","osm_id":""},"geometry":{"type":"Polygon","coordinates":[[[104.7754,-3.2459],[104.7757,-3.2628],[104.7642,-3.2629],[104.7608,-3.2501],[104.7623,-3.2456],[104.7754,-3.2459]]]}},{"type":"Feature","properties":{"name":"UlakAurStanding","name_en":"UlakAurStanding","admin_level":"7","osm_id":""},"geometry":{"type":"Polygon","coordinates":[[[104.7604,-3.19],[104.7617,-3.1847],[104.761,-3.1791],[104.7782,-3.1848],[104.7781,-3.1877],[104.7745,-3.193],[104.7604,-3.19]]]}}]}