{"type":"FeatureCollection","metadata":{"parent_osm_id":"gid_IDN_28_10_24_1","parent_name":"WawoniiTengah","parent_name_1":"SulawesiTenggara","parent_gid":"IDN.28.10.24_1","parent_level":"6","child_level":"7","count":10,"source":"GADM 4.1","generated":"2026-05-08"},"features":[{"type":"Feature","properties":{"name":"Batumea","name_en":"Batumea","admin_level":"7","osm_id":""},"geometry":{"type":"Polygon","coordinates":[[[122.9666,-4.055],[122.9917,-4.0859],[122.9916,-4.0863],[122.9879,-4.0886],[122.9442,-4.0775],[122.9394,-4.0761],[122.9393,-4.0737],[122.9353,-4.0704],[122.9353,-4.0658],[122.9394,-4.0658],[122.944,-4.0635],[122.9463,-4.0588],[122.9417,-4.0507],[122.948,-4.0507],[122.9584,-4.0548],[122.9666,-4.055]]]}},{"type":"Feature","properties":{"name":"Lamongupa","name_en":"Lamongupa","admin_level":"7","osm_id":""},"geometry":{"type":"Polygon","coordinates":[[[122.9602,-4.144],[122.9554,-4.1399],[122.9532,-4.1316],[122.9612,-4.1245],[122.9675,-4.133],[122.9602,-4.144]]]}},{"type":"Feature","properties":{"name":"Lampeapi","name_en":"Lampeapi","admin_level":"7","osm_id":""},"geometry":{"type":"Polygon","coordinates":[[[123.0787,-4.106],[123.0167,-4.1273],[122.9798,-4.1442],[122.9777,-4.1444],[122.969,-4.1378],[122.9683,-4.1322],[122.9779,-4.125],[122.988,-4.1194],[123.005,-4.1131],[123.0617,-4.1023],[123.0653,-4.1004],[123.0787,-4.106]]]}},{"type":"Feature","properties":{"name":"LampeapiBaru","name_en":"LampeapiBaru","admin_level":"7","osm_id":""},"geometry":{"type":"Polygon","coordinates":[[[122.9675,-4.133],[122.9612,-4.1245],[122.9681,-4.1184],[122.9691,-4.1313],[122.9675,-4.133]]]}},{"type":"Feature","properties":{"name":"MekarSari","name_en":"MekarSari","admin_level":"7","osm_id":""},"geometry":{"type":"Polygon","coordinates":[[[122.9612,-4.1245],[122.9532,-4.1316],[122.9525,-4.1276],[122.9467,-4.1219],[122.9442,-4.1154],[122.9558,-4.1085],[122.9635,-4.1222],[122.9612,-4.1245]]]}},{"type":"Feature","properties":{"name":"Morobea","name_en":"Morobea","admin_level":"7","osm_id":""},"geometry":{"type":"Polygon","coordinates":[[[122.9394,-4.0761],[122.9442,-4.0775],[122.9879,-4.0886],[122.9838,-4.094],[122.938,-4.0909],[122.9446,-4.0866],[122.9446,-4.082],[122.9394,-4.0785],[122.9394,-4.0761]]]}},{"type":"Feature","properties":{"name":"Pesue","name_en":"Pesue","admin_level":"7","osm_id":""},"geometry":{"type":"Polygon","coordinates":[[[122.9917,-4.0859],[123.0647,-4.0987],[123.0653,-4.1004],[123.0617,-4.1023],[123.005,-4.1131],[122.988,-4.1194],[122.9691,-4.1313],[122.9681,-4.1184],[122.9838,-4.094],[122.9917,-4.0859]]]}},{"type":"Feature","properties":{"name":"RawaIndah","name_en":"RawaIndah","admin_level":"7","osm_id":""},"geometry":{"type":"Polygon","coordinates":[[[122.9777,-4.1444],[122.9723,-4.1413],[122.9636,-4.1489],[122.9602,-4.144],[122.9683,-4.1322],[122.969,-4.1378],[122.9777,-4.1444]]]}},{"type":"Feature","properties":{"name":"Upt.Batumea/tumbu-tumbu","name_en":"Upt.Batumea/tumbu-tumbu","admin_level":"7","osm_id":""},"geometry":{"type":"Polygon","coordinates":[[[122.9544,-4.1082],[122.9442,-4.1154],[122.9365,-4.0919],[122.9441,-4.0908],[122.9745,-4.0932],[122.9544,-4.1082]]]}},{"type":"Feature","properties":{"name":"Wawoindah","name_en":"Wawoindah","admin_level":"7","osm_id":""},"geometry":{"type":"Polygon","coordinates":[[[122.9681,-4.1184],[122.9635,-4.1222],[122.9607,-4.116],[122.9544,-4.1082],[122.9745,-4.0932],[122.9838,-4.094],[122.9681,-4.1184]]]}}]}