{"type":"FeatureCollection","metadata":{"parent_osm_id":"gid_IDN_32_4_10_1","parent_name":"LabuhanDeli","parent_name_1":"SumateraUtara","parent_gid":"IDN.32.4.10_1","parent_level":"6","child_level":"7","count":5,"source":"GADM 4.1","generated":"2026-05-08"},"features":[{"type":"Feature","properties":{"name":"Helvetia","name_en":"Helvetia","admin_level":"7","osm_id":""},"geometry":{"type":"Polygon","coordinates":[[[98.6097,3.6592],[98.615,3.6756],[98.6578,3.675],[98.6575,3.6703],[98.656,3.6692],[98.6576,3.6441],[98.6264,3.6442],[98.6205,3.6517],[98.6097,3.6592]]]}},{"type":"Feature","properties":{"name":"KarangGading","name_en":"KarangGading","admin_level":"7","osm_id":""},"geometry":{"type":"Polygon","coordinates":[[[98.6839,3.8936],[98.6775,3.8924],[98.6412,3.8726],[98.627,3.8775],[98.6225,3.8769],[98.6127,3.8718],[98.6165,3.8802],[98.6199,3.8839],[98.6236,3.8827],[98.6355,3.8842],[98.6411,3.8954],[98.6457,3.8967],[98.6508,3.905],[98.6573,3.9051],[98.6608,3.9078],[98.661,3.9046],[98.665,3.9042],[98.6684,3.9094],[98.6702,3.9094],[98.6804,3.9009],[98.6839,3.8936]]]}},{"type":"Feature","properties":{"name":"Manunggal","name_en":"Manunggal","admin_level":"7","osm_id":""},"geometry":{"type":"Polygon","coordinates":[[[98.615,3.6756],[98.6136,3.7015],[98.6318,3.6996],[98.6339,3.6907],[98.6333,3.6837],[98.6486,3.6834],[98.6516,3.6746],[98.615,3.6756]]]}},{"type":"Feature","properties":{"name":"PematangJohar","name_en":"PematangJohar","admin_level":"7","osm_id":""},"geometry":{"type":"Polygon","coordinates":[[[98.707,3.7726],[98.716,3.7677],[98.7189,3.7717],[98.7253,3.7732],[98.7309,3.7694],[98.744,3.7684],[98.7485,3.7664],[98.7509,3.7643],[98.7475,3.7563],[98.7448,3.7419],[98.7412,3.7401],[98.7375,3.7423],[98.7021,3.7508],[98.704,3.7664],[98.707,3.7726]]]}},{"type":"Feature","properties":{"name":"TelagaTujuh","name_en":"TelagaTujuh","admin_level":"7","osm_id":""},"geometry":{"type":"Polygon","coordinates":[[[98.6412,3.8726],[98.6365,3.8706],[98.616,3.8507],[98.6014,3.8415],[98.5986,3.8481],[98.606,3.8537],[98.6064,3.8558],[98.6006,3.864],[98.6013,3.8683],[98.604,3.8691],[98.6075,3.8656],[98.6164,3.8742],[98.627,3.8775],[98.6412,3.8726]]]}}]}