{"type":"FeatureCollection","metadata":{"parent_osm_id":"gid_IDN_10_2_23_1","parent_name":"Somagede","parent_name_1":"JawaTengah","parent_gid":"IDN.10.2.23_1","parent_level":"6","child_level":"7","count":9,"source":"GADM 4.1","generated":"2026-05-09"},"features":[{"type":"Feature","properties":{"name":"Kanding","name_en":"Kanding","admin_level":"7","osm_id":""},"geometry":{"type":"Polygon","coordinates":[[[109.3355,-7.5132],[109.3415,-7.5119],[109.3417,-7.5089],[109.3499,-7.5091],[109.3533,-7.5147],[109.3562,-7.5152],[109.3563,-7.5267],[109.3491,-7.5314],[109.3433,-7.5278],[109.3394,-7.5223],[109.3407,-7.519],[109.3386,-7.5162],[109.3361,-7.5171],[109.3369,-7.5159],[109.3355,-7.5132]]]}},{"type":"Feature","properties":{"name":"Kemawi","name_en":"Kemawi","admin_level":"7","osm_id":""},"geometry":{"type":"Polygon","coordinates":[[[109.3707,-7.5183],[109.3764,-7.523],[109.3819,-7.522],[109.3841,-7.5244],[109.3852,-7.5238],[109.3876,-7.5302],[109.3942,-7.5348],[109.3958,-7.5369],[109.3948,-7.5382],[109.3798,-7.539],[109.3781,-7.542],[109.3692,-7.545],[109.3606,-7.5511],[109.3607,-7.5535],[109.3582,-7.5538],[109.3566,-7.5482],[109.3538,-7.5504],[109.344,-7.5499],[109.3481,-7.5416],[109.3491,-7.5314],[109.3563,-7.5267],[109.3562,-7.5235],[109.3592,-7.5234],[109.3594,-7.5263],[109.3656,-7.5259],[109.3707,-7.5183]]]}},{"type":"Feature","properties":{"name":"Klinting","name_en":"Klinting","admin_level":"7","osm_id":""},"geometry":{"type":"Polygon","coordinates":[[[109.344,-7.5499],[109.3399,-7.558],[109.3373,-7.5581],[109.3372,-7.5546],[109.3402,-7.5506],[109.3374,-7.5489],[109.3313,-7.5495],[109.3304,-7.5307],[109.3346,-7.5301],[109.3351,-7.5327],[109.3375,-7.5342],[109.3391,-7.5286],[109.3434,-7.5278],[109.3491,-7.531],[109.3481,-7.5416],[109.344,-7.5499]]]}},{"type":"Feature","properties":{"name":"PiasaKulon","name_en":"PiasaKulon","admin_level":"7","osm_id":""},"geometry":{"type":"Polygon","coordinates":[[[109.3694,-7.5169],[109.3707,-7.5183],[109.3656,-7.5259],[109.3594,-7.5263],[109.3592,-7.5234],[109.3571,-7.5233],[109.3562,-7.5152],[109.3533,-7.5147],[109.35,-7.5097],[109.3542,-7.5095],[109.357,-7.5117],[109.3552,-7.5082],[109.3577,-7.5018],[109.3652,-7.5019],[109.3649,-7.5086],[109.3624,-7.5151],[109.3644,-7.5175],[109.3694,-7.5169]]]}},{"type":"Feature","properties":{"name":"Plana","name_en":"Plana","admin_level":"7","osm_id":""},"geometry":{"type":"Polygon","coordinates":[[[109.3616,-7.4853],[109.3617,-7.4888],[109.3639,-7.4901],[109.363,-7.4947],[109.3659,-7.497],[109.3653,-7.499],[109.3628,-7.4996],[109.3652,-7.5019],[109.364,-7.5021],[109.3532,-7.4999],[109.3528,-7.4952],[109.3512,-7.4937],[109.3424,-7.4952],[109.3414,-7.4892],[109.3383,-7.4869],[109.3423,-7.4841],[109.3416,-7.4804],[109.3457,-7.4781],[109.3469,-7.4842],[109.3512,-7.4811],[109.353,-7.4853],[109.3554,-7.4826],[109.3583,-7.4855],[109.3616,-7.4853]]]}},{"type":"Feature","properties":{"name":"Sokawera","name_en":"Sokawera","admin_level":"7","osm_id":""},"geometry":{"type":"Polygon","coordinates":[[[109.3094,-7.535],[109.3047,-7.5164],[109.3112,-7.5126],[109.317,-7.5126],[109.3193,-7.5167],[109.3139,-7.5228],[109.3139,-7.5247],[109.3192,-7.5264],[109.3208,-7.5313],[109.3311,-7.5316],[109.33,-7.5364],[109.3311,-7.5406],[109.3271,-7.54],[109.3264,-7.5411],[109.3218,-7.5381],[109.3094,-7.535]]]}},{"type":"Feature","properties":{"name":"Somagede","name_en":"Somagede","admin_level":"7","osm_id":""},"geometry":{"type":"Polygon","coordinates":[[[109.3181,-7.5255],[109.3211,-7.5203],[109.328,-7.5181],[109.3355,-7.5132],[109.3369,-7.5159],[109.3361,-7.5171],[109.3386,-7.5162],[109.3407,-7.519],[109.3394,-7.5223],[109.3433,-7.5278],[109.3391,-7.5286],[109.3375,-7.5342],[109.3351,-7.5327],[109.3346,-7.5301],[109.3299,-7.5318],[109.3208,-7.5313],[109.3181,-7.5255]]]}},{"type":"Feature","properties":{"name":"Somakaton","name_en":"Somakaton","admin_level":"7","osm_id":""},"geometry":{"type":"Polygon","coordinates":[[[109.3417,-7.5089],[109.335,-7.5067],[109.3337,-7.5033],[109.3337,-7.4988],[109.3382,-7.4925],[109.3383,-7.4869],[109.3414,-7.4892],[109.3424,-7.4952],[109.3512,-7.4937],[109.3528,-7.4952],[109.3532,-7.4999],[109.3578,-7.5006],[109.3566,-7.5071],[109.3552,-7.5082],[109.357,-7.5117],[109.3542,-7.5095],[109.3417,-7.5089]]]}},{"type":"Feature","properties":{"name":"Tanggeran","name_en":"Tanggeran","admin_level":"7","osm_id":""},"geometry":{"type":"Polygon","coordinates":[[[109.3073,-7.536],[109.3094,-7.535],[109.3218,-7.5381],[109.3264,-7.5411],[109.3271,-7.54],[109.3311,-7.5406],[109.3316,-7.5482],[109.3301,-7.5547],[109.3164,-7.5574],[109.3072,-7.553],[109.3024,-7.5447],[109.3073,-7.5436],[109.3086,-7.5407],[109.3065,-7.5384],[109.3073,-7.536]]]}}]}