{"type":"FeatureCollection","metadata":{"parent_osm_id":"gid_IDN_23_28_3_1","parent_name":"Bomela","parent_name_1":"Papua","parent_gid":"IDN.23.28.3_1","parent_level":"6","child_level":"7","count":6,"source":"GADM 4.1","generated":"2026-05-08"},"features":[{"type":"Feature","properties":{"name":"Bomela","name_en":"Bomela","admin_level":"7","osm_id":""},"geometry":{"type":"Polygon","coordinates":[[[139.8555,-4.7758],[139.8559,-4.7708],[139.8531,-4.7632],[139.854,-4.7552],[139.8629,-4.744],[139.8625,-4.7369],[139.869,-4.7195],[139.8817,-4.7162],[139.893,-4.7157],[139.9053,-4.6998],[139.9118,-4.6946],[139.925,-4.6927],[139.9401,-4.6861],[139.9487,-4.6856],[139.949,-4.7096],[139.9678,-4.7346],[139.9725,-4.7425],[139.9717,-4.7481],[139.9608,-4.7462],[139.9451,-4.7459],[139.9427,-4.7476],[139.9425,-4.7551],[139.9403,-4.7596],[139.9338,-4.763],[139.9323,-4.7669],[139.9335,-4.7712],[139.9261,-4.7775],[139.9201,-4.7866],[139.9133,-4.7931],[139.8962,-4.7924],[139.8864,-4.7897],[139.8806,-4.7917],[139.8761,-4.796],[139.8555,-4.7758]]]}},{"type":"Feature","properties":{"name":"Kitikni","name_en":"Kitikni","admin_level":"7","osm_id":""},"geometry":{"type":"Polygon","coordinates":[[[139.9108,-4.6954],[139.9053,-4.6998],[139.893,-4.7157],[139.8817,-4.7162],[139.869,-4.7195],[139.8625,-4.7369],[139.8629,-4.744],[139.854,-4.7552],[139.8531,-4.7632],[139.8559,-4.7708],[139.8555,-4.7758],[139.8506,-4.7735],[139.8427,-4.7742],[139.8381,-4.7764],[139.837,-4.801],[139.8334,-4.8046],[139.8316,-4.81],[139.8316,-4.8189],[139.8295,-4.8239],[139.8302,-4.8339],[139.8266,-4.836],[139.8202,-4.8364],[139.8177,-4.8339],[139.8066,-4.83],[139.7958,-4.8357],[139.7945,-4.8375],[139.7956,-4.8419],[139.7935,-4.8462],[139.7892,-4.8483],[139.7871,-4.846],[139.783,-4.8471],[139.7812,-4.8503],[139.7725,-4.8453],[139.7567,-4.8416],[139.7524,-4.8462],[139.7503,-4.8558],[139.7476,-4.8563],[139.7467,-4.8608],[139.7355,-4.8615],[139.733,-4.8599],[139.7229,-4.8597],[139.7168,-4.8636],[139.7125,-4.8364],[139.7182,-4.8241],[139.7191,-4.7854],[139.7295,-4.7788],[139.7389,-4.7647],[139.7503,-4.7533],[139.7587,-4.7392],[139.7616,-4.7099],[139.771,-4.6996],[139.7776,-4.6948],[139.7767,-4.6816],[139.7842,-4.6675],[139.8069,-4.6637],[139.8191,-4.6552],[139.8326,-4.638],[139.8474,-4.6561],[139.872,-4.6749],[139.8829,-4.6788],[139.8918,-4.6788],[139.9108,-4.6954]]]}},{"type":"Feature","properties":{"name":"Kubialat","name_en":"Kubialat","admin_level":"7","osm_id":""},"geometry":{"type":"Polygon","coordinates":[[[140.0713,-4.5946],[140.0954,-4.6198],[140.0661,-4.6537],[140.052,-4.68],[140.0327,-4.7021],[140.0228,-4.704],[140.0172,-4.7073],[139.9975,-4.7104],[139.9937,-4.7134],[139.9933,-4.718],[139.9875,-4.7228],[139.9858,-4.7271],[139.9877,-4.7353],[139.9805,-4.7437],[139.9717,-4.7481],[139.9725,-4.7425],[139.9678,-4.7346],[139.949,-4.7096],[139.949,-4.6814],[139.9452,-4.665],[139.9382,-4.6555],[139.9255,-4.6447],[139.9024,-4.6128],[139.8989,-4.5872],[139.9934,-4.5175],[140.0194,-4.5416],[140.0713,-4.5946]]]}},{"type":"Feature","properties":{"name":"Palamdua","name_en":"Palamdua","admin_level":"7","osm_id":""},"geometry":{"type":"Polygon","coordinates":[[[139.6444,-5.0411],[139.5904,-5.0269],[139.6076,-4.9937],[139.6539,-4.9458],[139.6741,-4.9341],[139.6909,-4.9039],[139.7127,-4.8904],[139.7177,-4.8686],[139.7168,-4.8636],[139.7206,-4.8604],[139.7467,-4.8608],[139.7476,-4.8563],[139.7503,-4.8558],[139.7524,-4.8462],[139.7567,-4.8416],[139.7725,-4.8453],[139.7812,-4.8503],[139.783,-4.8471],[139.7871,-4.846],[139.7892,-4.8483],[139.7935,-4.8462],[139.7956,-4.8419],[139.7945,-4.8375],[139.7958,-4.8357],[139.8066,-4.83],[139.8177,-4.8339],[139.8202,-4.8364],[139.8266,-4.836],[139.8302,-4.8339],[139.8295,-4.8239],[139.8316,-4.8189],[139.8316,-4.81],[139.8334,-4.8046],[139.837,-4.801],[139.8381,-4.7764],[139.8427,-4.7742],[139.8506,-4.7735],[139.8566,-4.7764],[139.8845,-4.8057],[139.9133,-4.8324],[139.8804,-4.872],[139.8636,-4.9357],[139.8502,-4.9643],[139.8452,-5.0079],[139.8368,-5.0247],[139.82,-5.0498],[139.7931,-5.0799],[139.6444,-5.0411]]]}},{"type":"Feature","properties":{"name":"Sombat","name_en":"Sombat","admin_level":"7","osm_id":""},"geometry":{"type":"Polygon","coordinates":[[[140.108,-4.6315],[140.1191,-4.6386],[140.1103,-4.6472],[140.1019,-4.6723],[140.0834,-4.7059],[140.0297,-4.7697],[140.018,-4.8032],[140.0079,-4.8217],[140.0046,-4.8586],[139.9878,-4.8451],[139.9341,-4.8099],[139.9133,-4.8324],[139.8845,-4.8057],[139.8761,-4.796],[139.8806,-4.7917],[139.8864,-4.7897],[139.8962,-4.7924],[139.9133,-4.7931],[139.9201,-4.7866],[139.9261,-4.7775],[139.9335,-4.7712],[139.9323,-4.7669],[139.9338,-4.763],[139.9403,-4.7596],[139.9425,-4.7551],[139.9427,-4.7476],[139.9451,-4.7459],[139.9646,-4.7464],[139.968,-4.7481],[139.9767,-4.7466],[139.9877,-4.7353],[139.9858,-4.7271],[139.9875,-4.7228],[139.9933,-4.718],[139.9937,-4.7134],[139.9975,-4.7104],[140.0172,-4.7073],[140.0228,-4.704],[140.0327,-4.7021],[140.052,-4.68],[140.0661,-4.6537],[140.0954,-4.6198],[140.108,-4.6315]]]}},{"type":"Feature","properties":{"name":"Yalmabi","name_en":"Yalmabi","admin_level":"7","osm_id":""},"geometry":{"type":"Polygon","coordinates":[[[139.9487,-4.6856],[139.9401,-4.6861],[139.925,-4.6927],[139.9189,-4.6927],[139.9108,-4.6954],[139.8918,-4.6788],[139.8829,-4.6788],[139.872,-4.6749],[139.8474,-4.6561],[139.8326,-4.638],[139.8361,-4.6335],[139.8989,-4.5872],[139.9024,-4.6128],[139.9255,-4.6447],[139.9382,-4.6555],[139.9452,-4.665],[139.9487,-4.6856]]]}}]}