{"type":"FeatureCollection","metadata":{"parent_osm_id":"gid_IDN_18_1_5_1","parent_name":"Jailolo","parent_name_1":"MalukuUtara","parent_gid":"IDN.18.1.5_1","parent_level":"6","child_level":"7","count":29,"source":"GADM 4.1","generated":"2026-05-09"},"features":[{"type":"Feature","properties":{"name":"Acango","name_en":"Acango","admin_level":"7","osm_id":""},"geometry":{"type":"Polygon","coordinates":[[[127.4773,1.0867],[127.4728,1.088],[127.4726,1.0989],[127.5014,1.0987],[127.515,1.106],[127.5477,1.131],[127.5635,1.1302],[127.5552,1.1266],[127.5376,1.1136],[127.5186,1.0964],[127.5054,1.0875],[127.4773,1.0867]]]}},{"type":"Feature","properties":{"name":"Akediri","name_en":"Akediri","admin_level":"7","osm_id":""},"geometry":{"type":"Polygon","coordinates":[[[127.4712,1.1069],[127.4681,1.1181],[127.4717,1.1212],[127.4715,1.1193],[127.474,1.1189],[127.4755,1.1216],[127.4786,1.1231],[127.4788,1.1272],[127.4832,1.1303],[127.4841,1.1347],[127.4857,1.1334],[127.4855,1.1311],[127.49,1.1274],[127.4902,1.1325],[127.4921,1.1332],[127.4934,1.1325],[127.4926,1.1278],[127.5238,1.1307],[127.5106,1.1175],[127.4951,1.1057],[127.4712,1.1069]]]}},{"type":"Feature","properties":{"name":"Bobanehena","name_en":"Bobanehena","admin_level":"7","osm_id":""},"geometry":{"type":"Polygon","coordinates":[[[127.4518,1.0525],[127.4496,1.0506],[127.4446,1.0511],[127.4432,1.0477],[127.4413,1.0496],[127.4395,1.0468],[127.4352,1.0461],[127.4346,1.0525],[127.4489,1.0694],[127.4468,1.0786],[127.4503,1.0775],[127.4569,1.0784],[127.4518,1.0525]]]}},{"type":"Feature","properties":{"name":"Bobo","name_en":"Bobo","admin_level":"7","osm_id":""},"geometry":{"type":"Polygon","coordinates":[[[127.4106,1.0458],[127.4124,1.0482],[127.4072,1.0501],[127.4021,1.0549],[127.3998,1.055],[127.3968,1.0629],[127.3981,1.0679],[127.4174,1.0704],[127.4392,1.0781],[127.4468,1.0786],[127.4388,1.0684],[127.4167,1.0554],[127.4171,1.05],[127.419,1.0468],[127.4106,1.0458]]]}},{"type":"Feature","properties":{"name":"BukuBualawa","name_en":"BukuBualawa","admin_level":"7","osm_id":""},"geometry":{"type":"Polygon","coordinates":[[[127.5952,0.9686],[127.5111,0.9699],[127.5107,0.9755],[127.5062,0.9782],[127.506,0.9822],[127.5046,0.9829],[127.5067,0.9877],[127.511,0.9917],[127.5172,0.9936],[127.6006,0.9926],[127.5982,0.9867],[127.5952,0.9686]]]}},{"type":"Feature","properties":{"name":"Bukumatiti","name_en":"Bukumatiti","admin_level":"7","osm_id":""},"geometry":{"type":"Polygon","coordinates":[[[127.4871,1.06],[127.4949,1.0761],[127.4965,1.077],[127.5261,1.0852],[127.5493,1.1018],[127.5595,1.1061],[127.6256,1.1266],[127.6254,1.1164],[127.6143,1.1175],[127.6096,1.1093],[127.6039,1.1084],[127.6046,1.1034],[127.6097,1.093],[127.5663,1.0781],[127.5482,1.0759],[127.5323,1.0705],[127.4984,1.0648],[127.4871,1.06]]]}},{"type":"Feature","properties":{"name":"Galala","name_en":"Galala","admin_level":"7","osm_id":""},"geometry":{"type":"Polygon","coordinates":[[[127.4518,1.0525],[127.4521,1.0571],[127.4569,1.0784],[127.4625,1.0695],[127.4608,1.0559],[127.4559,1.052],[127.4518,1.0525]]]}},{"type":"Feature","properties":{"name":"Gamlamo","name_en":"Gamlamo","admin_level":"7","osm_id":""},"geometry":{"type":"Polygon","coordinates":[[[127.4871,1.06],[127.4822,1.0588],[127.4818,1.0624],[127.4793,1.0644],[127.4742,1.0626],[127.4679,1.067],[127.4707,1.071],[127.4847,1.0706],[127.4871,1.06]]]}},{"type":"Feature","properties":{"name":"Gamtala","name_en":"Gamtala","admin_level":"7","osm_id":""},"geometry":{"type":"Polygon","coordinates":[[[127.4181,1.1042],[127.4211,1.1084],[127.4302,1.1064],[127.4327,1.1077],[127.4332,1.1114],[127.4455,1.1375],[127.4494,1.1356],[127.4509,1.1316],[127.453,1.1316],[127.442,1.1136],[127.4382,1.1022],[127.422,1.1013],[127.4181,1.1042]]]}},{"type":"Feature","properties":{"name":"Guaemaadu","name_en":"Guaemaadu","admin_level":"7","osm_id":""},"geometry":{"type":"Polygon","coordinates":[[[127.4608,1.0559],[127.4607,1.0577],[127.4618,1.0647],[127.469,1.0586],[127.4674,1.0592],[127.4676,1.0568],[127.4655,1.0576],[127.4608,1.0559]]]}},{"type":"Feature","properties":{"name":"Guaeria","name_en":"Guaeria","admin_level":"7","osm_id":""},"geometry":{"type":"Polygon","coordinates":[[[127.4807,1.0],[127.4723,1.0064],[127.4748,1.0064],[127.4793,1.016],[127.4805,1.0138],[127.4825,1.0134],[127.4836,1.0177],[127.4852,1.0111],[127.4887,1.0092],[127.4968,1.0097],[127.504,1.0125],[127.5245,1.0271],[127.5342,1.0308],[127.6083,1.04],[127.6096,1.0346],[127.615,1.0278],[127.6184,1.0278],[127.6054,1.0046],[127.5159,1.0045],[127.4892,1.0027],[127.4807,1.0]]]}},{"type":"Feature","properties":{"name":"Gufasa","name_en":"Gufasa","admin_level":"7","osm_id":""},"geometry":{"type":"Polygon","coordinates":[[[127.4618,1.0647],[127.462,1.0661],[127.4667,1.0646],[127.4679,1.067],[127.4722,1.063],[127.4683,1.0612],[127.468,1.0595],[127.4618,1.0647]]]}},{"type":"Feature","properties":{"name":"Hatebicara","name_en":"Hatebicara","admin_level":"7","osm_id":""},"geometry":{"type":"Polygon","coordinates":[[[127.4738,1.0872],[127.4773,1.0867],[127.4784,1.0828],[127.4755,1.0785],[127.4571,1.0801],[127.4605,1.0961],[127.4703,1.0872],[127.4738,1.0872]]]}},{"type":"Feature","properties":{"name":"HokuHokuKie","name_en":"HokuHokuKie","admin_level":"7","osm_id":""},"geometry":{"type":"Polygon","coordinates":[[[127.4726,1.0989],[127.4738,1.0872],[127.4703,1.0872],[127.4605,1.0961],[127.4642,1.104],[127.4607,1.1124],[127.4681,1.1181],[127.4726,1.0989]]]}},{"type":"Feature","properties":{"name":"Idamdehe","name_en":"Idamdehe","admin_level":"7","osm_id":""},"geometry":{"type":"Polygon","coordinates":[[[127.4468,1.0786],[127.4392,1.0781],[127.4174,1.0704],[127.3981,1.0679],[127.3971,1.0692],[127.3993,1.0842],[127.4043,1.0883],[127.4105,1.0871],[127.435,1.0919],[127.4435,1.09],[127.4415,1.0861],[127.4468,1.0786]]]}},{"type":"Feature","properties":{"name":"IdamdeheGamsungi","name_en":"IdamdeheGamsungi","admin_level":"7","osm_id":""},"geometry":{"type":"Polygon","coordinates":[[[127.4181,1.1042],[127.422,1.1013],[127.4382,1.1022],[127.4482,1.0985],[127.4435,1.09],[127.435,1.0919],[127.4105,1.0871],[127.4043,1.0883],[127.406,1.0931],[127.4157,1.1004],[127.4181,1.1042]]]}},{"type":"Feature","properties":{"name":"JalanBaru","name_en":"JalanBaru","admin_level":"7","osm_id":""},"geometry":{"type":"Polygon","coordinates":[[[127.462,1.0661],[127.4625,1.0695],[127.4571,1.0801],[127.4618,1.0796],[127.464,1.0748],[127.4707,1.071],[127.4673,1.0648],[127.462,1.0661]]]}},{"type":"Feature","properties":{"name":"Lolori","name_en":"Lolori","admin_level":"7","osm_id":""},"geometry":{"type":"Polygon","coordinates":[[[127.4717,1.1212],[127.4607,1.1124],[127.4531,1.1109],[127.4482,1.0985],[127.4382,1.1022],[127.442,1.1136],[127.453,1.1316],[127.4545,1.1301],[127.4523,1.1259],[127.4577,1.1284],[127.4577,1.1264],[127.4603,1.1274],[127.4619,1.1255],[127.4644,1.1261],[127.4657,1.1238],[127.4717,1.1212]]]}},{"type":"Feature","properties":{"name":"Marimabati","name_en":"Marimabati","admin_level":"7","osm_id":""},"geometry":{"type":"Polygon","coordinates":[[[127.4451,1.1369],[127.4327,1.1077],[127.4302,1.1064],[127.4228,1.1079],[127.4344,1.121],[127.4403,1.1369],[127.4397,1.1395],[127.4451,1.1369]]]}},{"type":"Feature","properties":{"name":"Matui","name_en":"Matui","admin_level":"7","osm_id":""},"geometry":{"type":"Polygon","coordinates":[[[127.6083,1.04],[127.5342,1.0308],[127.5245,1.0271],[127.504,1.0125],[127.4944,1.0093],[127.4887,1.0092],[127.4852,1.0111],[127.4836,1.0177],[127.4857,1.0155],[127.4947,1.015],[127.4949,1.0188],[127.4971,1.021],[127.4965,1.0274],[127.4991,1.0344],[127.499,1.0409],[127.5356,1.041],[127.547,1.0442],[127.6046,1.0504],[127.6083,1.04]]]}},{"type":"Feature","properties":{"name":"Payo","name_en":"Payo","admin_level":"7","osm_id":""},"geometry":{"type":"Polygon","coordinates":[[[127.4468,1.0786],[127.4489,1.0694],[127.4346,1.0525],[127.4351,1.046],[127.4311,1.0469],[127.4301,1.0493],[127.4258,1.051],[127.4218,1.048],[127.4254,1.0454],[127.419,1.0468],[127.4171,1.05],[127.4167,1.0554],[127.4388,1.0684],[127.4468,1.0786]]]}},{"type":"Feature","properties":{"name":"Porniti","name_en":"Porniti","admin_level":"7","osm_id":""},"geometry":{"type":"Polygon","coordinates":[[[127.4773,1.0867],[127.5054,1.0875],[127.5186,1.0964],[127.5376,1.1136],[127.5552,1.1266],[127.5635,1.1302],[127.592,1.1292],[127.6213,1.1384],[127.6256,1.1266],[127.5595,1.1061],[127.5493,1.1018],[127.5261,1.0852],[127.4965,1.077],[127.4949,1.0761],[127.4871,1.06],[127.4843,1.0716],[127.4772,1.0803],[127.4784,1.0828],[127.4773,1.0867]]]}},{"type":"Feature","properties":{"name":"Saria","name_en":"Saria","admin_level":"7","osm_id":""},"geometry":{"type":"Polygon","coordinates":[[[127.4106,1.0458],[127.418,1.047],[127.426,1.045],[127.4287,1.0402],[127.4264,1.0382],[127.4248,1.0328],[127.4199,1.032],[127.4175,1.0334],[127.4141,1.0396],[127.4098,1.0406],[127.4048,1.0395],[127.401,1.0412],[127.3988,1.0476],[127.4004,1.0482],[127.4041,1.044],[127.4106,1.0458]]]}},{"type":"Feature","properties":{"name":"Soakonora","name_en":"Soakonora","admin_level":"7","osm_id":""},"geometry":{"type":"Polygon","coordinates":[[[127.4847,1.0706],[127.4694,1.0711],[127.464,1.0748],[127.4618,1.0796],[127.4755,1.0785],[127.4772,1.0803],[127.4847,1.0706]]]}},{"type":"Feature","properties":{"name":"Taboso","name_en":"Taboso","admin_level":"7","osm_id":""},"geometry":{"type":"Polygon","coordinates":[[[127.4569,1.0784],[127.4503,1.0775],[127.4468,1.0786],[127.4415,1.0861],[127.4531,1.1109],[127.4607,1.1124],[127.4642,1.104],[127.4599,1.0948],[127.4569,1.0784]]]}},{"type":"Feature","properties":{"name":"Tauro","name_en":"Tauro","admin_level":"7","osm_id":""},"geometry":{"type":"Polygon","coordinates":[[[127.6006,0.9926],[127.5172,0.9936],[127.511,0.9917],[127.5067,0.9877],[127.5041,0.9826],[127.5001,0.9895],[127.5012,0.9902],[127.4963,0.9896],[127.4954,0.9956],[127.4916,0.9948],[127.4896,0.996],[127.4812,0.9933],[127.4802,0.9964],[127.4807,1.0],[127.4892,1.0027],[127.5159,1.0045],[127.6054,1.0046],[127.6006,0.9926]]]}},{"type":"Feature","properties":{"name":"Tedeng","name_en":"Tedeng","admin_level":"7","osm_id":""},"geometry":{"type":"Polygon","coordinates":[[[127.5477,1.131],[127.515,1.106],[127.5014,1.0987],[127.4726,1.0989],[127.4712,1.1069],[127.4951,1.1057],[127.5106,1.1175],[127.5238,1.1307],[127.5477,1.131]]]}},{"type":"Feature","properties":{"name":"Todowongi","name_en":"Todowongi","admin_level":"7","osm_id":""},"geometry":{"type":"Polygon","coordinates":[[[127.4871,1.06],[127.4984,1.0648],[127.5323,1.0705],[127.5482,1.0759],[127.5663,1.0781],[127.6097,1.093],[127.6132,1.0915],[127.6107,1.0868],[127.6131,1.0833],[127.5378,1.058],[127.4951,1.055],[127.4871,1.06]]]}},{"type":"Feature","properties":{"name":"Tuada","name_en":"Tuada","admin_level":"7","osm_id":""},"geometry":{"type":"Polygon","coordinates":[[[127.6046,1.0504],[127.547,1.0442],[127.5356,1.041],[127.5037,1.0409],[127.5012,1.0419],[127.4999,1.0482],[127.4951,1.055],[127.5378,1.058],[127.6131,1.0833],[127.6146,1.082],[127.6139,1.0795],[127.6021,1.0708],[127.6019,1.0631],[127.6046,1.0592],[127.6036,1.0561],[127.6046,1.0504]]]}}]}