{"type":"FeatureCollection","metadata":{"parent_osm_id":"gid_IDN_14_11_1_1","parent_name":"BukitBatu","parent_name_1":"KalimantanTengah","parent_gid":"IDN.14.11.1_1","parent_level":"6","child_level":"7","count":7,"source":"GADM 4.1","generated":"2026-05-09"},"features":[{"type":"Feature","properties":{"name":"Banturung","name_en":"Banturung","admin_level":"7","osm_id":""},"geometry":{"type":"Polygon","coordinates":[[[113.6386,-2.0129],[113.6206,-1.9858],[113.7451,-1.9844],[113.7466,-1.9864],[113.7499,-1.9865],[113.7593,-1.9854],[113.7696,-1.9802],[113.8199,-1.9801],[113.8294,-2.0008],[113.7865,-2.0008],[113.7614,-2.0129],[113.6386,-2.0129]]]}},{"type":"Feature","properties":{"name":"HabaringHurung","name_en":"HabaringHurung","admin_level":"7","osm_id":""},"geometry":{"type":"Polygon","coordinates":[[[113.6963,-2.1108],[113.6946,-2.0868],[113.683,-2.0665],[113.6559,-2.0373],[113.6386,-2.0129],[113.7346,-2.0129],[113.7354,-2.0215],[113.748,-2.0209],[113.748,-2.0894],[113.6963,-2.1108]]]}},{"type":"Feature","properties":{"name":"Kanarakan","name_en":"Kanarakan","admin_level":"7","osm_id":""},"geometry":{"type":"Polygon","coordinates":[[[113.8179,-1.9307],[113.7576,-1.9307],[113.7588,-1.9368],[113.7553,-1.9391],[113.7538,-1.9375],[113.7549,-1.9331],[113.7516,-1.9333],[113.7493,-1.9315],[113.7428,-1.931],[113.7418,-1.933],[113.7418,-1.9312],[113.7149,-1.9329],[113.7149,-1.9152],[113.751,-1.8711],[113.7639,-1.8522],[113.8232,-1.8522],[113.8238,-1.8685],[113.8221,-1.8953],[113.8179,-1.9307]]]}},{"type":"Feature","properties":{"name":"Marang","name_en":"Marang","admin_level":"7","osm_id":""},"geometry":{"type":"Polygon","coordinates":[[[113.6995,-2.159],[113.6963,-2.1108],[113.7481,-2.0893],[113.767,-2.0728],[113.798,-2.0533],[113.8407,-2.0192],[113.8831,-2.0809],[113.8507,-2.1036],[113.8171,-2.1305],[113.6995,-2.159]]]}},{"type":"Feature","properties":{"name":"SeiGohong","name_en":"SeiGohong","admin_level":"7","osm_id":""},"geometry":{"type":"Polygon","coordinates":[[[113.5966,-1.9234],[113.5935,-1.9186],[113.5854,-1.9116],[113.7149,-1.9152],[113.7149,-1.9329],[113.7418,-1.9312],[113.7418,-1.933],[113.7428,-1.931],[113.7493,-1.9315],[113.7516,-1.9333],[113.7549,-1.9331],[113.7538,-1.9375],[113.7553,-1.9391],[113.7588,-1.9368],[113.7576,-1.9307],[113.8179,-1.9307],[113.8149,-1.9555],[113.8188,-1.9757],[113.7643,-1.9757],[113.7589,-1.977],[113.7123,-1.9626],[113.6718,-1.9491],[113.6702,-1.9468],[113.5966,-1.9234]]]}},{"type":"Feature","properties":{"name":"Tangkiling","name_en":"Tangkiling","admin_level":"7","osm_id":""},"geometry":{"type":"Polygon","coordinates":[[[113.5977,-1.925],[113.5966,-1.9234],[113.6702,-1.9468],[113.6718,-1.9491],[113.7123,-1.9626],[113.7589,-1.977],[113.7643,-1.9757],[113.8188,-1.9757],[113.8199,-1.9801],[113.7696,-1.9802],[113.7593,-1.9854],[113.7499,-1.9865],[113.7466,-1.9864],[113.7451,-1.9844],[113.6206,-1.9858],[113.6178,-1.9798],[113.614,-1.9504],[113.5977,-1.925]]]}},{"type":"Feature","properties":{"name":"TumbangTahai","name_en":"TumbangTahai","admin_level":"7","osm_id":""},"geometry":{"type":"Polygon","coordinates":[[[113.7346,-2.0129],[113.7614,-2.0129],[113.7865,-2.0008],[113.8294,-2.0008],[113.8407,-2.0192],[113.798,-2.0533],[113.767,-2.0728],[113.748,-2.0894],[113.748,-2.0209],[113.7354,-2.0215],[113.7346,-2.0129]]]}}]}