{"type":"FeatureCollection","metadata":{"parent_osm_id":"gid_IDN_23_26_10_1","parent_name":"Gilubandu","parent_name_1":"Papua","parent_gid":"IDN.23.26.10_1","parent_level":"6","child_level":"7","count":13,"source":"GADM 4.1","generated":"2026-05-09"},"features":[{"type":"Feature","properties":{"name":"Baguni","name_en":"Baguni","admin_level":"7","osm_id":""},"geometry":{"type":"Polygon","coordinates":[[[138.3147,-3.6667],[138.3164,-3.6606],[138.3207,-3.6564],[138.3269,-3.6539],[138.3317,-3.6542],[138.3429,-3.6724],[138.3451,-3.6712],[138.3428,-3.6739],[138.3378,-3.6733],[138.3352,-3.6761],[138.3294,-3.6764],[138.3192,-3.6704],[138.3161,-3.6702],[138.3151,-3.6716],[138.313,-3.6697],[138.3147,-3.6667]]]}},{"type":"Feature","properties":{"name":"Dulunggun","name_en":"Dulunggun","admin_level":"7","osm_id":""},"geometry":{"type":"Polygon","coordinates":[[[138.302,-3.6461],[138.3052,-3.6435],[138.3067,-3.6375],[138.3106,-3.6337],[138.3159,-3.632],[138.3209,-3.635],[138.3221,-3.6435],[138.3176,-3.6444],[138.3108,-3.6524],[138.3067,-3.6524],[138.302,-3.6461]]]}},{"type":"Feature","properties":{"name":"Egoni","name_en":"Egoni","admin_level":"7","osm_id":""},"geometry":{"type":"Polygon","coordinates":[[[138.272,-3.6061],[138.2818,-3.6128],[138.2835,-3.6193],[138.2836,-3.6317],[138.263,-3.6227],[138.2633,-3.6156],[138.2705,-3.6093],[138.272,-3.6061]]]}},{"type":"Feature","properties":{"name":"Kulutin","name_en":"Kulutin","admin_level":"7","osm_id":""},"geometry":{"type":"Polygon","coordinates":[[[138.2818,-3.6128],[138.272,-3.6061],[138.2691,-3.5914],[138.3058,-3.5972],[138.3111,-3.6014],[138.3092,-3.6035],[138.3103,-3.606],[138.3091,-3.6108],[138.3033,-3.6108],[138.2995,-3.6152],[138.2936,-3.6147],[138.2847,-3.6103],[138.2818,-3.6128]]]}},{"type":"Feature","properties":{"name":"Lerewere","name_en":"Lerewere","admin_level":"7","osm_id":""},"geometry":{"type":"Polygon","coordinates":[[[138.2836,-3.6317],[138.2835,-3.6193],[138.2818,-3.6128],[138.2847,-3.6103],[138.3029,-3.6175],[138.3038,-3.6227],[138.2933,-3.6381],[138.2903,-3.6385],[138.2874,-3.6369],[138.2836,-3.6317]]]}},{"type":"Feature","properties":{"name":"Linggira","name_en":"Linggira","admin_level":"7","osm_id":""},"geometry":{"type":"Polygon","coordinates":[[[138.3297,-3.6476],[138.3305,-3.6441],[138.3367,-3.6401],[138.3392,-3.6362],[138.3411,-3.629],[138.3427,-3.6303],[138.3455,-3.6298],[138.3479,-3.632],[138.3572,-3.6504],[138.3567,-3.6534],[138.355,-3.6517],[138.3434,-3.652],[138.3396,-3.6502],[138.3319,-3.6516],[138.3297,-3.6476]]]}},{"type":"Feature","properties":{"name":"Martelo","name_en":"Martelo","admin_level":"7","osm_id":""},"geometry":{"type":"Polygon","coordinates":[[[138.272,-3.6061],[138.2705,-3.6093],[138.2633,-3.6156],[138.263,-3.6227],[138.2578,-3.6205],[138.2554,-3.6176],[138.2554,-3.6137],[138.2473,-3.6107],[138.2465,-3.6069],[138.2504,-3.5967],[138.2611,-3.5912],[138.2691,-3.5914],[138.272,-3.6061]]]}},{"type":"Feature","properties":{"name":"Orelukban","name_en":"Orelukban","admin_level":"7","osm_id":""},"geometry":{"type":"Polygon","coordinates":[[[138.2995,-3.6152],[138.3033,-3.6108],[138.3091,-3.6108],[138.3103,-3.606],[138.3092,-3.6035],[138.3111,-3.6014],[138.3195,-3.6028],[138.3215,-3.6051],[138.3195,-3.6065],[138.3184,-3.6164],[138.3241,-3.624],[138.3176,-3.6278],[138.3083,-3.6258],[138.3037,-3.6229],[138.3029,-3.6175],[138.2995,-3.6152]]]}},{"type":"Feature","properties":{"name":"Tinggom","name_en":"Tinggom","admin_level":"7","osm_id":""},"geometry":{"type":"Polygon","coordinates":[[[138.3159,-3.632],[138.3106,-3.6337],[138.3067,-3.6375],[138.3052,-3.6435],[138.302,-3.6461],[138.2933,-3.6381],[138.3037,-3.6229],[138.3083,-3.6258],[138.3176,-3.6278],[138.3159,-3.632]]]}},{"type":"Feature","properties":{"name":"Wekaru","name_en":"Wekaru","admin_level":"7","osm_id":""},"geometry":{"type":"Polygon","coordinates":[[[138.3222,-3.6376],[138.3209,-3.635],[138.3159,-3.632],[138.3159,-3.6302],[138.3226,-3.6246],[138.3291,-3.6218],[138.335,-3.6218],[138.3362,-3.6254],[138.3411,-3.629],[138.3392,-3.6362],[138.3367,-3.6401],[138.3305,-3.6441],[138.3297,-3.6476],[138.3222,-3.6376]]]}},{"type":"Feature","properties":{"name":"Welesi","name_en":"Welesi","admin_level":"7","osm_id":""},"geometry":{"type":"Polygon","coordinates":[[[138.3455,-3.6298],[138.3427,-3.6303],[138.3362,-3.6254],[138.335,-3.6218],[138.3291,-3.6218],[138.3241,-3.624],[138.3184,-3.6164],[138.3195,-3.6065],[138.3215,-3.6051],[138.3257,-3.6098],[138.344,-3.6226],[138.3457,-3.6256],[138.3455,-3.6298]]]}},{"type":"Feature","properties":{"name":"Yakep","name_en":"Yakep","admin_level":"7","osm_id":""},"geometry":{"type":"Polygon","coordinates":[[[138.3317,-3.6542],[138.3269,-3.6539],[138.3207,-3.6564],[138.3164,-3.6606],[138.3147,-3.6667],[138.3067,-3.6524],[138.3108,-3.6524],[138.3176,-3.6444],[138.3221,-3.6435],[138.3222,-3.6376],[138.3306,-3.6491],[138.3317,-3.6542]]]}},{"type":"Feature","properties":{"name":"Yamulo","name_en":"Yamulo","admin_level":"7","osm_id":""},"geometry":{"type":"Polygon","coordinates":[[[138.3451,-3.6712],[138.3429,-3.6724],[138.3317,-3.6542],[138.3319,-3.6516],[138.3336,-3.6505],[138.3396,-3.6502],[138.3483,-3.6525],[138.355,-3.6517],[138.3567,-3.6534],[138.3566,-3.6589],[138.358,-3.6606],[138.3558,-3.6635],[138.3536,-3.664],[138.3533,-3.6658],[138.3451,-3.6712]]]}}]}