{"type":"FeatureCollection","metadata":{"parent_osm_id":"gid_IDN_21_13_7_1","parent_name":"RoteTengah","parent_name_1":"NusaTenggaraTimur","parent_gid":"IDN.21.13.7_1","parent_level":"6","child_level":"7","count":7,"source":"GADM 4.1","generated":"2026-05-08"},"features":[{"type":"Feature","properties":{"name":"Lidabesi","name_en":"Lidabesi","admin_level":"7","osm_id":""},"geometry":{"type":"Polygon","coordinates":[[[123.1505,-10.7188],[123.1487,-10.72],[123.1448,-10.7185],[123.1358,-10.7217],[123.1338,-10.7211],[123.1313,-10.7124],[123.128,-10.7087],[123.125,-10.7081],[123.1217,-10.7096],[123.1209,-10.712],[123.1194,-10.7113],[123.1197,-10.7141],[123.1175,-10.7146],[123.1173,-10.719],[123.1123,-10.7081],[123.099,-10.7039],[123.1097,-10.6892],[123.1156,-10.6864],[123.1215,-10.6866],[123.1263,-10.692],[123.1304,-10.693],[123.134,-10.6919],[123.1399,-10.6964],[123.1513,-10.6924],[123.152,-10.7016],[123.1485,-10.71],[123.1505,-10.7188]]]}},{"type":"Feature","properties":{"name":"Lidamanu","name_en":"Lidamanu","admin_level":"7","osm_id":""},"geometry":{"type":"Polygon","coordinates":[[[123.1448,-10.7673],[123.1395,-10.7621],[123.1282,-10.7572],[123.1265,-10.7571],[123.124,-10.7607],[123.119,-10.7601],[123.1158,-10.7385],[123.1179,-10.724],[123.1175,-10.7146],[123.1197,-10.7141],[123.1194,-10.7113],[123.1209,-10.712],[123.1217,-10.7096],[123.125,-10.7081],[123.128,-10.7087],[123.1313,-10.7124],[123.1338,-10.7211],[123.1358,-10.7217],[123.1448,-10.7185],[123.1487,-10.72],[123.1505,-10.7188],[123.1555,-10.7258],[123.1882,-10.7417],[123.1833,-10.7512],[123.179,-10.7546],[123.1448,-10.7673]]]}},{"type":"Feature","properties":{"name":"Limakoli","name_en":"Limakoli","admin_level":"7","osm_id":""},"geometry":{"type":"Polygon","coordinates":[[[123.1505,-10.7188],[123.1485,-10.71],[123.152,-10.7016],[123.1513,-10.6924],[123.1796,-10.6904],[123.1941,-10.6985],[123.1946,-10.7017],[123.1984,-10.7071],[123.1994,-10.7148],[123.1979,-10.7231],[123.1907,-10.7316],[123.1874,-10.7414],[123.1555,-10.7258],[123.1505,-10.7188]]]}},{"type":"Feature","properties":{"name":"Maubesi","name_en":"Maubesi","admin_level":"7","osm_id":""},"geometry":{"type":"Polygon","coordinates":[[[123.0694,-10.7118],[123.0652,-10.7073],[123.0622,-10.7091],[123.0624,-10.7052],[123.061,-10.7046],[123.0639,-10.7023],[123.0677,-10.7049],[123.0734,-10.701],[123.0745,-10.6979],[123.0737,-10.6955],[123.071,-10.6947],[123.0712,-10.6931],[123.0766,-10.693],[123.0807,-10.6892],[123.09,-10.6944],[123.0942,-10.6945],[123.1032,-10.6888],[123.1112,-10.6883],[123.1045,-10.6955],[123.1025,-10.7006],[123.1003,-10.7004],[123.099,-10.7039],[123.1003,-10.7053],[123.1104,-10.7067],[123.1156,-10.7133],[123.1179,-10.724],[123.1158,-10.7385],[123.119,-10.7601],[123.1055,-10.761],[123.0984,-10.757],[123.0967,-10.7525],[123.0919,-10.7511],[123.093,-10.7472],[123.0903,-10.7453],[123.0898,-10.7427],[123.0874,-10.7417],[123.0867,-10.7361],[123.0832,-10.7322],[123.0837,-10.7282],[123.0803,-10.7278],[123.0796,-10.7232],[123.0749,-10.7217],[123.0752,-10.7186],[123.0694,-10.7118]]]}},{"type":"Feature","properties":{"name":"Nggodimeda","name_en":"Nggodimeda","admin_level":"7","osm_id":""},"geometry":{"type":"Polygon","coordinates":[[[123.1513,-10.6924],[123.1423,-10.6962],[123.1366,-10.6951],[123.134,-10.6919],[123.136,-10.6883],[123.1344,-10.6806],[123.1358,-10.6725],[123.1247,-10.6671],[123.1178,-10.6673],[123.1133,-10.6627],[123.1162,-10.6615],[123.1293,-10.6435],[123.1328,-10.6443],[123.1338,-10.6476],[123.1419,-10.6516],[123.149,-10.6528],[123.1532,-10.6503],[123.1618,-10.6493],[123.1633,-10.6466],[123.1617,-10.6448],[123.1677,-10.6439],[123.1741,-10.6391],[123.1783,-10.642],[123.1755,-10.6513],[123.1832,-10.6572],[123.1853,-10.6608],[123.1876,-10.6613],[123.1897,-10.6742],[123.1953,-10.6847],[123.1933,-10.6899],[123.1928,-10.6977],[123.1774,-10.6898],[123.1513,-10.6924]]]}},{"type":"Feature","properties":{"name":"Onotali","name_en":"Onotali","admin_level":"7","osm_id":""},"geometry":{"type":"Polygon","coordinates":[[[123.134,-10.6919],[123.1278,-10.6926],[123.1217,-10.6867],[123.1175,-10.6862],[123.1118,-10.6885],[123.1032,-10.6888],[123.0942,-10.6945],[123.09,-10.6944],[123.0807,-10.6892],[123.0873,-10.6867],[123.0931,-10.6807],[123.0938,-10.6715],[123.0992,-10.6746],[123.1088,-10.6702],[123.1089,-10.6667],[123.1069,-10.6652],[123.1089,-10.6638],[123.1084,-10.6617],[123.1096,-10.6636],[123.1133,-10.6627],[123.1178,-10.6673],[123.1247,-10.6671],[123.1358,-10.6725],[123.1344,-10.6806],[123.136,-10.6883],[123.134,-10.6919]]]}},{"type":"Feature","properties":{"name":"Suebela","name_en":"Suebela","admin_level":"7","osm_id":""},"geometry":{"type":"Polygon","coordinates":[[[123.234,-10.7131],[123.232,-10.7262],[123.2255,-10.733],[123.2177,-10.7337],[123.2114,-10.7362],[123.205,-10.7411],[123.2041,-10.744],[123.1874,-10.7414],[123.1907,-10.7316],[123.1979,-10.7231],[123.1994,-10.7148],[123.1984,-10.7071],[123.1928,-10.6977],[123.1933,-10.6899],[123.1953,-10.6847],[123.1897,-10.6742],[123.1876,-10.6613],[123.1853,-10.6608],[123.1832,-10.6572],[123.1755,-10.6513],[123.1783,-10.642],[123.1741,-10.6391],[123.1795,-10.6345],[123.1909,-10.6452],[123.2084,-10.6572],[123.2156,-10.6669],[123.2261,-10.6761],[123.2297,-10.6836],[123.234,-10.7131]]]}}]}