{"type":"FeatureCollection","metadata":{"parent_osm_id":"gid_IDN_13_4_5_1","parent_name":"BanjarmasinUtara","parent_name_1":"KalimantanSelatan","parent_gid":"IDN.13.4.5_1","parent_level":"6","child_level":"7","count":9,"source":"GADM 4.1","generated":"2026-05-09"},"features":[{"type":"Feature","properties":{"name":"AlalakSelatan","name_en":"AlalakSelatan","admin_level":"7","osm_id":""},"geometry":{"type":"Polygon","coordinates":[[[114.5669,-3.2806],[114.5764,-3.2836],[114.5748,-3.2875],[114.5701,-3.2912],[114.5671,-3.2909],[114.5669,-3.2806]]]}},{"type":"Feature","properties":{"name":"AlalakTengah","name_en":"AlalakTengah","admin_level":"7","osm_id":""},"geometry":{"type":"Polygon","coordinates":[[[114.572,-3.2821],[114.5661,-3.2807],[114.5662,-3.2708],[114.5686,-3.2679],[114.5716,-3.2689],[114.5735,-3.2764],[114.572,-3.2821]]]}},{"type":"Feature","properties":{"name":"AlalakUtara","name_en":"AlalakUtara","admin_level":"7","osm_id":""},"geometry":{"type":"Polygon","coordinates":[[[114.5764,-3.2836],[114.572,-3.2821],[114.5735,-3.2764],[114.5716,-3.2689],[114.5752,-3.2701],[114.5771,-3.277],[114.5834,-3.2736],[114.5939,-3.2802],[114.5961,-3.2867],[114.5933,-3.2866],[114.5933,-3.2886],[114.5908,-3.2865],[114.5844,-3.2867],[114.5764,-3.2836]]]}},{"type":"Feature","properties":{"name":"AntasanKecilTimur","name_en":"AntasanKecilTimur","admin_level":"7","osm_id":""},"geometry":{"type":"Polygon","coordinates":[[[114.5948,-3.3095],[114.5915,-3.3043],[114.5923,-3.3005],[114.5949,-3.2994],[114.5947,-3.2979],[114.5979,-3.2986],[114.6005,-3.2937],[114.603,-3.2959],[114.6011,-3.2993],[114.5972,-3.2996],[114.5948,-3.3095]]]}},{"type":"Feature","properties":{"name":"KuinUtara","name_en":"KuinUtara","admin_level":"7","osm_id":""},"geometry":{"type":"Polygon","coordinates":[[[114.5769,-3.2957],[114.5673,-3.2933],[114.5671,-3.2909],[114.5708,-3.2908],[114.5748,-3.2875],[114.5764,-3.2836],[114.5794,-3.2838],[114.5844,-3.2867],[114.5849,-3.2896],[114.5805,-3.2956],[114.5769,-3.2957]]]}},{"type":"Feature","properties":{"name":"Pangeran","name_en":"Pangeran","admin_level":"7","osm_id":""},"geometry":{"type":"Polygon","coordinates":[[[114.5883,-3.3041],[114.5834,-3.3018],[114.5797,-3.2975],[114.5811,-3.2937],[114.5847,-3.2905],[114.5844,-3.2867],[114.5897,-3.2869],[114.5897,-3.3023],[114.5883,-3.3041]]]}},{"type":"Feature","properties":{"name":"SungaiJingah","name_en":"SungaiJingah","admin_level":"7","osm_id":""},"geometry":{"type":"Polygon","coordinates":[[[114.6242,-3.2843],[114.625,-3.2849],[114.6195,-3.292],[114.6164,-3.3021],[114.6117,-3.3006],[114.6127,-3.3038],[114.6081,-3.3059],[114.6084,-3.3158],[114.6051,-3.3166],[114.6016,-3.3152],[114.6031,-3.3136],[114.6022,-3.309],[114.6079,-3.298],[114.6016,-3.2895],[114.6063,-3.2863],[114.606,-3.2809],[114.6138,-3.2807],[114.6223,-3.2861],[114.6242,-3.2843]]]}},{"type":"Feature","properties":{"name":"SungaiMiai","name_en":"SungaiMiai","admin_level":"7","osm_id":""},"geometry":{"type":"Polygon","coordinates":[[[114.5915,-3.3043],[114.5883,-3.3041],[114.5897,-3.3023],[114.5897,-3.2869],[114.5933,-3.2886],[114.5933,-3.2866],[114.5961,-3.2867],[114.6014,-3.2895],[114.5999,-3.2906],[114.6011,-3.2925],[114.5979,-3.2986],[114.5949,-3.2979],[114.5949,-3.2994],[114.5928,-3.2997],[114.5915,-3.3043]]]}},{"type":"Feature","properties":{"name":"SurgiMufti","name_en":"SurgiMufti","admin_level":"7","osm_id":""},"geometry":{"type":"Polygon","coordinates":[[[114.6016,-3.3152],[114.5949,-3.3087],[114.5968,-3.3054],[114.5956,-3.3046],[114.5972,-3.2996],[114.6011,-3.2993],[114.603,-3.2959],[114.6005,-3.2937],[114.5999,-3.2906],[114.6014,-3.2895],[114.6079,-3.298],[114.6022,-3.309],[114.6031,-3.3136],[114.6016,-3.3152]]]}}]}