{"type":"FeatureCollection","metadata":{"parent_osm_id":"gid_IDN_5_3_13_1","parent_name":"PutriHijau","parent_name_1":"Bengkulu","parent_gid":"IDN.5.3.13_1","parent_level":"6","child_level":"7","count":19,"source":"GADM 4.1","generated":"2026-05-09"},"features":[{"type":"Feature","properties":{"name":"AirMuring","name_en":"AirMuring","admin_level":"7","osm_id":""},"geometry":{"type":"Polygon","coordinates":[[[101.7271,-3.2205],[101.7019,-3.2263],[101.673,-3.235],[101.6773,-3.2268],[101.6784,-3.2128],[101.6902,-3.2067],[101.7019,-3.195],[101.7266,-3.1766],[101.7312,-3.195],[101.7269,-3.2067],[101.7271,-3.2205]]]}},{"type":"Feature","properties":{"name":"AirPandan","name_en":"AirPandan","admin_level":"7","osm_id":""},"geometry":{"type":"Polygon","coordinates":[[[101.6203,-3.1794],[101.6061,-3.1735],[101.5976,-3.1573],[101.6067,-3.1518],[101.6212,-3.1491],[101.6221,-3.138],[101.6393,-3.1363],[101.653,-3.1284],[101.6687,-3.1258],[101.6608,-3.1382],[101.6302,-3.1661],[101.6203,-3.1794]]]}},{"type":"Feature","properties":{"name":"AirPetai","name_en":"AirPetai","admin_level":"7","osm_id":""},"geometry":{"type":"Polygon","coordinates":[[[101.673,-3.235],[101.7019,-3.2263],[101.7271,-3.2205],[101.6904,-3.276],[101.6838,-3.2892],[101.6525,-3.2677],[101.6672,-3.2419],[101.673,-3.235]]]}},{"type":"Feature","properties":{"name":"AirPutih","name_en":"AirPutih","admin_level":"7","osm_id":""},"geometry":{"type":"Polygon","coordinates":[[[101.7394,-3.1147],[101.7466,-3.1089],[101.7735,-3.0961],[101.804,-3.1139],[101.788,-3.1261],[101.7703,-3.1444],[101.7664,-3.1343],[101.7586,-3.1265],[101.7418,-3.1218],[101.7394,-3.1147]]]}},{"type":"Feature","properties":{"name":"CiptaMulya","name_en":"CiptaMulya","admin_level":"7","osm_id":""},"geometry":{"type":"Polygon","coordinates":[[[101.5976,-3.1573],[101.6061,-3.1735],[101.6203,-3.1794],[101.6158,-3.1874],[101.6146,-3.1949],[101.6119,-3.193],[101.6021,-3.195],[101.5916,-3.2107],[101.5758,-3.1846],[101.5842,-3.1792],[101.5976,-3.1573]]]}},{"type":"Feature","properties":{"name":"KarangPulau","name_en":"KarangPulau","admin_level":"7","osm_id":""},"geometry":{"type":"Polygon","coordinates":[[[101.7678,-3.2129],[101.7847,-3.2387],[101.7829,-3.2392],[101.78,-3.2456],[101.7777,-3.2473],[101.7605,-3.249],[101.7404,-3.2625],[101.728,-3.275],[101.7169,-3.2936],[101.7156,-3.302],[101.7085,-3.3084],[101.6986,-3.2982],[101.6838,-3.2892],[101.6904,-3.276],[101.7271,-3.2205],[101.7361,-3.2239],[101.7515,-3.2149],[101.7678,-3.2129]]]}},{"type":"Feature","properties":{"name":"KarangTengah","name_en":"KarangTengah","admin_level":"7","osm_id":""},"geometry":{"type":"Polygon","coordinates":[[[101.7656,-3.2078],[101.7678,-3.2129],[101.7515,-3.2149],[101.7361,-3.2239],[101.7271,-3.2205],[101.7269,-3.2067],[101.7312,-3.195],[101.7266,-3.1766],[101.7332,-3.1715],[101.7517,-3.1639],[101.7482,-3.1716],[101.7499,-3.1776],[101.764,-3.1812],[101.7732,-3.1855],[101.7793,-3.1908],[101.7826,-3.1962],[101.7756,-3.1954],[101.7681,-3.1971],[101.7656,-3.2078]]]}},{"type":"Feature","properties":{"name":"KaryaBakti","name_en":"KaryaBakti","admin_level":"7","osm_id":""},"geometry":{"type":"Polygon","coordinates":[[[101.7266,-3.1766],[101.7039,-3.1695],[101.6921,-3.1715],[101.6833,-3.1932],[101.6703,-3.1734],[101.6745,-3.1695],[101.7019,-3.1558],[101.7219,-3.1501],[101.722,-3.1538],[101.726,-3.1599],[101.7254,-3.1715],[101.7266,-3.1766]]]}},{"type":"Feature","properties":{"name":"KaryaJaya","name_en":"KaryaJaya","admin_level":"7","osm_id":""},"geometry":{"type":"Polygon","coordinates":[[[101.7259,-3.1772],[101.7019,-3.195],[101.6902,-3.2067],[101.6784,-3.2128],[101.6803,-3.2008],[101.6921,-3.1715],[101.7039,-3.1695],[101.7259,-3.1772]]]}},{"type":"Feature","properties":{"name":"KaryaPelita","name_en":"KaryaPelita","admin_level":"7","osm_id":""},"geometry":{"type":"Polygon","coordinates":[[[101.743,-3.1675],[101.7332,-3.1715],[101.7266,-3.1766],[101.7254,-3.1715],[101.726,-3.1599],[101.722,-3.1538],[101.7219,-3.1501],[101.7312,-3.1461],[101.741,-3.1382],[101.743,-3.1675]]]}},{"type":"Feature","properties":{"name":"PasarBaruKotaBani","name_en":"PasarBaruKotaBani","admin_level":"7","osm_id":""},"geometry":{"type":"Polygon","coordinates":[[[101.6784,-3.2128],[101.6773,-3.2268],[101.6752,-3.2322],[101.6672,-3.2419],[101.6525,-3.2677],[101.6311,-3.2526],[101.6628,-3.2145],[101.6784,-3.2128]]]}},{"type":"Feature","properties":{"name":"PasarSebelat","name_en":"PasarSebelat","admin_level":"7","osm_id":""},"geometry":{"type":"Polygon","coordinates":[[[101.5916,-3.2107],[101.6021,-3.195],[101.6119,-3.193],[101.6256,-3.2028],[101.6393,-3.2165],[101.6536,-3.2251],[101.6311,-3.2526],[101.6142,-3.238],[101.5969,-3.2189],[101.5916,-3.2107]]]}},{"type":"Feature","properties":{"name":"SukaBaru","name_en":"SukaBaru","admin_level":"7","osm_id":""},"geometry":{"type":"Polygon","coordinates":[[[101.7308,-3.0994],[101.736,-3.1063],[101.741,-3.1177],[101.741,-3.1382],[101.7312,-3.1461],[101.7219,-3.1501],[101.7197,-3.1403],[101.7197,-3.1223],[101.7308,-3.0994]]]}},{"type":"Feature","properties":{"name":"SukaMaju","name_en":"SukaMaju","admin_level":"7","osm_id":""},"geometry":{"type":"Polygon","coordinates":[[[101.7136,-3.0756],[101.7174,-3.0779],[101.7217,-3.0835],[101.7308,-3.0994],[101.7197,-3.1223],[101.7197,-3.1403],[101.7219,-3.1501],[101.7101,-3.1268],[101.7057,-3.1111],[101.6941,-3.0952],[101.7136,-3.0756]]]}},{"type":"Feature","properties":{"name":"SukaMakmur","name_en":"SukaMakmur","admin_level":"7","osm_id":""},"geometry":{"type":"Polygon","coordinates":[[[101.7703,-3.1444],[101.7517,-3.1639],[101.743,-3.1675],[101.741,-3.1382],[101.7418,-3.1218],[101.7586,-3.1265],[101.7664,-3.1343],[101.7703,-3.1444]]]}},{"type":"Feature","properties":{"name":"SukaMedan","name_en":"SukaMedan","admin_level":"7","osm_id":""},"geometry":{"type":"Polygon","coordinates":[[[101.6401,-3.1566],[101.6608,-3.1382],[101.6687,-3.1258],[101.6771,-3.1285],[101.6877,-3.1285],[101.7006,-3.1358],[101.7085,-3.1437],[101.7219,-3.1501],[101.7019,-3.1558],[101.6745,-3.1695],[101.6703,-3.1734],[101.6628,-3.1637],[101.6401,-3.1566]]]}},{"type":"Feature","properties":{"name":"SukaMerindu","name_en":"SukaMerindu","admin_level":"7","osm_id":""},"geometry":{"type":"Polygon","coordinates":[[[101.6941,-3.0952],[101.7057,-3.1111],[101.7101,-3.1268],[101.7219,-3.1501],[101.7085,-3.1437],[101.7006,-3.1358],[101.6877,-3.1285],[101.6771,-3.1285],[101.6687,-3.1258],[101.6745,-3.1167],[101.6941,-3.0952]]]}},{"type":"Feature","properties":{"name":"SukaNegara","name_en":"SukaNegara","admin_level":"7","osm_id":""},"geometry":{"type":"Polygon","coordinates":[[[101.6203,-3.1794],[101.6302,-3.1661],[101.6401,-3.1566],[101.6628,-3.1637],[101.6765,-3.1813],[101.6833,-3.1932],[101.6803,-3.2008],[101.6628,-3.1969],[101.6491,-3.1891],[101.6295,-3.1813],[101.6203,-3.1794]]]}},{"type":"Feature","properties":{"name":"TalangArah","name_en":"TalangArah","admin_level":"7","osm_id":""},"geometry":{"type":"Polygon","coordinates":[[[101.6146,-3.1949],[101.6158,-3.1874],[101.6203,-3.1794],[101.6295,-3.1813],[101.6491,-3.1891],[101.6628,-3.1969],[101.6803,-3.2008],[101.6784,-3.2128],[101.6628,-3.2145],[101.6536,-3.2251],[101.6393,-3.2165],[101.6256,-3.2028],[101.6146,-3.1949]]]}}]}