{"type":"FeatureCollection","metadata":{"parent_osm_id":"gid_IDN_5_2_7_1","parent_name":"PematangTiga","parent_name_1":"Bengkulu","parent_gid":"IDN.5.2.7_1","parent_level":"6","child_level":"7","count":10,"source":"GADM 4.1","generated":"2026-05-09"},"features":[{"type":"Feature","properties":{"name":"AirKotok","name_en":"AirKotok","admin_level":"7","osm_id":""},"geometry":{"type":"Polygon","coordinates":[[[102.3925,-3.534],[102.3863,-3.5375],[102.3664,-3.5544],[102.3584,-3.5648],[102.3355,-3.5751],[102.3438,-3.5636],[102.3439,-3.5605],[102.337,-3.555],[102.3374,-3.5536],[102.3502,-3.5488],[102.3705,-3.5362],[102.3749,-3.526],[102.3749,-3.521],[102.3833,-3.52],[102.3884,-3.5174],[102.3925,-3.534]]]}},{"type":"Feature","properties":{"name":"AturanMumpo","name_en":"AturanMumpo","admin_level":"7","osm_id":""},"geometry":{"type":"Polygon","coordinates":[[[102.3029,-3.592],[102.2973,-3.5941],[102.2771,-3.6137],[102.2764,-3.6108],[102.2675,-3.6164],[102.258,-3.6195],[102.2438,-3.6152],[102.2183,-3.6119],[102.2218,-3.6021],[102.2747,-3.6053],[102.3014,-3.5876],[102.3029,-3.592]]]}},{"type":"Feature","properties":{"name":"BatuBariang","name_en":"BatuBariang","admin_level":"7","osm_id":""},"geometry":{"type":"Polygon","coordinates":[[[102.3749,-3.521],[102.3749,-3.526],[102.3705,-3.5362],[102.3502,-3.5488],[102.3207,-3.559],[102.314,-3.5513],[102.3137,-3.55],[102.3186,-3.545],[102.3357,-3.5303],[102.3442,-3.5267],[102.3749,-3.521]]]}},{"type":"Feature","properties":{"name":"KebunLebar","name_en":"KebunLebar","admin_level":"7","osm_id":""},"geometry":{"type":"Polygon","coordinates":[[[102.3201,-3.5834],[102.3029,-3.592],[102.2926,-3.5624],[102.3115,-3.5525],[102.3137,-3.55],[102.3207,-3.559],[102.3181,-3.5764],[102.3201,-3.5834]]]}},{"type":"Feature","properties":{"name":"KotaTitik","name_en":"KotaTitik","admin_level":"7","osm_id":""},"geometry":{"type":"Polygon","coordinates":[[[102.2771,-3.6137],[102.2798,-3.6283],[102.2749,-3.6319],[102.2607,-3.6362],[102.2609,-3.6259],[102.258,-3.6195],[102.2675,-3.6164],[102.2764,-3.6108],[102.2771,-3.6137]]]}},{"type":"Feature","properties":{"name":"PematangTiga","name_en":"PematangTiga","admin_level":"7","osm_id":""},"geometry":{"type":"Polygon","coordinates":[[[102.3355,-3.5751],[102.3302,-3.578],[102.3303,-3.5658],[102.3275,-3.5569],[102.3373,-3.554],[102.3439,-3.5605],[102.3438,-3.5636],[102.3355,-3.5751]]]}},{"type":"Feature","properties":{"name":"Senabah","name_en":"Senabah","admin_level":"7","osm_id":""},"geometry":{"type":"Polygon","coordinates":[[[102.2446,-3.6039],[102.2262,-3.6015],[102.2218,-3.6021],[102.226,-3.5966],[102.236,-3.5934],[102.2488,-3.5923],[102.2446,-3.6039]]]}},{"type":"Feature","properties":{"name":"TalangTengahIi","name_en":"TalangTengahIi","admin_level":"7","osm_id":""},"geometry":{"type":"Polygon","coordinates":[[[102.2804,-3.6019],[102.2747,-3.6053],[102.2446,-3.6039],[102.2488,-3.5923],[102.2675,-3.5918],[102.2717,-3.5872],[102.2722,-3.5842],[102.2804,-3.6019]]]}},{"type":"Feature","properties":{"name":"TanjungKepayang","name_en":"TanjungKepayang","admin_level":"7","osm_id":""},"geometry":{"type":"Polygon","coordinates":[[[102.3014,-3.5876],[102.2804,-3.6019],[102.2722,-3.5842],[102.2926,-3.5624],[102.3014,-3.5876]]]}},{"type":"Feature","properties":{"name":"Tiambang","name_en":"Tiambang","admin_level":"7","osm_id":""},"geometry":{"type":"Polygon","coordinates":[[[102.3302,-3.578],[102.3201,-3.5834],[102.3181,-3.5764],[102.3203,-3.5591],[102.3275,-3.5569],[102.3303,-3.5658],[102.3302,-3.578]]]}}]}