{"type":"FeatureCollection","metadata":{"parent_osm_id":"gid_IDN_27_9_6_1","parent_name":"KulawiSelatan","parent_name_1":"SulawesiTengah","parent_gid":"IDN.27.9.6_1","parent_level":"6","child_level":"7","count":12,"source":"GADM 4.1","generated":"2026-05-08"},"features":[{"type":"Feature","properties":{"name":"Gimpu","name_en":"Gimpu","admin_level":"7","osm_id":""},"geometry":{"type":"Polygon","coordinates":[[[120.1424,-1.6238],[120.1369,-1.629],[120.1377,-1.6413],[120.1358,-1.6497],[120.1444,-1.6595],[120.0809,-1.6496],[120.0582,-1.6482],[120.0538,-1.64],[120.0448,-1.6375],[120.051,-1.63],[120.0538,-1.6284],[120.0667,-1.6283],[120.0667,-1.6248],[120.0839,-1.6296],[120.0934,-1.6259],[120.0981,-1.6263],[120.0993,-1.6248],[120.1081,-1.6235],[120.1205,-1.6251],[120.132,-1.6202],[120.145,-1.6103],[120.146,-1.6179],[120.1424,-1.6238]]]}},{"type":"Feature","properties":{"name":"Lawua","name_en":"Lawua","admin_level":"7","osm_id":""},"geometry":{"type":"Polygon","coordinates":[[[120.1297,-1.5577],[120.1318,-1.5562],[120.1385,-1.5597],[120.14,-1.5662],[120.1437,-1.5729],[120.1423,-1.5942],[120.1403,-1.5993],[120.1006,-1.6054],[120.0913,-1.6121],[120.0721,-1.6113],[120.013,-1.6179],[120.0103,-1.6141],[120.0109,-1.6094],[120.0292,-1.6062],[120.0579,-1.6046],[120.069,-1.6018],[120.0805,-1.6015],[120.1059,-1.5927],[120.1119,-1.5881],[120.1167,-1.5775],[120.1297,-1.5577]]]}},{"type":"Feature","properties":{"name":"Lempelero","name_en":"Lempelero","admin_level":"7","osm_id":""},"geometry":{"type":"Polygon","coordinates":[[[120.0448,-1.6375],[120.0538,-1.64],[120.0582,-1.6482],[120.0546,-1.6483],[120.0576,-1.6511],[120.0554,-1.6527],[120.0577,-1.6632],[120.0567,-1.675],[120.0536,-1.6828],[120.0464,-1.6903],[120.0345,-1.6887],[120.0242,-1.6822],[120.0186,-1.6755],[120.0162,-1.6702],[120.0171,-1.665],[120.0112,-1.6574],[120.0032,-1.6534],[119.9979,-1.6527],[119.9966,-1.651],[119.9889,-1.6501],[119.9952,-1.639],[120.0026,-1.636],[120.0089,-1.6358],[120.0131,-1.6396],[120.0272,-1.6442],[120.035,-1.6437],[120.0448,-1.6375]]]}},{"type":"Feature","properties":{"name":"Moa","name_en":"Moa","admin_level":"7","osm_id":""},"geometry":{"type":"Polygon","coordinates":[[[120.1564,-1.7903],[120.1214,-1.7988],[120.1115,-1.7974],[120.1073,-1.8041],[120.1094,-1.8146],[120.098,-1.8055],[120.0969,-1.7997],[120.0986,-1.7953],[120.0986,-1.7875],[120.0934,-1.7762],[120.0863,-1.7671],[120.0863,-1.7595],[120.0818,-1.7519],[120.0841,-1.7476],[120.0803,-1.7431],[120.083,-1.7376],[120.0795,-1.7286],[120.0825,-1.7236],[120.0823,-1.7189],[120.0917,-1.714],[120.0998,-1.7009],[120.1052,-1.6969],[120.1132,-1.6935],[120.13,-1.6898],[120.1389,-1.6935],[120.1493,-1.6929],[120.1487,-1.6995],[120.1562,-1.7152],[120.1563,-1.7186],[120.1513,-1.7215],[120.1556,-1.7279],[120.1605,-1.7308],[120.1699,-1.7415],[120.1707,-1.7446],[120.1671,-1.7564],[120.1702,-1.7676],[120.177,-1.777],[120.1776,-1.7801],[120.1769,-1.7827],[120.1739,-1.7846],[120.1564,-1.7903]]]}},{"type":"Feature","properties":{"name":"O'o","name_en":"O'o","admin_level":"7","osm_id":""},"geometry":{"type":"Polygon","coordinates":[[[120.0987,-1.5577],[120.1012,-1.5567],[120.1026,-1.5603],[120.1062,-1.5634],[120.1145,-1.5627],[120.1038,-1.5798],[120.0941,-1.5888],[120.0586,-1.5886],[120.0044,-1.5954],[119.9992,-1.5933],[119.9872,-1.5828],[120.0015,-1.5668],[120.0185,-1.5703],[120.0369,-1.572],[120.0383,-1.5707],[120.0363,-1.5625],[120.0488,-1.5577],[120.0611,-1.5558],[120.0713,-1.5643],[120.0795,-1.5666],[120.0852,-1.5654],[120.0987,-1.5577]]]}},{"type":"Feature","properties":{"name":"Palamaki","name_en":"Palamaki","admin_level":"7","osm_id":""},"geometry":{"type":"Polygon","coordinates":[[[120.0109,-1.6094],[120.0103,-1.6141],[120.013,-1.6179],[119.9815,-1.6207],[119.9507,-1.6314],[119.9355,-1.6331],[119.9297,-1.6366],[119.9278,-1.6337],[119.9296,-1.6262],[119.9271,-1.6179],[119.9394,-1.6164],[119.95,-1.6171],[119.9701,-1.6113],[119.9883,-1.6122],[120.0109,-1.6094]]]}},{"type":"Feature","properties":{"name":"PiliMakujawa","name_en":"PiliMakujawa","admin_level":"7","osm_id":""},"geometry":{"type":"Polygon","coordinates":[[[120.1444,-1.6595],[120.1454,-1.6691],[120.1516,-1.6831],[120.1493,-1.6929],[120.1389,-1.6935],[120.13,-1.6898],[120.1123,-1.6938],[120.1004,-1.7002],[120.0917,-1.714],[120.0823,-1.7189],[120.0825,-1.7236],[120.0795,-1.7295],[120.0831,-1.7385],[120.0803,-1.7431],[120.0843,-1.7484],[120.0769,-1.7572],[120.0498,-1.7512],[120.0383,-1.752],[120.0255,-1.7469],[119.9904,-1.7396],[119.9928,-1.7305],[120.0111,-1.722],[120.0232,-1.7126],[120.0322,-1.7013],[120.0371,-1.6908],[120.0363,-1.6885],[120.0438,-1.6908],[120.0473,-1.69],[120.0536,-1.6828],[120.0567,-1.675],[120.0578,-1.6659],[120.0554,-1.6531],[120.0576,-1.6511],[120.0547,-1.6481],[120.0809,-1.6496],[120.1444,-1.6595]]]}},{"type":"Feature","properties":{"name":"Salutome","name_en":"Salutome","admin_level":"7","osm_id":""},"geometry":{"type":"Polygon","coordinates":[[[120.0472,-1.6048],[120.0372,-1.6056],[120.0322,-1.5973],[120.0322,-1.5919],[120.0443,-1.5908],[120.0481,-1.6037],[120.0472,-1.6048]]]}},{"type":"Feature","properties":{"name":"TompiBugis","name_en":"TompiBugis","admin_level":"7","osm_id":""},"geometry":{"type":"Polygon","coordinates":[[[120.1403,-1.5993],[120.1408,-1.6041],[120.145,-1.6103],[120.132,-1.6202],[120.1195,-1.6254],[120.1081,-1.6235],[120.0993,-1.6248],[120.0981,-1.6263],[120.0934,-1.6259],[120.0839,-1.6296],[120.0699,-1.6249],[120.0529,-1.6234],[120.0345,-1.6259],[120.0208,-1.6258],[119.9826,-1.6337],[119.9583,-1.6402],[119.939,-1.6477],[119.9348,-1.6467],[119.9297,-1.6366],[119.9355,-1.6331],[119.9507,-1.6314],[119.9815,-1.6207],[120.0493,-1.6148],[120.0721,-1.6113],[120.0913,-1.6121],[120.1006,-1.6054],[120.1403,-1.5993]]]}},{"type":"Feature","properties":{"name":"Tomua","name_en":"Tomua","admin_level":"7","osm_id":""},"geometry":{"type":"Polygon","coordinates":[[[120.0667,-1.6248],[120.0667,-1.6283],[120.0538,-1.6284],[120.051,-1.63],[120.0448,-1.6375],[120.035,-1.6437],[120.0272,-1.6442],[120.0211,-1.6424],[120.0131,-1.6396],[120.0089,-1.6358],[120.0026,-1.636],[119.9952,-1.639],[119.9889,-1.6501],[119.9966,-1.651],[119.9979,-1.6527],[119.9872,-1.6573],[119.9743,-1.6688],[119.962,-1.6695],[119.9543,-1.6766],[119.9418,-1.6754],[119.9375,-1.6769],[119.9313,-1.663],[119.9242,-1.6594],[119.9255,-1.6525],[119.9288,-1.6491],[119.9348,-1.6467],[119.9406,-1.6472],[119.9583,-1.6402],[119.9826,-1.6337],[120.0208,-1.6258],[120.0371,-1.6256],[120.0468,-1.6233],[120.0667,-1.6248]]]}},{"type":"Feature","properties":{"name":"Wangka","name_en":"Wangka","admin_level":"7","osm_id":""},"geometry":{"type":"Polygon","coordinates":[[[120.0372,-1.6056],[119.9903,-1.6121],[119.9701,-1.6113],[119.95,-1.6171],[119.9394,-1.6164],[119.929,-1.6181],[119.9269,-1.6166],[119.9292,-1.6072],[119.9336,-1.6021],[119.9677,-1.5965],[119.982,-1.5885],[119.9872,-1.5828],[119.9984,-1.5927],[120.0035,-1.5953],[120.0322,-1.5919],[120.0322,-1.5973],[120.0372,-1.6056]]]}},{"type":"Feature","properties":{"name":"Watukilo","name_en":"Watukilo","admin_level":"7","osm_id":""},"geometry":{"type":"Polygon","coordinates":[[[120.1145,-1.5627],[120.1189,-1.5639],[120.1231,-1.5589],[120.1297,-1.5577],[120.1167,-1.5775],[120.1119,-1.5881],[120.1084,-1.5913],[120.0824,-1.6011],[120.0472,-1.6048],[120.0481,-1.6037],[120.0443,-1.5908],[120.0586,-1.5886],[120.096,-1.5883],[120.1085,-1.5737],[120.1145,-1.5627]]]}}]}