{"type":"FeatureCollection","metadata":{"parent_osm_id":"gid_IDN_5_5_12_1","parent_name":"PadangGuciHulu","parent_name_1":"Bengkulu","parent_gid":"IDN.5.5.12_1","parent_level":"6","child_level":"7","count":11,"source":"GADM 4.1","generated":"2026-05-09"},"features":[{"type":"Feature","properties":{"name":"BunginTambunI","name_en":"BunginTambunI","admin_level":"7","osm_id":""},"geometry":{"type":"Polygon","coordinates":[[[103.2451,-4.4802],[103.2473,-4.4783],[103.2485,-4.4799],[103.2468,-4.4818],[103.2451,-4.4802]]]}},{"type":"Feature","properties":{"name":"BunginTambunIi","name_en":"BunginTambunIi","admin_level":"7","osm_id":""},"geometry":{"type":"Polygon","coordinates":[[[103.247,-4.4816],[103.2554,-4.4771],[103.2635,-4.4707],[103.2655,-4.4762],[103.2586,-4.4891],[103.247,-4.4816]]]}},{"type":"Feature","properties":{"name":"BunginTambunIii","name_en":"BunginTambunIii","admin_level":"7","osm_id":""},"geometry":{"type":"Polygon","coordinates":[[[103.2517,-4.2996],[103.2566,-4.2928],[103.2597,-4.2921],[103.2687,-4.2943],[103.2822,-4.2889],[103.2825,-4.2867],[103.28,-4.2833],[103.2883,-4.2641],[103.285,-4.2572],[103.2912,-4.2581],[103.3017,-4.2546],[103.3068,-4.2554],[103.3112,-4.2605],[103.32,-4.2824],[103.3267,-4.2909],[103.3308,-4.2929],[103.3368,-4.3309],[103.3366,-4.3514],[103.3087,-4.3776],[103.2783,-4.4133],[103.2753,-4.4198],[103.2686,-4.4615],[103.2656,-4.4647],[103.2635,-4.4707],[103.2554,-4.4771],[103.2485,-4.4799],[103.2473,-4.4783],[103.2451,-4.4802],[103.2332,-4.4495],[103.2369,-4.4079],[103.2375,-4.3765],[103.2481,-4.3462],[103.2517,-4.2996]]]}},{"type":"Feature","properties":{"name":"CokohBetung","name_en":"CokohBetung","admin_level":"7","osm_id":""},"geometry":{"type":"Polygon","coordinates":[[[103.2452,-4.4977],[103.2337,-4.4998],[103.2319,-4.498],[103.2284,-4.4851],[103.2322,-4.4872],[103.2371,-4.4943],[103.2452,-4.4977]]]}},{"type":"Feature","properties":{"name":"JatiMulyo","name_en":"JatiMulyo","admin_level":"7","osm_id":""},"geometry":{"type":"Polygon","coordinates":[[[103.3382,-4.4083],[103.3282,-4.4093],[103.2999,-4.4253],[103.2874,-4.4402],[103.2847,-4.4533],[103.2872,-4.4627],[103.2801,-4.4651],[103.2655,-4.4762],[103.2636,-4.4693],[103.2697,-4.4584],[103.2753,-4.4198],[103.2783,-4.4133],[103.3087,-4.3776],[103.3366,-4.3514],[103.3368,-4.3309],[103.3308,-4.2929],[103.3425,-4.295],[103.3562,-4.3004],[103.3822,-4.3176],[103.3817,-4.3163],[103.4209,-4.3226],[103.4327,-4.3288],[103.4443,-4.3308],[103.4182,-4.3415],[103.4153,-4.3447],[103.4134,-4.3542],[103.41,-4.3576],[103.3848,-4.3609],[103.3821,-4.3625],[103.3706,-4.3845],[103.3578,-4.3957],[103.3455,-4.3993],[103.3431,-4.4062],[103.3382,-4.4083]]]}},{"type":"Feature","properties":{"name":"ManauSembilanI","name_en":"ManauSembilanI","admin_level":"7","osm_id":""},"geometry":{"type":"Polygon","coordinates":[[[103.1877,-4.3971],[103.1938,-4.397],[103.2007,-4.3926],[103.2019,-4.3878],[103.1991,-4.3814],[103.2043,-4.3749],[103.2018,-4.368],[103.2031,-4.3612],[103.1985,-4.3527],[103.1975,-4.3475],[103.1988,-4.3203],[103.2031,-4.316],[103.2001,-4.3096],[103.2007,-4.3079],[103.2193,-4.307],[103.2247,-4.2974],[103.2289,-4.293],[103.2384,-4.2911],[103.2427,-4.2924],[103.2517,-4.2996],[103.2481,-4.3462],[103.2375,-4.3765],[103.2369,-4.4079],[103.2332,-4.4495],[103.2446,-4.4797],[103.2586,-4.4891],[103.2575,-4.4909],[103.2449,-4.4835],[103.2325,-4.4674],[103.2264,-4.4638],[103.2238,-4.4648],[103.2231,-4.4604],[103.2129,-4.4491],[103.2056,-4.4446],[103.2012,-4.4442],[103.1962,-4.4401],[103.1938,-4.4296],[103.1954,-4.4274],[103.196,-4.4141],[103.1992,-4.4088],[103.1904,-4.4033],[103.1877,-4.3971]]]}},{"type":"Feature","properties":{"name":"ManauSembilanIi","name_en":"ManauSembilanIi","admin_level":"7","osm_id":""},"geometry":{"type":"Polygon","coordinates":[[[103.2253,-4.4672],[103.2238,-4.4648],[103.2264,-4.4638],[103.2325,-4.4674],[103.2449,-4.4835],[103.257,-4.4903],[103.2564,-4.4935],[103.2414,-4.4835],[103.2253,-4.4672]]]}},{"type":"Feature","properties":{"name":"MargoMulyo","name_en":"MargoMulyo","admin_level":"7","osm_id":""},"geometry":{"type":"Polygon","coordinates":[[[103.2872,-4.4628],[103.2847,-4.47],[103.2772,-4.4779],[103.2707,-4.481],[103.2656,-4.4762],[103.2801,-4.4651],[103.2872,-4.4628]]]}},{"type":"Feature","properties":{"name":"NagaRantai","name_en":"NagaRantai","admin_level":"7","osm_id":""},"geometry":{"type":"Polygon","coordinates":[[[103.2531,-4.5018],[103.252,-4.5009],[103.2542,-4.4992],[103.2656,-4.4762],[103.2707,-4.481],[103.2676,-4.4856],[103.268,-4.4902],[103.2755,-4.493],[103.2792,-4.4966],[103.2792,-4.499],[103.2663,-4.5097],[103.2531,-4.5018]]]}},{"type":"Feature","properties":{"name":"PagarAlam","name_en":"PagarAlam","admin_level":"7","osm_id":""},"geometry":{"type":"Polygon","coordinates":[[[103.2278,-4.4794],[103.2253,-4.4672],[103.2414,-4.4835],[103.2553,-4.4919],[103.2564,-4.4935],[103.2542,-4.4992],[103.252,-4.5009],[103.2494,-4.4943],[103.2369,-4.4856],[103.2329,-4.4798],[103.2278,-4.4794]]]}},{"type":"Feature","properties":{"name":"PagarGunung","name_en":"PagarGunung","admin_level":"7","osm_id":""},"geometry":{"type":"Polygon","coordinates":[[[103.2284,-4.4851],[103.2278,-4.4794],[103.2329,-4.4798],[103.2369,-4.4856],[103.2494,-4.4943],[103.252,-4.5014],[103.2435,-4.4962],[103.2371,-4.4943],[103.2322,-4.4872],[103.2284,-4.4851]]]}}]}