{"type":"FeatureCollection","metadata":{"parent_osm_id":"8350713","parent_name":"Genuk","parent_name_1":"JawaTengah","parent_gid":"IDN.10.17.5_1","parent_level":"6","child_level":"7","count":13,"source":"GADM 4.1","generated":"2026-05-09"},"features":[{"type":"Feature","properties":{"name":"BangetayuKulon","name_en":"BangetayuKulon","admin_level":"7","osm_id":""},"geometry":{"type":"Polygon","coordinates":[[[110.4813,-6.9773],[110.4802,-6.9817],[110.4753,-6.9836],[110.4624,-6.9724],[110.4631,-6.9694],[110.4751,-6.9703],[110.4789,-6.9725],[110.4788,-6.9747],[110.482,-6.9753],[110.4813,-6.9773]]]}},{"type":"Feature","properties":{"name":"BangetayuWetan","name_en":"BangetayuWetan","admin_level":"7","osm_id":""},"geometry":{"type":"Polygon","coordinates":[[[110.4972,-6.995],[110.4955,-6.9989],[110.4932,-6.9999],[110.4753,-6.9836],[110.4802,-6.9817],[110.4813,-6.9773],[110.4864,-6.9784],[110.4859,-6.9809],[110.4896,-6.9835],[110.4915,-6.9879],[110.4948,-6.989],[110.4954,-6.9943],[110.4972,-6.995]]]}},{"type":"Feature","properties":{"name":"Banjardowo","name_en":"Banjardowo","admin_level":"7","osm_id":""},"geometry":{"type":"Polygon","coordinates":[[[110.4888,-6.9487],[110.4922,-6.9475],[110.4896,-6.9563],[110.4901,-6.9723],[110.482,-6.969],[110.4792,-6.9634],[110.4808,-6.9517],[110.4888,-6.9487]]]}},{"type":"Feature","properties":{"name":"Gebangsari","name_en":"Gebangsari","admin_level":"7","osm_id":""},"geometry":{"type":"Polygon","coordinates":[[[110.4697,-6.9695],[110.4628,-6.9694],[110.4616,-6.9564],[110.4691,-6.9555],[110.4697,-6.9695]]]}},{"type":"Feature","properties":{"name":"Genuksari","name_en":"Genuksari","admin_level":"7","osm_id":""},"geometry":{"type":"Polygon","coordinates":[[[110.482,-6.9753],[110.4788,-6.9747],[110.4789,-6.9725],[110.4751,-6.9703],[110.4697,-6.9695],[110.4691,-6.9555],[110.4808,-6.9517],[110.4792,-6.9634],[110.4823,-6.9692],[110.482,-6.9753]]]}},{"type":"Feature","properties":{"name":"Karangroto","name_en":"Karangroto","admin_level":"7","osm_id":""},"geometry":{"type":"Polygon","coordinates":[[[110.5018,-6.9547],[110.4978,-6.9628],[110.498,-6.9747],[110.4901,-6.9723],[110.4897,-6.9557],[110.501,-6.9526],[110.5018,-6.9547]]]}},{"type":"Feature","properties":{"name":"Kudu","name_en":"Kudu","admin_level":"7","osm_id":""},"geometry":{"type":"Polygon","coordinates":[[[110.5053,-6.9759],[110.5044,-6.9778],[110.498,-6.9747],[110.4972,-6.9711],[110.4989,-6.9586],[110.502,-6.9558],[110.5028,-6.9589],[110.5012,-6.9638],[110.5029,-6.969],[110.5049,-6.9704],[110.5053,-6.9759]]]}},{"type":"Feature","properties":{"name":"MuktiharjoLor","name_en":"MuktiharjoLor","admin_level":"7","osm_id":""},"geometry":{"type":"Polygon","coordinates":[[[110.4518,-6.9626],[110.4475,-6.9583],[110.4616,-6.9564],[110.4634,-6.9701],[110.4625,-6.9723],[110.4518,-6.9626]]]}},{"type":"Feature","properties":{"name":"PenggaronLor","name_en":"PenggaronLor","admin_level":"7","osm_id":""},"geometry":{"type":"Polygon","coordinates":[[[110.4979,-6.9943],[110.4954,-6.9943],[110.4942,-6.9912],[110.498,-6.9747],[110.5044,-6.9778],[110.5021,-6.9793],[110.5013,-6.985],[110.503,-6.9859],[110.5017,-6.9928],[110.4996,-6.9922],[110.4979,-6.9943]]]}},{"type":"Feature","properties":{"name":"Sembungharjo","name_en":"Sembungharjo","admin_level":"7","osm_id":""},"geometry":{"type":"Polygon","coordinates":[[[110.4813,-6.9773],[110.4823,-6.9692],[110.498,-6.9747],[110.4948,-6.989],[110.4915,-6.9879],[110.4896,-6.9835],[110.4859,-6.9809],[110.4864,-6.9784],[110.4813,-6.9773]]]}},{"type":"Feature","properties":{"name":"TerboyoKulon","name_en":"TerboyoKulon","admin_level":"7","osm_id":""},"geometry":{"type":"Polygon","coordinates":[[[110.4522,-6.9572],[110.451,-6.9523],[110.4454,-6.9493],[110.4417,-6.95],[110.4474,-6.9358],[110.4558,-6.9482],[110.4608,-6.9511],[110.4594,-6.952],[110.4637,-6.9532],[110.4635,-6.9561],[110.4522,-6.9572]]]}},{"type":"Feature","properties":{"name":"TerboyoWetan","name_en":"TerboyoWetan","admin_level":"7","osm_id":""},"geometry":{"type":"Polygon","coordinates":[[[110.4691,-6.9555],[110.4635,-6.9561],[110.4637,-6.9532],[110.4594,-6.952],[110.4608,-6.9511],[110.4558,-6.9482],[110.4487,-6.9375],[110.4567,-6.9353],[110.4637,-6.9446],[110.4712,-6.9487],[110.4714,-6.9551],[110.4691,-6.9555]]]}},{"type":"Feature","properties":{"name":"Trimulyo","name_en":"Trimulyo","admin_level":"7","osm_id":""},"geometry":{"type":"Polygon","coordinates":[[[110.4892,-6.947],[110.4888,-6.9487],[110.4714,-6.9551],[110.4711,-6.9486],[110.4637,-6.9446],[110.4567,-6.9353],[110.4632,-6.9315],[110.4734,-6.9421],[110.4892,-6.947]]]}}]}