{"type":"FeatureCollection","metadata":{"parent_osm_id":"gid_IDN_34_6_10_1","parent_name":"MuaraKaman","parent_name_1":"KalimantanTimur","parent_gid":"IDN.34.6.10_1","parent_level":"6","child_level":"7","count":19,"source":"GADM 4.1","generated":"2026-05-08"},"features":[{"type":"Feature","properties":{"name":"BenuaPuhun","name_en":"BenuaPuhun","admin_level":"7","osm_id":""},"geometry":{"type":"Polygon","coordinates":[[[116.7523,-0.2832],[116.7267,-0.2601],[116.727,-0.2572],[116.7312,-0.2537],[116.7355,-0.2429],[116.7465,-0.24],[116.7618,-0.2419],[116.7683,-0.2358],[116.7718,-0.235],[116.7792,-0.2411],[116.7879,-0.2432],[116.791,-0.2469],[116.7912,-0.2506],[116.7937,-0.2516],[116.7957,-0.25],[116.7987,-0.2411],[116.8007,-0.2403],[116.8066,-0.2422],[116.8113,-0.2476],[116.8137,-0.2571],[116.8198,-0.2674],[116.8208,-0.2739],[116.8196,-0.2868],[116.8213,-0.2863],[116.8227,-0.2967],[116.8185,-0.2952],[116.8148,-0.2961],[116.8067,-0.3062],[116.7789,-0.2896],[116.7637,-0.2881],[116.7523,-0.2832]]]}},{"type":"Feature","properties":{"name":"BukitJering","name_en":"BukitJering","admin_level":"7","osm_id":""},"geometry":{"type":"Polygon","coordinates":[[[116.6703,-0.21],[116.6169,-0.1661],[116.6411,-0.149],[116.6616,-0.1384],[116.6684,-0.1329],[116.674,-0.1251],[116.6812,-0.1095],[116.704,-0.1417],[116.711,-0.1559],[116.7139,-0.1578],[116.7086,-0.1626],[116.7103,-0.1734],[116.7011,-0.1784],[116.6886,-0.1826],[116.6819,-0.1884],[116.6694,-0.2001],[116.6719,-0.2084],[116.6703,-0.21]]]}},{"type":"Feature","properties":{"name":"BungaJadi","name_en":"BungaJadi","admin_level":"7","osm_id":""},"geometry":{"type":"Polygon","coordinates":[[[116.8387,-0.1852],[116.8353,-0.1673],[116.8285,-0.1534],[116.8328,-0.1551],[116.8419,-0.1667],[116.8519,-0.1734],[116.8711,-0.1792],[116.8869,-0.1784],[116.9236,-0.1884],[116.9371,-0.1904],[116.9404,-0.1986],[116.9404,-0.2033],[116.9289,-0.2159],[116.9136,-0.2168],[116.8544,-0.2093],[116.843,-0.2064],[116.8387,-0.1852]]]}},{"type":"Feature","properties":{"name":"KupangBaru","name_en":"KupangBaru","admin_level":"7","osm_id":""},"geometry":{"type":"Polygon","coordinates":[[[116.4998,0.006],[116.4991,0.0119],[116.4955,0.0201],[116.4962,0.0237],[116.563,0.0238],[116.6034,0.0201],[116.6232,0.0207],[116.6389,0.018],[116.6846,0.0178],[116.7152,0.0161],[116.7192,0.0164],[116.7327,0.0234],[116.7338,0.0124],[116.7306,-0.0031],[116.7142,-0.0357],[116.6889,-0.0362],[116.6147,-0.0245],[116.5361,-0.0047],[116.4998,0.006]]]}},{"type":"Feature","properties":{"name":"LebahoUlaq","name_en":"LebahoUlaq","admin_level":"7","osm_id":""},"geometry":{"type":"Polygon","coordinates":[[[116.7574,-0.3844],[116.75,-0.385],[116.737,-0.3805],[116.7313,-0.3734],[116.7325,-0.3681],[116.7312,-0.3652],[116.7427,-0.3479],[116.75,-0.3468],[116.7719,-0.334],[116.7764,-0.3162],[116.7789,-0.29],[116.7867,-0.2953],[116.7953,-0.2982],[116.7971,-0.3008],[116.8067,-0.3062],[116.7939,-0.331],[116.7841,-0.3608],[116.7753,-0.371],[116.7627,-0.3817],[116.7574,-0.3844]]]}},{"type":"Feature","properties":{"name":"LiangBuaya","name_en":"LiangBuaya","admin_level":"7","osm_id":""},"geometry":{"type":"Polygon","coordinates":[[[116.8855,0.0884],[116.8617,0.0831],[116.8141,0.0814],[116.7777,0.0836],[116.7631,0.0826],[116.7387,0.0848],[116.7383,0.0882],[116.7392,0.0946],[116.7499,0.104],[116.7527,0.1089],[116.7963,0.1601],[116.8046,0.142],[116.8077,0.1215],[116.8139,0.1153],[116.8324,0.1116],[116.8646,0.0937],[116.8727,0.0906],[116.8855,0.0884]]]}},{"type":"Feature","properties":{"name":"MenamangKanan","name_en":"MenamangKanan","admin_level":"7","osm_id":""},"geometry":{"type":"Polygon","coordinates":[[[116.8502,0.128],[116.8509,0.1299],[116.8595,0.1335],[116.8686,0.1409],[116.8729,0.1409],[116.879,0.1476],[116.8765,0.1634],[116.879,0.1701],[116.879,0.1756],[116.8814,0.1787],[116.8857,0.1817],[116.907,0.1847],[116.9119,0.1933],[116.9235,0.2018],[116.9399,0.2262],[116.9485,0.2359],[116.9533,0.2506],[116.9539,0.2719],[116.957,0.278],[116.9631,0.2823],[116.9698,0.2945],[116.9838,0.3073],[116.9978,0.3231],[117.0015,0.3457],[117.0003,0.3652],[116.9978,0.3713],[116.993,0.3725],[116.9905,0.3822],[116.9917,0.392],[116.9942,0.395],[117.0003,0.3975],[117.0015,0.4042],[116.9972,0.409],[116.996,0.4133],[116.9991,0.4182],[117.0064,0.4231],[117.0088,0.4389],[117.0125,0.4438],[117.0125,0.4462],[117.0058,0.445],[116.9887,0.4468],[116.9759,0.4523],[116.9698,0.4523],[116.9613,0.4578],[116.9437,0.4577],[116.9388,0.4668],[116.9355,0.4662],[116.9299,0.4837],[116.9312,0.492],[116.9397,0.5032],[116.9471,0.5211],[116.9346,0.5603],[116.9507,0.5965],[116.9779,0.6146],[116.9922,0.6137],[117.0078,0.5805],[117.0408,0.5012],[117.0825,0.448],[117.116,0.413],[117.1511,0.3641],[117.1703,0.3434],[117.1804,0.3232],[117.1837,0.2841],[117.1618,0.1968],[117.1548,0.188],[117.1531,0.1787],[117.1455,0.1729],[117.1374,0.1693],[117.1283,0.1696],[117.1233,0.1683],[117.1182,0.1614],[117.1127,0.1575],[117.0888,0.1485],[117.0724,0.1459],[117.0413,0.1457],[117.0189,0.1476],[117.0067,0.1524],[116.9814,0.1669],[116.9674,0.1714],[116.9565,0.1729],[116.9441,0.1701],[116.9251,0.1599],[116.9142,0.1518],[116.8991,0.1351],[116.8924,0.1312],[116.884,0.1289],[116.8502,0.128]]]}},{"type":"Feature","properties":{"name":"MenamangKiri","name_en":"MenamangKiri","admin_level":"7","osm_id":""},"geometry":{"type":"Polygon","coordinates":[[[116.9355,0.4662],[116.9388,0.4668],[116.9437,0.4577],[116.9613,0.4578],[116.9698,0.4523],[116.9759,0.4523],[116.9887,0.4468],[117.0058,0.445],[117.0125,0.4462],[117.0125,0.4438],[117.0088,0.4389],[117.0064,0.4231],[116.9991,0.4182],[116.996,0.4133],[116.9972,0.409],[117.0015,0.4042],[117.0003,0.3975],[116.9942,0.395],[116.9917,0.392],[116.9905,0.3822],[116.993,0.3725],[116.9978,0.3713],[117.0003,0.3652],[117.0015,0.3457],[116.9978,0.3231],[116.9838,0.3073],[116.9698,0.2945],[116.9631,0.2823],[116.957,0.278],[116.9539,0.2719],[116.9533,0.2506],[116.9485,0.2359],[116.9399,0.2262],[116.9235,0.2018],[116.9119,0.1933],[116.907,0.1847],[116.8857,0.1817],[116.8814,0.1787],[116.879,0.1756],[116.879,0.1701],[116.8765,0.1634],[116.879,0.1476],[116.8729,0.1409],[116.8686,0.1409],[116.8595,0.1335],[116.8509,0.1299],[116.85,0.1275],[116.8381,0.1384],[116.8325,0.1519],[116.828,0.1696],[116.8298,0.1993],[116.8596,0.2369],[116.8767,0.2656],[116.8812,0.2688],[116.8878,0.2784],[116.8959,0.2947],[116.9221,0.331],[116.9441,0.3752],[116.9467,0.4055],[116.944,0.4359],[116.9393,0.4585],[116.9355,0.4662]]]}},{"type":"Feature","properties":{"name":"MuaraKamanIlir","name_en":"MuaraKamanIlir","admin_level":"7","osm_id":""},"geometry":{"type":"Polygon","coordinates":[[[116.6755,-0.2144],[116.6703,-0.21],[116.6719,-0.2084],[116.6694,-0.2001],[116.6886,-0.1826],[116.7011,-0.1784],[116.7103,-0.1734],[116.7086,-0.1626],[116.7139,-0.1578],[116.7244,-0.1554],[116.74,-0.155],[116.7441,-0.1513],[116.7928,-0.1651],[116.8253,-0.1776],[116.8319,-0.1826],[116.8386,-0.1851],[116.8061,-0.1917],[116.7711,-0.2018],[116.7458,-0.2028],[116.7097,-0.2238],[116.7065,-0.2311],[116.7063,-0.2355],[116.7034,-0.2381],[116.6755,-0.2144]]]}},{"type":"Feature","properties":{"name":"MuaraKamanUlu","name_en":"MuaraKamanUlu","admin_level":"7","osm_id":""},"geometry":{"type":"Polygon","coordinates":[[[116.7139,-0.1578],[116.711,-0.1559],[116.704,-0.1417],[116.6812,-0.1095],[116.6877,-0.088],[116.6888,-0.088],[116.6995,-0.0653],[116.7205,-0.0653],[116.7384,-0.0628],[116.748,-0.0588],[116.7484,-0.0668],[116.7456,-0.0793],[116.7386,-0.0912],[116.7368,-0.0984],[116.7447,-0.1498],[116.74,-0.155],[116.7244,-0.1554],[116.7139,-0.1578]]]}},{"type":"Feature","properties":{"name":"MuaraSiran","name_en":"MuaraSiran","admin_level":"7","osm_id":""},"geometry":{"type":"Polygon","coordinates":[[[116.5565,-0.1213],[116.5277,-0.0945],[116.4952,-0.0561],[116.4896,-0.0389],[116.4878,-0.0201],[116.489,-0.0102],[116.4998,0.006],[116.5361,-0.0047],[116.6147,-0.0245],[116.6889,-0.0362],[116.7142,-0.0357],[116.7058,-0.0497],[116.7012,-0.0626],[116.6888,-0.088],[116.6877,-0.088],[116.6811,-0.1098],[116.6711,-0.1297],[116.6616,-0.1384],[116.6411,-0.149],[116.6169,-0.1661],[116.5565,-0.1213]]]}},{"type":"Feature","properties":{"name":"PancaJaya","name_en":"PancaJaya","admin_level":"7","osm_id":""},"geometry":{"type":"Polygon","coordinates":[[[116.9371,-0.1904],[116.9236,-0.1884],[116.8869,-0.1784],[116.8711,-0.1792],[116.8519,-0.1734],[116.8419,-0.1667],[116.8328,-0.1551],[116.8285,-0.1534],[116.8251,-0.1491],[116.8174,-0.1467],[116.8417,-0.1343],[116.8604,-0.1575],[116.8631,-0.1583],[116.8745,-0.1533],[116.8832,-0.1442],[116.8901,-0.1409],[116.9004,-0.1478],[116.9143,-0.154],[116.9229,-0.1603],[116.934,-0.164],[116.9375,-0.176],[116.9371,-0.1904]]]}},{"type":"Feature","properties":{"name":"PuanCepak","name_en":"PuanCepak","admin_level":"7","osm_id":""},"geometry":{"type":"Polygon","coordinates":[[[117.1498,0.0982],[117.1445,0.0749],[117.0998,0.0127],[117.0911,0.0032],[117.0884,-0.0106],[117.0785,-0.0234],[117.0743,-0.0361],[117.0345,-0.0409],[116.992,-0.0492],[116.9436,-0.0609],[116.9136,-0.0651],[116.8953,-0.0642],[116.8694,-0.0659],[116.8494,-0.0642],[116.8344,-0.0659],[116.8236,-0.0709],[116.8161,-0.077],[116.8108,-0.0739],[116.8025,-0.058],[116.7983,-0.0455],[116.7958,-0.0255],[116.8017,-0.0152],[116.808,0.0088],[116.8095,0.0303],[116.8081,0.0472],[116.8292,0.0756],[116.8413,0.0826],[116.8718,0.0848],[116.8969,0.0927],[117.0612,0.0942],[117.0838,0.098],[117.1086,0.0957],[117.1498,0.0982]]]}},{"type":"Feature","properties":{"name":"RantauHempang","name_en":"RantauHempang","admin_level":"7","osm_id":""},"geometry":{"type":"Polygon","coordinates":[[[116.7267,-0.2601],[116.7176,-0.25],[116.7034,-0.2381],[116.7063,-0.2355],[116.7065,-0.2311],[116.7097,-0.2238],[116.7458,-0.2028],[116.7711,-0.2018],[116.8061,-0.1917],[116.8387,-0.1852],[116.847,-0.2221],[116.8534,-0.2391],[116.8529,-0.2463],[116.85,-0.2514],[116.8251,-0.2578],[116.8144,-0.2579],[116.812,-0.2486],[116.8066,-0.2422],[116.799,-0.2408],[116.7957,-0.25],[116.7927,-0.2515],[116.7879,-0.2432],[116.78,-0.2416],[116.7742,-0.2361],[116.7707,-0.2349],[116.7618,-0.2419],[116.7465,-0.24],[116.7355,-0.2429],[116.7312,-0.2537],[116.727,-0.2572],[116.7267,-0.2601]]]}},{"type":"Feature","properties":{"name":"Sabintulung","name_en":"Sabintulung","admin_level":"7","osm_id":""},"geometry":{"type":"Polygon","coordinates":[[[116.8285,-0.1534],[116.8353,-0.1673],[116.8387,-0.1852],[116.8319,-0.1826],[116.8253,-0.1776],[116.7928,-0.1651],[116.7441,-0.1513],[116.745,-0.148],[116.7368,-0.0984],[116.7386,-0.0912],[116.7456,-0.0793],[116.7484,-0.0668],[116.7475,-0.0568],[116.7877,-0.0335],[116.7958,-0.0255],[116.7983,-0.0455],[116.8025,-0.058],[116.8108,-0.0739],[116.8192,-0.0789],[116.8308,-0.0797],[116.835,-0.0956],[116.825,-0.0964],[116.8225,-0.1115],[116.824,-0.1116],[116.8289,-0.1268],[116.8417,-0.1343],[116.8174,-0.1467],[116.823,-0.1478],[116.8285,-0.1534]]]}},{"type":"Feature","properties":{"name":"Sedulang","name_en":"Sedulang","admin_level":"7","osm_id":""},"geometry":{"type":"Polygon","coordinates":[[[117.1498,0.135],[117.15,0.1122],[117.1515,0.1065],[117.1498,0.0982],[117.1086,0.0957],[117.0838,0.098],[117.0612,0.0942],[116.8969,0.0927],[116.8885,0.0906],[116.8855,0.0884],[116.8727,0.0906],[116.8646,0.0937],[116.8324,0.1116],[116.8139,0.1153],[116.8077,0.1215],[116.8046,0.142],[116.7963,0.1601],[116.8183,0.1841],[116.8298,0.1993],[116.828,0.1696],[116.8325,0.1519],[116.8381,0.1384],[116.85,0.1275],[116.884,0.1289],[116.8924,0.1312],[116.8991,0.1351],[116.9142,0.1518],[116.9251,0.1599],[116.9441,0.1701],[116.9534,0.1726],[116.9674,0.1714],[116.9814,0.1669],[117.0067,0.1524],[117.0189,0.1476],[117.0413,0.1457],[117.0724,0.1459],[117.0888,0.1485],[117.111,0.1567],[117.1182,0.1614],[117.1233,0.1683],[117.1401,0.17],[117.1531,0.1787],[117.1478,0.1436],[117.1498,0.135]]]}},{"type":"Feature","properties":{"name":"SidoMukti","name_en":"SidoMukti","admin_level":"7","osm_id":""},"geometry":{"type":"Polygon","coordinates":[[[117.0743,-0.0361],[117.0718,-0.0553],[117.0685,-0.062],[117.0585,-0.0744],[117.06,-0.0835],[117.058,-0.0925],[117.0526,-0.1047],[117.0428,-0.1156],[117.0269,-0.1262],[117.0153,-0.1388],[117.0064,-0.1433],[116.9818,-0.1425],[116.9563,-0.1383],[116.9436,-0.1396],[116.9366,-0.1437],[116.9331,-0.1486],[116.9332,-0.1642],[116.9229,-0.1603],[116.9143,-0.154],[116.9004,-0.1478],[116.8901,-0.1409],[116.8832,-0.1442],[116.8745,-0.1533],[116.8631,-0.1583],[116.8604,-0.1575],[116.8392,-0.1317],[116.8289,-0.1268],[116.824,-0.1116],[116.8225,-0.1115],[116.825,-0.0964],[116.835,-0.0956],[116.8308,-0.0797],[116.8192,-0.0789],[116.8161,-0.077],[116.8236,-0.0709],[116.8344,-0.0659],[116.8494,-0.0642],[116.8694,-0.0659],[116.8953,-0.0642],[116.9136,-0.0651],[116.9436,-0.0609],[116.992,-0.0492],[117.0345,-0.0409],[117.0743,-0.0361]]]}},{"type":"Feature","properties":{"name":"Teratak","name_en":"Teratak","admin_level":"7","osm_id":""},"geometry":{"type":"Polygon","coordinates":[[[116.822,-0.2939],[116.8213,-0.2863],[116.8196,-0.2868],[116.8205,-0.2701],[116.8145,-0.2579],[116.8251,-0.2578],[116.8482,-0.2523],[116.8511,-0.2504],[116.8534,-0.2446],[116.8534,-0.2391],[116.8489,-0.229],[116.843,-0.2064],[116.8544,-0.2093],[116.9136,-0.2168],[116.9289,-0.2159],[116.907,-0.2344],[116.9024,-0.2418],[116.894,-0.25],[116.8655,-0.2687],[116.839,-0.2956],[116.8339,-0.2975],[116.8236,-0.297],[116.822,-0.2939]]]}},{"type":"Feature","properties":{"name":"Tunjungan","name_en":"Tunjungan","admin_level":"7","osm_id":""},"geometry":{"type":"Polygon","coordinates":[[[116.7142,-0.0357],[116.7306,-0.0031],[116.7337,0.007],[116.7327,0.0234],[116.7383,0.0296],[116.74,0.0339],[116.7417,0.0442],[116.7387,0.0848],[116.7631,0.0826],[116.7777,0.0836],[116.8141,0.0814],[116.8413,0.0826],[116.8292,0.0756],[116.8081,0.0472],[116.8095,0.0303],[116.8068,0.0024],[116.7992,-0.021],[116.7898,-0.032],[116.7475,-0.0568],[116.748,-0.0588],[116.7433,-0.0616],[116.7205,-0.0653],[116.6995,-0.0653],[116.7058,-0.0497],[116.7142,-0.0357]]]}}]}