{"type":"FeatureCollection","metadata":{"parent_osm_id":"9534807","parent_name":"Tapos","parent_name_1":"JawaBarat","parent_gid":"IDN.9.10.11_1","parent_level":"6","child_level":"7","count":7,"source":"GADM 4.1","generated":"2026-05-09"},"features":[{"type":"Feature","properties":{"name":"Cilangkap","name_en":"Cilangkap","admin_level":"7","osm_id":""},"geometry":{"type":"Polygon","coordinates":[[[106.8627,-6.4559],[106.8557,-6.4563],[106.8534,-6.4498],[106.8524,-6.4368],[106.8549,-6.4341],[106.8567,-6.4282],[106.8627,-6.4288],[106.8703,-6.4171],[106.8767,-6.4187],[106.8791,-6.4177],[106.8829,-6.4053],[106.8885,-6.4045],[106.8872,-6.4108],[106.8819,-6.4165],[106.8815,-6.4218],[106.877,-6.4255],[106.8755,-6.4327],[106.8715,-6.4349],[106.8691,-6.4378],[106.8692,-6.4407],[106.8669,-6.4411],[106.8632,-6.4467],[106.8627,-6.4559]]]}},{"type":"Feature","properties":{"name":"Cimpaeun","name_en":"Cimpaeun","admin_level":"7","osm_id":""},"geometry":{"type":"Polygon","coordinates":[[[106.8762,-6.4582],[106.875,-6.4559],[106.8628,-6.456],[106.8621,-6.4517],[106.8632,-6.4467],[106.8669,-6.4411],[106.8692,-6.4407],[106.8691,-6.4378],[106.8715,-6.4349],[106.8741,-6.4335],[106.8795,-6.4342],[106.878,-6.4374],[106.8812,-6.4366],[106.8859,-6.4391],[106.8855,-6.4408],[106.8873,-6.4406],[106.887,-6.443],[106.885,-6.4424],[106.8853,-6.4454],[106.8825,-6.4437],[106.8822,-6.4467],[106.8834,-6.4466],[106.8838,-6.4487],[106.8809,-6.4483],[106.883,-6.45],[106.882,-6.4541],[106.8788,-6.4535],[106.8821,-6.4565],[106.8802,-6.4562],[106.8788,-6.4586],[106.8785,-6.4573],[106.8762,-6.4582]]]}},{"type":"Feature","properties":{"name":"Jatijajar","name_en":"Jatijajar","admin_level":"7","osm_id":""},"geometry":{"type":"Polygon","coordinates":[[[106.8567,-6.4282],[106.857,-6.4218],[106.862,-6.4057],[106.8684,-6.4059],[106.8675,-6.4087],[106.8719,-6.4049],[106.874,-6.4093],[106.8718,-6.4128],[106.8719,-6.4168],[106.8696,-6.4177],[106.8627,-6.4288],[106.8567,-6.4282]]]}},{"type":"Feature","properties":{"name":"Leuwinanggung","name_en":"Leuwinanggung","admin_level":"7","osm_id":""},"geometry":{"type":"Polygon","coordinates":[[[106.9156,-6.4126],[106.9144,-6.415],[106.9145,-6.4128],[106.9129,-6.4119],[106.9105,-6.4135],[106.9086,-6.4116],[106.908,-6.4152],[106.9052,-6.4127],[106.9061,-6.4156],[106.9041,-6.419],[106.9032,-6.418],[106.9005,-6.4191],[106.9003,-6.4206],[106.899,-6.4198],[106.899,-6.4262],[106.8969,-6.4262],[106.8927,-6.422],[106.9,-6.412],[106.8993,-6.3978],[106.9054,-6.3945],[106.9188,-6.3956],[106.9161,-6.3997],[106.9182,-6.4004],[106.916,-6.4013],[106.9171,-6.4037],[106.9158,-6.4049],[106.9172,-6.4056],[106.9151,-6.4066],[106.9172,-6.4088],[106.9156,-6.4126]]]}},{"type":"Feature","properties":{"name":"SukamajuBaru","name_en":"SukamajuBaru","admin_level":"7","osm_id":""},"geometry":{"type":"Polygon","coordinates":[[[106.862,-6.4057],[106.8615,-6.4018],[106.8636,-6.3987],[106.8703,-6.3982],[106.8735,-6.3961],[106.8801,-6.4022],[106.887,-6.4025],[106.8888,-6.4044],[106.8829,-6.4053],[106.8802,-6.4124],[106.8808,-6.4143],[106.8793,-6.415],[106.8791,-6.4177],[106.8767,-6.4187],[106.8719,-6.4168],[106.8718,-6.4128],[106.874,-6.4093],[106.872,-6.405],[106.8675,-6.4087],[106.8684,-6.4059],[106.862,-6.4057]]]}},{"type":"Feature","properties":{"name":"Sukatani","name_en":"Sukatani","admin_level":"7","osm_id":""},"geometry":{"type":"Polygon","coordinates":[[[106.8735,-6.3961],[106.8739,-6.387],[106.8793,-6.3856],[106.8799,-6.3841],[106.8891,-6.3859],[106.8948,-6.389],[106.901,-6.3881],[106.9041,-6.3892],[106.9028,-6.3939],[106.8983,-6.3945],[106.8982,-6.3972],[106.8922,-6.4004],[106.8905,-6.4045],[106.8863,-6.4023],[106.8801,-6.4022],[106.8735,-6.3961]]]}},{"type":"Feature","properties":{"name":"Tapos","name_en":"Tapos","admin_level":"7","osm_id":""},"geometry":{"type":"Polygon","coordinates":[[[106.8956,-6.4252],[106.8943,-6.4252],[106.8951,-6.428],[106.8929,-6.4265],[106.8918,-6.4275],[106.8928,-6.4283],[106.8902,-6.4323],[106.8915,-6.4342],[106.888,-6.4349],[106.8859,-6.4391],[106.8812,-6.4366],[106.8785,-6.4378],[106.8795,-6.4342],[106.875,-6.4335],[106.877,-6.4255],[106.8824,-6.42],[106.8821,-6.4161],[106.8876,-6.4101],[106.8872,-6.4059],[106.8916,-6.404],[106.8922,-6.4004],[106.8967,-6.397],[106.8993,-6.3978],[106.9005,-6.407],[106.8991,-6.4137],[106.8927,-6.422],[106.8956,-6.4252]]]}}]}