{"type":"FeatureCollection","metadata":{"parent_osm_id":"14429645","parent_name":"Bugulkidul","parent_name_1":"JawaTimur","parent_gid":"IDN.11.16.1_1","parent_level":"6","child_level":"7","count":13,"source":"GADM 4.1","generated":"2026-05-09"},"features":[{"type":"Feature","properties":{"name":"Bakalan","name_en":"Bakalan","admin_level":"7","osm_id":""},"geometry":{"type":"Polygon","coordinates":[[[112.9135,-7.6652],[112.915,-7.6658],[112.9143,-7.6675],[112.9186,-7.6691],[112.9196,-7.666],[112.9276,-7.6685],[112.9227,-7.676],[112.9185,-7.674],[112.9171,-7.6787],[112.9152,-7.6779],[112.9141,-7.6795],[112.9083,-7.6758],[112.9102,-7.6713],[112.9088,-7.6705],[112.9105,-7.665],[112.9135,-7.6652]]]}},{"type":"Feature","properties":{"name":"Blandongan","name_en":"Blandongan","admin_level":"7","osm_id":""},"geometry":{"type":"Polygon","coordinates":[[[112.9276,-7.6685],[112.9196,-7.666],[112.9186,-7.6691],[112.9143,-7.6675],[112.915,-7.6658],[112.9136,-7.6646],[112.9155,-7.6609],[112.9203,-7.6619],[112.922,-7.659],[112.9239,-7.6589],[112.9253,-7.6551],[112.9272,-7.657],[112.9292,-7.6565],[112.9349,-7.6511],[112.9414,-7.641],[112.9425,-7.6368],[112.9446,-7.6368],[112.9414,-7.63],[112.9426,-7.6267],[112.9471,-7.6239],[112.9482,-7.6207],[112.952,-7.6239],[112.9522,-7.6319],[112.9467,-7.6389],[112.9464,-7.644],[112.9439,-7.6485],[112.9455,-7.6514],[112.937,-7.6543],[112.938,-7.6604],[112.932,-7.6687],[112.9286,-7.6672],[112.9276,-7.6685]]]}},{"type":"Feature","properties":{"name":"BugulKidul","name_en":"BugulKidul","admin_level":"7","osm_id":""},"geometry":{"type":"Polygon","coordinates":[[[112.9135,-7.6455],[112.9187,-7.6486],[112.9162,-7.6533],[112.9192,-7.6546],[112.9154,-7.6607],[112.9096,-7.6599],[112.9109,-7.657],[112.9101,-7.653],[112.9135,-7.6455]]]}},{"type":"Feature","properties":{"name":"BugulLor","name_en":"BugulLor","admin_level":"7","osm_id":""},"geometry":{"type":"Polygon","coordinates":[[[112.9187,-7.6486],[112.9125,-7.6445],[112.9164,-7.6369],[112.9186,-7.6384],[112.9201,-7.6372],[112.9208,-7.6404],[112.9247,-7.6414],[112.9197,-7.649],[112.9187,-7.6486]]]}},{"type":"Feature","properties":{"name":"Kandangsapi","name_en":"Kandangsapi","admin_level":"7","osm_id":""},"geometry":{"type":"Polygon","coordinates":[[[112.9135,-7.6405],[112.9148,-7.6411],[112.9125,-7.6445],[112.9088,-7.6429],[112.9097,-7.6411],[112.9135,-7.6405]]]}},{"type":"Feature","properties":{"name":"Kepel","name_en":"Kepel","admin_level":"7","osm_id":""},"geometry":{"type":"Polygon","coordinates":[[[112.9466,-7.6244],[112.9426,-7.6267],[112.9414,-7.6301],[112.9446,-7.6368],[112.9425,-7.6368],[112.9414,-7.641],[112.9348,-7.6512],[112.9292,-7.6565],[112.9272,-7.657],[112.9253,-7.6551],[112.9239,-7.6589],[112.922,-7.659],[112.9203,-7.6619],[112.9145,-7.6608],[112.9166,-7.6577],[112.918,-7.6581],[112.9202,-7.652],[112.9229,-7.6529],[112.9258,-7.6472],[112.9293,-7.6445],[112.9291,-7.6413],[112.9368,-7.6303],[112.9372,-7.6254],[112.9466,-7.6244]]]}},{"type":"Feature","properties":{"name":"Krampyangan","name_en":"Krampyangan","admin_level":"7","osm_id":""},"geometry":{"type":"Polygon","coordinates":[[[112.9135,-7.6652],[112.9105,-7.665],[112.9098,-7.6678],[112.9053,-7.6661],[112.9074,-7.6611],[112.9113,-7.6592],[112.9155,-7.6609],[112.9135,-7.6652]]]}},{"type":"Feature","properties":{"name":"Mandaranrejo","name_en":"Mandaranrejo","admin_level":"7","osm_id":""},"geometry":{"type":"Polygon","coordinates":[[[112.9213,-7.6385],[112.9164,-7.6369],[112.9135,-7.6405],[112.9123,-7.64],[112.9188,-7.6286],[112.9187,-7.6327],[112.9218,-7.6348],[112.9288,-7.6313],[112.9349,-7.6315],[112.9306,-7.6392],[112.9276,-7.6364],[112.9213,-7.6385]]]}},{"type":"Feature","properties":{"name":"Panggungrejo","name_en":"Panggungrejo","admin_level":"7","osm_id":""},"geometry":{"type":"Polygon","coordinates":[[[112.9288,-7.6313],[112.9218,-7.6348],[112.9187,-7.6327],[112.9191,-7.6274],[112.9288,-7.6313]]]}},{"type":"Feature","properties":{"name":"Pekuncen","name_en":"Pekuncen","admin_level":"7","osm_id":""},"geometry":{"type":"Polygon","coordinates":[[[112.9135,-7.6455],[112.9101,-7.653],[112.9108,-7.6553],[112.9042,-7.6533],[112.9088,-7.6429],[112.9135,-7.6455]]]}},{"type":"Feature","properties":{"name":"Petamanan","name_en":"Petamanan","admin_level":"7","osm_id":""},"geometry":{"type":"Polygon","coordinates":[[[112.9104,-7.6553],[112.9107,-7.6582],[112.9079,-7.6613],[112.9024,-7.6561],[112.9042,-7.6533],[112.9104,-7.6553]]]}},{"type":"Feature","properties":{"name":"Sekargadung","name_en":"Sekargadung","admin_level":"7","osm_id":""},"geometry":{"type":"Polygon","coordinates":[[[112.9098,-7.6678],[112.9088,-7.6705],[112.9102,-7.6713],[112.9083,-7.6758],[112.9115,-7.6767],[112.9101,-7.6799],[112.908,-7.6792],[112.9012,-7.6864],[112.8969,-7.6857],[112.8983,-7.6816],[112.9002,-7.6818],[112.9028,-7.6774],[112.901,-7.6761],[112.9013,-7.6737],[112.9047,-7.6667],[112.9098,-7.6678]]]}},{"type":"Feature","properties":{"name":"Tapaan","name_en":"Tapaan","admin_level":"7","osm_id":""},"geometry":{"type":"Polygon","coordinates":[[[112.9192,-7.6546],[112.9162,-7.6533],[112.9247,-7.6414],[112.9204,-7.6392],[112.9228,-7.6373],[112.9292,-7.6372],[112.9306,-7.6392],[112.9291,-7.6414],[112.9302,-7.643],[112.9258,-7.6472],[112.9229,-7.6529],[112.9202,-7.652],[112.9192,-7.6546]]]}}]}