{"type":"FeatureCollection","metadata":{"parent_osm_id":"gid_IDN_23_21_14_1","parent_name":"Mofinop","parent_name_1":"Papua","parent_gid":"IDN.23.21.14_1","parent_level":"6","child_level":"7","count":5,"source":"GADM 4.1","generated":"2026-05-08"},"features":[{"type":"Feature","properties":{"name":"Milki","name_en":"Milki","admin_level":"7","osm_id":""},"geometry":{"type":"Polygon","coordinates":[[[140.8549,-3.9352],[140.8649,-3.9334],[140.8681,-3.9362],[140.8731,-3.9353],[140.8759,-3.9385],[140.8801,-3.938],[140.8811,-3.9319],[140.8827,-3.9314],[140.884,-4.098],[140.8311,-4.0999],[140.8245,-4.0783],[140.8232,-4.0265],[140.831,-4.0058],[140.8523,-3.9708],[140.8562,-3.9495],[140.8549,-3.9352]]]}},{"type":"Feature","properties":{"name":"Mot","name_en":"Mot","admin_level":"7","osm_id":""},"geometry":{"type":"Polygon","coordinates":[[[140.7691,-4.2325],[140.7609,-4.2176],[140.7439,-4.1956],[140.7312,-4.1477],[140.7244,-4.102],[141.0,-4.0946],[141.0,-4.205],[140.9552,-4.2345],[140.9423,-4.2452],[140.8978,-4.2675],[140.8763,-4.2696],[140.8555,-4.2768],[140.7993,-4.279],[140.7801,-4.2526],[140.7691,-4.2325]]]}},{"type":"Feature","properties":{"name":"MuaraAsbi","name_en":"MuaraAsbi","admin_level":"7","osm_id":""},"geometry":{"type":"Polygon","coordinates":[[[140.9671,-3.9244],[140.9712,-3.9232],[140.973,-3.9189],[140.9755,-3.9194],[140.9801,-3.9154],[140.9829,-3.9153],[140.9861,-3.9228],[140.9894,-3.9258],[140.9962,-3.9217],[140.9979,-3.9247],[140.9964,-3.9292],[141.0,-3.9314],[141.0,-4.0946],[140.9672,-4.0953],[140.9689,-4.0084],[140.9671,-3.9244]]]}},{"type":"Feature","properties":{"name":"Tual","name_en":"Tual","admin_level":"7","osm_id":""},"geometry":{"type":"Polygon","coordinates":[[[140.9036,-3.9359],[140.9058,-3.9383],[140.9087,-3.9381],[140.9119,-3.9463],[140.9163,-3.9464],[140.9195,-3.9444],[140.9177,-3.9387],[140.9141,-3.9366],[140.9169,-3.9335],[140.9158,-3.927],[140.9174,-3.9221],[140.9298,-3.9281],[140.9346,-3.9851],[140.9339,-4.0962],[140.884,-4.098],[140.8827,-3.9314],[140.8861,-3.9305],[140.8851,-3.9387],[140.8868,-3.9412],[140.8957,-3.9388],[140.8972,-3.9353],[140.8994,-3.9366],[140.8986,-3.9403],[140.9036,-3.9359]]]}},{"type":"Feature","properties":{"name":"Yubu","name_en":"Yubu","admin_level":"7","osm_id":""},"geometry":{"type":"Polygon","coordinates":[[[140.9298,-3.9281],[140.9319,-3.9277],[140.936,-3.9203],[140.9381,-3.9223],[140.9361,-3.917],[140.943,-3.914],[140.9523,-3.9176],[140.958,-3.9154],[140.9579,-3.9141],[140.9617,-3.9139],[140.9639,-3.9171],[140.9634,-3.9196],[140.9671,-3.9244],[140.9689,-4.0084],[140.9672,-4.0953],[140.9339,-4.0962],[140.9346,-3.9851],[140.9298,-3.9281]]]}}]}