{"type":"FeatureCollection","metadata":{"parent_osm_id":"gid_IDN_10_9_7_1","parent_name":"Karangrayung","parent_name_1":"JawaTengah","parent_gid":"IDN.10.9.7_1","parent_level":"6","child_level":"7","count":19,"source":"GADM 4.1","generated":"2026-05-09"},"features":[{"type":"Feature","properties":{"name":"Cekel","name_en":"Cekel","admin_level":"7","osm_id":""},"geometry":{"type":"Polygon","coordinates":[[[110.7887,-7.1716],[110.7846,-7.1671],[110.7854,-7.1637],[110.7891,-7.1627],[110.7944,-7.1539],[110.8066,-7.1429],[110.8129,-7.1422],[110.8147,-7.1545],[110.8183,-7.1601],[110.8181,-7.1626],[110.8096,-7.1631],[110.8082,-7.1682],[110.7943,-7.1696],[110.7887,-7.1716]]]}},{"type":"Feature","properties":{"name":"Dempel","name_en":"Dempel","admin_level":"7","osm_id":""},"geometry":{"type":"Polygon","coordinates":[[[110.7689,-7.1209],[110.7543,-7.1131],[110.7546,-7.1008],[110.7565,-7.0935],[110.7644,-7.0942],[110.768,-7.0981],[110.7716,-7.0989],[110.7767,-7.1052],[110.7689,-7.1209]]]}},{"type":"Feature","properties":{"name":"GunungTumpeng","name_en":"GunungTumpeng","admin_level":"7","osm_id":""},"geometry":{"type":"Polygon","coordinates":[[[110.7356,-7.1428],[110.7279,-7.1528],[110.7278,-7.1572],[110.7237,-7.165],[110.7082,-7.1789],[110.7041,-7.1851],[110.6971,-7.1852],[110.6938,-7.1809],[110.6887,-7.178],[110.6891,-7.1646],[110.6917,-7.1507],[110.7026,-7.1321],[110.7083,-7.1372],[110.7228,-7.1361],[110.7316,-7.1389],[110.7356,-7.1428]]]}},{"type":"Feature","properties":{"name":"Jetis","name_en":"Jetis","admin_level":"7","osm_id":""},"geometry":{"type":"Polygon","coordinates":[[[110.8079,-7.1821],[110.8057,-7.1923],[110.8009,-7.1919],[110.7977,-7.1873],[110.792,-7.1838],[110.7931,-7.1792],[110.8079,-7.1821]]]}},{"type":"Feature","properties":{"name":"Karanganyar","name_en":"Karanganyar","admin_level":"7","osm_id":""},"geometry":{"type":"Polygon","coordinates":[[[110.7963,-7.1518],[110.7891,-7.1627],[110.7854,-7.1637],[110.7846,-7.1671],[110.7887,-7.1716],[110.7861,-7.181],[110.7801,-7.1806],[110.7753,-7.1781],[110.7755,-7.1723],[110.7794,-7.1709],[110.7797,-7.1694],[110.7766,-7.166],[110.7757,-7.1611],[110.7711,-7.1567],[110.772,-7.1481],[110.7788,-7.1443],[110.7831,-7.1447],[110.7963,-7.1518]]]}},{"type":"Feature","properties":{"name":"Karangsono","name_en":"Karangsono","admin_level":"7","osm_id":""},"geometry":{"type":"Polygon","coordinates":[[[110.8194,-7.2152],[110.812,-7.2187],[110.8079,-7.2269],[110.8067,-7.2263],[110.8048,-7.22],[110.8082,-7.1991],[110.8057,-7.1932],[110.8066,-7.184],[110.8165,-7.1725],[110.8189,-7.1741],[110.8246,-7.1722],[110.8253,-7.1759],[110.8231,-7.1772],[110.8221,-7.1805],[110.8239,-7.188],[110.822,-7.1894],[110.8234,-7.1906],[110.8207,-7.1939],[110.822,-7.1968],[110.8212,-7.206],[110.8185,-7.211],[110.8194,-7.2152]]]}},{"type":"Feature","properties":{"name":"Ketro","name_en":"Ketro","admin_level":"7","osm_id":""},"geometry":{"type":"Polygon","coordinates":[[[110.75,-7.1487],[110.7457,-7.1405],[110.7426,-7.1392],[110.7416,-7.141],[110.7356,-7.1428],[110.7316,-7.1389],[110.7228,-7.1361],[110.7083,-7.1372],[110.7052,-7.1357],[110.7026,-7.1321],[110.7037,-7.1277],[110.7027,-7.1201],[110.704,-7.1171],[110.7089,-7.1189],[110.7198,-7.1176],[110.7282,-7.1189],[110.7355,-7.1127],[110.7453,-7.1116],[110.7501,-7.1146],[110.7555,-7.1135],[110.7666,-7.1189],[110.7693,-7.1213],[110.7705,-7.1261],[110.7747,-7.1305],[110.7793,-7.1406],[110.7788,-7.1443],[110.7716,-7.1481],[110.7525,-7.1436],[110.75,-7.1487]]]}},{"type":"Feature","properties":{"name":"Mangin","name_en":"Mangin","admin_level":"7","osm_id":""},"geometry":{"type":"Polygon","coordinates":[[[110.8129,-7.1422],[110.8066,-7.1429],[110.7963,-7.1518],[110.7853,-7.1455],[110.7901,-7.1401],[110.7922,-7.1396],[110.798,-7.1307],[110.8012,-7.119],[110.813,-7.1233],[110.814,-7.1321],[110.8117,-7.1376],[110.8129,-7.1422]]]}},{"type":"Feature","properties":{"name":"Mojoagung","name_en":"Mojoagung","admin_level":"7","osm_id":""},"geometry":{"type":"Polygon","coordinates":[[[110.7773,-7.0709],[110.7808,-7.0696],[110.7825,-7.0724],[110.7912,-7.0733],[110.7909,-7.075],[110.7922,-7.0754],[110.7908,-7.0855],[110.7919,-7.1012],[110.7858,-7.1005],[110.783,-7.1055],[110.7797,-7.1047],[110.7766,-7.1058],[110.7751,-7.1021],[110.7728,-7.1012],[110.7751,-7.0921],[110.7815,-7.091],[110.7809,-7.0809],[110.7822,-7.0782],[110.777,-7.0797],[110.7744,-7.0783],[110.7753,-7.0717],[110.7773,-7.0709]]]}},{"type":"Feature","properties":{"name":"Nampu","name_en":"Nampu","admin_level":"7","osm_id":""},"geometry":{"type":"Polygon","coordinates":[[[110.7703,-7.2267],[110.7722,-7.2263],[110.773,-7.2237],[110.7777,-7.2221],[110.7764,-7.2213],[110.7767,-7.2193],[110.7803,-7.2132],[110.7817,-7.2021],[110.7908,-7.194],[110.7921,-7.1944],[110.7908,-7.187],[110.7919,-7.1853],[110.7972,-7.1869],[110.8009,-7.1919],[110.8057,-7.1923],[110.8082,-7.1991],[110.8048,-7.22],[110.808,-7.2287],[110.7888,-7.2434],[110.7808,-7.2453],[110.7668,-7.2444],[110.7719,-7.2354],[110.7703,-7.2267]]]}},{"type":"Feature","properties":{"name":"Pangkalan","name_en":"Pangkalan","admin_level":"7","osm_id":""},"geometry":{"type":"Polygon","coordinates":[[[110.7582,-7.0848],[110.7586,-7.0827],[110.7611,-7.083],[110.7627,-7.0772],[110.7679,-7.0789],[110.7725,-7.0771],[110.7759,-7.0797],[110.7823,-7.0785],[110.7809,-7.0809],[110.7814,-7.0911],[110.7751,-7.0921],[110.775,-7.0894],[110.7604,-7.0872],[110.7582,-7.0848]]]}},{"type":"Feature","properties":{"name":"Parakan","name_en":"Parakan","admin_level":"7","osm_id":""},"geometry":{"type":"Polygon","coordinates":[[[110.782,-7.2013],[110.7855,-7.1939],[110.7816,-7.1892],[110.7764,-7.191],[110.7776,-7.1862],[110.7734,-7.1817],[110.7741,-7.1792],[110.7753,-7.1781],[110.785,-7.1813],[110.7931,-7.1792],[110.792,-7.1836],[110.7931,-7.1851],[110.7908,-7.187],[110.7921,-7.1944],[110.7908,-7.194],[110.7852,-7.2002],[110.782,-7.2013]]]}},{"type":"Feature","properties":{"name":"Putatnganten","name_en":"Putatnganten","admin_level":"7","osm_id":""},"geometry":{"type":"Polygon","coordinates":[[[110.7224,-7.0977],[110.7249,-7.0971],[110.7259,-7.0942],[110.7311,-7.0891],[110.7438,-7.0895],[110.7396,-7.1097],[110.7296,-7.1185],[110.7202,-7.1176],[110.7206,-7.1145],[110.7183,-7.1122],[110.7182,-7.108],[110.7224,-7.0977]]]}},{"type":"Feature","properties":{"name":"Rawoh","name_en":"Rawoh","admin_level":"7","osm_id":""},"geometry":{"type":"Polygon","coordinates":[[[110.7557,-7.0854],[110.7582,-7.0848],[110.7604,-7.0872],[110.7751,-7.0896],[110.7728,-7.1012],[110.7716,-7.0989],[110.768,-7.0981],[110.7623,-7.0931],[110.7436,-7.0916],[110.7431,-7.0894],[110.7461,-7.0885],[110.7462,-7.0863],[110.7516,-7.0841],[110.7526,-7.0859],[110.7557,-7.0854]]]}},{"type":"Feature","properties":{"name":"Sendangharjo","name_en":"Sendangharjo","admin_level":"7","osm_id":""},"geometry":{"type":"Polygon","coordinates":[[[110.7438,-7.1643],[110.7432,-7.1559],[110.7475,-7.1528],[110.7478,-7.1501],[110.7515,-7.1475],[110.7525,-7.1436],[110.772,-7.1481],[110.7711,-7.1567],[110.7757,-7.1611],[110.7766,-7.166],[110.7797,-7.1694],[110.7794,-7.1709],[110.7755,-7.1723],[110.7755,-7.1777],[110.7735,-7.1808],[110.7769,-7.1861],[110.7704,-7.1864],[110.7684,-7.1834],[110.7642,-7.185],[110.7625,-7.1874],[110.7607,-7.1868],[110.7595,-7.1836],[110.7609,-7.1798],[110.7664,-7.1803],[110.7694,-7.1774],[110.7641,-7.1743],[110.7646,-7.1759],[110.7604,-7.1754],[110.7578,-7.1704],[110.7438,-7.1643]]]}},{"type":"Feature","properties":{"name":"Sumberejosari","name_en":"Sumberejosari","admin_level":"7","osm_id":""},"geometry":{"type":"Polygon","coordinates":[[[110.7689,-7.1209],[110.7721,-7.1124],[110.7772,-7.1051],[110.7843,-7.1049],[110.7861,-7.1005],[110.7942,-7.102],[110.7975,-7.1054],[110.7977,-7.1104],[110.8001,-7.1123],[110.7978,-7.1181],[110.8013,-7.1196],[110.8,-7.1266],[110.7922,-7.1396],[110.7901,-7.1401],[110.7853,-7.1455],[110.7788,-7.1443],[110.7793,-7.1406],[110.7744,-7.1299],[110.7705,-7.1261],[110.7689,-7.1209]]]}},{"type":"Feature","properties":{"name":"Telawah","name_en":"Telawah","admin_level":"7","osm_id":""},"geometry":{"type":"Polygon","coordinates":[[[110.7887,-7.1716],[110.7943,-7.1696],[110.8082,-7.1682],[110.8096,-7.1631],[110.8181,-7.1626],[110.8162,-7.1671],[110.8167,-7.1724],[110.8079,-7.1821],[110.7931,-7.1792],[110.7861,-7.181],[110.7887,-7.1716]]]}},{"type":"Feature","properties":{"name":"Temurejo","name_en":"Temurejo","admin_level":"7","osm_id":""},"geometry":{"type":"Polygon","coordinates":[[[110.7188,-7.0972],[110.7224,-7.0977],[110.7181,-7.1082],[110.7184,-7.1125],[110.7206,-7.1145],[110.7202,-7.1176],[110.7089,-7.1189],[110.704,-7.1171],[110.704,-7.1028],[110.7063,-7.1025],[110.7088,-7.098],[110.7188,-7.0972]]]}},{"type":"Feature","properties":{"name":"Termas","name_en":"Termas","admin_level":"7","osm_id":""},"geometry":{"type":"Polygon","coordinates":[[[110.7565,-7.0935],[110.7546,-7.1008],[110.7543,-7.1131],[110.7501,-7.1146],[110.7453,-7.1116],[110.7363,-7.1125],[110.7396,-7.1097],[110.7436,-7.0916],[110.7565,-7.0935]]]}}]}