{"type":"FeatureCollection","metadata":{"parent_osm_id":"gid_IDN_32_16_10_1","parent_name":"NagaJuang","parent_name_1":"SumateraUtara","parent_gid":"IDN.32.16.10_1","parent_level":"6","child_level":"7","count":7,"source":"GADM 4.1","generated":"2026-05-09"},"features":[{"type":"Feature","properties":{"name":"BanuaRakyat","name_en":"BanuaRakyat","admin_level":"7","osm_id":""},"geometry":{"type":"Polygon","coordinates":[[[99.505,0.9421],[99.4447,0.9428],[99.408,0.9474],[99.4392,0.9502],[99.4468,0.9518],[99.4513,0.9545],[99.4596,0.95],[99.4735,0.9486],[99.4766,0.9503],[99.4813,0.9457],[99.4935,0.9464],[99.5028,0.9489],[99.505,0.9421]]]}},{"type":"Feature","properties":{"name":"HumbangI","name_en":"HumbangI","admin_level":"7","osm_id":""},"geometry":{"type":"Polygon","coordinates":[[[99.4428,0.9065],[99.4366,0.9143],[99.4383,0.9226],[99.4373,0.926],[99.4395,0.9272],[99.4645,0.9263],[99.4718,0.924],[99.4671,0.9165],[99.4645,0.9161],[99.447,0.9034],[99.4428,0.9065]]]}},{"type":"Feature","properties":{"name":"SayurMatua","name_en":"SayurMatua","admin_level":"7","osm_id":""},"geometry":{"type":"Polygon","coordinates":[[[99.4286,0.9306],[99.4195,0.9278],[99.4035,0.926],[99.3874,0.9182],[99.3878,0.9222],[99.3909,0.9253],[99.3912,0.9295],[99.3857,0.9367],[99.3977,0.9348],[99.4455,0.9366],[99.4666,0.9344],[99.5048,0.9361],[99.5002,0.9296],[99.4725,0.9284],[99.4398,0.9317],[99.4299,0.932],[99.4286,0.9306]]]}},{"type":"Feature","properties":{"name":"Simanosor","name_en":"Simanosor","admin_level":"7","osm_id":""},"geometry":{"type":"Polygon","coordinates":[[[99.5052,0.9414],[99.5066,0.9382],[99.5048,0.9361],[99.4666,0.9344],[99.4455,0.9366],[99.3977,0.9348],[99.3892,0.9352],[99.3855,0.9371],[99.3897,0.9403],[99.3966,0.9411],[99.4027,0.9457],[99.408,0.9474],[99.4447,0.9428],[99.5052,0.9414]]]}},{"type":"Feature","properties":{"name":"Tambiski","name_en":"Tambiski","admin_level":"7","osm_id":""},"geometry":{"type":"Polygon","coordinates":[[[99.4373,0.926],[99.4323,0.9306],[99.4286,0.9306],[99.4299,0.932],[99.4398,0.9317],[99.4725,0.9284],[99.5002,0.9296],[99.4997,0.9263],[99.4836,0.9241],[99.4722,0.9239],[99.4645,0.9263],[99.4395,0.9272],[99.4373,0.926]]]}},{"type":"Feature","properties":{"name":"TambiskiNauli","name_en":"TambiskiNauli","admin_level":"7","osm_id":""},"geometry":{"type":"Polygon","coordinates":[[[99.4651,0.9005],[99.447,0.9034],[99.4645,0.9161],[99.4671,0.9165],[99.4718,0.924],[99.4997,0.9263],[99.4969,0.9197],[99.484,0.919],[99.4766,0.915],[99.4651,0.9005]]]}},{"type":"Feature","properties":{"name":"TarutungPanjang","name_en":"TarutungPanjang","admin_level":"7","osm_id":""},"geometry":{"type":"Polygon","coordinates":[[[99.4901,0.9065],[99.4793,0.8996],[99.4651,0.9005],[99.4766,0.915],[99.484,0.919],[99.4969,0.9197],[99.4936,0.9103],[99.4901,0.9065]]]}}]}