{"type":"FeatureCollection","metadata":{"parent_osm_id":"gid_IDN_9_9_15_1","parent_name":"Kaliwedi","parent_name_1":"JawaBarat","parent_gid":"IDN.9.9.15_1","parent_level":"6","child_level":"7","count":9,"source":"GADM 4.1","generated":"2026-05-09"},"features":[{"type":"Feature","properties":{"name":"GuwaKidul","name_en":"GuwaKidul","admin_level":"7","osm_id":""},"geometry":{"type":"Polygon","coordinates":[[[108.4082,-6.5641],[108.4087,-6.5745],[108.4003,-6.5739],[108.3991,-6.5717],[108.4006,-6.57],[108.3961,-6.5707],[108.3845,-6.5655],[108.381,-6.5687],[108.3813,-6.5709],[108.3781,-6.5701],[108.3708,-6.5566],[108.3796,-6.555],[108.3987,-6.5555],[108.4018,-6.5606],[108.4,-6.5672],[108.4082,-6.5641]]]}},{"type":"Feature","properties":{"name":"GuwaLor","name_en":"GuwaLor","admin_level":"7","osm_id":""},"geometry":{"type":"Polygon","coordinates":[[[108.3844,-6.5472],[108.3854,-6.5492],[108.3925,-6.5506],[108.3971,-6.5556],[108.3796,-6.555],[108.3708,-6.5566],[108.3781,-6.5701],[108.3813,-6.5709],[108.3819,-6.5768],[108.3648,-6.5754],[108.3609,-6.5692],[108.3577,-6.5664],[108.3553,-6.5666],[108.3614,-6.5547],[108.3669,-6.5557],[108.3717,-6.5544],[108.3732,-6.5486],[108.3778,-6.5459],[108.3844,-6.5472]]]}},{"type":"Feature","properties":{"name":"Kalideres","name_en":"Kalideres","admin_level":"7","osm_id":""},"geometry":{"type":"Polygon","coordinates":[[[108.4008,-6.6244],[108.3996,-6.6243],[108.4013,-6.6105],[108.4026,-6.6107],[108.403,-6.6081],[108.4053,-6.6075],[108.4059,-6.6057],[108.4157,-6.6072],[108.4139,-6.6227],[108.4098,-6.6219],[108.4078,-6.6246],[108.4049,-6.6247],[108.405,-6.626],[108.4008,-6.6244]]]}},{"type":"Feature","properties":{"name":"KaliwediKidul","name_en":"KaliwediKidul","admin_level":"7","osm_id":""},"geometry":{"type":"Polygon","coordinates":[[[108.3872,-6.5987],[108.3874,-6.6077],[108.3749,-6.6092],[108.3777,-6.5955],[108.3876,-6.5956],[108.3872,-6.5987]]]}},{"type":"Feature","properties":{"name":"KaliwediLor","name_en":"KaliwediLor","admin_level":"7","osm_id":""},"geometry":{"type":"Polygon","coordinates":[[[108.3886,-6.5956],[108.3872,-6.5987],[108.3876,-6.5956],[108.378,-6.5954],[108.3758,-6.59],[108.3789,-6.5887],[108.3779,-6.5867],[108.3845,-6.5827],[108.3886,-6.5956]]]}},{"type":"Feature","properties":{"name":"PrajawinangunKulon","name_en":"PrajawinangunKulon","admin_level":"7","osm_id":""},"geometry":{"type":"Polygon","coordinates":[[[108.3992,-6.6042],[108.3933,-6.6001],[108.3906,-6.6011],[108.3903,-6.6],[108.3925,-6.5985],[108.394,-6.5944],[108.3966,-6.5946],[108.3983,-6.5892],[108.4055,-6.5897],[108.4053,-6.591],[108.4032,-6.591],[108.4046,-6.5949],[108.4018,-6.5943],[108.3992,-6.6042]]]}},{"type":"Feature","properties":{"name":"PrajawinangunWetan","name_en":"PrajawinangunWetan","admin_level":"7","osm_id":""},"geometry":{"type":"Polygon","coordinates":[[[108.4003,-6.6086],[108.3988,-6.6049],[108.4018,-6.5943],[108.4046,-6.5949],[108.4032,-6.591],[108.4053,-6.591],[108.4055,-6.5893],[108.4095,-6.5905],[108.4068,-6.6059],[108.4027,-6.6095],[108.4003,-6.6086]]]}},{"type":"Feature","properties":{"name":"Ujungsemi","name_en":"Ujungsemi","admin_level":"7","osm_id":""},"geometry":{"type":"Polygon","coordinates":[[[108.3928,-6.5973],[108.3922,-6.5954],[108.3886,-6.5956],[108.3845,-6.5827],[108.3779,-6.5867],[108.3789,-6.5887],[108.3758,-6.59],[108.3732,-6.5874],[108.3695,-6.5779],[108.366,-6.5774],[108.3632,-6.5743],[108.3684,-6.5763],[108.3831,-6.5767],[108.3923,-6.5805],[108.4058,-6.5827],[108.4055,-6.5897],[108.3983,-6.5892],[108.3966,-6.5946],[108.394,-6.5944],[108.3928,-6.5973]]]}},{"type":"Feature","properties":{"name":"Wargabinangun","name_en":"Wargabinangun","admin_level":"7","osm_id":""},"geometry":{"type":"Polygon","coordinates":[[[108.4087,-6.5745],[108.4084,-6.5901],[108.4055,-6.5893],[108.4058,-6.5827],[108.3923,-6.5805],[108.3819,-6.5768],[108.381,-6.5687],[108.3845,-6.5655],[108.3961,-6.5707],[108.4006,-6.57],[108.3991,-6.5717],[108.4003,-6.5739],[108.4087,-6.5745]]]}}]}