{"type":"FeatureCollection","metadata":{"parent_osm_id":"gid_IDN_26_17_6_1","parent_name":"MattiroBulu","parent_name_1":"SulawesiSelatan","parent_gid":"IDN.26.17.6_1","parent_level":"6","child_level":"7","count":9,"source":"GADM 4.1","generated":"2026-05-09"},"features":[{"type":"Feature","properties":{"name":"Alitta","name_en":"Alitta","admin_level":"7","osm_id":""},"geometry":{"type":"Polygon","coordinates":[[[119.6695,-3.9286],[119.6693,-3.9252],[119.6639,-3.9218],[119.6627,-3.9176],[119.6646,-3.9106],[119.6634,-3.9086],[119.6597,-3.9087],[119.6566,-3.9069],[119.658,-3.9012],[119.6571,-3.8973],[119.6538,-3.8948],[119.6519,-3.8872],[119.647,-3.8832],[119.647,-3.8804],[119.6536,-3.8814],[119.6599,-3.8759],[119.6654,-3.874],[119.6701,-3.8735],[119.6736,-3.8757],[119.6772,-3.8755],[119.6798,-3.8707],[119.6805,-3.8634],[119.6825,-3.8621],[119.6954,-3.8659],[119.7002,-3.8639],[119.7132,-3.8651],[119.7187,-3.8621],[119.7211,-3.8634],[119.7274,-3.8631],[119.7261,-3.8725],[119.7233,-3.8771],[119.7271,-3.8835],[119.7232,-3.8885],[119.7246,-3.895],[119.7175,-3.9078],[119.7127,-3.9108],[119.7095,-3.911],[119.7036,-3.9063],[119.6931,-3.9207],[119.693,-3.9269],[119.677,-3.9253],[119.6721,-3.9262],[119.6695,-3.9286]]]}},{"type":"Feature","properties":{"name":"Bunga","name_en":"Bunga","admin_level":"7","osm_id":""},"geometry":{"type":"Polygon","coordinates":[[[119.608,-3.8342],[119.5979,-3.8275],[119.5844,-3.827],[119.5877,-3.8225],[119.5849,-3.813],[119.5821,-3.809],[119.5867,-3.8026],[119.5919,-3.8019],[119.6035,-3.8073],[119.6093,-3.812],[119.6268,-3.8118],[119.6269,-3.8149],[119.6252,-3.8149],[119.6216,-3.8216],[119.6149,-3.8255],[119.608,-3.8342]]]}},{"type":"Feature","properties":{"name":"Makkawaru","name_en":"Makkawaru","admin_level":"7","osm_id":""},"geometry":{"type":"Polygon","coordinates":[[[119.6169,-3.9062],[119.6193,-3.9028],[119.6299,-3.9007],[119.6359,-3.8897],[119.6399,-3.8886],[119.6534,-3.9043],[119.6597,-3.9087],[119.6634,-3.9086],[119.6646,-3.9106],[119.6627,-3.9176],[119.6639,-3.9218],[119.6693,-3.9252],[119.6695,-3.9286],[119.6629,-3.9315],[119.6569,-3.9373],[119.643,-3.9392],[119.644,-3.9199],[119.6389,-3.9139],[119.6313,-3.9152],[119.6258,-3.9189],[119.6232,-3.9187],[119.6152,-3.9115],[119.6169,-3.9062]]]}},{"type":"Feature","properties":{"name":"Manarang","name_en":"Manarang","admin_level":"7","osm_id":""},"geometry":{"type":"Polygon","coordinates":[[[119.6247,-3.8592],[119.635,-3.8551],[119.6368,-3.8503],[119.634,-3.8453],[119.6257,-3.8442],[119.6243,-3.8422],[119.6251,-3.8403],[119.6284,-3.8389],[119.6291,-3.8367],[119.6385,-3.8347],[119.6446,-3.8273],[119.6469,-3.8319],[119.6612,-3.8374],[119.6614,-3.8435],[119.6538,-3.8545],[119.6575,-3.8566],[119.6589,-3.8638],[119.6497,-3.8604],[119.6434,-3.8635],[119.6329,-3.8638],[119.6247,-3.8592]]]}},{"type":"Feature","properties":{"name":"Marannu","name_en":"Marannu","admin_level":"7","osm_id":""},"geometry":{"type":"Polygon","coordinates":[[[119.5959,-3.8454],[119.5943,-3.8438],[119.5889,-3.8465],[119.5789,-3.8381],[119.5792,-3.83],[119.5844,-3.827],[119.5924,-3.827],[119.5979,-3.8275],[119.6016,-3.8309],[119.6063,-3.8325],[119.608,-3.8342],[119.6038,-3.8398],[119.5959,-3.8454]]]}},{"type":"Feature","properties":{"name":"Padaelo","name_en":"Padaelo","admin_level":"7","osm_id":""},"geometry":{"type":"Polygon","coordinates":[[[119.6234,-3.873],[119.6224,-3.8702],[119.6114,-3.8705],[119.6034,-3.8683],[119.6055,-3.8674],[119.608,-3.8624],[119.6027,-3.8587],[119.6036,-3.8573],[119.6018,-3.856],[119.5976,-3.8566],[119.5979,-3.851],[119.5959,-3.8454],[119.5999,-3.8425],[119.6021,-3.847],[119.6086,-3.8528],[119.6122,-3.854],[119.6222,-3.8419],[119.6245,-3.8419],[119.6257,-3.8442],[119.634,-3.8453],[119.6368,-3.8503],[119.635,-3.8551],[119.6234,-3.8595],[119.6212,-3.8625],[119.6237,-3.8687],[119.6294,-3.8713],[119.6283,-3.8728],[119.6234,-3.873]]]}},{"type":"Feature","properties":{"name":"Padaidi","name_en":"Padaidi","admin_level":"7","osm_id":""},"geometry":{"type":"Polygon","coordinates":[[[119.6232,-3.885],[119.6153,-3.8808],[119.6144,-3.8777],[119.6162,-3.8735],[119.6185,-3.8724],[119.6283,-3.8728],[119.6294,-3.8716],[119.6229,-3.8674],[119.6212,-3.8627],[119.6234,-3.8595],[119.6329,-3.8638],[119.6434,-3.8635],[119.6497,-3.8604],[119.6613,-3.8646],[119.6679,-3.8633],[119.6744,-3.857],[119.6804,-3.8572],[119.6798,-3.8707],[119.6772,-3.8755],[119.6736,-3.8757],[119.6701,-3.8735],[119.6654,-3.874],[119.6599,-3.8759],[119.6536,-3.8814],[119.6479,-3.8811],[119.6453,-3.8793],[119.6384,-3.8816],[119.6344,-3.8787],[119.6335,-3.8809],[119.6254,-3.881],[119.6233,-3.8826],[119.6232,-3.885]]]}},{"type":"Feature","properties":{"name":"Padakkalawa","name_en":"Padakkalawa","admin_level":"7","osm_id":""},"geometry":{"type":"Polygon","coordinates":[[[119.608,-3.8342],[119.6149,-3.8255],[119.6216,-3.8216],[119.6252,-3.8149],[119.6269,-3.8149],[119.6268,-3.8118],[119.6341,-3.8113],[119.6439,-3.8155],[119.6457,-3.8195],[119.6442,-3.8201],[119.6446,-3.8273],[119.6407,-3.8328],[119.6385,-3.8347],[119.6291,-3.8367],[119.6284,-3.8389],[119.6222,-3.8419],[119.6122,-3.854],[119.6086,-3.8528],[119.6021,-3.847],[119.5999,-3.8425],[119.608,-3.8342]]]}},{"type":"Feature","properties":{"name":"Pannanrang","name_en":"Pannanrang","admin_level":"7","osm_id":""},"geometry":{"type":"Polygon","coordinates":[[[119.6193,-3.9028],[119.6219,-3.8984],[119.6215,-3.8932],[119.6242,-3.889],[119.6233,-3.8826],[119.6254,-3.881],[119.6335,-3.8809],[119.6354,-3.8786],[119.6384,-3.8816],[119.6453,-3.8793],[119.647,-3.8804],[119.647,-3.8832],[119.6519,-3.8872],[119.6519,-3.8911],[119.6538,-3.8948],[119.6565,-3.8962],[119.658,-3.9012],[119.6566,-3.9069],[119.643,-3.8912],[119.6377,-3.8885],[119.6299,-3.9007],[119.6193,-3.9028]]]}}]}