{"type":"FeatureCollection","metadata":{"parent_osm_id":"gid_IDN_19_6_9_1","parent_name":"Saparua","parent_name_1":"Maluku","parent_gid":"IDN.19.6.9_1","parent_level":"6","child_level":"7","count":17,"source":"GADM 4.1","generated":"2026-05-07"},"features":[{"type":"Feature","properties":{"name":"Booi","name_en":"Booi","admin_level":"7","osm_id":""},"geometry":{"type":"Polygon","coordinates":[[[128.6642,-3.5995],[128.6653,-3.6061],[128.6586,-3.621],[128.6496,-3.6298],[128.6427,-3.6316],[128.6443,-3.6239],[128.6418,-3.6086],[128.6642,-3.5995]]]}},{"type":"Feature","properties":{"name":"Haria","name_en":"Haria","admin_level":"7","osm_id":""},"geometry":{"type":"Polygon","coordinates":[[[128.6443,-3.6239],[128.6427,-3.6316],[128.6301,-3.6166],[128.6269,-3.6045],[128.6214,-3.6006],[128.6093,-3.5976],[128.6069,-3.5895],[128.6109,-3.5886],[128.6163,-3.5915],[128.6234,-3.5904],[128.627,-3.5855],[128.6157,-3.584],[128.6352,-3.5712],[128.6443,-3.6239]]]}},{"type":"Feature","properties":{"name":"Iha","name_en":"Iha","admin_level":"7","osm_id":""},"geometry":{"type":"Polygon","coordinates":[[[128.6933,-3.5055],[128.6936,-3.5108],[128.6886,-3.5125],[128.6895,-3.5042],[128.6933,-3.5055]]]}},{"type":"Feature","properties":{"name":"Ihamahu","name_en":"Ihamahu","admin_level":"7","osm_id":""},"geometry":{"type":"Polygon","coordinates":[[[128.6886,-3.5125],[128.6936,-3.5108],[128.6933,-3.5055],[128.7023,-3.5047],[128.7104,-3.5149],[128.7293,-3.5222],[128.7262,-3.5307],[128.7304,-3.537],[128.7065,-3.5417],[128.6966,-3.5398],[128.6987,-3.5349],[128.6977,-3.5316],[128.6945,-3.5291],[128.6867,-3.5289],[128.6886,-3.5125]]]}},{"type":"Feature","properties":{"name":"Itawaka","name_en":"Itawaka","admin_level":"7","osm_id":""},"geometry":{"type":"Polygon","coordinates":[[[128.7293,-3.5222],[128.7104,-3.5149],[128.7067,-3.5112],[128.7023,-3.5047],[128.7048,-3.5036],[128.7092,-3.4968],[128.7156,-3.4981],[128.7178,-3.5023],[128.721,-3.5035],[128.7303,-3.5126],[128.7293,-3.5222]]]}},{"type":"Feature","properties":{"name":"Kulur","name_en":"Kulur","admin_level":"7","osm_id":""},"geometry":{"type":"Polygon","coordinates":[[[128.556,-3.5197],[128.554,-3.5159],[128.5557,-3.5093],[128.5656,-3.4986],[128.572,-3.4946],[128.5822,-3.4943],[128.5946,-3.4985],[128.6004,-3.4962],[128.6036,-3.4967],[128.61,-3.5032],[128.6132,-3.5041],[128.6053,-3.5314],[128.5911,-3.5271],[128.5693,-3.5245],[128.556,-3.5197]]]}},{"type":"Feature","properties":{"name":"Mahu","name_en":"Mahu","admin_level":"7","osm_id":""},"geometry":{"type":"Polygon","coordinates":[[[128.6867,-3.5289],[128.6945,-3.5291],[128.6977,-3.5316],[128.6987,-3.5349],[128.6957,-3.5414],[128.6918,-3.5431],[128.6861,-3.5411],[128.6897,-3.5364],[128.6867,-3.5289]]]}},{"type":"Feature","properties":{"name":"Noloth","name_en":"Noloth","admin_level":"7","osm_id":""},"geometry":{"type":"Polygon","coordinates":[[[128.6933,-3.5055],[128.6895,-3.5042],[128.6938,-3.494],[128.7007,-3.4962],[128.7067,-3.4952],[128.7092,-3.4968],[128.7048,-3.5036],[128.6994,-3.5059],[128.6933,-3.5055]]]}},{"type":"Feature","properties":{"name":"Ouw","name_en":"Ouw","admin_level":"7","osm_id":""},"geometry":{"type":"Polygon","coordinates":[[[128.7345,-3.5716],[128.7361,-3.5751],[128.735,-3.5811],[128.7363,-3.586],[128.735,-3.5877],[128.7369,-3.5894],[128.737,-3.5985],[128.7385,-3.6006],[128.7377,-3.6076],[128.734,-3.6189],[128.7279,-3.6227],[128.7229,-3.6201],[128.7191,-3.6104],[128.7279,-3.582],[128.7345,-3.5716]]]}},{"type":"Feature","properties":{"name":"Paperu","name_en":"Paperu","admin_level":"7","osm_id":""},"geometry":{"type":"Polygon","coordinates":[[[128.6642,-3.5995],[128.6418,-3.6086],[128.6388,-3.5881],[128.6515,-3.5781],[128.6543,-3.5847],[128.6588,-3.5888],[128.6642,-3.5913],[128.6657,-3.5902],[128.6642,-3.5995]]]}},{"type":"Feature","properties":{"name":"Portho","name_en":"Portho","admin_level":"7","osm_id":""},"geometry":{"type":"Polygon","coordinates":[[[128.6352,-3.5712],[128.6157,-3.584],[128.6061,-3.5748],[128.5972,-3.556],[128.5938,-3.5519],[128.572,-3.5484],[128.5672,-3.544],[128.5539,-3.5291],[128.5543,-3.5224],[128.556,-3.5197],[128.5693,-3.5245],[128.5911,-3.5271],[128.6053,-3.5314],[128.6132,-3.5041],[128.6198,-3.5075],[128.6266,-3.5164],[128.6332,-3.5188],[128.6261,-3.5366],[128.6352,-3.5712]]]}},{"type":"Feature","properties":{"name":"Saparua","name_en":"Saparua","admin_level":"7","osm_id":""},"geometry":{"type":"Polygon","coordinates":[[[128.6762,-3.578],[128.6729,-3.576],[128.6667,-3.5765],[128.663,-3.5739],[128.6591,-3.576],[128.6564,-3.5749],[128.6489,-3.5446],[128.6687,-3.5499],[128.6813,-3.5576],[128.6807,-3.5676],[128.6762,-3.578]]]}},{"type":"Feature","properties":{"name":"Siri-soriAmalatu","name_en":"Siri-soriAmalatu","admin_level":"7","osm_id":""},"geometry":{"type":"Polygon","coordinates":[[[128.6261,-3.5366],[128.6332,-3.5188],[128.6344,-3.5189],[128.6376,-3.5209],[128.6373,-3.5289],[128.6393,-3.5312],[128.6438,-3.5283],[128.6581,-3.5294],[128.6828,-3.5444],[128.6895,-3.5496],[128.7035,-3.5653],[128.7009,-3.5737],[128.6936,-3.588],[128.6821,-3.58],[128.6762,-3.578],[128.6807,-3.5676],[128.6813,-3.5576],[128.6687,-3.5499],[128.6261,-3.5366]]]}},{"type":"Feature","properties":{"name":"SiriSori","name_en":"SiriSori","admin_level":"7","osm_id":""},"geometry":{"type":"Polygon","coordinates":[[[128.6936,-3.588],[128.7009,-3.5737],[128.7035,-3.5653],[128.7166,-3.5716],[128.7267,-3.5852],[128.7209,-3.5847],[128.7102,-3.589],[128.7045,-3.5968],[128.7028,-3.5931],[128.6936,-3.588]]]}},{"type":"Feature","properties":{"name":"Tiouw","name_en":"Tiouw","admin_level":"7","osm_id":""},"geometry":{"type":"Polygon","coordinates":[[[128.6388,-3.5881],[128.6355,-3.5724],[128.6261,-3.5366],[128.6489,-3.5446],[128.6554,-3.5733],[128.6458,-3.5834],[128.6388,-3.5881]]]}},{"type":"Feature","properties":{"name":"Tuhaha","name_en":"Tuhaha","admin_level":"7","osm_id":""},"geometry":{"type":"Polygon","coordinates":[[[128.6966,-3.5398],[128.7065,-3.5417],[128.7304,-3.537],[128.7323,-3.5385],[128.7312,-3.5417],[128.7355,-3.5537],[128.7325,-3.567],[128.7345,-3.5716],[128.7267,-3.5852],[128.7166,-3.5716],[128.7032,-3.5651],[128.6895,-3.5496],[128.6824,-3.5441],[128.6861,-3.5411],[128.6918,-3.5431],[128.6966,-3.5398]]]}},{"type":"Feature","properties":{"name":"Ullath","name_en":"Ullath","admin_level":"7","osm_id":""},"geometry":{"type":"Polygon","coordinates":[[[128.7267,-3.5852],[128.7193,-3.6094],[128.7084,-3.6033],[128.7045,-3.5968],[128.7102,-3.589],[128.7209,-3.5847],[128.7267,-3.5852]]]}}]}