{"type":"FeatureCollection","metadata":{"parent_osm_id":"gid_IDN_20_6_6_1","parent_name":"MontongGading","parent_name_1":"NusaTenggaraBarat","parent_gid":"IDN.20.6.6_1","parent_level":"6","child_level":"7","count":7,"source":"GADM 4.1","generated":"2026-05-09"},"features":[{"type":"Feature","properties":{"name":"JenggikUtara","name_en":"JenggikUtara","admin_level":"7","osm_id":""},"geometry":{"type":"Polygon","coordinates":[[[116.377,-8.5923],[116.3807,-8.5499],[116.3797,-8.5281],[116.3831,-8.5188],[116.3864,-8.5187],[116.3887,-8.5206],[116.3869,-8.5278],[116.3862,-8.5704],[116.3893,-8.5918],[116.377,-8.5923]]]}},{"type":"Feature","properties":{"name":"Kilang","name_en":"Kilang","admin_level":"7","osm_id":""},"geometry":{"type":"Polygon","coordinates":[[[116.3891,-8.5921],[116.3877,-8.5822],[116.3933,-8.5814],[116.3941,-8.5864],[116.3974,-8.5914],[116.3963,-8.5986],[116.3988,-8.6078],[116.4058,-8.6086],[116.4086,-8.6211],[116.4028,-8.6205],[116.3974,-8.6166],[116.3971,-8.6184],[116.391,-8.616],[116.3882,-8.6038],[116.3919,-8.5962],[116.3891,-8.5921]]]}},{"type":"Feature","properties":{"name":"MontongBetok","name_en":"MontongBetok","admin_level":"7","osm_id":""},"geometry":{"type":"Polygon","coordinates":[[[116.4086,-8.6211],[116.4058,-8.6086],[116.3988,-8.6078],[116.3965,-8.5971],[116.4098,-8.5963],[116.4172,-8.6007],[116.4173,-8.6028],[116.4125,-8.6082],[116.416,-8.6202],[116.4086,-8.6211]]]}},{"type":"Feature","properties":{"name":"Perian","name_en":"Perian","admin_level":"7","osm_id":""},"geometry":{"type":"Polygon","coordinates":[[[116.3831,-8.5188],[116.3845,-8.5168],[116.3856,-8.4894],[116.3918,-8.4828],[116.398,-8.5041],[116.3922,-8.5206],[116.3934,-8.5289],[116.3925,-8.54],[116.3942,-8.5413],[116.3934,-8.5459],[116.398,-8.5669],[116.3959,-8.572],[116.3979,-8.5819],[116.3881,-8.5823],[116.3862,-8.5704],[116.3875,-8.545],[116.3864,-8.5405],[116.3869,-8.5278],[116.3887,-8.5206],[116.387,-8.5188],[116.3831,-8.5188]]]}},{"type":"Feature","properties":{"name":"Pesanggrahan","name_en":"Pesanggrahan","admin_level":"7","osm_id":""},"geometry":{"type":"Polygon","coordinates":[[[116.3965,-8.5971],[116.3974,-8.5914],[116.3932,-8.5834],[116.3979,-8.5819],[116.3959,-8.572],[116.398,-8.5669],[116.3922,-8.5339],[116.3934,-8.5289],[116.3922,-8.519],[116.3955,-8.5126],[116.4014,-8.543],[116.406,-8.5535],[116.4035,-8.5586],[116.4023,-8.5695],[116.405,-8.5802],[116.4071,-8.5818],[116.407,-8.5917],[116.4098,-8.5963],[116.3965,-8.5971]]]}},{"type":"Feature","properties":{"name":"Pringgajurang","name_en":"Pringgajurang","admin_level":"7","osm_id":""},"geometry":{"type":"Polygon","coordinates":[[[116.416,-8.6202],[116.4125,-8.6082],[116.4175,-8.6017],[116.416,-8.5991],[116.4092,-8.596],[116.407,-8.5917],[116.4071,-8.5818],[116.405,-8.5802],[116.4042,-8.5739],[116.4025,-8.572],[116.4026,-8.5661],[116.4125,-8.5661],[116.4092,-8.5762],[116.4112,-8.5896],[116.4177,-8.5989],[116.4252,-8.6203],[116.4203,-8.6235],[116.4165,-8.6231],[116.416,-8.6202]]]}},{"type":"Feature","properties":{"name":"PringgajurangUtara","name_en":"PringgajurangUtara","admin_level":"7","osm_id":""},"geometry":{"type":"Polygon","coordinates":[[[116.3918,-8.4828],[116.3925,-8.4796],[116.4035,-8.4681],[116.4019,-8.4912],[116.4094,-8.5173],[116.4064,-8.527],[116.4075,-8.5414],[116.4062,-8.5477],[116.4088,-8.5521],[116.4125,-8.5661],[116.4026,-8.5661],[116.4037,-8.5579],[116.406,-8.5535],[116.3987,-8.5322],[116.3992,-8.5285],[116.3955,-8.5126],[116.398,-8.5041],[116.3918,-8.4828]]]}}]}