{"type":"FeatureCollection","metadata":{"parent_osm_id":"gid_IDN_23_3_20_1","parent_name":"Yaniruma","parent_name_1":"Papua","parent_gid":"IDN.23.3.20_1","parent_level":"6","child_level":"7","count":3,"source":"GADM 4.1","generated":"2026-05-08"},"features":[{"type":"Feature","properties":{"name":"Fefero","name_en":"Fefero","admin_level":"7","osm_id":""},"geometry":{"type":"Polygon","coordinates":[[[139.8419,-5.6553],[139.8255,-5.6569],[139.8007,-5.6529],[139.771,-5.644],[139.7571,-5.6311],[139.7491,-5.6192],[139.7271,-5.6111],[139.7269,-5.5381],[139.7364,-5.5343],[139.76,-5.5088],[139.7759,-5.4992],[139.7842,-5.4992],[139.7893,-5.5043],[139.7969,-5.505],[139.8224,-5.4967],[139.8466,-5.4789],[139.8702,-5.4578],[139.8982,-5.4954],[139.9135,-5.5209],[139.9237,-5.5336],[139.9281,-5.5515],[139.9409,-5.5725],[139.9479,-5.5935],[139.9556,-5.6069],[139.9577,-5.6323],[139.9357,-5.638],[139.9198,-5.646],[139.895,-5.6509],[139.8712,-5.6539],[139.8419,-5.6553]]]}},{"type":"Feature","properties":{"name":"Manggemahe","name_en":"Manggemahe","admin_level":"7","osm_id":""},"geometry":{"type":"Polygon","coordinates":[[[139.8474,-5.1861],[139.8575,-5.2138],[139.889,-5.2412],[139.9337,-5.2591],[139.9662,-5.2596],[139.9595,-5.2626],[139.9568,-5.267],[139.9589,-5.2697],[139.9628,-5.2667],[139.9666,-5.2697],[139.9639,-5.2785],[139.9671,-5.2833],[139.9657,-5.2852],[139.9676,-5.2904],[139.9722,-5.2972],[139.9758,-5.3135],[139.9755,-5.3164],[139.9614,-5.3289],[139.9614,-5.3463],[139.9564,-5.3649],[139.9552,-5.3811],[139.9378,-5.4035],[139.9278,-5.4222],[139.8992,-5.4296],[139.8842,-5.4458],[139.8702,-5.4578],[139.8727,-5.4438],[139.8708,-5.4324],[139.8664,-5.4228],[139.86,-5.4094],[139.8492,-5.3948],[139.8396,-5.3769],[139.8269,-5.3616],[139.8167,-5.3444],[139.8183,-5.3177],[139.8096,-5.2965],[139.8133,-5.2766],[139.8195,-5.2579],[139.8233,-5.2405],[139.8357,-5.2194],[139.8407,-5.1995],[139.8474,-5.1861]]]}},{"type":"Feature","properties":{"name":"Yaniruma","name_en":"Yaniruma","admin_level":"7","osm_id":""},"geometry":{"type":"Polygon","coordinates":[[[139.9057,-5.1096],[139.8905,-5.1372],[139.8731,-5.1572],[139.8643,-5.1746],[139.8482,-5.1845],[139.8407,-5.1995],[139.8357,-5.2194],[139.8233,-5.2405],[139.8195,-5.2579],[139.8133,-5.2766],[139.8096,-5.2965],[139.8183,-5.3177],[139.8167,-5.3444],[139.8269,-5.3616],[139.8396,-5.3769],[139.8492,-5.3948],[139.86,-5.4094],[139.8664,-5.4228],[139.8708,-5.4324],[139.8727,-5.4438],[139.8702,-5.4578],[139.8466,-5.4789],[139.8224,-5.4967],[139.7969,-5.505],[139.7893,-5.5043],[139.7842,-5.4992],[139.7759,-5.4992],[139.76,-5.5088],[139.7364,-5.5343],[139.7269,-5.5381],[139.7266,-5.4384],[139.705,-5.2354],[139.6444,-5.0411],[139.9057,-5.1096]]]}}]}