{"type":"FeatureCollection","metadata":{"parent_osm_id":"gid_IDN_9_7_15_1","parent_name":"Cugenang","parent_name_1":"JawaBarat","parent_gid":"IDN.9.7.15_1","parent_level":"6","child_level":"7","count":16,"source":"GADM 4.1","generated":"2026-05-09"},"features":[{"type":"Feature","properties":{"name":"Benjot","name_en":"Benjot","admin_level":"7","osm_id":""},"geometry":{"type":"Polygon","coordinates":[[[107.0984,-6.8188],[107.0927,-6.8182],[107.0939,-6.8209],[107.0917,-6.8251],[107.0808,-6.8237],[107.0801,-6.8216],[107.0827,-6.8145],[107.0849,-6.8143],[107.0831,-6.8066],[107.0898,-6.8104],[107.0984,-6.8188]]]}},{"type":"Feature","properties":{"name":"Cibeureum","name_en":"Cibeureum","admin_level":"7","osm_id":""},"geometry":{"type":"Polygon","coordinates":[[[107.0727,-6.7769],[107.075,-6.7834],[107.0798,-6.7887],[107.0757,-6.7955],[107.0724,-6.7934],[107.0679,-6.794],[107.0589,-6.7873],[107.0535,-6.7808],[107.0517,-6.7812],[107.0481,-6.7783],[107.0647,-6.7775],[107.0683,-6.7759],[107.0727,-6.7769]]]}},{"type":"Feature","properties":{"name":"Cibulakan","name_en":"Cibulakan","admin_level":"7","osm_id":""},"geometry":{"type":"Polygon","coordinates":[[[107.111,-6.82],[107.112,-6.8207],[107.1084,-6.8246],[107.106,-6.8264],[107.1032,-6.8252],[107.0987,-6.8278],[107.095,-6.8326],[107.0845,-6.8259],[107.0857,-6.8242],[107.0926,-6.8248],[107.0939,-6.8209],[107.0929,-6.8181],[107.1037,-6.8191],[107.1082,-6.8181],[107.111,-6.82]]]}},{"type":"Feature","properties":{"name":"Cijedil","name_en":"Cijedil","admin_level":"7","osm_id":""},"geometry":{"type":"Polygon","coordinates":[[[107.0757,-6.7955],[107.0798,-6.7887],[107.075,-6.7834],[107.0727,-6.7769],[107.0774,-6.7711],[107.087,-6.7677],[107.088,-6.7829],[107.0897,-6.7869],[107.0926,-6.7897],[107.1014,-6.7909],[107.1058,-6.7959],[107.1078,-6.8021],[107.1051,-6.8038],[107.0995,-6.8031],[107.0979,-6.8053],[107.0858,-6.8035],[107.0816,-6.8011],[107.0794,-6.797],[107.0757,-6.7955]]]}},{"type":"Feature","properties":{"name":"Cirumput","name_en":"Cirumput","admin_level":"7","osm_id":""},"geometry":{"type":"Polygon","coordinates":[[[107.0927,-6.8321],[107.084,-6.8364],[107.0766,-6.8349],[107.0699,-6.8314],[107.0688,-6.8281],[107.0577,-6.8246],[107.0529,-6.8193],[107.0455,-6.8171],[107.0332,-6.8083],[107.0279,-6.8081],[107.0207,-6.8052],[107.0244,-6.8042],[107.0282,-6.8061],[107.0384,-6.8062],[107.0496,-6.811],[107.0511,-6.8148],[107.0654,-6.8199],[107.0691,-6.824],[107.088,-6.8283],[107.0927,-6.8321]]]}},{"type":"Feature","properties":{"name":"Galudra","name_en":"Galudra","admin_level":"7","osm_id":""},"geometry":{"type":"Polygon","coordinates":[[[107.0481,-6.7783],[107.0517,-6.7812],[107.0535,-6.7808],[107.0565,-6.7846],[107.0546,-6.7883],[107.0488,-6.7882],[107.0493,-6.7866],[107.0446,-6.7838],[107.0307,-6.7848],[107.022,-6.781],[107.0191,-6.7833],[107.0142,-6.7826],[107.0,-6.7851],[106.9856,-6.7923],[106.9841,-6.7899],[106.9875,-6.7876],[106.9963,-6.7861],[107.0019,-6.7821],[107.0219,-6.7734],[107.0344,-6.7748],[107.0376,-6.7737],[107.0481,-6.7783]]]}},{"type":"Feature","properties":{"name":"Gasol","name_en":"Gasol","admin_level":"7","osm_id":""},"geometry":{"type":"Polygon","coordinates":[[[107.1108,-6.8121],[107.1082,-6.8181],[107.0988,-6.8189],[107.0846,-6.8071],[107.0857,-6.8034],[107.0979,-6.8053],[107.0997,-6.8031],[107.1035,-6.8053],[107.1032,-6.809],[107.1093,-6.8102],[107.1108,-6.8121]]]}},{"type":"Feature","properties":{"name":"Mangunkerta","name_en":"Mangunkerta","admin_level":"7","osm_id":""},"geometry":{"type":"Polygon","coordinates":[[[107.0846,-6.8071],[107.0778,-6.8018],[107.0688,-6.8008],[107.0596,-6.8045],[107.0603,-6.803],[107.0583,-6.8013],[107.0569,-6.8035],[107.0519,-6.7992],[107.0659,-6.7949],[107.0694,-6.7966],[107.073,-6.7955],[107.0803,-6.7979],[107.0816,-6.8011],[107.0854,-6.8026],[107.0846,-6.8071]]]}},{"type":"Feature","properties":{"name":"Nyalindung","name_en":"Nyalindung","admin_level":"7","osm_id":""},"geometry":{"type":"Polygon","coordinates":[[[107.0565,-6.7846],[107.068,-6.794],[107.0727,-6.7935],[107.0794,-6.7979],[107.0659,-6.7949],[107.0622,-6.797],[107.0548,-6.7964],[107.0535,-6.7927],[107.0488,-6.7882],[107.0546,-6.7883],[107.0565,-6.7846]]]}},{"type":"Feature","properties":{"name":"Padaluyu","name_en":"Padaluyu","admin_level":"7","osm_id":""},"geometry":{"type":"Polygon","coordinates":[[[107.0207,-6.8052],[107.0279,-6.8081],[107.0332,-6.8083],[107.0455,-6.8171],[107.0529,-6.8193],[107.0577,-6.8246],[107.0688,-6.8281],[107.0677,-6.8334],[107.0698,-6.8366],[107.0687,-6.8419],[107.0607,-6.8412],[107.0524,-6.8323],[107.0363,-6.8222],[107.033,-6.8166],[107.0275,-6.8133],[107.0245,-6.8081],[106.9953,-6.7974],[106.9895,-6.799],[106.987,-6.7945],[107.0,-6.7949],[107.0093,-6.7973],[107.0207,-6.8052]]]}},{"type":"Feature","properties":{"name":"Sarampad","name_en":"Sarampad","admin_level":"7","osm_id":""},"geometry":{"type":"Polygon","coordinates":[[[107.0831,-6.8066],[107.0849,-6.8143],[107.0783,-6.8134],[107.0756,-6.8147],[107.0686,-6.814],[107.0614,-6.8107],[107.0573,-6.8127],[107.0534,-6.8122],[107.0378,-6.8061],[107.0282,-6.8061],[107.0244,-6.8042],[107.0207,-6.8052],[107.0129,-6.7997],[107.0196,-6.799],[107.0545,-6.807],[107.0653,-6.8016],[107.0751,-6.8013],[107.0796,-6.8026],[107.0831,-6.8066]]]}},{"type":"Feature","properties":{"name":"Sukajaya","name_en":"Sukajaya","admin_level":"7","osm_id":""},"geometry":{"type":"Polygon","coordinates":[[[107.0874,-6.8357],[107.0889,-6.8382],[107.101,-6.8399],[107.1035,-6.8421],[107.102,-6.8446],[107.0992,-6.8446],[107.0782,-6.8386],[107.0763,-6.8395],[107.0772,-6.8407],[107.0755,-6.8427],[107.0801,-6.8452],[107.0788,-6.8478],[107.0687,-6.8419],[107.0698,-6.8366],[107.0679,-6.8312],[107.0688,-6.8282],[107.0699,-6.8314],[107.0766,-6.8349],[107.0825,-6.8365],[107.0874,-6.8357]]]}},{"type":"Feature","properties":{"name":"Sukamanah","name_en":"Sukamanah","admin_level":"7","osm_id":""},"geometry":{"type":"Polygon","coordinates":[[[107.1192,-6.7978],[107.1198,-6.8023],[107.1232,-6.8037],[107.1211,-6.8065],[107.1165,-6.8062],[107.1145,-6.8106],[107.117,-6.8128],[107.114,-6.8133],[107.1093,-6.8102],[107.1032,-6.809],[107.1027,-6.8027],[107.1072,-6.8033],[107.1074,-6.8001],[107.1192,-6.7978]]]}},{"type":"Feature","properties":{"name":"Sukamulya","name_en":"Sukamulya","admin_level":"7","osm_id":""},"geometry":{"type":"Polygon","coordinates":[[[106.9856,-6.7923],[107.0,-6.7851],[107.0142,-6.7826],[107.0191,-6.7833],[107.022,-6.781],[107.0307,-6.7848],[107.0446,-6.7838],[107.0493,-6.7866],[107.0489,-6.7889],[107.0566,-6.7969],[107.0519,-6.7992],[107.0536,-6.8016],[107.0563,-6.8019],[107.0569,-6.8035],[107.0583,-6.8013],[107.0604,-6.8031],[107.0594,-6.8053],[107.0543,-6.807],[107.0196,-6.799],[107.0129,-6.7997],[107.0,-6.7949],[106.987,-6.7945],[106.9856,-6.7923]]]}},{"type":"Feature","properties":{"name":"Talaga","name_en":"Talaga","admin_level":"7","osm_id":""},"geometry":{"type":"Polygon","coordinates":[[[107.0826,-6.8149],[107.0799,-6.8225],[107.0858,-6.8253],[107.0845,-6.8259],[107.088,-6.8283],[107.0691,-6.824],[107.0654,-6.8199],[107.0511,-6.8148],[107.0496,-6.811],[107.0573,-6.8127],[107.0614,-6.8107],[107.0686,-6.814],[107.0756,-6.8147],[107.0783,-6.8134],[107.0826,-6.8149]]]}},{"type":"Feature","properties":{"name":"Wangunjaya","name_en":"Wangunjaya","admin_level":"7","osm_id":""},"geometry":{"type":"Polygon","coordinates":[[[107.1243,-6.7836],[107.1214,-6.7853],[107.1192,-6.7978],[107.1078,-6.8006],[107.1049,-6.7943],[107.1014,-6.7909],[107.0926,-6.7897],[107.0897,-6.7869],[107.088,-6.7829],[107.087,-6.7677],[107.0934,-6.7684],[107.101,-6.7634],[107.1088,-6.769],[107.1142,-6.7751],[107.1149,-6.7783],[107.1178,-6.7788],[107.1193,-6.7812],[107.1222,-6.7803],[107.1243,-6.7836]]]}}]}