{"type":"FeatureCollection","metadata":{"parent_osm_id":"gid_IDN_32_32_5_1","parent_name":"PahaeJae","parent_name_1":"SumateraUtara","parent_gid":"IDN.32.32.5_1","parent_level":"6","child_level":"7","count":13,"source":"GADM 4.1","generated":"2026-05-09"},"features":[{"type":"Feature","properties":{"name":"NahornopMarsada","name_en":"NahornopMarsada","admin_level":"7","osm_id":""},"geometry":{"type":"Polygon","coordinates":[[[99.1355,1.7816],[99.1512,1.7798],[99.1564,1.7821],[99.1694,1.7843],[99.1714,1.7778],[99.1694,1.773],[99.1657,1.7704],[99.1565,1.767],[99.1501,1.7677],[99.1451,1.7637],[99.1405,1.7664],[99.1412,1.7775],[99.1355,1.7816]]]}},{"type":"Feature","properties":{"name":"PardameanNainggolan","name_en":"PardameanNainggolan","admin_level":"7","osm_id":""},"geometry":{"type":"Polygon","coordinates":[[[99.1499,1.8392],[99.1369,1.8176],[99.1274,1.809],[99.1084,1.8016],[99.1015,1.8098],[99.115,1.8163],[99.1189,1.8202],[99.1294,1.8333],[99.1344,1.8481],[99.1459,1.8436],[99.1499,1.8392]]]}},{"type":"Feature","properties":{"name":"PardomuanNainggolan","name_en":"PardomuanNainggolan","admin_level":"7","osm_id":""},"geometry":{"type":"Polygon","coordinates":[[[99.1087,1.8017],[99.1274,1.809],[99.1369,1.8176],[99.1499,1.8392],[99.1565,1.8382],[99.1543,1.8274],[99.1517,1.8226],[99.1526,1.8184],[99.1399,1.8051],[99.1218,1.799],[99.12,1.7899],[99.1094,1.7887],[99.1087,1.8017]]]}},{"type":"Feature","properties":{"name":"ParsaoranNainggolan","name_en":"ParsaoranNainggolan","admin_level":"7","osm_id":""},"geometry":{"type":"Polygon","coordinates":[[[99.1131,1.7891],[99.1198,1.7899],[99.1288,1.7851],[99.1292,1.7791],[99.1339,1.7779],[99.1342,1.7673],[99.1269,1.7666],[99.1162,1.7692],[99.1116,1.7829],[99.1131,1.7891]]]}},{"type":"Feature","properties":{"name":"ParsaoranSamosir","name_en":"ParsaoranSamosir","admin_level":"7","osm_id":""},"geometry":{"type":"Polygon","coordinates":[[[99.1694,1.7843],[99.1564,1.7821],[99.1512,1.7798],[99.1343,1.7823],[99.1339,1.7779],[99.1292,1.7791],[99.1289,1.7883],[99.1295,1.7902],[99.1323,1.791],[99.1464,1.7884],[99.159,1.8002],[99.171,1.8156],[99.1728,1.8242],[99.1759,1.826],[99.1745,1.8302],[99.1774,1.8358],[99.1877,1.8293],[99.1931,1.8277],[99.1933,1.8184],[99.1876,1.8052],[99.1877,1.8012],[99.1787,1.7885],[99.1694,1.7843]]]}},{"type":"Feature","properties":{"name":"PasarSarulla","name_en":"PasarSarulla","admin_level":"7","osm_id":""},"geometry":{"type":"Polygon","coordinates":[[[99.1355,1.7816],[99.1412,1.7775],[99.1405,1.7664],[99.1342,1.7673],[99.1336,1.7689],[99.1343,1.7823],[99.1355,1.7816]]]}},{"type":"Feature","properties":{"name":"Setia","name_en":"Setia","admin_level":"7","osm_id":""},"geometry":{"type":"Polygon","coordinates":[[[99.1451,1.7637],[99.1501,1.7677],[99.1565,1.767],[99.1694,1.773],[99.1714,1.7778],[99.1694,1.7843],[99.1787,1.7885],[99.1877,1.8012],[99.1876,1.8052],[99.1914,1.8121],[99.1913,1.8155],[99.1933,1.8184],[99.1931,1.8277],[99.1877,1.8293],[99.1774,1.8358],[99.1784,1.8656],[99.1798,1.8741],[99.1835,1.8802],[99.2166,1.8764],[99.2378,1.8648],[99.2407,1.862],[99.244,1.8382],[99.2332,1.839],[99.2294,1.8416],[99.2278,1.8398],[99.2135,1.835],[99.2068,1.821],[99.2069,1.8125],[99.2031,1.8088],[99.2011,1.7954],[99.1899,1.7777],[99.1708,1.7645],[99.158,1.7633],[99.1478,1.7591],[99.1451,1.7637]]]}},{"type":"Feature","properties":{"name":"SigurungGurung","name_en":"SigurungGurung","admin_level":"7","osm_id":""},"geometry":{"type":"Polygon","coordinates":[[[99.1091,1.8134],[99.1041,1.812],[99.1008,1.8141],[99.0982,1.8236],[99.098,1.8324],[99.1035,1.8377],[99.1057,1.8315],[99.1046,1.8248],[99.1076,1.82],[99.1091,1.8134]]]}},{"type":"Feature","properties":{"name":"Silangkitang","name_en":"Silangkitang","admin_level":"7","osm_id":""},"geometry":{"type":"Polygon","coordinates":[[[99.1344,1.8481],[99.1294,1.8333],[99.1189,1.8202],[99.1091,1.8134],[99.1076,1.82],[99.1046,1.8248],[99.1057,1.8315],[99.1035,1.8377],[99.1104,1.845],[99.1108,1.8558],[99.1235,1.8491],[99.1332,1.8502],[99.1344,1.8481]]]}},{"type":"Feature","properties":{"name":"SiopatBahal","name_en":"SiopatBahal","admin_level":"7","osm_id":""},"geometry":{"type":"Polygon","coordinates":[[[99.1041,1.812],[99.1015,1.8098],[99.1087,1.8017],[99.1094,1.7887],[99.1131,1.7891],[99.1116,1.7829],[99.1162,1.7692],[99.097,1.7728],[99.1015,1.7762],[99.1021,1.7874],[99.0886,1.814],[99.0978,1.8306],[99.1008,1.8141],[99.1041,1.812]]]}},{"type":"Feature","properties":{"name":"SitoluOmpu","name_en":"SitoluOmpu","admin_level":"7","osm_id":""},"geometry":{"type":"Polygon","coordinates":[[[99.0016,1.7975],[99.0041,1.8112],[99.0573,1.8109],[99.0818,1.8068],[99.0852,1.8082],[99.0886,1.814],[99.1021,1.7874],[99.1015,1.7762],[99.0956,1.7729],[99.0518,1.782],[99.0158,1.7914],[99.0016,1.7975]]]}},{"type":"Feature","properties":{"name":"SukaMaju","name_en":"SukaMaju","admin_level":"7","osm_id":""},"geometry":{"type":"Polygon","coordinates":[[[99.1478,1.7591],[99.158,1.7633],[99.1708,1.7645],[99.1899,1.7777],[99.2011,1.7954],[99.2031,1.8088],[99.2069,1.8125],[99.2068,1.821],[99.2135,1.835],[99.2278,1.8398],[99.2294,1.8416],[99.2332,1.839],[99.244,1.8382],[99.2444,1.8279],[99.2407,1.824],[99.2407,1.817],[99.2388,1.8158],[99.2387,1.8113],[99.2194,1.7857],[99.2043,1.7744],[99.202,1.7709],[99.1959,1.766],[99.1827,1.7635],[99.165,1.7573],[99.1532,1.749],[99.1478,1.7591]]]}},{"type":"Feature","properties":{"name":"TardolokNauli","name_en":"TardolokNauli","admin_level":"7","osm_id":""},"geometry":{"type":"Polygon","coordinates":[[[99.1499,1.8392],[99.1459,1.8436],[99.1344,1.8481],[99.1332,1.8502],[99.1235,1.8491],[99.1108,1.8558],[99.1102,1.8764],[99.1176,1.8975],[99.1196,1.8978],[99.1201,1.8959],[99.1256,1.8926],[99.1415,1.886],[99.1632,1.885],[99.1835,1.8802],[99.1798,1.8741],[99.1784,1.8656],[99.1774,1.8358],[99.1745,1.8302],[99.1759,1.826],[99.1728,1.8242],[99.171,1.8156],[99.159,1.8002],[99.1464,1.7884],[99.1306,1.7909],[99.1288,1.7851],[99.1198,1.7899],[99.1218,1.799],[99.1399,1.8051],[99.1526,1.8184],[99.1517,1.8226],[99.1543,1.8274],[99.1565,1.8382],[99.1499,1.8392]]]}}]}