{"type":"FeatureCollection","metadata":{"parent_osm_id":"gid_IDN_31_11_20_1","parent_name":"SemendawaiTimur","parent_name_1":"SumateraSelatan","parent_gid":"IDN.31.11.20_1","parent_level":"6","child_level":"7","count":16,"source":"GADM 4.1","generated":"2026-05-08"},"features":[{"type":"Feature","properties":{"name":"BunginJaya","name_en":"BunginJaya","admin_level":"7","osm_id":""},"geometry":{"type":"Polygon","coordinates":[[[104.7791,-3.9073],[104.7904,-3.9079],[104.7995,-3.9056],[104.7996,-3.9085],[104.7863,-3.9184],[104.7824,-3.9151],[104.7791,-3.9073]]]}},{"type":"Feature","properties":{"name":"BurnaiJaya","name_en":"BurnaiJaya","admin_level":"7","osm_id":""},"geometry":{"type":"Polygon","coordinates":[[[104.8033,-3.8813],[104.8085,-3.8829],[104.8146,-3.8744],[104.819,-3.8811],[104.8337,-3.8803],[104.8314,-3.8877],[104.8343,-3.9126],[104.8163,-3.9132],[104.823,-3.9097],[104.823,-3.9063],[104.8214,-3.9059],[104.8216,-3.8996],[104.8205,-3.897],[104.8033,-3.8813]]]}},{"type":"Feature","properties":{"name":"BurnaiMulya","name_en":"BurnaiMulya","admin_level":"7","osm_id":""},"geometry":{"type":"Polygon","coordinates":[[[104.7923,-3.8959],[104.795,-3.8878],[104.797,-3.8878],[104.7981,-3.8854],[104.7978,-3.8834],[104.8005,-3.8838],[104.8001,-3.8815],[104.8033,-3.8813],[104.8205,-3.897],[104.823,-3.9097],[104.816,-3.9134],[104.812,-3.9138],[104.8039,-3.9125],[104.8027,-3.9086],[104.7996,-3.9089],[104.7995,-3.9056],[104.7904,-3.9079],[104.783,-3.9067],[104.7848,-3.9026],[104.7923,-3.8959]]]}},{"type":"Feature","properties":{"name":"HarapanJaya","name_en":"HarapanJaya","admin_level":"7","osm_id":""},"geometry":{"type":"Polygon","coordinates":[[[104.8593,-3.8732],[104.8578,-3.8795],[104.8591,-3.8822],[104.8548,-3.8885],[104.856,-3.8901],[104.8534,-3.8909],[104.8507,-3.887],[104.8494,-3.8805],[104.8513,-3.8743],[104.8593,-3.8732]]]}},{"type":"Feature","properties":{"name":"KarangAnyar","name_en":"KarangAnyar","admin_level":"7","osm_id":""},"geometry":{"type":"Polygon","coordinates":[[[104.825,-3.9134],[104.8339,-3.9127],[104.836,-3.9178],[104.8415,-3.9192],[104.8513,-3.9182],[104.8514,-3.9211],[104.8469,-3.9238],[104.8439,-3.9317],[104.8383,-3.9346],[104.8383,-3.9387],[104.8281,-3.9364],[104.8302,-3.9307],[104.825,-3.9134]]]}},{"type":"Feature","properties":{"name":"KarangMelati","name_en":"KarangMelati","admin_level":"7","osm_id":""},"geometry":{"type":"Polygon","coordinates":[[[104.7863,-3.9601],[104.7823,-3.9468],[104.7846,-3.9471],[104.7852,-3.9446],[104.7872,-3.9463],[104.7872,-3.9452],[104.7888,-3.9457],[104.7896,-3.9397],[104.7958,-3.9344],[104.7989,-3.9343],[104.8084,-3.9275],[104.8115,-3.9312],[104.8113,-3.951],[104.8088,-3.9503],[104.8073,-3.9521],[104.8076,-3.9548],[104.8027,-3.9569],[104.7977,-3.9571],[104.7949,-3.9555],[104.7927,-3.962],[104.7918,-3.9607],[104.7916,-3.9623],[104.7894,-3.9622],[104.7875,-3.9594],[104.7863,-3.9601]]]}},{"type":"Feature","properties":{"name":"KarangMenjangan","name_en":"KarangMenjangan","admin_level":"7","osm_id":""},"geometry":{"type":"Polygon","coordinates":[[[104.8517,-3.9404],[104.8614,-3.9584],[104.8382,-3.9668],[104.8341,-3.9593],[104.8302,-3.9578],[104.8251,-3.9603],[104.8203,-3.9496],[104.8212,-3.9469],[104.8274,-3.9418],[104.8281,-3.9364],[104.8348,-3.9374],[104.836,-3.939],[104.8408,-3.9388],[104.8408,-3.941],[104.844,-3.9429],[104.8447,-3.9415],[104.8517,-3.9404]]]}},{"type":"Feature","properties":{"name":"KarangMulya","name_en":"KarangMulya","admin_level":"7","osm_id":""},"geometry":{"type":"Polygon","coordinates":[[[104.8678,-3.9187],[104.8522,-3.9366],[104.8507,-3.9415],[104.8447,-3.9415],[104.844,-3.9429],[104.8408,-3.941],[104.8408,-3.9388],[104.8382,-3.939],[104.8383,-3.9346],[104.8439,-3.9317],[104.8469,-3.9238],[104.8514,-3.9211],[104.8513,-3.9182],[104.8678,-3.9187]]]}},{"type":"Feature","properties":{"name":"KotaMulya","name_en":"KotaMulya","admin_level":"7","osm_id":""},"geometry":{"type":"Polygon","coordinates":[[[104.7946,-3.9117],[104.7996,-3.9085],[104.8027,-3.9086],[104.8039,-3.9125],[104.812,-3.9138],[104.825,-3.9134],[104.8272,-3.9218],[104.8028,-3.9226],[104.8005,-3.9145],[104.7946,-3.9117]]]}},{"type":"Feature","properties":{"name":"KotaTanah","name_en":"KotaTanah","admin_level":"7","osm_id":""},"geometry":{"type":"Polygon","coordinates":[[[104.7705,-3.9215],[104.7746,-3.9199],[104.7774,-3.916],[104.7758,-3.9113],[104.7791,-3.9073],[104.7824,-3.9151],[104.7863,-3.9184],[104.7946,-3.9117],[104.8005,-3.9145],[104.8028,-3.9226],[104.8082,-3.9224],[104.8088,-3.9266],[104.7896,-3.9397],[104.7888,-3.9457],[104.7872,-3.9452],[104.7872,-3.9463],[104.7852,-3.9446],[104.7846,-3.9471],[104.7821,-3.9479],[104.7811,-3.9383],[104.7755,-3.9329],[104.7763,-3.9319],[104.7701,-3.9235],[104.7705,-3.9215]]]}},{"type":"Feature","properties":{"name":"MelatiAgung","name_en":"MelatiAgung","admin_level":"7","osm_id":""},"geometry":{"type":"Polygon","coordinates":[[[104.8267,-3.9218],[104.8302,-3.9307],[104.8269,-3.9402],[104.8151,-3.947],[104.8133,-3.9467],[104.8118,-3.949],[104.8105,-3.9357],[104.8115,-3.9312],[104.8092,-3.9299],[104.8082,-3.9224],[104.8267,-3.9218]]]}},{"type":"Feature","properties":{"name":"MelatiJaya","name_en":"MelatiJaya","admin_level":"7","osm_id":""},"geometry":{"type":"Polygon","coordinates":[[[104.8251,-3.9603],[104.8185,-3.9736],[104.8015,-3.9751],[104.7986,-3.9785],[104.7935,-3.9809],[104.7863,-3.9601],[104.7875,-3.9594],[104.7894,-3.9622],[104.7916,-3.9623],[104.7918,-3.9607],[104.7927,-3.962],[104.7939,-3.9608],[104.7949,-3.9555],[104.7991,-3.9573],[104.8076,-3.9548],[104.8073,-3.9521],[104.8088,-3.9503],[104.8113,-3.951],[104.8133,-3.9467],[104.8151,-3.947],[104.8269,-3.9402],[104.8274,-3.9418],[104.8212,-3.9469],[104.8203,-3.9496],[104.8251,-3.9603]]]}},{"type":"Feature","properties":{"name":"MulyaJaya","name_en":"MulyaJaya","admin_level":"7","osm_id":""},"geometry":{"type":"Polygon","coordinates":[[[104.8747,-3.8511],[104.8738,-3.853],[104.8752,-3.856],[104.8728,-3.8589],[104.8739,-3.8616],[104.8726,-3.8644],[104.8688,-3.8671],[104.8632,-3.8666],[104.8593,-3.8732],[104.8547,-3.8729],[104.8327,-3.8807],[104.819,-3.8811],[104.8146,-3.8744],[104.8085,-3.8829],[104.8034,-3.8812],[104.8075,-3.8783],[104.8095,-3.8748],[104.8079,-3.8662],[104.8091,-3.8517],[104.8162,-3.8462],[104.8192,-3.8397],[104.8397,-3.8437],[104.8439,-3.8394],[104.8612,-3.8375],[104.8594,-3.8491],[104.8668,-3.8485],[104.8729,-3.852],[104.8747,-3.8511]]]}},{"type":"Feature","properties":{"name":"Nirwana","name_en":"Nirwana","admin_level":"7","osm_id":""},"geometry":{"type":"Polygon","coordinates":[[[104.8539,-3.7762],[104.8575,-3.7764],[104.859,-3.7781],[104.8622,-3.7865],[104.8626,-3.8061],[104.8651,-3.812],[104.8612,-3.8375],[104.8439,-3.8394],[104.8397,-3.8437],[104.8192,-3.8397],[104.8173,-3.8356],[104.8185,-3.8337],[104.8287,-3.8266],[104.8275,-3.8243],[104.8303,-3.8239],[104.8295,-3.8196],[104.8318,-3.8192],[104.842,-3.8074],[104.8424,-3.8019],[104.8452,-3.7984],[104.8444,-3.7953],[104.8464,-3.7933],[104.8503,-3.7929],[104.8495,-3.7902],[104.8518,-3.787],[104.8514,-3.7827],[104.8539,-3.7762]]]}},{"type":"Feature","properties":{"name":"TulungHarapan","name_en":"TulungHarapan","admin_level":"7","osm_id":""},"geometry":{"type":"Polygon","coordinates":[[[104.8649,-3.8996],[104.8736,-3.9073],[104.8714,-3.9141],[104.8678,-3.9187],[104.8454,-3.918],[104.8415,-3.9192],[104.836,-3.9178],[104.8339,-3.9127],[104.8336,-3.898],[104.8317,-3.8938],[104.8314,-3.8877],[104.8337,-3.8803],[104.8513,-3.8743],[104.8494,-3.8805],[104.8507,-3.887],[104.8534,-3.8909],[104.856,-3.8901],[104.8649,-3.8996]]]}},{"type":"Feature","properties":{"name":"WanaSari","name_en":"WanaSari","admin_level":"7","osm_id":""},"geometry":{"type":"Polygon","coordinates":[[[104.8627,-3.7868],[104.8693,-3.7911],[104.8686,-3.7934],[104.8739,-3.7995],[104.8781,-3.8106],[104.8757,-3.8212],[104.8764,-3.8266],[104.8742,-3.8297],[104.8749,-3.8339],[104.8728,-3.8384],[104.8747,-3.8511],[104.8729,-3.852],[104.8668,-3.8485],[104.8594,-3.8491],[104.8651,-3.812],[104.8626,-3.8061],[104.8627,-3.7868]]]}}]}