{"type":"FeatureCollection","metadata":{"parent_osm_id":"gid_IDN_30_13_7_1","parent_name":"Panti","parent_name_1":"SumateraBarat","parent_gid":"IDN.30.13.7_1","parent_level":"6","child_level":"7","count":1,"source":"GADM 4.1","generated":"2026-05-08"},"features":[{"type":"Feature","properties":{"name":"Panti","name_en":"Panti","admin_level":"7","osm_id":""},"geometry":{"type":"Polygon","coordinates":[[[100.0305,0.2383],[100.0271,0.2554],[100.0297,0.2591],[100.0262,0.2712],[100.0258,0.2881],[100.0242,0.2888],[100.024,0.2958],[100.0181,0.3024],[100.0181,0.3046],[100.0258,0.3161],[100.0269,0.3202],[100.0345,0.3204],[100.0345,0.3313],[100.0377,0.3349],[100.0372,0.3391],[100.0334,0.3457],[100.019,0.3484],[100.0181,0.3541],[100.007,0.361],[100.0036,0.3662],[100.0036,0.3701],[100.0093,0.3743],[100.0176,0.3768],[100.018,0.3793],[100.0279,0.3793],[100.031,0.3777],[100.0364,0.3786],[100.0398,0.382],[100.0402,0.3877],[100.0435,0.3903],[100.072,0.39],[100.0863,0.4021],[100.0813,0.4098],[100.08,0.4191],[100.0811,0.4207],[100.0793,0.4239],[100.0801,0.4304],[100.0779,0.4336],[100.0796,0.4444],[100.0775,0.4458],[100.0811,0.4462],[100.0813,0.4474],[100.0812,0.4493],[100.0781,0.4505],[100.0801,0.4505],[100.0813,0.4535],[100.0809,0.4591],[100.0821,0.4606],[100.0789,0.4622],[100.0824,0.4652],[100.0801,0.4694],[100.0771,0.4704],[100.0822,0.4747],[100.0965,0.4749],[100.0961,0.4781],[100.1022,0.4772],[100.1102,0.4796],[100.116,0.4835],[100.1178,0.4802],[100.1216,0.4789],[100.1321,0.4675],[100.1368,0.4649],[100.1403,0.455],[100.1501,0.45],[100.1512,0.4409],[100.1457,0.4361],[100.1453,0.4253],[100.1413,0.4228],[100.143,0.4198],[100.1415,0.4103],[100.1463,0.409],[100.149,0.4032],[100.1518,0.4038],[100.1529,0.4019],[100.1578,0.3999],[100.1576,0.3956],[100.1617,0.3908],[100.1649,0.3731],[100.1681,0.366],[100.1647,0.3608],[100.1638,0.3546],[100.1688,0.346],[100.1668,0.3395],[100.1685,0.3291],[100.1707,0.3274],[100.1722,0.3192],[100.175,0.3162],[100.1773,0.3093],[100.1769,0.2976],[100.1719,0.2763],[100.1731,0.2669],[100.168,0.2618],[100.1626,0.262],[100.1583,0.264],[100.1487,0.2756],[100.1401,0.2756],[100.137,0.2724],[100.126,0.2717],[100.1208,0.2735],[100.1141,0.2801],[100.1076,0.2799],[100.1104,0.2728],[100.1107,0.2669],[100.1071,0.2586],[100.0994,0.2588],[100.0989,0.2614],[100.0896,0.2608],[100.0882,0.2623],[100.0818,0.2627],[100.081,0.2591],[100.0738,0.254],[100.0722,0.2446],[100.0621,0.2427],[100.0608,0.24],[100.0531,0.2416],[100.0485,0.2403],[100.0479,0.238],[100.0305,0.2383]]]}}]}