{"type":"FeatureCollection","metadata":{"parent_osm_id":"gid_IDN_30_16_3_1","parent_name":"Silungkang","parent_name_1":"SumateraBarat","parent_gid":"IDN.30.16.3_1","parent_level":"6","child_level":"7","count":5,"source":"GADM 4.1","generated":"2026-05-09"},"features":[{"type":"Feature","properties":{"name":"MuaroKalaban","name_en":"MuaroKalaban","admin_level":"7","osm_id":""},"geometry":{"type":"Polygon","coordinates":[[[100.7781,-0.6939],[100.7854,-0.6936],[100.7895,-0.6978],[100.7928,-0.6957],[100.7966,-0.6964],[100.7995,-0.695],[100.8017,-0.6962],[100.8018,-0.7019],[100.8043,-0.7078],[100.8003,-0.7168],[100.8018,-0.7189],[100.7864,-0.7192],[100.7745,-0.6963],[100.7781,-0.6939]]]}},{"type":"Feature","properties":{"name":"SilungkangDuo","name_en":"SilungkangDuo","admin_level":"7","osm_id":""},"geometry":{"type":"Polygon","coordinates":[[[100.7467,-0.7239],[100.7541,-0.7219],[100.7574,-0.7155],[100.7625,-0.7125],[100.7671,-0.7206],[100.7621,-0.7204],[100.7632,-0.7241],[100.7578,-0.728],[100.7543,-0.7356],[100.7491,-0.7328],[100.7467,-0.7239]]]}},{"type":"Feature","properties":{"name":"SilungkangOso","name_en":"SilungkangOso","admin_level":"7","osm_id":""},"geometry":{"type":"Polygon","coordinates":[[[100.7543,-0.7356],[100.7578,-0.728],[100.7629,-0.7246],[100.7647,-0.7266],[100.7665,-0.7263],[100.7751,-0.7212],[100.7832,-0.7195],[100.7799,-0.731],[100.7849,-0.7407],[100.7825,-0.7475],[100.7776,-0.7532],[100.7746,-0.7506],[100.7713,-0.7503],[100.7668,-0.7449],[100.7599,-0.7406],[100.7535,-0.7407],[100.7543,-0.7356]]]}},{"type":"Feature","properties":{"name":"SilungkangTigo","name_en":"SilungkangTigo","admin_level":"7","osm_id":""},"geometry":{"type":"Polygon","coordinates":[[[100.7731,-0.6989],[100.7745,-0.6963],[100.786,-0.7185],[100.7751,-0.7212],[100.7647,-0.7266],[100.7621,-0.7204],[100.7671,-0.7206],[100.7625,-0.7125],[100.7701,-0.7062],[100.7731,-0.6989]]]}},{"type":"Feature","properties":{"name":"TaratakBancah","name_en":"TaratakBancah","admin_level":"7","osm_id":""},"geometry":{"type":"Polygon","coordinates":[[[100.786,-0.7185],[100.8036,-0.7199],[100.8114,-0.7363],[100.8108,-0.7431],[100.8146,-0.7455],[100.8221,-0.7583],[100.8215,-0.7664],[100.8168,-0.7675],[100.8112,-0.7663],[100.8118,-0.7697],[100.8101,-0.7716],[100.802,-0.7733],[100.8013,-0.7709],[100.7981,-0.7688],[100.7891,-0.7701],[100.7822,-0.7621],[100.7776,-0.7532],[100.7825,-0.7475],[100.7849,-0.7407],[100.7799,-0.7306],[100.7832,-0.7195],[100.786,-0.7185]]]}}]}