{"type":"FeatureCollection","metadata":{"parent_osm_id":"gid_IDN_30_19_8_1","parent_name":"Kubung","parent_name_1":"SumateraBarat","parent_gid":"IDN.30.19.8_1","parent_level":"6","child_level":"7","count":8,"source":"GADM 4.1","generated":"2026-05-09"},"features":[{"type":"Feature","properties":{"name":"GantuangCiri","name_en":"GantuangCiri","admin_level":"7","osm_id":""},"geometry":{"type":"Polygon","coordinates":[[[100.5651,-0.9034],[100.5639,-0.8934],[100.5595,-0.8908],[100.5571,-0.8844],[100.5919,-0.8552],[100.6025,-0.855],[100.6099,-0.8489],[100.6152,-0.8573],[100.6161,-0.8647],[100.6129,-0.8752],[100.6035,-0.8833],[100.5909,-0.8999],[100.5785,-0.9054],[100.5651,-0.9034]]]}},{"type":"Feature","properties":{"name":"Gauang","name_en":"Gauang","admin_level":"7","osm_id":""},"geometry":{"type":"Polygon","coordinates":[[[100.6788,-0.8046],[100.6781,-0.7958],[100.6878,-0.7923],[100.7029,-0.784],[100.7077,-0.8056],[100.6935,-0.8075],[100.6788,-0.8046]]]}},{"type":"Feature","properties":{"name":"KotoBaru","name_en":"KotoBaru","admin_level":"7","osm_id":""},"geometry":{"type":"Polygon","coordinates":[[[100.6504,-0.8065],[100.6538,-0.8077],[100.658,-0.806],[100.6617,-0.8095],[100.6672,-0.8108],[100.6677,-0.821],[100.6805,-0.8377],[100.6952,-0.8477],[100.6936,-0.8518],[100.6782,-0.8516],[100.6705,-0.8543],[100.6663,-0.854],[100.6556,-0.8597],[100.6393,-0.8647],[100.6363,-0.8634],[100.6237,-0.8691],[100.6194,-0.8695],[100.6129,-0.8751],[100.6161,-0.8647],[100.6152,-0.8573],[100.6211,-0.8502],[100.6281,-0.849],[100.6392,-0.8306],[100.6327,-0.824],[100.6566,-0.8211],[100.6504,-0.8065]]]}},{"type":"Feature","properties":{"name":"KotoHilalang","name_en":"KotoHilalang","admin_level":"7","osm_id":""},"geometry":{"type":"Polygon","coordinates":[[[100.5337,-0.8495],[100.5313,-0.8445],[100.5382,-0.836],[100.5827,-0.8345],[100.6081,-0.8386],[100.6099,-0.8489],[100.6025,-0.855],[100.5919,-0.8552],[100.5571,-0.8844],[100.5451,-0.8554],[100.5435,-0.8543],[100.5375,-0.8556],[100.5337,-0.8495]]]}},{"type":"Feature","properties":{"name":"Panyakalan","name_en":"Panyakalan","admin_level":"7","osm_id":""},"geometry":{"type":"Polygon","coordinates":[[[100.6672,-0.8108],[100.6751,-0.8084],[100.679,-0.8062],[100.6788,-0.8046],[100.6935,-0.8075],[100.7077,-0.8056],[100.706,-0.8224],[100.7032,-0.8317],[100.6952,-0.8477],[100.6844,-0.8413],[100.6735,-0.8298],[100.6677,-0.821],[100.6672,-0.8108]]]}},{"type":"Feature","properties":{"name":"SaokLaweh","name_en":"SaokLaweh","admin_level":"7","osm_id":""},"geometry":{"type":"Polygon","coordinates":[[[100.6725,-0.7904],[100.6697,-0.7878],[100.6706,-0.7828],[100.673,-0.7805],[100.6726,-0.7689],[100.6782,-0.7672],[100.6849,-0.762],[100.6865,-0.7624],[100.6872,-0.7539],[100.6964,-0.7667],[100.7029,-0.784],[100.6878,-0.7923],[100.6781,-0.7958],[100.6725,-0.7904]]]}},{"type":"Feature","properties":{"name":"Selayo","name_en":"Selayo","admin_level":"7","osm_id":""},"geometry":{"type":"Polygon","coordinates":[[[100.6427,-0.7973],[100.6416,-0.805],[100.6472,-0.8044],[100.6504,-0.8065],[100.6566,-0.8211],[100.6327,-0.824],[100.6392,-0.8306],[100.6281,-0.849],[100.6211,-0.8502],[100.6152,-0.8573],[100.6099,-0.8489],[100.6081,-0.8386],[100.5827,-0.8345],[100.5382,-0.836],[100.5411,-0.833],[100.543,-0.8273],[100.5426,-0.8178],[100.5448,-0.8149],[100.5613,-0.819],[100.5925,-0.8073],[100.6209,-0.7997],[100.6221,-0.798],[100.6254,-0.7995],[100.6361,-0.7952],[100.6427,-0.7973]]]}},{"type":"Feature","properties":{"name":"TanjuangBingkuang","name_en":"TanjuangBingkuang","admin_level":"7","osm_id":""},"geometry":{"type":"Polygon","coordinates":[[[100.6235,-0.7719],[100.6097,-0.7721],[100.606,-0.7806],[100.5971,-0.7851],[100.5708,-0.7867],[100.569,-0.7894],[100.5702,-0.7945],[100.5644,-0.7997],[100.563,-0.7973],[100.5662,-0.7927],[100.565,-0.7912],[100.563,-0.792],[100.5582,-0.8001],[100.5539,-0.8027],[100.5442,-0.8045],[100.5414,-0.8091],[100.5045,-0.7863],[100.5055,-0.7752],[100.5661,-0.7516],[100.5749,-0.7462],[100.5867,-0.7423],[100.6085,-0.7293],[100.6075,-0.7356],[100.6085,-0.7412],[100.6235,-0.7719]]]}}]}