{"type":"FeatureCollection","metadata":{"parent_osm_id":"gid_IDN_28_7_10_1","parent_name":"Polinggona","parent_name_1":"SulawesiTenggara","parent_gid":"IDN.28.7.10_1","parent_level":"6","child_level":"7","count":6,"source":"GADM 4.1","generated":"2026-05-08"},"features":[{"type":"Feature","properties":{"name":"PlasmaJaya","name_en":"PlasmaJaya","admin_level":"7","osm_id":""},"geometry":{"type":"Polygon","coordinates":[[[121.7977,-4.398],[121.7984,-4.4036],[121.8012,-4.408],[121.7324,-4.4049],[121.7084,-4.4235],[121.6987,-4.4416],[121.6974,-4.44],[121.6934,-4.4414],[121.6906,-4.438],[121.6798,-4.4336],[121.675,-4.4337],[121.6146,-4.4653],[121.6043,-4.4672],[121.6026,-4.464],[121.5946,-4.4595],[121.6009,-4.4486],[121.601,-4.4249],[121.6043,-4.4028],[121.6067,-4.4008],[121.6058,-4.394],[121.6102,-4.3957],[121.6123,-4.3934],[121.6137,-4.3943],[121.6144,-4.3865],[121.6173,-4.3848],[121.6188,-4.3806],[121.6207,-4.3792],[121.6232,-4.38],[121.6231,-4.375],[121.6212,-4.3744],[121.6229,-4.3726],[121.6408,-4.3748],[121.6528,-4.3702],[121.6636,-4.3749],[121.6673,-4.3743],[121.6719,-4.3686],[121.677,-4.3665],[121.6879,-4.3692],[121.6999,-4.3745],[121.7345,-4.3768],[121.7556,-4.3765],[121.767,-4.3823],[121.7726,-4.389],[121.7866,-4.3927],[121.7943,-4.3927],[121.7977,-4.398]]]}},{"type":"Feature","properties":{"name":"Polinggona","name_en":"Polinggona","admin_level":"7","osm_id":""},"geometry":{"type":"Polygon","coordinates":[[[121.6042,-4.4029],[121.601,-4.4249],[121.6009,-4.4486],[121.5946,-4.4595],[121.5754,-4.456],[121.5754,-4.4602],[121.5774,-4.4625],[121.5754,-4.464],[121.5675,-4.464],[121.5642,-4.4608],[121.5475,-4.4599],[121.553,-4.4568],[121.5598,-4.4491],[121.5636,-4.4475],[121.5761,-4.4267],[121.5799,-4.4246],[121.5809,-4.4167],[121.5798,-4.4132],[121.5839,-4.4099],[121.5816,-4.4087],[121.5839,-4.4077],[121.5881,-4.4095],[121.5889,-4.4069],[121.5916,-4.4071],[121.5923,-4.4054],[121.5967,-4.4047],[121.5976,-4.4065],[121.6015,-4.402],[121.6021,-4.4035],[121.6042,-4.4029]]]}},{"type":"Feature","properties":{"name":"Pondouwaee","name_en":"Pondouwaee","admin_level":"7","osm_id":""},"geometry":{"type":"Polygon","coordinates":[[[121.5475,-4.4599],[121.5656,-4.4614],[121.5675,-4.464],[121.5701,-4.479],[121.5539,-4.4753],[121.533,-4.4665],[121.5357,-4.4598],[121.5475,-4.4599]]]}},{"type":"Feature","properties":{"name":"Puudongi","name_en":"Puudongi","admin_level":"7","osm_id":""},"geometry":{"type":"Polygon","coordinates":[[[121.5946,-4.4595],[121.6041,-4.4658],[121.6043,-4.493],[121.5962,-4.488],[121.5701,-4.479],[121.5675,-4.464],[121.5769,-4.4632],[121.5754,-4.456],[121.5946,-4.4595]]]}},{"type":"Feature","properties":{"name":"Tanggeau","name_en":"Tanggeau","admin_level":"7","osm_id":""},"geometry":{"type":"Polygon","coordinates":[[[121.6043,-4.4672],[121.6146,-4.4653],[121.6691,-4.4379],[121.6591,-4.4469],[121.6513,-4.4608],[121.6439,-4.4749],[121.6364,-4.4972],[121.6336,-4.4898],[121.6271,-4.486],[121.6182,-4.4871],[121.6073,-4.4934],[121.6043,-4.493],[121.6043,-4.4672]]]}},{"type":"Feature","properties":{"name":"Wulonggere","name_en":"Wulonggere","admin_level":"7","osm_id":""},"geometry":{"type":"Polygon","coordinates":[[[121.5761,-4.4267],[121.5636,-4.4475],[121.5598,-4.4491],[121.553,-4.4568],[121.5475,-4.4599],[121.5357,-4.4598],[121.5398,-4.4521],[121.5369,-4.4422],[121.5376,-4.4404],[121.5548,-4.432],[121.559,-4.4277],[121.5761,-4.4267]]]}}]}