{"type":"FeatureCollection","metadata":{"parent_osm_id":"gid_IDN_27_8_19_1","parent_name":"PosoPesisir","parent_name_1":"SulawesiTengah","parent_gid":"IDN.27.8.19_1","parent_level":"6","child_level":"7","count":14,"source":"GADM 4.1","generated":"2026-05-09"},"features":[{"type":"Feature","properties":{"name":"Bega","name_en":"Bega","admin_level":"7","osm_id":""},"geometry":{"type":"Polygon","coordinates":[[[120.6682,-1.4207],[120.6623,-1.4194],[120.6632,-1.4164],[120.6675,-1.417],[120.6682,-1.4207]]]}},{"type":"Feature","properties":{"name":"Betania","name_en":"Betania","admin_level":"7","osm_id":""},"geometry":{"type":"Polygon","coordinates":[[[120.6793,-1.4449],[120.6618,-1.4481],[120.6692,-1.4249],[120.6786,-1.427],[120.6795,-1.4325],[120.6778,-1.4331],[120.6793,-1.4449]]]}},{"type":"Feature","properties":{"name":"Kasiguncu","name_en":"Kasiguncu","admin_level":"7","osm_id":""},"geometry":{"type":"Polygon","coordinates":[[[120.649,-1.451],[120.6202,-1.4491],[120.6233,-1.4278],[120.6334,-1.4238],[120.64,-1.4239],[120.6476,-1.4197],[120.6456,-1.4157],[120.6676,-1.4165],[120.6632,-1.4164],[120.6623,-1.4187],[120.6682,-1.4207],[120.6692,-1.4249],[120.6611,-1.4511],[120.649,-1.451]]]}},{"type":"Feature","properties":{"name":"LantoJaya","name_en":"LantoJaya","admin_level":"7","osm_id":""},"geometry":{"type":"Polygon","coordinates":[[[120.7175,-1.4127],[120.7278,-1.426],[120.7351,-1.4346],[120.7195,-1.4375],[120.6987,-1.4114],[120.7042,-1.3999],[120.7071,-1.3989],[120.7119,-1.4032],[120.7175,-1.4127]]]}},{"type":"Feature","properties":{"name":"Lape","name_en":"Lape","admin_level":"7","osm_id":""},"geometry":{"type":"Polygon","coordinates":[[[120.4236,-1.3911],[120.4181,-1.3803],[120.6006,-1.3722],[120.61,-1.3607],[120.6166,-1.3612],[120.6347,-1.3584],[120.6428,-1.3608],[120.6465,-1.3686],[120.645,-1.3693],[120.645,-1.3717],[120.6318,-1.3785],[120.6302,-1.3828],[120.6224,-1.3811],[120.6107,-1.3829],[120.6051,-1.382],[120.4236,-1.3911]]]}},{"type":"Feature","properties":{"name":"Mapane","name_en":"Mapane","admin_level":"7","osm_id":""},"geometry":{"type":"Polygon","coordinates":[[[120.6456,-1.4157],[120.6446,-1.4063],[120.6459,-1.4078],[120.6476,-1.4054],[120.6524,-1.4045],[120.6568,-1.4074],[120.6605,-1.4047],[120.6639,-1.4059],[120.6664,-1.4016],[120.672,-1.3985],[120.6733,-1.399],[120.6725,-1.4051],[120.6749,-1.4106],[120.6748,-1.4142],[120.6824,-1.417],[120.6792,-1.4216],[120.6803,-1.4244],[120.6785,-1.4264],[120.6691,-1.4249],[120.6676,-1.4165],[120.6456,-1.4157]]]}},{"type":"Feature","properties":{"name":"Masamba","name_en":"Masamba","admin_level":"7","osm_id":""},"geometry":{"type":"Polygon","coordinates":[[[120.6446,-1.4066],[120.6318,-1.4159],[120.6206,-1.4154],[120.6347,-1.3988],[120.6566,-1.3821],[120.658,-1.3791],[120.6594,-1.3795],[120.6582,-1.3808],[120.6591,-1.3819],[120.6608,-1.3807],[120.6612,-1.3838],[120.6618,-1.3818],[120.6654,-1.3835],[120.6646,-1.3939],[120.6672,-1.3921],[120.673,-1.398],[120.6664,-1.4016],[120.6639,-1.4059],[120.6605,-1.4047],[120.6568,-1.4074],[120.6524,-1.4045],[120.6476,-1.4054],[120.6459,-1.4078],[120.6446,-1.4066]]]}},{"type":"Feature","properties":{"name":"Masani","name_en":"Masani","admin_level":"7","osm_id":""},"geometry":{"type":"Polygon","coordinates":[[[120.4267,-1.3976],[120.4236,-1.3911],[120.6051,-1.382],[120.6107,-1.3829],[120.6224,-1.3811],[120.6302,-1.3828],[120.6266,-1.3836],[120.6203,-1.3884],[120.4272,-1.3992],[120.4267,-1.3976]]]}},{"type":"Feature","properties":{"name":"Pinedapa","name_en":"Pinedapa","admin_level":"7","osm_id":""},"geometry":{"type":"Polygon","coordinates":[[[120.4355,-1.4226],[120.4272,-1.3992],[120.6203,-1.3884],[120.6266,-1.3836],[120.6322,-1.3819],[120.6411,-1.384],[120.6349,-1.3917],[120.6339,-1.3954],[120.6101,-1.4149],[120.5663,-1.4129],[120.5566,-1.4172],[120.4355,-1.4226]]]}},{"type":"Feature","properties":{"name":"Saatu","name_en":"Saatu","admin_level":"7","osm_id":""},"geometry":{"type":"Polygon","coordinates":[[[120.6206,-1.4154],[120.6101,-1.4149],[120.6339,-1.3954],[120.6349,-1.3917],[120.6411,-1.384],[120.655,-1.3747],[120.6562,-1.3757],[120.658,-1.3782],[120.6566,-1.3821],[120.6375,-1.3961],[120.6206,-1.4154]]]}},{"type":"Feature","properties":{"name":"Tiwaa","name_en":"Tiwaa","admin_level":"7","osm_id":""},"geometry":{"type":"Polygon","coordinates":[[[120.4116,-1.3668],[120.4072,-1.3576],[120.5321,-1.3398],[120.5574,-1.3322],[120.5867,-1.3178],[120.592,-1.3178],[120.6018,-1.3136],[120.6154,-1.3061],[120.6227,-1.297],[120.6237,-1.2999],[120.6292,-1.3003],[120.6291,-1.3024],[120.6339,-1.307],[120.638,-1.3079],[120.6377,-1.3116],[120.6404,-1.3136],[120.6348,-1.3162],[120.6322,-1.322],[120.6276,-1.3243],[120.6045,-1.3291],[120.5927,-1.3296],[120.5691,-1.342],[120.5512,-1.3474],[120.5397,-1.355],[120.4116,-1.3668]]]}},{"type":"Feature","properties":{"name":"Toini","name_en":"Toini","admin_level":"7","osm_id":""},"geometry":{"type":"Polygon","coordinates":[[[120.7195,-1.4375],[120.6793,-1.4449],[120.6778,-1.4331],[120.6795,-1.4322],[120.678,-1.4268],[120.6803,-1.4244],[120.6791,-1.4219],[120.6824,-1.417],[120.6855,-1.4191],[120.6934,-1.4194],[120.6942,-1.4162],[120.6994,-1.4121],[120.7195,-1.4375]]]}},{"type":"Feature","properties":{"name":"Tokorondo","name_en":"Tokorondo","admin_level":"7","osm_id":""},"geometry":{"type":"Polygon","coordinates":[[[120.4181,-1.3803],[120.4116,-1.3668],[120.5397,-1.355],[120.5512,-1.3474],[120.5691,-1.342],[120.5927,-1.3296],[120.6045,-1.3291],[120.6276,-1.3243],[120.6322,-1.322],[120.6348,-1.3162],[120.6391,-1.3145],[120.6405,-1.3143],[120.6413,-1.321],[120.6469,-1.3303],[120.6462,-1.3493],[120.6477,-1.352],[120.643,-1.3608],[120.6347,-1.3584],[120.6166,-1.3612],[120.61,-1.3607],[120.6006,-1.3722],[120.4181,-1.3803]]]}},{"type":"Feature","properties":{"name":"Towu","name_en":"Towu","admin_level":"7","osm_id":""},"geometry":{"type":"Polygon","coordinates":[[[120.4072,-1.3576],[120.4035,-1.3521],[120.5091,-1.3401],[120.5453,-1.3318],[120.5785,-1.3134],[120.5888,-1.3098],[120.5945,-1.3008],[120.6056,-1.2887],[120.6074,-1.2843],[120.6122,-1.2849],[120.6224,-1.2949],[120.6198,-1.3019],[120.6154,-1.3061],[120.6018,-1.3136],[120.592,-1.3178],[120.5867,-1.3178],[120.5574,-1.3322],[120.5321,-1.3398],[120.4072,-1.3576]]]}}]}