{"type":"FeatureCollection","metadata":{"parent_osm_id":"gid_IDN_23_2_2_1","parent_name":"Andey","parent_name_1":"Papua","parent_gid":"IDN.23.2.2_1","parent_level":"6","child_level":"7","count":6,"source":"GADM 4.1","generated":"2026-05-08"},"features":[{"type":"Feature","properties":{"name":"Rodifu","name_en":"Rodifu","admin_level":"7","osm_id":""},"geometry":{"type":"Polygon","coordinates":[[[135.9807,-0.9151],[135.97,-0.901],[135.978,-0.8932],[135.9854,-0.8805],[135.9945,-0.8761],[136.0023,-0.8687],[136.0163,-0.8617],[136.0259,-0.8733],[136.0237,-0.881],[136.0113,-0.8852],[135.9989,-0.8932],[135.9908,-0.901],[135.9807,-0.9151]]]}},{"type":"Feature","properties":{"name":"Rumbin","name_en":"Rumbin","admin_level":"7","osm_id":""},"geometry":{"type":"Polygon","coordinates":[[[135.97,-0.901],[135.9807,-0.9151],[135.9538,-0.9434],[135.8972,-0.9961],[135.8723,-0.9674],[135.8632,-0.9622],[135.8656,-0.9529],[135.8745,-0.9352],[135.877,-0.9244],[135.877,-0.9194],[135.8728,-0.9113],[135.8746,-0.9015],[135.8847,-0.8839],[135.8951,-0.8722],[135.9487,-0.9043],[135.97,-0.901]]]}},{"type":"Feature","properties":{"name":"Warbinsi","name_en":"Warbinsi","admin_level":"7","osm_id":""},"geometry":{"type":"Polygon","coordinates":[[[135.9807,-0.9151],[135.9908,-0.901],[135.9989,-0.8932],[136.0113,-0.8852],[136.0237,-0.881],[136.0269,-0.8883],[136.0275,-0.8942],[136.0259,-0.8978],[136.0151,-0.9007],[136.0092,-0.905],[136.0096,-0.9164],[136.0009,-0.9328],[135.9884,-0.9245],[135.9807,-0.9151]]]}},{"type":"Feature","properties":{"name":"Wodu/makuker","name_en":"Wodu/makuker","admin_level":"7","osm_id":""},"geometry":{"type":"Polygon","coordinates":[[[136.0002,-0.8524],[135.9774,-0.8606],[135.971,-0.868],[135.9578,-0.8697],[135.9451,-0.8687],[135.921,-0.8513],[135.9507,-0.824],[135.9536,-0.8294],[135.9625,-0.8358],[135.9642,-0.8426],[135.9745,-0.8453],[135.9917,-0.8468],[136.0002,-0.8524]]]}},{"type":"Feature","properties":{"name":"Wonabraidi","name_en":"Wonabraidi","admin_level":"7","osm_id":""},"geometry":{"type":"Polygon","coordinates":[[[135.8972,-0.9961],[135.9538,-0.9434],[135.9807,-0.9151],[135.9884,-0.9245],[136.0009,-0.9328],[136.003,-0.9389],[135.9965,-0.9527],[135.9929,-0.9559],[135.9939,-0.9602],[135.9722,-0.9818],[135.9671,-0.9895],[135.9661,-1.0068],[135.9168,-1.0071],[135.9057,-1.0059],[135.8972,-0.9961]]]}},{"type":"Feature","properties":{"name":"Wouna","name_en":"Wouna","admin_level":"7","osm_id":""},"geometry":{"type":"Polygon","coordinates":[[[136.0163,-0.8617],[136.0023,-0.8687],[135.9945,-0.8761],[135.9854,-0.8805],[135.978,-0.8932],[135.9696,-0.9013],[135.9487,-0.9043],[135.8951,-0.8722],[135.921,-0.8513],[135.9451,-0.8687],[135.9578,-0.8697],[135.971,-0.868],[135.9774,-0.8606],[136.0002,-0.8524],[136.0107,-0.8567],[136.0163,-0.8617]]]}}]}