{"type":"FeatureCollection","metadata":{"parent_osm_id":"gid_IDN_26_3_17_1","parent_name":"Patimpeng","parent_name_1":"SulawesiSelatan","parent_gid":"IDN.26.3.17_1","parent_level":"6","child_level":"7","count":10,"source":"GADM 4.1","generated":"2026-05-09"},"features":[{"type":"Feature","properties":{"name":"Batulappa","name_en":"Batulappa","admin_level":"7","osm_id":""},"geometry":{"type":"Polygon","coordinates":[[[120.1238,-4.9663],[120.1146,-4.9595],[120.1144,-4.952],[120.1226,-4.9514],[120.1366,-4.9371],[120.1599,-4.9387],[120.1551,-4.9444],[120.142,-4.9454],[120.1347,-4.9503],[120.1287,-4.9596],[120.1248,-4.9621],[120.1238,-4.9663]]]}},{"type":"Feature","properties":{"name":"BuluUlaweng","name_en":"BuluUlaweng","admin_level":"7","osm_id":""},"geometry":{"type":"Polygon","coordinates":[[[120.1335,-4.8355],[120.1397,-4.8359],[120.148,-4.8422],[120.1561,-4.8434],[120.1418,-4.8674],[120.1392,-4.8771],[120.1299,-4.8737],[120.1241,-4.8734],[120.1133,-4.8748],[120.1043,-4.8784],[120.1148,-4.8629],[120.1163,-4.8563],[120.1236,-4.8415],[120.1335,-4.8355]]]}},{"type":"Feature","properties":{"name":"Latellang","name_en":"Latellang","admin_level":"7","osm_id":""},"geometry":{"type":"Polygon","coordinates":[[[120.1455,-4.9745],[120.1338,-4.9674],[120.1246,-4.9668],[120.1244,-4.9627],[120.1287,-4.9596],[120.1347,-4.9503],[120.141,-4.9459],[120.1549,-4.9445],[120.1545,-4.9486],[120.1494,-4.9536],[120.1445,-4.9559],[120.1429,-4.959],[120.1455,-4.9745]]]}},{"type":"Feature","properties":{"name":"Maddanrengpulu","name_en":"Maddanrengpulu","admin_level":"7","osm_id":""},"geometry":{"type":"Polygon","coordinates":[[[120.1549,-4.9445],[120.1625,-4.9377],[120.1666,-4.9401],[120.1757,-4.9414],[120.2021,-4.9647],[120.2063,-4.9699],[120.2081,-4.9786],[120.2028,-4.9823],[120.1922,-4.9859],[120.1823,-4.9763],[120.1434,-4.9579],[120.1529,-4.9504],[120.1549,-4.9445]]]}},{"type":"Feature","properties":{"name":"Masago","name_en":"Masago","admin_level":"7","osm_id":""},"geometry":{"type":"Polygon","coordinates":[[[120.1144,-4.952],[120.1141,-4.9493],[120.1093,-4.9431],[120.1084,-4.9352],[120.1181,-4.9246],[120.1367,-4.9372],[120.1226,-4.9514],[120.1144,-4.952]]]}},{"type":"Feature","properties":{"name":"Massila","name_en":"Massila","admin_level":"7","osm_id":""},"geometry":{"type":"Polygon","coordinates":[[[120.1599,-4.9387],[120.1366,-4.9371],[120.1215,-4.9275],[120.1357,-4.9177],[120.1447,-4.9],[120.155,-4.9068],[120.1665,-4.9076],[120.1779,-4.9061],[120.1748,-4.9232],[120.1705,-4.9297],[120.1599,-4.9387]]]}},{"type":"Feature","properties":{"name":"Paccing","name_en":"Paccing","admin_level":"7","osm_id":""},"geometry":{"type":"Polygon","coordinates":[[[120.1181,-4.9246],[120.1163,-4.9198],[120.1157,-4.9094],[120.1109,-4.9011],[120.1209,-4.9],[120.123,-4.8982],[120.1254,-4.8921],[120.1267,-4.8804],[120.1299,-4.8737],[120.138,-4.8763],[120.1412,-4.8794],[120.1473,-4.896],[120.1357,-4.9177],[120.1215,-4.9275],[120.1181,-4.9246]]]}},{"type":"Feature","properties":{"name":"Patimpeng","name_en":"Patimpeng","admin_level":"7","osm_id":""},"geometry":{"type":"Polygon","coordinates":[[[120.1519,-4.9937],[120.1509,-4.982],[120.1498,-4.9785],[120.1455,-4.9745],[120.1459,-4.9712],[120.1433,-4.9659],[120.1434,-4.9579],[120.1823,-4.9763],[120.1922,-4.9859],[120.1818,-4.9939],[120.1668,-4.9908],[120.1519,-4.9937]]]}},{"type":"Feature","properties":{"name":"Pationgi","name_en":"Pationgi","admin_level":"7","osm_id":""},"geometry":{"type":"Polygon","coordinates":[[[120.1423,-4.8374],[120.1472,-4.8164],[120.154,-4.8191],[120.1687,-4.8182],[120.1732,-4.8204],[120.1731,-4.8276],[120.1757,-4.8361],[120.1851,-4.8441],[120.1957,-4.8503],[120.2103,-4.8548],[120.2243,-4.8542],[120.2336,-4.8498],[120.2377,-4.8532],[120.2372,-4.8587],[120.2423,-4.8649],[120.2408,-4.8688],[120.2327,-4.8748],[120.2372,-4.8934],[120.2365,-4.9132],[120.2296,-4.9238],[120.2249,-4.9442],[120.2112,-4.9526],[120.2031,-4.9611],[120.2021,-4.9647],[120.1757,-4.9414],[120.1666,-4.9401],[120.1625,-4.9377],[120.1748,-4.9232],[120.1779,-4.9061],[120.1831,-4.8963],[120.1839,-4.8839],[120.181,-4.8743],[120.1726,-4.8667],[120.1706,-4.8569],[120.1638,-4.8461],[120.148,-4.8422],[120.1423,-4.8374]]]}},{"type":"Feature","properties":{"name":"Talabangi","name_en":"Talabangi","admin_level":"7","osm_id":""},"geometry":{"type":"Polygon","coordinates":[[[120.1392,-4.8771],[120.1418,-4.8674],[120.1561,-4.8434],[120.1638,-4.8461],[120.1706,-4.8569],[120.1726,-4.8667],[120.1781,-4.8704],[120.1828,-4.8789],[120.184,-4.8864],[120.1831,-4.8963],[120.1799,-4.9036],[120.1763,-4.907],[120.1665,-4.9076],[120.155,-4.9068],[120.1493,-4.9032],[120.1447,-4.9],[120.1473,-4.896],[120.1429,-4.8825],[120.1392,-4.8771]]]}}]}