{"type":"FeatureCollection","metadata":{"parent_osm_id":"gid_IDN_23_3_4_1","parent_name":"Firiwage","parent_name_1":"Papua","parent_gid":"IDN.23.3.4_1","parent_level":"6","child_level":"7","count":4,"source":"GADM 4.1","generated":"2026-05-09"},"features":[{"type":"Feature","properties":{"name":"Firiwage","name_en":"Firiwage","admin_level":"7","osm_id":""},"geometry":{"type":"Polygon","coordinates":[[[140.068,-5.5087],[140.0944,-5.4922],[140.1106,-5.4785],[140.1187,-5.4654],[140.1268,-5.4593],[140.1324,-5.4314],[140.1395,-5.4324],[140.1526,-5.4416],[140.1719,-5.4583],[140.1775,-5.4659],[140.1932,-5.48],[140.1866,-5.4988],[140.1861,-5.5069],[140.1942,-5.5266],[140.1932,-5.5534],[140.1996,-5.5735],[140.1629,-5.6043],[140.125,-5.6124],[140.1139,-5.5894],[140.0885,-5.556],[140.0711,-5.5132],[140.068,-5.5087]]]}},{"type":"Feature","properties":{"name":"Kabuwage","name_en":"Kabuwage","admin_level":"7","osm_id":""},"geometry":{"type":"Polygon","coordinates":[[[140.1646,-5.326],[140.1409,-5.3267],[140.1195,-5.3253],[140.1158,-5.3274],[140.117,-5.329],[140.1144,-5.3315],[140.1098,-5.3301],[140.1078,-5.3311],[140.1105,-5.3345],[140.0946,-5.3331],[140.0854,-5.3354],[140.0734,-5.3347],[140.0534,-5.3304],[140.0518,-5.3285],[140.0518,-5.3248],[140.0596,-5.32],[140.0543,-5.3142],[140.0557,-5.3119],[140.0534,-5.3071],[140.0541,-5.3027],[140.0125,-5.2922],[140.0274,-5.2703],[140.0592,-5.2465],[140.0719,-5.233],[140.0957,-5.2195],[140.1359,-5.167],[140.1848,-5.1756],[140.1794,-5.2049],[140.1705,-5.2227],[140.1695,-5.2415],[140.1764,-5.2543],[140.1754,-5.2712],[140.1705,-5.285],[140.1646,-5.3166],[140.1646,-5.326]]]}},{"type":"Feature","properties":{"name":"Karuwage","name_en":"Karuwage","admin_level":"7","osm_id":""},"geometry":{"type":"Polygon","coordinates":[[[140.1324,-5.4314],[140.1268,-5.4593],[140.1187,-5.4654],[140.1106,-5.4785],[140.1056,-5.4836],[140.068,-5.5087],[140.0592,-5.4957],[140.0393,-5.4798],[140.0219,-5.4695],[140.0076,-5.456],[140.002,-5.4465],[139.9972,-5.4116],[140.0115,-5.3258],[140.0125,-5.2922],[140.0541,-5.3027],[140.0534,-5.3071],[140.0557,-5.3119],[140.0543,-5.3142],[140.0596,-5.32],[140.0518,-5.3248],[140.0518,-5.3285],[140.0534,-5.3304],[140.0734,-5.3347],[140.0854,-5.3354],[140.0946,-5.3331],[140.1105,-5.3345],[140.1078,-5.3311],[140.1098,-5.3301],[140.1144,-5.3315],[140.117,-5.329],[140.1158,-5.3274],[140.1195,-5.3253],[140.1409,-5.3267],[140.1646,-5.326],[140.1616,-5.3493],[140.1566,-5.3651],[140.1379,-5.3967],[140.1324,-5.4314]]]}},{"type":"Feature","properties":{"name":"Waliburu","name_en":"Waliburu","admin_level":"7","osm_id":""},"geometry":{"type":"Polygon","coordinates":[[[140.1932,-5.48],[140.1775,-5.4659],[140.1719,-5.4583],[140.1526,-5.4416],[140.1395,-5.4324],[140.1324,-5.4314],[140.1379,-5.3967],[140.1566,-5.3651],[140.1616,-5.3493],[140.1646,-5.3305],[140.1646,-5.3166],[140.1705,-5.285],[140.1754,-5.2712],[140.1764,-5.2543],[140.1695,-5.2415],[140.1705,-5.2227],[140.1794,-5.2049],[140.1848,-5.1756],[140.2307,-5.1836],[140.3067,-5.1942],[140.2985,-5.2036],[140.2883,-5.2082],[140.2904,-5.233],[140.301,-5.2431],[140.3045,-5.2507],[140.3015,-5.2563],[140.3045,-5.2639],[140.3182,-5.277],[140.3172,-5.2856],[140.3192,-5.2927],[140.3172,-5.2973],[140.3,-5.313],[140.299,-5.3266],[140.3015,-5.3363],[140.298,-5.3423],[140.2914,-5.3444],[140.2873,-5.3433],[140.2848,-5.3489],[140.2858,-5.3565],[140.2939,-5.3671],[140.2939,-5.3722],[140.2894,-5.3768],[140.2899,-5.3818],[140.2975,-5.3818],[140.3076,-5.3778],[140.3116,-5.3803],[140.3176,-5.3933],[140.306,-5.4021],[140.2837,-5.4143],[140.2396,-5.4279],[140.2315,-5.4325],[140.2214,-5.4355],[140.2113,-5.4416],[140.2088,-5.4497],[140.2037,-5.4568],[140.2007,-5.4669],[140.1932,-5.48]]]}}]}