{"type":"FeatureCollection","metadata":{"parent_osm_id":"gid_IDN_5_9_12_1","parent_name":"SindangBelitiIlir","parent_name_1":"Bengkulu","parent_gid":"IDN.5.9.12_1","parent_level":"6","child_level":"7","count":10,"source":"GADM 4.1","generated":"2026-05-08"},"features":[{"type":"Feature","properties":{"name":"BalaiButar","name_en":"BalaiButar","admin_level":"7","osm_id":""},"geometry":{"type":"Polygon","coordinates":[[[102.9033,-3.406],[102.9016,-3.4191],[102.8846,-3.4303],[102.8844,-3.4341],[102.8886,-3.4369],[102.8781,-3.4503],[102.8783,-3.4657],[102.8706,-3.4783],[102.8724,-3.4909],[102.8637,-3.5026],[102.8509,-3.5114],[102.8544,-3.4917],[102.853,-3.486],[102.8609,-3.4653],[102.8605,-3.4495],[102.8655,-3.444],[102.8722,-3.4284],[102.8702,-3.4144],[102.8741,-3.4099],[102.8749,-3.4033],[102.9033,-3.406]]]}},{"type":"Feature","properties":{"name":"LubukBelimbingI","name_en":"LubukBelimbingI","admin_level":"7","osm_id":""},"geometry":{"type":"Polygon","coordinates":[[[102.8724,-3.4909],[102.8706,-3.4783],[102.8783,-3.4657],[102.8781,-3.4503],[102.8886,-3.4369],[102.8844,-3.4341],[102.8846,-3.4303],[102.9016,-3.4191],[102.9033,-3.406],[102.9191,-3.409],[102.9276,-3.4181],[102.9216,-3.4213],[102.9082,-3.4325],[102.8967,-3.4376],[102.8987,-3.4543],[102.8925,-3.4663],[102.8902,-3.4677],[102.8776,-3.4867],[102.8724,-3.4909]]]}},{"type":"Feature","properties":{"name":"LubukBelimbingIi","name_en":"LubukBelimbingIi","admin_level":"7","osm_id":""},"geometry":{"type":"Polygon","coordinates":[[[102.9346,-3.4232],[102.9191,-3.409],[102.9034,-3.4056],[102.9296,-3.4002],[102.9318,-3.3828],[102.9232,-3.3693],[102.9249,-3.3681],[102.9323,-3.3704],[102.9344,-3.3686],[102.9379,-3.3691],[102.9387,-3.3664],[102.943,-3.3635],[102.9467,-3.393],[102.9484,-3.3955],[102.9476,-3.4031],[102.9386,-3.4155],[102.9321,-3.4184],[102.9346,-3.4232]]]}},{"type":"Feature","properties":{"name":"LubukBinginBaru","name_en":"LubukBinginBaru","admin_level":"7","osm_id":""},"geometry":{"type":"Polygon","coordinates":[[[102.9232,-3.3704],[102.9318,-3.3828],[102.9296,-3.4002],[102.9034,-3.4056],[102.8993,-3.3987],[102.9061,-3.3792],[102.9077,-3.3767],[102.9101,-3.3783],[102.9167,-3.3741],[102.9166,-3.3722],[102.9232,-3.3704]]]}},{"type":"Feature","properties":{"name":"LubukTunjung","name_en":"LubukTunjung","admin_level":"7","osm_id":""},"geometry":{"type":"Polygon","coordinates":[[[102.861,-3.3832],[102.8664,-3.371],[102.8822,-3.3714],[102.8876,-3.3689],[102.8912,-3.3743],[102.8894,-3.3747],[102.8845,-3.3831],[102.8779,-3.3808],[102.8713,-3.3853],[102.8593,-3.4016],[102.8559,-3.3989],[102.861,-3.3832]]]}},{"type":"Feature","properties":{"name":"Merantau","name_en":"Merantau","admin_level":"7","osm_id":""},"geometry":{"type":"Polygon","coordinates":[[[102.855,-3.4312],[102.8559,-3.4189],[102.8605,-3.4115],[102.8688,-3.4045],[102.8727,-3.3888],[102.8751,-3.3876],[102.8753,-3.3852],[102.8783,-3.385],[102.8781,-3.3899],[102.8796,-3.3907],[102.8771,-3.3992],[102.8738,-3.4028],[102.8749,-3.4032],[102.8741,-3.4099],[102.8702,-3.4144],[102.8722,-3.4284],[102.8655,-3.444],[102.8605,-3.4495],[102.8609,-3.4653],[102.853,-3.486],[102.8544,-3.4917],[102.8509,-3.5117],[102.8483,-3.5125],[102.8414,-3.53],[102.8353,-3.5164],[102.8355,-3.5114],[102.8384,-3.5039],[102.8401,-3.4851],[102.8479,-3.4649],[102.8465,-3.4541],[102.8509,-3.4489],[102.855,-3.4312]]]}},{"type":"Feature","properties":{"name":"Periang","name_en":"Periang","admin_level":"7","osm_id":""},"geometry":{"type":"Polygon","coordinates":[[[102.8796,-3.3907],[102.8894,-3.3747],[102.902,-3.3774],[102.9077,-3.3767],[102.8993,-3.3987],[102.9036,-3.406],[102.8738,-3.4028],[102.8771,-3.3992],[102.8796,-3.3907]]]}},{"type":"Feature","properties":{"name":"SariPulau","name_en":"SariPulau","admin_level":"7","osm_id":""},"geometry":{"type":"Polygon","coordinates":[[[102.8987,-3.454],[102.8967,-3.4376],[102.9082,-3.4325],[102.9216,-3.4213],[102.9276,-3.4181],[102.9294,-3.4195],[102.916,-3.4302],[102.9146,-3.4359],[102.9022,-3.4471],[102.8987,-3.454]]]}},{"type":"Feature","properties":{"name":"SukaKarya","name_en":"SukaKarya","admin_level":"7","osm_id":""},"geometry":{"type":"Polygon","coordinates":[[[102.8664,-3.371],[102.8632,-3.3552],[102.8613,-3.3531],[102.8619,-3.3436],[102.8687,-3.3459],[102.8719,-3.3448],[102.8831,-3.3389],[102.8885,-3.3311],[102.8856,-3.3305],[102.8948,-3.328],[102.8915,-3.3368],[102.8826,-3.3426],[102.8813,-3.3451],[102.891,-3.3606],[102.8876,-3.3645],[102.8854,-3.365],[102.8876,-3.3689],[102.8822,-3.3714],[102.8664,-3.371]]]}},{"type":"Feature","properties":{"name":"SukaMerindu","name_en":"SukaMerindu","admin_level":"7","osm_id":""},"geometry":{"type":"Polygon","coordinates":[[[102.9346,-3.4233],[102.9318,-3.4351],[102.9288,-3.4399],[102.9235,-3.4466],[102.9143,-3.4536],[102.9016,-3.4742],[102.9002,-3.4829],[102.9014,-3.4912],[102.9113,-3.4994],[102.9143,-3.5039],[102.9124,-3.5081],[102.9067,-3.512],[102.9051,-3.5192],[102.9041,-3.5737],[102.8976,-3.5964],[102.8973,-3.6026],[102.9001,-3.6155],[102.8913,-3.6091],[102.8901,-3.5962],[102.8858,-3.5788],[102.8693,-3.5575],[102.8632,-3.5531],[102.86,-3.548],[102.8514,-3.5452],[102.8475,-3.5369],[102.8406,-3.5375],[102.8405,-3.5341],[102.8483,-3.5125],[102.8637,-3.5026],[102.8724,-3.4909],[102.8776,-3.4867],[102.8902,-3.4677],[102.8925,-3.4663],[102.9022,-3.4471],[102.9146,-3.4359],[102.916,-3.4302],[102.9294,-3.4195],[102.9346,-3.4233]]]}}]}