{"type":"FeatureCollection","metadata":{"parent_osm_id":"17241445","parent_name":"Karanganyar","parent_name_1":"JawaTengah","parent_gid":"IDN.10.12.9_1","parent_level":"6","child_level":"7","count":11,"source":"GADM 4.1","generated":"2026-05-09"},"features":[{"type":"Feature","properties":{"name":"Candi","name_en":"Candi","admin_level":"7","osm_id":""},"geometry":{"type":"Polygon","coordinates":[[[109.5818,-7.616],[109.5908,-7.6162],[109.5928,-7.6213],[109.5909,-7.6242],[109.5944,-7.627],[109.5915,-7.628],[109.5895,-7.6434],[109.5881,-7.6447],[109.5799,-7.643],[109.5841,-7.6238],[109.5843,-7.6198],[109.5818,-7.616]]]}},{"type":"Feature","properties":{"name":"Giripurno","name_en":"Giripurno","admin_level":"7","osm_id":""},"geometry":{"type":"Polygon","coordinates":[[[109.5918,-7.6187],[109.5905,-7.616],[109.5818,-7.616],[109.5815,-7.6087],[109.5852,-7.6017],[109.5954,-7.6001],[109.5987,-7.6023],[109.6062,-7.6021],[109.6059,-7.6134],[109.603,-7.6158],[109.5918,-7.6187]]]}},{"type":"Feature","properties":{"name":"Grenggeng","name_en":"Grenggeng","admin_level":"7","osm_id":""},"geometry":{"type":"Polygon","coordinates":[[[109.5431,-7.6108],[109.5432,-7.6036],[109.5402,-7.6006],[109.5427,-7.5959],[109.5483,-7.5994],[109.5651,-7.5987],[109.5643,-7.6013],[109.5602,-7.6041],[109.559,-7.6082],[109.5501,-7.6159],[109.5444,-7.6156],[109.5451,-7.6112],[109.5431,-7.6108]]]}},{"type":"Feature","properties":{"name":"Jatiluhur","name_en":"Jatiluhur","admin_level":"7","osm_id":""},"geometry":{"type":"Polygon","coordinates":[[[109.5742,-7.6476],[109.566,-7.6464],[109.5646,-7.6484],[109.5599,-7.6457],[109.5598,-7.6427],[109.5649,-7.6363],[109.5735,-7.6357],[109.5793,-7.6433],[109.5742,-7.6476]]]}},{"type":"Feature","properties":{"name":"Karanganyar","name_en":"Karanganyar","admin_level":"7","osm_id":""},"geometry":{"type":"Polygon","coordinates":[[[109.5622,-7.6388],[109.5608,-7.6377],[109.5611,-7.6353],[109.5643,-7.627],[109.5622,-7.6264],[109.5626,-7.6244],[109.5694,-7.6252],[109.5767,-7.6287],[109.5747,-7.6373],[109.5733,-7.6357],[109.5649,-7.6363],[109.5622,-7.6388]]]}},{"type":"Feature","properties":{"name":"Karangkemiri","name_en":"Karangkemiri","admin_level":"7","osm_id":""},"geometry":{"type":"Polygon","coordinates":[[[109.5767,-7.6287],[109.5694,-7.6252],[109.5611,-7.6233],[109.5697,-7.6154],[109.574,-7.6141],[109.58,-7.6209],[109.5797,-7.6278],[109.5767,-7.6287]]]}},{"type":"Feature","properties":{"name":"Panjatan","name_en":"Panjatan","admin_level":"7","osm_id":""},"geometry":{"type":"Polygon","coordinates":[[[109.561,-7.6364],[109.559,-7.6363],[109.5589,-7.6377],[109.5546,-7.6372],[109.5548,-7.6337],[109.5502,-7.6304],[109.5506,-7.6273],[109.5538,-7.6255],[109.5533,-7.6316],[109.5548,-7.6317],[109.5579,-7.6305],[109.5583,-7.625],[109.5611,-7.6233],[109.5634,-7.6239],[109.5622,-7.6264],[109.5643,-7.627],[109.5641,-7.6295],[109.5616,-7.6326],[109.561,-7.6364]]]}},{"type":"Feature","properties":{"name":"Plarangan","name_en":"Plarangan","admin_level":"7","osm_id":""},"geometry":{"type":"Polygon","coordinates":[[[109.5818,-7.616],[109.5843,-7.6198],[109.5841,-7.6238],[109.5826,-7.6266],[109.5825,-7.6358],[109.5793,-7.6433],[109.5746,-7.637],[109.5767,-7.6287],[109.5797,-7.6278],[109.58,-7.6209],[109.5744,-7.6152],[109.5746,-7.61],[109.5818,-7.616]]]}},{"type":"Feature","properties":{"name":"Pohkumbang","name_en":"Pohkumbang","admin_level":"7","osm_id":""},"geometry":{"type":"Polygon","coordinates":[[[109.5427,-7.5959],[109.539,-7.5937],[109.5396,-7.5908],[109.5422,-7.5909],[109.5415,-7.5883],[109.5436,-7.5868],[109.5433,-7.5785],[109.5474,-7.5747],[109.545,-7.5737],[109.5447,-7.5674],[109.5492,-7.5623],[109.552,-7.5637],[109.5547,-7.5625],[109.5602,-7.5638],[109.5587,-7.5703],[109.561,-7.5732],[109.5591,-7.5741],[109.5579,-7.5803],[109.563,-7.5877],[109.5631,-7.5939],[109.5651,-7.5987],[109.5483,-7.5994],[109.5427,-7.5959]]]}},{"type":"Feature","properties":{"name":"Sidomulyo","name_en":"Sidomulyo","admin_level":"7","osm_id":""},"geometry":{"type":"Polygon","coordinates":[[[109.5538,-7.6255],[109.5483,-7.626],[109.5481,-7.6238],[109.5453,-7.6241],[109.5465,-7.622],[109.5444,-7.6156],[109.5531,-7.6161],[109.5538,-7.62],[109.5563,-7.6232],[109.5571,-7.6218],[109.5591,-7.6223],[109.5579,-7.6305],[109.5533,-7.6316],[109.5538,-7.6255]]]}},{"type":"Feature","properties":{"name":"Wonorejo","name_en":"Wonorejo","admin_level":"7","osm_id":""},"geometry":{"type":"Polygon","coordinates":[[[109.5501,-7.6159],[109.559,-7.6082],[109.5602,-7.6041],[109.5643,-7.6013],[109.5651,-7.5987],[109.5677,-7.6066],[109.5746,-7.61],[109.5738,-7.6145],[109.5697,-7.6154],[109.5598,-7.6245],[109.5587,-7.6247],[109.5587,-7.622],[109.5563,-7.6232],[109.5538,-7.62],[109.5535,-7.6163],[109.5501,-7.6159]]]}}]}