{"type":"FeatureCollection","metadata":{"parent_osm_id":"gid_IDN_32_8_5_1","parent_name":"BinjaiUtara","parent_name_1":"SumateraUtara","parent_gid":"IDN.32.8.5_1","parent_level":"6","child_level":"7","count":9,"source":"GADM 4.1","generated":"2026-05-09"},"features":[{"type":"Feature","properties":{"name":"CengkehTuri","name_en":"CengkehTuri","admin_level":"7","osm_id":""},"geometry":{"type":"Polygon","coordinates":[[[98.4839,3.6384],[98.4811,3.6352],[98.4816,3.639],[98.4788,3.6391],[98.4787,3.6421],[98.4731,3.6419],[98.4747,3.6458],[98.4725,3.6478],[98.4893,3.6672],[98.4917,3.6662],[98.4922,3.6683],[98.4949,3.6678],[98.4951,3.6695],[98.501,3.6683],[98.4975,3.6466],[98.4899,3.6384],[98.4874,3.6416],[98.4839,3.6384]]]}},{"type":"Feature","properties":{"name":"Damai","name_en":"Damai","admin_level":"7","osm_id":""},"geometry":{"type":"Polygon","coordinates":[[[98.4899,3.6384],[98.4923,3.6404],[98.4975,3.6466],[98.4952,3.6296],[98.4899,3.6384]]]}},{"type":"Feature","properties":{"name":"JatiKarya","name_en":"JatiKarya","admin_level":"7","osm_id":""},"geometry":{"type":"Polygon","coordinates":[[[98.5114,3.6523],[98.5114,3.6459],[98.5178,3.6457],[98.5166,3.6417],[98.5116,3.6417],[98.5118,3.6386],[98.5093,3.6382],[98.5079,3.6397],[98.4964,3.639],[98.4978,3.6517],[98.5048,3.6514],[98.5073,3.6498],[98.5095,3.6524],[98.5114,3.6523]]]}},{"type":"Feature","properties":{"name":"JatiMakmur","name_en":"JatiMakmur","admin_level":"7","osm_id":""},"geometry":{"type":"Polygon","coordinates":[[[98.5118,3.6386],[98.5118,3.6336],[98.5107,3.6334],[98.5119,3.6318],[98.5161,3.6317],[98.5162,3.6229],[98.5117,3.6225],[98.5101,3.6249],[98.5071,3.6223],[98.5032,3.6241],[98.5045,3.6318],[98.4955,3.6324],[98.4964,3.639],[98.5079,3.6397],[98.509,3.6382],[98.5118,3.6386]]]}},{"type":"Feature","properties":{"name":"JatiUtomo","name_en":"JatiUtomo","admin_level":"7","osm_id":""},"geometry":{"type":"Polygon","coordinates":[[[98.5015,3.6725],[98.5109,3.6728],[98.5111,3.6671],[98.5183,3.6674],[98.5184,3.6642],[98.5111,3.6639],[98.5112,3.6555],[98.5169,3.6554],[98.5179,3.6522],[98.5095,3.6524],[98.5073,3.6498],[98.5048,3.6514],[98.4978,3.6517],[98.5015,3.6725]]]}},{"type":"Feature","properties":{"name":"Jatinegara","name_en":"Jatinegara","admin_level":"7","osm_id":""},"geometry":{"type":"Polygon","coordinates":[[[98.4987,3.613],[98.4979,3.6102],[98.495,3.6105],[98.496,3.6142],[98.5001,3.6187],[98.4987,3.613]]]}},{"type":"Feature","properties":{"name":"KebunLada","name_en":"KebunLada","admin_level":"7","osm_id":""},"geometry":{"type":"Polygon","coordinates":[[[98.4909,3.6243],[98.4857,3.6267],[98.4861,3.6358],[98.4839,3.6384],[98.4874,3.6416],[98.4952,3.6296],[98.4949,3.6275],[98.4909,3.6243]]]}},{"type":"Feature","properties":{"name":"Nangka","name_en":"Nangka","admin_level":"7","osm_id":""},"geometry":{"type":"Polygon","coordinates":[[[98.5156,3.6229],[98.5121,3.6193],[98.5124,3.6132],[98.4987,3.613],[98.5009,3.6238],[98.5071,3.6223],[98.5101,3.6249],[98.5117,3.6225],[98.5156,3.6229]]]}},{"type":"Feature","properties":{"name":"Pahlawan","name_en":"Pahlawan","admin_level":"7","osm_id":""},"geometry":{"type":"Polygon","coordinates":[[[98.4921,3.6163],[98.4909,3.6243],[98.4949,3.6275],[98.4955,3.6324],[98.5045,3.6318],[98.5032,3.6236],[98.5009,3.6238],[98.5001,3.6187],[98.4926,3.609],[98.4921,3.6104],[98.4946,3.6137],[98.4921,3.6163]]]}}]}