{"type":"FeatureCollection","metadata":{"parent_osm_id":"gid_IDN_10_35_23_1","parent_name":"Tirtomoyo","parent_name_1":"JawaTengah","parent_gid":"IDN.10.35.23_1","parent_level":"6","child_level":"7","count":14,"source":"GADM 4.1","generated":"2026-05-09"},"features":[{"type":"Feature","properties":{"name":"Banyakprodo","name_en":"Banyakprodo","admin_level":"7","osm_id":""},"geometry":{"type":"Polygon","coordinates":[[[111.044,-7.9687],[111.0454,-7.9668],[111.0404,-7.9633],[111.0372,-7.958],[111.0395,-7.9529],[111.0393,-7.9509],[111.037,-7.9493],[111.0379,-7.9473],[111.0411,-7.9462],[111.0446,-7.9512],[111.0514,-7.9488],[111.0585,-7.9502],[111.0596,-7.9556],[111.054,-7.9616],[111.0558,-7.9675],[111.0536,-7.9734],[111.044,-7.9687]]]}},{"type":"Feature","properties":{"name":"Dlepih","name_en":"Dlepih","admin_level":"7","osm_id":""},"geometry":{"type":"Polygon","coordinates":[[[111.076,-7.9903],[111.0661,-7.9867],[111.0618,-7.9806],[111.0615,-7.9781],[111.0666,-7.9727],[111.0655,-7.9665],[111.0665,-7.9601],[111.0827,-7.9645],[111.0867,-7.9708],[111.0905,-7.9722],[111.0972,-7.9811],[111.0973,-7.9832],[111.093,-7.9876],[111.076,-7.9903]]]}},{"type":"Feature","properties":{"name":"Genengharjo","name_en":"Genengharjo","admin_level":"7","osm_id":""},"geometry":{"type":"Polygon","coordinates":[[[111.1119,-7.9218],[111.1163,-7.9246],[111.1202,-7.924],[111.1218,-7.9213],[111.1264,-7.9215],[111.1262,-7.9306],[111.1284,-7.9356],[111.1269,-7.9457],[111.1253,-7.9476],[111.1225,-7.9479],[111.1147,-7.943],[111.1067,-7.9468],[111.1054,-7.945],[111.0998,-7.9452],[111.098,-7.9424],[111.1059,-7.9401],[111.1071,-7.9384],[111.1101,-7.9387],[111.1103,-7.9344],[111.1008,-7.9283],[111.102,-7.9227],[111.1035,-7.9215],[111.1119,-7.9218]]]}},{"type":"Feature","properties":{"name":"Girirejo","name_en":"Girirejo","admin_level":"7","osm_id":""},"geometry":{"type":"Polygon","coordinates":[[[111.1008,-7.9283],[111.1103,-7.9344],[111.1101,-7.9387],[111.1071,-7.9384],[111.1059,-7.9401],[111.096,-7.9427],[111.0953,-7.95],[111.092,-7.9519],[111.0888,-7.957],[111.0806,-7.9559],[111.0799,-7.9486],[111.0819,-7.9466],[111.0818,-7.9425],[111.0852,-7.9394],[111.0865,-7.9356],[111.0911,-7.9303],[111.1008,-7.9283]]]}},{"type":"Feature","properties":{"name":"Hargantoro","name_en":"Hargantoro","admin_level":"7","osm_id":""},"geometry":{"type":"Polygon","coordinates":[[[111.0593,-7.9205],[111.0687,-7.9187],[111.0735,-7.9214],[111.0887,-7.9242],[111.1006,-7.9229],[111.1017,-7.9234],[111.1013,-7.9271],[111.0908,-7.9305],[111.0818,-7.9425],[111.0817,-7.9468],[111.0787,-7.9485],[111.0741,-7.9465],[111.0681,-7.949],[111.0654,-7.9525],[111.063,-7.9499],[111.0642,-7.9402],[111.0626,-7.9401],[111.0632,-7.9339],[111.057,-7.9332],[111.059,-7.9305],[111.0593,-7.9205]]]}},{"type":"Feature","properties":{"name":"Hargorejo","name_en":"Hargorejo","admin_level":"7","osm_id":""},"geometry":{"type":"Polygon","coordinates":[[[111.0979,-7.9422],[111.0998,-7.9452],[111.1054,-7.945],[111.1075,-7.947],[111.1147,-7.943],[111.1225,-7.9479],[111.1262,-7.9471],[111.1308,-7.9573],[111.1304,-7.9656],[111.1284,-7.9708],[111.1218,-7.9721],[111.1118,-7.9665],[111.1068,-7.9583],[111.0991,-7.9529],[111.0965,-7.9492],[111.0953,-7.95],[111.0955,-7.9434],[111.0979,-7.9422]]]}},{"type":"Feature","properties":{"name":"Hargosari","name_en":"Hargosari","admin_level":"7","osm_id":""},"geometry":{"type":"Polygon","coordinates":[[[111.1033,-8.0065],[111.0945,-8.0146],[111.0852,-8.012],[111.0764,-8.004],[111.078,-8.0],[111.076,-7.9903],[111.093,-7.9876],[111.0951,-7.9841],[111.0984,-7.9838],[111.1005,-7.9813],[111.1025,-7.9827],[111.103,-7.9804],[111.1075,-7.9778],[111.1111,-7.9781],[111.1138,-7.9805],[111.1158,-7.9764],[111.1146,-7.9748],[111.1201,-7.9713],[111.1229,-7.9713],[111.1266,-7.9774],[111.1298,-7.9896],[111.1252,-7.9991],[111.1218,-8.0016],[111.1033,-8.0065]]]}},{"type":"Feature","properties":{"name":"Ngarjosari","name_en":"Ngarjosari","admin_level":"7","osm_id":""},"geometry":{"type":"Polygon","coordinates":[[[111.037,-7.9493],[111.0349,-7.9511],[111.0327,-7.9479],[111.0368,-7.9411],[111.0367,-7.937],[111.0325,-7.9271],[111.0341,-7.9234],[111.0311,-7.9213],[111.0457,-7.9118],[111.0471,-7.9092],[111.0499,-7.9088],[111.0538,-7.9168],[111.06,-7.9209],[111.059,-7.9306],[111.0568,-7.9333],[111.0509,-7.9347],[111.0534,-7.9453],[111.0526,-7.9489],[111.0446,-7.9512],[111.0402,-7.9461],[111.037,-7.9493]]]}},{"type":"Feature","properties":{"name":"Sendangmulyo","name_en":"Sendangmulyo","admin_level":"7","osm_id":""},"geometry":{"type":"Polygon","coordinates":[[[111.0327,-7.9479],[111.0296,-7.9472],[111.0252,-7.9501],[111.0208,-7.9465],[111.0172,-7.9459],[111.0201,-7.9405],[111.0182,-7.9354],[111.0235,-7.9263],[111.0272,-7.9251],[111.0311,-7.9213],[111.0341,-7.9234],[111.0325,-7.9271],[111.0367,-7.937],[111.0368,-7.9411],[111.0327,-7.9479]]]}},{"type":"Feature","properties":{"name":"Sidorejo","name_en":"Sidorejo","admin_level":"7","osm_id":""},"geometry":{"type":"Polygon","coordinates":[[[111.1419,-7.9161],[111.1443,-7.9248],[111.1448,-7.937],[111.1433,-7.9426],[111.1489,-7.9508],[111.1494,-7.9546],[111.146,-7.9573],[111.1476,-7.9605],[111.1464,-7.967],[111.1441,-7.9667],[111.1419,-7.9696],[111.1403,-7.9684],[111.1377,-7.9695],[111.1327,-7.9739],[111.1263,-7.9714],[111.1289,-7.9702],[111.1303,-7.9662],[111.1308,-7.9573],[111.1262,-7.9471],[111.1284,-7.9356],[111.1262,-7.9306],[111.1264,-7.9215],[111.1332,-7.9204],[111.1397,-7.9153],[111.1419,-7.9161]]]}},{"type":"Feature","properties":{"name":"Sukoharjo","name_en":"Sukoharjo","admin_level":"7","osm_id":""},"geometry":{"type":"Polygon","coordinates":[[[111.0852,-7.9569],[111.0888,-7.957],[111.092,-7.9519],[111.0965,-7.9492],[111.0991,-7.9529],[111.1068,-7.9583],[111.1118,-7.9665],[111.1208,-7.9711],[111.1146,-7.9748],[111.1158,-7.9764],[111.114,-7.9805],[111.1098,-7.9776],[111.1038,-7.9791],[111.0996,-7.9761],[111.096,-7.9655],[111.084,-7.9619],[111.0834,-7.9596],[111.0852,-7.9569]]]}},{"type":"Feature","properties":{"name":"Tanjungsari","name_en":"Tanjungsari","admin_level":"7","osm_id":""},"geometry":{"type":"Polygon","coordinates":[[[111.0172,-7.9459],[111.0122,-7.9472],[111.0086,-7.943],[111.0113,-7.9342],[111.0101,-7.9302],[111.0041,-7.9282],[111.0039,-7.9221],[111.0092,-7.9185],[111.0095,-7.9162],[111.0203,-7.9143],[111.0247,-7.911],[111.0312,-7.9154],[111.0471,-7.9092],[111.0439,-7.9132],[111.0235,-7.9263],[111.0181,-7.9357],[111.0201,-7.9405],[111.0172,-7.9459]]]}},{"type":"Feature","properties":{"name":"Tirtomoyo","name_en":"Tirtomoyo","admin_level":"7","osm_id":""},"geometry":{"type":"Polygon","coordinates":[[[111.0615,-7.9781],[111.0536,-7.9734],[111.0558,-7.9675],[111.054,-7.9616],[111.0596,-7.9556],[111.0587,-7.9504],[111.0526,-7.9489],[111.0526,-7.9386],[111.051,-7.9371],[111.0509,-7.9347],[111.0583,-7.933],[111.0632,-7.9339],[111.0626,-7.9401],[111.0642,-7.9402],[111.063,-7.9499],[111.0646,-7.9504],[111.067,-7.9587],[111.0655,-7.966],[111.0666,-7.9727],[111.0615,-7.9781]]]}},{"type":"Feature","properties":{"name":"Wiroko","name_en":"Wiroko","admin_level":"7","osm_id":""},"geometry":{"type":"Polygon","coordinates":[[[111.0973,-7.9832],[111.0958,-7.9782],[111.0931,-7.9769],[111.0905,-7.9722],[111.0867,-7.9708],[111.0827,-7.9645],[111.0665,-7.9601],[111.0652,-7.9533],[111.0678,-7.9493],[111.0741,-7.9465],[111.0787,-7.9485],[111.0812,-7.947],[111.0797,-7.9546],[111.0852,-7.9569],[111.0834,-7.9596],[111.084,-7.9619],[111.096,-7.9655],[111.0997,-7.9763],[111.1051,-7.9792],[111.1028,-7.9806],[111.1025,-7.9827],[111.1005,-7.9813],[111.0984,-7.9838],[111.0973,-7.9832]]]}}]}