{"type":"FeatureCollection","metadata":{"parent_osm_id":"gid_IDN_8_2_13_1","parent_name":"RantauPandan","parent_name_1":"Jambi","parent_gid":"IDN.8.2.13_1","parent_level":"6","child_level":"7","count":6,"source":"GADM 4.1","generated":"2026-05-08"},"features":[{"type":"Feature","properties":{"name":"Leban","name_en":"Leban","admin_level":"7","osm_id":""},"geometry":{"type":"Polygon","coordinates":[[[101.861,-1.6563],[101.8492,-1.6366],[101.8313,-1.6186],[101.8261,-1.6062],[101.8357,-1.6013],[101.8325,-1.5968],[101.8323,-1.5924],[101.842,-1.5801],[101.8466,-1.5833],[101.8483,-1.5984],[101.8512,-1.6033],[101.8588,-1.6011],[101.8691,-1.6108],[101.8864,-1.6158],[101.8954,-1.6286],[101.9033,-1.6351],[101.8898,-1.6447],[101.874,-1.6495],[101.8637,-1.6537],[101.861,-1.6563]]]}},{"type":"Feature","properties":{"name":"LubukKayuAro","name_en":"LubukKayuAro","admin_level":"7","osm_id":""},"geometry":{"type":"Polygon","coordinates":[[[101.8791,-1.6876],[101.8791,-1.6726],[101.8663,-1.6644],[101.861,-1.6563],[101.8637,-1.6537],[101.874,-1.6495],[101.8898,-1.6447],[101.9001,-1.6384],[101.9049,-1.6468],[101.9082,-1.6442],[101.9144,-1.6712],[101.9184,-1.6795],[101.9194,-1.7054],[101.9036,-1.702],[101.8881,-1.6966],[101.8791,-1.6876]]]}},{"type":"Feature","properties":{"name":"LubukMayan","name_en":"LubukMayan","admin_level":"7","osm_id":""},"geometry":{"type":"Polygon","coordinates":[[[101.9434,-1.5976],[101.9613,-1.5943],[101.9745,-1.5889],[101.9968,-1.59],[101.9989,-1.6056],[102.0086,-1.6097],[102.0136,-1.6227],[102.0183,-1.6259],[102.0309,-1.6237],[102.0238,-1.6512],[102.0145,-1.6456],[102.0005,-1.6336],[101.9854,-1.6279],[101.9848,-1.6048],[101.9768,-1.6043],[101.9707,-1.6012],[101.9434,-1.5976]]]}},{"type":"Feature","properties":{"name":"RantauDuku","name_en":"RantauDuku","admin_level":"7","osm_id":""},"geometry":{"type":"Polygon","coordinates":[[[101.8927,-1.5879],[101.918,-1.5908],[101.9297,-1.5962],[101.9707,-1.6012],[101.9768,-1.6043],[101.9848,-1.6048],[101.9854,-1.6279],[101.9781,-1.6346],[101.974,-1.6419],[101.9611,-1.6413],[101.9576,-1.6441],[101.9509,-1.6437],[101.9552,-1.6339],[101.9334,-1.6266],[101.9296,-1.6228],[101.9295,-1.6154],[101.9207,-1.6117],[101.9138,-1.6117],[101.9048,-1.6055],[101.8944,-1.5946],[101.8927,-1.5879]]]}},{"type":"Feature","properties":{"name":"RantauPandan","name_en":"RantauPandan","admin_level":"7","osm_id":""},"geometry":{"type":"Polygon","coordinates":[[[101.948,-1.7114],[101.9194,-1.7054],[101.9184,-1.6795],[101.9144,-1.6712],[101.9082,-1.6442],[101.9049,-1.6468],[101.8999,-1.6386],[101.9033,-1.6351],[101.8954,-1.6286],[101.8864,-1.6158],[101.8691,-1.6108],[101.8588,-1.6011],[101.8588,-1.5941],[101.8549,-1.5898],[101.8552,-1.5868],[101.8633,-1.5828],[101.8672,-1.5833],[101.8849,-1.5769],[101.8927,-1.5879],[101.8944,-1.5946],[101.9021,-1.6035],[101.9138,-1.6117],[101.9207,-1.6117],[101.9295,-1.6154],[101.9296,-1.6228],[101.9334,-1.6266],[101.9552,-1.6339],[101.9509,-1.6437],[101.9576,-1.6441],[101.9611,-1.6413],[101.974,-1.6419],[101.9763,-1.6504],[101.9735,-1.659],[101.9656,-1.6643],[101.9631,-1.6694],[101.96,-1.6901],[101.9501,-1.7021],[101.948,-1.7114]]]}},{"type":"Feature","properties":{"name":"TalangSungaiBungo","name_en":"TalangSungaiBungo","admin_level":"7","osm_id":""},"geometry":{"type":"Polygon","coordinates":[[[102.0011,-1.7384],[101.9897,-1.7338],[101.9762,-1.7207],[101.9566,-1.7126],[101.948,-1.7114],[101.9501,-1.7021],[101.96,-1.6901],[101.9631,-1.6694],[101.9656,-1.6643],[101.9735,-1.659],[101.9763,-1.6504],[101.974,-1.6419],[101.9781,-1.6346],[101.9849,-1.6277],[102.0005,-1.6336],[102.0145,-1.6456],[102.0238,-1.6512],[102.012,-1.7109],[102.0011,-1.7384]]]}}]}