{"type":"FeatureCollection","metadata":{"parent_osm_id":"gid_IDN_9_21_7_1","parent_name":"Dawuan","parent_name_1":"JawaBarat","parent_gid":"IDN.9.21.7_1","parent_level":"6","child_level":"7","count":11,"source":"GADM 4.1","generated":"2026-05-08"},"features":[{"type":"Feature","properties":{"name":"Balida","name_en":"Balida","admin_level":"7","osm_id":""},"geometry":{"type":"Polygon","coordinates":[[[108.203,-6.7346],[108.2018,-6.7338],[108.2031,-6.7296],[108.201,-6.7303],[108.2005,-6.728],[108.1982,-6.7284],[108.1988,-6.7244],[108.193,-6.7215],[108.1929,-6.7118],[108.1986,-6.7069],[108.2036,-6.7125],[108.2083,-6.7147],[108.2077,-6.7065],[108.2101,-6.7056],[108.2131,-6.7092],[108.2133,-6.7004],[108.2173,-6.7016],[108.2201,-6.7045],[108.2189,-6.7186],[108.2165,-6.7258],[108.2177,-6.7312],[108.2162,-6.732],[108.2135,-6.7302],[108.2112,-6.7318],[108.2087,-6.7306],[108.206,-6.7339],[108.2038,-6.7329],[108.203,-6.7346]]]}},{"type":"Feature","properties":{"name":"Baturuyuk","name_en":"Baturuyuk","admin_level":"7","osm_id":""},"geometry":{"type":"Polygon","coordinates":[[[108.2203,-6.7359],[108.2262,-6.7282],[108.2286,-6.7156],[108.2288,-6.7201],[108.2322,-6.7234],[108.2326,-6.7278],[108.2367,-6.7305],[108.2373,-6.7342],[108.2331,-6.7346],[108.2329,-6.7381],[108.2313,-6.7382],[108.231,-6.7405],[108.2288,-6.7396],[108.2257,-6.7411],[108.2206,-6.7387],[108.2203,-6.7359]]]}},{"type":"Feature","properties":{"name":"Bojongcideres","name_en":"Bojongcideres","admin_level":"7","osm_id":""},"geometry":{"type":"Polygon","coordinates":[[[108.1816,-6.7631],[108.1802,-6.7608],[108.1823,-6.759],[108.183,-6.754],[108.194,-6.7558],[108.1964,-6.76],[108.1962,-6.7613],[108.1922,-6.7604],[108.1856,-6.7632],[108.1816,-6.7631]]]}},{"type":"Feature","properties":{"name":"Dawuan","name_en":"Dawuan","admin_level":"7","osm_id":""},"geometry":{"type":"Polygon","coordinates":[[[108.183,-6.754],[108.1823,-6.759],[108.1802,-6.7608],[108.1816,-6.7631],[108.1761,-6.766],[108.1726,-6.7664],[108.1702,-6.7649],[108.1687,-6.7627],[108.1693,-6.76],[108.1725,-6.7612],[108.1727,-6.758],[108.1743,-6.7584],[108.1813,-6.7534],[108.183,-6.754]]]}},{"type":"Feature","properties":{"name":"Gandu","name_en":"Gandu","admin_level":"7","osm_id":""},"geometry":{"type":"Polygon","coordinates":[[[108.1982,-6.7284],[108.2005,-6.728],[108.201,-6.7303],[108.2031,-6.7296],[108.2018,-6.7338],[108.2045,-6.7368],[108.2029,-6.7399],[108.2048,-6.7438],[108.2028,-6.7456],[108.2043,-6.7474],[108.2031,-6.7491],[108.205,-6.7515],[108.2032,-6.7556],[108.1985,-6.7579],[108.1946,-6.7572],[108.1909,-6.7494],[108.195,-6.7383],[108.194,-6.7349],[108.197,-6.7335],[108.1982,-6.7284]]]}},{"type":"Feature","properties":{"name":"Genteng","name_en":"Genteng","admin_level":"7","osm_id":""},"geometry":{"type":"Polygon","coordinates":[[[108.193,-6.7215],[108.1945,-6.7232],[108.1974,-6.7229],[108.1995,-6.7263],[108.1966,-6.7307],[108.197,-6.7335],[108.194,-6.7349],[108.195,-6.7383],[108.1909,-6.7494],[108.1933,-6.7542],[108.1928,-6.7564],[108.1856,-6.7538],[108.1845,-6.7505],[108.1866,-6.7475],[108.1819,-6.7322],[108.1853,-6.7256],[108.1879,-6.7254],[108.193,-6.7215]]]}},{"type":"Feature","properties":{"name":"Karanganyar","name_en":"Karanganyar","admin_level":"7","osm_id":""},"geometry":{"type":"Polygon","coordinates":[[[108.2197,-6.703],[108.2133,-6.7004],[108.2111,-6.6967],[108.2119,-6.693],[108.2066,-6.688],[108.2083,-6.6854],[108.2226,-6.6858],[108.2259,-6.6844],[108.2261,-6.6861],[108.2243,-6.6862],[108.2178,-6.6934],[108.2209,-6.7021],[108.2197,-6.703]]]}},{"type":"Feature","properties":{"name":"Mandapa","name_en":"Mandapa","admin_level":"7","osm_id":""},"geometry":{"type":"Polygon","coordinates":[[[108.2169,-6.7294],[108.2165,-6.7258],[108.2189,-6.7186],[108.2201,-6.7045],[108.2239,-6.707],[108.2286,-6.7156],[108.2262,-6.7282],[108.2211,-6.7357],[108.2198,-6.7317],[108.2169,-6.7294]]]}},{"type":"Feature","properties":{"name":"Pasirmalati","name_en":"Pasirmalati","admin_level":"7","osm_id":""},"geometry":{"type":"Polygon","coordinates":[[[108.2133,-6.7004],[108.2131,-6.7092],[108.2101,-6.7056],[108.2077,-6.7065],[108.2083,-6.7147],[108.2036,-6.7125],[108.1986,-6.7069],[108.1982,-6.6984],[108.2009,-6.6942],[108.2111,-6.6967],[108.2133,-6.7004]]]}},{"type":"Feature","properties":{"name":"Salawana","name_en":"Salawana","admin_level":"7","osm_id":""},"geometry":{"type":"Polygon","coordinates":[[[108.2209,-6.7021],[108.2178,-6.6934],[108.2221,-6.6889],[108.2356,-6.6934],[108.238,-6.6868],[108.2395,-6.6878],[108.24,-6.695],[108.2381,-6.695],[108.2373,-6.7002],[108.2334,-6.7024],[108.2275,-6.7022],[108.2264,-6.7],[108.2209,-6.7021]]]}},{"type":"Feature","properties":{"name":"Sinarjati","name_en":"Sinarjati","admin_level":"7","osm_id":""},"geometry":{"type":"Polygon","coordinates":[[[108.203,-6.7346],[108.2038,-6.7329],[108.206,-6.7339],[108.2087,-6.7306],[108.2112,-6.7318],[108.2141,-6.7302],[108.2168,-6.7321],[108.2173,-6.7295],[108.2208,-6.7333],[108.2206,-6.7387],[108.223,-6.7388],[108.2234,-6.7409],[108.2097,-6.749],[108.2073,-6.7536],[108.2032,-6.7556],[108.205,-6.7515],[108.2031,-6.7491],[108.2043,-6.7474],[108.2028,-6.7456],[108.2048,-6.7438],[108.2034,-6.7429],[108.2029,-6.7393],[108.2045,-6.7368],[108.203,-6.7346]]]}}]}