{"type":"FeatureCollection","metadata":{"parent_osm_id":"gid_IDN_9_23_11_1","parent_name":"Compreng","parent_name_1":"JawaBarat","parent_gid":"IDN.9.23.11_1","parent_level":"6","child_level":"7","count":8,"source":"GADM 4.1","generated":"2026-05-08"},"features":[{"type":"Feature","properties":{"name":"Compreng","name_en":"Compreng","admin_level":"7","osm_id":""},"geometry":{"type":"Polygon","coordinates":[[[107.8906,-6.3509],[107.8949,-6.3536],[107.8936,-6.3575],[107.8968,-6.3609],[107.8976,-6.3683],[107.8894,-6.3767],[107.8778,-6.3736],[107.8744,-6.3758],[107.872,-6.3756],[107.87,-6.3726],[107.8731,-6.3692],[107.87,-6.3674],[107.868,-6.3634],[107.8727,-6.3617],[107.8716,-6.3577],[107.8723,-6.3416],[107.8693,-6.3354],[107.8683,-6.3369],[107.8666,-6.3341],[107.8666,-6.3397],[107.8624,-6.3419],[107.8627,-6.3366],[107.8592,-6.3386],[107.8581,-6.3349],[107.8614,-6.3352],[107.8684,-6.3316],[107.8839,-6.3464],[107.8839,-6.3498],[107.8906,-6.3509]]]}},{"type":"Feature","properties":{"name":"Jatimulya","name_en":"Jatimulya","admin_level":"7","osm_id":""},"geometry":{"type":"Polygon","coordinates":[[[107.8221,-6.3817],[107.8217,-6.3785],[107.8246,-6.3748],[107.8256,-6.3638],[107.828,-6.3598],[107.823,-6.3569],[107.8254,-6.3541],[107.8245,-6.3494],[107.8367,-6.3491],[107.8359,-6.3597],[107.8411,-6.365],[107.845,-6.3724],[107.8479,-6.3738],[107.849,-6.3797],[107.8475,-6.3802],[107.8484,-6.3818],[107.8465,-6.3835],[107.8458,-6.3891],[107.8564,-6.3989],[107.832,-6.3911],[107.8293,-6.3894],[107.83,-6.3864],[107.8285,-6.3852],[107.8255,-6.3862],[107.8221,-6.3817]]]}},{"type":"Feature","properties":{"name":"Jatireja","name_en":"Jatireja","admin_level":"7","osm_id":""},"geometry":{"type":"Polygon","coordinates":[[[107.8985,-6.4011],[107.8987,-6.4064],[107.897,-6.4043],[107.8906,-6.4033],[107.8931,-6.4079],[107.8914,-6.4104],[107.8915,-6.4142],[107.888,-6.416],[107.8895,-6.4172],[107.8931,-6.4165],[107.8946,-6.4229],[107.8924,-6.4232],[107.8881,-6.4183],[107.8768,-6.4172],[107.8733,-6.4217],[107.8711,-6.4202],[107.8703,-6.4162],[107.8715,-6.4089],[107.8726,-6.4088],[107.8716,-6.4062],[107.8745,-6.4022],[107.8746,-6.3927],[107.8775,-6.3953],[107.8794,-6.3928],[107.8847,-6.3927],[107.8903,-6.3889],[107.8891,-6.3968],[107.8917,-6.3956],[107.8929,-6.3983],[107.8985,-6.4011]]]}},{"type":"Feature","properties":{"name":"Kalensari","name_en":"Kalensari","admin_level":"7","osm_id":""},"geometry":{"type":"Polygon","coordinates":[[[107.9216,-6.354],[107.9235,-6.36],[107.9146,-6.3705],[107.8973,-6.3682],[107.8968,-6.3609],[107.8936,-6.3575],[107.8949,-6.3536],[107.8906,-6.3509],[107.897,-6.3337],[107.9028,-6.3354],[107.907,-6.3397],[107.9197,-6.3404],[107.9166,-6.3477],[107.9176,-6.3506],[107.9202,-6.3509],[107.9216,-6.354]]]}},{"type":"Feature","properties":{"name":"Kiarasari","name_en":"Kiarasari","admin_level":"7","osm_id":""},"geometry":{"type":"Polygon","coordinates":[[[107.8946,-6.4229],[107.897,-6.4257],[107.8916,-6.4338],[107.8927,-6.4389],[107.89,-6.4433],[107.8948,-6.4489],[107.8912,-6.4489],[107.893,-6.4524],[107.8889,-6.4578],[107.8789,-6.4572],[107.8786,-6.4504],[107.8756,-6.4478],[107.8703,-6.4366],[107.8702,-6.4265],[107.8768,-6.4172],[107.8881,-6.4183],[107.8924,-6.4232],[107.8946,-6.4229]]]}},{"type":"Feature","properties":{"name":"Mekarjaya","name_en":"Mekarjaya","admin_level":"7","osm_id":""},"geometry":{"type":"Polygon","coordinates":[[[107.9146,-6.3705],[107.9189,-6.371],[107.914,-6.3769],[107.9083,-6.3776],[107.8981,-6.3903],[107.8948,-6.3972],[107.8976,-6.401],[107.8929,-6.3983],[107.8917,-6.3956],[107.8891,-6.3968],[107.8903,-6.3889],[107.8851,-6.3925],[107.8794,-6.3928],[107.8767,-6.395],[107.878,-6.3918],[107.8701,-6.3861],[107.8684,-6.3813],[107.87,-6.3778],[107.8659,-6.3718],[107.8729,-6.3697],[107.87,-6.3726],[107.872,-6.3756],[107.8744,-6.3758],[107.8778,-6.3736],[107.8894,-6.3767],[107.8976,-6.3683],[107.9146,-6.3705]]]}},{"type":"Feature","properties":{"name":"Sukadana","name_en":"Sukadana","admin_level":"7","osm_id":""},"geometry":{"type":"Polygon","coordinates":[[[107.8315,-6.394],[107.8316,-6.3909],[107.8559,-6.3994],[107.8458,-6.3891],[107.8465,-6.3835],[107.8484,-6.3818],[107.8481,-6.3796],[107.8515,-6.3815],[107.8595,-6.3795],[107.8596,-6.3843],[107.863,-6.3844],[107.863,-6.3872],[107.8656,-6.3872],[107.8653,-6.3989],[107.868,-6.4058],[107.865,-6.4069],[107.8593,-6.4016],[107.8567,-6.4047],[107.8522,-6.4046],[107.8517,-6.4203],[107.8487,-6.4199],[107.8485,-6.4186],[107.8439,-6.4175],[107.8449,-6.4131],[107.8428,-6.4122],[107.8421,-6.4087],[107.8337,-6.4026],[107.8337,-6.3959],[107.8315,-6.394]]]}},{"type":"Feature","properties":{"name":"Sukatani","name_en":"Sukatani","admin_level":"7","osm_id":""},"geometry":{"type":"Polygon","coordinates":[[[107.8711,-6.4202],[107.8687,-6.4209],[107.867,-6.4249],[107.862,-6.4237],[107.8583,-6.4253],[107.8517,-6.4203],[107.8522,-6.4046],[107.8567,-6.4047],[107.8593,-6.4016],[107.865,-6.4069],[107.868,-6.4058],[107.8653,-6.3989],[107.8656,-6.3872],[107.863,-6.3872],[107.863,-6.3844],[107.8596,-6.3843],[107.8595,-6.3795],[107.861,-6.3801],[107.8637,-6.3784],[107.8665,-6.373],[107.87,-6.3778],[107.8684,-6.3813],[107.8701,-6.3861],[107.8781,-6.3921],[107.8766,-6.3944],[107.8746,-6.3927],[107.8745,-6.4022],[107.8716,-6.4062],[107.8726,-6.4088],[107.8715,-6.4089],[107.8703,-6.4162],[107.8711,-6.4202]]]}}]}