{"type":"FeatureCollection","metadata":{"parent_osm_id":"gid_IDN_14_13_4_1","parent_name":"SeruyanHulu","parent_name_1":"KalimantanTengah","parent_gid":"IDN.14.13.4_1","parent_level":"6","child_level":"7","count":29,"source":"GADM 4.1","generated":"2026-05-07"},"features":[{"type":"Feature","properties":{"name":"BuntutSapau","name_en":"BuntutSapau","admin_level":"7","osm_id":""},"geometry":{"type":"Polygon","coordinates":[[[111.6378,-0.9808],[111.657,-0.9766],[111.6651,-0.9731],[111.6748,-0.9657],[111.7169,-0.9446],[111.7234,-0.9377],[111.7285,-0.9242],[111.7428,-0.9238],[111.7579,-0.9208],[111.7628,-0.9237],[111.7871,-0.9913],[111.6953,-1.0108],[111.6452,-1.0149],[111.6146,-1.0115],[111.6183,-0.992],[111.6272,-0.9831],[111.6378,-0.9808]]]}},{"type":"Feature","properties":{"name":"Marandang","name_en":"Marandang","admin_level":"7","osm_id":""},"geometry":{"type":"Polygon","coordinates":[[[111.8075,-1.5707],[111.7812,-1.5541],[111.7754,-1.5382],[111.7605,-1.5243],[111.7846,-1.5236],[111.8143,-1.4991],[111.7805,-1.3264],[111.7778,-1.2706],[111.7994,-1.2448],[111.8142,-1.2434],[111.8326,-1.2531],[111.817,-1.2937],[111.8116,-1.3277],[111.8156,-1.3753],[111.8373,-1.442],[111.8703,-1.5545],[111.8602,-1.5652],[111.8423,-1.5599],[111.8289,-1.5608],[111.8075,-1.5707]]]}},{"type":"Feature","properties":{"name":"MojangBaru","name_en":"MojangBaru","admin_level":"7","osm_id":""},"geometry":{"type":"Polygon","coordinates":[[[112.1275,-1.3131],[112.132,-1.3655],[112.1326,-1.4119],[112.1254,-1.4522],[112.1122,-1.495],[112.0787,-1.5438],[112.0732,-1.5623],[112.0542,-1.5553],[112.047,-1.5571],[112.0274,-1.5679],[112.0149,-1.5688],[111.9961,-1.5733],[111.9898,-1.5769],[111.9791,-1.5706],[111.9568,-1.5796],[111.953,-1.5755],[111.9806,-1.4977],[112.0062,-1.446],[112.012,-1.4017],[112.0414,-1.3997],[112.1275,-1.3131]]]}},{"type":"Feature","properties":{"name":"MongohJuoi","name_en":"MongohJuoi","admin_level":"7","osm_id":""},"geometry":{"type":"Polygon","coordinates":[[[112.0154,-0.7258],[112.0147,-0.7163],[112.0195,-0.7057],[112.0234,-0.7025],[112.0281,-0.7012],[112.0447,-0.6997],[112.0786,-0.7066],[112.1019,-0.715],[112.1115,-0.7158],[112.1272,-0.7266],[112.1389,-0.7288],[112.1548,-0.7289],[112.1796,-0.7761],[112.181,-0.7962],[112.1695,-0.8244],[112.121,-0.9245],[112.099,-0.9901],[112.1147,-1.1809],[112.1088,-1.1848],[112.0305,-1.2161],[111.9704,-1.2161],[111.9764,-1.1808],[112.0021,-1.1563],[112.0034,-1.0964],[111.9993,-1.0066],[111.9763,-0.8883],[111.9736,-0.8339],[111.9789,-0.8081],[111.9897,-0.8032],[112.0021,-0.8003],[112.0089,-0.7996],[112.0159,-0.8017],[112.0323,-0.7928],[112.0355,-0.787],[112.0342,-0.7767],[112.0263,-0.7592],[112.0154,-0.7258]]]}},{"type":"Feature","properties":{"name":"RangkangMunduk","name_en":"RangkangMunduk","admin_level":"7","osm_id":""},"geometry":{"type":"Polygon","coordinates":[[[111.7411,-1.3414],[111.7396,-1.4455],[111.7156,-1.3931],[111.694,-1.3074],[111.6831,-1.2448],[111.6851,-1.2189],[111.7494,-1.2189],[111.7521,-1.2178],[111.7413,-1.3278],[111.7411,-1.3414]]]}},{"type":"Feature","properties":{"name":"RantauBetung","name_en":"RantauBetung","admin_level":"7","osm_id":""},"geometry":{"type":"Polygon","coordinates":[[[111.7605,-1.5243],[111.7357,-1.501],[111.7172,-1.4905],[111.74,-1.4447],[111.7411,-1.3414],[111.771,-1.3413],[111.7817,-1.3329],[111.8143,-1.4991],[111.7846,-1.5236],[111.7605,-1.5243]]]}},{"type":"Feature","properties":{"name":"RantauPanjang","name_en":"RantauPanjang","admin_level":"7","osm_id":""},"geometry":{"type":"Polygon","coordinates":[[[112.1222,-1.2591],[112.1275,-1.3131],[112.0414,-1.3997],[112.012,-1.4017],[112.0143,-1.3834],[111.9886,-1.3426],[111.9683,-1.2801],[111.967,-1.2365],[111.9704,-1.2161],[112.0305,-1.2161],[112.1088,-1.1848],[112.1147,-1.1809],[112.1222,-1.2591]]]}},{"type":"Feature","properties":{"name":"RiamBatang","name_en":"RiamBatang","admin_level":"7","osm_id":""},"geometry":{"type":"Polygon","coordinates":[[[111.985,-0.9319],[111.9922,-0.9691],[111.9047,-0.9917],[111.8358,-1.0149],[111.7989,-1.0171],[111.7871,-0.9913],[111.898,-0.9699],[111.9615,-0.9468],[111.985,-0.9319]]]}},{"type":"Feature","properties":{"name":"SepunduHantu","name_en":"SepunduHantu","admin_level":"7","osm_id":""},"geometry":{"type":"Polygon","coordinates":[[[111.6851,-1.2189],[111.6818,-1.2189],[111.6434,-1.1956],[111.7318,-1.0775],[111.779,-1.0516],[111.8095,-1.0372],[111.8142,-1.0461],[111.8209,-1.0679],[111.8214,-1.0772],[111.7642,-1.1142],[111.7345,-1.1441],[111.6858,-1.2094],[111.6851,-1.2189]]]}},{"type":"Feature","properties":{"name":"TanjungPaku","name_en":"TanjungPaku","admin_level":"7","osm_id":""},"geometry":{"type":"Polygon","coordinates":[[[111.9687,-0.8125],[111.9789,-0.8081],[111.9736,-0.8339],[111.9763,-0.8883],[111.9805,-0.9096],[111.8966,-0.9047],[111.8709,-0.8951],[111.8648,-0.8896],[111.8671,-0.8833],[111.867,-0.8724],[111.8698,-0.8666],[111.878,-0.863],[111.8907,-0.8628],[111.9015,-0.8683],[111.9123,-0.8711],[111.9207,-0.8694],[111.9161,-0.8586],[111.9057,-0.8428],[111.9018,-0.8308],[111.9064,-0.8054],[111.9063,-0.7754],[111.9096,-0.7724],[111.9134,-0.7721],[111.9197,-0.777],[111.9281,-0.7987],[111.9352,-0.8065],[111.9517,-0.816],[111.9611,-0.8167],[111.9687,-0.8125]]]}},{"type":"Feature","properties":{"name":"TanjungTukal","name_en":"TanjungTukal","admin_level":"7","osm_id":""},"geometry":{"type":"Polygon","coordinates":[[[111.5702,-1.1457],[111.5689,-1.1398],[111.5858,-1.1618],[111.6818,-1.2189],[111.6851,-1.2189],[111.6831,-1.2448],[111.694,-1.3074],[111.7156,-1.3931],[111.7396,-1.4455],[111.7172,-1.4905],[111.6863,-1.4729],[111.6727,-1.4612],[111.6816,-1.4185],[111.6647,-1.3323],[111.6682,-1.3026],[111.6504,-1.2515],[111.6147,-1.2057],[111.5808,-1.1805],[111.5702,-1.1457]]]}},{"type":"Feature","properties":{"name":"TumbangBahan","name_en":"TumbangBahan","admin_level":"7","osm_id":""},"geometry":{"type":"Polygon","coordinates":[[[112.0026,-1.0785],[112.0028,-1.1247],[111.9588,-1.1236],[111.8575,-1.1563],[111.8365,-1.1715],[111.8256,-1.1268],[111.9575,-1.0896],[112.0026,-1.0785]]]}},{"type":"Feature","properties":{"name":"TumbangDarap","name_en":"TumbangDarap","admin_level":"7","osm_id":""},"geometry":{"type":"Polygon","coordinates":[[[112.0016,-1.0576],[112.0026,-1.0785],[111.9575,-1.0896],[111.8256,-1.1268],[111.8237,-1.1182],[111.8225,-1.0961],[111.8574,-1.0774],[111.9169,-1.0624],[112.0016,-1.0576]]]}},{"type":"Feature","properties":{"name":"TumbangGugup","name_en":"TumbangGugup","admin_level":"7","osm_id":""},"geometry":{"type":"Polygon","coordinates":[[[111.7521,-1.2178],[111.7494,-1.2189],[111.6851,-1.2189],[111.6858,-1.2094],[111.7345,-1.1441],[111.7642,-1.1142],[111.8214,-1.0772],[111.8237,-1.1182],[111.836,-1.17],[111.8034,-1.1958],[111.7521,-1.2178]]]}},{"type":"Feature","properties":{"name":"TumbangHentas","name_en":"TumbangHentas","admin_level":"7","osm_id":""},"geometry":{"type":"Polygon","coordinates":[[[111.5421,-1.2105],[111.5603,-1.209],[111.5852,-1.2416],[111.5933,-1.3224],[111.6166,-1.4178],[111.6068,-1.4139],[111.5634,-1.4175],[111.5362,-1.3494],[111.5183,-1.2488],[111.5051,-1.2176],[111.5188,-1.2152],[111.5286,-1.2163],[111.5394,-1.2136],[111.5421,-1.2105]]]}},{"type":"Feature","properties":{"name":"TumbangKalam","name_en":"TumbangKalam","admin_level":"7","osm_id":""},"geometry":{"type":"Polygon","coordinates":[[[112.0028,-1.1247],[112.0021,-1.1563],[111.9764,-1.1808],[111.9704,-1.2161],[111.9318,-1.2161],[111.8669,-1.2271],[111.858,-1.2321],[111.8365,-1.1715],[111.8575,-1.1563],[111.9588,-1.1236],[112.0028,-1.1247]]]}},{"type":"Feature","properties":{"name":"TumbangKasai","name_en":"TumbangKasai","admin_level":"7","osm_id":""},"geometry":{"type":"Polygon","coordinates":[[[112.0002,-1.0264],[112.0016,-1.0576],[111.9169,-1.0624],[111.8574,-1.0774],[111.8225,-1.0961],[111.8202,-1.0656],[111.8682,-1.0584],[111.9385,-1.0366],[112.0002,-1.0264]]]}},{"type":"Feature","properties":{"name":"TumbangKubang","name_en":"TumbangKubang","admin_level":"7","osm_id":""},"geometry":{"type":"Polygon","coordinates":[[[111.7944,-1.0088],[111.8095,-1.0372],[111.779,-1.0516],[111.7318,-1.0775],[111.6434,-1.1956],[111.5969,-1.1682],[111.6223,-1.136],[111.6574,-1.087],[111.7074,-1.0489],[111.752,-1.0244],[111.7944,-1.0088]]]}},{"type":"Feature","properties":{"name":"TumbangLaku","name_en":"TumbangLaku","admin_level":"7","osm_id":""},"geometry":{"type":"Polygon","coordinates":[[[111.6094,-1.0469],[111.6123,-1.0453],[111.6181,-1.0494],[111.6209,-1.0491],[111.6235,-1.0409],[111.6146,-1.0115],[111.6452,-1.0149],[111.6953,-1.0108],[111.7871,-0.9913],[111.7944,-1.0088],[111.752,-1.0244],[111.7074,-1.0489],[111.6574,-1.087],[111.6223,-1.136],[111.5969,-1.1682],[111.5858,-1.1618],[111.5689,-1.1398],[111.567,-1.1313],[111.5524,-1.1213],[111.5535,-1.0991],[111.57,-1.0754],[111.5967,-1.0715],[111.6001,-1.0607],[111.6094,-1.0469]]]}},{"type":"Feature","properties":{"name":"TumbangLangkai","name_en":"TumbangLangkai","admin_level":"7","osm_id":""},"geometry":{"type":"Polygon","coordinates":[[[111.5603,-1.209],[111.5682,-1.203],[111.5733,-1.1944],[111.5727,-1.1857],[111.5551,-1.1748],[111.5542,-1.1672],[111.5702,-1.1457],[111.5808,-1.1805],[111.6147,-1.2057],[111.6504,-1.2515],[111.6682,-1.3026],[111.6647,-1.3323],[111.6816,-1.4185],[111.6727,-1.4612],[111.6232,-1.4204],[111.6166,-1.4178],[111.5933,-1.3224],[111.5852,-1.2416],[111.5603,-1.209]]]}},{"type":"Feature","properties":{"name":"TumbangMagin","name_en":"TumbangMagin","admin_level":"7","osm_id":""},"geometry":{"type":"Polygon","coordinates":[[[111.3778,-1.2792],[111.3901,-1.2734],[111.3971,-1.2764],[111.4005,-1.2705],[111.4012,-1.2476],[111.4065,-1.2416],[111.4443,-1.2333],[111.4325,-1.2562],[111.4398,-1.2892],[111.4639,-1.3745],[111.4693,-1.4078],[111.447,-1.3929],[111.3689,-1.2949],[111.3715,-1.285],[111.3778,-1.2792]]]}},{"type":"Feature","properties":{"name":"TumbangManjul","name_en":"TumbangManjul","admin_level":"7","osm_id":""},"geometry":{"type":"Polygon","coordinates":[[[112.012,-1.4017],[112.0062,-1.446],[111.9806,-1.4977],[111.953,-1.5755],[111.9469,-1.5688],[111.9379,-1.5639],[111.9089,-1.4855],[111.8873,-1.4488],[111.8765,-1.412],[111.8751,-1.2803],[111.9224,-1.2638],[111.968,-1.2686],[111.9683,-1.2801],[111.9886,-1.3426],[112.0143,-1.3834],[112.012,-1.4017]]]}},{"type":"Feature","properties":{"name":"TumbangSalau","name_en":"TumbangSalau","admin_level":"7","osm_id":""},"geometry":{"type":"Polygon","coordinates":[[[111.8326,-1.2531],[111.8142,-1.2434],[111.7994,-1.2448],[111.7778,-1.2706],[111.7817,-1.3329],[111.771,-1.3413],[111.7411,-1.3414],[111.7413,-1.3278],[111.7521,-1.2178],[111.8034,-1.1958],[111.836,-1.17],[111.858,-1.2321],[111.8359,-1.2447],[111.8326,-1.2531]]]}},{"type":"Feature","properties":{"name":"TumbangSepan","name_en":"TumbangSepan","admin_level":"7","osm_id":""},"geometry":{"type":"Polygon","coordinates":[[[111.9922,-0.9691],[111.9983,-1.0011],[111.8561,-1.0298],[111.8135,-1.0449],[111.7989,-1.0171],[111.8358,-1.0149],[111.9047,-0.9917],[111.9922,-0.9691]]]}},{"type":"Feature","properties":{"name":"TumbangSetawai","name_en":"TumbangSetawai","admin_level":"7","osm_id":""},"geometry":{"type":"Polygon","coordinates":[[[111.9983,-1.0011],[112.0002,-1.0264],[111.9385,-1.0366],[111.8682,-1.0584],[111.8202,-1.0656],[111.8135,-1.0449],[111.8561,-1.0298],[111.9983,-1.0011]]]}},{"type":"Feature","properties":{"name":"TumbangSetoli","name_en":"TumbangSetoli","admin_level":"7","osm_id":""},"geometry":{"type":"Polygon","coordinates":[[[111.4443,-1.2333],[111.4576,-1.2304],[111.4783,-1.2332],[111.4868,-1.2308],[111.4939,-1.2211],[111.5051,-1.2176],[111.5183,-1.2488],[111.5362,-1.3494],[111.5634,-1.4175],[111.5182,-1.4198],[111.4693,-1.4078],[111.4639,-1.3745],[111.4398,-1.2892],[111.4325,-1.2562],[111.4443,-1.2333]]]}},{"type":"Feature","properties":{"name":"TumbangSuei","name_en":"TumbangSuei","admin_level":"7","osm_id":""},"geometry":{"type":"Polygon","coordinates":[[[111.8703,-1.5545],[111.8373,-1.442],[111.8156,-1.3753],[111.8116,-1.3277],[111.817,-1.2937],[111.8359,-1.2447],[111.858,-1.2321],[111.8751,-1.2801],[111.8765,-1.412],[111.8873,-1.4488],[111.9089,-1.4855],[111.9379,-1.5639],[111.921,-1.5688],[111.913,-1.5616],[111.8978,-1.5607],[111.8817,-1.5562],[111.8745,-1.5499],[111.8703,-1.5545]]]}},{"type":"Feature","properties":{"name":"TumbangTaberau","name_en":"TumbangTaberau","admin_level":"7","osm_id":""},"geometry":{"type":"Polygon","coordinates":[[[111.7903,-0.9089],[111.8216,-0.9128],[111.8347,-0.9117],[111.8554,-0.9026],[111.8617,-0.8962],[111.8648,-0.8896],[111.8709,-0.8951],[111.8966,-0.9047],[111.9805,-0.9096],[111.985,-0.9319],[111.9615,-0.9468],[111.898,-0.9699],[111.7871,-0.9913],[111.7628,-0.9237],[111.7579,-0.9208],[111.7799,-0.9109],[111.7903,-0.9089]]]}},{"type":"Feature","properties":{"name":"TusukBelawan","name_en":"TusukBelawan","admin_level":"7","osm_id":""},"geometry":{"type":"Polygon","coordinates":[[[111.9704,-1.2161],[111.967,-1.2365],[111.968,-1.2686],[111.9224,-1.2638],[111.8751,-1.2803],[111.858,-1.2321],[111.8669,-1.2271],[111.9318,-1.2161],[111.9704,-1.2161]]]}}]}