{"type":"FeatureCollection","metadata":{"parent_osm_id":"gid_IDN_32_29_13_1","parent_name":"Hatonduhan","parent_name_1":"SumateraUtara","parent_gid":"IDN.32.29.13_1","parent_level":"6","child_level":"7","count":9,"source":"GADM 4.1","generated":"2026-05-08"},"features":[{"type":"Feature","properties":{"name":"BosarNauli","name_en":"BosarNauli","admin_level":"7","osm_id":""},"geometry":{"type":"Polygon","coordinates":[[[99.1302,2.7051],[99.125,2.6968],[99.1193,2.6811],[99.1077,2.6785],[99.0885,2.6675],[99.0816,2.6531],[99.0738,2.6433],[99.0745,2.629],[99.0729,2.6135],[99.0741,2.6046],[99.0676,2.6083],[99.0495,2.629],[99.0338,2.6419],[99.0421,2.6491],[99.0523,2.6709],[99.064,2.6912],[99.0629,2.7003],[99.0682,2.7115],[99.0816,2.7184],[99.088,2.7269],[99.0997,2.7339],[99.1184,2.7504],[99.131,2.7575],[99.1363,2.7437],[99.1295,2.7273],[99.1302,2.7051]]]}},{"type":"Feature","properties":{"name":"BuntuBayu","name_en":"BuntuBayu","admin_level":"7","osm_id":""},"geometry":{"type":"Polygon","coordinates":[[[99.2312,2.8037],[99.2168,2.794],[99.2161,2.7897],[99.2122,2.7857],[99.21,2.7758],[99.1968,2.7787],[99.192,2.7781],[99.1749,2.7856],[99.169,2.7851],[99.1674,2.7867],[99.1635,2.7868],[99.1779,2.8007],[99.1867,2.8037],[99.2272,2.81],[99.2312,2.8037]]]}},{"type":"Feature","properties":{"name":"BuntuTurunan","name_en":"BuntuTurunan","admin_level":"7","osm_id":""},"geometry":{"type":"Polygon","coordinates":[[[99.21,2.7758],[99.2079,2.77],[99.1991,2.7677],[99.1841,2.7544],[99.1762,2.7523],[99.1695,2.7484],[99.1466,2.7194],[99.1357,2.7126],[99.1302,2.7051],[99.1295,2.7273],[99.1363,2.7437],[99.1311,2.7568],[99.1308,2.7627],[99.1363,2.773],[99.1463,2.7799],[99.1559,2.7821],[99.1635,2.7868],[99.1674,2.7867],[99.169,2.7851],[99.1749,2.7856],[99.192,2.7781],[99.1968,2.7787],[99.21,2.7758]]]}},{"type":"Feature","properties":{"name":"JawaTongah","name_en":"JawaTongah","admin_level":"7","osm_id":""},"geometry":{"type":"Polygon","coordinates":[[[99.2001,2.8517],[99.1946,2.8506],[99.193,2.8474],[99.1909,2.8474],[99.1893,2.8432],[99.1909,2.8389],[99.1866,2.8352],[99.1861,2.8314],[99.1812,2.8286],[99.1698,2.8331],[99.1731,2.8492],[99.1709,2.8575],[99.1755,2.8641],[99.1802,2.8675],[99.191,2.8701],[99.1943,2.8666],[99.1949,2.8595],[99.2001,2.8517]]]}},{"type":"Feature","properties":{"name":"JawaTongahIi","name_en":"JawaTongahIi","admin_level":"7","osm_id":""},"geometry":{"type":"Polygon","coordinates":[[[99.1812,2.8286],[99.1861,2.8314],[99.1866,2.8352],[99.1904,2.8378],[99.1909,2.841],[99.1893,2.8432],[99.1909,2.8474],[99.193,2.8474],[99.1946,2.8506],[99.2001,2.8517],[99.206,2.8357],[99.197,2.83],[99.1895,2.8208],[99.1875,2.8211],[99.1812,2.8286]]]}},{"type":"Feature","properties":{"name":"ParhundalianJawadipar","name_en":"ParhundalianJawadipar","admin_level":"7","osm_id":""},"geometry":{"type":"Polygon","coordinates":[[[99.2635,2.8494],[99.2586,2.8458],[99.26,2.8419],[99.2566,2.8371],[99.2575,2.8305],[99.2511,2.8237],[99.2483,2.8125],[99.2411,2.8092],[99.24,2.807],[99.2335,2.8217],[99.2335,2.8277],[99.2319,2.8309],[99.2329,2.8437],[99.2611,2.8529],[99.2635,2.8494]]]}},{"type":"Feature","properties":{"name":"SaribuAsih","name_en":"SaribuAsih","admin_level":"7","osm_id":""},"geometry":{"type":"Polygon","coordinates":[[[99.1982,2.8047],[99.1867,2.8037],[99.1779,2.8007],[99.1623,2.7855],[99.144,2.7784],[99.1426,2.7859],[99.1443,2.7933],[99.1392,2.8032],[99.1399,2.808],[99.1537,2.8242],[99.1684,2.8334],[99.1809,2.8289],[99.1875,2.8211],[99.1895,2.8208],[99.1892,2.819],[99.1982,2.8047]]]}},{"type":"Feature","properties":{"name":"TanggaBatu","name_en":"TanggaBatu","admin_level":"7","osm_id":""},"geometry":{"type":"Polygon","coordinates":[[[99.0266,2.7101],[99.0528,2.7246],[99.0656,2.7473],[99.0792,2.7617],[99.0958,2.7925],[99.1043,2.7915],[99.1126,2.7945],[99.1169,2.7936],[99.1296,2.803],[99.1396,2.8058],[99.1392,2.8032],[99.1443,2.7933],[99.1426,2.7859],[99.144,2.7784],[99.1363,2.773],[99.1329,2.7682],[99.1308,2.7627],[99.131,2.7575],[99.1184,2.7504],[99.0997,2.7339],[99.088,2.7269],[99.0816,2.7184],[99.0682,2.7115],[99.0629,2.7003],[99.064,2.6912],[99.0523,2.6709],[99.0421,2.6491],[99.0338,2.6419],[99.0195,2.6527],[99.0149,2.6615],[99.0151,2.6743],[99.0184,2.6956],[99.0166,2.7017],[99.0136,2.7033],[99.0266,2.7101]]]}},{"type":"Feature","properties":{"name":"Tonduhan","name_en":"Tonduhan","admin_level":"7","osm_id":""},"geometry":{"type":"Polygon","coordinates":[[[99.24,2.807],[99.2312,2.8037],[99.2272,2.81],[99.2231,2.8084],[99.2078,2.8075],[99.1982,2.8047],[99.1892,2.819],[99.1899,2.8228],[99.197,2.83],[99.2105,2.8386],[99.2329,2.8437],[99.2319,2.8309],[99.2335,2.8277],[99.2335,2.8217],[99.24,2.807]]]}}]}