{"type":"FeatureCollection","metadata":{"parent_osm_id":"gid_IDN_26_10_5_1","parent_name":"Malangke","parent_name_1":"SulawesiSelatan","parent_gid":"IDN.26.10.5_1","parent_level":"6","child_level":"7","count":14,"source":"GADM 4.1","generated":"2026-05-09"},"features":[{"type":"Feature","properties":{"name":"Benteng","name_en":"Benteng","admin_level":"7","osm_id":""},"geometry":{"type":"Polygon","coordinates":[[[120.4845,-2.7897],[120.4855,-2.7906],[120.4838,-2.7958],[120.4812,-2.7961],[120.4781,-2.8025],[120.4731,-2.8065],[120.4669,-2.8081],[120.4668,-2.8123],[120.4629,-2.8149],[120.4614,-2.8136],[120.4589,-2.8168],[120.4473,-2.8028],[120.4393,-2.8011],[120.4282,-2.7726],[120.4285,-2.7646],[120.4348,-2.7634],[120.4517,-2.7786],[120.4845,-2.7897]]]}},{"type":"Feature","properties":{"name":"Girikusuma","name_en":"Girikusuma","admin_level":"7","osm_id":""},"geometry":{"type":"Polygon","coordinates":[[[120.3788,-2.752],[120.3858,-2.7454],[120.3864,-2.7464],[120.3912,-2.7451],[120.3967,-2.7494],[120.3991,-2.7487],[120.4013,-2.7456],[120.4014,-2.7485],[120.4075,-2.7505],[120.4065,-2.7524],[120.4106,-2.751],[120.4095,-2.7566],[120.4123,-2.7574],[120.4121,-2.7611],[120.4144,-2.7601],[120.4146,-2.7618],[120.4189,-2.7615],[120.4175,-2.7631],[120.4195,-2.7646],[120.4183,-2.7678],[120.4202,-2.7668],[120.4212,-2.7683],[120.4187,-2.7715],[120.4211,-2.7731],[120.4196,-2.7755],[120.4228,-2.775],[120.4216,-2.7766],[120.4245,-2.7795],[120.4155,-2.7781],[120.4068,-2.7714],[120.402,-2.7731],[120.3964,-2.7646],[120.3914,-2.7631],[120.3901,-2.7599],[120.3864,-2.7596],[120.3838,-2.7542],[120.3788,-2.752]]]}},{"type":"Feature","properties":{"name":"Ladongi","name_en":"Ladongi","admin_level":"7","osm_id":""},"geometry":{"type":"Polygon","coordinates":[[[120.5318,-2.7062],[120.5314,-2.7118],[120.5334,-2.7134],[120.5328,-2.7167],[120.5302,-2.7181],[120.5321,-2.7211],[120.5352,-2.7185],[120.5412,-2.7189],[120.5439,-2.7172],[120.5513,-2.7245],[120.5557,-2.7234],[120.5645,-2.7245],[120.5407,-2.7388],[120.5396,-2.7445],[120.5407,-2.7469],[120.5377,-2.7487],[120.5387,-2.7512],[120.5327,-2.7537],[120.5315,-2.7579],[120.53,-2.7573],[120.5272,-2.7615],[120.5236,-2.761],[120.5231,-2.7574],[120.5192,-2.7537],[120.5146,-2.7519],[120.5115,-2.7461],[120.5062,-2.7451],[120.5052,-2.7402],[120.5006,-2.7345],[120.4982,-2.724],[120.5023,-2.7222],[120.4989,-2.717],[120.5119,-2.705],[120.5318,-2.7062]]]}},{"type":"Feature","properties":{"name":"Malangke","name_en":"Malangke","admin_level":"7","osm_id":""},"geometry":{"type":"Polygon","coordinates":[[[120.4338,-2.7635],[120.4285,-2.7646],[120.4282,-2.7726],[120.4393,-2.8011],[120.412,-2.7966],[120.412,-2.7863],[120.4155,-2.7781],[120.4245,-2.7795],[120.4246,-2.779],[120.4216,-2.7766],[120.4228,-2.775],[120.4196,-2.7755],[120.4211,-2.7731],[120.4187,-2.7715],[120.4212,-2.7683],[120.4202,-2.7668],[120.4183,-2.7678],[120.4195,-2.7646],[120.4175,-2.7631],[120.4189,-2.7615],[120.4146,-2.7618],[120.4144,-2.7601],[120.4121,-2.7611],[120.4123,-2.7574],[120.4261,-2.7479],[120.4316,-2.7576],[120.4313,-2.7617],[120.4338,-2.7635]]]}},{"type":"Feature","properties":{"name":"Pattimang","name_en":"Pattimang","admin_level":"7","osm_id":""},"geometry":{"type":"Polygon","coordinates":[[[120.3867,-2.7914],[120.3826,-2.7823],[120.3837,-2.7724],[120.3777,-2.7724],[120.3732,-2.7543],[120.3788,-2.752],[120.3838,-2.7542],[120.3864,-2.7596],[120.3901,-2.7599],[120.3914,-2.7631],[120.3964,-2.7646],[120.402,-2.7731],[120.4068,-2.7714],[120.4155,-2.7781],[120.412,-2.7863],[120.4125,-2.8054],[120.4113,-2.81],[120.4157,-2.814],[120.4153,-2.817],[120.4216,-2.8209],[120.4227,-2.8319],[120.4252,-2.8345],[120.4207,-2.8403],[120.4151,-2.8358],[120.4104,-2.8375],[120.4076,-2.836],[120.4089,-2.8337],[120.4121,-2.8331],[120.4103,-2.8288],[120.4124,-2.8236],[120.4038,-2.8254],[120.4004,-2.8229],[120.3902,-2.8252],[120.3883,-2.8219],[120.3868,-2.8221],[120.3849,-2.8135],[120.3867,-2.7914]]]}},{"type":"Feature","properties":{"name":"PettaLandung","name_en":"PettaLandung","admin_level":"7","osm_id":""},"geometry":{"type":"Polygon","coordinates":[[[120.3788,-2.7518],[120.3795,-2.7446],[120.3767,-2.7398],[120.3723,-2.7375],[120.3708,-2.7336],[120.3679,-2.7317],[120.3754,-2.7317],[120.3915,-2.7248],[120.3937,-2.7248],[120.3956,-2.7268],[120.3964,-2.7259],[120.3986,-2.7291],[120.402,-2.7297],[120.4032,-2.7411],[120.3991,-2.7487],[120.3958,-2.749],[120.3913,-2.7451],[120.3864,-2.7464],[120.3858,-2.7454],[120.3788,-2.7518]]]}},{"type":"Feature","properties":{"name":"PincePute","name_en":"PincePute","admin_level":"7","osm_id":""},"geometry":{"type":"Polygon","coordinates":[[[120.412,-2.7966],[120.4344,-2.8011],[120.4328,-2.8097],[120.4292,-2.8179],[120.43,-2.8344],[120.4277,-2.8374],[120.4258,-2.8367],[120.4236,-2.838],[120.4252,-2.8345],[120.4227,-2.8319],[120.4216,-2.8209],[120.4153,-2.817],[120.4157,-2.814],[120.4113,-2.81],[120.4125,-2.8054],[120.412,-2.7966]]]}},{"type":"Feature","properties":{"name":"PuteMata","name_en":"PuteMata","admin_level":"7","osm_id":""},"geometry":{"type":"Polygon","coordinates":[[[120.3499,-2.7069],[120.3577,-2.7019],[120.3759,-2.7042],[120.3766,-2.7094],[120.3796,-2.7117],[120.3797,-2.7153],[120.3821,-2.7162],[120.3859,-2.7213],[120.3893,-2.7215],[120.3921,-2.7241],[120.3754,-2.7317],[120.3679,-2.7317],[120.3579,-2.713],[120.3499,-2.7069]]]}},{"type":"Feature","properties":{"name":"Salekoe","name_en":"Salekoe","admin_level":"7","osm_id":""},"geometry":{"type":"Polygon","coordinates":[[[120.4989,-2.717],[120.5023,-2.7204],[120.5019,-2.7232],[120.4982,-2.724],[120.5,-2.7326],[120.5064,-2.7424],[120.5062,-2.7451],[120.5115,-2.7461],[120.5146,-2.7519],[120.5192,-2.7537],[120.5231,-2.7574],[120.5237,-2.7615],[120.518,-2.7697],[120.5058,-2.7747],[120.5021,-2.7726],[120.5019,-2.7745],[120.4999,-2.7752],[120.493,-2.7692],[120.4514,-2.7542],[120.4471,-2.7406],[120.4385,-2.7312],[120.4373,-2.7243],[120.4396,-2.7057],[120.4349,-2.699],[120.4376,-2.6976],[120.4417,-2.6997],[120.4453,-2.6976],[120.445,-2.7021],[120.4491,-2.7002],[120.4506,-2.7011],[120.451,-2.7052],[120.4541,-2.7062],[120.4575,-2.712],[120.4594,-2.7082],[120.4634,-2.7081],[120.4611,-2.7044],[120.4625,-2.7027],[120.4655,-2.7066],[120.4707,-2.7052],[120.4734,-2.7063],[120.4805,-2.7166],[120.4859,-2.7147],[120.4879,-2.719],[120.4936,-2.7157],[120.4967,-2.7182],[120.4989,-2.717]]]}},{"type":"Feature","properties":{"name":"Takkalala","name_en":"Takkalala","admin_level":"7","osm_id":""},"geometry":{"type":"Polygon","coordinates":[[[120.4845,-2.7897],[120.4517,-2.7786],[120.4313,-2.7617],[120.4316,-2.7576],[120.4253,-2.7466],[120.4222,-2.7297],[120.4241,-2.7227],[120.4259,-2.7214],[120.4387,-2.7313],[120.4471,-2.7406],[120.4514,-2.7542],[120.493,-2.7692],[120.4999,-2.7752],[120.4982,-2.7792],[120.4924,-2.7812],[120.4919,-2.7798],[120.4908,-2.7824],[120.4865,-2.7848],[120.49,-2.7864],[120.4894,-2.7886],[120.4845,-2.7897]]]}},{"type":"Feature","properties":{"name":"Tandung","name_en":"Tandung","admin_level":"7","osm_id":""},"geometry":{"type":"Polygon","coordinates":[[[120.3185,-2.7142],[120.3355,-2.7029],[120.3468,-2.704],[120.3579,-2.713],[120.3655,-2.7269],[120.3204,-2.7298],[120.3146,-2.7242],[120.3163,-2.7155],[120.3185,-2.7142]]]}},{"type":"Feature","properties":{"name":"Tingkara","name_en":"Tingkara","admin_level":"7","osm_id":""},"geometry":{"type":"Polygon","coordinates":[[[120.3759,-2.7042],[120.3815,-2.6962],[120.3822,-2.6807],[120.3842,-2.6809],[120.3844,-2.6758],[120.387,-2.6746],[120.392,-2.6771],[120.3914,-2.6824],[120.3975,-2.6783],[120.3997,-2.679],[120.3964,-2.6851],[120.4026,-2.6843],[120.403,-2.6864],[120.4003,-2.6899],[120.4047,-2.6891],[120.4081,-2.696],[120.403,-2.7064],[120.3982,-2.7275],[120.3936,-2.7247],[120.3919,-2.7253],[120.3921,-2.723],[120.3861,-2.7214],[120.3821,-2.7162],[120.3797,-2.7153],[120.3796,-2.7117],[120.3766,-2.7094],[120.3759,-2.7042]]]}},{"type":"Feature","properties":{"name":"Tokke","name_en":"Tokke","admin_level":"7","osm_id":""},"geometry":{"type":"Polygon","coordinates":[[[120.4393,-2.8011],[120.4473,-2.8028],[120.4591,-2.817],[120.4556,-2.8199],[120.4554,-2.8219],[120.4497,-2.8253],[120.4485,-2.8245],[120.4485,-2.8263],[120.4407,-2.8303],[120.4393,-2.8296],[120.4384,-2.8312],[120.434,-2.8319],[120.4317,-2.8296],[120.43,-2.8344],[120.4292,-2.8179],[120.4328,-2.8097],[120.4344,-2.8011],[120.4393,-2.8011]]]}},{"type":"Feature","properties":{"name":"Tolada","name_en":"Tolada","admin_level":"7","osm_id":""},"geometry":{"type":"Polygon","coordinates":[[[120.4123,-2.7574],[120.4094,-2.7565],[120.4106,-2.751],[120.4065,-2.7524],[120.4075,-2.7506],[120.4063,-2.7493],[120.4009,-2.748],[120.4032,-2.7411],[120.402,-2.7299],[120.3982,-2.7285],[120.403,-2.7064],[120.4081,-2.696],[120.4055,-2.6888],[120.4086,-2.6895],[120.4102,-2.6945],[120.4139,-2.6934],[120.4173,-2.6955],[120.4249,-2.6953],[120.4294,-2.6922],[120.431,-2.696],[120.4344,-2.6942],[120.4353,-2.6959],[120.4323,-2.6987],[120.4349,-2.699],[120.4396,-2.7057],[120.4373,-2.7243],[120.4385,-2.7312],[120.4259,-2.7214],[120.4241,-2.7227],[120.4222,-2.7297],[120.4261,-2.7479],[120.4123,-2.7574]]]}}]}