{"type":"FeatureCollection","metadata":{"parent_osm_id":"gid_IDN_32_7_1_1","parent_name":"BarusJahe","parent_name_1":"SumateraUtara","parent_gid":"IDN.32.7.1_1","parent_level":"6","child_level":"7","count":19,"source":"GADM 4.1","generated":"2026-05-09"},"features":[{"type":"Feature","properties":{"name":"Barusjahe","name_en":"Barusjahe","admin_level":"7","osm_id":""},"geometry":{"type":"Polygon","coordinates":[[[98.5719,3.0931],[98.5717,3.1252],[98.5776,3.1251],[98.5846,3.1212],[98.5891,3.1213],[98.5902,3.1173],[98.5928,3.1165],[98.5957,3.1187],[98.603,3.1187],[98.6043,3.1162],[98.6033,3.1076],[98.5948,3.108],[98.583,3.1023],[98.5719,3.0931]]]}},{"type":"Feature","properties":{"name":"Barusjulu","name_en":"Barusjulu","admin_level":"7","osm_id":""},"geometry":{"type":"Polygon","coordinates":[[[98.556,3.2003],[98.5582,3.1994],[98.5534,3.1921],[98.5513,3.1851],[98.5568,3.1751],[98.5647,3.168],[98.5671,3.1605],[98.5608,3.1634],[98.552,3.162],[98.549,3.1682],[98.5485,3.174],[98.5444,3.1773],[98.5435,3.1886],[98.5473,3.195],[98.5464,3.1982],[98.5491,3.2012],[98.5527,3.1988],[98.556,3.2003]]]}},{"type":"Feature","properties":{"name":"BulanJahe","name_en":"BulanJahe","admin_level":"7","osm_id":""},"geometry":{"type":"Polygon","coordinates":[[[98.5716,3.1013],[98.5723,3.0946],[98.5701,3.0883],[98.5723,3.0867],[98.5721,3.0687],[98.5643,3.0688],[98.5621,3.0695],[98.561,3.082],[98.5621,3.0892],[98.5601,3.0926],[98.5605,3.0964],[98.5623,3.0995],[98.5716,3.1013]]]}},{"type":"Feature","properties":{"name":"BulanJulu","name_en":"BulanJulu","admin_level":"7","osm_id":""},"geometry":{"type":"Polygon","coordinates":[[[98.5721,3.0687],[98.5723,3.0867],[98.5701,3.0883],[98.5786,3.092],[98.58,3.0906],[98.5789,3.0833],[98.5868,3.0835],[98.5827,3.077],[98.5852,3.0687],[98.579,3.0701],[98.5721,3.0687]]]}},{"type":"Feature","properties":{"name":"Paribun","name_en":"Paribun","admin_level":"7","osm_id":""},"geometry":{"type":"Polygon","coordinates":[[[98.5776,3.1251],[98.5577,3.1259],[98.5572,3.1298],[98.5614,3.1327],[98.5589,3.137],[98.5591,3.141],[98.5709,3.1413],[98.572,3.1377],[98.571,3.1325],[98.575,3.1312],[98.5776,3.1251]]]}},{"type":"Feature","properties":{"name":"Penampen","name_en":"Penampen","admin_level":"7","osm_id":""},"geometry":{"type":"Polygon","coordinates":[[[98.607,3.1525],[98.6112,3.1474],[98.6148,3.1373],[98.6036,3.133],[98.5957,3.1344],[98.5886,3.1255],[98.5882,3.1311],[98.583,3.1418],[98.583,3.1453],[98.5858,3.1457],[98.5941,3.1524],[98.607,3.1525]]]}},{"type":"Feature","properties":{"name":"Persadanta","name_en":"Persadanta","admin_level":"7","osm_id":""},"geometry":{"type":"Polygon","coordinates":[[[98.552,3.162],[98.5608,3.1634],[98.5671,3.1605],[98.5709,3.1413],[98.5591,3.141],[98.5549,3.1524],[98.5552,3.1603],[98.552,3.162]]]}},{"type":"Feature","properties":{"name":"Pertumbuken","name_en":"Pertumbuken","admin_level":"7","osm_id":""},"geometry":{"type":"Polygon","coordinates":[[[98.6056,3.1075],[98.6046,3.0992],[98.6006,3.0952],[98.5954,3.0951],[98.5868,3.0835],[98.5789,3.0833],[98.58,3.0906],[98.5786,3.092],[98.5712,3.0894],[98.5719,3.0931],[98.583,3.1023],[98.5948,3.108],[98.6056,3.1075]]]}},{"type":"Feature","properties":{"name":"Rumanis","name_en":"Rumanis","admin_level":"7","osm_id":""},"geometry":{"type":"Polygon","coordinates":[[[98.548,3.0441],[98.5538,3.0459],[98.5706,3.0444],[98.5736,3.0475],[98.5751,3.0472],[98.5661,3.033],[98.5562,3.0266],[98.5528,3.03],[98.548,3.0441]]]}},{"type":"Feature","properties":{"name":"Sarimanis","name_en":"Sarimanis","admin_level":"7","osm_id":""},"geometry":{"type":"Polygon","coordinates":[[[98.5867,3.1216],[98.5846,3.1212],[98.5776,3.1251],[98.5794,3.1308],[98.5752,3.1365],[98.572,3.1377],[98.5691,3.1465],[98.5693,3.1533],[98.5728,3.1547],[98.5777,3.1479],[98.583,3.1453],[98.583,3.1418],[98.5882,3.1311],[98.5886,3.1255],[98.5867,3.1216]]]}},{"type":"Feature","properties":{"name":"Semangat","name_en":"Semangat","admin_level":"7","osm_id":""},"geometry":{"type":"Polygon","coordinates":[[[98.5736,3.0475],[98.5706,3.0444],[98.5538,3.0459],[98.548,3.0441],[98.5463,3.0571],[98.551,3.0547],[98.5659,3.0554],[98.5701,3.0526],[98.5736,3.0475]]]}},{"type":"Feature","properties":{"name":"Serdang","name_en":"Serdang","admin_level":"7","osm_id":""},"geometry":{"type":"Polygon","coordinates":[[[98.6281,3.1143],[98.622,3.1048],[98.6159,3.1068],[98.6106,3.1108],[98.6033,3.1076],[98.6043,3.1162],[98.603,3.1187],[98.5957,3.1187],[98.5928,3.1165],[98.5902,3.1173],[98.5891,3.1213],[98.5867,3.1216],[98.5949,3.1341],[98.6036,3.133],[98.6148,3.1373],[98.6157,3.1309],[98.6226,3.1323],[98.6275,3.1261],[98.6291,3.1173],[98.6281,3.1143]]]}},{"type":"Feature","properties":{"name":"Sikap","name_en":"Sikap","admin_level":"7","osm_id":""},"geometry":{"type":"Polygon","coordinates":[[[98.6014,3.1615],[98.607,3.1525],[98.5941,3.1524],[98.5858,3.1457],[98.583,3.1453],[98.5777,3.1479],[98.5728,3.1547],[98.5693,3.1533],[98.5669,3.1619],[98.5704,3.1623],[98.572,3.1664],[98.578,3.1706],[98.5819,3.1814],[98.5893,3.1846],[98.5882,3.1964],[98.5958,3.2069],[98.5966,3.2123],[98.5987,3.2149],[98.5984,3.222],[98.6222,3.2323],[98.6267,3.2222],[98.6215,3.2186],[98.6204,3.2147],[98.6216,3.2069],[98.6121,3.1948],[98.6152,3.1836],[98.6111,3.1791],[98.6042,3.1819],[98.6015,3.1794],[98.6035,3.1701],[98.6014,3.1615]]]}},{"type":"Feature","properties":{"name":"Sinaman","name_en":"Sinaman","admin_level":"7","osm_id":""},"geometry":{"type":"Polygon","coordinates":[[[98.5621,3.0695],[98.5686,3.0681],[98.5668,3.0602],[98.5636,3.056],[98.551,3.0547],[98.5463,3.0571],[98.5458,3.0636],[98.5583,3.0695],[98.5621,3.0695]]]}},{"type":"Feature","properties":{"name":"Sukajulu","name_en":"Sukajulu","admin_level":"7","osm_id":""},"geometry":{"type":"Polygon","coordinates":[[[98.5717,3.1252],[98.5716,3.1013],[98.5591,3.1001],[98.557,3.1072],[98.5594,3.1249],[98.5717,3.1252]]]}},{"type":"Feature","properties":{"name":"Sukanalu","name_en":"Sukanalu","admin_level":"7","osm_id":""},"geometry":{"type":"Polygon","coordinates":[[[98.5623,3.0995],[98.5601,3.0926],[98.5621,3.0892],[98.561,3.082],[98.5621,3.0695],[98.5583,3.0695],[98.5458,3.0636],[98.5412,3.0746],[98.5391,3.0899],[98.5418,3.0909],[98.5442,3.0943],[98.5485,3.0944],[98.5503,3.0974],[98.5529,3.0952],[98.5579,3.0996],[98.5623,3.0995]]]}},{"type":"Feature","properties":{"name":"Talimbaru","name_en":"Talimbaru","admin_level":"7","osm_id":""},"geometry":{"type":"Polygon","coordinates":[[[98.5685,3.069],[98.579,3.0701],[98.5852,3.0687],[98.5859,3.0612],[98.5801,3.0509],[98.5751,3.0472],[98.5688,3.0538],[98.5637,3.0561],[98.5668,3.0602],[98.5685,3.069]]]}},{"type":"Feature","properties":{"name":"TanjungBarus","name_en":"TanjungBarus","admin_level":"7","osm_id":""},"geometry":{"type":"Polygon","coordinates":[[[98.5582,3.1994],[98.5624,3.201],[98.5681,3.2086],[98.5741,3.2095],[98.5879,3.2186],[98.5942,3.2177],[98.5984,3.222],[98.5987,3.2149],[98.5966,3.2123],[98.5958,3.2069],[98.5882,3.1964],[98.5893,3.1846],[98.5819,3.1814],[98.578,3.1706],[98.572,3.1664],[98.5704,3.1623],[98.5669,3.1619],[98.5647,3.168],[98.5568,3.1751],[98.5513,3.1851],[98.5534,3.1921],[98.5582,3.1994]]]}},{"type":"Feature","properties":{"name":"Tengkidik","name_en":"Tengkidik","admin_level":"7","osm_id":""},"geometry":{"type":"Polygon","coordinates":[[[98.5776,3.1251],[98.575,3.1312],[98.571,3.1325],[98.5719,3.1377],[98.5752,3.1365],[98.5794,3.1308],[98.5776,3.1251]]]}}]}