{"type":"FeatureCollection","metadata":{"parent_osm_id":"19893052","parent_name":"Sorkam","parent_name_1":"SumateraUtara","parent_gid":"IDN.32.31.16_1","parent_level":"6","child_level":"7","count":15,"source":"GADM 4.1","generated":"2026-05-09"},"features":[{"type":"Feature","properties":{"name":"Bottot","name_en":"Bottot","admin_level":"7","osm_id":""},"geometry":{"type":"Polygon","coordinates":[[[98.6111,1.8642],[98.6079,1.8573],[98.5953,1.8615],[98.5753,1.8804],[98.5743,1.8869],[98.5779,1.8873],[98.5818,1.8907],[98.5892,1.8883],[98.5935,1.877],[98.608,1.8682],[98.6111,1.8642]]]}},{"type":"Feature","properties":{"name":"DolokPantis","name_en":"DolokPantis","admin_level":"7","osm_id":""},"geometry":{"type":"Polygon","coordinates":[[[98.6507,1.9501],[98.6792,1.9896],[98.6934,1.9827],[98.711,1.9683],[98.7084,1.9661],[98.7184,1.9612],[98.7255,1.9587],[98.7309,1.9589],[98.7353,1.9563],[98.7396,1.9593],[98.7505,1.9596],[98.747,1.9548],[98.7382,1.9494],[98.7366,1.9423],[98.7317,1.9446],[98.7264,1.944],[98.7215,1.9404],[98.7159,1.9413],[98.7036,1.9471],[98.6917,1.9456],[98.6888,1.943],[98.6782,1.9411],[98.6498,1.9489],[98.6507,1.9501]]]}},{"type":"Feature","properties":{"name":"Fajar","name_en":"Fajar","admin_level":"7","osm_id":""},"geometry":{"type":"Polygon","coordinates":[[[98.6466,1.9464],[98.6498,1.9489],[98.6674,1.9444],[98.6385,1.916],[98.6303,1.9213],[98.6284,1.9356],[98.6466,1.9464]]]}},{"type":"Feature","properties":{"name":"GontingMahe","name_en":"GontingMahe","admin_level":"7","osm_id":""},"geometry":{"type":"Polygon","coordinates":[[[98.6334,1.886],[98.6183,1.8758],[98.6134,1.8813],[98.6323,1.8983],[98.6393,1.9091],[98.6476,1.9109],[98.6541,1.9165],[98.668,1.8994],[98.6631,1.8974],[98.6485,1.8998],[98.6423,1.8991],[98.6334,1.886]]]}},{"type":"Feature","properties":{"name":"NaiposposBarat","name_en":"NaiposposBarat","admin_level":"7","osm_id":""},"geometry":{"type":"Polygon","coordinates":[[[98.6183,1.8758],[98.6127,1.8705],[98.6111,1.8642],[98.608,1.8682],[98.5935,1.877],[98.6016,1.8886],[98.6028,1.8961],[98.5995,1.9111],[98.5919,1.9162],[98.6035,1.9201],[98.6083,1.9164],[98.6121,1.8851],[98.6137,1.8803],[98.6183,1.8758]]]}},{"type":"Feature","properties":{"name":"Pardamean","name_en":"Pardamean","admin_level":"7","osm_id":""},"geometry":{"type":"Polygon","coordinates":[[[98.6813,1.9017],[98.6739,1.9017],[98.668,1.8994],[98.6541,1.9165],[98.6623,1.9227],[98.6828,1.9327],[98.6818,1.916],[98.6804,1.913],[98.6813,1.9017]]]}},{"type":"Feature","properties":{"name":"Pargaringan","name_en":"Pargaringan","admin_level":"7","osm_id":""},"geometry":{"type":"Polygon","coordinates":[[[98.7904,1.9609],[98.768,1.9483],[98.7592,1.9394],[98.7546,1.923],[98.7382,1.9165],[98.739,1.9396],[98.7366,1.9423],[98.7382,1.9494],[98.747,1.9548],[98.7505,1.9596],[98.7616,1.9577],[98.7729,1.9608],[98.7904,1.9609]]]}},{"type":"Feature","properties":{"name":"Pargarutan","name_en":"Pargarutan","admin_level":"7","osm_id":""},"geometry":{"type":"Polygon","coordinates":[[[98.6284,1.9356],[98.6303,1.9213],[98.6282,1.9103],[98.6207,1.8944],[98.6114,1.8891],[98.6109,1.8967],[98.6177,1.9059],[98.6201,1.9154],[98.6194,1.9219],[98.6163,1.9285],[98.6284,1.9356]]]}},{"type":"Feature","properties":{"name":"Pearaja","name_en":"Pearaja","admin_level":"7","osm_id":""},"geometry":{"type":"Polygon","coordinates":[[[98.5973,1.9321],[98.5973,1.9352],[98.6068,1.9333],[98.6163,1.9285],[98.6194,1.9219],[98.6196,1.9113],[98.6157,1.9023],[98.6109,1.8967],[98.6083,1.9164],[98.6101,1.9179],[98.6098,1.9215],[98.6027,1.9299],[98.5983,1.9303],[98.5973,1.9321]]]}},{"type":"Feature","properties":{"name":"Pelita","name_en":"Pelita","admin_level":"7","osm_id":""},"geometry":{"type":"Polygon","coordinates":[[[98.6674,1.9444],[98.6782,1.9411],[98.6888,1.943],[98.6828,1.9327],[98.6623,1.9227],[98.6476,1.9109],[98.6438,1.9097],[98.6433,1.9119],[98.6385,1.916],[98.6674,1.9444]]]}},{"type":"Feature","properties":{"name":"Rianiate","name_en":"Rianiate","admin_level":"7","osm_id":""},"geometry":{"type":"Polygon","coordinates":[[[98.6168,1.95],[98.6186,1.9528],[98.6177,1.9569],[98.6255,1.9559],[98.6289,1.9517],[98.6466,1.9464],[98.6163,1.9285],[98.6019,1.935],[98.6046,1.9365],[98.6041,1.9387],[98.5993,1.9393],[98.5958,1.9449],[98.5979,1.9474],[98.6014,1.9471],[98.6124,1.9433],[98.6168,1.95]]]}},{"type":"Feature","properties":{"name":"Simarpinggan","name_en":"Simarpinggan","admin_level":"7","osm_id":""},"geometry":{"type":"Polygon","coordinates":[[[98.7382,1.9165],[98.7281,1.9096],[98.7075,1.8993],[98.6813,1.9017],[98.6804,1.913],[98.6818,1.916],[98.6826,1.9325],[98.6917,1.9456],[98.7036,1.9471],[98.7193,1.9404],[98.7264,1.944],[98.7317,1.9446],[98.7365,1.9424],[98.739,1.9396],[98.7382,1.9165]]]}},{"type":"Feature","properties":{"name":"Sorkam","name_en":"Sorkam","admin_level":"7","osm_id":""},"geometry":{"type":"Polygon","coordinates":[[[98.5902,1.9117],[98.5919,1.9162],[98.5978,1.913],[98.6008,1.9084],[98.6024,1.9008],[98.6016,1.8886],[98.5935,1.877],[98.5892,1.8883],[98.5914,1.8897],[98.5902,1.893],[98.5917,1.9031],[98.5902,1.9117]]]}},{"type":"Feature","properties":{"name":"TarutungBolak","name_en":"TarutungBolak","admin_level":"7","osm_id":""},"geometry":{"type":"Polygon","coordinates":[[[98.6303,1.9213],[98.6415,1.9136],[98.6438,1.9097],[98.6393,1.9091],[98.6323,1.8983],[98.6134,1.8813],[98.6114,1.8891],[98.6207,1.8944],[98.6282,1.9103],[98.6303,1.9213]]]}},{"type":"Feature","properties":{"name":"TelukRoban","name_en":"TelukRoban","admin_level":"7","osm_id":""},"geometry":{"type":"Polygon","coordinates":[[[98.6079,1.8573],[98.607,1.8556],[98.6021,1.8549],[98.6003,1.8499],[98.5948,1.8475],[98.5891,1.8567],[98.5823,1.8619],[98.5744,1.8648],[98.575,1.8628],[98.5712,1.8623],[98.5647,1.8672],[98.5742,1.8831],[98.5753,1.8804],[98.5953,1.8615],[98.6079,1.8573]]]}}]}