{"type":"FeatureCollection","metadata":{"parent_osm_id":"gid_IDN_32_11_3_1","parent_name":"Silangkitang","parent_name_1":"SumateraUtara","parent_gid":"IDN.32.11.3_1","parent_level":"6","child_level":"7","count":6,"source":"GADM 4.1","generated":"2026-05-08"},"features":[{"type":"Feature","properties":{"name":"AekGoti","name_en":"AekGoti","admin_level":"7","osm_id":""},"geometry":{"type":"Polygon","coordinates":[[[99.8892,1.8469],[99.8577,1.8528],[99.8564,1.9058],[99.873,1.9173],[99.879,1.9248],[99.9241,1.9192],[99.8892,1.8469]]]}},{"type":"Feature","properties":{"name":"BinangaDua","name_en":"BinangaDua","admin_level":"7","osm_id":""},"geometry":{"type":"Polygon","coordinates":[[[99.8577,1.8528],[99.8968,1.8454],[99.9321,1.8407],[99.9483,1.8308],[99.9487,1.8073],[99.9431,1.7871],[99.9412,1.7848],[99.8988,1.7912],[99.8837,1.7961],[99.8698,1.8038],[99.8557,1.8061],[99.86,1.8159],[99.8554,1.8333],[99.8578,1.8422],[99.8577,1.8528]]]}},{"type":"Feature","properties":{"name":"MandalaSena","name_en":"MandalaSena","admin_level":"7","osm_id":""},"geometry":{"type":"Polygon","coordinates":[[[99.9957,1.8445],[99.996,1.8393],[100.0056,1.8255],[100.0059,1.8198],[100.0112,1.816],[100.0193,1.8062],[100.0137,1.7883],[100.0095,1.788],[100.0064,1.7778],[100.0036,1.7756],[100.0032,1.7723],[99.9994,1.7672],[99.9767,1.7721],[99.9689,1.7763],[99.9472,1.7819],[99.9412,1.7848],[99.9431,1.7871],[99.9487,1.8073],[99.9483,1.8308],[99.9519,1.8311],[99.9701,1.8392],[99.9795,1.8459],[99.9879,1.8552],[99.9902,1.87],[99.9935,1.8793],[99.9978,1.9094],[100.0065,1.9089],[100.0042,1.8813],[99.9963,1.8519],[99.9957,1.8445]]]}},{"type":"Feature","properties":{"name":"Rintis","name_en":"Rintis","admin_level":"7","osm_id":""},"geometry":{"type":"Polygon","coordinates":[[[99.9241,1.9192],[99.879,1.9248],[99.8872,1.9468],[99.9056,1.9587],[99.9178,1.958],[99.9233,1.9645],[99.9328,1.97],[99.9402,1.9712],[99.9509,1.97],[99.9725,1.9628],[99.9737,1.9554],[99.9707,1.9135],[99.9241,1.9192]]]}},{"type":"Feature","properties":{"name":"Sukadame","name_en":"Sukadame","admin_level":"7","osm_id":""},"geometry":{"type":"Polygon","coordinates":[[[100.0089,1.9347],[100.0049,1.9227],[100.0065,1.9089],[99.9879,1.91],[99.9707,1.9135],[99.9737,1.9554],[99.9725,1.9628],[99.979,1.9614],[99.9855,1.9638],[99.9886,1.9675],[99.9895,1.9722],[99.9928,1.9747],[99.9965,1.9747],[99.9966,1.979],[99.9993,1.9825],[100.0012,1.9812],[100.0016,1.9371],[100.0028,1.935],[100.0089,1.9347]]]}},{"type":"Feature","properties":{"name":"UluMahuam","name_en":"UluMahuam","admin_level":"7","osm_id":""},"geometry":{"type":"Polygon","coordinates":[[[99.8892,1.8469],[99.9241,1.9192],[99.9978,1.9094],[99.9935,1.8793],[99.9902,1.87],[99.9879,1.8552],[99.9795,1.8459],[99.9701,1.8392],[99.9519,1.8311],[99.9483,1.8308],[99.9321,1.8407],[99.8892,1.8469]]]}}]}