{"type":"FeatureCollection","metadata":{"parent_osm_id":"gid_IDN_1_6_7_1","parent_name":"SingkilUtara","parent_name_1":"Aceh","parent_gid":"IDN.1.6.7_1","parent_level":"6","child_level":"7","count":7,"source":"GADM 4.1","generated":"2026-05-09"},"features":[{"type":"Feature","properties":{"name":"GosongTelagaBarat","name_en":"GosongTelagaBarat","admin_level":"7","osm_id":""},"geometry":{"type":"Polygon","coordinates":[[[97.9051,2.3428],[97.9003,2.338],[97.8914,2.293],[97.8917,2.2845],[97.8961,2.2787],[97.8924,2.2755],[97.8855,2.2761],[97.8686,2.2699],[97.8666,2.2817],[97.8682,2.2873],[97.8644,2.2904],[97.8609,2.2979],[97.8613,2.3021],[97.857,2.3076],[97.8587,2.3101],[97.8654,2.3128],[97.8688,2.3202],[97.8662,2.3271],[97.8622,2.3277],[97.862,2.3312],[97.8634,2.3314],[97.8655,2.3361],[97.8649,2.3385],[97.8678,2.3404],[97.8696,2.3461],[97.875,2.3506],[97.8742,2.3525],[97.8711,2.3527],[97.8703,2.3541],[97.875,2.3551],[97.9051,2.3428]]]}},{"type":"Feature","properties":{"name":"GosongTelagaSelatan","name_en":"GosongTelagaSelatan","admin_level":"7","osm_id":""},"geometry":{"type":"Polygon","coordinates":[[[97.8948,2.2765],[97.8986,2.2813],[97.9051,2.2799],[97.9144,2.2827],[97.9188,2.2819],[97.9207,2.2785],[97.9266,2.2788],[97.9493,2.2728],[97.948,2.2699],[97.9389,2.2679],[97.9251,2.2716],[97.9169,2.2716],[97.9029,2.2619],[97.8971,2.2506],[97.8875,2.2438],[97.8826,2.2416],[97.8683,2.2437],[97.8691,2.2499],[97.8723,2.2512],[97.8721,2.2483],[97.8758,2.248],[97.8884,2.2558],[97.8903,2.2639],[97.8926,2.2664],[97.8928,2.2723],[97.8965,2.2753],[97.8948,2.2765]]]}},{"type":"Feature","properties":{"name":"GosongTelagaTimur","name_en":"GosongTelagaTimur","admin_level":"7","osm_id":""},"geometry":{"type":"Polygon","coordinates":[[[97.9493,2.2728],[97.9265,2.2782],[97.927,2.2838],[97.9381,2.2788],[97.9506,2.276],[97.9493,2.2728]]]}},{"type":"Feature","properties":{"name":"GosongTelagaUtara","name_en":"GosongTelagaUtara","admin_level":"7","osm_id":""},"geometry":{"type":"Polygon","coordinates":[[[97.9266,2.2788],[97.9207,2.2785],[97.9198,2.2809],[97.9269,2.2815],[97.9266,2.2788]]]}},{"type":"Feature","properties":{"name":"KampungBaru","name_en":"KampungBaru","admin_level":"7","osm_id":""},"geometry":{"type":"Polygon","coordinates":[[[97.948,2.2699],[97.9508,2.2764],[97.9512,2.3032],[97.9772,2.2857],[97.9698,2.272],[97.9795,2.2662],[97.9755,2.2592],[97.948,2.2699]]]}},{"type":"Feature","properties":{"name":"KetapangIndah","name_en":"KetapangIndah","admin_level":"7","osm_id":""},"geometry":{"type":"Polygon","coordinates":[[[97.9158,2.3254],[97.9153,2.3225],[97.9236,2.3246],[97.9277,2.3298],[97.9306,2.3301],[97.9314,2.332],[97.9334,2.3311],[97.9351,2.334],[97.937,2.3333],[97.9392,2.3351],[97.9543,2.3345],[97.9538,2.3333],[97.9584,2.3309],[97.9592,2.329],[97.9532,2.3238],[97.9509,2.3007],[97.9506,2.276],[97.9381,2.2788],[97.927,2.2838],[97.9269,2.2815],[97.9198,2.2809],[97.9117,2.2827],[97.9051,2.2799],[97.8996,2.2816],[97.8961,2.2787],[97.8926,2.2831],[97.8914,2.293],[97.8983,2.3269],[97.9158,2.3254]]]}},{"type":"Feature","properties":{"name":"TelagaBakti","name_en":"TelagaBakti","admin_level":"7","osm_id":""},"geometry":{"type":"Polygon","coordinates":[[[98.0832,2.2507],[98.0834,2.2478],[98.0981,2.24],[98.1095,2.2381],[98.1159,2.2337],[98.1225,2.2324],[98.1236,2.2296],[98.1216,2.2228],[98.1224,2.2201],[98.1285,2.2164],[98.1415,2.2169],[98.1458,2.2089],[98.1552,2.2037],[98.1305,2.166],[98.1317,2.1651],[98.1308,2.1638],[98.1116,2.1831],[98.0846,2.2008],[98.0313,2.2286],[98.0129,2.2365],[97.9755,2.2592],[97.9795,2.2662],[97.9698,2.272],[97.9772,2.2857],[97.9512,2.3032],[97.9532,2.3238],[97.9592,2.329],[97.9578,2.3315],[97.9538,2.3333],[97.9543,2.3345],[97.965,2.3342],[97.9678,2.3308],[97.9742,2.3305],[97.9864,2.3266],[98.0023,2.3335],[98.0049,2.3363],[98.0109,2.3379],[98.0195,2.3454],[98.0294,2.3443],[98.0296,2.3389],[98.0345,2.3313],[98.0361,2.321],[98.0411,2.3183],[98.046,2.3113],[98.0455,2.288],[98.0508,2.2835],[98.05,2.2793],[98.0515,2.2771],[98.0502,2.2757],[98.0539,2.2675],[98.0587,2.2663],[98.0603,2.2613],[98.0632,2.2608],[98.0627,2.2591],[98.0671,2.2519],[98.0659,2.2495],[98.0676,2.2485],[98.0697,2.2483],[98.0746,2.2534],[98.0793,2.2537],[98.0813,2.2561],[98.0835,2.2529],[98.0832,2.2507]]]}}]}