{"type":"FeatureCollection","metadata":{"parent_osm_id":"gid_IDN_32_10_5_1","parent_name":"TanjungbalaiUtara","parent_name_1":"SumateraUtara","parent_gid":"IDN.32.10.5_1","parent_level":"6","child_level":"7","count":5,"source":"GADM 4.1","generated":"2026-05-08"},"features":[{"type":"Feature","properties":{"name":"KwalaSilauBestari","name_en":"KwalaSilauBestari","admin_level":"7","osm_id":""},"geometry":{"type":"Polygon","coordinates":[[[99.8085,2.9733],[99.8086,2.9704],[99.8034,2.9714],[99.8045,2.9732],[99.8085,2.9733]]]}},{"type":"Feature","properties":{"name":"MataHalasan","name_en":"MataHalasan","admin_level":"7","osm_id":""},"geometry":{"type":"Polygon","coordinates":[[[99.8086,2.9704],[99.8022,2.9671],[99.8011,2.9686],[99.8032,2.9706],[99.8025,2.9718],[99.8086,2.9704]]]}},{"type":"Feature","properties":{"name":"Sejahtera","name_en":"Sejahtera","admin_level":"7","osm_id":""},"geometry":{"type":"Polygon","coordinates":[[[99.7966,2.9679],[99.7966,2.9722],[99.7977,2.9729],[99.7996,2.9709],[99.7966,2.9679]]]}},{"type":"Feature","properties":{"name":"TanjungBalaiKotaIii","name_en":"TanjungBalaiKotaIii","admin_level":"7","osm_id":""},"geometry":{"type":"Polygon","coordinates":[[[99.7985,2.9667],[99.7966,2.9679],[99.7992,2.9706],[99.8022,2.9671],[99.7985,2.9667]]]}},{"type":"Feature","properties":{"name":"TanjungBalaiKotaIv","name_en":"TanjungBalaiKotaIv","admin_level":"7","osm_id":""},"geometry":{"type":"Polygon","coordinates":[[[99.7988,2.9732],[99.7995,2.9718],[99.8004,2.9736],[99.8039,2.9724],[99.8023,2.9716],[99.8028,2.9698],[99.8011,2.9686],[99.798,2.9727],[99.7988,2.9732]]]}}]}