{"type":"FeatureCollection","metadata":{"parent_osm_id":"gid_IDN_3_5_6_1","parent_name":"SimpangPesak","parent_name_1":"BangkaBelitung","parent_gid":"IDN.3.5.6_1","parent_level":"6","child_level":"7","count":4,"source":"GADM 4.1","generated":"2026-05-08"},"features":[{"type":"Feature","properties":{"name":"Dukong","name_en":"Dukong","admin_level":"7","osm_id":""},"geometry":{"type":"Polygon","coordinates":[[[107.9669,-3.2358],[107.967,-3.2153],[107.9697,-3.21],[107.9687,-3.2041],[107.9719,-3.2004],[107.9735,-3.1941],[107.9707,-3.181],[107.9681,-3.1775],[107.9699,-3.1762],[107.9689,-3.1741],[107.972,-3.1741],[107.9719,-3.1722],[107.9741,-3.1715],[107.9975,-3.1743],[108.0008,-3.1717],[108.0185,-3.1689],[108.0167,-3.1806],[108.0123,-3.1823],[108.0027,-3.1955],[108.0027,-3.2003],[108.008,-3.2133],[108.0043,-3.2192],[107.9977,-3.2267],[107.9933,-3.2288],[107.9842,-3.231],[107.9788,-3.23],[107.9756,-3.2316],[107.9702,-3.2312],[107.9692,-3.2366],[107.9669,-3.2358]]]}},{"type":"Feature","properties":{"name":"SimpangPesak","name_en":"SimpangPesak","admin_level":"7","osm_id":""},"geometry":{"type":"Polygon","coordinates":[[[107.923,-3.1308],[107.9247,-3.1285],[107.9275,-3.1121],[107.9256,-3.1096],[107.9263,-3.1042],[107.9323,-3.0896],[107.9368,-3.087],[107.9416,-3.0886],[107.9476,-3.0866],[107.9581,-3.0758],[107.9592,-3.0695],[107.9642,-3.0604],[107.9803,-3.0532],[107.9876,-3.0534],[107.993,-3.0476],[108.0008,-3.0426],[108.0021,-3.0563],[108.0143,-3.0951],[108.054,-3.1342],[108.05,-3.1442],[108.0395,-3.1526],[108.0331,-3.1506],[108.0289,-3.1529],[108.0264,-3.1575],[108.0192,-3.1628],[108.0202,-3.1658],[108.0186,-3.1689],[108.0008,-3.1717],[107.9975,-3.1743],[107.973,-3.1717],[107.972,-3.1741],[107.9689,-3.1741],[107.9699,-3.1762],[107.9675,-3.1776],[107.9634,-3.1734],[107.9635,-3.1683],[107.9575,-3.16],[107.9507,-3.1587],[107.9491,-3.1559],[107.9404,-3.1511],[107.9328,-3.1509],[107.9302,-3.1416],[107.933,-3.1377],[107.9337,-3.1324],[107.931,-3.1317],[107.9297,-3.1263],[107.9279,-3.1271],[107.9261,-3.1315],[107.923,-3.1308]]]}},{"type":"Feature","properties":{"name":"TanjungBatuItam","name_en":"TanjungBatuItam","admin_level":"7","osm_id":""},"geometry":{"type":"Polygon","coordinates":[[[108.054,-3.1342],[108.0609,-3.1389],[108.0679,-3.148],[108.0907,-3.1579],[108.0998,-3.1665],[108.086,-3.1675],[108.0805,-3.1697],[108.0771,-3.1784],[108.0725,-3.1819],[108.0692,-3.1879],[108.0725,-3.1974],[108.0787,-3.2008],[108.0791,-3.2035],[108.0837,-3.2046],[108.0869,-3.2084],[108.0872,-3.22],[108.084,-3.2209],[108.0839,-3.224],[108.0817,-3.2244],[108.0834,-3.2257],[108.0837,-3.2288],[108.0811,-3.2328],[108.0806,-3.239],[108.0833,-3.2443],[108.0804,-3.2465],[108.0766,-3.2465],[108.0709,-3.2426],[108.0687,-3.2449],[108.0679,-3.2417],[108.0651,-3.2423],[108.0629,-3.2396],[108.0569,-3.2405],[108.0535,-3.2393],[108.0476,-3.2405],[108.0473,-3.242],[108.0435,-3.2427],[108.0416,-3.2457],[108.0389,-3.2434],[108.03,-3.2447],[108.0228,-3.2431],[108.0212,-3.2436],[108.0205,-3.2466],[108.0189,-3.2433],[108.015,-3.2436],[108.0134,-3.2418],[108.0124,-3.2389],[108.0153,-3.2323],[108.0146,-3.228],[108.0099,-3.2208],[108.0104,-3.2155],[108.0065,-3.2106],[108.0027,-3.2003],[108.0027,-3.1955],[108.0123,-3.1823],[108.0167,-3.1806],[108.0202,-3.1658],[108.0187,-3.1639],[108.0204,-3.161],[108.0264,-3.1575],[108.0309,-3.1515],[108.0351,-3.1507],[108.0395,-3.1526],[108.0483,-3.1458],[108.054,-3.1342]]]}},{"type":"Feature","properties":{"name":"TanjungKelumpang","name_en":"TanjungKelumpang","admin_level":"7","osm_id":""},"geometry":{"type":"Polygon","coordinates":[[[107.9669,-3.2358],[107.9692,-3.2366],[107.9702,-3.2312],[107.9756,-3.2316],[107.9788,-3.23],[107.9842,-3.231],[107.9977,-3.2267],[108.008,-3.2133],[108.0104,-3.2155],[108.0099,-3.2208],[108.0146,-3.228],[108.0153,-3.2323],[108.0124,-3.2389],[108.015,-3.2436],[108.0115,-3.2476],[108.0061,-3.2475],[107.9964,-3.255],[107.9945,-3.2574],[107.9955,-3.2592],[107.9905,-3.2607],[107.9913,-3.2682],[107.9838,-3.2723],[107.9746,-3.2615],[107.9761,-3.2597],[107.9756,-3.255],[107.9666,-3.2462],[107.9656,-3.2423],[107.9669,-3.2358]]]}}]}