{"type":"FeatureCollection","metadata":{"parent_osm_id":"gid_IDN_11_5_14_1","parent_name":"KepohBaru","parent_name_1":"JawaTimur","parent_gid":"IDN.11.5.14_1","parent_level":"6","child_level":"7","count":25,"source":"GADM 4.1","generated":"2026-05-09"},"features":[{"type":"Feature","properties":{"name":"Balongdowo","name_en":"Balongdowo","admin_level":"7","osm_id":""},"geometry":{"type":"Polygon","coordinates":[[[112.0813,-7.1981],[112.0815,-7.2005],[112.066,-7.201],[112.0663,-7.1907],[112.0623,-7.188],[112.0643,-7.1726],[112.0703,-7.174],[112.0709,-7.1724],[112.0726,-7.1728],[112.0731,-7.1749],[112.0795,-7.1778],[112.0793,-7.1803],[112.0813,-7.1812],[112.0783,-7.1895],[112.0813,-7.1981]]]}},{"type":"Feature","properties":{"name":"Bayemgede","name_en":"Bayemgede","admin_level":"7","osm_id":""},"geometry":{"type":"Polygon","coordinates":[[[112.0647,-7.1638],[112.0646,-7.1601],[112.0667,-7.1576],[112.0742,-7.1581],[112.0751,-7.1568],[112.0786,-7.1575],[112.0834,-7.1637],[112.0792,-7.1687],[112.0647,-7.1638]]]}},{"type":"Feature","properties":{"name":"Betet","name_en":"Betet","admin_level":"7","osm_id":""},"geometry":{"type":"Polygon","coordinates":[[[112.1224,-7.1634],[112.1141,-7.162],[112.1155,-7.1535],[112.1203,-7.1558],[112.1209,-7.1576],[112.1262,-7.1567],[112.1257,-7.1629],[112.1224,-7.1634]]]}},{"type":"Feature","properties":{"name":"Brangkal","name_en":"Brangkal","admin_level":"7","osm_id":""},"geometry":{"type":"Polygon","coordinates":[[[112.0815,-7.2005],[112.0813,-7.1981],[112.0874,-7.1979],[112.0926,-7.1858],[112.1055,-7.1919],[112.097,-7.2065],[112.0891,-7.207],[112.0888,-7.2032],[112.0815,-7.2005]]]}},{"type":"Feature","properties":{"name":"Bumirejo","name_en":"Bumirejo","admin_level":"7","osm_id":""},"geometry":{"type":"Polygon","coordinates":[[[112.0994,-7.1551],[112.1082,-7.1554],[112.1095,-7.1512],[112.1146,-7.1511],[112.1157,-7.1545],[112.1145,-7.1563],[112.1158,-7.1559],[112.1141,-7.162],[112.1224,-7.1634],[112.1223,-7.1685],[112.1173,-7.1686],[112.1182,-7.1728],[112.1165,-7.1728],[112.1155,-7.1766],[112.1101,-7.1769],[112.1094,-7.1723],[112.1038,-7.1718],[112.1034,-7.1651],[112.0986,-7.1652],[112.0961,-7.163],[112.0956,-7.1594],[112.0994,-7.1551]]]}},{"type":"Feature","properties":{"name":"Cengkir","name_en":"Cengkir","admin_level":"7","osm_id":""},"geometry":{"type":"Polygon","coordinates":[[[112.066,-7.201],[112.0782,-7.1998],[112.0813,-7.2003],[112.083,-7.2026],[112.0797,-7.2059],[112.0834,-7.2082],[112.0815,-7.2246],[112.0776,-7.2309],[112.0778,-7.2335],[112.0751,-7.2323],[112.0737,-7.2351],[112.0712,-7.2334],[112.0685,-7.2341],[112.065,-7.2297],[112.0695,-7.2087],[112.0675,-7.207],[112.069,-7.2048],[112.0665,-7.2038],[112.066,-7.201]]]}},{"type":"Feature","properties":{"name":"Jipo","name_en":"Jipo","admin_level":"7","osm_id":""},"geometry":{"type":"Polygon","coordinates":[[[112.1155,-7.1766],[112.1166,-7.1743],[112.1232,-7.1725],[112.1279,-7.1745],[112.1293,-7.1717],[112.1347,-7.172],[112.1296,-7.1842],[112.1237,-7.1824],[112.1235,-7.1803],[112.1155,-7.1766]]]}},{"type":"Feature","properties":{"name":"Karangan","name_en":"Karangan","admin_level":"7","osm_id":""},"geometry":{"type":"Polygon","coordinates":[[[112.1281,-7.1443],[112.1276,-7.1458],[112.13,-7.1476],[112.1317,-7.1455],[112.1455,-7.1512],[112.1456,-7.1551],[112.1431,-7.1573],[112.1428,-7.1617],[112.1376,-7.1609],[112.1352,-7.1579],[112.1203,-7.1568],[112.1202,-7.152],[112.1223,-7.1513],[112.1241,-7.1465],[112.1259,-7.147],[112.1281,-7.1443]]]}},{"type":"Feature","properties":{"name":"Kepoh","name_en":"Kepoh","admin_level":"7","osm_id":""},"geometry":{"type":"Polygon","coordinates":[[[112.0819,-7.2007],[112.0888,-7.2032],[112.0888,-7.2095],[112.0906,-7.2103],[112.0902,-7.2122],[112.0922,-7.212],[112.0932,-7.2158],[112.0921,-7.2202],[112.0933,-7.2248],[112.0913,-7.2256],[112.0894,-7.2294],[112.0817,-7.2283],[112.0787,-7.2299],[112.0815,-7.2246],[112.0818,-7.2149],[112.0833,-7.2139],[112.0834,-7.2082],[112.0797,-7.2059],[112.083,-7.2038],[112.0819,-7.2007]]]}},{"type":"Feature","properties":{"name":"Krangkong","name_en":"Krangkong","admin_level":"7","osm_id":""},"geometry":{"type":"Polygon","coordinates":[[[112.1101,-7.1769],[112.1156,-7.1766],[112.1235,-7.1803],[112.1237,-7.1824],[112.1263,-7.1834],[112.1224,-7.1879],[112.1234,-7.193],[112.1219,-7.1974],[112.1055,-7.1919],[112.1104,-7.1857],[112.1101,-7.1769]]]}},{"type":"Feature","properties":{"name":"Mojosari","name_en":"Mojosari","admin_level":"7","osm_id":""},"geometry":{"type":"Polygon","coordinates":[[[112.0813,-7.1981],[112.0783,-7.1895],[112.0813,-7.1811],[112.0924,-7.1791],[112.0942,-7.1861],[112.0915,-7.1867],[112.092,-7.1891],[112.089,-7.1922],[112.0898,-7.1945],[112.0877,-7.1952],[112.0866,-7.1988],[112.0813,-7.1981]]]}},{"type":"Feature","properties":{"name":"Mudung","name_en":"Mudung","admin_level":"7","osm_id":""},"geometry":{"type":"Polygon","coordinates":[[[112.1224,-7.1634],[112.1298,-7.1641],[112.1279,-7.1745],[112.1232,-7.1725],[112.1166,-7.1743],[112.1165,-7.1728],[112.1182,-7.1723],[112.1173,-7.1686],[112.1223,-7.1685],[112.1224,-7.1634]]]}},{"type":"Feature","properties":{"name":"Nglumber","name_en":"Nglumber","admin_level":"7","osm_id":""},"geometry":{"type":"Polygon","coordinates":[[[112.1055,-7.1919],[112.0942,-7.1861],[112.0928,-7.1792],[112.0929,-7.1775],[112.0992,-7.1791],[112.0994,-7.1744],[112.101,-7.1724],[112.1034,-7.1732],[112.1038,-7.1718],[112.1094,-7.1723],[112.11,-7.174],[112.1105,-7.1856],[112.1055,-7.1919]]]}},{"type":"Feature","properties":{"name":"NgranggonAnyar","name_en":"NgranggonAnyar","admin_level":"7","osm_id":""},"geometry":{"type":"Polygon","coordinates":[[[112.1257,-7.1629],[112.1257,-7.1581],[112.1276,-7.1567],[112.136,-7.1581],[112.1374,-7.1607],[112.1412,-7.1627],[112.1366,-7.1649],[112.1347,-7.172],[112.1293,-7.1717],[112.1298,-7.1641],[112.1257,-7.1629]]]}},{"type":"Feature","properties":{"name":"Pejok","name_en":"Pejok","admin_level":"7","osm_id":""},"geometry":{"type":"Polygon","coordinates":[[[112.0862,-7.2835],[112.0794,-7.2826],[112.0807,-7.2792],[112.0801,-7.2745],[112.0824,-7.27],[112.0726,-7.2667],[112.0697,-7.2643],[112.0666,-7.2592],[112.0648,-7.2508],[112.0681,-7.2412],[112.071,-7.2388],[112.0679,-7.2337],[112.0712,-7.2334],[112.0737,-7.2351],[112.0751,-7.2323],[112.0778,-7.2335],[112.0778,-7.2306],[112.0817,-7.2283],[112.0892,-7.231],[112.0892,-7.2396],[112.0876,-7.239],[112.0873,-7.2417],[112.085,-7.2424],[112.087,-7.2424],[112.0871,-7.2444],[112.0856,-7.2446],[112.0869,-7.2472],[112.0839,-7.25],[112.0881,-7.253],[112.0839,-7.255],[112.0853,-7.2571],[112.0846,-7.2607],[112.0853,-7.2624],[112.0869,-7.2622],[112.0876,-7.267],[112.0922,-7.2667],[112.0944,-7.2693],[112.0919,-7.2721],[112.0932,-7.2731],[112.0901,-7.2783],[112.0912,-7.2822],[112.0862,-7.2835]]]}},{"type":"Feature","properties":{"name":"Pohwates","name_en":"Pohwates","admin_level":"7","osm_id":""},"geometry":{"type":"Polygon","coordinates":[[[112.0506,-7.1604],[112.0551,-7.1576],[112.0589,-7.1656],[112.0549,-7.1709],[112.0544,-7.1727],[112.0573,-7.1741],[112.0534,-7.1857],[112.0499,-7.1852],[112.0524,-7.1709],[112.0506,-7.1604]]]}},{"type":"Feature","properties":{"name":"Sidomukti","name_en":"Sidomukti","admin_level":"7","osm_id":""},"geometry":{"type":"Polygon","coordinates":[[[112.0891,-7.207],[112.0984,-7.2055],[112.0999,-7.2006],[112.1055,-7.1919],[112.1136,-7.195],[112.1108,-7.1984],[112.1112,-7.208],[112.1066,-7.217],[112.1069,-7.2236],[112.098,-7.228],[112.0956,-7.2282],[112.0926,-7.223],[112.0933,-7.216],[112.0922,-7.212],[112.0902,-7.2122],[112.0906,-7.2103],[112.0888,-7.2095],[112.0891,-7.207]]]}},{"type":"Feature","properties":{"name":"Simorejo","name_en":"Simorejo","admin_level":"7","osm_id":""},"geometry":{"type":"Polygon","coordinates":[[[112.1136,-7.195],[112.1214,-7.1976],[112.1202,-7.201],[112.1212,-7.2027],[112.1192,-7.2045],[112.1211,-7.2056],[112.1171,-7.2069],[112.1169,-7.2101],[112.1184,-7.2121],[112.1138,-7.2131],[112.113,-7.2172],[112.1099,-7.2185],[112.1092,-7.2206],[112.1061,-7.2208],[112.1072,-7.2149],[112.1112,-7.208],[112.1108,-7.1984],[112.1136,-7.195]]]}},{"type":"Feature","properties":{"name":"Sugihwaras","name_en":"Sugihwaras","admin_level":"7","osm_id":""},"geometry":{"type":"Polygon","coordinates":[[[112.1078,-7.1347],[112.1131,-7.1311],[112.1141,-7.1329],[112.116,-7.1314],[112.1202,-7.1316],[112.1191,-7.1335],[112.1223,-7.134],[112.1223,-7.1358],[112.1256,-7.136],[112.1256,-7.138],[112.1273,-7.1365],[112.1294,-7.137],[112.1282,-7.1442],[112.1259,-7.147],[112.1241,-7.1465],[112.1195,-7.1554],[112.1155,-7.1535],[112.1112,-7.1375],[112.1078,-7.1347]]]}},{"type":"Feature","properties":{"name":"Sumberagung","name_en":"Sumberagung","admin_level":"7","osm_id":""},"geometry":{"type":"Polygon","coordinates":[[[112.0813,-7.1811],[112.0792,-7.1796],[112.0829,-7.1671],[112.0834,-7.1637],[112.0817,-7.1605],[112.086,-7.1584],[112.087,-7.1634],[112.0908,-7.1677],[112.0904,-7.171],[112.0929,-7.1737],[112.0928,-7.1795],[112.0896,-7.1788],[112.0813,-7.1811]]]}},{"type":"Feature","properties":{"name":"Sumbergede","name_en":"Sumbergede","admin_level":"7","osm_id":""},"geometry":{"type":"Polygon","coordinates":[[[112.1023,-7.1551],[112.1049,-7.1412],[112.1078,-7.1347],[112.1112,-7.1375],[112.1146,-7.1511],[112.1095,-7.1512],[112.1082,-7.1554],[112.1023,-7.1551]]]}},{"type":"Feature","properties":{"name":"Sumberoto","name_en":"Sumberoto","admin_level":"7","osm_id":""},"geometry":{"type":"Polygon","coordinates":[[[112.0589,-7.1656],[112.0612,-7.1679],[112.0642,-7.1676],[112.0627,-7.1893],[112.0605,-7.189],[112.0581,-7.1844],[112.0534,-7.1857],[112.0573,-7.1741],[112.0544,-7.1727],[112.0549,-7.1709],[112.0589,-7.1656]]]}},{"type":"Feature","properties":{"name":"Tlogorejo","name_en":"Tlogorejo","admin_level":"7","osm_id":""},"geometry":{"type":"Polygon","coordinates":[[[112.099,-7.1472],[112.0994,-7.1559],[112.0972,-7.1565],[112.0965,-7.1587],[112.0899,-7.1576],[112.091,-7.1623],[112.0886,-7.1582],[112.0815,-7.1602],[112.0844,-7.1471],[112.0894,-7.1476],[112.0884,-7.1536],[112.0939,-7.1541],[112.0949,-7.1485],[112.099,-7.1472]]]}},{"type":"Feature","properties":{"name":"Turigede","name_en":"Turigede","admin_level":"7","osm_id":""},"geometry":{"type":"Polygon","coordinates":[[[112.0642,-7.1676],[112.0647,-7.1638],[112.0792,-7.1687],[112.0831,-7.1653],[112.0795,-7.1778],[112.0731,-7.1749],[112.0726,-7.1728],[112.0709,-7.1724],[112.0703,-7.174],[112.0643,-7.1726],[112.0642,-7.1676]]]}},{"type":"Feature","properties":{"name":"Woro","name_en":"Woro","admin_level":"7","osm_id":""},"geometry":{"type":"Polygon","coordinates":[[[112.0963,-7.1587],[112.0971,-7.1643],[112.1038,-7.166],[112.1034,-7.1732],[112.1002,-7.1732],[112.099,-7.1791],[112.0929,-7.1775],[112.0927,-7.1732],[112.0904,-7.171],[112.0908,-7.1677],[112.087,-7.1634],[112.086,-7.159],[112.0888,-7.1582],[112.091,-7.1623],[112.0899,-7.1576],[112.0963,-7.1587]]]}}]}