{"type":"FeatureCollection","metadata":{"parent_osm_id":"gid_IDN_17_13_4_1","parent_name":"DenteTeladas","parent_name_1":"Lampung","parent_gid":"IDN.17.13.4_1","parent_level":"6","child_level":"7","count":12,"source":"GADM 4.1","generated":"2026-05-07"},"features":[{"type":"Feature","properties":{"name":"BratasenaAdiwarna","name_en":"BratasenaAdiwarna","admin_level":"7","osm_id":""},"geometry":{"type":"Polygon","coordinates":[[[105.8363,-4.6199],[105.8321,-4.622],[105.8309,-4.6323],[105.8277,-4.6405],[105.8195,-4.6471],[105.8188,-4.5683],[105.8225,-4.5731],[105.8878,-4.576],[105.8849,-4.5864],[105.8847,-4.5966],[105.8858,-4.6057],[105.89,-4.6171],[105.8439,-4.6177],[105.8363,-4.6199]]]}},{"type":"Feature","properties":{"name":"BratasenaMandiri","name_en":"BratasenaMandiri","admin_level":"7","osm_id":""},"geometry":{"type":"Polygon","coordinates":[[[105.8573,-4.6573],[105.8571,-4.6323],[105.8546,-4.6308],[105.845,-4.6311],[105.8423,-4.6286],[105.8406,-4.6224],[105.8362,-4.6189],[105.8849,-4.6172],[105.9032,-4.638],[105.9032,-4.634],[105.9077,-4.6342],[105.9164,-4.6427],[105.9169,-4.6467],[105.9068,-4.665],[105.8997,-4.673],[105.8685,-4.673],[105.8693,-4.6586],[105.8573,-4.6573]]]}},{"type":"Feature","properties":{"name":"DenteMakmur","name_en":"DenteMakmur","admin_level":"7","osm_id":""},"geometry":{"type":"Polygon","coordinates":[[[105.7629,-4.4534],[105.7524,-4.4482],[105.7496,-4.4485],[105.7413,-4.4399],[105.7309,-4.4421],[105.7279,-4.4371],[105.7384,-4.4266],[105.743,-4.418],[105.7443,-4.41],[105.7536,-4.4026],[105.7547,-4.3999],[105.7514,-4.3816],[105.7517,-4.3738],[105.8194,-4.3742],[105.8165,-4.379],[105.8087,-4.3794],[105.8059,-4.384],[105.8012,-4.3832],[105.7985,-4.3865],[105.7932,-4.3876],[105.7629,-4.4534]]]}},{"type":"Feature","properties":{"name":"Kekatung","name_en":"Kekatung","admin_level":"7","osm_id":""},"geometry":{"type":"Polygon","coordinates":[[[105.8754,-4.4222],[105.8805,-4.4302],[105.8916,-4.4404],[105.8623,-4.4422],[105.861,-4.4596],[105.8536,-4.4596],[105.8532,-4.4761],[105.8482,-4.476],[105.8484,-4.4812],[105.8161,-4.4721],[105.8161,-4.4386],[105.8216,-4.427],[105.849,-4.431],[105.8485,-4.4231],[105.8754,-4.4222]]]}},{"type":"Feature","properties":{"name":"KualaTeladas","name_en":"KualaTeladas","admin_level":"7","osm_id":""},"geometry":{"type":"Polygon","coordinates":[[[105.8754,-4.4222],[105.8485,-4.4231],[105.849,-4.431],[105.8216,-4.427],[105.826,-4.4178],[105.8279,-4.405],[105.8526,-4.4068],[105.8654,-4.4105],[105.8754,-4.4222]]]}},{"type":"Feature","properties":{"name":"Mahabang","name_en":"Mahabang","admin_level":"7","osm_id":""},"geometry":{"type":"Polygon","coordinates":[[[105.8484,-4.4812],[105.8482,-4.476],[105.8532,-4.4761],[105.8536,-4.4596],[105.861,-4.4596],[105.8623,-4.4422],[105.8916,-4.4404],[105.8941,-4.4368],[105.9017,-4.4337],[105.9128,-4.436],[105.9126,-4.4413],[105.9039,-4.4623],[105.9007,-4.4778],[105.8484,-4.4812]]]}},{"type":"Feature","properties":{"name":"PasiranJaya","name_en":"PasiranJaya","admin_level":"7","osm_id":""},"geometry":{"type":"Polygon","coordinates":[[[105.7817,-4.6338],[105.782,-4.6252],[105.7792,-4.6225],[105.7834,-4.6136],[105.7796,-4.6123],[105.7788,-4.6053],[105.7833,-4.6033],[105.7851,-4.5964],[105.7931,-4.5885],[105.8007,-4.5913],[105.8049,-4.5849],[105.8025,-4.58],[105.7962,-4.5812],[105.794,-4.5799],[105.7943,-4.5734],[105.7989,-4.5715],[105.8001,-4.5693],[105.7998,-4.5603],[105.7971,-4.5561],[105.7895,-4.5495],[105.7861,-4.5504],[105.7835,-4.5567],[105.7717,-4.5534],[105.7684,-4.5472],[105.7677,-4.5424],[105.7684,-4.5412],[105.8185,-4.5408],[105.8202,-4.5614],[105.8185,-4.5695],[105.8195,-4.6471],[105.814,-4.6521],[105.8042,-4.6536],[105.7999,-4.6445],[105.7911,-4.6357],[105.7817,-4.6338]]]}},{"type":"Feature","properties":{"name":"PendowoAsri","name_en":"PendowoAsri","admin_level":"7","osm_id":""},"geometry":{"type":"Polygon","coordinates":[[[105.7285,-4.5366],[105.7267,-4.5297],[105.7242,-4.5278],[105.7181,-4.5314],[105.7132,-4.531],[105.7082,-4.528],[105.7066,-4.5181],[105.6933,-4.5124],[105.6934,-4.5092],[105.6987,-4.5045],[105.6981,-4.4967],[105.6962,-4.4936],[105.6871,-4.4872],[105.6814,-4.4851],[105.677,-4.4853],[105.6861,-4.4749],[105.6868,-4.4715],[105.6842,-4.4658],[105.6772,-4.4593],[105.6807,-4.4561],[105.6889,-4.4541],[105.6934,-4.4504],[105.7024,-4.4504],[105.7089,-4.4412],[105.7208,-4.4436],[105.7413,-4.4399],[105.7496,-4.4485],[105.7524,-4.4482],[105.7768,-4.4604],[105.8167,-4.4565],[105.8162,-4.472],[105.8136,-4.4738],[105.8124,-4.4782],[105.8124,-4.4985],[105.8148,-4.5062],[105.8181,-4.5099],[105.817,-4.5165],[105.8187,-4.5243],[105.8185,-4.5408],[105.7684,-4.5412],[105.7738,-4.5369],[105.7738,-4.533],[105.772,-4.5302],[105.77,-4.5285],[105.766,-4.5287],[105.7594,-4.5322],[105.7565,-4.5299],[105.7542,-4.5224],[105.75,-4.521],[105.745,-4.5228],[105.7457,-4.5289],[105.7397,-4.5348],[105.7314,-4.5373],[105.7285,-4.5366]]]}},{"type":"Feature","properties":{"name":"SungaiBurung","name_en":"SungaiBurung","admin_level":"7","osm_id":""},"geometry":{"type":"Polygon","coordinates":[[[105.8849,-4.6172],[105.89,-4.6171],[105.8954,-4.6254],[105.902,-4.6283],[105.9032,-4.638],[105.8849,-4.6172]]]}},{"type":"Feature","properties":{"name":"SungaiNibung","name_en":"SungaiNibung","admin_level":"7","osm_id":""},"geometry":{"type":"Polygon","coordinates":[[[105.8878,-4.576],[105.8225,-4.5731],[105.8188,-4.5683],[105.8202,-4.5614],[105.8187,-4.5243],[105.817,-4.5165],[105.8181,-4.5099],[105.8148,-4.5062],[105.8124,-4.4985],[105.8136,-4.4738],[105.8161,-4.4721],[105.8412,-4.4787],[105.8458,-4.4812],[105.8582,-4.4815],[105.8712,-4.479],[105.9007,-4.4778],[105.8986,-4.4994],[105.8991,-4.513],[105.9053,-4.5505],[105.8951,-4.5599],[105.8878,-4.576]]]}},{"type":"Feature","properties":{"name":"Teladas","name_en":"Teladas","admin_level":"7","osm_id":""},"geometry":{"type":"Polygon","coordinates":[[[105.8194,-4.3742],[105.7517,-4.3738],[105.7646,-4.3306],[105.7735,-4.3123],[105.7792,-4.3092],[105.7825,-4.3154],[105.7812,-4.3184],[105.7883,-4.3249],[105.7996,-4.354],[105.8162,-4.3676],[105.8194,-4.3742]]]}},{"type":"Feature","properties":{"name":"WayDente","name_en":"WayDente","admin_level":"7","osm_id":""},"geometry":{"type":"Polygon","coordinates":[[[105.7629,-4.4534],[105.7932,-4.3876],[105.7985,-4.3865],[105.8012,-4.3832],[105.8059,-4.384],[105.8087,-4.3794],[105.8165,-4.379],[105.8194,-4.3742],[105.8241,-4.4],[105.8279,-4.405],[105.826,-4.4178],[105.8161,-4.4386],[105.8167,-4.4565],[105.7768,-4.4604],[105.7629,-4.4534]]]}}]}