{"type":"FeatureCollection","metadata":{"parent_osm_id":"gid_IDN_24_4_8_1","parent_name":"PasirPenyu","parent_name_1":"Riau","parent_gid":"IDN.24.4.8_1","parent_level":"6","child_level":"7","count":13,"source":"GADM 4.1","generated":"2026-05-08"},"features":[{"type":"Feature","properties":{"name":"AirMolekI","name_en":"AirMolekI","admin_level":"7","osm_id":""},"geometry":{"type":"Polygon","coordinates":[[[102.2891,-0.3763],[102.293,-0.3762],[102.2936,-0.3797],[102.2917,-0.3815],[102.2917,-0.4156],[102.2814,-0.4123],[102.2814,-0.3815],[102.2795,-0.3808],[102.2738,-0.3681],[102.2774,-0.3629],[102.28,-0.3635],[102.28,-0.3675],[102.2859,-0.371],[102.2891,-0.3763]]]}},{"type":"Feature","properties":{"name":"AirMolekIi","name_en":"AirMolekIi","admin_level":"7","osm_id":""},"geometry":{"type":"Polygon","coordinates":[[[102.2933,-0.3771],[102.2918,-0.3756],[102.2891,-0.3763],[102.2925,-0.3735],[102.2935,-0.3673],[102.2964,-0.3675],[102.2979,-0.3715],[102.2966,-0.3749],[102.2933,-0.3771]]]}},{"type":"Feature","properties":{"name":"BatuGajah","name_en":"BatuGajah","admin_level":"7","osm_id":""},"geometry":{"type":"Polygon","coordinates":[[[102.2774,-0.3629],[102.2738,-0.3681],[102.2795,-0.3808],[102.2678,-0.3828],[102.2592,-0.3667],[102.2606,-0.36],[102.2639,-0.356],[102.2774,-0.3629]]]}},{"type":"Feature","properties":{"name":"Candirejo","name_en":"Candirejo","admin_level":"7","osm_id":""},"geometry":{"type":"Polygon","coordinates":[[[102.2891,-0.3763],[102.2859,-0.371],[102.28,-0.3675],[102.28,-0.3635],[102.2915,-0.3643],[102.2913,-0.3672],[102.2935,-0.3673],[102.2933,-0.3718],[102.2891,-0.3763]]]}},{"type":"Feature","properties":{"name":"Jatirejo","name_en":"Jatirejo","admin_level":"7","osm_id":""},"geometry":{"type":"Polygon","coordinates":[[[102.1892,-0.3197],[102.2038,-0.319],[102.2391,-0.3222],[102.2438,-0.3623],[102.2462,-0.3648],[102.2516,-0.3666],[102.2556,-0.371],[102.2575,-0.3752],[102.258,-0.3852],[102.2523,-0.384],[102.2521,-0.3859],[102.2462,-0.3872],[102.2203,-0.3598],[102.1899,-0.3366],[102.1892,-0.3197]]]}},{"type":"Feature","properties":{"name":"KembangHarum","name_en":"KembangHarum","admin_level":"7","osm_id":""},"geometry":{"type":"Polygon","coordinates":[[[102.28,-0.3635],[102.2774,-0.3629],[102.2856,-0.3503],[102.2947,-0.3503],[102.294,-0.3611],[102.2917,-0.3611],[102.2915,-0.3643],[102.28,-0.3635]]]}},{"type":"Feature","properties":{"name":"LembahDusunGading","name_en":"LembahDusunGading","admin_level":"7","osm_id":""},"geometry":{"type":"Polygon","coordinates":[[[102.2917,-0.4156],[102.2917,-0.3815],[102.2936,-0.3797],[102.2933,-0.3771],[102.2966,-0.3749],[102.2988,-0.3708],[102.3091,-0.3708],[102.3083,-0.3758],[102.3052,-0.3799],[102.3056,-0.4241],[102.2917,-0.4156]]]}},{"type":"Feature","properties":{"name":"PasirKeranji","name_en":"PasirKeranji","admin_level":"7","osm_id":""},"geometry":{"type":"Polygon","coordinates":[[[102.2795,-0.3808],[102.2814,-0.3815],[102.2814,-0.4123],[102.257,-0.3979],[102.2462,-0.3872],[102.2555,-0.3839],[102.2608,-0.3881],[102.2637,-0.3885],[102.2692,-0.3821],[102.2795,-0.3808]]]}},{"type":"Feature","properties":{"name":"Petalongan","name_en":"Petalongan","admin_level":"7","osm_id":""},"geometry":{"type":"Polygon","coordinates":[[[102.3267,-0.3654],[102.3338,-0.3911],[102.3472,-0.4041],[102.3449,-0.4131],[102.3439,-0.4377],[102.3346,-0.4323],[102.3056,-0.4241],[102.3054,-0.3787],[102.3083,-0.3758],[102.3091,-0.3708],[102.3143,-0.3654],[102.3267,-0.3654]]]}},{"type":"Feature","properties":{"name":"SekarMawar","name_en":"SekarMawar","admin_level":"7","osm_id":""},"geometry":{"type":"Polygon","coordinates":[[[102.3236,-0.3544],[102.3267,-0.3654],[102.3143,-0.3654],[102.3091,-0.3616],[102.294,-0.3611],[102.2947,-0.3503],[102.3093,-0.353],[102.3168,-0.3493],[102.3226,-0.3506],[102.3236,-0.3544]]]}},{"type":"Feature","properties":{"name":"SerumpunJaya","name_en":"SerumpunJaya","admin_level":"7","osm_id":""},"geometry":{"type":"Polygon","coordinates":[[[102.2391,-0.3222],[102.2542,-0.3226],[102.2701,-0.3266],[102.2882,-0.3267],[102.2881,-0.3503],[102.2856,-0.3503],[102.2778,-0.3622],[102.2639,-0.356],[102.2606,-0.36],[102.2592,-0.3667],[102.2678,-0.3828],[102.2637,-0.3885],[102.2608,-0.3881],[102.258,-0.3852],[102.2575,-0.3752],[102.2556,-0.371],[102.2516,-0.3666],[102.2462,-0.3648],[102.2438,-0.3623],[102.2391,-0.3222]]]}},{"type":"Feature","properties":{"name":"TanahMerah","name_en":"TanahMerah","admin_level":"7","osm_id":""},"geometry":{"type":"Polygon","coordinates":[[[102.3104,-0.327],[102.3226,-0.3506],[102.3166,-0.3493],[102.3093,-0.353],[102.2997,-0.3503],[102.2881,-0.3503],[102.2882,-0.3267],[102.3104,-0.327]]]}},{"type":"Feature","properties":{"name":"TanjungGading","name_en":"TanjungGading","admin_level":"7","osm_id":""},"geometry":{"type":"Polygon","coordinates":[[[102.2979,-0.3715],[102.2967,-0.3676],[102.2913,-0.3672],[102.2917,-0.3611],[102.3091,-0.3616],[102.3143,-0.3654],[102.3091,-0.3708],[102.2979,-0.3715]]]}}]}