{"type":"FeatureCollection","metadata":{"parent_osm_id":"gid_IDN_35_8_12","parent_name":"SungaiBoh","parent_name_1":"KalimantanUtara","parent_gid":"IDN.35.8.12","parent_level":"6","child_level":"7","count":6,"source":"GADM 4.1","generated":"2026-05-08"},"features":[{"type":"Feature","properties":{"name":"AgungBaru","name_en":"AgungBaru","admin_level":"7","osm_id":""},"geometry":{"type":"Polygon","coordinates":[[[115.376,1.7474],[115.377,1.7377],[115.3893,1.7333],[115.3995,1.7328],[115.4209,1.7231],[115.4303,1.7235],[115.435,1.7255],[115.4372,1.7244],[115.4451,1.7119],[115.4483,1.7101],[115.4507,1.6976],[115.4529,1.6917],[115.4557,1.6891],[115.4648,1.6873],[115.4708,1.6815],[115.4846,1.6756],[115.4987,1.677],[115.5041,1.6744],[115.5074,1.6704],[115.5073,1.6648],[115.5047,1.6596],[115.5128,1.6546],[115.5089,1.6457],[115.5116,1.6437],[115.5163,1.6438],[115.5172,1.6419],[115.5236,1.6384],[115.5236,1.6343],[115.5184,1.6208],[115.5257,1.6122],[115.5265,1.6059],[115.5305,1.6016],[115.5299,1.5979],[115.5361,1.5935],[115.5448,1.5924],[115.547,1.5802],[115.5505,1.5715],[115.5582,1.5647],[115.563,1.5556],[115.5698,1.5494],[115.5725,1.5414],[115.5813,1.5393],[115.5818,1.5258],[115.5876,1.5143],[115.5936,1.5146],[115.6006,1.5114],[115.6071,1.5138],[115.6136,1.5065],[115.6147,1.4962],[115.603,1.4962],[115.5977,1.4916],[115.5956,1.4869],[115.5913,1.4872],[115.5818,1.4816],[115.5773,1.4837],[115.5645,1.4791],[115.5526,1.4784],[115.5545,1.476],[115.5492,1.4746],[115.5342,1.4784],[115.5242,1.4738],[115.5229,1.4663],[115.513,1.4674],[115.5127,1.4699],[115.5074,1.4685],[115.5059,1.4669],[115.5076,1.4651],[115.5038,1.4645],[115.4956,1.4715],[115.4932,1.471],[115.49,1.468],[115.4879,1.4595],[115.4854,1.456],[115.4814,1.4557],[115.4781,1.4524],[115.4761,1.4556],[115.47,1.4549],[115.4705,1.4515],[115.4677,1.4512],[115.4636,1.4538],[115.4619,1.4531],[115.4569,1.4453],[115.4545,1.4436],[115.4536,1.4464],[115.449,1.4395],[115.4423,1.4384],[115.4377,1.4473],[115.4345,1.4455],[115.4296,1.4383],[115.4282,1.4325],[115.4257,1.4305],[115.4237,1.4331],[115.4178,1.4351],[115.4171,1.4338],[115.4188,1.431],[115.4134,1.4267],[115.4123,1.4223],[115.4105,1.4211],[115.4087,1.4241],[115.406,1.4243],[115.4007,1.4063],[115.4048,1.4043],[115.4025,1.3967],[115.4037,1.3948],[115.3969,1.389],[115.3973,1.381],[115.3921,1.3762],[115.3938,1.3718],[115.3929,1.3693],[115.3893,1.3711],[115.3866,1.3695],[115.3828,1.362],[115.3815,1.369],[115.3833,1.3752],[115.3812,1.3881],[115.3875,1.394],[115.3943,1.3968],[115.398,1.4035],[115.3979,1.4147],[115.3931,1.42],[115.3866,1.4235],[115.3895,1.4283],[115.3881,1.4332],[115.3828,1.4316],[115.3719,1.4343],[115.378,1.4429],[115.3811,1.4514],[115.3735,1.4558],[115.3698,1.4544],[115.3695,1.4614],[115.3708,1.4663],[115.3785,1.4758],[115.3796,1.4796],[115.3819,1.4812],[115.3841,1.4802],[115.3868,1.4857],[115.3864,1.4913],[115.3821,1.4922],[115.381,1.4966],[115.3875,1.5013],[115.3885,1.51],[115.3935,1.514],[115.3935,1.5159],[115.3965,1.5157],[115.3978,1.5175],[115.3948,1.5298],[115.3931,1.5306],[115.3905,1.5372],[115.3773,1.5409],[115.3752,1.5452],[115.3762,1.5509],[115.3722,1.5498],[115.3724,1.5526],[115.3768,1.5583],[115.3765,1.5637],[115.3688,1.5656],[115.3646,1.5687],[115.3621,1.5772],[115.3583,1.5825],[115.3575,1.5876],[115.3522,1.5922],[115.3459,1.5952],[115.3381,1.596],[115.3371,1.5976],[115.3278,1.5978],[115.3265,1.6032],[115.3206,1.6071],[115.3149,1.6077],[115.3143,1.6093],[115.305,1.6126],[115.301,1.6109],[115.2994,1.615],[115.2947,1.6145],[115.2866,1.618],[115.2732,1.6184],[115.2615,1.6312],[115.2569,1.6341],[115.2536,1.6333],[115.2504,1.6348],[115.2405,1.6405],[115.2388,1.6434],[115.2345,1.6418],[115.2344,1.639],[115.2306,1.6395],[115.2253,1.6357],[115.2171,1.6332],[115.214,1.6313],[115.215,1.6294],[115.1959,1.6307],[115.1911,1.6329],[115.1926,1.6373],[115.2089,1.6464],[115.2213,1.6578],[115.2257,1.6578],[115.2296,1.6606],[115.2363,1.6691],[115.2374,1.6746],[115.2413,1.6786],[115.2545,1.6869],[115.274,1.7048],[115.274,1.7093],[115.27,1.7171],[115.27,1.7215],[115.2737,1.7284],[115.2834,1.7388],[115.285,1.7464],[115.285,1.7506],[115.2794,1.7623],[115.2806,1.7673],[115.2772,1.7763],[115.2772,1.7814],[115.2694,1.8042],[115.2697,1.8175],[115.2764,1.8236],[115.2987,1.824],[115.3048,1.8258],[115.3071,1.8242],[115.312,1.8246],[115.3177,1.8198],[115.3302,1.8223],[115.3317,1.8166],[115.3262,1.812],[115.3261,1.8096],[115.328,1.8069],[115.3335,1.806],[115.332,1.7955],[115.3378,1.7909],[115.3477,1.7867],[115.3514,1.781],[115.3663,1.7719],[115.376,1.7474]]]}},{"type":"Feature","properties":{"name":"DataBaru","name_en":"DataBaru","admin_level":"7","osm_id":""},"geometry":{"type":"Polygon","coordinates":[[[115.3828,1.362],[115.3866,1.3695],[115.3893,1.3711],[115.3929,1.3693],[115.3938,1.3718],[115.3921,1.3762],[115.3973,1.381],[115.3969,1.389],[115.4037,1.3948],[115.4053,1.3943],[115.4041,1.3917],[115.4056,1.3894],[115.4107,1.389],[115.409,1.3863],[115.4109,1.3836],[115.4163,1.3832],[115.4177,1.3856],[115.4229,1.3823],[115.4293,1.3864],[115.4292,1.3821],[115.4274,1.3807],[115.4282,1.3791],[115.4316,1.3771],[115.4341,1.3783],[115.4356,1.3711],[115.4408,1.3706],[115.4406,1.3618],[115.4345,1.3538],[115.4366,1.3529],[115.4367,1.3485],[115.4395,1.3456],[115.4322,1.3377],[115.4319,1.3367],[115.4351,1.3357],[115.435,1.3335],[115.433,1.325],[115.4308,1.3228],[115.4305,1.3183],[115.4319,1.3151],[115.4357,1.3154],[115.4364,1.3139],[115.4349,1.3129],[115.4356,1.308],[115.4401,1.3079],[115.4447,1.3027],[115.4478,1.3029],[115.4446,1.295],[115.4478,1.2913],[115.4538,1.2892],[115.4541,1.2864],[115.4573,1.2846],[115.456,1.2791],[115.4575,1.2791],[115.4579,1.2751],[115.4618,1.271],[115.4575,1.2677],[115.4532,1.2684],[115.453,1.2666],[115.4549,1.2652],[115.454,1.2631],[115.4454,1.2681],[115.4354,1.2685],[115.4231,1.2726],[115.4079,1.27],[115.3941,1.275],[115.3918,1.2747],[115.3893,1.2694],[115.3713,1.2734],[115.371,1.2807],[115.3671,1.2844],[115.3714,1.2928],[115.3707,1.3003],[115.3753,1.3061],[115.3748,1.3271],[115.3775,1.3324],[115.3778,1.338],[115.3799,1.3435],[115.3857,1.3509],[115.3858,1.3581],[115.3828,1.362]]]}},{"type":"Feature","properties":{"name":"DumuMahak","name_en":"DumuMahak","admin_level":"7","osm_id":""},"geometry":{"type":"Polygon","coordinates":[[[115.3001,1.0647],[115.2939,1.0497],[115.2905,1.0476],[115.2739,1.047],[115.2694,1.0463],[115.2657,1.0437],[115.2598,1.0475],[115.2496,1.0471],[115.23,1.0582],[115.2241,1.0577],[115.2003,1.0619],[115.1903,1.0657],[115.1855,1.0677],[115.1844,1.0748],[115.1868,1.0789],[115.1861,1.0827],[115.1898,1.0878],[115.1866,1.0932],[115.1861,1.0986],[115.1827,1.1026],[115.1779,1.1038],[115.1756,1.1137],[115.1735,1.116],[115.1512,1.1191],[115.142,1.116],[115.1349,1.1226],[115.1229,1.1294],[115.1186,1.1294],[115.1061,1.1211],[115.0884,1.1167],[115.0865,1.1213],[115.0856,1.14],[115.0819,1.1507],[115.0904,1.1664],[115.0996,1.174],[115.1025,1.1788],[115.1102,1.1807],[115.1138,1.1846],[115.1273,1.1927],[115.1421,1.1902],[115.1518,1.1924],[115.156,1.1966],[115.1669,1.1959],[115.1762,1.2003],[115.1836,1.2005],[115.1906,1.193],[115.1985,1.1906],[115.201,1.1867],[115.2087,1.1824],[115.2157,1.1798],[115.2312,1.1798],[115.2381,1.1747],[115.2406,1.1795],[115.2383,1.1898],[115.232,1.1922],[115.2228,1.2026],[115.2264,1.2122],[115.2217,1.2208],[115.2214,1.2267],[115.2315,1.2408],[115.2321,1.2495],[115.2357,1.2539],[115.2368,1.2603],[115.2337,1.2644],[115.2283,1.2666],[115.2253,1.2815],[115.2215,1.2858],[115.2242,1.2894],[115.2203,1.2923],[115.2221,1.3052],[115.225,1.3087],[115.2277,1.308],[115.2285,1.3127],[115.2296,1.3117],[115.2362,1.3163],[115.2348,1.3194],[115.2371,1.324],[115.236,1.3257],[115.2433,1.3283],[115.243,1.3339],[115.2537,1.3308],[115.2485,1.3469],[115.2564,1.3455],[115.261,1.3506],[115.2609,1.3583],[115.2646,1.3699],[115.2683,1.3723],[115.269,1.378],[115.2646,1.3861],[115.2614,1.388],[115.2629,1.3908],[115.262,1.3926],[115.2583,1.394],[115.259,1.4006],[115.2699,1.3954],[115.2718,1.4043],[115.273,1.4055],[115.2758,1.4027],[115.2785,1.4024],[115.2785,1.4048],[115.2811,1.4044],[115.281,1.4062],[115.285,1.4104],[115.2885,1.411],[115.2875,1.4132],[115.2895,1.4141],[115.2894,1.4175],[115.2984,1.4172],[115.3055,1.4136],[115.3224,1.4173],[115.3234,1.4143],[115.3316,1.4123],[115.3329,1.4055],[115.3385,1.4043],[115.3422,1.4007],[115.3464,1.4028],[115.3493,1.4017],[115.352,1.4057],[115.3536,1.4059],[115.358,1.4014],[115.3627,1.401],[115.379,1.4059],[115.3838,1.3995],[115.3936,1.4002],[115.3954,1.3987],[115.3943,1.3968],[115.3826,1.3904],[115.3812,1.3881],[115.3833,1.3752],[115.3818,1.3665],[115.3828,1.362],[115.3858,1.3581],[115.3857,1.3509],[115.3799,1.3435],[115.3778,1.338],[115.3775,1.3324],[115.3748,1.3271],[115.3753,1.3061],[115.3707,1.3003],[115.3714,1.2928],[115.3652,1.2781],[115.3696,1.2589],[115.3507,1.2407],[115.3327,1.2358],[115.3308,1.2331],[115.3249,1.2302],[115.3197,1.2194],[115.3197,1.2115],[115.2972,1.1798],[115.2949,1.1739],[115.298,1.1656],[115.2925,1.1467],[115.2944,1.1135],[115.2929,1.0835],[115.3001,1.0647]]]}},{"type":"Feature","properties":{"name":"LongLebusan","name_en":"LongLebusan","admin_level":"7","osm_id":""},"geometry":{"type":"Polygon","coordinates":[[[115.6147,1.4962],[115.6166,1.4874],[115.6119,1.4777],[115.6091,1.4758],[115.6044,1.476],[115.602,1.474],[115.6012,1.4705],[115.5907,1.4601],[115.5813,1.4591],[115.5733,1.4539],[115.5665,1.4383],[115.5615,1.4339],[115.5605,1.4199],[115.5453,1.4087],[115.5433,1.3993],[115.5349,1.3892],[115.5362,1.3859],[115.5443,1.3854],[115.5443,1.3798],[115.5479,1.3736],[115.5477,1.3624],[115.5446,1.35],[115.545,1.3452],[115.5577,1.3348],[115.5611,1.325],[115.5609,1.3213],[115.557,1.3163],[115.5321,1.3222],[115.5339,1.3175],[115.5392,1.3133],[115.5392,1.3113],[115.5315,1.3074],[115.5273,1.3072],[115.5243,1.3116],[115.5189,1.3137],[115.5157,1.3125],[115.5139,1.3052],[115.5092,1.3108],[115.5054,1.3211],[115.5062,1.3268],[115.5002,1.3381],[115.495,1.3436],[115.49,1.3446],[115.4881,1.344],[115.4874,1.3379],[115.4925,1.3267],[115.4912,1.3209],[115.4877,1.3167],[115.4885,1.3131],[115.4815,1.3092],[115.4804,1.3053],[115.474,1.3103],[115.4686,1.3098],[115.4659,1.3079],[115.465,1.3109],[115.462,1.3125],[115.4605,1.31],[115.4615,1.3084],[115.4579,1.3046],[115.45,1.3041],[115.4467,1.3024],[115.4401,1.3079],[115.4347,1.3088],[115.4349,1.3129],[115.4364,1.3139],[115.4357,1.3154],[115.4319,1.3151],[115.4305,1.3183],[115.4308,1.3228],[115.433,1.325],[115.435,1.3335],[115.4351,1.3357],[115.4319,1.3367],[115.4392,1.3442],[115.4367,1.3485],[115.4366,1.3529],[115.4345,1.3538],[115.4406,1.3618],[115.4415,1.3695],[115.4356,1.3711],[115.4341,1.3783],[115.4316,1.3771],[115.4282,1.3791],[115.4274,1.3807],[115.4292,1.3821],[115.4293,1.3864],[115.4229,1.3823],[115.4177,1.3856],[115.4163,1.3832],[115.4131,1.383],[115.4091,1.3849],[115.4107,1.389],[115.4044,1.3906],[115.4053,1.3943],[115.4025,1.3967],[115.4048,1.4043],[115.4007,1.4063],[115.406,1.4243],[115.4087,1.4241],[115.4105,1.4211],[115.4123,1.4223],[115.4134,1.4267],[115.4188,1.431],[115.4171,1.4338],[115.4178,1.4351],[115.4237,1.4331],[115.4257,1.4305],[115.4282,1.4325],[115.4323,1.4425],[115.4377,1.4473],[115.4423,1.4384],[115.449,1.4395],[115.4536,1.4464],[115.4545,1.4436],[115.4569,1.4453],[115.4619,1.4531],[115.4636,1.4538],[115.4677,1.4512],[115.4705,1.4515],[115.47,1.4549],[115.4761,1.4556],[115.4781,1.4524],[115.4814,1.4557],[115.4854,1.456],[115.4879,1.4595],[115.49,1.468],[115.4932,1.471],[115.4956,1.4715],[115.5038,1.4645],[115.5076,1.4651],[115.5059,1.4669],[115.5074,1.4685],[115.5127,1.4699],[115.513,1.4674],[115.5229,1.4663],[115.5242,1.4738],[115.5342,1.4784],[115.5492,1.4746],[115.5545,1.476],[115.5526,1.4784],[115.5645,1.4791],[115.5773,1.4837],[115.5818,1.4816],[115.5913,1.4872],[115.5956,1.4869],[115.5977,1.4916],[115.603,1.4962],[115.6147,1.4962]]]}},{"type":"Feature","properties":{"name":"LongTop","name_en":"LongTop","admin_level":"7","osm_id":""},"geometry":{"type":"Polygon","coordinates":[[[115.5043,1.2571],[115.4917,1.2542],[115.4639,1.2394],[115.4364,1.2285],[115.4303,1.224],[115.4263,1.2185],[115.4212,1.2076],[115.4197,1.1952],[115.4175,1.1925],[115.4112,1.1931],[115.4082,1.1903],[115.4069,1.1848],[115.4063,1.1728],[115.4091,1.1658],[115.4154,1.1603],[115.4191,1.1482],[115.4182,1.144],[115.4103,1.14],[115.4084,1.137],[115.4109,1.1277],[115.4021,1.1171],[115.4015,1.1126],[115.3982,1.1087],[115.3939,1.105],[115.383,1.1029],[115.3784,1.0995],[115.3733,1.0814],[115.3709,1.0777],[115.3715,1.072],[115.3687,1.0683],[115.3645,1.0659],[115.3603,1.0659],[115.3579,1.0635],[115.3477,1.0613],[115.3246,1.0623],[115.3166,1.0594],[115.3001,1.0647],[115.2929,1.0835],[115.2944,1.1135],[115.2925,1.1467],[115.298,1.1656],[115.2949,1.1739],[115.2972,1.1798],[115.3197,1.2115],[115.3197,1.2194],[115.3249,1.2302],[115.3308,1.2331],[115.3327,1.2358],[115.3507,1.2407],[115.3696,1.2589],[115.3652,1.2781],[115.3671,1.2844],[115.371,1.2807],[115.3713,1.2734],[115.3728,1.2724],[115.3893,1.2694],[115.3918,1.2747],[115.3941,1.275],[115.4079,1.27],[115.4231,1.2726],[115.4354,1.2685],[115.4454,1.2681],[115.454,1.2631],[115.4549,1.2652],[115.453,1.2666],[115.4532,1.2684],[115.4575,1.2677],[115.4618,1.271],[115.4579,1.2751],[115.4575,1.2791],[115.456,1.2791],[115.457,1.2851],[115.4541,1.2864],[115.4538,1.2892],[115.4478,1.2913],[115.4446,1.295],[115.4478,1.3029],[115.4579,1.3046],[115.4615,1.3084],[115.461,1.3124],[115.465,1.3109],[115.4659,1.3079],[115.4686,1.3098],[115.474,1.3103],[115.4804,1.3053],[115.4815,1.3092],[115.4885,1.3131],[115.4877,1.3167],[115.4908,1.3196],[115.4925,1.3267],[115.4874,1.3379],[115.4881,1.344],[115.49,1.3446],[115.495,1.3436],[115.5002,1.3381],[115.5048,1.33],[115.5062,1.3268],[115.5054,1.3211],[115.5115,1.3068],[115.5139,1.3052],[115.5157,1.3125],[115.5189,1.3137],[115.5243,1.3116],[115.5273,1.3072],[115.5315,1.3074],[115.5392,1.3113],[115.5392,1.3133],[115.5339,1.3175],[115.5321,1.3222],[115.557,1.3163],[115.557,1.3125],[115.5679,1.2964],[115.5729,1.2906],[115.5816,1.2863],[115.5827,1.2806],[115.5858,1.2791],[115.5718,1.2719],[115.5482,1.2647],[115.5043,1.2571]]]}},{"type":"Feature","properties":{"name":"MahakBaru","name_en":"MahakBaru","admin_level":"7","osm_id":""},"geometry":{"type":"Polygon","coordinates":[[[115.0884,1.1167],[115.0797,1.116],[115.0768,1.12],[115.0705,1.12],[115.0604,1.1228],[115.0455,1.116],[115.0401,1.1157],[115.0267,1.1203],[115.0156,1.1208],[115.01,1.1233],[115.0068,1.1273],[115.0003,1.1518],[114.9994,1.1533],[114.9909,1.1538],[114.9891,1.1573],[114.9903,1.1829],[114.9868,1.1878],[114.9917,1.1922],[115.0011,1.1956],[115.0071,1.2012],[115.0117,1.2017],[115.0161,1.2061],[115.0162,1.219],[115.0227,1.2202],[115.025,1.2251],[115.0483,1.2251],[115.0515,1.2213],[115.0582,1.2213],[115.0643,1.2263],[115.0719,1.239],[115.081,1.2431],[115.0805,1.262],[115.0777,1.2659],[115.0671,1.2694],[115.0497,1.2665],[115.045,1.2676],[115.0433,1.2726],[115.0471,1.2777],[115.0462,1.2976],[115.0479,1.3025],[115.0596,1.3086],[115.0617,1.3125],[115.0596,1.3227],[115.0524,1.327],[115.0512,1.3304],[115.0529,1.3437],[115.0607,1.3567],[115.0678,1.3824],[115.075,1.3891],[115.0923,1.392],[115.0955,1.3952],[115.1039,1.4137],[115.1093,1.4203],[115.1111,1.4293],[115.1172,1.436],[115.1197,1.4482],[115.1229,1.4536],[115.1252,1.4766],[115.134,1.4865],[115.1441,1.4894],[115.1474,1.4933],[115.1496,1.5011],[115.1551,1.5061],[115.159,1.5195],[115.1639,1.5267],[115.1746,1.5358],[115.179,1.5358],[115.1829,1.538],[115.1879,1.5443],[115.1906,1.5547],[115.1938,1.5575],[115.2057,1.5581],[115.211,1.5624],[115.2161,1.5827],[115.2222,1.5867],[115.2266,1.5972],[115.2247,1.6069],[115.2163,1.6237],[115.2163,1.6293],[115.214,1.6313],[115.2306,1.6395],[115.2344,1.639],[115.2345,1.6418],[115.2388,1.6434],[115.2405,1.6405],[115.2504,1.6348],[115.2536,1.6333],[115.2569,1.6341],[115.2615,1.6312],[115.2732,1.6184],[115.2866,1.618],[115.2947,1.6145],[115.2994,1.615],[115.301,1.6109],[115.305,1.6126],[115.3143,1.6093],[115.3149,1.6077],[115.3206,1.6071],[115.3265,1.6032],[115.3278,1.5978],[115.3371,1.5976],[115.3381,1.596],[115.3459,1.5952],[115.3522,1.5922],[115.3575,1.5876],[115.3583,1.5825],[115.3621,1.5772],[115.3646,1.5687],[115.3688,1.5656],[115.3765,1.5637],[115.3768,1.5583],[115.3724,1.5526],[115.3722,1.5498],[115.3762,1.5509],[115.3752,1.5452],[115.3773,1.5409],[115.3905,1.5372],[115.3931,1.5306],[115.3948,1.5298],[115.3978,1.5175],[115.3965,1.5157],[115.3935,1.5159],[115.3935,1.514],[115.3885,1.51],[115.3875,1.5013],[115.381,1.4966],[115.381,1.4934],[115.3864,1.4913],[115.3872,1.4886],[115.3853,1.4816],[115.3796,1.4796],[115.3785,1.4758],[115.3708,1.4663],[115.3698,1.4544],[115.3735,1.4558],[115.3811,1.4514],[115.378,1.4429],[115.3719,1.4343],[115.3828,1.4316],[115.3881,1.4332],[115.3895,1.4283],[115.3866,1.4235],[115.3931,1.42],[115.3979,1.4147],[115.398,1.4035],[115.3954,1.3987],[115.3936,1.4002],[115.3838,1.3995],[115.379,1.4059],[115.3627,1.401],[115.358,1.4014],[115.3536,1.4059],[115.352,1.4057],[115.3493,1.4017],[115.3464,1.4028],[115.3422,1.4007],[115.3385,1.4043],[115.3329,1.4055],[115.3316,1.4123],[115.3234,1.4143],[115.3224,1.4173],[115.3055,1.4136],[115.2984,1.4172],[115.2908,1.4175],[115.2894,1.4175],[115.2895,1.4141],[115.2875,1.4132],[115.2877,1.41],[115.285,1.4104],[115.281,1.4062],[115.2811,1.4044],[115.2785,1.4048],[115.2785,1.4024],[115.2758,1.4027],[115.273,1.4055],[115.2718,1.4043],[115.2699,1.3954],[115.259,1.4006],[115.2583,1.394],[115.262,1.3926],[115.2629,1.3908],[115.2614,1.388],[115.2646,1.3861],[115.269,1.378],[115.2683,1.3723],[115.2646,1.3699],[115.2609,1.3583],[115.261,1.3506],[115.2564,1.3455],[115.2485,1.3469],[115.2537,1.3308],[115.243,1.3339],[115.2433,1.3283],[115.236,1.3257],[115.2371,1.324],[115.2348,1.3194],[115.2362,1.3163],[115.2296,1.3117],[115.2285,1.3127],[115.2277,1.308],[115.2233,1.3078],[115.2203,1.297],[115.2203,1.2923],[115.2242,1.2894],[115.2215,1.2858],[115.2253,1.2815],[115.2283,1.2666],[115.2337,1.2644],[115.2368,1.2603],[115.2357,1.2539],[115.2321,1.2495],[115.2315,1.2408],[115.2214,1.2267],[115.2217,1.2208],[115.2264,1.2122],[115.2228,1.2026],[115.232,1.1922],[115.2383,1.1898],[115.2406,1.1795],[115.2398,1.1771],[115.2381,1.1747],[115.2312,1.1798],[115.2157,1.1798],[115.2087,1.1824],[115.201,1.1867],[115.1985,1.1906],[115.1906,1.193],[115.1836,1.2005],[115.1762,1.2003],[115.1669,1.1959],[115.156,1.1966],[115.1518,1.1924],[115.1421,1.1902],[115.1273,1.1927],[115.1138,1.1846],[115.1102,1.1807],[115.1025,1.1788],[115.0996,1.174],[115.0904,1.1664],[115.0827,1.1529],[115.0825,1.1467],[115.0856,1.14],[115.0865,1.1213],[115.0884,1.1167]]]}}]}