{"type":"FeatureCollection","metadata":{"parent_osm_id":"5615299","parent_name":"Purwosari","parent_name_1":"Yogyakarta","parent_gid":"IDN.33.2.11_1","parent_level":"6","child_level":"7","count":5,"source":"GADM 4.1","generated":"2026-05-09"},"features":[{"type":"Feature","properties":{"name":"Giriasih","name_en":"Giriasih","admin_level":"7","osm_id":""},"geometry":{"type":"Polygon","coordinates":[[[110.3535,-7.9936],[110.3618,-7.9861],[110.3647,-7.9865],[110.3724,-7.9958],[110.3734,-8.0097],[110.3707,-8.0113],[110.3619,-8.0091],[110.3584,-8.0126],[110.3474,-8.0116],[110.3512,-8.0086],[110.3534,-8.0042],[110.3535,-7.9936]]]}},{"type":"Feature","properties":{"name":"Giricahyo","name_en":"Giricahyo","admin_level":"7","osm_id":""},"geometry":{"type":"Polygon","coordinates":[[[110.3474,-8.0116],[110.3584,-8.0126],[110.3619,-8.0091],[110.3707,-8.0113],[110.3742,-8.0303],[110.373,-8.0333],[110.3818,-8.0401],[110.3818,-8.0444],[110.378,-8.0529],[110.3668,-8.0606],[110.3637,-8.0604],[110.3558,-8.053],[110.3479,-8.0388],[110.3456,-8.028],[110.3474,-8.0116]]]}},{"type":"Feature","properties":{"name":"Girijati","name_en":"Girijati","admin_level":"7","osm_id":""},"geometry":{"type":"Polygon","coordinates":[[[110.3398,-8.0278],[110.3367,-8.021],[110.333,-8.0175],[110.3336,-8.0159],[110.3298,-8.0091],[110.3312,-7.9989],[110.3398,-7.9948],[110.3512,-7.9955],[110.3535,-7.9936],[110.3534,-8.0042],[110.3473,-8.0119],[110.3456,-8.027],[110.3469,-8.0354],[110.3446,-8.0303],[110.3398,-8.0278]]]}},{"type":"Feature","properties":{"name":"Giripurwo","name_en":"Giripurwo","admin_level":"7","osm_id":""},"geometry":{"type":"Polygon","coordinates":[[[110.3985,-8.0061],[110.4039,-8.0058],[110.4079,-8.0082],[110.4116,-8.0189],[110.4176,-8.0233],[110.416,-8.027],[110.4161,-8.0368],[110.4073,-8.0579],[110.4061,-8.0649],[110.4027,-8.07],[110.4042,-8.0799],[110.402,-8.0778],[110.3987,-8.0788],[110.3965,-8.0767],[110.3918,-8.0761],[110.3872,-8.0723],[110.3752,-8.0716],[110.3668,-8.0606],[110.378,-8.0529],[110.3818,-8.0444],[110.3818,-8.0401],[110.373,-8.0333],[110.3742,-8.0303],[110.3707,-8.0113],[110.3734,-8.0097],[110.3767,-8.0122],[110.384,-8.0119],[110.3872,-8.0141],[110.3898,-8.0139],[110.3902,-8.0153],[110.3959,-8.0152],[110.3979,-8.0143],[110.3985,-8.0061]]]}},{"type":"Feature","properties":{"name":"Giritirto","name_en":"Giritirto","admin_level":"7","osm_id":""},"geometry":{"type":"Polygon","coordinates":[[[110.3672,-7.9734],[110.3809,-7.982],[110.3918,-7.9806],[110.3939,-7.9872],[110.3974,-7.9918],[110.3979,-8.0143],[110.3902,-8.0153],[110.3898,-8.0139],[110.3872,-8.0141],[110.384,-8.0119],[110.3767,-8.0122],[110.3734,-8.0097],[110.372,-7.9948],[110.3647,-7.9865],[110.3605,-7.9851],[110.3611,-7.9824],[110.3644,-7.9836],[110.3672,-7.9734]]]}}]}