{"type":"FeatureCollection","metadata":{"parent_osm_id":"gid_IDN_30_9_13_1","parent_name":"SungaiLimau","parent_name_1":"SumateraBarat","parent_gid":"IDN.30.9.13_1","parent_level":"6","child_level":"7","count":2,"source":"GADM 4.1","generated":"2026-05-09"},"features":[{"type":"Feature","properties":{"name":"KuranjiHilir","name_en":"KuranjiHilir","admin_level":"7","osm_id":""},"geometry":{"type":"Polygon","coordinates":[[[100.0194,-0.4855],[100.0334,-0.4706],[100.0481,-0.463],[100.0477,-0.4723],[100.0427,-0.4783],[100.047,-0.4808],[100.0637,-0.4816],[100.0693,-0.4723],[100.0869,-0.4777],[100.0846,-0.4944],[100.0871,-0.4995],[100.0888,-0.5102],[100.0852,-0.5271],[100.0841,-0.5428],[100.0826,-0.5454],[100.0794,-0.5477],[100.0411,-0.5056],[100.0194,-0.4855]]]}},{"type":"Feature","properties":{"name":"Pilubang","name_en":"Pilubang","admin_level":"7","osm_id":""},"geometry":{"type":"Polygon","coordinates":[[[100.0869,-0.4777],[100.1044,-0.4829],[100.1113,-0.4766],[100.1161,-0.4787],[100.1154,-0.4836],[100.1212,-0.4873],[100.1311,-0.4885],[100.1236,-0.5005],[100.1155,-0.5028],[100.1129,-0.5124],[100.1061,-0.5176],[100.1072,-0.5211],[100.1048,-0.5199],[100.1045,-0.5222],[100.1022,-0.523],[100.1032,-0.5274],[100.1091,-0.534],[100.1033,-0.5429],[100.1042,-0.5502],[100.098,-0.5524],[100.0991,-0.5558],[100.0942,-0.5559],[100.0968,-0.5585],[100.0966,-0.5613],[100.0945,-0.5608],[100.0911,-0.5628],[100.0904,-0.567],[100.0794,-0.5477],[100.0841,-0.5428],[100.0852,-0.5271],[100.0885,-0.5134],[100.0871,-0.4995],[100.0846,-0.4944],[100.0869,-0.4777]]]}}]}