{"type":"FeatureCollection","metadata":{"parent_osm_id":"gid_IDN_22_8_18_1","parent_name":"Seget","parent_name_1":"PapuaBarat","parent_gid":"IDN.22.8.18_1","parent_level":"6","child_level":"7","count":8,"source":"GADM 4.1","generated":"2026-05-08"},"features":[{"type":"Feature","properties":{"name":"Kasim","name_en":"Kasim","admin_level":"7","osm_id":""},"geometry":{"type":"Polygon","coordinates":[[[131.018,-1.3111],[131.0162,-1.3112],[131.0108,-1.2997],[131.0146,-1.296],[131.0178,-1.2955],[131.0246,-1.2982],[131.0226,-1.3044],[131.02,-1.3065],[131.018,-1.3111]]]}},{"type":"Feature","properties":{"name":"Kasimle","name_en":"Kasimle","admin_level":"7","osm_id":""},"geometry":{"type":"Polygon","coordinates":[[[131.1757,-1.3428],[131.2066,-1.3522],[131.1964,-1.3907],[131.1654,-1.4161],[131.161,-1.4311],[131.1629,-1.4681],[131.1329,-1.4687],[131.1198,-1.4646],[131.114,-1.4588],[131.0931,-1.4489],[131.0837,-1.4572],[131.0764,-1.4588],[131.0707,-1.4557],[131.0618,-1.4557],[131.0414,-1.4599],[131.0215,-1.4614],[131.02,-1.4536],[131.0388,-1.4212],[131.0539,-1.4128],[131.0644,-1.4034],[131.0644,-1.393],[131.0701,-1.382],[131.0748,-1.3778],[131.0858,-1.3742],[131.0978,-1.3611],[131.1046,-1.3491],[131.1109,-1.3465],[131.1245,-1.3465],[131.1271,-1.3344],[131.1323,-1.3266],[131.1539,-1.3147],[131.1734,-1.3421],[131.1757,-1.3428]]]}},{"type":"Feature","properties":{"name":"Klayas","name_en":"Klayas","admin_level":"7","osm_id":""},"geometry":{"type":"Polygon","coordinates":[[[131.1099,-1.3469],[131.1046,-1.3491],[131.0978,-1.3611],[131.0858,-1.3742],[131.0748,-1.3778],[131.0701,-1.382],[131.0656,-1.3907],[131.0432,-1.3719],[131.0341,-1.3693],[131.0268,-1.365],[131.0045,-1.3616],[131.0077,-1.3533],[131.0114,-1.3303],[131.0262,-1.3182],[131.0342,-1.3229],[131.0437,-1.3246],[131.0529,-1.3342],[131.0761,-1.3336],[131.0899,-1.3412],[131.1053,-1.3422],[131.1099,-1.3469]]]}},{"type":"Feature","properties":{"name":"Malabam","name_en":"Malabam","admin_level":"7","osm_id":""},"geometry":{"type":"Polygon","coordinates":[[[131.0656,-1.3907],[131.0644,-1.4034],[131.0539,-1.4128],[131.0476,-1.4163],[131.0295,-1.4125],[131.0067,-1.4109],[130.9942,-1.4072],[130.9938,-1.4028],[130.9875,-1.3906],[130.9914,-1.39],[130.9926,-1.3873],[130.9955,-1.3862],[130.9982,-1.3719],[131.0045,-1.3616],[131.0268,-1.365],[131.0341,-1.3693],[131.0432,-1.3719],[131.0656,-1.3907]]]}},{"type":"Feature","properties":{"name":"Seget","name_en":"Seget","admin_level":"7","osm_id":""},"geometry":{"type":"Polygon","coordinates":[[[130.9799,-1.4588],[130.9735,-1.4546],[130.9682,-1.4536],[130.9484,-1.4525],[130.9364,-1.4437],[130.9337,-1.44],[130.9348,-1.429],[130.9364,-1.4269],[130.9421,-1.4269],[130.951,-1.4233],[130.953,-1.4178],[130.9552,-1.4272],[130.9495,-1.4295],[130.9517,-1.4326],[130.9625,-1.4349],[130.9799,-1.4356],[130.9799,-1.4588]]]}},{"type":"Feature","properties":{"name":"Wasingsan","name_en":"Wasingsan","admin_level":"7","osm_id":""},"geometry":{"type":"Polygon","coordinates":[[[131.1436,-1.2899],[131.1539,-1.3147],[131.1323,-1.3266],[131.1271,-1.3344],[131.1245,-1.3465],[131.1099,-1.3469],[131.1053,-1.3422],[131.0899,-1.3412],[131.0761,-1.3336],[131.0529,-1.3342],[131.0437,-1.3246],[131.0342,-1.3229],[131.0261,-1.3183],[131.0296,-1.3146],[131.0273,-1.2996],[131.031,-1.2923],[131.0369,-1.2875],[131.0457,-1.2655],[131.055,-1.2562],[131.0629,-1.2531],[131.0835,-1.2401],[131.0947,-1.2471],[131.121,-1.2488],[131.1292,-1.246],[131.1365,-1.2457],[131.1416,-1.2432],[131.1427,-1.2398],[131.1466,-1.2373],[131.1392,-1.2777],[131.1436,-1.2899]]]}},{"type":"Feature","properties":{"name":"Wawenagu","name_en":"Wawenagu","admin_level":"7","osm_id":""},"geometry":{"type":"Polygon","coordinates":[[[131.0476,-1.4163],[131.0388,-1.4212],[131.033,-1.4306],[131.02,-1.4536],[131.0215,-1.4614],[130.9933,-1.4646],[130.9799,-1.4588],[130.9808,-1.4523],[130.9784,-1.4202],[130.9702,-1.3971],[130.9734,-1.3977],[130.9822,-1.3951],[130.9823,-1.3915],[130.9875,-1.3906],[130.9938,-1.4028],[130.9942,-1.4072],[131.0067,-1.4109],[131.0295,-1.4125],[131.0476,-1.4163]]]}},{"type":"Feature","properties":{"name":"Wayangkede","name_en":"Wayangkede","admin_level":"7","osm_id":""},"geometry":{"type":"Polygon","coordinates":[[[130.9799,-1.4356],[130.9566,-1.4342],[130.9517,-1.4326],[130.9495,-1.4295],[130.9552,-1.4272],[130.953,-1.4178],[130.9552,-1.4139],[130.9614,-1.4123],[130.9635,-1.4102],[130.9641,-1.4013],[130.9702,-1.3972],[130.9784,-1.4202],[130.9799,-1.4356]]]}}]}