{"type":"FeatureCollection","metadata":{"parent_osm_id":"8921227","parent_name":"Susoh","parent_name_1":"Aceh","parent_gid":"IDN.1.1.8_1","parent_level":"6","child_level":"7","count":29,"source":"GADM 4.1","generated":"2026-05-09"},"features":[{"type":"Feature","properties":{"name":"Baharu","name_en":"Baharu","admin_level":"7","osm_id":""},"geometry":{"type":"Polygon","coordinates":[[[96.8193,3.7239],[96.8191,3.7219],[96.8184,3.723],[96.8163,3.7218],[96.8193,3.7239]]]}},{"type":"Feature","properties":{"name":"Barat","name_en":"Barat","admin_level":"7","osm_id":""},"geometry":{"type":"Polygon","coordinates":[[[96.8207,3.7238],[96.8189,3.7277],[96.8221,3.7239],[96.8275,3.7219],[96.8207,3.7238]]]}},{"type":"Feature","properties":{"name":"BlangDalam","name_en":"BlangDalam","admin_level":"7","osm_id":""},"geometry":{"type":"Polygon","coordinates":[[[96.8431,3.7298],[96.8454,3.7266],[96.8439,3.7208],[96.8414,3.7181],[96.8362,3.721],[96.8431,3.7298]]]}},{"type":"Feature","properties":{"name":"CotMancang","name_en":"CotMancang","admin_level":"7","osm_id":""},"geometry":{"type":"Polygon","coordinates":[[[96.8477,3.7247],[96.8531,3.7143],[96.8503,3.709],[96.8456,3.7122],[96.8425,3.7117],[96.8477,3.7247]]]}},{"type":"Feature","properties":{"name":"DurianJangek","name_en":"DurianJangek","admin_level":"7","osm_id":""},"geometry":{"type":"Polygon","coordinates":[[[96.8194,3.7222],[96.8193,3.7239],[96.8207,3.7239],[96.8208,3.7219],[96.8194,3.7222]]]}},{"type":"Feature","properties":{"name":"DurianRampak","name_en":"DurianRampak","admin_level":"7","osm_id":""},"geometry":{"type":"Polygon","coordinates":[[[96.8166,3.733],[96.8184,3.7344],[96.8218,3.7275],[96.8287,3.7229],[96.8275,3.7219],[96.8221,3.7239],[96.8166,3.733]]]}},{"type":"Feature","properties":{"name":"Gadang","name_en":"Gadang","admin_level":"7","osm_id":""},"geometry":{"type":"Polygon","coordinates":[[[96.8289,3.733],[96.8392,3.7257],[96.8362,3.721],[96.8304,3.722],[96.8329,3.7274],[96.8289,3.7309],[96.8289,3.733]]]}},{"type":"Feature","properties":{"name":"KedaiPalakKerambil","name_en":"KedaiPalakKerambil","admin_level":"7","osm_id":""},"geometry":{"type":"Polygon","coordinates":[[[96.8245,3.7139],[96.8243,3.7138],[96.8209,3.7156],[96.8257,3.7148],[96.8245,3.7139]]]}},{"type":"Feature","properties":{"name":"KedaiSusoh","name_en":"KedaiSusoh","admin_level":"7","osm_id":""},"geometry":{"type":"Polygon","coordinates":[[[96.8182,3.7162],[96.8171,3.7172],[96.8116,3.7178],[96.8184,3.7196],[96.8182,3.7162]]]}},{"type":"Feature","properties":{"name":"KepalaBandar","name_en":"KepalaBandar","admin_level":"7","osm_id":""},"geometry":{"type":"Polygon","coordinates":[[[96.8383,3.7357],[96.8431,3.7298],[96.8392,3.7257],[96.834,3.734],[96.8315,3.735],[96.8359,3.7369],[96.8383,3.7357]]]}},{"type":"Feature","properties":{"name":"Ladang","name_en":"Ladang","admin_level":"7","osm_id":""},"geometry":{"type":"Polygon","coordinates":[[[96.8362,3.721],[96.8406,3.7184],[96.8389,3.7127],[96.8351,3.7103],[96.8323,3.7087],[96.8245,3.7139],[96.8304,3.722],[96.8362,3.721]]]}},{"type":"Feature","properties":{"name":"LampohDrien","name_en":"LampohDrien","admin_level":"7","osm_id":""},"geometry":{"type":"Polygon","coordinates":[[[96.8406,3.7184],[96.8429,3.72],[96.8456,3.717],[96.8425,3.7117],[96.8389,3.7127],[96.8406,3.7184]]]}},{"type":"Feature","properties":{"name":"Meunasah","name_en":"Meunasah","admin_level":"7","osm_id":""},"geometry":{"type":"Polygon","coordinates":[[[96.8472,3.7255],[96.8477,3.7247],[96.8456,3.717],[96.8429,3.72],[96.8443,3.7258],[96.8472,3.7255]]]}},{"type":"Feature","properties":{"name":"PadangBaru","name_en":"PadangBaru","admin_level":"7","osm_id":""},"geometry":{"type":"Polygon","coordinates":[[[96.8094,3.7345],[96.8161,3.7249],[96.8161,3.7213],[96.814,3.7203],[96.8143,3.7186],[96.8116,3.7178],[96.8104,3.7227],[96.8049,3.7258],[96.806,3.7302],[96.8094,3.7345]]]}},{"type":"Feature","properties":{"name":"PadangHilir","name_en":"PadangHilir","admin_level":"7","osm_id":""},"geometry":{"type":"Polygon","coordinates":[[[96.8236,3.7352],[96.8293,3.7331],[96.8284,3.732],[96.8329,3.7274],[96.8322,3.726],[96.8198,3.7355],[96.8236,3.7352]]]}},{"type":"Feature","properties":{"name":"PadangPanjang","name_en":"PadangPanjang","admin_level":"7","osm_id":""},"geometry":{"type":"Polygon","coordinates":[[[96.8425,3.7117],[96.8452,3.7111],[96.8434,3.705],[96.8323,3.7087],[96.8367,3.7123],[96.8425,3.7117]]]}},{"type":"Feature","properties":{"name":"PalakHilir","name_en":"PalakHilir","admin_level":"7","osm_id":""},"geometry":{"type":"Polygon","coordinates":[[[96.8207,3.7238],[96.8218,3.7228],[96.821,3.7212],[96.8206,3.7213],[96.8207,3.7238]]]}},{"type":"Feature","properties":{"name":"PalakHulu","name_en":"PalakHulu","admin_level":"7","osm_id":""},"geometry":{"type":"Polygon","coordinates":[[[96.8217,3.7227],[96.8266,3.7213],[96.8261,3.7195],[96.8213,3.7187],[96.8217,3.7227]]]}},{"type":"Feature","properties":{"name":"PanjangBaru","name_en":"PanjangBaru","admin_level":"7","osm_id":""},"geometry":{"type":"Polygon","coordinates":[[[96.8266,3.7213],[96.828,3.723],[96.8305,3.7223],[96.8263,3.7152],[96.8182,3.7162],[96.8187,3.7203],[96.8211,3.7185],[96.8261,3.7195],[96.8266,3.7213]]]}},{"type":"Feature","properties":{"name":"PantaiPerak","name_en":"PantaiPerak","admin_level":"7","osm_id":""},"geometry":{"type":"Polygon","coordinates":[[[96.8184,3.7344],[96.8198,3.7355],[96.8234,3.7335],[96.8274,3.7286],[96.8322,3.726],[96.8315,3.7234],[96.8287,3.7229],[96.8232,3.7262],[96.8184,3.7344]]]}},{"type":"Feature","properties":{"name":"Pawoh","name_en":"Pawoh","admin_level":"7","osm_id":""},"geometry":{"type":"Polygon","coordinates":[[[96.811,3.7324],[96.8138,3.7353],[96.8166,3.733],[96.82,3.724],[96.8161,3.7225],[96.8161,3.7249],[96.811,3.7324]]]}},{"type":"Feature","properties":{"name":"Pinang","name_en":"Pinang","admin_level":"7","osm_id":""},"geometry":{"type":"Polygon","coordinates":[[[96.8168,3.7215],[96.8183,3.723],[96.8191,3.7221],[96.8179,3.7191],[96.8168,3.7215]]]}},{"type":"Feature","properties":{"name":"Pulau","name_en":"Pulau","admin_level":"7","osm_id":""},"geometry":{"type":"Polygon","coordinates":[[[96.8056,3.7176],[96.8029,3.719],[96.8036,3.7213],[96.8068,3.7209],[96.8056,3.7176]]]}},{"type":"Feature","properties":{"name":"PulauKayu","name_en":"PulauKayu","admin_level":"7","osm_id":""},"geometry":{"type":"Polygon","coordinates":[[[96.8053,3.738],[96.8083,3.7373],[96.8094,3.7345],[96.806,3.7302],[96.8049,3.7258],[96.7979,3.7239],[96.7901,3.7266],[96.7811,3.735],[96.7827,3.7416],[96.7873,3.7482],[96.8053,3.738]]]}},{"type":"Feature","properties":{"name":"RubekMeupayong","name_en":"RubekMeupayong","admin_level":"7","osm_id":""},"geometry":{"type":"Polygon","coordinates":[[[96.8503,3.709],[96.8548,3.7047],[96.8537,3.7011],[96.8434,3.705],[96.8455,3.7122],[96.8503,3.709]]]}},{"type":"Feature","properties":{"name":"RumahDuaLapis","name_en":"RumahDuaLapis","admin_level":"7","osm_id":""},"geometry":{"type":"Polygon","coordinates":[[[96.8191,3.7219],[96.821,3.7217],[96.8211,3.7185],[96.8187,3.7203],[96.8191,3.7219]]]}},{"type":"Feature","properties":{"name":"RumahPanjang","name_en":"RumahPanjang","admin_level":"7","osm_id":""},"geometry":{"type":"Polygon","coordinates":[[[96.8163,3.7218],[96.8175,3.7191],[96.8148,3.7188],[96.814,3.7203],[96.8163,3.7218]]]}},{"type":"Feature","properties":{"name":"Tangah","name_en":"Tangah","admin_level":"7","osm_id":""},"geometry":{"type":"Polygon","coordinates":[[[96.8295,3.7329],[96.8315,3.735],[96.8333,3.7345],[96.8368,3.7283],[96.8295,3.7329]]]}},{"type":"Feature","properties":{"name":"UjungPadang","name_en":"UjungPadang","admin_level":"7","osm_id":""},"geometry":{"type":"Polygon","coordinates":[[[96.8081,3.7419],[96.805,3.7374],[96.8035,3.7401],[96.8004,3.7404],[96.7867,3.7487],[96.7875,3.7498],[96.7856,3.7517],[96.7884,3.7572],[96.8024,3.7479],[96.8043,3.7439],[96.8081,3.7419]]]}}]}