{"type":"FeatureCollection","metadata":{"parent_osm_id":"gid_IDN_11_35_5_1","parent_name":"DukuhPakis","parent_name_1":"JawaTimur","parent_gid":"IDN.11.35.5_1","parent_level":"6","child_level":"7","count":4,"source":"GADM 4.1","generated":"2026-05-09"},"features":[{"type":"Feature","properties":{"name":"DukuhKupang","name_en":"DukuhKupang","admin_level":"7","osm_id":""},"geometry":{"type":"Polygon","coordinates":[[[112.7149,-7.2862],[112.7075,-7.2865],[112.7081,-7.2838],[112.7044,-7.2828],[112.7023,-7.2846],[112.6995,-7.2821],[112.7049,-7.2772],[112.708,-7.2791],[112.7079,-7.2759],[112.7101,-7.2757],[112.7096,-7.2776],[112.7174,-7.2795],[112.7149,-7.2862]]]}},{"type":"Feature","properties":{"name":"DukuhPakis","name_en":"DukuhPakis","admin_level":"7","osm_id":""},"geometry":{"type":"Polygon","coordinates":[[[112.7075,-7.2865],[112.7149,-7.2862],[112.7134,-7.2903],[112.7185,-7.2917],[112.718,-7.299],[112.7125,-7.2969],[112.7071,-7.3017],[112.7051,-7.3001],[112.7025,-7.3021],[112.6971,-7.3016],[112.6979,-7.2915],[112.7034,-7.2931],[112.7056,-7.2895],[112.7069,-7.2897],[112.7075,-7.2865]]]}},{"type":"Feature","properties":{"name":"Gunungsari","name_en":"Gunungsari","admin_level":"7","osm_id":""},"geometry":{"type":"Polygon","coordinates":[[[112.7071,-7.3017],[112.7125,-7.2969],[112.718,-7.299],[112.7185,-7.2917],[112.725,-7.2922],[112.7208,-7.2965],[112.7195,-7.3069],[112.7208,-7.308],[112.7038,-7.3073],[112.7043,-7.3038],[112.7074,-7.3043],[112.7071,-7.3017]]]}},{"type":"Feature","properties":{"name":"PradahkaliKendal","name_en":"PradahkaliKendal","admin_level":"7","osm_id":""},"geometry":{"type":"Polygon","coordinates":[[[112.6979,-7.2915],[112.6978,-7.2997],[112.6962,-7.3012],[112.6881,-7.2994],[112.6865,-7.3013],[112.683,-7.3016],[112.6841,-7.2989],[112.6757,-7.2941],[112.6786,-7.2876],[112.6784,-7.2814],[112.6841,-7.2769],[112.6845,-7.275],[112.6871,-7.2791],[112.6899,-7.2778],[112.6954,-7.2785],[112.6972,-7.2807],[112.6944,-7.2843],[112.6967,-7.2855],[112.6949,-7.2864],[112.6941,-7.2897],[112.6979,-7.2915]]]}}]}