{"type":"FeatureCollection","metadata":{"parent_osm_id":"20447298","parent_name":"Kao","parent_name_1":"MalukuUtara","parent_gid":"IDN.18.5.9_1","parent_level":"6","child_level":"7","count":14,"source":"GADM 4.1","generated":"2026-05-09"},"features":[{"type":"Feature","properties":{"name":"Biang","name_en":"Biang","admin_level":"7","osm_id":""},"geometry":{"type":"Polygon","coordinates":[[[127.9362,1.2651],[127.9522,1.2603],[127.9472,1.2527],[127.945,1.242],[127.9309,1.2343],[127.9281,1.2352],[127.9281,1.2371],[127.9241,1.2407],[127.9199,1.2415],[127.9362,1.2651]]]}},{"type":"Feature","properties":{"name":"Goruang","name_en":"Goruang","admin_level":"7","osm_id":""},"geometry":{"type":"Polygon","coordinates":[[[127.9063,1.181],[127.9033,1.1745],[127.8968,1.1779],[127.8972,1.1834],[127.9063,1.181]]]}},{"type":"Feature","properties":{"name":"Jati","name_en":"Jati","admin_level":"7","osm_id":""},"geometry":{"type":"Polygon","coordinates":[[[127.8972,1.1834],[127.897,1.1768],[127.8984,1.174],[127.9013,1.173],[127.9022,1.169],[127.8933,1.1709],[127.88,1.1769],[127.8855,1.1919],[127.8971,1.1909],[127.8972,1.1834]]]}},{"type":"Feature","properties":{"name":"Kao","name_en":"Kao","admin_level":"7","osm_id":""},"geometry":{"type":"Polygon","coordinates":[[[127.88,1.1769],[127.8933,1.1709],[127.9022,1.169],[127.9034,1.1502],[127.8961,1.1521],[127.8886,1.1501],[127.8804,1.1537],[127.8756,1.1506],[127.8748,1.1517],[127.8768,1.1547],[127.8745,1.1564],[127.8744,1.159],[127.8793,1.164],[127.8739,1.1654],[127.8771,1.1739],[127.8783,1.1727],[127.88,1.1769]]]}},{"type":"Feature","properties":{"name":"Kukumutuk","name_en":"Kukumutuk","admin_level":"7","osm_id":""},"geometry":{"type":"Polygon","coordinates":[[[127.9191,1.227],[127.9148,1.2184],[127.9141,1.2103],[127.9123,1.2094],[127.9081,1.2116],[127.9001,1.2104],[127.896,1.2144],[127.8633,1.2168],[127.851,1.2235],[127.8674,1.2297],[127.8719,1.2346],[127.912,1.2328],[127.9191,1.227]]]}},{"type":"Feature","properties":{"name":"Kusu","name_en":"Kusu","admin_level":"7","osm_id":""},"geometry":{"type":"Polygon","coordinates":[[[127.8824,1.1517],[127.8826,1.1491],[127.8807,1.1479],[127.8763,1.1508],[127.8805,1.153],[127.8824,1.1517]]]}},{"type":"Feature","properties":{"name":"KusuLovra","name_en":"KusuLovra","admin_level":"7","osm_id":""},"geometry":{"type":"Polygon","coordinates":[[[127.8417,1.2024],[127.8416,1.2218],[127.851,1.2235],[127.8633,1.2168],[127.896,1.2144],[127.9022,1.2098],[127.908,1.2116],[127.9119,1.2094],[127.9145,1.2099],[127.914,1.1948],[127.9063,1.181],[127.8972,1.1834],[127.8971,1.1909],[127.8838,1.1923],[127.8537,1.2018],[127.8417,1.2024]]]}},{"type":"Feature","properties":{"name":"Patang","name_en":"Patang","admin_level":"7","osm_id":""},"geometry":{"type":"Polygon","coordinates":[[[127.9199,1.2415],[127.9241,1.2407],[127.9281,1.2371],[127.9281,1.2352],[127.9191,1.227],[127.912,1.2328],[127.8719,1.2346],[127.8721,1.245],[127.9117,1.2435],[127.9199,1.2415]]]}},{"type":"Feature","properties":{"name":"Popon","name_en":"Popon","admin_level":"7","osm_id":""},"geometry":{"type":"Polygon","coordinates":[[[127.8414,1.2494],[127.8414,1.2835],[127.8634,1.2839],[127.8638,1.2502],[127.8414,1.2494]]]}},{"type":"Feature","properties":{"name":"Sasur","name_en":"Sasur","admin_level":"7","osm_id":""},"geometry":{"type":"Polygon","coordinates":[[[127.8416,1.2218],[127.8414,1.2494],[127.8638,1.2502],[127.8638,1.245],[127.8721,1.245],[127.8723,1.2353],[127.8708,1.2323],[127.8602,1.2264],[127.8416,1.2218]]]}},{"type":"Feature","properties":{"name":"SoasangajiDimDim","name_en":"SoasangajiDimDim","admin_level":"7","osm_id":""},"geometry":{"type":"Polygon","coordinates":[[[127.8415,1.1973],[127.8417,1.2024],[127.8537,1.2018],[127.8855,1.1919],[127.8786,1.1731],[127.8771,1.1739],[127.8768,1.1727],[127.8731,1.1746],[127.8713,1.1785],[127.8738,1.1843],[127.8733,1.1871],[127.8415,1.1973]]]}},{"type":"Feature","properties":{"name":"SumberAgung","name_en":"SumberAgung","admin_level":"7","osm_id":""},"geometry":{"type":"Polygon","coordinates":[[[127.9074,1.2791],[127.9103,1.2845],[127.9148,1.2851],[127.9365,1.2764],[127.9378,1.2698],[127.9362,1.2651],[127.9199,1.2415],[127.9051,1.244],[127.91,1.2609],[127.9074,1.2791]]]}},{"type":"Feature","properties":{"name":"WaringinLamo","name_en":"WaringinLamo","admin_level":"7","osm_id":""},"geometry":{"type":"Polygon","coordinates":[[[127.8634,1.2839],[127.8749,1.284],[127.875,1.2807],[127.8786,1.28],[127.8785,1.278],[127.8822,1.277],[127.8877,1.2806],[127.8871,1.2821],[127.889,1.2832],[127.8918,1.2809],[127.8947,1.2832],[127.8967,1.2811],[127.9072,1.2793],[127.91,1.2609],[127.9051,1.244],[127.8638,1.245],[127.8634,1.2839]]]}},{"type":"Feature","properties":{"name":"WaringinLelewi","name_en":"WaringinLelewi","admin_level":"7","osm_id":""},"geometry":{"type":"Polygon","coordinates":[[[127.8408,1.1888],[127.8415,1.1973],[127.8733,1.1871],[127.8738,1.1843],[127.8713,1.1785],[127.8408,1.1888]]]}}]}