{"type":"FeatureCollection","metadata":{"parent_osm_id":"gid_IDN_17_5_10_1","parent_name":"LabuhanRatu","parent_name_1":"Lampung","parent_gid":"IDN.17.5.10_1","parent_level":"6","child_level":"7","count":11,"source":"GADM 4.1","generated":"2026-05-07"},"features":[{"type":"Feature","properties":{"name":"LabuhanRatu","name_en":"LabuhanRatu","admin_level":"7","osm_id":""},"geometry":{"type":"Polygon","coordinates":[[[105.6669,-5.1044],[105.6788,-5.1137],[105.6967,-5.1172],[105.6911,-5.1302],[105.6903,-5.1393],[105.6862,-5.1415],[105.6813,-5.1409],[105.6784,-5.1461],[105.6694,-5.147],[105.6621,-5.1249],[105.6588,-5.122],[105.6688,-5.1202],[105.6634,-5.1043],[105.6655,-5.1032],[105.6669,-5.1044]]]}},{"type":"Feature","properties":{"name":"LabuhanRatuEmpat","name_en":"LabuhanRatuEmpat","admin_level":"7","osm_id":""},"geometry":{"type":"Polygon","coordinates":[[[105.6259,-5.1789],[105.6216,-5.1754],[105.6279,-5.1754],[105.6212,-5.1689],[105.6264,-5.1668],[105.6253,-5.1647],[105.6295,-5.1641],[105.6341,-5.1608],[105.6342,-5.1591],[105.6387,-5.1579],[105.642,-5.1579],[105.6468,-5.1613],[105.6507,-5.1719],[105.6453,-5.174],[105.6394,-5.1791],[105.6259,-5.1789]]]}},{"type":"Feature","properties":{"name":"LabuhanRatuEnam","name_en":"LabuhanRatuEnam","admin_level":"7","osm_id":""},"geometry":{"type":"Polygon","coordinates":[[[105.7103,-5.1014],[105.7103,-5.1015],[105.714,-5.1449],[105.6967,-5.1171],[105.6788,-5.1137],[105.6669,-5.1044],[105.6783,-5.1012],[105.6774,-5.0951],[105.7016,-5.0893],[105.7047,-5.1019],[105.7103,-5.1014]]]}},{"type":"Feature","properties":{"name":"LabuhanRatuIx","name_en":"LabuhanRatuIx","admin_level":"7","osm_id":""},"geometry":{"type":"Polygon","coordinates":[[[105.6977,-5.0652],[105.7104,-5.1008],[105.7103,-5.1014],[105.7047,-5.1019],[105.7016,-5.0893],[105.6774,-5.0951],[105.6783,-5.1012],[105.6669,-5.1044],[105.6655,-5.1032],[105.6977,-5.0652]]]}},{"type":"Feature","properties":{"name":"LabuhanRatuLima","name_en":"LabuhanRatuLima","admin_level":"7","osm_id":""},"geometry":{"type":"Polygon","coordinates":[[[105.6253,-5.1647],[105.6264,-5.1668],[105.6212,-5.1689],[105.6279,-5.1754],[105.6216,-5.1754],[105.6259,-5.1789],[105.6146,-5.1778],[105.6101,-5.1739],[105.615,-5.1558],[105.6219,-5.1527],[105.6273,-5.1618],[105.6243,-5.1633],[105.6253,-5.1647]]]}},{"type":"Feature","properties":{"name":"LabuhanRatuTiga","name_en":"LabuhanRatuTiga","admin_level":"7","osm_id":""},"geometry":{"type":"Polygon","coordinates":[[[105.6507,-5.1719],[105.6499,-5.1674],[105.648,-5.1672],[105.6474,-5.1622],[105.6409,-5.1579],[105.6399,-5.1541],[105.6505,-5.1553],[105.6559,-5.1534],[105.6584,-5.1498],[105.666,-5.149],[105.6709,-5.1461],[105.6789,-5.1461],[105.6645,-5.1665],[105.6665,-5.1692],[105.6655,-5.1732],[105.659,-5.1686],[105.6507,-5.1719]]]}},{"type":"Feature","properties":{"name":"LabuhanRatuVii","name_en":"LabuhanRatuVii","admin_level":"7","osm_id":""},"geometry":{"type":"Polygon","coordinates":[[[105.714,-5.1449],[105.7161,-5.1492],[105.7075,-5.152],[105.6905,-5.1537],[105.6844,-5.1563],[105.6731,-5.156],[105.6813,-5.1409],[105.6862,-5.1415],[105.6903,-5.1393],[105.6911,-5.1302],[105.6967,-5.1171],[105.714,-5.1449]]]}},{"type":"Feature","properties":{"name":"LabuhanRatuViii","name_en":"LabuhanRatuViii","admin_level":"7","osm_id":""},"geometry":{"type":"Polygon","coordinates":[[[105.6409,-5.1579],[105.6342,-5.1591],[105.6341,-5.1608],[105.6295,-5.1641],[105.6246,-5.1641],[105.6273,-5.1618],[105.6213,-5.153],[105.6217,-5.143],[105.6245,-5.133],[105.6287,-5.128],[105.6399,-5.1265],[105.6441,-5.1284],[105.6487,-5.1242],[105.6581,-5.1213],[105.6621,-5.1249],[105.6694,-5.147],[105.666,-5.149],[105.6584,-5.1498],[105.6559,-5.1534],[105.6505,-5.1553],[105.6399,-5.1541],[105.6409,-5.1579]]]}},{"type":"Feature","properties":{"name":"RajaBasaLama","name_en":"RajaBasaLama","admin_level":"7","osm_id":""},"geometry":{"type":"Polygon","coordinates":[[[105.6776,-5.089],[105.6634,-5.1043],[105.6688,-5.1202],[105.6535,-5.1221],[105.6461,-5.1258],[105.6441,-5.1284],[105.6399,-5.1265],[105.6287,-5.128],[105.6304,-5.1237],[105.6362,-5.1175],[105.6401,-5.1054],[105.6435,-5.0856],[105.6497,-5.0806],[105.6543,-5.0827],[105.6518,-5.0875],[105.6553,-5.0886],[105.658,-5.0893],[105.6608,-5.0803],[105.6776,-5.089]]]}},{"type":"Feature","properties":{"name":"RajaBasaLamaDua","name_en":"RajaBasaLamaDua","admin_level":"7","osm_id":""},"geometry":{"type":"Polygon","coordinates":[[[105.6608,-5.0803],[105.658,-5.0893],[105.6518,-5.0875],[105.6543,-5.0827],[105.6493,-5.0804],[105.654,-5.0703],[105.6593,-5.0726],[105.668,-5.0607],[105.6674,-5.0689],[105.6688,-5.0709],[105.6608,-5.0803]]]}},{"type":"Feature","properties":{"name":"RajaBasaLamaSatu","name_en":"RajaBasaLamaSatu","admin_level":"7","osm_id":""},"geometry":{"type":"Polygon","coordinates":[[[105.6831,-5.0523],[105.6977,-5.0652],[105.6776,-5.089],[105.6608,-5.0803],[105.6688,-5.0709],[105.6674,-5.0689],[105.6681,-5.0596],[105.6831,-5.0523]]]}}]}