{"type":"FeatureCollection","metadata":{"parent_osm_id":"gid_IDN_26_21_7_1","parent_name":"PolombangkengSelatan","parent_name_1":"SulawesiSelatan","parent_gid":"IDN.26.21.7_1","parent_level":"6","child_level":"7","count":8,"source":"GADM 4.1","generated":"2026-05-08"},"features":[{"type":"Feature","properties":{"name":"Bontokadatto","name_en":"Bontokadatto","admin_level":"7","osm_id":""},"geometry":{"type":"Polygon","coordinates":[[[119.5086,-5.4654],[119.5102,-5.4697],[119.5175,-5.4753],[119.5217,-5.4849],[119.5136,-5.4894],[119.512,-5.492],[119.506,-5.4909],[119.5055,-5.4921],[119.5015,-5.4922],[119.4963,-5.4885],[119.4959,-5.4913],[119.4878,-5.4921],[119.4757,-5.4829],[119.4712,-5.4826],[119.4724,-5.4735],[119.4704,-5.4681],[119.473,-5.4544],[119.4894,-5.4546],[119.4943,-5.4598],[119.499,-5.46],[119.5033,-5.4652],[119.5086,-5.4654]]]}},{"type":"Feature","properties":{"name":"Bulukunyi","name_en":"Bulukunyi","admin_level":"7","osm_id":""},"geometry":{"type":"Polygon","coordinates":[[[119.5216,-5.4473],[119.5058,-5.4568],[119.5054,-5.46],[119.508,-5.462],[119.5086,-5.4654],[119.5033,-5.4652],[119.499,-5.46],[119.4943,-5.4598],[119.4894,-5.4546],[119.4743,-5.4549],[119.4703,-5.4525],[119.454,-5.4517],[119.4759,-5.4343],[119.4819,-5.4129],[119.4868,-5.4112],[119.493,-5.4113],[119.4965,-5.4333],[119.5134,-5.4459],[119.5216,-5.4473]]]}},{"type":"Feature","properties":{"name":"Cakura","name_en":"Cakura","admin_level":"7","osm_id":""},"geometry":{"type":"Polygon","coordinates":[[[119.5674,-5.4441],[119.5649,-5.4452],[119.5607,-5.4418],[119.5509,-5.44],[119.5496,-5.4365],[119.5419,-5.4335],[119.5364,-5.4352],[119.5304,-5.4317],[119.5285,-5.437],[119.5273,-5.4364],[119.5242,-5.4404],[119.5216,-5.4405],[119.5238,-5.4438],[119.5232,-5.4464],[119.5216,-5.4473],[119.5134,-5.4459],[119.4965,-5.4333],[119.493,-5.4113],[119.4958,-5.4106],[119.5041,-5.4132],[119.5152,-5.4099],[119.5231,-5.4121],[119.5251,-5.416],[119.5333,-5.4207],[119.5399,-5.4175],[119.5519,-5.4162],[119.5674,-5.4441]]]}},{"type":"Feature","properties":{"name":"Canrego","name_en":"Canrego","admin_level":"7","osm_id":""},"geometry":{"type":"Polygon","coordinates":[[[119.4712,-5.4826],[119.4676,-5.4795],[119.4688,-5.4783],[119.4666,-5.4763],[119.4609,-5.4756],[119.4579,-5.473],[119.4543,-5.4744],[119.4535,-5.4719],[119.451,-5.4737],[119.454,-5.4517],[119.4703,-5.4525],[119.473,-5.4544],[119.4704,-5.4681],[119.4724,-5.4735],[119.4712,-5.4826]]]}},{"type":"Feature","properties":{"name":"Lantang","name_en":"Lantang","admin_level":"7","osm_id":""},"geometry":{"type":"Polygon","coordinates":[[[119.5519,-5.4162],[119.5399,-5.4175],[119.5333,-5.4207],[119.5251,-5.416],[119.5231,-5.4121],[119.5152,-5.4099],[119.511,-5.4103],[119.5094,-5.4123],[119.5088,-5.4049],[119.5068,-5.4014],[119.5083,-5.3952],[119.5031,-5.384],[119.5082,-5.3832],[119.5098,-5.3815],[119.515,-5.3825],[119.517,-5.3863],[119.5178,-5.3947],[119.5215,-5.3984],[119.5278,-5.3996],[119.5339,-5.3978],[119.5385,-5.4001],[119.5409,-5.3977],[119.548,-5.3985],[119.546,-5.4033],[119.5519,-5.4162]]]}},{"type":"Feature","properties":{"name":"Moncongkomba","name_en":"Moncongkomba","admin_level":"7","osm_id":""},"geometry":{"type":"Polygon","coordinates":[[[119.493,-5.4113],[119.4819,-5.4129],[119.4865,-5.4035],[119.4866,-5.3989],[119.4905,-5.3985],[119.4957,-5.3907],[119.5037,-5.3876],[119.5083,-5.3952],[119.5068,-5.4014],[119.5088,-5.4049],[119.5094,-5.4123],[119.5041,-5.4132],[119.4958,-5.4106],[119.493,-5.4113]]]}},{"type":"Feature","properties":{"name":"Pa'bundukang","name_en":"Pa'bundukang","admin_level":"7","osm_id":""},"geometry":{"type":"Polygon","coordinates":[[[119.4231,-5.4683],[119.426,-5.4597],[119.4288,-5.4599],[119.4328,-5.4635],[119.4359,-5.4626],[119.4356,-5.4557],[119.4384,-5.4542],[119.4537,-5.4555],[119.4509,-5.468],[119.4472,-5.4717],[119.4473,-5.4744],[119.4436,-5.4747],[119.4413,-5.4704],[119.4371,-5.468],[119.4231,-5.4683]]]}},{"type":"Feature","properties":{"name":"Patte'ne","name_en":"Patte'ne","admin_level":"7","osm_id":""},"geometry":{"type":"Polygon","coordinates":[[[119.458,-5.4331],[119.4625,-5.4262],[119.4613,-5.4213],[119.4653,-5.4174],[119.4639,-5.4142],[119.4681,-5.4095],[119.4675,-5.404],[119.4722,-5.4015],[119.4765,-5.4066],[119.4789,-5.4048],[119.4844,-5.4062],[119.4759,-5.4343],[119.458,-5.4331]]]}}]}