{"type":"FeatureCollection","metadata":{"parent_osm_id":"gid_IDN_28_9_3_1","parent_name":"Lasolo","parent_name_1":"SulawesiTenggara","parent_gid":"IDN.28.9.3_1","parent_level":"6","child_level":"7","count":21,"source":"GADM 4.1","generated":"2026-05-08"},"features":[{"type":"Feature","properties":{"name":"Abola","name_en":"Abola","admin_level":"7","osm_id":""},"geometry":{"type":"Polygon","coordinates":[[[122.267,-3.6777],[122.2732,-3.682],[122.26,-3.6937],[122.2538,-3.71],[122.1691,-3.7594],[122.1658,-3.7555],[122.1558,-3.7508],[122.1525,-3.7474],[122.1518,-3.7391],[122.2496,-3.7035],[122.257,-3.6835],[122.267,-3.6777]]]}},{"type":"Feature","properties":{"name":"Andeo","name_en":"Andeo","admin_level":"7","osm_id":""},"geometry":{"type":"Polygon","coordinates":[[[122.257,-3.6835],[122.2491,-3.7037],[122.2174,-3.6881],[122.2253,-3.6857],[122.2395,-3.6759],[122.257,-3.6835]]]}},{"type":"Feature","properties":{"name":"Andumowu","name_en":"Andumowu","admin_level":"7","osm_id":""},"geometry":{"type":"Polygon","coordinates":[[[122.243,-3.6605],[122.2396,-3.6621],[122.2386,-3.6683],[122.2253,-3.671],[122.0944,-3.717],[122.0808,-3.717],[122.076,-3.7124],[122.236,-3.6584],[122.2382,-3.6558],[122.243,-3.6605]]]}},{"type":"Feature","properties":{"name":"Basule","name_en":"Basule","admin_level":"7","osm_id":""},"geometry":{"type":"Polygon","coordinates":[[[122.2428,-3.6606],[122.2462,-3.659],[122.2466,-3.6646],[122.2539,-3.6642],[122.2569,-3.6669],[122.2497,-3.6706],[122.2428,-3.6606]]]}},{"type":"Feature","properties":{"name":"Belalo","name_en":"Belalo","admin_level":"7","osm_id":""},"geometry":{"type":"Polygon","coordinates":[[[122.267,-3.6777],[122.257,-3.6835],[122.2395,-3.6759],[122.2569,-3.6669],[122.2643,-3.6708],[122.267,-3.6777]]]}},{"type":"Feature","properties":{"name":"Boenaga","name_en":"Boenaga","admin_level":"7","osm_id":""},"geometry":{"type":"Polygon","coordinates":[[[122.3883,-3.4161],[122.3868,-3.4185],[122.3872,-3.4254],[122.3818,-3.4351],[122.3832,-3.4395],[122.3808,-3.441],[122.3793,-3.4486],[122.3832,-3.4507],[122.3832,-3.4575],[122.3808,-3.4631],[122.3789,-3.459],[122.3757,-3.4578],[122.3689,-3.4641],[122.3677,-3.4601],[122.3641,-3.4604],[122.3602,-3.4643],[122.3575,-3.4629],[122.356,-3.4593],[122.3568,-3.457],[122.3641,-3.4516],[122.3626,-3.447],[122.3596,-3.4458],[122.3635,-3.4429],[122.3641,-3.4404],[122.3572,-3.4388],[122.3603,-3.4349],[122.3593,-3.4319],[122.3553,-3.4295],[122.3507,-3.4306],[122.3506,-3.429],[122.3565,-3.4256],[122.3591,-3.4196],[122.3567,-3.4163],[122.35,-3.4174],[122.3497,-3.4098],[122.347,-3.4081],[122.344,-3.4079],[122.3342,-3.414],[122.3267,-3.4261],[122.3248,-3.4261],[122.3227,-3.4232],[122.3165,-3.4265],[122.3145,-3.4245],[122.315,-3.4204],[122.3224,-3.4181],[122.3256,-3.4147],[122.3243,-3.4104],[122.3197,-3.4104],[122.3194,-3.4078],[122.325,-3.4034],[122.3894,-3.4139],[122.3883,-3.4161]]]}},{"type":"Feature","properties":{"name":"Kampobunga","name_en":"Kampobunga","admin_level":"7","osm_id":""},"geometry":{"type":"Polygon","coordinates":[[[122.3184,-3.7216],[122.3196,-3.7207],[122.3233,-3.7234],[122.3181,-3.7269],[122.3171,-3.7225],[122.3184,-3.7216]]]}},{"type":"Feature","properties":{"name":"Labengi","name_en":"Labengi","admin_level":"7","osm_id":""},"geometry":{"type":"Polygon","coordinates":[[[122.4278,-3.4626],[122.4125,-3.4199],[122.4132,-3.3955],[122.4163,-3.3994],[122.4184,-3.4167],[122.4234,-3.4281],[122.4418,-3.4441],[122.448,-3.4514],[122.4525,-3.4508],[122.4543,-3.4561],[122.4606,-3.4612],[122.4638,-3.4615],[122.4662,-3.4653],[122.4674,-3.4765],[122.4626,-3.484],[122.4607,-3.4765],[122.4583,-3.479],[122.4565,-3.4856],[122.4532,-3.4874],[122.4476,-3.4856],[122.4424,-3.4775],[122.4391,-3.4771],[122.4379,-3.4795],[122.4407,-3.4853],[122.4457,-3.4905],[122.4466,-3.494],[122.449,-3.4953],[122.4511,-3.4995],[122.4508,-3.5034],[122.4429,-3.5053],[122.4278,-3.4626]]]}},{"type":"Feature","properties":{"name":"Lametono","name_en":"Lametono","admin_level":"7","osm_id":""},"geometry":{"type":"Polygon","coordinates":[[[122.2395,-3.6759],[122.2253,-3.6857],[122.1164,-3.7214],[122.1049,-3.7165],[122.0944,-3.717],[122.2253,-3.671],[122.2386,-3.6683],[122.2396,-3.6621],[122.2428,-3.6606],[122.2497,-3.6706],[122.2395,-3.6759]]]}},{"type":"Feature","properties":{"name":"Larodangge","name_en":"Larodangge","admin_level":"7","osm_id":""},"geometry":{"type":"Polygon","coordinates":[[[122.2215,-3.65],[122.2277,-3.6463],[122.2312,-3.65],[122.2226,-3.6546],[122.2215,-3.65]]]}},{"type":"Feature","properties":{"name":"Lemobajo","name_en":"Lemobajo","admin_level":"7","osm_id":""},"geometry":{"type":"Polygon","coordinates":[[[122.3184,-3.7216],[122.3171,-3.7225],[122.3181,-3.7269],[122.2764,-3.7524],[122.2609,-3.7647],[122.2422,-3.7537],[122.2749,-3.7274],[122.3072,-3.7081],[122.313,-3.7103],[122.3134,-3.7142],[122.3184,-3.7216]]]}},{"type":"Feature","properties":{"name":"Matapila","name_en":"Matapila","admin_level":"7","osm_id":""},"geometry":{"type":"Polygon","coordinates":[[[122.2491,-3.7037],[122.1518,-3.7391],[122.1455,-3.7213],[122.1375,-3.7218],[122.1313,-3.7256],[122.1261,-3.7265],[122.1164,-3.7214],[122.2174,-3.6881],[122.2491,-3.7037]]]}},{"type":"Feature","properties":{"name":"Morombo","name_en":"Morombo","admin_level":"7","osm_id":""},"geometry":{"type":"Polygon","coordinates":[[[122.182,-3.472],[122.1747,-3.4649],[122.1686,-3.4542],[122.1702,-3.452],[122.1697,-3.4469],[122.1674,-3.4446],[122.1535,-3.4074],[122.1798,-3.3939],[122.1877,-3.3804],[122.1983,-3.3697],[122.2185,-3.3725],[122.2387,-3.3776],[122.2499,-3.3833],[122.2544,-3.3838],[122.264,-3.3731],[122.2684,-3.3586],[122.275,-3.365],[122.2774,-3.3719],[122.2745,-3.3746],[122.2742,-3.3806],[122.268,-3.3796],[122.2674,-3.3813],[122.264,-3.3818],[122.267,-3.3881],[122.2714,-3.3906],[122.2701,-3.3916],[122.2659,-3.3902],[122.2637,-3.3932],[122.268,-3.3991],[122.2588,-3.3979],[122.2545,-3.3937],[122.2521,-3.3935],[122.2524,-3.388],[122.248,-3.3883],[122.2472,-3.3898],[122.2448,-3.389],[122.2442,-3.3907],[122.2391,-3.3887],[122.2379,-3.3925],[122.24,-3.3956],[122.2375,-3.3983],[122.2419,-3.4037],[122.2467,-3.4028],[122.2432,-3.404],[122.2426,-3.406],[122.2451,-3.4091],[122.2482,-3.4101],[122.2489,-3.4156],[122.2532,-3.4175],[122.2546,-3.4157],[122.2554,-3.4175],[122.2622,-3.4158],[122.2639,-3.4197],[122.2611,-3.42],[122.2584,-3.4227],[122.2595,-3.4267],[122.262,-3.4273],[122.2669,-3.4349],[122.2705,-3.4361],[122.2762,-3.4346],[122.2792,-3.4359],[122.2795,-3.4401],[122.2837,-3.4435],[122.2831,-3.4493],[122.2914,-3.4517],[122.2932,-3.4621],[122.2979,-3.4643],[122.3016,-3.4684],[122.2992,-3.4683],[122.2968,-3.4724],[122.182,-3.472]]]}},{"type":"Feature","properties":{"name":"Otole","name_en":"Otole","admin_level":"7","osm_id":""},"geometry":{"type":"Polygon","coordinates":[[[122.2296,-3.6479],[122.2277,-3.6463],[122.2163,-3.6525],[122.1908,-3.662],[122.067,-3.7029],[122.065,-3.7006],[122.0581,-3.698],[122.0556,-3.6926],[122.1071,-3.6701],[122.1438,-3.6646],[122.1658,-3.6529],[122.2037,-3.6462],[122.2231,-3.6373],[122.2291,-3.6453],[122.2337,-3.6475],[122.2296,-3.6479]]]}},{"type":"Feature","properties":{"name":"TINOBU","name_en":"TINOBU","admin_level":"7","osm_id":""},"geometry":{"type":"Polygon","coordinates":[[[122.243,-3.6605],[122.2382,-3.6558],[122.2403,-3.6528],[122.2469,-3.6555],[122.2462,-3.659],[122.243,-3.6605]]]}},{"type":"Feature","properties":{"name":"TanjungBunga","name_en":"TanjungBunga","admin_level":"7","osm_id":""},"geometry":{"type":"Polygon","coordinates":[[[122.3181,-3.7269],[122.3233,-3.7234],[122.3256,-3.7275],[122.2661,-3.7676],[122.2609,-3.7647],[122.2764,-3.7524],[122.3181,-3.7269]]]}},{"type":"Feature","properties":{"name":"Toreo","name_en":"Toreo","admin_level":"7","osm_id":""},"geometry":{"type":"Polygon","coordinates":[[[122.1691,-3.7594],[122.2538,-3.71],[122.26,-3.6937],[122.2732,-3.682],[122.285,-3.6842],[122.2883,-3.6865],[122.2924,-3.6853],[122.2938,-3.6878],[122.2988,-3.6904],[122.2842,-3.6984],[122.2175,-3.7455],[122.2031,-3.7442],[122.1965,-3.7484],[122.1898,-3.7565],[122.1875,-3.7626],[122.1813,-3.7679],[122.1771,-3.7683],[122.1691,-3.7594]]]}},{"type":"Feature","properties":{"name":"Watukila","name_en":"Watukila","admin_level":"7","osm_id":""},"geometry":{"type":"Polygon","coordinates":[[[122.2231,-3.6373],[122.2037,-3.6462],[122.1658,-3.6529],[122.1438,-3.6646],[122.1071,-3.6701],[122.0556,-3.6926],[122.0539,-3.689],[122.0527,-3.6769],[122.1019,-3.6587],[122.14,-3.6492],[122.161,-3.64],[122.2,-3.636],[122.2172,-3.6302],[122.2231,-3.6373]]]}},{"type":"Feature","properties":{"name":"Waturambaha","name_en":"Waturambaha","admin_level":"7","osm_id":""},"geometry":{"type":"Polygon","coordinates":[[[122.2841,-3.348],[122.2881,-3.345],[122.2923,-3.3447],[122.2955,-3.3481],[122.2934,-3.3518],[122.2932,-3.3594],[122.3014,-3.3604],[122.3015,-3.3561],[122.3045,-3.3554],[122.3047,-3.3639],[122.3097,-3.3653],[122.3119,-3.3695],[122.3204,-3.3694],[122.3239,-3.3626],[122.331,-3.3652],[122.3379,-3.3646],[122.341,-3.3752],[122.3463,-3.3797],[122.3492,-3.38],[122.3539,-3.3851],[122.3603,-3.3802],[122.3657,-3.3823],[122.3718,-3.3793],[122.3763,-3.3835],[122.3746,-3.3865],[122.3749,-3.39],[122.3903,-3.4053],[122.3894,-3.4139],[122.325,-3.4034],[122.3275,-3.4024],[122.3272,-3.4003],[122.3201,-3.3962],[122.3267,-3.3946],[122.3301,-3.3908],[122.3297,-3.3868],[122.3232,-3.3866],[122.3246,-3.3835],[122.3225,-3.3821],[122.3282,-3.3766],[122.3282,-3.3733],[122.3214,-3.3738],[122.316,-3.3771],[122.3127,-3.3841],[122.3091,-3.3847],[122.3065,-3.3828],[122.3065,-3.3811],[122.3032,-3.3796],[122.2969,-3.3823],[122.2978,-3.3775],[122.2904,-3.3771],[122.2888,-3.3754],[122.2893,-3.3741],[122.294,-3.3742],[122.2948,-3.3724],[122.2928,-3.3708],[122.2952,-3.3689],[122.2916,-3.3676],[122.2849,-3.3689],[122.2805,-3.3641],[122.2791,-3.3654],[122.2768,-3.3632],[122.2753,-3.3653],[122.2684,-3.3586],[122.2791,-3.35],[122.2841,-3.348]]]}},{"type":"Feature","properties":{"name":"Wawolesea","name_en":"Wawolesea","admin_level":"7","osm_id":""},"geometry":{"type":"Polygon","coordinates":[[[122.3072,-3.7081],[122.2749,-3.7274],[122.2422,-3.7537],[122.2338,-3.7489],[122.2175,-3.7455],[122.2842,-3.6984],[122.2988,-3.6904],[122.3046,-3.6975],[122.3039,-3.7049],[122.3072,-3.7081]]]}},{"type":"Feature","properties":{"name":"Waworaha","name_en":"Waworaha","admin_level":"7","osm_id":""},"geometry":{"type":"Polygon","coordinates":[[[122.2382,-3.6558],[122.236,-3.6584],[122.076,-3.7124],[122.067,-3.7029],[122.1908,-3.662],[122.2215,-3.65],[122.2226,-3.6546],[122.2312,-3.65],[122.2296,-3.6479],[122.2332,-3.6475],[122.2403,-3.6528],[122.2382,-3.6558]]]}}]}