{"type":"FeatureCollection","metadata":{"parent_osm_id":"18970997","parent_name":"Jakenan","parent_name_1":"JawaTengah","parent_gid":"IDN.10.21.7_1","parent_level":"6","child_level":"7","count":23,"source":"GADM 4.1","generated":"2026-05-09"},"features":[{"type":"Feature","properties":{"name":"Bungasrejo","name_en":"Bungasrejo","admin_level":"7","osm_id":""},"geometry":{"type":"Polygon","coordinates":[[[111.135,-6.7482],[111.1327,-6.7493],[111.1283,-6.7464],[111.1272,-6.7476],[111.1189,-6.7462],[111.119,-6.7411],[111.1169,-6.7409],[111.1181,-6.737],[111.1211,-6.7354],[111.1211,-6.7389],[111.1272,-6.7417],[111.1291,-6.742],[111.1307,-6.7394],[111.1342,-6.7447],[111.1364,-6.7454],[111.135,-6.7482]]]}},{"type":"Feature","properties":{"name":"Dukuhmulyo","name_en":"Dukuhmulyo","admin_level":"7","osm_id":""},"geometry":{"type":"Polygon","coordinates":[[[111.165,-6.7472],[111.1684,-6.7484],[111.1681,-6.7506],[111.164,-6.7513],[111.1632,-6.7548],[111.1605,-6.7571],[111.1605,-6.7612],[111.1528,-6.7616],[111.153,-6.7596],[111.1462,-6.7587],[111.1447,-6.7566],[111.1397,-6.759],[111.1398,-6.7551],[111.1416,-6.7545],[111.1424,-6.7515],[111.1405,-6.7465],[111.1479,-6.7461],[111.1568,-6.749],[111.165,-6.7472]]]}},{"type":"Feature","properties":{"name":"Glonggong","name_en":"Glonggong","admin_level":"7","osm_id":""},"geometry":{"type":"Polygon","coordinates":[[[111.1186,-6.746],[111.1272,-6.7476],[111.1283,-6.7464],[111.131,-6.7491],[111.135,-6.7482],[111.1339,-6.7515],[111.1304,-6.7513],[111.131,-6.7557],[111.1281,-6.7548],[111.1262,-6.7567],[111.1267,-6.7611],[111.1229,-6.7611],[111.1194,-6.7582],[111.1171,-6.758],[111.1165,-6.7594],[111.1148,-6.7584],[111.1184,-6.7566],[111.1176,-6.747],[111.1186,-6.746]]]}},{"type":"Feature","properties":{"name":"Jakenan","name_en":"Jakenan","admin_level":"7","osm_id":""},"geometry":{"type":"Polygon","coordinates":[[[111.1684,-6.7484],[111.1724,-6.7489],[111.1699,-6.757],[111.1726,-6.7576],[111.172,-6.7593],[111.1744,-6.7618],[111.1787,-6.7634],[111.1759,-6.7695],[111.1768,-6.7715],[111.1701,-6.7692],[111.1651,-6.7694],[111.1631,-6.7613],[111.1607,-6.7609],[111.1605,-6.7571],[111.1632,-6.7548],[111.164,-6.7513],[111.1678,-6.7511],[111.1684,-6.7484]]]}},{"type":"Feature","properties":{"name":"Jatisari","name_en":"Jatisari","admin_level":"7","osm_id":""},"geometry":{"type":"Polygon","coordinates":[[[111.1797,-6.7941],[111.1727,-6.7936],[111.1716,-6.7919],[111.1666,-6.7906],[111.1661,-6.7928],[111.1621,-6.7942],[111.1618,-6.7974],[111.1589,-6.7978],[111.1577,-6.7958],[111.1552,-6.7978],[111.1498,-6.7941],[111.1475,-6.7901],[111.1545,-6.7893],[111.1587,-6.7929],[111.1602,-6.787],[111.1589,-6.7852],[111.1598,-6.784],[111.1617,-6.785],[111.1621,-6.7829],[111.1645,-6.7831],[111.1663,-6.7878],[111.1797,-6.7941]]]}},{"type":"Feature","properties":{"name":"Kalimulyo","name_en":"Kalimulyo","admin_level":"7","osm_id":""},"geometry":{"type":"Polygon","coordinates":[[[111.1176,-6.747],[111.1184,-6.7564],[111.1148,-6.7584],[111.1165,-6.7594],[111.1171,-6.758],[111.1194,-6.7582],[111.1225,-6.76],[111.1225,-6.7632],[111.1176,-6.7603],[111.114,-6.7626],[111.1128,-6.7593],[111.1091,-6.7604],[111.1096,-6.7585],[111.1063,-6.7551],[111.1078,-6.7462],[111.1176,-6.747]]]}},{"type":"Feature","properties":{"name":"KarangrejoLor","name_en":"KarangrejoLor","admin_level":"7","osm_id":""},"geometry":{"type":"Polygon","coordinates":[[[111.1613,-6.7833],[111.1617,-6.785],[111.1598,-6.784],[111.1589,-6.7852],[111.1602,-6.787],[111.1587,-6.7929],[111.1545,-6.7893],[111.1481,-6.7893],[111.1492,-6.7857],[111.1458,-6.785],[111.1456,-6.7828],[111.1481,-6.7741],[111.1508,-6.7739],[111.1527,-6.7779],[111.1571,-6.7792],[111.158,-6.7816],[111.1598,-6.7811],[111.1613,-6.7833]]]}},{"type":"Feature","properties":{"name":"Karangrowo","name_en":"Karangrowo","admin_level":"7","osm_id":""},"geometry":{"type":"Polygon","coordinates":[[[111.0893,-6.7536],[111.0889,-6.7515],[111.0854,-6.7504],[111.0832,-6.7467],[111.0882,-6.745],[111.0894,-6.74],[111.0941,-6.7371],[111.0983,-6.7394],[111.0983,-6.7448],[111.1001,-6.7455],[111.0995,-6.7504],[111.0932,-6.7499],[111.0921,-6.7538],[111.0893,-6.7536]]]}},{"type":"Feature","properties":{"name":"Kedungmulyo","name_en":"Kedungmulyo","admin_level":"7","osm_id":""},"geometry":{"type":"Polygon","coordinates":[[[111.0789,-6.7757],[111.0732,-6.7733],[111.0737,-6.7693],[111.065,-6.7672],[111.0649,-6.7615],[111.0665,-6.7626],[111.07,-6.7618],[111.0725,-6.7588],[111.0744,-6.761],[111.0726,-6.7637],[111.0755,-6.7615],[111.0758,-6.763],[111.0861,-6.7661],[111.0862,-6.7733],[111.0815,-6.7733],[111.0789,-6.7757]]]}},{"type":"Feature","properties":{"name":"MantinganTengah","name_en":"MantinganTengah","admin_level":"7","osm_id":""},"geometry":{"type":"Polygon","coordinates":[[[111.1481,-6.7893],[111.1487,-6.7926],[111.1471,-6.7926],[111.1459,-6.7953],[111.1418,-6.7938],[111.1423,-6.7915],[111.1324,-6.7886],[111.1323,-6.785],[111.1347,-6.7838],[111.1342,-6.781],[111.1305,-6.7797],[111.131,-6.7778],[111.1275,-6.7779],[111.1339,-6.777],[111.1326,-6.7709],[111.1407,-6.7719],[111.1415,-6.7709],[111.1485,-6.7731],[111.1456,-6.7828],[111.1458,-6.785],[111.1492,-6.7857],[111.1481,-6.7893]]]}},{"type":"Feature","properties":{"name":"Ngastorejo","name_en":"Ngastorejo","admin_level":"7","osm_id":""},"geometry":{"type":"Polygon","coordinates":[[[111.0832,-6.7467],[111.0854,-6.7504],[111.0889,-6.7515],[111.0893,-6.7536],[111.0848,-6.7646],[111.0758,-6.763],[111.0752,-6.7615],[111.0726,-6.7637],[111.0744,-6.761],[111.0725,-6.7587],[111.0818,-6.7517],[111.0813,-6.7483],[111.0832,-6.7467]]]}},{"type":"Feature","properties":{"name":"Plosojenar","name_en":"Plosojenar","admin_level":"7","osm_id":""},"geometry":{"type":"Polygon","coordinates":[[[111.1773,-6.734],[111.1838,-6.7353],[111.1829,-6.7432],[111.1887,-6.7457],[111.189,-6.7473],[111.188,-6.7498],[111.1837,-6.7488],[111.1823,-6.7542],[111.1833,-6.7551],[111.1781,-6.7547],[111.1786,-6.7598],[111.1799,-6.7606],[111.1788,-6.7603],[111.1785,-6.7636],[111.1744,-6.7618],[111.172,-6.7593],[111.1726,-6.7576],[111.1697,-6.7562],[111.1719,-6.7534],[111.1727,-6.7474],[111.1782,-6.747],[111.1792,-6.7456],[111.1798,-6.7418],[111.1764,-6.7398],[111.1781,-6.7356],[111.1763,-6.7347],[111.1773,-6.734]]]}},{"type":"Feature","properties":{"name":"PuluhanTengah","name_en":"PuluhanTengah","admin_level":"7","osm_id":""},"geometry":{"type":"Polygon","coordinates":[[[111.1399,-6.759],[111.1447,-6.7566],[111.1462,-6.7587],[111.153,-6.7596],[111.1496,-6.7738],[111.1421,-6.7712],[111.1395,-6.7639],[111.1399,-6.759]]]}},{"type":"Feature","properties":{"name":"Sembaturagung","name_en":"Sembaturagung","admin_level":"7","osm_id":""},"geometry":{"type":"Polygon","coordinates":[[[111.135,-6.7482],[111.1369,-6.7454],[111.1419,-6.7483],[111.1416,-6.7545],[111.1396,-6.7558],[111.1396,-6.7636],[111.134,-6.7649],[111.1308,-6.7633],[111.127,-6.7666],[111.1243,-6.766],[111.1225,-6.7632],[111.1229,-6.7611],[111.1267,-6.7611],[111.1262,-6.7567],[111.1281,-6.7548],[111.131,-6.7557],[111.1304,-6.7513],[111.1339,-6.7515],[111.135,-6.7482]]]}},{"type":"Feature","properties":{"name":"Sendangsoko","name_en":"Sendangsoko","admin_level":"7","osm_id":""},"geometry":{"type":"Polygon","coordinates":[[[111.086,-6.7735],[111.0865,-6.7711],[111.0852,-6.7703],[111.0864,-6.7667],[111.0903,-6.7676],[111.0947,-6.7711],[111.0995,-6.7695],[111.1001,-6.7675],[111.1031,-6.7684],[111.1048,-6.766],[111.1078,-6.7663],[111.1057,-6.7727],[111.1039,-6.7735],[111.104,-6.7777],[111.1007,-6.7769],[111.0985,-6.7805],[111.0937,-6.7799],[111.0894,-6.7836],[111.0857,-6.7823],[111.0882,-6.7756],[111.0881,-6.7738],[111.086,-6.7735]]]}},{"type":"Feature","properties":{"name":"Sidoarum","name_en":"Sidoarum","admin_level":"7","osm_id":""},"geometry":{"type":"Polygon","coordinates":[[[111.1078,-6.7462],[111.1064,-6.7543],[111.1074,-6.757],[111.1037,-6.7591],[111.0978,-6.7576],[111.0966,-6.7589],[111.0923,-6.756],[111.0932,-6.7499],[111.0995,-6.7504],[111.1004,-6.739],[111.1056,-6.7401],[111.1091,-6.743],[111.1073,-6.7436],[111.1078,-6.7462]]]}},{"type":"Feature","properties":{"name":"Sidomulyo","name_en":"Sidomulyo","admin_level":"7","osm_id":""},"geometry":{"type":"Polygon","coordinates":[[[111.1768,-6.7715],[111.1794,-6.7815],[111.1825,-6.7836],[111.1809,-6.7883],[111.1826,-6.7919],[111.1806,-6.7941],[111.1663,-6.7878],[111.1645,-6.7831],[111.1606,-6.7834],[111.1598,-6.7811],[111.158,-6.7816],[111.1571,-6.7792],[111.1527,-6.7779],[111.1496,-6.7738],[111.1499,-6.7727],[111.1633,-6.7731],[111.1648,-6.7689],[111.1768,-6.7715]]]}},{"type":"Feature","properties":{"name":"Sonorejo","name_en":"Sonorejo","admin_level":"7","osm_id":""},"geometry":{"type":"Polygon","coordinates":[[[111.0893,-6.7536],[111.0926,-6.754],[111.0923,-6.756],[111.0957,-6.7583],[111.0934,-6.7607],[111.1001,-6.7645],[111.0995,-6.7695],[111.0947,-6.7711],[111.0903,-6.7676],[111.0844,-6.7656],[111.0893,-6.7536]]]}},{"type":"Feature","properties":{"name":"Tambahmulyo","name_en":"Tambahmulyo","admin_level":"7","osm_id":""},"geometry":{"type":"Polygon","coordinates":[[[111.1095,-6.7604],[111.1103,-6.7591],[111.1131,-6.7594],[111.1135,-6.7624],[111.1154,-6.7629],[111.1166,-6.7603],[111.1211,-6.7619],[111.1239,-6.7648],[111.1226,-6.7662],[111.1243,-6.7702],[111.1219,-6.7705],[111.123,-6.7728],[111.1219,-6.7762],[111.1176,-6.7756],[111.1167,-6.7772],[111.1142,-6.7759],[111.1138,-6.7772],[111.1095,-6.7774],[111.1065,-6.7842],[111.1044,-6.7847],[111.1032,-6.7798],[111.1,-6.7775],[111.104,-6.7777],[111.1039,-6.7735],[111.1057,-6.7727],[111.1083,-6.7644],[111.1058,-6.7636],[111.1095,-6.7604]]]}},{"type":"Feature","properties":{"name":"Tanjungsari","name_en":"Tanjungsari","admin_level":"7","osm_id":""},"geometry":{"type":"Polygon","coordinates":[[[111.1528,-6.7616],[111.1631,-6.7613],[111.1649,-6.7656],[111.1646,-6.7721],[111.155,-6.7737],[111.1499,-6.7727],[111.1528,-6.7616]]]}},{"type":"Feature","properties":{"name":"Tlogorejo","name_en":"Tlogorejo","admin_level":"7","osm_id":""},"geometry":{"type":"Polygon","coordinates":[[[111.1074,-6.757],[111.1096,-6.7585],[111.1084,-6.7623],[111.1058,-6.7636],[111.1082,-6.7642],[111.1078,-6.7663],[111.1048,-6.766],[111.1031,-6.7684],[111.1001,-6.7675],[111.0989,-6.7626],[111.0934,-6.7607],[111.0945,-6.7586],[111.0978,-6.7576],[111.1037,-6.7591],[111.1074,-6.757]]]}},{"type":"Feature","properties":{"name":"Tondokerto","name_en":"Tondokerto","admin_level":"7","osm_id":""},"geometry":{"type":"Polygon","coordinates":[[[111.1421,-6.7712],[111.1326,-6.7709],[111.1339,-6.777],[111.1292,-6.7772],[111.1292,-6.7754],[111.1227,-6.7755],[111.1219,-6.7705],[111.1243,-6.7702],[111.1229,-6.7657],[111.127,-6.7666],[111.1308,-6.7633],[111.134,-6.7649],[111.1394,-6.7636],[111.1421,-6.7712]]]}},{"type":"Feature","properties":{"name":"Tondomulyo","name_en":"Tondomulyo","admin_level":"7","osm_id":""},"geometry":{"type":"Polygon","coordinates":[[[111.1211,-6.7354],[111.1179,-6.7375],[111.1169,-6.7409],[111.1187,-6.7408],[111.1196,-6.7432],[111.1186,-6.7468],[111.1166,-6.7473],[111.1075,-6.7461],[111.1073,-6.7436],[111.1091,-6.743],[111.1015,-6.7389],[111.1004,-6.739],[111.1009,-6.7421],[111.0983,-6.7448],[111.0983,-6.7394],[111.0926,-6.7373],[111.0972,-6.7329],[111.107,-6.7345],[111.1075,-6.7323],[111.1211,-6.7354]]]}}]}