{"type":"FeatureCollection","metadata":{"parent_osm_id":"gid_IDN_26_24_1_1","parent_name":"Belawa","parent_name_1":"SulawesiSelatan","parent_gid":"IDN.26.24.1_1","parent_level":"6","child_level":"7","count":9,"source":"GADM 4.1","generated":"2026-05-08"},"features":[{"type":"Feature","properties":{"name":"Belawa","name_en":"Belawa","admin_level":"7","osm_id":""},"geometry":{"type":"Polygon","coordinates":[[[119.9305,-4.0037],[119.9335,-3.9993],[119.9378,-3.999],[119.994,-4.0128],[119.9958,-4.0217],[119.9935,-4.0451],[119.9941,-4.0595],[119.9928,-4.0584],[119.9909,-4.0597],[119.9909,-4.0566],[119.9926,-4.0563],[119.9902,-4.0562],[119.9901,-4.0548],[119.988,-4.0568],[119.9839,-4.057],[119.9814,-4.0556],[119.9813,-4.0534],[119.979,-4.0536],[119.9796,-4.0417],[119.978,-4.0399],[119.9588,-4.0256],[119.95,-4.0143],[119.9419,-4.0075],[119.9352,-4.0038],[119.9305,-4.0037]]]}},{"type":"Feature","properties":{"name":"Lautang","name_en":"Lautang","admin_level":"7","osm_id":""},"geometry":{"type":"Polygon","coordinates":[[[119.9019,-4.0594],[119.9015,-4.0551],[119.9051,-4.0493],[119.9098,-4.0496],[119.9109,-4.0424],[119.9169,-4.0405],[119.9189,-4.0372],[119.9201,-4.0337],[119.9182,-4.0316],[119.9193,-4.0224],[119.9305,-4.0037],[119.9332,-4.0069],[119.9391,-4.0281],[119.9394,-4.036],[119.9371,-4.0404],[119.9392,-4.0511],[119.9368,-4.0497],[119.9353,-4.0522],[119.9382,-4.0534],[119.9377,-4.0569],[119.9413,-4.0589],[119.9446,-4.0581],[119.9437,-4.0611],[119.9466,-4.061],[119.9462,-4.0625],[119.9485,-4.0643],[119.9452,-4.0663],[119.9479,-4.0692],[119.9415,-4.0651],[119.935,-4.0652],[119.9327,-4.0628],[119.9282,-4.0628],[119.9299,-4.059],[119.9268,-4.0577],[119.9174,-4.0639],[119.9126,-4.0622],[119.9073,-4.0644],[119.9056,-4.0607],[119.9019,-4.0594]]]}},{"type":"Feature","properties":{"name":"Leppangeng","name_en":"Leppangeng","admin_level":"7","osm_id":""},"geometry":{"type":"Polygon","coordinates":[[[119.8867,-4.019],[119.8926,-4.0016],[119.9047,-3.9854],[119.9051,-3.9687],[119.909,-3.9648],[119.9115,-3.9628],[119.9223,-3.9722],[119.931,-3.9746],[119.9344,-3.9794],[119.9391,-3.9796],[119.9365,-3.9703],[119.9405,-3.9712],[119.9435,-3.9792],[119.9417,-3.9839],[119.9425,-3.9875],[119.9374,-3.9913],[119.9368,-3.9972],[119.9332,-3.9996],[119.9208,-4.0185],[119.9182,-4.0306],[119.92,-4.0344],[119.9173,-4.0401],[119.9109,-4.0424],[119.9098,-4.0496],[119.9056,-4.049],[119.9021,-4.0534],[119.8989,-4.0494],[119.8953,-4.0431],[119.8937,-4.028],[119.8867,-4.019]]]}},{"type":"Feature","properties":{"name":"LimpoRilau","name_en":"LimpoRilau","admin_level":"7","osm_id":""},"geometry":{"type":"Polygon","coordinates":[[[119.9305,-4.0037],[119.9352,-4.0038],[119.9419,-4.0075],[119.95,-4.0143],[119.9588,-4.0256],[119.9796,-4.0416],[119.979,-4.0536],[119.9747,-4.0555],[119.9741,-4.061],[119.9722,-4.0617],[119.9708,-4.0599],[119.9697,-4.0596],[119.9698,-4.0609],[119.9659,-4.0613],[119.9644,-4.0629],[119.9611,-4.0619],[119.9537,-4.0633],[119.9538,-4.0602],[119.9501,-4.059],[119.9501,-4.0569],[119.9462,-4.0537],[119.9467,-4.0523],[119.9447,-4.0501],[119.9424,-4.0491],[119.9417,-4.0508],[119.9392,-4.0511],[119.9371,-4.0404],[119.9394,-4.036],[119.9391,-4.0281],[119.9332,-4.0069],[119.9305,-4.0037]]]}},{"type":"Feature","properties":{"name":"Macero","name_en":"Macero","admin_level":"7","osm_id":""},"geometry":{"type":"Polygon","coordinates":[[[119.994,-4.0128],[119.9353,-3.999],[119.9374,-3.9913],[119.9425,-3.9875],[119.942,-3.9834],[119.9517,-3.9876],[119.9694,-3.9915],[119.9834,-4.0024],[119.9866,-4.0025],[119.9888,-3.9998],[119.9919,-3.9995],[119.994,-4.0128]]]}},{"type":"Feature","properties":{"name":"Malakke","name_en":"Malakke","admin_level":"7","osm_id":""},"geometry":{"type":"Polygon","coordinates":[[[119.942,-3.9834],[119.9433,-3.9782],[119.9405,-3.9712],[119.9382,-3.9703],[119.9388,-3.9687],[119.9431,-3.9668],[119.9488,-3.9687],[119.9611,-3.9661],[119.967,-3.9746],[119.9768,-3.9777],[119.9792,-3.9814],[119.9834,-3.9765],[119.9877,-3.9783],[119.9908,-3.9832],[120.0004,-3.9912],[119.9948,-3.9951],[119.9919,-3.9995],[119.984,-4.0025],[119.9694,-3.9915],[119.9517,-3.9876],[119.942,-3.9834]]]}},{"type":"Feature","properties":{"name":"Ongkoe","name_en":"Ongkoe","admin_level":"7","osm_id":""},"geometry":{"type":"Polygon","coordinates":[[[119.9584,-3.9366],[119.9601,-3.9388],[119.9591,-3.9498],[119.9612,-3.966],[119.9502,-3.9686],[119.9431,-3.9668],[119.9401,-3.9675],[119.9364,-3.9716],[119.9391,-3.9796],[119.9337,-3.9793],[119.931,-3.9746],[119.9223,-3.9722],[119.9115,-3.9628],[119.9149,-3.9506],[119.9145,-3.9431],[119.9183,-3.9362],[119.9159,-3.9349],[119.9171,-3.934],[119.9162,-3.9325],[119.9297,-3.9318],[119.9396,-3.9288],[119.9408,-3.9349],[119.9523,-3.9389],[119.9535,-3.9348],[119.9584,-3.9366]]]}},{"type":"Feature","properties":{"name":"Sappa","name_en":"Sappa","admin_level":"7","osm_id":""},"geometry":{"type":"Polygon","coordinates":[[[120.0025,-3.9267],[120.0068,-3.926],[120.0084,-3.9299],[120.0066,-3.9363],[119.999,-3.9346],[119.9971,-3.9366],[119.9896,-3.9509],[119.9851,-3.9665],[119.9877,-3.9783],[119.9834,-3.9765],[119.9794,-3.9815],[119.9768,-3.9777],[119.967,-3.9746],[119.9611,-3.9661],[119.9591,-3.9498],[119.9606,-3.9371],[119.9702,-3.9367],[119.9733,-3.9311],[119.9755,-3.9316],[119.975,-3.9348],[119.977,-3.9357],[119.9868,-3.9339],[119.9921,-3.9295],[119.9961,-3.931],[119.9976,-3.9277],[119.9993,-3.9277],[120.0005,-3.9307],[120.0026,-3.9312],[120.0038,-3.9296],[120.0025,-3.9267]]]}},{"type":"Feature","properties":{"name":"Wele","name_en":"Wele","admin_level":"7","osm_id":""},"geometry":{"type":"Polygon","coordinates":[[[120.0066,-3.9363],[120.0169,-3.9378],[120.0241,-3.9419],[120.0164,-3.9663],[120.0142,-3.9787],[120.01,-3.9773],[120.0054,-3.9818],[120.0072,-3.9829],[120.0067,-3.9851],[120.0054,-3.9832],[120.0023,-3.9852],[120.0022,-3.9866],[120.005,-3.9866],[120.0051,-3.9877],[120.0004,-3.9912],[119.9901,-3.9822],[119.9868,-3.9766],[119.9851,-3.9665],[119.9896,-3.9509],[119.995,-3.9394],[119.999,-3.9346],[120.0066,-3.9363]]]}}]}