{"type":"FeatureCollection","metadata":{"parent_osm_id":"gid_IDN_27_7_14_1","parent_name":"Siniu","parent_name_1":"SulawesiTengah","parent_gid":"IDN.27.7.14_1","parent_level":"6","child_level":"7","count":6,"source":"GADM 4.1","generated":"2026-05-09"},"features":[{"type":"Feature","properties":{"name":"Marantale","name_en":"Marantale","admin_level":"7","osm_id":""},"geometry":{"type":"Polygon","coordinates":[[[120.0171,-0.65],[120.0197,-0.6418],[120.0154,-0.6379],[120.0108,-0.6394],[120.0024,-0.6333],[120.0055,-0.6302],[120.0047,-0.6246],[120.0067,-0.6215],[120.0592,-0.6143],[120.0613,-0.6125],[120.063,-0.6186],[120.0624,-0.6269],[120.0597,-0.6299],[120.0656,-0.6413],[120.0659,-0.6454],[120.0171,-0.65]]]}},{"type":"Feature","properties":{"name":"Silanga","name_en":"Silanga","admin_level":"7","osm_id":""},"geometry":{"type":"Polygon","coordinates":[[[120.0019,-0.592],[119.9992,-0.5892],[119.9903,-0.5871],[119.9881,-0.5836],[120.0063,-0.5801],[120.0387,-0.5772],[120.0506,-0.5715],[120.0561,-0.5707],[120.0553,-0.578],[120.0575,-0.5917],[120.0589,-0.5932],[120.0576,-0.5968],[120.0029,-0.5993],[120.0019,-0.592]]]}},{"type":"Feature","properties":{"name":"Siniu","name_en":"Siniu","admin_level":"7","osm_id":""},"geometry":{"type":"Polygon","coordinates":[[[119.9849,-0.5743],[119.9813,-0.5736],[119.9786,-0.571],[119.9722,-0.5575],[120.0149,-0.5496],[120.0342,-0.5495],[120.051,-0.542],[120.0509,-0.5462],[120.0534,-0.5515],[120.0522,-0.5637],[120.0499,-0.5649],[120.045,-0.5671],[120.0388,-0.5655],[120.0108,-0.5685],[119.9849,-0.5743]]]}},{"type":"Feature","properties":{"name":"Tandaigi","name_en":"Tandaigi","admin_level":"7","osm_id":""},"geometry":{"type":"Polygon","coordinates":[[[120.0067,-0.6215],[120.0079,-0.6134],[120.0035,-0.6072],[120.0029,-0.5993],[120.0576,-0.5968],[120.0609,-0.6021],[120.0613,-0.6125],[120.0592,-0.6143],[120.0067,-0.6215]]]}},{"type":"Feature","properties":{"name":"Toraranga","name_en":"Toraranga","admin_level":"7","osm_id":""},"geometry":{"type":"Polygon","coordinates":[[[119.9881,-0.5836],[119.9879,-0.5772],[119.9849,-0.5743],[120.0108,-0.5685],[120.0388,-0.5655],[120.045,-0.5671],[120.0514,-0.5641],[120.0543,-0.5707],[120.0387,-0.5772],[120.0063,-0.5801],[119.9881,-0.5836]]]}},{"type":"Feature","properties":{"name":"Towera","name_en":"Towera","admin_level":"7","osm_id":""},"geometry":{"type":"Polygon","coordinates":[[[119.9722,-0.5575],[119.9671,-0.552],[119.9592,-0.5475],[119.9535,-0.5467],[119.954,-0.5401],[119.9515,-0.5294],[119.9471,-0.5232],[119.9725,-0.5218],[120.0037,-0.5176],[120.0523,-0.5172],[120.0521,-0.5215],[120.0474,-0.5313],[120.0517,-0.5404],[120.051,-0.542],[120.0409,-0.5474],[120.0342,-0.5495],[120.0149,-0.5496],[119.9722,-0.5575]]]}}]}