{"type":"FeatureCollection","metadata":{"parent_osm_id":"gid_IDN_10_11_8_1","parent_name":"Jumapolo","parent_name_1":"JawaTengah","parent_gid":"IDN.10.11.8_1","parent_level":"6","child_level":"7","count":12,"source":"GADM 4.1","generated":"2026-05-09"},"features":[{"type":"Feature","properties":{"name":"Bakalan","name_en":"Bakalan","admin_level":"7","osm_id":""},"geometry":{"type":"Polygon","coordinates":[[[111.015,-7.6819],[111.0236,-7.684],[111.0216,-7.6891],[111.0146,-7.6876],[111.0114,-7.6933],[111.006,-7.6931],[111.001,-7.6952],[111.0001,-7.6937],[110.9937,-7.6954],[110.9929,-7.6926],[110.9905,-7.6925],[110.9891,-7.6938],[110.989,-7.6986],[110.9848,-7.6997],[110.9711,-7.6915],[110.9743,-7.689],[110.9741,-7.686],[110.9793,-7.6856],[110.9814,-7.6833],[110.9826,-7.6858],[110.9831,-7.6843],[110.9853,-7.684],[110.9867,-7.6857],[110.9878,-7.6828],[111.0056,-7.6846],[111.0108,-7.6816],[111.0129,-7.6834],[111.015,-7.6819]]]}},{"type":"Feature","properties":{"name":"Giriwondo","name_en":"Giriwondo","admin_level":"7","osm_id":""},"geometry":{"type":"Polygon","coordinates":[[[111.0314,-7.7185],[111.0266,-7.7181],[111.0248,-7.7159],[111.0279,-7.7135],[111.031,-7.705],[111.0304,-7.7035],[111.0254,-7.7037],[111.0244,-7.7016],[111.0283,-7.7007],[111.0298,-7.6976],[111.0422,-7.6948],[111.0472,-7.6961],[111.049,-7.706],[111.0466,-7.7143],[111.0437,-7.7136],[111.0417,-7.7163],[111.0357,-7.7158],[111.0314,-7.7185]]]}},{"type":"Feature","properties":{"name":"Jatirejo","name_en":"Jatirejo","admin_level":"7","osm_id":""},"geometry":{"type":"Polygon","coordinates":[[[110.9476,-7.7092],[110.9493,-7.6953],[110.9518,-7.6885],[110.958,-7.6905],[110.9671,-7.7007],[110.9725,-7.7032],[110.9747,-7.7145],[110.973,-7.7136],[110.9684,-7.7169],[110.9673,-7.7154],[110.9664,-7.7172],[110.9651,-7.7153],[110.9631,-7.7163],[110.9631,-7.7141],[110.9618,-7.7157],[110.9592,-7.7139],[110.9578,-7.7152],[110.9543,-7.7136],[110.9531,-7.7146],[110.9536,-7.7129],[110.9503,-7.7126],[110.9496,-7.7108],[110.9481,-7.7108],[110.9496,-7.7094],[110.9476,-7.7092]]]}},{"type":"Feature","properties":{"name":"Jumantoro","name_en":"Jumantoro","admin_level":"7","osm_id":""},"geometry":{"type":"Polygon","coordinates":[[[111.0642,-7.6844],[111.0637,-7.6888],[111.0568,-7.6929],[111.0552,-7.6971],[111.0708,-7.6969],[111.0686,-7.7009],[111.0701,-7.7045],[111.0574,-7.7078],[111.0539,-7.7103],[111.0559,-7.7102],[111.0546,-7.7124],[111.0535,-7.711],[111.0532,-7.7123],[111.0491,-7.7129],[111.0467,-7.7126],[111.049,-7.7064],[111.0479,-7.6969],[111.0425,-7.6949],[111.0411,-7.6957],[111.0481,-7.6898],[111.0409,-7.6846],[111.0303,-7.6828],[111.0328,-7.681],[111.04,-7.6809],[111.0395,-7.6797],[111.0414,-7.6787],[111.0455,-7.6783],[111.052,-7.6797],[111.053,-7.6819],[111.0587,-7.6838],[111.0642,-7.6844]]]}},{"type":"Feature","properties":{"name":"Jumapolo","name_en":"Jumapolo","admin_level":"7","osm_id":""},"geometry":{"type":"Polygon","coordinates":[[[110.989,-7.6986],[110.9891,-7.6938],[110.9905,-7.6925],[110.9929,-7.6926],[110.994,-7.6955],[111.0122,-7.6927],[111.0086,-7.6971],[111.0143,-7.6983],[111.0133,-7.7007],[111.0148,-7.7011],[111.0227,-7.6996],[111.0225,-7.7032],[111.0242,-7.7019],[111.0254,-7.7037],[111.0304,-7.7035],[111.0308,-7.7072],[111.0257,-7.7075],[111.0164,-7.7047],[111.0153,-7.7079],[111.0047,-7.7084],[111.003,-7.7108],[110.9993,-7.7108],[110.9962,-7.7148],[110.9883,-7.7155],[110.988,-7.7112],[110.9845,-7.7103],[110.9856,-7.705],[110.9901,-7.7049],[110.9882,-7.7025],[110.989,-7.6986]]]}},{"type":"Feature","properties":{"name":"Kadipiro","name_en":"Kadipiro","admin_level":"7","osm_id":""},"geometry":{"type":"Polygon","coordinates":[[[111.0504,-7.7236],[111.049,-7.7238],[111.0479,-7.7211],[111.0449,-7.724],[111.0443,-7.722],[111.0411,-7.7225],[111.0399,-7.7211],[111.0358,-7.7228],[111.0328,-7.7213],[111.0314,-7.7177],[111.0359,-7.7157],[111.0417,-7.7163],[111.0437,-7.7136],[111.0466,-7.7143],[111.0471,-7.7126],[111.0528,-7.7124],[111.0535,-7.711],[111.0544,-7.7126],[111.0559,-7.7102],[111.0543,-7.7106],[111.0539,-7.7103],[111.057,-7.7079],[111.0657,-7.7059],[111.0672,-7.7096],[111.071,-7.71],[111.0702,-7.7189],[111.0676,-7.7187],[111.067,-7.7206],[111.0651,-7.7188],[111.0606,-7.7204],[111.0589,-7.7195],[111.0557,-7.721],[111.056,-7.7228],[111.0525,-7.7223],[111.0526,-7.7234],[111.0504,-7.7236]]]}},{"type":"Feature","properties":{"name":"Karangbangun","name_en":"Karangbangun","admin_level":"7","osm_id":""},"geometry":{"type":"Polygon","coordinates":[[[111.0018,-7.7331],[110.9954,-7.7332],[110.9896,-7.7271],[110.9795,-7.7205],[110.9749,-7.714],[110.977,-7.7161],[110.9784,-7.7145],[110.9788,-7.7158],[110.9812,-7.7143],[110.9839,-7.7157],[110.9854,-7.7141],[110.9858,-7.7157],[110.9908,-7.7152],[110.9911,-7.7177],[110.9936,-7.719],[110.9949,-7.7179],[110.9949,-7.7192],[110.9977,-7.7204],[110.9972,-7.722],[111.0,-7.7208],[111.001,-7.7219],[111.001,-7.7202],[111.0027,-7.7209],[111.0043,-7.718],[111.0072,-7.7183],[111.0059,-7.7226],[111.0099,-7.7251],[111.0079,-7.7274],[111.0025,-7.7282],[111.0018,-7.7331]]]}},{"type":"Feature","properties":{"name":"Kedawung","name_en":"Kedawung","admin_level":"7","osm_id":""},"geometry":{"type":"Polygon","coordinates":[[[111.0236,-7.684],[111.0257,-7.6835],[111.0274,-7.6851],[111.0282,-7.6837],[111.0342,-7.683],[111.0409,-7.6846],[111.0482,-7.6904],[111.0411,-7.6957],[111.0298,-7.6976],[111.0283,-7.7007],[111.0232,-7.7031],[111.0227,-7.6996],[111.0148,-7.7011],[111.0133,-7.7007],[111.0143,-7.6983],[111.0086,-7.6971],[111.0127,-7.6924],[111.0131,-7.6883],[111.0216,-7.6891],[111.0236,-7.684]]]}},{"type":"Feature","properties":{"name":"Kwangsan","name_en":"Kwangsan","admin_level":"7","osm_id":""},"geometry":{"type":"Polygon","coordinates":[[[110.9594,-7.684],[110.9617,-7.6858],[110.9694,-7.6844],[110.9721,-7.6871],[110.9736,-7.6857],[110.9743,-7.689],[110.9711,-7.6915],[110.9818,-7.6986],[110.9848,-7.6997],[110.989,-7.6986],[110.9882,-7.7025],[110.9901,-7.7049],[110.9856,-7.705],[110.9845,-7.7103],[110.988,-7.7112],[110.9871,-7.7153],[110.9812,-7.7143],[110.9788,-7.7158],[110.9782,-7.7145],[110.977,-7.7161],[110.9743,-7.7143],[110.9725,-7.7032],[110.9671,-7.7007],[110.958,-7.6905],[110.9518,-7.6885],[110.9537,-7.6832],[110.9576,-7.6844],[110.9582,-7.6827],[110.9594,-7.684]]]}},{"type":"Feature","properties":{"name":"Lemahbang","name_en":"Lemahbang","admin_level":"7","osm_id":""},"geometry":{"type":"Polygon","coordinates":[[[110.9842,-7.724],[110.9768,-7.7237],[110.9687,-7.728],[110.9631,-7.7273],[110.9591,-7.7296],[110.9597,-7.7244],[110.9518,-7.7237],[110.9517,-7.7222],[110.9441,-7.72],[110.9452,-7.7125],[110.9477,-7.7092],[110.9495,-7.7094],[110.9481,-7.7108],[110.9536,-7.7129],[110.9531,-7.7146],[110.9543,-7.7136],[110.9578,-7.7152],[110.9592,-7.7139],[110.9618,-7.7157],[110.9631,-7.7141],[110.9631,-7.7163],[110.9651,-7.7153],[110.9664,-7.7172],[110.9673,-7.7154],[110.9684,-7.7169],[110.9731,-7.7135],[110.9842,-7.724]]]}},{"type":"Feature","properties":{"name":"Paseban","name_en":"Paseban","admin_level":"7","osm_id":""},"geometry":{"type":"Polygon","coordinates":[[[110.9731,-7.7262],[110.9779,-7.7275],[110.9765,-7.7318],[110.9734,-7.7319],[110.9728,-7.7338],[110.961,-7.7363],[110.9587,-7.7339],[110.9413,-7.7397],[110.9441,-7.72],[110.9517,-7.7222],[110.9518,-7.7237],[110.9597,-7.7244],[110.9591,-7.7296],[110.9631,-7.7273],[110.9687,-7.728],[110.9731,-7.7262]]]}},{"type":"Feature","properties":{"name":"Ploso","name_en":"Ploso","admin_level":"7","osm_id":""},"geometry":{"type":"Polygon","coordinates":[[[111.0256,-7.717],[111.0161,-7.7189],[111.0142,-7.7168],[111.0119,-7.7194],[111.0079,-7.7206],[111.0073,-7.7185],[111.0043,-7.718],[111.0027,-7.7209],[111.0012,-7.7201],[111.001,-7.7219],[111.0,-7.7208],[110.9975,-7.722],[110.9977,-7.7204],[110.9949,-7.7192],[110.9949,-7.7179],[110.9936,-7.719],[110.9909,-7.7172],[110.9914,-7.7149],[110.9962,-7.7148],[110.9993,-7.7108],[111.003,-7.7108],[111.0047,-7.7084],[111.0153,-7.7079],[111.0166,-7.7047],[111.0257,-7.7075],[111.0308,-7.7072],[111.0272,-7.7145],[111.0248,-7.7154],[111.0256,-7.717]]]}}]}