{"type":"FeatureCollection","metadata":{"parent_osm_id":"gid_IDN_32_1_12_1","parent_name":"PulauRakyat","parent_name_1":"SumateraUtara","parent_gid":"IDN.32.1.12_1","parent_level":"6","child_level":"7","count":12,"source":"GADM 4.1","generated":"2026-05-08"},"features":[{"type":"Feature","properties":{"name":"Bangun","name_en":"Bangun","admin_level":"7","osm_id":""},"geometry":{"type":"Polygon","coordinates":[[[99.6669,2.6681],[99.638,2.6592],[99.6377,2.6638],[99.6646,2.673],[99.6973,2.7055],[99.6967,2.7211],[99.6889,2.7205],[99.6907,2.726],[99.7134,2.7317],[99.7171,2.736],[99.7303,2.7422],[99.7369,2.7153],[99.7369,2.7076],[99.7348,2.7032],[99.7243,2.6986],[99.7181,2.6985],[99.7067,2.6941],[99.69,2.6912],[99.6842,2.6869],[99.6809,2.6808],[99.6676,2.6711],[99.6669,2.6681]]]}},{"type":"Feature","properties":{"name":"Hutan","name_en":"Hutan","admin_level":"7","osm_id":""},"geometry":{"type":"Polygon","coordinates":[[[99.7376,2.7082],[99.7306,2.7416],[99.7271,2.7495],[99.7242,2.7857],[99.725,2.7957],[99.7274,2.7968],[99.7299,2.8017],[99.7364,2.802],[99.7349,2.8048],[99.7381,2.8077],[99.743,2.8056],[99.7472,2.8071],[99.75,2.8139],[99.7557,2.8066],[99.7635,2.8068],[99.7788,2.7998],[99.7832,2.791],[99.7796,2.787],[99.7811,2.7851],[99.7808,2.7812],[99.7835,2.7785],[99.7896,2.7792],[99.7901,2.7777],[99.7875,2.7724],[99.7882,2.77],[99.7796,2.7613],[99.7816,2.7578],[99.7795,2.7527],[99.7773,2.7549],[99.7759,2.7515],[99.7729,2.7514],[99.7709,2.7482],[99.7656,2.7469],[99.763,2.7407],[99.7579,2.7373],[99.7557,2.7333],[99.7557,2.7267],[99.7504,2.722],[99.7498,2.7169],[99.7376,2.7082]]]}},{"type":"Feature","properties":{"name":"MekarSari","name_en":"MekarSari","admin_level":"7","osm_id":""},"geometry":{"type":"Polygon","coordinates":[[[99.6833,2.7841],[99.6822,2.7787],[99.6803,2.7774],[99.6811,2.7756],[99.6764,2.7728],[99.6764,2.7663],[99.6783,2.7639],[99.677,2.76],[99.68,2.7533],[99.6785,2.7457],[99.6352,2.7433],[99.6348,2.7466],[99.6389,2.7473],[99.6386,2.7497],[99.634,2.7504],[99.6104,2.7497],[99.6089,2.7452],[99.5952,2.7472],[99.5959,2.7399],[99.6002,2.7391],[99.6013,2.7354],[99.6084,2.7307],[99.6092,2.7228],[99.5893,2.7468],[99.5823,2.7509],[99.5804,2.7543],[99.5967,2.7528],[99.6019,2.7539],[99.6102,2.7514],[99.6143,2.7534],[99.6253,2.755],[99.629,2.7619],[99.6317,2.7636],[99.6369,2.7647],[99.6423,2.7623],[99.6517,2.7617],[99.6575,2.7656],[99.6635,2.7733],[99.677,2.7775],[99.68,2.7827],[99.6833,2.7841]]]}},{"type":"Feature","properties":{"name":"Ofa/padangMahondang","name_en":"Ofa/padangMahondang","admin_level":"7","osm_id":""},"geometry":{"type":"Polygon","coordinates":[[[99.68,2.7326],[99.6817,2.7318],[99.6805,2.7294],[99.668,2.7259],[99.6674,2.7153],[99.656,2.7095],[99.6509,2.7019],[99.6269,2.705],[99.6292,2.7094],[99.6372,2.71],[99.637,2.7135],[99.6456,2.7102],[99.6478,2.7144],[99.6474,2.7194],[99.6511,2.7181],[99.6562,2.7189],[99.6552,2.7239],[99.6584,2.7252],[99.6627,2.7244],[99.6649,2.7335],[99.6675,2.7339],[99.6738,2.7309],[99.6789,2.7311],[99.68,2.7326]]]}},{"type":"Feature","properties":{"name":"Orika","name_en":"Orika","admin_level":"7","osm_id":""},"geometry":{"type":"Polygon","coordinates":[[[99.6261,2.7015],[99.626,2.6897],[99.6105,2.6889],[99.6123,2.6946],[99.6197,2.6998],[99.6261,2.7015]]]}},{"type":"Feature","properties":{"name":"PadangMahondang","name_en":"PadangMahondang","admin_level":"7","osm_id":""},"geometry":{"type":"Polygon","coordinates":[[[99.7303,2.7422],[99.7171,2.736],[99.7134,2.7317],[99.6907,2.726],[99.6888,2.7203],[99.6806,2.7172],[99.6714,2.7169],[99.6674,2.7153],[99.668,2.7259],[99.6763,2.7277],[99.6817,2.731],[99.6768,2.7422],[99.68,2.7533],[99.677,2.76],[99.6783,2.7639],[99.6764,2.7663],[99.6764,2.7728],[99.6811,2.7756],[99.6803,2.7774],[99.6822,2.7787],[99.6833,2.7841],[99.6869,2.787],[99.694,2.786],[99.6961,2.7891],[99.701,2.7878],[99.7,2.785],[99.7075,2.7845],[99.7056,2.7871],[99.7082,2.7883],[99.7096,2.7924],[99.7153,2.7914],[99.7174,2.7929],[99.717,2.801],[99.7183,2.8024],[99.7224,2.8008],[99.725,2.7957],[99.7242,2.7857],[99.7271,2.7495],[99.7303,2.7422]]]}},{"type":"Feature","properties":{"name":"PerkebunanTunggul45","name_en":"PerkebunanTunggul45","admin_level":"7","osm_id":""},"geometry":{"type":"Polygon","coordinates":[[[99.6377,2.6638],[99.6376,2.6654],[99.6108,2.6663],[99.6107,2.6888],[99.626,2.6897],[99.6269,2.705],[99.6509,2.7019],[99.656,2.7095],[99.6674,2.7153],[99.6646,2.673],[99.6377,2.6638]]]}},{"type":"Feature","properties":{"name":"Persatuan","name_en":"Persatuan","admin_level":"7","osm_id":""},"geometry":{"type":"Polygon","coordinates":[[[99.6889,2.7205],[99.6967,2.7211],[99.6973,2.7055],[99.6646,2.673],[99.6674,2.7153],[99.6714,2.7169],[99.6806,2.7172],[99.6889,2.7205]]]}},{"type":"Feature","properties":{"name":"PulauRakyatPekan","name_en":"PulauRakyatPekan","admin_level":"7","osm_id":""},"geometry":{"type":"Polygon","coordinates":[[[99.6108,2.6663],[99.6078,2.6664],[99.5942,2.656],[99.5828,2.656],[99.5817,2.6964],[99.5861,2.6967],[99.5935,2.7042],[99.5993,2.7026],[99.6033,2.7051],[99.6009,2.6966],[99.6024,2.6944],[99.6056,2.6946],[99.6071,2.699],[99.6122,2.6988],[99.6075,2.6905],[99.6081,2.689],[99.6107,2.6888],[99.6108,2.6663]]]}},{"type":"Feature","properties":{"name":"PulauRakyatTua(1)","name_en":"PulauRakyatTua(1)","admin_level":"7","osm_id":""},"geometry":{"type":"Polygon","coordinates":[[[99.6553,2.7435],[99.6785,2.7457],[99.6768,2.7422],[99.68,2.7326],[99.6789,2.7311],[99.6738,2.7309],[99.6675,2.7339],[99.6649,2.7335],[99.6627,2.7244],[99.6584,2.7252],[99.6552,2.7239],[99.6562,2.7189],[99.6511,2.7181],[99.6474,2.7194],[99.6478,2.7144],[99.6456,2.7102],[99.637,2.7135],[99.6372,2.71],[99.6292,2.7094],[99.6269,2.705],[99.6219,2.7065],[99.617,2.714],[99.6079,2.7226],[99.6183,2.7207],[99.6225,2.7179],[99.6256,2.7202],[99.6295,2.7194],[99.6366,2.728],[99.6392,2.727],[99.6404,2.7298],[99.6429,2.7279],[99.656,2.7343],[99.6553,2.7435]]]}},{"type":"Feature","properties":{"name":"PulauRakyatTua(2)","name_en":"PulauRakyatTua(2)","admin_level":"7","osm_id":""},"geometry":{"type":"Polygon","coordinates":[[[99.6261,2.7015],[99.6197,2.6998],[99.6123,2.6946],[99.6098,2.6887],[99.6075,2.6905],[99.6122,2.6988],[99.6071,2.699],[99.6056,2.6946],[99.601,2.6958],[99.6033,2.7051],[99.606,2.7062],[99.6145,2.7053],[99.6183,2.7026],[99.623,2.7063],[99.6275,2.7042],[99.6261,2.7015]]]}},{"type":"Feature","properties":{"name":"SungaiPiring","name_en":"SungaiPiring","admin_level":"7","osm_id":""},"geometry":{"type":"Polygon","coordinates":[[[99.6092,2.7228],[99.6084,2.7307],[99.6013,2.7354],[99.6002,2.7391],[99.5959,2.7399],[99.5952,2.7472],[99.6089,2.7452],[99.6104,2.7497],[99.634,2.7504],[99.6386,2.7497],[99.6389,2.7473],[99.6348,2.7466],[99.6352,2.7433],[99.6448,2.7446],[99.6558,2.7425],[99.656,2.7343],[99.6429,2.7279],[99.6404,2.7298],[99.6392,2.727],[99.6366,2.728],[99.6295,2.7194],[99.6256,2.7202],[99.6225,2.7179],[99.6183,2.7207],[99.6092,2.7228]]]}}]}