{"type":"FeatureCollection","metadata":{"parent_osm_id":"18219199","parent_name":"Soreang","parent_name_1":"JawaBarat","parent_gid":"IDN.9.2.31_1","parent_level":"6","child_level":"7","count":10,"source":"GADM 4.1","generated":"2026-05-09"},"features":[{"type":"Feature","properties":{"name":"Cingcin","name_en":"Cingcin","admin_level":"7","osm_id":""},"geometry":{"type":"Polygon","coordinates":[[[107.548,-7.0163],[107.546,-7.0219],[107.5472,-7.0276],[107.5456,-7.0344],[107.542,-7.0322],[107.5336,-7.0311],[107.5344,-7.0223],[107.548,-7.0163]]]}},{"type":"Feature","properties":{"name":"Karamatmulya","name_en":"Karamatmulya","admin_level":"7","osm_id":""},"geometry":{"type":"Polygon","coordinates":[[[107.515,-7.0253],[107.5149,-7.0279],[107.5187,-7.029],[107.517,-7.0375],[107.5144,-7.0404],[107.5155,-7.0424],[107.5141,-7.0462],[107.5067,-7.0493],[107.5028,-7.048],[107.5046,-7.0376],[107.505,-7.0386],[107.5113,-7.0353],[107.5123,-7.0281],[107.515,-7.0253]]]}},{"type":"Feature","properties":{"name":"Pamekaran","name_en":"Pamekaran","admin_level":"7","osm_id":""},"geometry":{"type":"Polygon","coordinates":[[[107.5171,-7.0232],[107.519,-7.0236],[107.5185,-7.0207],[107.5207,-7.0212],[107.5212,-7.0188],[107.5233,-7.0208],[107.5235,-7.0183],[107.5259,-7.0174],[107.5347,-7.0181],[107.5362,-7.0197],[107.5383,-7.0183],[107.5343,-7.0219],[107.5336,-7.0311],[107.5232,-7.027],[107.5207,-7.0281],[107.5148,-7.0269],[107.5171,-7.0232]]]}},{"type":"Feature","properties":{"name":"Panyirapan","name_en":"Panyirapan","admin_level":"7","osm_id":""},"geometry":{"type":"Polygon","coordinates":[[[107.5343,-7.0426],[107.5304,-7.0428],[107.5261,-7.0476],[107.5228,-7.0419],[107.5208,-7.0439],[107.5195,-7.0414],[107.5172,-7.0446],[107.5141,-7.044],[107.5155,-7.0424],[107.5145,-7.04],[107.517,-7.0375],[107.5204,-7.0375],[107.5233,-7.0353],[107.5301,-7.037],[107.5343,-7.0426]]]}},{"type":"Feature","properties":{"name":"Parungserab","name_en":"Parungserab","admin_level":"7","osm_id":""},"geometry":{"type":"Polygon","coordinates":[[[107.5382,-7.0048],[107.539,-7.0092],[107.5384,-7.0105],[107.536,-7.0095],[107.5346,-7.0136],[107.5387,-7.0168],[107.5315,-7.0188],[107.5259,-7.0174],[107.5259,-7.0107],[107.5278,-7.0099],[107.53,-7.003],[107.5338,-7.0023],[107.5333,-7.0066],[107.5355,-7.0071],[107.5382,-7.0048]]]}},{"type":"Feature","properties":{"name":"Sadu","name_en":"Sadu","admin_level":"7","osm_id":""},"geometry":{"type":"Polygon","coordinates":[[[107.5005,-7.0337],[107.5018,-7.0319],[107.5056,-7.0312],[107.5042,-7.0294],[107.5088,-7.0264],[107.5071,-7.0249],[107.5099,-7.0246],[107.5101,-7.0225],[107.5122,-7.0238],[107.5171,-7.0232],[107.5123,-7.0281],[107.5113,-7.0353],[107.505,-7.0386],[107.5046,-7.0376],[107.5027,-7.0484],[107.5005,-7.0475],[107.4976,-7.0491],[107.4964,-7.0473],[107.4975,-7.0406],[107.4953,-7.0395],[107.4961,-7.0372],[107.4941,-7.0363],[107.4952,-7.0352],[107.4972,-7.0362],[107.4968,-7.0342],[107.4983,-7.0349],[107.499,-7.0331],[107.5005,-7.0337]]]}},{"type":"Feature","properties":{"name":"Sekarwangi","name_en":"Sekarwangi","admin_level":"7","osm_id":""},"geometry":{"type":"Polygon","coordinates":[[[107.5481,-7.0161],[107.548,-7.0163],[107.5419,-7.0194],[107.5344,-7.0223],[107.5382,-7.0193],[107.5376,-7.0179],[107.5362,-7.0197],[107.5352,-7.0175],[107.5387,-7.0168],[107.5346,-7.0136],[107.536,-7.0095],[107.5384,-7.0105],[107.5394,-7.0085],[107.5425,-7.0081],[107.5429,-7.011],[107.5461,-7.0115],[107.5457,-7.0131],[107.5481,-7.0161]]]}},{"type":"Feature","properties":{"name":"Soreang","name_en":"Soreang","admin_level":"7","osm_id":""},"geometry":{"type":"Polygon","coordinates":[[[107.5457,-7.0346],[107.5426,-7.0352],[107.5343,-7.0426],[107.5308,-7.0374],[107.5272,-7.0359],[107.5233,-7.0353],[107.5204,-7.0375],[107.517,-7.0375],[107.5187,-7.029],[107.5148,-7.0269],[107.5207,-7.0281],[107.5232,-7.027],[107.5345,-7.0314],[107.542,-7.0322],[107.5457,-7.0346]]]}},{"type":"Feature","properties":{"name":"Sukajadi","name_en":"Sukajadi","admin_level":"7","osm_id":""},"geometry":{"type":"Polygon","coordinates":[[[107.5141,-7.0731],[107.5197,-7.076],[107.5129,-7.0765],[107.5081,-7.0799],[107.505,-7.0797],[107.502,-7.0761],[107.498,-7.0756],[107.4955,-7.073],[107.4964,-7.069],[107.4944,-7.0675],[107.4941,-7.0633],[107.4962,-7.0594],[107.4961,-7.056],[107.499,-7.0545],[107.4973,-7.0528],[107.4981,-7.0505],[107.4967,-7.0501],[107.5001,-7.0476],[107.5063,-7.0492],[107.5117,-7.0487],[107.5108,-7.0518],[107.5061,-7.0564],[107.5094,-7.0672],[107.5141,-7.0731]]]}},{"type":"Feature","properties":{"name":"Sukanagara","name_en":"Sukanagara","admin_level":"7","osm_id":""},"geometry":{"type":"Polygon","coordinates":[[[107.5261,-7.0476],[107.5251,-7.0508],[107.523,-7.0508],[107.521,-7.0541],[107.5194,-7.067],[107.5141,-7.0731],[107.5094,-7.0672],[107.5062,-7.0563],[107.5108,-7.0518],[107.5109,-7.0479],[107.5141,-7.0462],[107.5141,-7.044],[107.5175,-7.0445],[107.5186,-7.0416],[107.5199,-7.0416],[107.5201,-7.044],[107.5228,-7.0419],[107.5261,-7.0476]]]}}]}