{"type":"FeatureCollection","metadata":{"parent_osm_id":"gid_IDN_29_14_2_1","parent_name":"SiauBaratSelatan","parent_name_1":"SulawesiUtara","parent_gid":"IDN.29.14.2_1","parent_level":"6","child_level":"7","count":7,"source":"GADM 4.1","generated":"2026-05-08"},"features":[{"type":"Feature","properties":{"name":"Batusenggo","name_en":"Batusenggo","admin_level":"7","osm_id":""},"geometry":{"type":"Polygon","coordinates":[[[125.3768,2.6588],[125.3737,2.6639],[125.3738,2.6705],[125.3797,2.6713],[125.3827,2.66],[125.3768,2.6588]]]}},{"type":"Feature","properties":{"name":"Kapeta","name_en":"Kapeta","admin_level":"7","osm_id":""},"geometry":{"type":"Polygon","coordinates":[[[125.3943,2.6368],[125.3878,2.6409],[125.3821,2.6469],[125.4019,2.6538],[125.4083,2.6469],[125.3943,2.6368]]]}},{"type":"Feature","properties":{"name":"Laghaeng","name_en":"Laghaeng","admin_level":"7","osm_id":""},"geometry":{"type":"Polygon","coordinates":[[[125.3797,2.6713],[125.3738,2.6705],[125.3731,2.678],[125.3758,2.6774],[125.3785,2.6791],[125.3797,2.6713]]]}},{"type":"Feature","properties":{"name":"Mahuneni","name_en":"Mahuneni","admin_level":"7","osm_id":""},"geometry":{"type":"Polygon","coordinates":[[[125.393,2.6501],[125.3821,2.6469],[125.3772,2.6499],[125.3773,2.6523],[125.3853,2.6568],[125.393,2.6501]]]}},{"type":"Feature","properties":{"name":"Makoa/mekarSari","name_en":"Makoa/mekarSari","admin_level":"7","osm_id":""},"geometry":{"type":"Polygon","coordinates":[[[125.3827,2.66],[125.3785,2.6791],[125.3848,2.6813],[125.3885,2.6692],[125.3827,2.66]]]}},{"type":"Feature","properties":{"name":"Talawid","name_en":"Talawid","admin_level":"7","osm_id":""},"geometry":{"type":"Polygon","coordinates":[[[125.3768,2.6588],[125.3817,2.6591],[125.3885,2.6692],[125.4019,2.6538],[125.393,2.6501],[125.3853,2.6568],[125.3773,2.6523],[125.3768,2.6588]]]}},{"type":"Feature","properties":{"name":"Tanaki","name_en":"Tanaki","admin_level":"7","osm_id":""},"geometry":{"type":"Polygon","coordinates":[[[125.3943,2.6368],[125.4083,2.6469],[125.4187,2.6352],[125.4123,2.6321],[125.4059,2.6314],[125.3985,2.6333],[125.3943,2.6368]]]}}]}