{"type":"FeatureCollection","metadata":{"parent_osm_id":"gid_IDN_23_9_7_1","parent_name":"Web","parent_name_1":"Papua","parent_gid":"IDN.23.9.7_1","parent_level":"6","child_level":"7","count":6,"source":"GADM 4.1","generated":"2026-05-08"},"features":[{"type":"Feature","properties":{"name":"Amgotro","name_en":"Amgotro","admin_level":"7","osm_id":""},"geometry":{"type":"Polygon","coordinates":[[[141.0,-3.571],[141.0,-3.6582],[140.984,-3.6585],[140.954,-3.6478],[140.9323,-3.6145],[140.959,-3.5745],[141.0,-3.571]]]}},{"type":"Feature","properties":{"name":"Dubu","name_en":"Dubu","admin_level":"7","osm_id":""},"geometry":{"type":"Polygon","coordinates":[[[140.6863,-3.7371],[140.6804,-3.7348],[140.6833,-3.7318],[140.6799,-3.7302],[140.6833,-3.7268],[140.6824,-3.7254],[140.6788,-3.7276],[140.6759,-3.726],[140.6759,-3.7288],[140.6685,-3.7266],[140.6749,-3.726],[140.6721,-3.7237],[140.6683,-3.7239],[140.6676,-3.7207],[140.6692,-3.7202],[140.6659,-3.7178],[140.6693,-3.7164],[140.6702,-3.7143],[140.6674,-3.7144],[140.667,-3.7114],[140.6647,-3.7116],[140.6643,-3.7064],[140.6664,-3.7054],[140.6645,-3.7037],[140.6677,-3.7018],[140.6669,-3.6987],[140.6694,-3.6989],[140.6703,-3.6966],[140.6658,-3.6957],[140.6686,-3.6948],[140.6669,-3.6908],[140.6679,-3.6893],[140.6659,-3.6878],[140.6644,-3.6811],[140.663,-3.6834],[140.6611,-3.6819],[140.6613,-3.6777],[140.6592,-3.6773],[140.6591,-3.6719],[140.6641,-3.6631],[140.6619,-3.6625],[140.661,-3.6539],[140.6487,-3.648],[140.6491,-3.646],[140.6534,-3.6432],[140.6505,-3.6403],[140.6535,-3.6396],[140.6528,-3.6337],[140.6826,-3.598],[140.6844,-3.559],[140.6993,-3.5349],[140.7476,-3.5182],[140.7999,-3.5051],[140.8352,-3.629],[140.7971,-3.6883],[140.7671,-3.6908],[140.7619,-3.728],[140.74,-3.7265],[140.698,-3.7405],[140.6863,-3.7371]]]}},{"type":"Feature","properties":{"name":"Embi","name_en":"Embi","admin_level":"7","osm_id":""},"geometry":{"type":"Polygon","coordinates":[[[140.8294,-3.7506],[140.7751,-3.7289],[140.7619,-3.728],[140.7676,-3.6902],[140.8151,-3.6879],[140.9179,-3.7092],[140.9121,-3.7416],[140.965,-3.7596],[141.0,-3.7555],[141.0,-3.7673],[140.9859,-3.7757],[140.9508,-3.7827],[140.8294,-3.7506]]]}},{"type":"Feature","properties":{"name":"Semografi","name_en":"Semografi","admin_level":"7","osm_id":""},"geometry":{"type":"Polygon","coordinates":[[[140.9529,-3.6458],[140.954,-3.6478],[140.984,-3.6585],[141.0,-3.6582],[141.0,-3.7555],[140.965,-3.7596],[140.9121,-3.7416],[140.9216,-3.6888],[140.9529,-3.6458]]]}},{"type":"Feature","properties":{"name":"Umuaf","name_en":"Umuaf","admin_level":"7","osm_id":""},"geometry":{"type":"Polygon","coordinates":[[[140.9323,-3.6145],[140.9529,-3.6458],[140.9216,-3.6888],[140.9179,-3.7092],[140.8151,-3.6879],[140.7971,-3.6883],[140.8352,-3.629],[140.9323,-3.6145]]]}},{"type":"Feature","properties":{"name":"Yuruf","name_en":"Yuruf","admin_level":"7","osm_id":""},"geometry":{"type":"Polygon","coordinates":[[[140.8613,-3.5026],[141.0,-3.4982],[141.0,-3.571],[140.959,-3.5745],[140.9323,-3.6145],[140.8352,-3.629],[140.7999,-3.5051],[140.8613,-3.5026]]]}}]}