{"type":"FeatureCollection","metadata":{"parent_osm_id":"gid_IDN_11_27_7_1","parent_name":"Palengaan","parent_name_1":"JawaTimur","parent_gid":"IDN.11.27.7_1","parent_level":"6","child_level":"7","count":12,"source":"GADM 4.1","generated":"2026-05-07"},"features":[{"type":"Feature","properties":{"name":"Akkor","name_en":"Akkor","admin_level":"7","osm_id":""},"geometry":{"type":"Polygon","coordinates":[[[113.4622,-7.1182],[113.4669,-7.1017],[113.469,-7.1023],[113.4705,-7.0994],[113.4719,-7.0996],[113.4754,-7.1089],[113.4738,-7.118],[113.4778,-7.1263],[113.4753,-7.1243],[113.4648,-7.1229],[113.4622,-7.1182]]]}},{"type":"Feature","properties":{"name":"Angsanah","name_en":"Angsanah","admin_level":"7","osm_id":""},"geometry":{"type":"Polygon","coordinates":[[[113.4666,-7.1038],[113.4623,-7.1185],[113.4594,-7.1188],[113.4584,-7.1221],[113.4556,-7.1232],[113.4473,-7.1233],[113.4491,-7.1178],[113.4474,-7.1065],[113.4489,-7.104],[113.4514,-7.1039],[113.4505,-7.1015],[113.4453,-7.0994],[113.4459,-7.0949],[113.4521,-7.0965],[113.4519,-7.1009],[113.4569,-7.1035],[113.4622,-7.105],[113.465,-7.102],[113.4666,-7.1038]]]}},{"type":"Feature","properties":{"name":"Banyupelle","name_en":"Banyupelle","admin_level":"7","osm_id":""},"geometry":{"type":"Polygon","coordinates":[[[113.3935,-7.0733],[113.41,-7.0774],[113.4174,-7.0767],[113.4176,-7.0922],[113.4141,-7.0975],[113.4121,-7.1049],[113.4082,-7.103],[113.4089,-7.1014],[113.401,-7.1017],[113.3981,-7.0979],[113.3976,-7.0943],[113.3924,-7.0879],[113.3908,-7.0825],[113.3821,-7.081],[113.3851,-7.0776],[113.3935,-7.0733]]]}},{"type":"Feature","properties":{"name":"Kacok","name_en":"Kacok","admin_level":"7","osm_id":""},"geometry":{"type":"Polygon","coordinates":[[[113.46,-7.064],[113.4593,-7.072],[113.4617,-7.0744],[113.4607,-7.0776],[113.449,-7.0771],[113.4461,-7.0729],[113.4428,-7.0724],[113.4464,-7.0696],[113.442,-7.0646],[113.4445,-7.0606],[113.4517,-7.064],[113.46,-7.064]]]}},{"type":"Feature","properties":{"name":"LaranganBadung","name_en":"LaranganBadung","admin_level":"7","osm_id":""},"geometry":{"type":"Polygon","coordinates":[[[113.4648,-7.1229],[113.4753,-7.1243],[113.4778,-7.1263],[113.4737,-7.1174],[113.4754,-7.1092],[113.4735,-7.102],[113.4745,-7.1017],[113.4791,-7.1028],[113.4813,-7.1086],[113.4886,-7.1161],[113.4871,-7.1301],[113.4832,-7.1303],[113.4815,-7.1359],[113.4784,-7.1354],[113.4777,-7.1373],[113.4641,-7.129],[113.4648,-7.1229]]]}},{"type":"Feature","properties":{"name":"PalengaanDaja","name_en":"PalengaanDaja","admin_level":"7","osm_id":""},"geometry":{"type":"Polygon","coordinates":[[[113.4373,-7.0602],[113.4347,-7.0611],[113.424,-7.0548],[113.4101,-7.0431],[113.407,-7.0417],[113.4043,-7.0435],[113.3966,-7.0401],[113.3949,-7.0363],[113.3924,-7.0351],[113.397,-7.0282],[113.3989,-7.0298],[113.4105,-7.019],[113.4125,-7.0203],[113.4136,-7.0199],[113.4141,-7.0179],[113.4168,-7.0169],[113.4176,-7.013],[113.4215,-7.0116],[113.4222,-7.0091],[113.4294,-7.0092],[113.4313,-7.0109],[113.4383,-7.0118],[113.439,-7.017],[113.4363,-7.019],[113.4364,-7.0223],[113.4346,-7.0248],[113.438,-7.0514],[113.4346,-7.0582],[113.4373,-7.0602]]]}},{"type":"Feature","properties":{"name":"PalengaanLaok","name_en":"PalengaanLaok","admin_level":"7","osm_id":""},"geometry":{"type":"Polygon","coordinates":[[[113.4174,-7.0767],[113.41,-7.0774],[113.3935,-7.0733],[113.3948,-7.0694],[113.3944,-7.0619],[113.3931,-7.0609],[113.3962,-7.0556],[113.3935,-7.0478],[113.3966,-7.0401],[113.4043,-7.0435],[113.407,-7.0417],[113.4101,-7.0431],[113.4248,-7.0552],[113.4347,-7.0611],[113.4396,-7.0609],[113.4396,-7.063],[113.4337,-7.0643],[113.4318,-7.0673],[113.4276,-7.0672],[113.4247,-7.0704],[113.4216,-7.0689],[113.4173,-7.0734],[113.4187,-7.0751],[113.4174,-7.0767]]]}},{"type":"Feature","properties":{"name":"Panaan","name_en":"Panaan","admin_level":"7","osm_id":""},"geometry":{"type":"Polygon","coordinates":[[[113.4705,-7.0994],[113.4691,-7.1022],[113.4672,-7.1013],[113.4666,-7.1038],[113.465,-7.102],[113.4622,-7.105],[113.4519,-7.1009],[113.4525,-7.0885],[113.4512,-7.0857],[113.4539,-7.0845],[113.4603,-7.0931],[113.4705,-7.0994]]]}},{"type":"Feature","properties":{"name":"PotoanDaja","name_en":"PotoanDaja","admin_level":"7","osm_id":""},"geometry":{"type":"Polygon","coordinates":[[[113.4552,-7.0783],[113.4614,-7.0769],[113.4617,-7.0744],[113.4593,-7.072],[113.4604,-7.064],[113.4671,-7.0728],[113.478,-7.074],[113.4774,-7.0772],[113.4791,-7.0783],[113.4791,-7.0812],[113.4764,-7.084],[113.4767,-7.0902],[113.4652,-7.0874],[113.458,-7.0828],[113.4552,-7.0783]]]}},{"type":"Feature","properties":{"name":"PotoanLaok","name_en":"PotoanLaok","admin_level":"7","osm_id":""},"geometry":{"type":"Polygon","coordinates":[[[113.4705,-7.0993],[113.4618,-7.0943],[113.4576,-7.0899],[113.4539,-7.0845],[113.4554,-7.0793],[113.4566,-7.0791],[113.458,-7.0828],[113.4652,-7.0874],[113.4772,-7.0905],[113.4756,-7.096],[113.4738,-7.098],[113.4718,-7.0973],[113.4705,-7.0993]]]}},{"type":"Feature","properties":{"name":"RekKerrek","name_en":"RekKerrek","admin_level":"7","osm_id":""},"geometry":{"type":"Polygon","coordinates":[[[113.4519,-7.0965],[113.4459,-7.0949],[113.4462,-7.0982],[113.4444,-7.1],[113.4376,-7.0983],[113.4318,-7.1029],[113.4308,-7.1077],[113.4265,-7.1107],[113.423,-7.1236],[113.4204,-7.1226],[113.4208,-7.1205],[113.4181,-7.1202],[113.4187,-7.1186],[113.416,-7.1194],[113.4122,-7.1034],[113.4176,-7.0922],[113.4174,-7.0767],[113.4187,-7.0751],[113.4172,-7.0737],[113.4216,-7.0689],[113.4271,-7.0734],[113.4319,-7.0737],[113.4376,-7.081],[113.4381,-7.0788],[113.4417,-7.0777],[113.4416,-7.0749],[113.4471,-7.075],[113.449,-7.0771],[113.4552,-7.0783],[113.4551,-7.083],[113.4509,-7.0865],[113.4525,-7.0885],[113.4519,-7.0965]]]}},{"type":"Feature","properties":{"name":"Rombuh","name_en":"Rombuh","admin_level":"7","osm_id":""},"geometry":{"type":"Polygon","coordinates":[[[113.4438,-7.0613],[113.442,-7.0646],[113.4464,-7.0696],[113.4428,-7.0724],[113.4461,-7.0729],[113.4475,-7.0753],[113.4413,-7.075],[113.4417,-7.0777],[113.4381,-7.0788],[113.4376,-7.081],[113.4319,-7.0737],[113.4259,-7.0727],[113.4247,-7.0704],[113.4276,-7.0672],[113.4318,-7.0673],[113.4337,-7.0643],[113.4396,-7.063],[113.4394,-7.0607],[113.4346,-7.0582],[113.4379,-7.0519],[113.4368,-7.0446],[113.4395,-7.0456],[113.4442,-7.0437],[113.4467,-7.0459],[113.4438,-7.0613]]]}}]}