{"type":"FeatureCollection","metadata":{"parent_osm_id":"gid_IDN_23_26_18_1","parent_name":"Kuari","parent_name_1":"Papua","parent_gid":"IDN.23.26.18_1","parent_level":"6","child_level":"7","count":18,"source":"GADM 4.1","generated":"2026-05-08"},"features":[{"type":"Feature","properties":{"name":"Abepur","name_en":"Abepur","admin_level":"7","osm_id":""},"geometry":{"type":"Polygon","coordinates":[[[138.4595,-3.7223],[138.4464,-3.7232],[138.4461,-3.7144],[138.4476,-3.712],[138.4533,-3.7098],[138.4595,-3.7174],[138.4595,-3.7223]]]}},{"type":"Feature","properties":{"name":"Alopur","name_en":"Alopur","admin_level":"7","osm_id":""},"geometry":{"type":"Polygon","coordinates":[[[138.4242,-3.7151],[138.4154,-3.714],[138.4149,-3.7102],[138.4182,-3.7058],[138.418,-3.7025],[138.4218,-3.7015],[138.4244,-3.7065],[138.4242,-3.7151]]]}},{"type":"Feature","properties":{"name":"Baliminggi","name_en":"Baliminggi","admin_level":"7","osm_id":""},"geometry":{"type":"Polygon","coordinates":[[[138.4295,-3.717],[138.428,-3.7159],[138.4352,-3.7116],[138.4392,-3.7172],[138.4458,-3.7177],[138.4473,-3.7201],[138.4464,-3.7232],[138.4295,-3.717]]]}},{"type":"Feature","properties":{"name":"Gubagi","name_en":"Gubagi","admin_level":"7","osm_id":""},"geometry":{"type":"Polygon","coordinates":[[[138.4399,-3.6818],[138.4425,-3.6878],[138.4411,-3.6967],[138.4342,-3.6904],[138.429,-3.6785],[138.4345,-3.6796],[138.4346,-3.6822],[138.4369,-3.6842],[138.4399,-3.6818]]]}},{"type":"Feature","properties":{"name":"Jinulira","name_en":"Jinulira","admin_level":"7","osm_id":""},"geometry":{"type":"Polygon","coordinates":[[[138.4425,-3.6878],[138.4399,-3.6818],[138.4442,-3.6773],[138.453,-3.677],[138.4586,-3.681],[138.4491,-3.6837],[138.4425,-3.6878]]]}},{"type":"Feature","properties":{"name":"Kenen","name_en":"Kenen","admin_level":"7","osm_id":""},"geometry":{"type":"Polygon","coordinates":[[[138.4244,-3.7065],[138.4218,-3.7015],[138.4251,-3.7006],[138.433,-3.7018],[138.4413,-3.7061],[138.4376,-3.7103],[138.4341,-3.7079],[138.4273,-3.708],[138.4244,-3.7065]]]}},{"type":"Feature","properties":{"name":"Kibur","name_en":"Kibur","admin_level":"7","osm_id":""},"geometry":{"type":"Polygon","coordinates":[[[138.4345,-3.6796],[138.429,-3.6785],[138.429,-3.6727],[138.4318,-3.666],[138.44,-3.671],[138.4345,-3.6796]]]}},{"type":"Feature","properties":{"name":"Kondegun","name_en":"Kondegun","admin_level":"7","osm_id":""},"geometry":{"type":"Polygon","coordinates":[[[138.4616,-3.6859],[138.4618,-3.6886],[138.4593,-3.6911],[138.4505,-3.6887],[138.4459,-3.6855],[138.4586,-3.681],[138.4616,-3.6859]]]}},{"type":"Feature","properties":{"name":"Kuari","name_en":"Kuari","admin_level":"7","osm_id":""},"geometry":{"type":"Polygon","coordinates":[[[138.4505,-3.6887],[138.4593,-3.6911],[138.4532,-3.6945],[138.4556,-3.7003],[138.4481,-3.6996],[138.4481,-3.6913],[138.4505,-3.6887]]]}},{"type":"Feature","properties":{"name":"Kurik","name_en":"Kurik","admin_level":"7","osm_id":""},"geometry":{"type":"Polygon","coordinates":[[[138.4533,-3.7098],[138.4476,-3.712],[138.444,-3.7063],[138.433,-3.7018],[138.4401,-3.7004],[138.4486,-3.7047],[138.4588,-3.7061],[138.4533,-3.7098]]]}},{"type":"Feature","properties":{"name":"Luanggi","name_en":"Luanggi","admin_level":"7","osm_id":""},"geometry":{"type":"Polygon","coordinates":[[[138.4618,-3.6886],[138.4621,-3.6944],[138.4636,-3.7022],[138.4556,-3.7003],[138.4532,-3.6963],[138.4532,-3.6945],[138.4618,-3.6886]]]}},{"type":"Feature","properties":{"name":"Markar","name_en":"Markar","admin_level":"7","osm_id":""},"geometry":{"type":"Polygon","coordinates":[[[138.468,-3.7214],[138.4595,-3.7223],[138.4595,-3.7174],[138.4676,-3.716],[138.4688,-3.7096],[138.4735,-3.7132],[138.4773,-3.7229],[138.468,-3.7214]]]}},{"type":"Feature","properties":{"name":"Menggeba","name_en":"Menggeba","admin_level":"7","osm_id":""},"geometry":{"type":"Polygon","coordinates":[[[138.428,-3.7159],[138.4242,-3.7151],[138.4244,-3.7065],[138.4273,-3.708],[138.4341,-3.7079],[138.4375,-3.7102],[138.428,-3.7159]]]}},{"type":"Feature","properties":{"name":"Menggenagame","name_en":"Menggenagame","admin_level":"7","osm_id":""},"geometry":{"type":"Polygon","coordinates":[[[138.4636,-3.7022],[138.4663,-3.7079],[138.4486,-3.7047],[138.4461,-3.7024],[138.4473,-3.6996],[138.4636,-3.7022]]]}},{"type":"Feature","properties":{"name":"Purugi","name_en":"Purugi","admin_level":"7","osm_id":""},"geometry":{"type":"Polygon","coordinates":[[[138.4411,-3.6967],[138.4425,-3.6878],[138.4459,-3.6855],[138.4505,-3.6887],[138.4481,-3.6913],[138.4481,-3.6996],[138.4461,-3.7024],[138.4401,-3.7004],[138.4411,-3.6967]]]}},{"type":"Feature","properties":{"name":"Tebenalo","name_en":"Tebenalo","admin_level":"7","osm_id":""},"geometry":{"type":"Polygon","coordinates":[[[138.4399,-3.6818],[138.4369,-3.6842],[138.4346,-3.6822],[138.4344,-3.6797],[138.44,-3.671],[138.4423,-3.6743],[138.4528,-3.677],[138.4442,-3.6773],[138.4399,-3.6818]]]}},{"type":"Feature","properties":{"name":"Umaga","name_en":"Umaga","admin_level":"7","osm_id":""},"geometry":{"type":"Polygon","coordinates":[[[138.4663,-3.7079],[138.4688,-3.7096],[138.4676,-3.716],[138.4595,-3.7174],[138.4533,-3.7098],[138.4588,-3.7061],[138.4663,-3.7079]]]}},{"type":"Feature","properties":{"name":"Wanggugup","name_en":"Wanggugup","admin_level":"7","osm_id":""},"geometry":{"type":"Polygon","coordinates":[[[138.4476,-3.712],[138.4458,-3.7177],[138.4392,-3.7172],[138.4352,-3.7116],[138.4413,-3.7061],[138.4453,-3.7075],[138.4476,-3.712]]]}}]}