{"type":"FeatureCollection","metadata":{"parent_osm_id":"gid_IDN_17_11_4_1","parent_name":"CukuhBalak","parent_name_1":"Lampung","parent_gid":"IDN.17.11.4_1","parent_level":"6","child_level":"7","count":18,"source":"GADM 4.1","generated":"2026-05-09"},"features":[{"type":"Feature","properties":{"name":"BanjarManis","name_en":"BanjarManis","admin_level":"7","osm_id":""},"geometry":{"type":"Polygon","coordinates":[[[104.8611,-5.5993],[104.8723,-5.6033],[104.8732,-5.6021],[104.8788,-5.6101],[104.8953,-5.6277],[104.9088,-5.6365],[104.9085,-5.6441],[104.9009,-5.648],[104.8708,-5.6265],[104.8636,-5.6282],[104.8636,-5.6249],[104.8592,-5.6209],[104.8515,-5.6194],[104.8597,-5.599],[104.8611,-5.5993]]]}},{"type":"Feature","properties":{"name":"BanjarNegeri","name_en":"BanjarNegeri","admin_level":"7","osm_id":""},"geometry":{"type":"Polygon","coordinates":[[[104.9444,-5.569],[104.9514,-5.5756],[104.9456,-5.5819],[104.9416,-5.5942],[104.9375,-5.5994],[104.9401,-5.6077],[104.9405,-5.6246],[104.9418,-5.6268],[104.9394,-5.6285],[104.9319,-5.6275],[104.9327,-5.6257],[104.9306,-5.6204],[104.9192,-5.6057],[104.9172,-5.6005],[104.913,-5.5973],[104.9057,-5.5821],[104.9067,-5.5734],[104.916,-5.5645],[104.9252,-5.5679],[104.9378,-5.5678],[104.9452,-5.5739],[104.9444,-5.569]]]}},{"type":"Feature","properties":{"name":"Gedung","name_en":"Gedung","admin_level":"7","osm_id":""},"geometry":{"type":"Polygon","coordinates":[[[104.9565,-5.6407],[104.9546,-5.6369],[104.9531,-5.6371],[104.9455,-5.6408],[104.9371,-5.64],[104.9318,-5.6437],[104.9322,-5.6312],[104.9394,-5.6287],[104.9591,-5.6316],[104.9698,-5.6258],[104.9739,-5.6294],[104.9753,-5.6325],[104.9703,-5.643],[104.9565,-5.6407]]]}},{"type":"Feature","properties":{"name":"Kacamarga","name_en":"Kacamarga","admin_level":"7","osm_id":""},"geometry":{"type":"Polygon","coordinates":[[[104.9058,-5.5814],[104.9126,-5.5968],[104.9172,-5.6005],[104.9192,-5.6057],[104.9281,-5.6171],[104.9204,-5.6204],[104.9181,-5.6247],[104.9129,-5.625],[104.9078,-5.6217],[104.9064,-5.6179],[104.8875,-5.6017],[104.8825,-5.5903],[104.8705,-5.5855],[104.8761,-5.577],[104.8821,-5.573],[104.8953,-5.5749],[104.9058,-5.5814]]]}},{"type":"Feature","properties":{"name":"KarangBuah","name_en":"KarangBuah","admin_level":"7","osm_id":""},"geometry":{"type":"Polygon","coordinates":[[[104.8557,-5.8308],[104.8584,-5.8329],[104.8573,-5.8377],[104.8548,-5.8402],[104.8508,-5.8401],[104.8448,-5.8343],[104.8385,-5.8321],[104.8349,-5.8275],[104.8283,-5.8289],[104.8231,-5.8244],[104.8144,-5.8248],[104.8121,-5.8151],[104.8088,-5.8119],[104.8032,-5.8003],[104.7965,-5.7962],[104.792,-5.7837],[104.7967,-5.7832],[104.802,-5.7854],[104.8151,-5.7966],[104.8249,-5.8011],[104.8339,-5.8192],[104.8399,-5.8259],[104.8484,-5.8314],[104.8557,-5.8308]]]}},{"type":"Feature","properties":{"name":"Kejadianlom","name_en":"Kejadianlom","admin_level":"7","osm_id":""},"geometry":{"type":"Polygon","coordinates":[[[104.9318,-5.6437],[104.9371,-5.64],[104.9455,-5.6408],[104.9531,-5.6371],[104.9546,-5.6369],[104.9565,-5.6407],[104.9469,-5.6461],[104.9334,-5.6463],[104.9318,-5.6437]]]}},{"type":"Feature","properties":{"name":"KubuLangka","name_en":"KubuLangka","admin_level":"7","osm_id":""},"geometry":{"type":"Polygon","coordinates":[[[104.9514,-5.5756],[104.9567,-5.576],[104.9566,-5.5794],[104.9603,-5.5867],[104.9613,-5.5901],[104.9602,-5.6057],[104.9653,-5.6113],[104.9635,-5.6165],[104.9651,-5.6186],[104.9615,-5.6207],[104.9483,-5.623],[104.9418,-5.6268],[104.9405,-5.6246],[104.9401,-5.6077],[104.9375,-5.5994],[104.9416,-5.5942],[104.9456,-5.5819],[104.9514,-5.5756]]]}},{"type":"Feature","properties":{"name":"Pampangan","name_en":"Pampangan","admin_level":"7","osm_id":""},"geometry":{"type":"Polygon","coordinates":[[[104.9086,-5.6364],[104.8953,-5.6277],[104.8788,-5.6101],[104.8732,-5.6021],[104.8723,-5.6033],[104.8611,-5.5993],[104.8705,-5.5855],[104.8825,-5.5903],[104.8875,-5.6017],[104.9064,-5.6179],[104.9078,-5.6217],[104.9129,-5.625],[104.9086,-5.6364]]]}},{"type":"Feature","properties":{"name":"PekonDoh","name_en":"PekonDoh","admin_level":"7","osm_id":""},"geometry":{"type":"Polygon","coordinates":[[[104.8515,-5.6194],[104.8592,-5.6209],[104.8636,-5.6249],[104.8636,-5.6282],[104.8666,-5.6275],[104.8642,-5.6309],[104.8644,-5.6355],[104.8693,-5.6419],[104.8753,-5.6451],[104.8773,-5.6518],[104.8737,-5.6481],[104.8635,-5.6428],[104.8515,-5.6375],[104.841,-5.6358],[104.8364,-5.6326],[104.849,-5.619],[104.8515,-5.6194]]]}},{"type":"Feature","properties":{"name":"PutihDoh","name_en":"PutihDoh","admin_level":"7","osm_id":""},"geometry":{"type":"Polygon","coordinates":[[[104.8657,-5.6275],[104.8701,-5.6261],[104.8697,-5.6277],[104.8734,-5.6314],[104.8743,-5.6352],[104.8808,-5.6432],[104.893,-5.6527],[104.8947,-5.6612],[104.8928,-5.6663],[104.8849,-5.6656],[104.8859,-5.6596],[104.8798,-5.6619],[104.8757,-5.6576],[104.8773,-5.6487],[104.8753,-5.6451],[104.8693,-5.6419],[104.8652,-5.6372],[104.8642,-5.6309],[104.8657,-5.6275]]]}},{"type":"Feature","properties":{"name":"SawangBalak","name_en":"SawangBalak","admin_level":"7","osm_id":""},"geometry":{"type":"Polygon","coordinates":[[[104.8557,-5.8308],[104.8484,-5.8314],[104.8399,-5.8259],[104.8339,-5.8192],[104.8249,-5.8011],[104.8151,-5.7966],[104.8038,-5.7865],[104.7967,-5.7832],[104.7877,-5.7834],[104.7836,-5.7813],[104.7819,-5.7701],[104.7828,-5.7656],[104.7896,-5.763],[104.7986,-5.7649],[104.8074,-5.7719],[104.8135,-5.7807],[104.8291,-5.7891],[104.8352,-5.79],[104.8433,-5.7986],[104.8507,-5.8011],[104.8546,-5.8165],[104.8545,-5.8222],[104.8524,-5.827],[104.8557,-5.8308]]]}},{"type":"Feature","properties":{"name":"Sukapadang","name_en":"Sukapadang","admin_level":"7","osm_id":""},"geometry":{"type":"Polygon","coordinates":[[[104.9086,-5.6416],[104.9088,-5.6346],[104.9129,-5.625],[104.9181,-5.6247],[104.9204,-5.6204],[104.9255,-5.6178],[104.9281,-5.6171],[104.9301,-5.6196],[104.9327,-5.6257],[104.9319,-5.6275],[104.9394,-5.6285],[104.9322,-5.6312],[104.9318,-5.6437],[104.9257,-5.6401],[104.919,-5.6391],[104.9086,-5.6416]]]}},{"type":"Feature","properties":{"name":"Sukaraja","name_en":"Sukaraja","admin_level":"7","osm_id":""},"geometry":{"type":"Polygon","coordinates":[[[104.9394,-5.6285],[104.9483,-5.623],[104.9615,-5.6207],[104.9651,-5.6186],[104.9698,-5.6258],[104.9591,-5.6316],[104.9394,-5.6285]]]}},{"type":"Feature","properties":{"name":"TanjungBetuah","name_en":"TanjungBetuah","admin_level":"7","osm_id":""},"geometry":{"type":"Polygon","coordinates":[[[104.87,-5.6263],[104.9015,-5.6482],[104.9056,-5.6549],[104.8971,-5.6659],[104.8928,-5.6663],[104.8947,-5.6612],[104.893,-5.6527],[104.8808,-5.6432],[104.8743,-5.6352],[104.87,-5.6263]]]}},{"type":"Feature","properties":{"name":"TanjungJati","name_en":"TanjungJati","admin_level":"7","osm_id":""},"geometry":{"type":"Polygon","coordinates":[[[104.9015,-5.6482],[104.9085,-5.6441],[104.9086,-5.6416],[104.9156,-5.6394],[104.9257,-5.6401],[104.9318,-5.6437],[104.9185,-5.6582],[104.914,-5.6594],[104.9083,-5.6568],[104.9016,-5.65],[104.9015,-5.6482]]]}},{"type":"Feature","properties":{"name":"TanjungRaja","name_en":"TanjungRaja","admin_level":"7","osm_id":""},"geometry":{"type":"Polygon","coordinates":[[[104.9318,-5.6437],[104.9334,-5.6463],[104.9364,-5.6465],[104.9469,-5.6461],[104.9514,-5.6441],[104.9582,-5.6501],[104.9622,-5.662],[104.9491,-5.6639],[104.941,-5.6633],[104.9185,-5.6582],[104.9318,-5.6437]]]}},{"type":"Feature","properties":{"name":"Tengor","name_en":"Tengor","admin_level":"7","osm_id":""},"geometry":{"type":"Polygon","coordinates":[[[104.8971,-5.6659],[104.9056,-5.6549],[104.9047,-5.6528],[104.9083,-5.6568],[104.9149,-5.6588],[104.9159,-5.6635],[104.9057,-5.6614],[104.9015,-5.6656],[104.8971,-5.6659]]]}},{"type":"Feature","properties":{"name":"WayRilau","name_en":"WayRilau","admin_level":"7","osm_id":""},"geometry":{"type":"Polygon","coordinates":[[[104.9149,-5.6588],[104.9213,-5.6585],[104.9491,-5.6639],[104.9622,-5.662],[104.9613,-5.6672],[104.9631,-5.6726],[104.9555,-5.6802],[104.9458,-5.6821],[104.9411,-5.6852],[104.9398,-5.6875],[104.9399,-5.6959],[104.9346,-5.6991],[104.9345,-5.701],[104.922,-5.6925],[104.9213,-5.6875],[104.914,-5.6875],[104.914,-5.6794],[104.9124,-5.6771],[104.906,-5.676],[104.9128,-5.6697],[104.9202,-5.6714],[104.9289,-5.6677],[104.9289,-5.6656],[104.9259,-5.6642],[104.9159,-5.6635],[104.9149,-5.6588]]]}}]}