{"type":"FeatureCollection","metadata":{"parent_osm_id":"gid_IDN_25_1_4_1","parent_name":"Pamboang","parent_name_1":"SulawesiBarat","parent_gid":"IDN.25.1.4_1","parent_level":"6","child_level":"7","count":7,"source":"GADM 4.1","generated":"2026-05-09"},"features":[{"type":"Feature","properties":{"name":"Adolang","name_en":"Adolang","admin_level":"7","osm_id":""},"geometry":{"type":"Polygon","coordinates":[[[118.9387,-3.4358],[118.9248,-3.449],[118.9183,-3.451],[118.9077,-3.4514],[118.8936,-3.4466],[118.8791,-3.4304],[118.8741,-3.4217],[118.8761,-3.4229],[118.8761,-3.4214],[118.8795,-3.4215],[118.8848,-3.4252],[118.8918,-3.4197],[118.8943,-3.4202],[118.8968,-3.4168],[118.9109,-3.4186],[118.922,-3.4165],[118.9387,-3.4358]]]}},{"type":"Feature","properties":{"name":"Bababulo","name_en":"Bababulo","admin_level":"7","osm_id":""},"geometry":{"type":"Polygon","coordinates":[[[118.9062,-3.5252],[118.894,-3.5],[118.9016,-3.5005],[118.9095,-3.4971],[118.9221,-3.5117],[118.9178,-3.5131],[118.9062,-3.5252]]]}},{"type":"Feature","properties":{"name":"Betteng","name_en":"Betteng","admin_level":"7","osm_id":""},"geometry":{"type":"Polygon","coordinates":[[[118.9509,-3.4556],[118.9386,-3.4659],[118.9358,-3.4727],[118.9349,-3.4837],[118.9213,-3.4866],[118.8988,-3.4777],[118.8926,-3.4566],[118.8959,-3.4514],[118.8955,-3.4481],[118.9077,-3.4514],[118.9183,-3.451],[118.9248,-3.449],[118.9387,-3.4358],[118.9473,-3.447],[118.9509,-3.4556]]]}},{"type":"Feature","properties":{"name":"Bonde","name_en":"Bonde","admin_level":"7","osm_id":""},"geometry":{"type":"Polygon","coordinates":[[[118.9276,-3.5155],[118.9262,-3.5293],[118.9204,-3.5394],[118.9135,-3.5355],[118.9062,-3.5252],[118.9178,-3.5131],[118.9221,-3.5117],[118.9276,-3.5155]]]}},{"type":"Feature","properties":{"name":"Lalampanua","name_en":"Lalampanua","admin_level":"7","osm_id":""},"geometry":{"type":"Polygon","coordinates":[[[118.9095,-3.4971],[118.9016,-3.5005],[118.894,-3.5],[118.8925,-3.4974],[118.8956,-3.4901],[118.8941,-3.4851],[118.8898,-3.4833],[118.888,-3.4854],[118.8851,-3.4846],[118.883,-3.4823],[118.8843,-3.4822],[118.8843,-3.4798],[118.8786,-3.4754],[118.8949,-3.4668],[118.8988,-3.4777],[118.9157,-3.4833],[118.9193,-3.4865],[118.9095,-3.4971]]]}},{"type":"Feature","properties":{"name":"Simbang","name_en":"Simbang","admin_level":"7","osm_id":""},"geometry":{"type":"Polygon","coordinates":[[[118.9349,-3.4837],[118.9397,-3.497],[118.9349,-3.5058],[118.9279,-3.5057],[118.9276,-3.5155],[118.9221,-3.5117],[118.9095,-3.4971],[118.9193,-3.4865],[118.9349,-3.4837]]]}},{"type":"Feature","properties":{"name":"Sirindu","name_en":"Sirindu","admin_level":"7","osm_id":""},"geometry":{"type":"Polygon","coordinates":[[[118.8741,-3.4217],[118.8846,-3.4374],[118.8955,-3.4481],[118.8959,-3.4514],[118.8926,-3.4566],[118.8949,-3.4668],[118.8786,-3.4754],[118.8773,-3.4715],[118.8795,-3.4485],[118.8783,-3.4408],[118.8703,-3.4279],[118.8687,-3.4196],[118.8741,-3.4217]]]}}]}