{"type":"FeatureCollection","metadata":{"parent_osm_id":"17625762","parent_name":"Cicalengka","parent_name_1":"JawaBarat","parent_gid":"IDN.9.2.6_1","parent_level":"6","child_level":"7","count":12,"source":"GADM 4.1","generated":"2026-05-09"},"features":[{"type":"Feature","properties":{"name":"Babakanpeuteuy","name_en":"Babakanpeuteuy","admin_level":"7","osm_id":""},"geometry":{"type":"Polygon","coordinates":[[[107.847,-6.9866],[107.8417,-6.9849],[107.8407,-6.9861],[107.8405,-6.9849],[107.852,-6.977],[107.8631,-6.9788],[107.8614,-6.9866],[107.8644,-6.9873],[107.86,-6.9966],[107.8549,-6.9974],[107.8518,-6.9956],[107.8516,-6.9888],[107.8501,-6.9872],[107.8513,-6.9847],[107.8497,-6.9831],[107.8477,-6.9828],[107.847,-6.9866]]]}},{"type":"Feature","properties":{"name":"CicalengkaKulon","name_en":"CicalengkaKulon","admin_level":"7","osm_id":""},"geometry":{"type":"Polygon","coordinates":[[[107.8405,-6.9859],[107.8417,-6.9849],[107.847,-6.9866],[107.8391,-6.9889],[107.8417,-6.9927],[107.8354,-6.9872],[107.8332,-6.9828],[107.8405,-6.9859]]]}},{"type":"Feature","properties":{"name":"CicalengkaWetan","name_en":"CicalengkaWetan","admin_level":"7","osm_id":""},"geometry":{"type":"Polygon","coordinates":[[[107.847,-6.9866],[107.8477,-6.9828],[107.8512,-6.9846],[107.8501,-6.9872],[107.8516,-6.9888],[107.8509,-6.993],[107.8546,-6.9973],[107.8527,-6.9974],[107.8533,-6.9986],[107.844,-6.996],[107.8391,-6.9889],[107.847,-6.9866]]]}},{"type":"Feature","properties":{"name":"Cikuya","name_en":"Cikuya","admin_level":"7","osm_id":""},"geometry":{"type":"Polygon","coordinates":[[[107.8332,-6.9828],[107.8371,-6.9886],[107.8337,-6.9879],[107.8329,-6.9892],[107.828,-6.9873],[107.8259,-6.9889],[107.8237,-6.987],[107.8152,-6.9859],[107.8108,-6.9881],[107.8088,-6.9872],[107.8121,-6.9802],[107.8176,-6.9751],[107.8247,-6.9754],[107.8309,-6.9777],[107.8332,-6.9828]]]}},{"type":"Feature","properties":{"name":"Dampit","name_en":"Dampit","admin_level":"7","osm_id":""},"geometry":{"type":"Polygon","coordinates":[[[107.8631,-6.9788],[107.8588,-6.9774],[107.8549,-6.9785],[107.8431,-6.9739],[107.8364,-6.9695],[107.8347,-6.9665],[107.8396,-6.9692],[107.8459,-6.97],[107.8521,-6.9663],[107.8621,-6.9678],[107.8634,-6.9651],[107.8657,-6.9653],[107.8677,-6.9686],[107.8714,-6.9699],[107.8722,-6.9745],[107.8788,-6.9766],[107.8809,-6.9796],[107.8796,-6.9809],[107.8692,-6.9811],[107.8631,-6.9788]]]}},{"type":"Feature","properties":{"name":"Margaasih","name_en":"Margaasih","admin_level":"7","osm_id":""},"geometry":{"type":"Polygon","coordinates":[[[107.8493,-6.9975],[107.8558,-7.0005],[107.855,-7.0027],[107.8569,-7.0071],[107.8539,-7.009],[107.851,-7.0067],[107.8476,-7.0072],[107.849,-7.0091],[107.8473,-7.0114],[107.8486,-7.0119],[107.8505,-7.0202],[107.8484,-7.0203],[107.8483,-7.0227],[107.8451,-7.0272],[107.8424,-7.0251],[107.8397,-7.0192],[107.8384,-7.0108],[107.8419,-7.0045],[107.8411,-7.0009],[107.8454,-7.0034],[107.8456,-6.9996],[107.8493,-6.9975]]]}},{"type":"Feature","properties":{"name":"Nagrog","name_en":"Nagrog","admin_level":"7","osm_id":""},"geometry":{"type":"Polygon","coordinates":[[[107.8546,-6.9973],[107.86,-6.9966],[107.8614,-6.9939],[107.8644,-6.9873],[107.8614,-6.9866],[107.8631,-6.9788],[107.8692,-6.9811],[107.8876,-6.9799],[107.8911,-6.984],[107.8912,-6.9935],[107.8901,-6.995],[107.8824,-6.9977],[107.8722,-7.0056],[107.8695,-7.0096],[107.8675,-7.0083],[107.8654,-7.0126],[107.8635,-7.0129],[107.8644,-7.011],[107.8609,-7.0072],[107.8569,-7.0071],[107.855,-7.0027],[107.8558,-7.0005],[107.8522,-6.9983],[107.8546,-6.9973]]]}},{"type":"Feature","properties":{"name":"Narawita","name_en":"Narawita","admin_level":"7","osm_id":""},"geometry":{"type":"Polygon","coordinates":[[[107.8451,-7.0272],[107.8483,-7.0227],[107.8484,-7.0203],[107.8505,-7.0202],[107.8486,-7.0119],[107.8473,-7.0114],[107.849,-7.0091],[107.8476,-7.0072],[107.851,-7.0067],[107.8539,-7.009],[107.8561,-7.0068],[107.8611,-7.0073],[107.8643,-7.0117],[107.8614,-7.0121],[107.8601,-7.0167],[107.8555,-7.018],[107.8543,-7.0235],[107.8558,-7.0263],[107.8532,-7.0369],[107.8548,-7.0404],[107.8521,-7.0464],[107.8502,-7.0466],[107.8498,-7.0427],[107.8495,-7.0467],[107.8479,-7.0455],[107.848,-7.0379],[107.8451,-7.0272]]]}},{"type":"Feature","properties":{"name":"Panenjoan","name_en":"Panenjoan","admin_level":"7","osm_id":""},"geometry":{"type":"Polygon","coordinates":[[[107.8349,-6.9827],[107.8322,-6.9816],[107.8309,-6.9777],[107.8241,-6.9753],[107.8176,-6.9751],[107.8118,-6.9807],[107.8071,-6.9783],[107.813,-6.9742],[107.8122,-6.9725],[107.8156,-6.9703],[107.8218,-6.9694],[107.8289,-6.972],[107.832,-6.9696],[107.8293,-6.9668],[107.8308,-6.9646],[107.8334,-6.9645],[107.8364,-6.9695],[107.8333,-6.977],[107.8349,-6.9827]]]}},{"type":"Feature","properties":{"name":"Tanjungwangi","name_en":"Tanjungwangi","admin_level":"7","osm_id":""},"geometry":{"type":"Polygon","coordinates":[[[107.8809,-6.9796],[107.8788,-6.9766],[107.8735,-6.9756],[107.871,-6.972],[107.8714,-6.9699],[107.8666,-6.9672],[107.8684,-6.9628],[107.8738,-6.9638],[107.876,-6.9622],[107.8791,-6.9633],[107.8802,-6.9611],[107.8822,-6.9631],[107.8852,-6.9623],[107.8899,-6.9639],[107.892,-6.9595],[107.9002,-6.953],[107.9088,-6.9533],[107.9105,-6.9547],[107.9147,-6.9528],[107.9184,-6.954],[107.916,-6.9678],[107.9088,-6.9674],[107.9022,-6.9694],[107.8894,-6.9826],[107.8881,-6.9801],[107.8809,-6.9796]]]}},{"type":"Feature","properties":{"name":"Tenjolaya","name_en":"Tenjolaya","admin_level":"7","osm_id":""},"geometry":{"type":"Polygon","coordinates":[[[107.852,-6.977],[107.8401,-6.9863],[107.8349,-6.9827],[107.8333,-6.977],[107.8364,-6.9695],[107.8431,-6.9739],[107.852,-6.977]]]}},{"type":"Feature","properties":{"name":"Waluya","name_en":"Waluya","admin_level":"7","osm_id":""},"geometry":{"type":"Polygon","coordinates":[[[107.8372,-6.9883],[107.844,-6.996],[107.8493,-6.9975],[107.8456,-6.9996],[107.8454,-7.0034],[107.8429,-7.0011],[107.84,-7.0013],[107.8326,-6.9945],[107.8288,-6.994],[107.8255,-6.9895],[107.828,-6.9873],[107.8329,-6.9892],[107.8335,-6.988],[107.8372,-6.9883]]]}}]}