{"type":"FeatureCollection","metadata":{"parent_osm_id":"gid_IDN_20_6_18_1","parent_name":"Suralaga","parent_name_1":"NusaTenggaraBarat","parent_gid":"IDN.20.6.18_1","parent_level":"6","child_level":"7","count":7,"source":"GADM 4.1","generated":"2026-05-07"},"features":[{"type":"Feature","properties":{"name":"Anjani","name_en":"Anjani","admin_level":"7","osm_id":""},"geometry":{"type":"Polygon","coordinates":[[[116.4883,-8.5845],[116.494,-8.5824],[116.5066,-8.5935],[116.5089,-8.5931],[116.5122,-8.5959],[116.5134,-8.5994],[116.5217,-8.6032],[116.5253,-8.6072],[116.5267,-8.6088],[116.5253,-8.6117],[116.5121,-8.6222],[116.5078,-8.6155],[116.505,-8.6142],[116.5038,-8.6086],[116.4992,-8.6042],[116.498,-8.5986],[116.4951,-8.5953],[116.496,-8.5935],[116.4883,-8.5845]]]}},{"type":"Feature","properties":{"name":"BagikPayung","name_en":"BagikPayung","admin_level":"7","osm_id":""},"geometry":{"type":"Polygon","coordinates":[[[116.5549,-8.6095],[116.5632,-8.6158],[116.5726,-8.6192],[116.5767,-8.6235],[116.5802,-8.6237],[116.5852,-8.6277],[116.5791,-8.6401],[116.5687,-8.6407],[116.5634,-8.6434],[116.5575,-8.6421],[116.5557,-8.6367],[116.551,-8.6323],[116.561,-8.6212],[116.553,-8.6131],[116.5549,-8.6095]]]}},{"type":"Feature","properties":{"name":"BagikPayungSelatan","name_en":"BagikPayungSelatan","admin_level":"7","osm_id":""},"geometry":{"type":"Polygon","coordinates":[[[116.553,-8.6131],[116.561,-8.6212],[116.5521,-8.6318],[116.5496,-8.6324],[116.5446,-8.63],[116.5347,-8.6223],[116.5423,-8.6149],[116.5468,-8.6176],[116.549,-8.6145],[116.5512,-8.616],[116.553,-8.6131]]]}},{"type":"Feature","properties":{"name":"Kerongkong","name_en":"Kerongkong","admin_level":"7","osm_id":""},"geometry":{"type":"Polygon","coordinates":[[[116.5566,-8.6391],[116.5483,-8.641],[116.5457,-8.6377],[116.5359,-8.6342],[116.5315,-8.6373],[116.5235,-8.6294],[116.5252,-8.625],[116.5307,-8.6195],[116.5446,-8.63],[116.551,-8.6323],[116.5566,-8.6391]]]}},{"type":"Feature","properties":{"name":"MekarJaya","name_en":"MekarJaya","admin_level":"7","osm_id":""},"geometry":{"type":"Polygon","coordinates":[[[116.5502,-8.6052],[116.5549,-8.6095],[116.5512,-8.616],[116.549,-8.6145],[116.5468,-8.6176],[116.5423,-8.6149],[116.5347,-8.6223],[116.5307,-8.6195],[116.5374,-8.6118],[116.5357,-8.6085],[116.5414,-8.6016],[116.5502,-8.6052]]]}},{"type":"Feature","properties":{"name":"Suralaga","name_en":"Suralaga","admin_level":"7","osm_id":""},"geometry":{"type":"Polygon","coordinates":[[[116.5258,-8.5911],[116.5334,-8.5982],[116.5414,-8.6016],[116.5357,-8.6085],[116.5286,-8.601],[116.5234,-8.6051],[116.513,-8.599],[116.518,-8.593],[116.5258,-8.5911]]]}},{"type":"Feature","properties":{"name":"Tebaban","name_en":"Tebaban","admin_level":"7","osm_id":""},"geometry":{"type":"Polygon","coordinates":[[[116.5235,-8.6294],[116.5123,-8.6223],[116.5253,-8.6117],[116.5267,-8.6088],[116.5234,-8.6051],[116.5286,-8.601],[116.5379,-8.6107],[116.5261,-8.6239],[116.5235,-8.6294]]]}}]}