{"type":"FeatureCollection","metadata":{"parent_osm_id":"gid_IDN_27_1_7_1","parent_name":"BukoSelatan","parent_name_1":"SulawesiTengah","parent_gid":"IDN.27.1.7_1","parent_level":"6","child_level":"7","count":9,"source":"GADM 4.1","generated":"2026-05-09"},"features":[{"type":"Feature","properties":{"name":"Apal","name_en":"Apal","admin_level":"7","osm_id":""},"geometry":{"type":"Polygon","coordinates":[[[122.8217,-1.4888],[122.8205,-1.4823],[122.8173,-1.4839],[122.815,-1.4824],[122.8138,-1.4841],[122.8164,-1.4844],[122.8174,-1.4886],[122.8133,-1.4892],[122.8149,-1.4874],[122.8133,-1.4835],[122.8107,-1.4855],[122.8085,-1.4848],[122.8067,-1.4836],[122.8077,-1.4812],[122.8004,-1.4849],[122.8007,-1.4874],[122.8021,-1.4883],[122.8029,-1.4857],[122.8044,-1.4893],[122.8008,-1.4897],[122.8009,-1.4918],[122.7984,-1.4917],[122.7977,-1.4882],[122.795,-1.4883],[122.7903,-1.4813],[122.79,-1.4747],[122.7916,-1.4727],[122.793,-1.4732],[122.794,-1.4682],[122.7901,-1.4674],[122.7911,-1.4654],[122.7901,-1.4624],[122.786,-1.4638],[122.7892,-1.459],[122.7864,-1.4578],[122.7867,-1.4548],[122.789,-1.4552],[122.7914,-1.4519],[122.8912,-1.4538],[122.8892,-1.489],[122.8217,-1.4888]]]}},{"type":"Feature","properties":{"name":"Buko","name_en":"Buko","admin_level":"7","osm_id":""},"geometry":{"type":"Polygon","coordinates":[[[122.8442,-1.5345],[122.8385,-1.5305],[122.8373,-1.5266],[122.8429,-1.5298],[122.8435,-1.5289],[122.8402,-1.5279],[122.8394,-1.526],[122.8868,-1.5254],[122.8863,-1.5345],[122.8442,-1.5345]]]}},{"type":"Feature","properties":{"name":"Kambani","name_en":"Kambani","admin_level":"7","osm_id":""},"geometry":{"type":"Polygon","coordinates":[[[122.8828,-1.6011],[122.8687,-1.5957],[122.8628,-1.5867],[122.8491,-1.5782],[122.8493,-1.5722],[122.8843,-1.5725],[122.8828,-1.6011]]]}},{"type":"Feature","properties":{"name":"Labangun","name_en":"Labangun","admin_level":"7","osm_id":""},"geometry":{"type":"Polygon","coordinates":[[[122.8912,-1.4538],[122.7914,-1.4519],[122.788,-1.4449],[122.7936,-1.4389],[122.7937,-1.4255],[122.8928,-1.4263],[122.8912,-1.4538]]]}},{"type":"Feature","properties":{"name":"LelangMatamaling","name_en":"LelangMatamaling","admin_level":"7","osm_id":""},"geometry":{"type":"Polygon","coordinates":[[[122.8843,-1.5725],[122.8493,-1.5722],[122.8495,-1.5675],[122.8543,-1.5603],[122.8524,-1.5504],[122.8484,-1.5438],[122.8858,-1.544],[122.8843,-1.5725]]]}},{"type":"Feature","properties":{"name":"Lumbi-lumbia","name_en":"Lumbi-lumbia","admin_level":"7","osm_id":""},"geometry":{"type":"Polygon","coordinates":[[[122.8217,-1.4888],[122.8892,-1.489],[122.8879,-1.5085],[122.8295,-1.5084],[122.8302,-1.5076],[122.8289,-1.5071],[122.8276,-1.5084],[122.8276,-1.5058],[122.824,-1.5049],[122.8186,-1.4996],[122.8203,-1.4982],[122.8221,-1.4999],[122.8246,-1.4988],[122.8262,-1.5002],[122.8251,-1.4988],[122.8262,-1.4929],[122.8228,-1.4922],[122.8217,-1.4888]]]}},{"type":"Feature","properties":{"name":"Palapat","name_en":"Palapat","admin_level":"7","osm_id":""},"geometry":{"type":"Polygon","coordinates":[[[122.8868,-1.5254],[122.8412,-1.5254],[122.8416,-1.5226],[122.8403,-1.5246],[122.8389,-1.5232],[122.8406,-1.5215],[122.8391,-1.5199],[122.8393,-1.5148],[122.8379,-1.5145],[122.8391,-1.5125],[122.8389,-1.5107],[122.8371,-1.5127],[122.8377,-1.5195],[122.8362,-1.5198],[122.8379,-1.5244],[122.8316,-1.5169],[122.8325,-1.5162],[122.8283,-1.5142],[122.8267,-1.5099],[122.8302,-1.5098],[122.8295,-1.5084],[122.8879,-1.5085],[122.8868,-1.5254]]]}},{"type":"Feature","properties":{"name":"Seano","name_en":"Seano","admin_level":"7","osm_id":""},"geometry":{"type":"Polygon","coordinates":[[[122.8928,-1.4263],[122.7937,-1.4255],[122.7913,-1.4239],[122.7903,-1.4181],[122.8932,-1.4186],[122.8928,-1.4263]]]}},{"type":"Feature","properties":{"name":"Tatabau","name_en":"Tatabau","admin_level":"7","osm_id":""},"geometry":{"type":"Polygon","coordinates":[[[122.8442,-1.5345],[122.8863,-1.5345],[122.8858,-1.544],[122.8484,-1.5438],[122.8494,-1.5427],[122.8471,-1.5426],[122.8467,-1.537],[122.8458,-1.5354],[122.8453,-1.5379],[122.8442,-1.5345]]]}}]}