{"type":"FeatureCollection","metadata":{"parent_osm_id":"17701262","parent_name":"Purworejo","parent_name_1":"JawaTengah","parent_gid":"IDN.10.25.16_1","parent_level":"6","child_level":"7","count":25,"source":"GADM 4.1","generated":"2026-05-09"},"features":[{"type":"Feature","properties":{"name":"Baledono","name_en":"Baledono","admin_level":"7","osm_id":""},"geometry":{"type":"Polygon","coordinates":[[[110.0273,-7.7007],[110.0328,-7.7044],[110.0251,-7.7095],[110.0205,-7.7168],[110.0137,-7.7181],[110.0219,-7.7049],[110.0186,-7.7021],[110.0236,-7.702],[110.0256,-7.6996],[110.0273,-7.7007]]]}},{"type":"Feature","properties":{"name":"Brenggong","name_en":"Brenggong","admin_level":"7","osm_id":""},"geometry":{"type":"Polygon","coordinates":[[[110.0446,-7.7259],[110.0457,-7.7283],[110.0574,-7.7254],[110.0606,-7.7275],[110.0656,-7.7281],[110.0657,-7.731],[110.0626,-7.7318],[110.063,-7.7341],[110.0579,-7.7345],[110.055,-7.7328],[110.0509,-7.7358],[110.0467,-7.7362],[110.0428,-7.7406],[110.0376,-7.7387],[110.0347,-7.7395],[110.0446,-7.7259]]]}},{"type":"Feature","properties":{"name":"CangkrepKidul","name_en":"CangkrepKidul","admin_level":"7","osm_id":""},"geometry":{"type":"Polygon","coordinates":[[[110.041,-7.7305],[110.0342,-7.7399],[110.0234,-7.7401],[110.0199,-7.7372],[110.0171,-7.729],[110.0303,-7.7285],[110.0302,-7.7336],[110.0327,-7.7347],[110.0382,-7.7322],[110.0378,-7.7306],[110.041,-7.7305]]]}},{"type":"Feature","properties":{"name":"CangkrepLor","name_en":"CangkrepLor","admin_level":"7","osm_id":""},"geometry":{"type":"Polygon","coordinates":[[[110.0433,-7.7218],[110.0446,-7.7259],[110.041,-7.7305],[110.0378,-7.7306],[110.0382,-7.7322],[110.035,-7.7344],[110.0302,-7.7336],[110.0303,-7.7285],[110.0173,-7.7288],[110.0179,-7.724],[110.0244,-7.7235],[110.0303,-7.7203],[110.0433,-7.7218]]]}},{"type":"Feature","properties":{"name":"Donorati","name_en":"Donorati","admin_level":"7","osm_id":""},"geometry":{"type":"Polygon","coordinates":[[[110.0733,-7.6908],[110.0738,-7.694],[110.0717,-7.6952],[110.0682,-7.696],[110.0651,-7.6945],[110.0596,-7.6984],[110.0526,-7.6978],[110.0556,-7.6897],[110.0528,-7.6859],[110.0552,-7.6861],[110.0582,-7.6837],[110.0733,-7.6908]]]}},{"type":"Feature","properties":{"name":"Doplang","name_en":"Doplang","admin_level":"7","osm_id":""},"geometry":{"type":"Polygon","coordinates":[[[109.9915,-7.7225],[109.9892,-7.719],[109.9855,-7.7173],[109.9882,-7.7134],[109.9896,-7.7069],[109.9913,-7.7078],[109.991,-7.7065],[109.992,-7.7098],[110.0007,-7.7129],[110.0029,-7.7153],[110.0004,-7.7158],[110.0006,-7.7178],[109.9982,-7.7181],[109.9971,-7.7202],[109.9915,-7.7225]]]}},{"type":"Feature","properties":{"name":"Ganggeng","name_en":"Ganggeng","admin_level":"7","osm_id":""},"geometry":{"type":"Polygon","coordinates":[[[110.0383,-7.7528],[110.0245,-7.7509],[110.0186,-7.7471],[110.0234,-7.7401],[110.0332,-7.7402],[110.0376,-7.7387],[110.0428,-7.7406],[110.0396,-7.7448],[110.0403,-7.7474],[110.0383,-7.7528]]]}},{"type":"Feature","properties":{"name":"KedungSari","name_en":"KedungSari","admin_level":"7","osm_id":""},"geometry":{"type":"Polygon","coordinates":[[[110.0073,-7.7433],[110.0072,-7.7335],[110.0109,-7.73],[110.0062,-7.7244],[110.0113,-7.7232],[110.0151,-7.718],[110.0177,-7.7178],[110.0151,-7.7227],[110.0179,-7.724],[110.0171,-7.729],[110.0193,-7.7326],[110.0195,-7.739],[110.0121,-7.7445],[110.0073,-7.7433]]]}},{"type":"Feature","properties":{"name":"Keseneng","name_en":"Keseneng","admin_level":"7","osm_id":""},"geometry":{"type":"Polygon","coordinates":[[[110.0142,-7.6895],[110.0257,-7.6894],[110.0267,-7.6916],[110.0256,-7.6974],[110.0278,-7.7004],[110.0256,-7.6996],[110.0231,-7.7021],[110.0176,-7.7018],[110.0153,-7.6996],[110.0183,-7.696],[110.0176,-7.6919],[110.0161,-7.6937],[110.0142,-7.6895]]]}},{"type":"Feature","properties":{"name":"Mranti","name_en":"Mranti","admin_level":"7","osm_id":""},"geometry":{"type":"Polygon","coordinates":[[[110.0033,-7.6922],[110.0083,-7.6929],[110.0077,-7.6992],[110.0103,-7.704],[110.0038,-7.7076],[109.9996,-7.6956],[110.001,-7.6909],[110.0033,-7.6922]]]}},{"type":"Feature","properties":{"name":"Mudal","name_en":"Mudal","admin_level":"7","osm_id":""},"geometry":{"type":"Polygon","coordinates":[[[110.0083,-7.6929],[110.0099,-7.6901],[110.0142,-7.6895],[110.0161,-7.6937],[110.0176,-7.6919],[110.0183,-7.696],[110.0157,-7.6994],[110.0098,-7.7015],[110.0077,-7.6992],[110.0083,-7.6929]]]}},{"type":"Feature","properties":{"name":"Pacekelan","name_en":"Pacekelan","admin_level":"7","osm_id":""},"geometry":{"type":"Polygon","coordinates":[[[110.0475,-7.7578],[110.0389,-7.7543],[110.0383,-7.7528],[110.0403,-7.7474],[110.0396,-7.7448],[110.0428,-7.7406],[110.0641,-7.7441],[110.0682,-7.75],[110.0678,-7.7543],[110.0638,-7.7563],[110.0475,-7.7578]]]}},{"type":"Feature","properties":{"name":"Paduroso","name_en":"Paduroso","admin_level":"7","osm_id":""},"geometry":{"type":"Polygon","coordinates":[[[109.991,-7.7065],[109.9901,-7.7026],[109.988,-7.7015],[109.9959,-7.701],[109.9998,-7.6977],[110.0035,-7.706],[109.9968,-7.7049],[109.991,-7.7065]]]}},{"type":"Feature","properties":{"name":"PangenjuruTengah","name_en":"PangenjuruTengah","admin_level":"7","osm_id":""},"geometry":{"type":"Polygon","coordinates":[[[109.9877,-7.7256],[109.994,-7.7205],[110.0006,-7.7178],[110.0004,-7.7158],[110.0025,-7.716],[110.0024,-7.7141],[110.007,-7.7176],[110.001,-7.7322],[109.9969,-7.7283],[109.989,-7.7283],[109.9877,-7.7256]]]}},{"type":"Feature","properties":{"name":"Pangenrejo","name_en":"Pangenrejo","admin_level":"7","osm_id":""},"geometry":{"type":"Polygon","coordinates":[[[110.0076,-7.7369],[110.003,-7.7374],[110.0,-7.7345],[109.9892,-7.7355],[109.9876,-7.7327],[109.989,-7.7279],[109.9969,-7.7283],[110.001,-7.7322],[110.0069,-7.7177],[110.0104,-7.7181],[110.0118,-7.7203],[110.0136,-7.7195],[110.0113,-7.7232],[110.0062,-7.7244],[110.0109,-7.73],[110.0072,-7.7335],[110.0076,-7.7369]]]}},{"type":"Feature","properties":{"name":"Plipir","name_en":"Plipir","admin_level":"7","osm_id":""},"geometry":{"type":"Polygon","coordinates":[[[110.063,-7.7341],[110.0646,-7.7385],[110.0641,-7.7441],[110.0428,-7.7406],[110.0467,-7.7362],[110.0509,-7.7358],[110.055,-7.7328],[110.0579,-7.7345],[110.063,-7.7341]]]}},{"type":"Feature","properties":{"name":"Purworejo","name_en":"Purworejo","admin_level":"7","osm_id":""},"geometry":{"type":"Polygon","coordinates":[[[110.0186,-7.7021],[110.0219,-7.7049],[110.0144,-7.7186],[110.0118,-7.7203],[110.0104,-7.7181],[110.0069,-7.7177],[110.0053,-7.7162],[110.0109,-7.7088],[110.0071,-7.7058],[110.0103,-7.704],[110.0092,-7.7024],[110.0145,-7.6991],[110.0186,-7.7021]]]}},{"type":"Feature","properties":{"name":"Semawung","name_en":"Semawung","admin_level":"7","osm_id":""},"geometry":{"type":"Polygon","coordinates":[[[110.0313,-7.7522],[110.0253,-7.7527],[110.0213,-7.7635],[110.0212,-7.7684],[110.0125,-7.7668],[110.0135,-7.7538],[110.0153,-7.7533],[110.0171,-7.7485],[110.0189,-7.7478],[110.0245,-7.7509],[110.0313,-7.7522]]]}},{"type":"Feature","properties":{"name":"SidoMulyo","name_en":"SidoMulyo","admin_level":"7","osm_id":""},"geometry":{"type":"Polygon","coordinates":[[[110.0611,-7.7045],[110.0568,-7.7109],[110.0392,-7.713],[110.0332,-7.7172],[110.0311,-7.717],[110.0317,-7.7138],[110.0301,-7.7125],[110.0327,-7.7107],[110.0275,-7.708],[110.0344,-7.7034],[110.0454,-7.7027],[110.0526,-7.6978],[110.0596,-7.6984],[110.0611,-7.7045]]]}},{"type":"Feature","properties":{"name":"Sidorejo","name_en":"Sidorejo","admin_level":"7","osm_id":""},"geometry":{"type":"Polygon","coordinates":[[[110.0571,-7.7108],[110.0496,-7.7214],[110.0303,-7.7203],[110.0311,-7.717],[110.0332,-7.7172],[110.0392,-7.713],[110.0571,-7.7108]]]}},{"type":"Feature","properties":{"name":"Sindurjan","name_en":"Sindurjan","admin_level":"7","osm_id":""},"geometry":{"type":"Polygon","coordinates":[[[110.0024,-7.7141],[109.992,-7.7098],[109.991,-7.7065],[109.9972,-7.7049],[110.0035,-7.706],[110.0038,-7.7076],[110.0071,-7.7058],[110.0107,-7.708],[110.0054,-7.716],[110.0024,-7.7141]]]}},{"type":"Feature","properties":{"name":"Sudimoro","name_en":"Sudimoro","admin_level":"7","osm_id":""},"geometry":{"type":"Polygon","coordinates":[[[110.0728,-7.7103],[110.0611,-7.7045],[110.0596,-7.6984],[110.0651,-7.6945],[110.0686,-7.696],[110.0738,-7.694],[110.0719,-7.6963],[110.0743,-7.696],[110.0729,-7.6988],[110.0772,-7.7076],[110.0758,-7.7099],[110.0728,-7.7103]]]}},{"type":"Feature","properties":{"name":"Tambakrejo","name_en":"Tambakrejo","admin_level":"7","osm_id":""},"geometry":{"type":"Polygon","coordinates":[[[110.0177,-7.7178],[110.0214,-7.716],[110.0266,-7.7084],[110.0298,-7.7083],[110.0327,-7.7107],[110.0301,-7.7118],[110.0317,-7.7138],[110.0303,-7.7203],[110.0248,-7.7234],[110.0179,-7.724],[110.0151,-7.7227],[110.0177,-7.7178]]]}},{"type":"Feature","properties":{"name":"Wonoroto","name_en":"Wonoroto","admin_level":"7","osm_id":""},"geometry":{"type":"Polygon","coordinates":[[[110.0135,-7.7534],[110.0133,-7.75],[110.0101,-7.7495],[110.0095,-7.7462],[110.0106,-7.7439],[110.0135,-7.7438],[110.0187,-7.74],[110.0199,-7.7372],[110.0231,-7.7389],[110.0232,-7.7407],[110.0153,-7.7533],[110.0135,-7.7534]]]}},{"type":"Feature","properties":{"name":"Wonotulus","name_en":"Wonotulus","admin_level":"7","osm_id":""},"geometry":{"type":"Polygon","coordinates":[[[110.0374,-7.6872],[110.0417,-7.6881],[110.0509,-7.6985],[110.0443,-7.7029],[110.0392,-7.7024],[110.0376,-7.6994],[110.0342,-7.6986],[110.0374,-7.6872]]]}}]}