{"type":"FeatureCollection","metadata":{"parent_osm_id":"gid_IDN_9_1_16_1","parent_name":"Waduk","parent_name_1":"JawaBarat","parent_gid":"IDN.9.1.16_1","parent_level":"6","child_level":"7","count":1,"source":"GADM 4.1","generated":"2026-05-08"},"features":[{"type":"Feature","properties":{"name":"Danau/waduk","name_en":"Danau/waduk","admin_level":"7","osm_id":""},"geometry":{"type":"Polygon","coordinates":[[[107.498,-6.9286],[107.4988,-6.9305],[107.5048,-6.9316],[107.5117,-6.937],[107.5137,-6.9367],[107.512,-6.9338],[107.5147,-6.9335],[107.5202,-6.934],[107.5208,-6.9357],[107.5223,-6.9352],[107.525,-6.9366],[107.5219,-6.9354],[107.5193,-6.937],[107.5114,-6.9384],[107.5057,-6.9333],[107.5019,-6.9343],[107.4973,-6.9327],[107.4956,-6.9287],[107.4905,-6.9267],[107.4899,-6.9249],[107.4852,-6.9269],[107.48,-6.9239],[107.4782,-6.9208],[107.4803,-6.9168],[107.4771,-6.9186],[107.4746,-6.9157],[107.4728,-6.9182],[107.4691,-6.9184],[107.4666,-6.9154],[107.4697,-6.9157],[107.4666,-6.9114],[107.464,-6.9142],[107.4579,-6.9103],[107.455,-6.9096],[107.4532,-6.9109],[107.4368,-6.9047],[107.4267,-6.9063],[107.4233,-6.9094],[107.4236,-6.9118],[107.4273,-6.9105],[107.4268,-6.9129],[107.4306,-6.9123],[107.4305,-6.9162],[107.4315,-6.9134],[107.437,-6.9093],[107.436,-6.9115],[107.4375,-6.9108],[107.4383,-6.9131],[107.4357,-6.9125],[107.4357,-6.914],[107.4339,-6.9127],[107.4323,-6.9169],[107.4346,-6.9175],[107.435,-6.9159],[107.4395,-6.9182],[107.4411,-6.9175],[107.44,-6.9193],[107.4352,-6.9186],[107.4369,-6.9221],[107.4341,-6.9186],[107.428,-6.9178],[107.4291,-6.914],[107.4251,-6.915],[107.4244,-6.9127],[107.4208,-6.9142],[107.4179,-6.9115],[107.4159,-6.912],[107.412,-6.9099],[107.4114,-6.913],[107.4061,-6.9165],[107.408,-6.916],[107.4086,-6.918],[107.4105,-6.9185],[107.4121,-6.9155],[107.4158,-6.914],[107.4161,-6.9168],[107.421,-6.9168],[107.4184,-6.9184],[107.4214,-6.9206],[107.4203,-6.9213],[107.4157,-6.9177],[107.4164,-6.9196],[107.4157,-6.9202],[107.4149,-6.9165],[107.4117,-6.919],[107.412,-6.9206],[107.4086,-6.9201],[107.4071,-6.9225],[107.4147,-6.9245],[107.4126,-6.9251],[107.4132,-6.927],[107.4172,-6.9266],[107.4177,-6.9313],[107.4209,-6.9309],[107.421,-6.9281],[107.4267,-6.9266],[107.4273,-6.9237],[107.4295,-6.9241],[107.4285,-6.923],[107.4305,-6.9233],[107.4299,-6.9222],[107.4324,-6.9212],[107.4344,-6.9217],[107.4318,-6.9241],[107.4343,-6.9249],[107.4294,-6.9267],[107.4316,-6.927],[107.4299,-6.9293],[107.4304,-6.9313],[107.4321,-6.9312],[107.4362,-6.925],[107.4363,-6.9274],[107.4339,-6.9305],[107.4369,-6.9308],[107.439,-6.9261],[107.4417,-6.9277],[107.4436,-6.926],[107.443,-6.923],[107.4446,-6.9209],[107.4458,-6.9202],[107.4442,-6.9232],[107.4451,-6.9253],[107.4509,-6.919],[107.4502,-6.9207],[107.4512,-6.92],[107.4545,-6.9205],[107.4507,-6.9219],[107.4502,-6.9237],[107.4531,-6.9245],[107.4537,-6.9263],[107.4574,-6.9264],[107.4534,-6.9271],[107.4487,-6.9246],[107.4486,-6.923],[107.4466,-6.9255],[107.4498,-6.927],[107.4453,-6.9272],[107.4436,-6.9297],[107.4449,-6.9288],[107.4458,-6.9303],[107.4476,-6.9289],[107.4477,-6.9315],[107.4499,-6.9304],[107.4505,-6.9321],[107.4517,-6.9307],[107.4523,-6.9326],[107.4614,-6.927],[107.4606,-6.9284],[107.4627,-6.9287],[107.4576,-6.9303],[107.4549,-6.933],[107.4585,-6.9349],[107.4772,-6.9336],[107.4823,-6.9379],[107.4841,-6.9411],[107.4872,-6.9401],[107.4907,-6.9415],[107.4845,-6.9415],[107.4834,-6.9436],[107.482,-6.9385],[107.48,-6.9388],[107.4774,-6.9352],[107.4674,-6.9346],[107.4598,-6.9363],[107.4672,-6.9375],[107.466,-6.9396],[107.4634,-6.9381],[107.4639,-6.9417],[107.4617,-6.9383],[107.462,-6.9441],[107.4614,-6.9456],[107.4597,-6.9421],[107.4603,-6.9383],[107.4591,-6.9375],[107.4578,-6.9393],[107.4579,-6.9376],[107.457,-6.9386],[107.457,-6.9369],[107.4528,-6.9346],[107.4518,-6.9369],[107.4536,-6.9413],[107.451,-6.9376],[107.4516,-6.9347],[107.4482,-6.9333],[107.4493,-6.9356],[107.4482,-6.9374],[107.4539,-6.9427],[107.4522,-6.9432],[107.4508,-6.9412],[107.4505,-6.9437],[107.4492,-6.943],[107.4499,-6.9454],[107.4475,-6.9434],[107.4498,-6.9408],[107.4494,-6.9388],[107.4467,-6.9376],[107.4472,-6.9357],[107.4457,-6.9378],[107.4463,-6.9414],[107.4439,-6.9419],[107.4467,-6.9324],[107.4415,-6.9313],[107.441,-6.9295],[107.4389,-6.931],[107.4411,-6.9336],[107.445,-6.9341],[107.4423,-6.9376],[107.444,-6.9345],[107.4414,-6.9345],[107.442,-6.9359],[107.4393,-6.9337],[107.4389,-6.9367],[107.4382,-6.933],[107.434,-6.9328],[107.436,-6.9343],[107.4357,-6.9367],[107.4379,-6.9377],[107.4359,-6.9384],[107.4361,-6.9399],[107.4341,-6.9349],[107.4326,-6.9364],[107.4306,-6.9335],[107.4298,-6.9361],[107.4319,-6.9381],[107.4336,-6.9372],[107.4335,-6.9397],[107.4351,-6.9403],[107.4334,-6.9407],[107.4337,-6.9419],[107.4409,-6.9418],[107.4404,-6.9431],[107.448,-6.9473],[107.4486,-6.949],[107.4451,-6.9481],[107.4448,-6.9502],[107.4466,-6.9523],[107.4453,-6.9518],[107.4464,-6.9541],[107.446,-6.9546],[107.4435,-6.9522],[107.4439,-6.9471],[107.4413,-6.9454],[107.4409,-6.9464],[107.4392,-6.9435],[107.4391,-6.9478],[107.4418,-6.949],[107.4387,-6.949],[107.4418,-6.952],[107.4428,-6.9543],[107.4419,-6.9545],[107.4413,-6.9525],[107.4396,-6.9516],[107.4385,-6.953],[107.439,-6.9509],[107.4373,-6.9507],[107.4368,-6.9443],[107.4352,-6.9445],[107.4353,-6.946],[107.4334,-6.9435],[107.432,-6.9444],[107.4336,-6.9457],[107.4333,-6.9479],[107.4354,-6.9486],[107.4358,-6.9538],[107.4388,-6.9564],[107.4392,-6.9608],[107.4422,-6.9571],[107.4455,-6.9581],[107.4433,-6.9585],[107.444,-6.9599],[107.4417,-6.9591],[107.4397,-6.9615],[107.442,-6.9669],[107.4393,-6.9641],[107.4381,-6.9686],[107.4408,-6.9713],[107.4364,-6.9689],[107.4396,-6.9738],[107.4385,-6.9744],[107.4397,-6.977],[107.4377,-6.9767],[107.435,-6.9813],[107.4327,-6.9816],[107.4303,-6.9849],[107.4272,-6.9844],[107.4242,-6.987],[107.4184,-6.9846],[107.4174,-6.9821],[107.424,-6.9712],[107.424,-6.9697],[107.4211,-6.968],[107.4216,-6.964],[107.4204,-6.9631],[107.4199,-6.9665],[107.4157,-6.9683],[107.4186,-6.9666],[107.4193,-6.9632],[107.4183,-6.962],[107.4179,-6.9632],[107.417,-6.9635],[107.4182,-6.961],[107.4144,-6.9569],[107.4143,-6.9589],[107.4165,-6.9606],[107.4154,-6.9624],[107.4145,-6.9602],[107.4127,-6.9656],[107.4137,-6.96],[107.4122,-6.9601],[107.4136,-6.9592],[107.411,-6.957],[107.418,-6.9557],[107.419,-6.9579],[107.4208,-6.9581],[107.4192,-6.9586],[107.4203,-6.9616],[107.4287,-6.9623],[107.4319,-6.9668],[107.4303,-6.975],[107.4341,-6.9763],[107.4348,-6.9736],[107.4324,-6.9718],[107.4321,-6.9685],[107.4356,-6.9659],[107.4369,-6.9623],[107.4342,-6.9579],[107.4326,-6.9579],[107.4337,-6.957],[107.432,-6.9566],[107.433,-6.9509],[107.4279,-6.9451],[107.428,-6.943],[107.4292,-6.9436],[107.4311,-6.9412],[107.4282,-6.9414],[107.4299,-6.9401],[107.4286,-6.9385],[107.4271,-6.9399],[107.4273,-6.9379],[107.4261,-6.9378],[107.4274,-6.9348],[107.423,-6.9358],[107.4232,-6.9371],[107.4211,-6.9366],[107.4232,-6.9384],[107.4223,-6.9391],[107.4197,-6.938],[107.4196,-6.9352],[107.4183,-6.9356],[107.419,-6.934],[107.416,-6.9357],[107.4163,-6.94],[107.4189,-6.9388],[107.4188,-6.941],[107.4202,-6.9398],[107.4244,-6.9428],[107.4232,-6.9435],[107.4201,-6.9409],[107.4211,-6.9448],[107.4192,-6.9419],[107.4178,-6.9422],[107.4196,-6.9469],[107.4226,-6.9474],[107.4214,-6.9525],[107.4215,-6.948],[107.4196,-6.9477],[107.4188,-6.9498],[107.4167,-6.9448],[107.4156,-6.9476],[107.4171,-6.9495],[107.4157,-6.9513],[107.4144,-6.9472],[107.4162,-6.9435],[107.4143,-6.9408],[107.4127,-6.9426],[107.4137,-6.9466],[107.411,-6.9501],[107.4097,-6.9478],[107.4078,-6.95],[107.4087,-6.9535],[107.4073,-6.9505],[107.4058,-6.9536],[107.4056,-6.9507],[107.4088,-6.9469],[107.4126,-6.9465],[107.411,-6.9416],[107.4124,-6.9404],[107.4105,-6.9398],[107.4131,-6.9398],[107.4118,-6.9385],[107.414,-6.9318],[107.411,-6.928],[107.4098,-6.9292],[107.4046,-6.9257],[107.4054,-6.9246],[107.4036,-6.9241],[107.4054,-6.9196],[107.4029,-6.9201],[107.402,-6.9251],[107.4014,-6.9226],[107.399,-6.9243],[107.3995,-6.9266],[107.3963,-6.9273],[107.3953,-6.9309],[107.3971,-6.9331],[107.3913,-6.9378],[107.3926,-6.9358],[107.3912,-6.9337],[107.3937,-6.9334],[107.3949,-6.9312],[107.3935,-6.93],[107.3955,-6.9294],[107.3943,-6.9283],[107.3983,-6.925],[107.3983,-6.9235],[107.3955,-6.9234],[107.3942,-6.9255],[107.3912,-6.9262],[107.394,-6.9249],[107.3943,-6.9182],[107.3963,-6.9169],[107.3949,-6.9158],[107.3975,-6.9146],[107.3945,-6.9122],[107.3947,-6.9141],[107.392,-6.9167],[107.3938,-6.9192],[107.3923,-6.923],[107.3876,-6.923],[107.3875,-6.9249],[107.3838,-6.9263],[107.3836,-6.93],[107.3824,-6.9253],[107.3797,-6.9275],[107.3795,-6.9317],[107.3781,-6.9327],[107.3787,-6.93],[107.3768,-6.9285],[107.3736,-6.9327],[107.3778,-6.938],[107.3775,-6.9417],[107.3801,-6.9448],[107.3789,-6.9444],[107.3788,-6.9474],[107.3758,-6.9492],[107.3782,-6.9438],[107.3764,-6.9427],[107.3765,-6.9382],[107.3729,-6.9355],[107.3723,-6.9412],[107.374,-6.9445],[107.3696,-6.947],[107.3711,-6.9499],[107.3698,-6.9513],[107.3692,-6.9481],[107.3675,-6.9486],[107.3717,-6.9445],[107.3701,-6.9437],[107.3717,-6.9426],[107.3711,-6.9399],[107.3683,-6.9398],[107.3715,-6.9376],[107.3699,-6.9373],[107.3706,-6.9364],[107.3689,-6.9346],[107.3717,-6.9348],[107.3712,-6.9322],[107.3741,-6.9298],[107.3741,-6.9272],[107.3706,-6.928],[107.3691,-6.931],[107.367,-6.9313],[107.3656,-6.9358],[107.3628,-6.9373],[107.3639,-6.9385],[107.3625,-6.9407],[107.3651,-6.9416],[107.3657,-6.9469],[107.3624,-6.949],[107.3603,-6.9473],[107.3653,-6.9458],[107.3632,-6.9451],[107.3641,-6.943],[107.3614,-6.9426],[107.3625,-6.9347],[107.3653,-6.9322],[107.3599,-6.932],[107.3616,-6.9299],[107.3649,-6.9306],[107.365,-6.9291],[107.3672,-6.9286],[107.365,-6.9265],[107.3678,-6.9273],[107.3712,-6.9254],[107.3697,-6.9242],[107.3675,-6.9258],[107.3656,-6.9215],[107.3635,-6.9219],[107.3601,-6.9277],[107.3562,-6.9297],[107.3518,-6.9271],[107.3528,-6.9256],[107.3511,-6.9254],[107.3508,-6.925],[107.3506,-6.9238],[107.3517,-6.9228],[107.3487,-6.9231],[107.348,-6.9214],[107.3478,-6.9224],[107.3472,-6.9227],[107.3479,-6.9212],[107.3485,-6.9215],[107.3487,-6.9228],[107.3516,-6.9224],[107.3519,-6.9233],[107.3509,-6.9242],[107.3531,-6.9254],[107.3525,-6.9267],[107.3588,-6.928],[107.3587,-6.9245],[107.3603,-6.9251],[107.3631,-6.9212],[107.3719,-6.9207],[107.3724,-6.9161],[107.3709,-6.9145],[107.3662,-6.915],[107.3654,-6.9139],[107.3667,-6.9124],[107.3709,-6.9119],[107.3761,-6.9168],[107.3819,-6.9134],[107.3845,-6.9147],[107.3865,-6.912],[107.3891,-6.9137],[107.3924,-6.9117],[107.3926,-6.9086],[107.3944,-6.9097],[107.3948,-6.9081],[107.3962,-6.9099],[107.3979,-6.911],[107.3986,-6.9107],[107.3968,-6.9087],[107.3967,-6.9052],[107.4022,-6.9129],[107.4001,-6.9133],[107.398,-6.92],[107.4009,-6.9198],[107.4016,-6.917],[107.4055,-6.9136],[107.4054,-6.905],[107.4081,-6.9088],[107.4098,-6.9075],[107.4076,-6.8992],[107.4092,-6.9026],[107.4121,-6.8996],[107.4097,-6.8961],[107.4133,-6.8915],[107.4114,-6.8968],[107.4138,-6.8993],[107.4119,-6.9021],[107.4125,-6.9046],[107.4153,-6.9062],[107.4163,-6.902],[107.4182,-6.9015],[107.4167,-6.9044],[107.418,-6.904],[107.4173,-6.9058],[107.419,-6.9064],[107.417,-6.9065],[107.4164,-6.9075],[107.4184,-6.9074],[107.4208,-6.9099],[107.4242,-6.9054],[107.4212,-6.9024],[107.4237,-6.9014],[107.4214,-6.8992],[107.4241,-6.9006],[107.4247,-6.9026],[107.429,-6.8984],[107.4275,-6.8942],[107.4289,-6.8951],[107.4301,-6.8994],[107.4264,-6.9018],[107.4258,-6.904],[107.4346,-6.9007],[107.4326,-6.8954],[107.4351,-6.8969],[107.4353,-6.8952],[107.4365,-6.8968],[107.4363,-6.8918],[107.4276,-6.8861],[107.4282,-6.8851],[107.4356,-6.8902],[107.4358,-6.8872],[107.4377,-6.8918],[107.4395,-6.8907],[107.4391,-6.8889],[107.4402,-6.8897],[107.4407,-6.8868],[107.4367,-6.8821],[107.441,-6.8846],[107.4417,-6.8887],[107.4454,-6.8874],[107.4464,-6.8841],[107.4467,-6.8878],[107.4496,-6.8881],[107.4531,-6.8836],[107.4493,-6.8782],[107.4511,-6.8762],[107.449,-6.8754],[107.451,-6.871],[107.4525,-6.879],[107.456,-6.8751],[107.4574,-6.8748],[107.4566,-6.8768],[107.4597,-6.8758],[107.4586,-6.8674],[107.4601,-6.8611],[107.4612,-6.8749],[107.4538,-6.8805],[107.4544,-6.8862],[107.4577,-6.886],[107.4579,-6.8825],[107.4589,-6.8865],[107.4619,-6.8845],[107.4612,-6.8838],[107.4613,-6.8827],[107.463,-6.8846],[107.4647,-6.8841],[107.4647,-6.8792],[107.4663,-6.8845],[107.4683,-6.8821],[107.4701,-6.8827],[107.4694,-6.8804],[107.4723,-6.8817],[107.473,-6.8786],[107.4727,-6.8827],[107.4744,-6.8836],[107.4782,-6.8775],[107.477,-6.8759],[107.4799,-6.8726],[107.4782,-6.8703],[107.477,-6.8717],[107.4734,-6.8721],[107.4735,-6.8689],[107.4713,-6.8678],[107.4732,-6.8682],[107.4747,-6.8712],[107.4768,-6.8713],[107.4784,-6.8696],[107.4768,-6.8676],[107.4765,-6.8647],[107.4806,-6.8718],[107.4813,-6.8682],[107.48,-6.8662],[107.4808,-6.8644],[107.4833,-6.8623],[107.484,-6.8625],[107.4839,-6.8616],[107.4856,-6.8599],[107.4869,-6.8608],[107.4849,-6.861],[107.4848,-6.8627],[107.4803,-6.8662],[107.4816,-6.8679],[107.4817,-6.8707],[107.4785,-6.876],[107.4824,-6.8747],[107.4838,-6.8756],[107.4792,-6.8764],[107.477,-6.882],[107.48,-6.8828],[107.4763,-6.8828],[107.4744,-6.885],[107.478,-6.8866],[107.4787,-6.8855],[107.4858,-6.8832],[107.4792,-6.8871],[107.4809,-6.8879],[107.4903,-6.8835],[107.484,-6.8884],[107.4813,-6.8889],[107.4834,-6.8911],[107.4874,-6.8878],[107.4894,-6.8877],[107.4844,-6.8913],[107.4884,-6.8942],[107.4852,-6.8941],[107.48,-6.8882],[107.476,-6.887],[107.4777,-6.8892],[107.4766,-6.8886],[107.4766,-6.8906],[107.4793,-6.8936],[107.4899,-6.8961],[107.4893,-6.8974],[107.4874,-6.897],[107.4871,-6.8989],[107.4928,-6.904],[107.4927,-6.9057],[107.4985,-6.9067],[107.4996,-6.9082],[107.4931,-6.907],[107.493,-6.9092],[107.491,-6.9038],[107.4876,-6.9023],[107.4885,-6.9005],[107.4863,-6.8998],[107.4856,-6.8966],[107.483,-6.8956],[107.4843,-6.9012],[107.4815,-6.8982],[107.4821,-6.8958],[107.4805,-6.8951],[107.48,-6.8977],[107.4789,-6.8978],[107.4791,-6.8946],[107.4779,-6.8969],[107.4781,-6.8936],[107.4764,-6.8921],[107.4742,-6.894],[107.4738,-6.8983],[107.4724,-6.8988],[107.4732,-6.8938],[107.4711,-6.8938],[107.4742,-6.8926],[107.4757,-6.8895],[107.4733,-6.8889],[107.4749,-6.8879],[107.4734,-6.8848],[107.4724,-6.8858],[107.4696,-6.884],[107.469,-6.8858],[107.4682,-6.8848],[107.4658,-6.8865],[107.4664,-6.888],[107.4654,-6.8902],[107.4648,-6.8861],[107.4617,-6.8865],[107.4606,-6.8905],[107.4597,-6.8884],[107.4566,-6.8877],[107.4509,-6.889],[107.4504,-6.8901],[107.4541,-6.892],[107.4443,-6.8893],[107.4399,-6.8922],[107.4394,-6.8955],[107.4383,-6.895],[107.4365,-6.8983],[107.4402,-6.9016],[107.4481,-6.9046],[107.4494,-6.9022],[107.4502,-6.9052],[107.4531,-6.9078],[107.4577,-6.9064],[107.4635,-6.9104],[107.4658,-6.9076],[107.4675,-6.9081],[107.4715,-6.9148],[107.4752,-6.9121],[107.4776,-6.9132],[107.4779,-6.9159],[107.4807,-6.914],[107.4837,-6.9183],[107.4828,-6.921],[107.4845,-6.9235],[107.4896,-6.9218],[107.498,-6.9286]]]}}]}