{"type":"FeatureCollection","metadata":{"parent_osm_id":"gid_IDN_11_30_8_1","parent_name":"Kraksaan","parent_name_1":"JawaTimur","parent_gid":"IDN.11.30.8_1","parent_level":"6","child_level":"7","count":18,"source":"GADM 4.1","generated":"2026-05-09"},"features":[{"type":"Feature","properties":{"name":"AlassumurKulon","name_en":"AlassumurKulon","admin_level":"7","osm_id":""},"geometry":{"type":"Polygon","coordinates":[[[113.4686,-7.7695],[113.4695,-7.7751],[113.4708,-7.7764],[113.4723,-7.7753],[113.4715,-7.7778],[113.4728,-7.7789],[113.4724,-7.7815],[113.4691,-7.7824],[113.4677,-7.7801],[113.4625,-7.7777],[113.464,-7.7715],[113.4612,-7.7718],[113.4548,-7.7664],[113.4461,-7.7638],[113.4492,-7.7565],[113.4545,-7.7528],[113.4567,-7.7576],[113.462,-7.7608],[113.4641,-7.7664],[113.4686,-7.7695]]]}},{"type":"Feature","properties":{"name":"Asembagus","name_en":"Asembagus","admin_level":"7","osm_id":""},"geometry":{"type":"Polygon","coordinates":[[[113.3929,-7.7387],[113.3975,-7.7382],[113.4022,-7.7405],[113.4063,-7.736],[113.4109,-7.7358],[113.41,-7.7417],[113.4131,-7.7446],[113.4136,-7.7484],[113.4109,-7.758],[113.4041,-7.7586],[113.402,-7.7617],[113.3966,-7.762],[113.3976,-7.753],[113.396,-7.7514],[113.3929,-7.7387]]]}},{"type":"Feature","properties":{"name":"Asembakor","name_en":"Asembakor","admin_level":"7","osm_id":""},"geometry":{"type":"Polygon","coordinates":[[[113.4488,-7.7281],[113.4509,-7.7255],[113.4546,-7.725],[113.4611,-7.7205],[113.4602,-7.7344],[113.4623,-7.7354],[113.461,-7.7356],[113.4614,-7.7371],[113.4655,-7.7342],[113.4676,-7.7433],[113.46,-7.7438],[113.4604,-7.7464],[113.4589,-7.7463],[113.4584,-7.7483],[113.454,-7.7476],[113.4505,-7.741],[113.4488,-7.7281]]]}},{"type":"Feature","properties":{"name":"Bulu","name_en":"Bulu","admin_level":"7","osm_id":""},"geometry":{"type":"Polygon","coordinates":[[[113.4122,-7.7634],[113.4191,-7.7643],[113.4191,-7.767],[113.4146,-7.7744],[113.4143,-7.7802],[113.4123,-7.7794],[113.4105,-7.7852],[113.4089,-7.786],[113.4072,-7.7819],[113.4091,-7.7809],[113.4102,-7.7774],[113.4071,-7.7758],[113.4059,-7.773],[113.4106,-7.7629],[113.4122,-7.7634]]]}},{"type":"Feature","properties":{"name":"Kalibuntu","name_en":"Kalibuntu","admin_level":"7","osm_id":""},"geometry":{"type":"Polygon","coordinates":[[[113.4109,-7.7358],[113.4096,-7.7351],[113.4169,-7.7351],[113.4156,-7.7342],[113.4168,-7.7337],[113.4295,-7.7354],[113.4296,-7.7413],[113.4166,-7.7418],[113.4177,-7.7399],[113.4167,-7.7378],[113.4109,-7.7358]]]}},{"type":"Feature","properties":{"name":"KandangjatiKulon","name_en":"KandangjatiKulon","admin_level":"7","osm_id":""},"geometry":{"type":"Polygon","coordinates":[[[113.4472,-7.7719],[113.4395,-7.7725],[113.4392,-7.7667],[113.4351,-7.7654],[113.4352,-7.7623],[113.4375,-7.7605],[113.4467,-7.7624],[113.4472,-7.7719]]]}},{"type":"Feature","properties":{"name":"KandangjatiWetan","name_en":"KandangjatiWetan","admin_level":"7","osm_id":""},"geometry":{"type":"Polygon","coordinates":[[[113.4625,-7.7777],[113.4518,-7.7761],[113.451,-7.7724],[113.4472,-7.7719],[113.4475,-7.7639],[113.4548,-7.7664],[113.4612,-7.7718],[113.464,-7.7715],[113.4625,-7.7777]]]}},{"type":"Feature","properties":{"name":"Kebonagung","name_en":"Kebonagung","admin_level":"7","osm_id":""},"geometry":{"type":"Polygon","coordinates":[[[113.4488,-7.7281],[113.4518,-7.7447],[113.4462,-7.7518],[113.4375,-7.7564],[113.4375,-7.7605],[113.4353,-7.7625],[113.4351,-7.7591],[113.4321,-7.7592],[113.4315,-7.7561],[113.4329,-7.7524],[113.4384,-7.7511],[113.4388,-7.7473],[113.4345,-7.7417],[113.4295,-7.7403],[113.4295,-7.7354],[113.4326,-7.7338],[113.4388,-7.7342],[113.4488,-7.7281]]]}},{"type":"Feature","properties":{"name":"KraksaanWetan","name_en":"KraksaanWetan","admin_level":"7","osm_id":""},"geometry":{"type":"Polygon","coordinates":[[[113.4352,-7.7623],[113.4351,-7.7654],[113.4382,-7.7667],[113.4361,-7.7684],[113.4294,-7.7672],[113.4277,-7.7659],[113.4279,-7.7636],[113.4258,-7.7647],[113.4234,-7.7568],[113.4222,-7.7568],[113.4243,-7.7535],[113.4233,-7.7531],[113.425,-7.7517],[113.4319,-7.7527],[113.4317,-7.7585],[113.4351,-7.7591],[113.4352,-7.7623]]]}},{"type":"Feature","properties":{"name":"Kregenan","name_en":"Kregenan","admin_level":"7","osm_id":""},"geometry":{"type":"Polygon","coordinates":[[[113.3869,-7.7725],[113.3886,-7.7744],[113.3942,-7.7737],[113.3922,-7.7814],[113.3862,-7.7863],[113.3792,-7.7848],[113.3869,-7.7725]]]}},{"type":"Feature","properties":{"name":"Patokan","name_en":"Patokan","admin_level":"7","osm_id":""},"geometry":{"type":"Polygon","coordinates":[[[113.4109,-7.758],[113.4136,-7.7484],[113.4131,-7.7446],[113.41,-7.7417],[113.4109,-7.7358],[113.4173,-7.7385],[113.4166,-7.7418],[113.4202,-7.7425],[113.4198,-7.7498],[113.4228,-7.7503],[113.4243,-7.7535],[113.419,-7.7643],[113.4122,-7.7634],[113.4125,-7.7614],[113.4083,-7.7615],[113.4109,-7.758]]]}},{"type":"Feature","properties":{"name":"Rangkang","name_en":"Rangkang","admin_level":"7","osm_id":""},"geometry":{"type":"Polygon","coordinates":[[[113.443,-7.7731],[113.442,-7.7773],[113.438,-7.7745],[113.4287,-7.7735],[113.4276,-7.7661],[113.4361,-7.7684],[113.4392,-7.7667],[113.4395,-7.7725],[113.443,-7.7731]]]}},{"type":"Feature","properties":{"name":"Rondokuning","name_en":"Rondokuning","admin_level":"7","osm_id":""},"geometry":{"type":"Polygon","coordinates":[[[113.3919,-7.7818],[113.3942,-7.7737],[113.3875,-7.7739],[113.387,-7.7688],[113.3892,-7.7668],[113.3896,-7.7633],[113.3942,-7.7625],[113.3935,-7.7678],[113.3961,-7.7715],[113.3992,-7.7723],[113.3993,-7.7773],[113.3983,-7.78],[113.3919,-7.7818]]]}},{"type":"Feature","properties":{"name":"Semampir","name_en":"Semampir","admin_level":"7","osm_id":""},"geometry":{"type":"Polygon","coordinates":[[[113.3966,-7.762],[113.402,-7.7617],[113.4038,-7.7587],[113.4102,-7.758],[113.4107,-7.7596],[113.4087,-7.7594],[113.4083,-7.7615],[113.4126,-7.7618],[113.4122,-7.7634],[113.4106,-7.7629],[113.4091,-7.7666],[113.4038,-7.7677],[113.3992,-7.7723],[113.3961,-7.7715],[113.3935,-7.7677],[113.3942,-7.7625],[113.3966,-7.762]]]}},{"type":"Feature","properties":{"name":"Sidomukti","name_en":"Sidomukti","admin_level":"7","osm_id":""},"geometry":{"type":"Polygon","coordinates":[[[113.4143,-7.7802],[113.4146,-7.7744],[113.4189,-7.7677],[113.421,-7.7585],[113.4231,-7.7566],[113.4256,-7.7645],[113.4281,-7.7639],[113.4286,-7.7732],[113.4234,-7.7741],[113.4165,-7.7811],[113.4143,-7.7802]]]}},{"type":"Feature","properties":{"name":"Sidopekso","name_en":"Sidopekso","admin_level":"7","osm_id":""},"geometry":{"type":"Polygon","coordinates":[[[113.4199,-7.7421],[113.4295,-7.7403],[113.4345,-7.7417],[113.4374,-7.7441],[113.4384,-7.751],[113.4323,-7.7533],[113.4257,-7.7517],[113.4233,-7.7531],[113.4228,-7.7503],[113.4198,-7.7498],[113.4199,-7.7421]]]}},{"type":"Feature","properties":{"name":"Sumberlele","name_en":"Sumberlele","admin_level":"7","osm_id":""},"geometry":{"type":"Polygon","coordinates":[[[113.4584,-7.7528],[113.4561,-7.7538],[113.4562,-7.7563],[113.4545,-7.7528],[113.4495,-7.7561],[113.4467,-7.7624],[113.4375,-7.7605],[113.4375,-7.7564],[113.4462,-7.7518],[113.4518,-7.7447],[113.454,-7.7476],[113.4589,-7.7486],[113.4584,-7.7528]]]}},{"type":"Feature","properties":{"name":"Tamansari","name_en":"Tamansari","admin_level":"7","osm_id":""},"geometry":{"type":"Polygon","coordinates":[[[113.4707,-7.7536],[113.4584,-7.7528],[113.46,-7.7438],[113.4682,-7.743],[113.4707,-7.7536]]]}}]}