{"type":"FeatureCollection","metadata":{"parent_osm_id":"gid_IDN_4_4_7_1","parent_name":"Cihara","parent_name_1":"Banten","parent_gid":"IDN.4.4.7_1","parent_level":"6","child_level":"7","count":9,"source":"GADM 4.1","generated":"2026-05-08"},"features":[{"type":"Feature","properties":{"name":"Barunai","name_en":"Barunai","admin_level":"7","osm_id":""},"geometry":{"type":"Polygon","coordinates":[[[106.1426,-6.8104],[106.1482,-6.8171],[106.1515,-6.8167],[106.1568,-6.8188],[106.1573,-6.8273],[106.1559,-6.8279],[106.1528,-6.8258],[106.1515,-6.8286],[106.145,-6.8287],[106.1411,-6.8338],[106.1411,-6.8365],[106.1342,-6.8397],[106.1345,-6.8441],[106.1314,-6.8474],[106.133,-6.8507],[106.1296,-6.8512],[106.1292,-6.8484],[106.1243,-6.8511],[106.123,-6.8456],[106.1211,-6.844],[106.1155,-6.8411],[106.1155,-6.8425],[106.1132,-6.8426],[106.1072,-6.8366],[106.1082,-6.8313],[106.1071,-6.8299],[106.1124,-6.8274],[106.1102,-6.8189],[106.1165,-6.8154],[106.1276,-6.8171],[106.1368,-6.8112],[106.1426,-6.8104]]]}},{"type":"Feature","properties":{"name":"Cihara","name_en":"Cihara","admin_level":"7","osm_id":""},"geometry":{"type":"Polygon","coordinates":[[[106.1071,-6.8299],[106.1082,-6.8313],[106.1072,-6.8366],[106.1132,-6.8426],[106.1155,-6.8425],[106.1155,-6.8411],[106.1211,-6.844],[106.123,-6.8456],[106.1243,-6.8511],[106.122,-6.8519],[106.1192,-6.8573],[106.1193,-6.8642],[106.1152,-6.8631],[106.1113,-6.8693],[106.1108,-6.8738],[106.1088,-6.8728],[106.1051,-6.8772],[106.1029,-6.8754],[106.1024,-6.8787],[106.0944,-6.8758],[106.0847,-6.8592],[106.0884,-6.8545],[106.0896,-6.8552],[106.094,-6.8524],[106.1002,-6.8385],[106.1002,-6.8328],[106.1071,-6.8299]]]}},{"type":"Feature","properties":{"name":"Ciparahu","name_en":"Ciparahu","admin_level":"7","osm_id":""},"geometry":{"type":"Polygon","coordinates":[[[106.1102,-6.8189],[106.1124,-6.8275],[106.1037,-6.8324],[106.1002,-6.8328],[106.1002,-6.8385],[106.094,-6.8524],[106.0896,-6.8552],[106.0884,-6.8545],[106.0862,-6.8586],[106.0827,-6.8584],[106.0793,-6.8559],[106.0653,-6.8421],[106.0636,-6.8361],[106.0716,-6.8366],[106.0755,-6.8327],[106.0754,-6.8294],[106.0809,-6.8271],[106.0829,-6.8241],[106.0919,-6.8229],[106.0932,-6.8146],[106.0975,-6.8169],[106.1102,-6.8189]]]}},{"type":"Feature","properties":{"name":"Citepuseun","name_en":"Citepuseun","admin_level":"7","osm_id":""},"geometry":{"type":"Polygon","coordinates":[[[106.0866,-6.7749],[106.0943,-6.7693],[106.0947,-6.767],[106.113,-6.774],[106.1111,-6.7772],[106.1117,-6.7809],[106.1058,-6.789],[106.1056,-6.7945],[106.1006,-6.8003],[106.1022,-6.8043],[106.101,-6.8084],[106.096,-6.8109],[106.0944,-6.8153],[106.0804,-6.8107],[106.0784,-6.8071],[106.0757,-6.8071],[106.0764,-6.8052],[106.0732,-6.8046],[106.0708,-6.7972],[106.0715,-6.795],[106.0784,-6.7902],[106.0819,-6.7832],[106.0819,-6.7788],[106.0866,-6.7749]]]}},{"type":"Feature","properties":{"name":"Karangkamulyan","name_en":"Karangkamulyan","admin_level":"7","osm_id":""},"geometry":{"type":"Polygon","coordinates":[[[106.1026,-6.8787],[106.1029,-6.8754],[106.1051,-6.8772],[106.1088,-6.8728],[106.1108,-6.8738],[106.1113,-6.8693],[106.1144,-6.8653],[106.121,-6.8667],[106.1302,-6.8632],[106.1316,-6.8648],[106.1354,-6.8621],[106.1484,-6.8612],[106.1508,-6.8626],[106.1531,-6.8689],[106.1538,-6.8742],[106.1516,-6.8809],[106.1466,-6.8843],[106.142,-6.8914],[106.1388,-6.8913],[106.1385,-6.8928],[106.1357,-6.8937],[106.1192,-6.8882],[106.1167,-6.886],[106.1131,-6.8864],[106.1114,-6.8841],[106.1059,-6.8829],[106.1053,-6.8802],[106.1026,-6.8787]]]}},{"type":"Feature","properties":{"name":"LebakPeundeuy","name_en":"LebakPeundeuy","admin_level":"7","osm_id":""},"geometry":{"type":"Polygon","coordinates":[[[106.1329,-6.7836],[106.1374,-6.7908],[106.1447,-6.7961],[106.1465,-6.8002],[106.1427,-6.8065],[106.1426,-6.8104],[106.1368,-6.8112],[106.1276,-6.8171],[106.1165,-6.8154],[106.1096,-6.8189],[106.0944,-6.8153],[106.096,-6.8109],[106.101,-6.8084],[106.1022,-6.8043],[106.1006,-6.8003],[106.1056,-6.7945],[106.1058,-6.789],[106.1117,-6.7809],[106.1111,-6.7772],[106.113,-6.774],[106.1194,-6.7868],[106.1195,-6.7929],[106.1212,-6.7934],[106.1238,-6.7904],[106.1259,-6.791],[106.1254,-6.7882],[106.1329,-6.7836]]]}},{"type":"Feature","properties":{"name":"Mekarsari","name_en":"Mekarsari","admin_level":"7","osm_id":""},"geometry":{"type":"Polygon","coordinates":[[[106.1579,-6.8206],[106.1595,-6.8204],[106.1618,-6.8238],[106.1847,-6.8278],[106.1826,-6.8319],[106.1827,-6.8374],[106.1793,-6.8388],[106.1782,-6.8468],[106.1742,-6.851],[106.1739,-6.8596],[106.1707,-6.8599],[106.1705,-6.8624],[106.1684,-6.8623],[106.1668,-6.865],[106.1696,-6.865],[106.1685,-6.8665],[106.1715,-6.8678],[106.17,-6.8716],[106.1709,-6.8738],[106.1673,-6.8776],[106.1693,-6.8838],[106.1644,-6.8829],[106.1618,-6.8793],[106.1563,-6.8762],[106.153,-6.8779],[106.1538,-6.8741],[106.1521,-6.8651],[106.1484,-6.8612],[106.1354,-6.8621],[106.1316,-6.8648],[106.1302,-6.8632],[106.121,-6.8667],[106.1144,-6.8653],[106.1154,-6.863],[106.1193,-6.8642],[106.1191,-6.8579],[106.1224,-6.8516],[106.1287,-6.8484],[106.1296,-6.8512],[106.133,-6.8507],[106.1314,-6.8474],[106.1345,-6.8441],[106.1342,-6.8397],[106.1411,-6.8365],[106.1411,-6.8338],[106.145,-6.8287],[106.1515,-6.8286],[106.1528,-6.8258],[106.1571,-6.8275],[106.1579,-6.8206]]]}},{"type":"Feature","properties":{"name":"Panyaungan","name_en":"Panyaungan","admin_level":"7","osm_id":""},"geometry":{"type":"Polygon","coordinates":[[[106.1357,-6.8937],[106.1385,-6.8928],[106.1388,-6.8913],[106.142,-6.8914],[106.153,-6.8779],[106.1563,-6.8762],[106.1586,-6.877],[106.1644,-6.8829],[106.1682,-6.8829],[106.169,-6.8856],[106.1705,-6.8846],[106.1733,-6.8872],[106.1723,-6.8891],[106.1746,-6.8911],[106.1711,-6.8934],[106.1718,-6.8982],[106.1699,-6.9003],[106.1699,-6.9045],[106.1718,-6.9046],[106.1722,-6.9075],[106.1716,-6.9086],[106.165,-6.9085],[106.1551,-6.9027],[106.1484,-6.9031],[106.1402,-6.8992],[106.1357,-6.8937]]]}},{"type":"Feature","properties":{"name":"Pondokpanjang","name_en":"Pondokpanjang","admin_level":"7","osm_id":""},"geometry":{"type":"Polygon","coordinates":[[[106.0944,-6.8153],[106.0928,-6.8152],[106.0919,-6.8229],[106.0831,-6.8239],[106.0809,-6.8271],[106.0754,-6.8294],[106.0754,-6.833],[106.0708,-6.8368],[106.0635,-6.8363],[106.0586,-6.8326],[106.0412,-6.8258],[106.0486,-6.8265],[106.0533,-6.8185],[106.0574,-6.8159],[106.0586,-6.8112],[106.0625,-6.8071],[106.0615,-6.7979],[106.0662,-6.7961],[106.0708,-6.7972],[106.0732,-6.8046],[106.0764,-6.8052],[106.0757,-6.8071],[106.0784,-6.8071],[106.0818,-6.8118],[106.0903,-6.8129],[106.0944,-6.8153]]]}}]}