{"type":"FeatureCollection","metadata":{"parent_osm_id":"gid_IDN_22_5_6_1","parent_name":"AitinyoUtara","parent_name_1":"PapuaBarat","parent_gid":"IDN.22.5.6_1","parent_level":"6","child_level":"7","count":10,"source":"GADM 4.1","generated":"2026-05-08"},"features":[{"type":"Feature","properties":{"name":"Asmuruf'u'","name_en":"Asmuruf'u'","admin_level":"7","osm_id":""},"geometry":{"type":"Polygon","coordinates":[[[132.3179,-1.3538],[132.317,-1.3452],[132.3569,-1.3388],[132.3617,-1.3368],[132.363,-1.3409],[132.3597,-1.3437],[132.3282,-1.3538],[132.3179,-1.3538]]]}},{"type":"Feature","properties":{"name":"Faan","name_en":"Faan","admin_level":"7","osm_id":""},"geometry":{"type":"Polygon","coordinates":[[[132.365,-1.2984],[132.3811,-1.3239],[132.3569,-1.3388],[132.317,-1.3452],[132.3164,-1.3391],[132.3403,-1.326],[132.3547,-1.3121],[132.365,-1.2984]]]}},{"type":"Feature","properties":{"name":"Fategomi","name_en":"Fategomi","admin_level":"7","osm_id":""},"geometry":{"type":"Polygon","coordinates":[[[132.3189,-1.3633],[132.3179,-1.3538],[132.3282,-1.3538],[132.3597,-1.3437],[132.363,-1.3409],[132.3643,-1.3429],[132.3631,-1.3451],[132.3254,-1.3639],[132.322,-1.3647],[132.3189,-1.3633]]]}},{"type":"Feature","properties":{"name":"Gohsames","name_en":"Gohsames","admin_level":"7","osm_id":""},"geometry":{"type":"Polygon","coordinates":[[[132.3811,-1.3239],[132.3847,-1.3301],[132.3643,-1.3429],[132.3617,-1.3367],[132.3811,-1.3239]]]}},{"type":"Feature","properties":{"name":"Ikuf","name_en":"Ikuf","admin_level":"7","osm_id":""},"geometry":{"type":"Polygon","coordinates":[[[132.3055,-1.3285],[132.3021,-1.3253],[132.3068,-1.2922],[132.3131,-1.2851],[132.3242,-1.2769],[132.3287,-1.2783],[132.3116,-1.2973],[132.3073,-1.3131],[132.3055,-1.3285]]]}},{"type":"Feature","properties":{"name":"Isir","name_en":"Isir","admin_level":"7","osm_id":""},"geometry":{"type":"Polygon","coordinates":[[[132.312,-1.3347],[132.3055,-1.3285],[132.31,-1.303],[132.3139,-1.3048],[132.312,-1.3347]]]}},{"type":"Feature","properties":{"name":"Jitmau","name_en":"Jitmau","admin_level":"7","osm_id":""},"geometry":{"type":"Polygon","coordinates":[[[132.31,-1.303],[132.3116,-1.2973],[132.3287,-1.2783],[132.3344,-1.2801],[132.3298,-1.2865],[132.3206,-1.2948],[132.3139,-1.3048],[132.31,-1.303]]]}},{"type":"Feature","properties":{"name":"JitmauTimur","name_en":"JitmauTimur","admin_level":"7","osm_id":""},"geometry":{"type":"Polygon","coordinates":[[[132.3399,-1.2826],[132.365,-1.2984],[132.3547,-1.3121],[132.3403,-1.326],[132.3164,-1.3391],[132.312,-1.3347],[132.3139,-1.3049],[132.3206,-1.2948],[132.3298,-1.2865],[132.3344,-1.2801],[132.3399,-1.2826]]]}},{"type":"Feature","properties":{"name":"Mirafan","name_en":"Mirafan","admin_level":"7","osm_id":""},"geometry":{"type":"Polygon","coordinates":[[[132.3847,-1.3301],[132.3975,-1.3521],[132.398,-1.3563],[132.3809,-1.3591],[132.3777,-1.3614],[132.3728,-1.3584],[132.3739,-1.3553],[132.3719,-1.3503],[132.3653,-1.3428],[132.3847,-1.3301]]]}},{"type":"Feature","properties":{"name":"TehakBesar","name_en":"TehakBesar","admin_level":"7","osm_id":""},"geometry":{"type":"Polygon","coordinates":[[[132.3254,-1.3639],[132.3631,-1.3451],[132.3647,-1.3422],[132.3719,-1.3503],[132.3739,-1.3553],[132.3728,-1.3584],[132.3656,-1.354],[132.3524,-1.364],[132.3446,-1.3652],[132.3375,-1.3626],[132.3254,-1.3639]]]}}]}