{"type":"FeatureCollection","metadata":{"parent_osm_id":"gid_IDN_26_23_21_1","parent_name":"Tondon","parent_name_1":"SulawesiSelatan","parent_gid":"IDN.26.23.21_1","parent_level":"6","child_level":"7","count":4,"source":"GADM 4.1","generated":"2026-05-09"},"features":[{"type":"Feature","properties":{"name":"LembangTondon","name_en":"LembangTondon","admin_level":"7","osm_id":""},"geometry":{"type":"Polygon","coordinates":[[[119.9234,-2.9681],[119.9186,-2.9658],[119.9224,-2.9601],[119.9218,-2.9545],[119.9239,-2.9504],[119.9316,-2.949],[119.9337,-2.9524],[119.9344,-2.9608],[119.9384,-2.9639],[119.9396,-2.9703],[119.9366,-2.9696],[119.9302,-2.9721],[119.9234,-2.9681]]]}},{"type":"Feature","properties":{"name":"LembangTondonLangi","name_en":"LembangTondonLangi","admin_level":"7","osm_id":""},"geometry":{"type":"Polygon","coordinates":[[[119.9483,-2.9752],[119.9396,-2.9703],[119.9384,-2.9639],[119.9344,-2.9608],[119.9334,-2.9547],[119.9413,-2.9495],[119.943,-2.9507],[119.946,-2.9498],[119.9468,-2.9518],[119.9495,-2.9519],[119.9473,-2.9563],[119.9468,-2.9624],[119.9489,-2.9683],[119.9507,-2.9689],[119.9483,-2.9752]]]}},{"type":"Feature","properties":{"name":"LembangTondonMatallo","name_en":"LembangTondonMatallo","admin_level":"7","osm_id":""},"geometry":{"type":"Polygon","coordinates":[[[119.9629,-2.9783],[119.9599,-2.9817],[119.9483,-2.9752],[119.9507,-2.9689],[119.9491,-2.9685],[119.9469,-2.9634],[119.9473,-2.9566],[119.9505,-2.9505],[119.9556,-2.9541],[119.9602,-2.9511],[119.9625,-2.9547],[119.9664,-2.9515],[119.9674,-2.952],[119.9637,-2.9716],[119.9614,-2.9752],[119.9629,-2.9783]]]}},{"type":"Feature","properties":{"name":"LembangTondonSiba'ta","name_en":"LembangTondonSiba'ta","admin_level":"7","osm_id":""},"geometry":{"type":"Polygon","coordinates":[[[119.9602,-2.9347],[119.9674,-2.9344],[119.9714,-2.9396],[119.9755,-2.9392],[119.9678,-2.9544],[119.9666,-2.9514],[119.9625,-2.9547],[119.9605,-2.9511],[119.9556,-2.9541],[119.9513,-2.9507],[119.9471,-2.9518],[119.946,-2.9498],[119.943,-2.9507],[119.9413,-2.9495],[119.9337,-2.9549],[119.9316,-2.949],[119.9239,-2.9504],[119.9251,-2.9435],[119.9313,-2.9425],[119.9342,-2.9402],[119.9408,-2.9424],[119.9406,-2.9403],[119.9439,-2.9384],[119.9467,-2.933],[119.9466,-2.9293],[119.9582,-2.932],[119.9602,-2.9347]]]}}]}