{"type":"FeatureCollection","metadata":{"parent_osm_id":"gid_IDN_1_20_4_1","parent_name":"GlumpangBaro","parent_name_1":"Aceh","parent_gid":"IDN.1.20.4_1","parent_level":"6","child_level":"7","count":21,"source":"GADM 4.1","generated":"2026-05-09"},"features":[{"type":"Feature","properties":{"name":"BaleGantung","name_en":"BaleGantung","admin_level":"7","osm_id":""},"geometry":{"type":"Polygon","coordinates":[[[96.0349,5.2885],[96.0334,5.2836],[96.0294,5.2849],[96.0316,5.2886],[96.0349,5.2885]]]}},{"type":"Feature","properties":{"name":"BlangBaroh","name_en":"BlangBaroh","admin_level":"7","osm_id":""},"geometry":{"type":"Polygon","coordinates":[[[96.0265,5.2696],[96.0234,5.2748],[96.0246,5.2801],[96.0268,5.2796],[96.0273,5.2747],[96.0295,5.2721],[96.0265,5.2696]]]}},{"type":"Feature","properties":{"name":"Geunteng","name_en":"Geunteng","admin_level":"7","osm_id":""},"geometry":{"type":"Polygon","coordinates":[[[96.0211,5.2748],[96.0199,5.2698],[96.0113,5.2734],[96.0132,5.2782],[96.0211,5.2748]]]}},{"type":"Feature","properties":{"name":"GlumpangBungkok","name_en":"GlumpangBungkok","admin_level":"7","osm_id":""},"geometry":{"type":"Polygon","coordinates":[[[96.0343,5.2855],[96.037,5.2936],[96.0398,5.2942],[96.0394,5.2916],[96.0415,5.2905],[96.0402,5.2848],[96.0343,5.2855]]]}},{"type":"Feature","properties":{"name":"JurongBaro","name_en":"JurongBaro","admin_level":"7","osm_id":""},"geometry":{"type":"Polygon","coordinates":[[[96.0234,5.2748],[96.0265,5.2696],[96.0195,5.2687],[96.0211,5.2748],[96.0234,5.2748]]]}},{"type":"Feature","properties":{"name":"KumbangUnoe","name_en":"KumbangUnoe","admin_level":"7","osm_id":""},"geometry":{"type":"Polygon","coordinates":[[[96.0349,5.2885],[96.0291,5.2897],[96.0239,5.2886],[96.0249,5.2928],[96.037,5.2936],[96.0349,5.2885]]]}},{"type":"Feature","properties":{"name":"Manyang","name_en":"Manyang","admin_level":"7","osm_id":""},"geometry":{"type":"Polygon","coordinates":[[[96.0113,5.2734],[96.0199,5.2698],[96.0177,5.2638],[96.01,5.2639],[96.0087,5.2695],[96.0113,5.2734]]]}},{"type":"Feature","properties":{"name":"MeTeumpeun","name_en":"MeTeumpeun","admin_level":"7","osm_id":""},"geometry":{"type":"Polygon","coordinates":[[[96.0268,5.2796],[96.0143,5.2832],[96.0159,5.2871],[96.0277,5.2834],[96.0268,5.2796]]]}},{"type":"Feature","properties":{"name":"MeunasahBungong","name_en":"MeunasahBungong","admin_level":"7","osm_id":""},"geometry":{"type":"Polygon","coordinates":[[[96.0487,5.2776],[96.0477,5.2759],[96.0406,5.275],[96.0426,5.2806],[96.0487,5.2776]]]}},{"type":"Feature","properties":{"name":"MeunasahDaboih","name_en":"MeunasahDaboih","admin_level":"7","osm_id":""},"geometry":{"type":"Polygon","coordinates":[[[96.0334,5.2836],[96.0343,5.2855],[96.037,5.2851],[96.0371,5.2819],[96.0339,5.282],[96.0334,5.2836]]]}},{"type":"Feature","properties":{"name":"MeunasahKumpang","name_en":"MeunasahKumpang","admin_level":"7","osm_id":""},"geometry":{"type":"Polygon","coordinates":[[[96.0415,5.2905],[96.0394,5.2916],[96.0398,5.2942],[96.0464,5.2935],[96.0415,5.2905]]]}},{"type":"Feature","properties":{"name":"MeunasahSagoe","name_en":"MeunasahSagoe","admin_level":"7","osm_id":""},"geometry":{"type":"Polygon","coordinates":[[[96.0195,5.2687],[96.0216,5.2694],[96.0232,5.2651],[96.0177,5.2638],[96.0195,5.2687]]]}},{"type":"Feature","properties":{"name":"MeunasahSangget","name_en":"MeunasahSangget","admin_level":"7","osm_id":""},"geometry":{"type":"Polygon","coordinates":[[[96.0295,5.2721],[96.0273,5.2747],[96.0273,5.2777],[96.0304,5.2793],[96.0382,5.271],[96.0345,5.2691],[96.0295,5.2721]]]}},{"type":"Feature","properties":{"name":"MeunasahSeukee","name_en":"MeunasahSeukee","admin_level":"7","osm_id":""},"geometry":{"type":"Polygon","coordinates":[[[96.0477,5.2759],[96.0469,5.2729],[96.0382,5.271],[96.0336,5.2753],[96.0345,5.2783],[96.0397,5.2746],[96.0477,5.2759]]]}},{"type":"Feature","properties":{"name":"MeunasahUkee","name_en":"MeunasahUkee","admin_level":"7","osm_id":""},"geometry":{"type":"Polygon","coordinates":[[[96.0521,5.2925],[96.0509,5.2894],[96.0488,5.2897],[96.0443,5.2857],[96.0402,5.2848],[96.0415,5.2905],[96.0464,5.2935],[96.0521,5.2925]]]}},{"type":"Feature","properties":{"name":"Palong","name_en":"Palong","admin_level":"7","osm_id":""},"geometry":{"type":"Polygon","coordinates":[[[96.0533,5.2857],[96.0512,5.2775],[96.0426,5.2806],[96.0434,5.2851],[96.0488,5.2897],[96.0509,5.2894],[96.0533,5.2857]]]}},{"type":"Feature","properties":{"name":"PuloIboih","name_en":"PuloIboih","admin_level":"7","osm_id":""},"geometry":{"type":"Polygon","coordinates":[[[96.0265,5.2696],[96.0309,5.272],[96.0345,5.2691],[96.0232,5.2651],[96.0224,5.2682],[96.0265,5.2696]]]}},{"type":"Feature","properties":{"name":"PuloPanjou","name_en":"PuloPanjou","admin_level":"7","osm_id":""},"geometry":{"type":"Polygon","coordinates":[[[96.037,5.2851],[96.0434,5.2851],[96.0397,5.2746],[96.0345,5.2783],[96.0371,5.2819],[96.037,5.2851]]]}},{"type":"Feature","properties":{"name":"Seureukui/cebrek","name_en":"Seureukui/cebrek","admin_level":"7","osm_id":""},"geometry":{"type":"Polygon","coordinates":[[[96.0294,5.2849],[96.0367,5.2813],[96.0336,5.2753],[96.0304,5.2793],[96.0268,5.2781],[96.0272,5.2827],[96.0294,5.2849]]]}},{"type":"Feature","properties":{"name":"SukonPaku","name_en":"SukonPaku","admin_level":"7","osm_id":""},"geometry":{"type":"Polygon","coordinates":[[[96.0246,5.2801],[96.0234,5.2748],[96.0132,5.2782],[96.0143,5.2832],[96.0246,5.2801]]]}},{"type":"Feature","properties":{"name":"UBungkok","name_en":"UBungkok","admin_level":"7","osm_id":""},"geometry":{"type":"Polygon","coordinates":[[[96.0316,5.2886],[96.0277,5.2834],[96.0159,5.2871],[96.018,5.2942],[96.0249,5.2928],[96.0239,5.2886],[96.0291,5.2897],[96.0316,5.2886]]]}}]}