{"type":"FeatureCollection","metadata":{"parent_osm_id":"17241445","parent_name":"Karanganyar","parent_name_1":"JawaTengah","parent_gid":"IDN.10.8.7_1","parent_level":"6","child_level":"7","count":17,"source":"GADM 4.1","generated":"2026-05-09"},"features":[{"type":"Feature","properties":{"name":"Bandungrejo","name_en":"Bandungrejo","admin_level":"7","osm_id":""},"geometry":{"type":"Polygon","coordinates":[[[110.745,-6.8427],[110.7481,-6.8384],[110.7477,-6.829],[110.7372,-6.8247],[110.7395,-6.8159],[110.7419,-6.8159],[110.7434,-6.8127],[110.7492,-6.8137],[110.7542,-6.8221],[110.7583,-6.8226],[110.7639,-6.8273],[110.7606,-6.8305],[110.7587,-6.8375],[110.7515,-6.8481],[110.745,-6.8427]]]}},{"type":"Feature","properties":{"name":"Cangkring","name_en":"Cangkring","admin_level":"7","osm_id":""},"geometry":{"type":"Polygon","coordinates":[[[110.7757,-6.8766],[110.7781,-6.8615],[110.7903,-6.8566],[110.7933,-6.8621],[110.793,-6.8648],[110.7953,-6.8664],[110.7906,-6.8756],[110.7898,-6.8812],[110.7883,-6.882],[110.7829,-6.878],[110.7757,-6.8766]]]}},{"type":"Feature","properties":{"name":"CangkringRembang","name_en":"CangkringRembang","admin_level":"7","osm_id":""},"geometry":{"type":"Polygon","coordinates":[[[110.7751,-6.8796],[110.7666,-6.8748],[110.7601,-6.866],[110.7702,-6.8639],[110.7694,-6.8509],[110.7789,-6.8494],[110.7793,-6.8543],[110.7774,-6.8564],[110.7787,-6.8635],[110.7751,-6.8796]]]}},{"type":"Feature","properties":{"name":"Jatirejo","name_en":"Jatirejo","admin_level":"7","osm_id":""},"geometry":{"type":"Polygon","coordinates":[[[110.7395,-6.8265],[110.7439,-6.8265],[110.7477,-6.829],[110.7483,-6.8359],[110.747,-6.8415],[110.7298,-6.8468],[110.7209,-6.8517],[110.7219,-6.8473],[110.7242,-6.8468],[110.7286,-6.8407],[110.7301,-6.8371],[110.7294,-6.8331],[110.7356,-6.8315],[110.7395,-6.8265]]]}},{"type":"Feature","properties":{"name":"Karanganyar","name_en":"Karanganyar","admin_level":"7","osm_id":""},"geometry":{"type":"Polygon","coordinates":[[[110.7823,-6.85],[110.7837,-6.8474],[110.7891,-6.8476],[110.7906,-6.8448],[110.7934,-6.8447],[110.7998,-6.8383],[110.807,-6.8362],[110.81,-6.837],[110.8117,-6.8354],[110.8131,-6.8357],[110.8151,-6.8421],[110.8175,-6.8445],[110.8123,-6.8478],[110.8104,-6.8514],[110.8065,-6.853],[110.8015,-6.8516],[110.7962,-6.8538],[110.7947,-6.851],[110.7862,-6.8524],[110.7823,-6.85]]]}},{"type":"Feature","properties":{"name":"KedungwaruKidul","name_en":"KedungwaruKidul","admin_level":"7","osm_id":""},"geometry":{"type":"Polygon","coordinates":[[[110.7789,-6.8494],[110.7763,-6.8505],[110.7768,-6.8453],[110.7743,-6.8377],[110.7833,-6.8251],[110.7836,-6.8206],[110.7901,-6.8174],[110.7927,-6.8205],[110.793,-6.824],[110.7992,-6.832],[110.7998,-6.8387],[110.7934,-6.8447],[110.7906,-6.8448],[110.7878,-6.8483],[110.7851,-6.8471],[110.7826,-6.8481],[110.7823,-6.85],[110.7804,-6.8483],[110.7789,-6.8494]]]}},{"type":"Feature","properties":{"name":"KedungwaruLor","name_en":"KedungwaruLor","admin_level":"7","osm_id":""},"geometry":{"type":"Polygon","coordinates":[[[110.756,-6.8425],[110.7606,-6.8305],[110.7784,-6.815],[110.7791,-6.8126],[110.7838,-6.81],[110.7866,-6.8155],[110.7903,-6.8172],[110.7836,-6.8206],[110.7833,-6.8251],[110.7743,-6.8377],[110.7768,-6.8453],[110.7763,-6.8505],[110.7735,-6.8495],[110.769,-6.8509],[110.7614,-6.8437],[110.756,-6.8425]]]}},{"type":"Feature","properties":{"name":"Ketanjung","name_en":"Ketanjung","admin_level":"7","osm_id":""},"geometry":{"type":"Polygon","coordinates":[[[110.8105,-6.8512],[110.8123,-6.8478],[110.8175,-6.8445],[110.8208,-6.8497],[110.8255,-6.849],[110.8318,-6.8443],[110.8343,-6.8471],[110.839,-6.8473],[110.8374,-6.855],[110.833,-6.8564],[110.8327,-6.8598],[110.8257,-6.861],[110.8245,-6.8632],[110.8261,-6.8664],[110.8207,-6.8686],[110.8166,-6.8639],[110.8101,-6.8611],[110.8128,-6.857],[110.8179,-6.8544],[110.8105,-6.8512]]]}},{"type":"Feature","properties":{"name":"Kotakan","name_en":"Kotakan","admin_level":"7","osm_id":""},"geometry":{"type":"Polygon","coordinates":[[[110.752,-6.8186],[110.7492,-6.8137],[110.7434,-6.8127],[110.7451,-6.8072],[110.7404,-6.8066],[110.7399,-6.8052],[110.7415,-6.8017],[110.7548,-6.8049],[110.7597,-6.7985],[110.7568,-6.7966],[110.7585,-6.7912],[110.7699,-6.8016],[110.7796,-6.8031],[110.7752,-6.8057],[110.7744,-6.811],[110.7709,-6.8135],[110.752,-6.8186]]]}},{"type":"Feature","properties":{"name":"Ngaluran","name_en":"Ngaluran","admin_level":"7","osm_id":""},"geometry":{"type":"Polygon","coordinates":[[[110.719,-6.8725],[110.7188,-6.8684],[110.7157,-6.8684],[110.7146,-6.8659],[110.721,-6.8544],[110.7209,-6.8517],[110.7249,-6.8488],[110.7444,-6.8423],[110.7515,-6.8481],[110.7467,-6.855],[110.7419,-6.8574],[110.7363,-6.8666],[110.7359,-6.8699],[110.719,-6.8725]]]}},{"type":"Feature","properties":{"name":"NgemplikWetan","name_en":"NgemplikWetan","admin_level":"7","osm_id":""},"geometry":{"type":"Polygon","coordinates":[[[110.7933,-6.8705],[110.7953,-6.8664],[110.7986,-6.8667],[110.8047,-6.861],[110.8049,-6.8577],[110.8001,-6.8521],[110.8051,-6.8532],[110.8105,-6.8512],[110.8178,-6.8538],[110.8114,-6.8584],[110.8048,-6.8716],[110.8026,-6.8719],[110.8008,-6.8747],[110.7933,-6.8705]]]}},{"type":"Feature","properties":{"name":"TuguLor","name_en":"TuguLor","admin_level":"7","osm_id":""},"geometry":{"type":"Polygon","coordinates":[[[110.7637,-6.827],[110.7583,-6.8226],[110.7542,-6.8221],[110.752,-6.8186],[110.7709,-6.8135],[110.7744,-6.811],[110.7752,-6.8057],[110.78,-6.8035],[110.7834,-6.8069],[110.7839,-6.8099],[110.7791,-6.8126],[110.7784,-6.815],[110.7637,-6.827]]]}},{"type":"Feature","properties":{"name":"Tuwang","name_en":"Tuwang","admin_level":"7","osm_id":""},"geometry":{"type":"Polygon","coordinates":[[[110.7872,-6.8867],[110.787,-6.8854],[110.7751,-6.8796],[110.7757,-6.8766],[110.7829,-6.878],[110.7889,-6.8819],[110.7933,-6.8705],[110.8008,-6.8747],[110.7989,-6.8793],[110.7933,-6.884],[110.7922,-6.889],[110.7905,-6.8905],[110.7872,-6.8867]]]}},{"type":"Feature","properties":{"name":"UndaanKidul","name_en":"UndaanKidul","admin_level":"7","osm_id":""},"geometry":{"type":"Polygon","coordinates":[[[110.8014,-6.8988],[110.7992,-6.8939],[110.7905,-6.8905],[110.7942,-6.8827],[110.8005,-6.8764],[110.8092,-6.88],[110.8078,-6.8866],[110.8085,-6.8919],[110.8014,-6.8988]]]}},{"type":"Feature","properties":{"name":"UndaanLor","name_en":"UndaanLor","admin_level":"7","osm_id":""},"geometry":{"type":"Polygon","coordinates":[[[110.8101,-6.8611],[110.8166,-6.8639],[110.8207,-6.8686],[110.8146,-6.874],[110.8138,-6.8774],[110.8092,-6.88],[110.8005,-6.8764],[110.8022,-6.8724],[110.8048,-6.8716],[110.8101,-6.8611]]]}},{"type":"Feature","properties":{"name":"Wonoketingal","name_en":"Wonoketingal","admin_level":"7","osm_id":""},"geometry":{"type":"Polygon","coordinates":[[[110.7457,-6.8682],[110.7359,-6.8699],[110.7363,-6.8666],[110.7419,-6.8574],[110.7467,-6.855],[110.7559,-6.8425],[110.7594,-6.8427],[110.7662,-6.8471],[110.7694,-6.8509],[110.7702,-6.8639],[110.7457,-6.8682]]]}},{"type":"Feature","properties":{"name":"Wonorejo","name_en":"Wonorejo","admin_level":"7","osm_id":""},"geometry":{"type":"Polygon","coordinates":[[[110.7781,-6.8615],[110.7774,-6.8564],[110.7792,-6.8548],[110.7798,-6.8484],[110.7842,-6.8522],[110.7947,-6.851],[110.7962,-6.8538],[110.8001,-6.8521],[110.8049,-6.8577],[110.8034,-6.8626],[110.7963,-6.8672],[110.793,-6.8648],[110.7933,-6.8621],[110.7903,-6.8566],[110.7781,-6.8615]]]}}]}