{"type":"FeatureCollection","metadata":{"parent_osm_id":"gid_IDN_31_11_1_1","parent_name":"BelitangIi","parent_name_1":"SumateraSelatan","parent_gid":"IDN.31.11.1_1","parent_level":"6","child_level":"7","count":24,"source":"GADM 4.1","generated":"2026-05-08"},"features":[{"type":"Feature","properties":{"name":"BangunRejo","name_en":"BangunRejo","admin_level":"7","osm_id":""},"geometry":{"type":"Polygon","coordinates":[[[104.7815,-4.0242],[104.7944,-4.0212],[104.8035,-4.0494],[104.8008,-4.0525],[104.7821,-4.0592],[104.7652,-4.0589],[104.7652,-4.0557],[104.7616,-4.0531],[104.7616,-4.0509],[104.7644,-4.0492],[104.765,-4.0377],[104.7689,-4.0306],[104.7793,-4.0306],[104.783,-4.0259],[104.7815,-4.0242]]]}},{"type":"Feature","properties":{"name":"BatuMas","name_en":"BatuMas","admin_level":"7","osm_id":""},"geometry":{"type":"Polygon","coordinates":[[[104.8075,-3.9951],[104.8092,-4.0171],[104.7971,-4.0193],[104.7981,-4.0078],[104.7962,-3.996],[104.8075,-3.9951]]]}},{"type":"Feature","properties":{"name":"DarmaBuana","name_en":"DarmaBuana","admin_level":"7","osm_id":""},"geometry":{"type":"Polygon","coordinates":[[[104.8209,-4.002],[104.8195,-3.9932],[104.8212,-3.9876],[104.8233,-3.9884],[104.8269,-3.9865],[104.8306,-3.9876],[104.8333,-3.9858],[104.8378,-3.9945],[104.8357,-4.0006],[104.8394,-4.0049],[104.8439,-4.0062],[104.8413,-4.011],[104.823,-4.0151],[104.8209,-4.002]]]}},{"type":"Feature","properties":{"name":"KarangJaya","name_en":"KarangJaya","admin_level":"7","osm_id":""},"geometry":{"type":"Polygon","coordinates":[[[104.8086,-4.0043],[104.8075,-3.9951],[104.8144,-3.9926],[104.8196,-3.9934],[104.8209,-4.002],[104.8086,-4.0043]]]}},{"type":"Feature","properties":{"name":"KarangManik","name_en":"KarangManik","admin_level":"7","osm_id":""},"geometry":{"type":"Polygon","coordinates":[[[104.8568,-4.0365],[104.8555,-4.0367],[104.8554,-4.0419],[104.8529,-4.0433],[104.8536,-4.0468],[104.8503,-4.0493],[104.8483,-4.0547],[104.8397,-4.0547],[104.8364,-4.052],[104.8332,-4.0516],[104.8244,-4.0449],[104.816,-4.0147],[104.8213,-4.0155],[104.839,-4.0118],[104.8512,-4.0234],[104.8568,-4.0365]]]}},{"type":"Feature","properties":{"name":"KeliRejo","name_en":"KeliRejo","admin_level":"7","osm_id":""},"geometry":{"type":"Polygon","coordinates":[[[104.8378,-3.9945],[104.8319,-3.982],[104.8305,-3.9579],[104.8341,-3.9593],[104.8367,-3.9661],[104.8382,-3.9668],[104.849,-3.9626],[104.858,-3.972],[104.8378,-3.9945]]]}},{"type":"Feature","properties":{"name":"KemuningJaya","name_en":"KemuningJaya","admin_level":"7","osm_id":""},"geometry":{"type":"Polygon","coordinates":[[[104.7944,-4.0212],[104.7815,-4.0242],[104.7748,-4.0166],[104.7719,-4.0162],[104.7814,-4.0125],[104.7867,-4.0054],[104.7876,-4.0004],[104.791,-3.998],[104.7908,-3.9954],[104.7962,-3.996],[104.798,-4.0042],[104.7969,-4.0185],[104.7944,-4.0212]]]}},{"type":"Feature","properties":{"name":"MargoMulyo","name_en":"MargoMulyo","admin_level":"7","osm_id":""},"geometry":{"type":"Polygon","coordinates":[[[104.8445,-4.0557],[104.8329,-4.0615],[104.8276,-4.0708],[104.8231,-4.0723],[104.8194,-4.0716],[104.8154,-4.0741],[104.8119,-4.0694],[104.8158,-4.0499],[104.8165,-4.0482],[104.8202,-4.0472],[104.8207,-4.0451],[104.8244,-4.0447],[104.8332,-4.0516],[104.8445,-4.0557]]]}},{"type":"Feature","properties":{"name":"Purworejo","name_en":"Purworejo","admin_level":"7","osm_id":""},"geometry":{"type":"Polygon","coordinates":[[[104.9204,-3.9827],[104.9198,-3.9885],[104.9162,-3.9926],[104.9177,-3.9946],[104.9137,-4.0052],[104.9093,-4.0095],[104.9078,-4.0092],[104.9083,-4.0113],[104.8941,-4.0126],[104.891,-4.0159],[104.8846,-4.0111],[104.8846,-4.0069],[104.8889,-4.0062],[104.8932,-4.0021],[104.8948,-3.9976],[104.8911,-3.9922],[104.8888,-3.9851],[104.9028,-3.9664],[104.9033,-3.9684],[104.9105,-3.9736],[104.9122,-3.9774],[104.9204,-3.9827]]]}},{"type":"Feature","properties":{"name":"Purwosari","name_en":"Purwosari","admin_level":"7","osm_id":""},"geometry":{"type":"Polygon","coordinates":[[[104.7652,-4.0589],[104.7821,-4.0592],[104.8008,-4.0525],[104.8035,-4.0494],[104.8008,-4.0386],[104.8081,-4.0362],[104.8098,-4.042],[104.8153,-4.042],[104.8165,-4.0482],[104.8133,-4.0579],[104.8134,-4.067],[104.8103,-4.072],[104.8003,-4.0748],[104.7981,-4.077],[104.7976,-4.0796],[104.785,-4.0938],[104.7804,-4.104],[104.7742,-4.1075],[104.7718,-4.1111],[104.763,-4.1073],[104.7515,-4.0893],[104.7481,-4.0795],[104.7477,-4.0692],[104.7435,-4.0558],[104.7393,-4.0491],[104.7411,-4.0512],[104.7455,-4.0512],[104.747,-4.0565],[104.7492,-4.0588],[104.7652,-4.0589]]]}},{"type":"Feature","properties":{"name":"RamanJaya","name_en":"RamanJaya","admin_level":"7","osm_id":""},"geometry":{"type":"Polygon","coordinates":[[[104.8098,-4.0143],[104.8086,-4.0043],[104.8209,-4.002],[104.823,-4.0151],[104.8098,-4.0143]]]}},{"type":"Feature","properties":{"name":"RejoMulya","name_en":"RejoMulya","admin_level":"7","osm_id":""},"geometry":{"type":"Polygon","coordinates":[[[104.9177,-3.9476],[104.9197,-3.9488],[104.9249,-3.9457],[104.9261,-3.9474],[104.9275,-3.9462],[104.9305,-3.95],[104.9256,-3.9573],[104.9288,-3.9616],[104.9245,-3.971],[104.9264,-3.9754],[104.9216,-3.978],[104.9204,-3.9827],[104.9122,-3.9774],[104.9105,-3.9736],[104.9033,-3.9684],[104.9022,-3.9658],[104.9059,-3.9615],[104.912,-3.9457],[104.9177,-3.9476]]]}},{"type":"Feature","properties":{"name":"SriBantolo","name_en":"SriBantolo","admin_level":"7","osm_id":""},"geometry":{"type":"Polygon","coordinates":[[[104.8063,-4.111],[104.8047,-4.1202],[104.795,-4.1259],[104.7919,-4.1241],[104.787,-4.1241],[104.7782,-4.1187],[104.7771,-4.1143],[104.7718,-4.1111],[104.7742,-4.1075],[104.7804,-4.104],[104.785,-4.0938],[104.7957,-4.0808],[104.8001,-4.0846],[104.8042,-4.0846],[104.8145,-4.1035],[104.8158,-4.1073],[104.8063,-4.111]]]}},{"type":"Feature","properties":{"name":"Srijaya","name_en":"Srijaya","admin_level":"7","osm_id":""},"geometry":{"type":"Polygon","coordinates":[[[104.7908,-3.9954],[104.791,-3.998],[104.7876,-4.0004],[104.7868,-4.0049],[104.7747,-4.0021],[104.7614,-4.0017],[104.7682,-3.9965],[104.7738,-3.9853],[104.7792,-3.9809],[104.7834,-3.9802],[104.7848,-3.9892],[104.7908,-3.9954]]]}},{"type":"Feature","properties":{"name":"SukaJaya","name_en":"SukaJaya","admin_level":"7","osm_id":""},"geometry":{"type":"Polygon","coordinates":[[[104.8008,-4.0386],[104.7944,-4.0212],[104.7969,-4.0185],[104.7983,-4.0195],[104.8092,-4.0171],[104.8098,-4.0143],[104.8149,-4.0146],[104.8244,-4.0447],[104.8207,-4.0451],[104.8202,-4.0472],[104.8161,-4.0482],[104.8153,-4.042],[104.8098,-4.042],[104.8081,-4.0362],[104.8008,-4.0386]]]}},{"type":"Feature","properties":{"name":"SumberHarapan","name_en":"SumberHarapan","admin_level":"7","osm_id":""},"geometry":{"type":"Polygon","coordinates":[[[104.8439,-4.0062],[104.8394,-4.0049],[104.8357,-4.0006],[104.8369,-3.9955],[104.858,-3.972],[104.8658,-3.9805],[104.8828,-3.9862],[104.8888,-3.9851],[104.8911,-3.9922],[104.8948,-3.9962],[104.8932,-4.0021],[104.8889,-4.0062],[104.8771,-4.0083],[104.8591,-4.0058],[104.8439,-4.0062]]]}},{"type":"Feature","properties":{"name":"SumberJaya","name_en":"SumberJaya","admin_level":"7","osm_id":""},"geometry":{"type":"Polygon","coordinates":[[[104.8333,-3.9858],[104.8306,-3.9876],[104.8269,-3.9865],[104.8233,-3.9884],[104.8212,-3.9876],[104.8196,-3.9934],[104.8144,-3.9926],[104.8086,-3.9946],[104.8065,-3.9744],[104.8185,-3.9736],[104.8241,-3.9612],[104.8305,-3.9579],[104.8298,-3.9629],[104.8333,-3.9858]]]}},{"type":"Feature","properties":{"name":"SumberRahayu","name_en":"SumberRahayu","admin_level":"7","osm_id":""},"geometry":{"type":"Polygon","coordinates":[[[104.8276,-4.0708],[104.832,-4.0758],[104.8302,-4.0781],[104.8333,-4.0852],[104.8324,-4.0906],[104.8345,-4.0941],[104.8333,-4.094],[104.8341,-4.0995],[104.8235,-4.1081],[104.8157,-4.107],[104.8042,-4.0846],[104.8001,-4.0846],[104.7957,-4.0808],[104.8003,-4.0748],[104.8071,-4.0735],[104.8119,-4.0694],[104.8154,-4.0741],[104.8194,-4.0716],[104.8231,-4.0723],[104.8276,-4.0708]]]}},{"type":"Feature","properties":{"name":"SumberRejo","name_en":"SumberRejo","admin_level":"7","osm_id":""},"geometry":{"type":"Polygon","coordinates":[[[104.8614,-3.9584],[104.8632,-3.9604],[104.8699,-3.9623],[104.872,-3.9601],[104.8747,-3.9603],[104.8735,-3.9585],[104.8755,-3.9588],[104.8775,-3.9552],[104.8795,-3.9554],[104.8804,-3.9536],[104.8848,-3.9575],[104.8868,-3.9569],[104.8918,-3.9639],[104.9009,-3.9649],[104.9028,-3.9664],[104.8889,-3.985],[104.8828,-3.9862],[104.8658,-3.9805],[104.849,-3.9626],[104.8614,-3.9584]]]}},{"type":"Feature","properties":{"name":"SumberSari","name_en":"SumberSari","admin_level":"7","osm_id":""},"geometry":{"type":"Polygon","coordinates":[[[104.8713,-4.026],[104.869,-4.0307],[104.8647,-4.0319],[104.8626,-4.0343],[104.8617,-4.0336],[104.8607,-4.0359],[104.8568,-4.0365],[104.8512,-4.0234],[104.8388,-4.0116],[104.8413,-4.011],[104.8439,-4.0062],[104.8624,-4.0063],[104.8618,-4.0081],[104.8661,-4.0129],[104.8643,-4.0145],[104.8644,-4.0205],[104.8681,-4.0248],[104.8713,-4.026]]]}},{"type":"Feature","properties":{"name":"TanjungKemuning","name_en":"TanjungKemuning","admin_level":"7","osm_id":""},"geometry":{"type":"Polygon","coordinates":[[[104.7868,-4.0049],[104.7814,-4.0125],[104.7719,-4.0162],[104.7582,-4.0104],[104.7617,-4.0026],[104.7747,-4.0021],[104.7868,-4.0049]]]}},{"type":"Feature","properties":{"name":"TegalBesar","name_en":"TegalBesar","admin_level":"7","osm_id":""},"geometry":{"type":"Polygon","coordinates":[[[104.8894,-4.0157],[104.8801,-4.0209],[104.8754,-4.0213],[104.8713,-4.026],[104.8681,-4.0248],[104.8644,-4.0205],[104.8643,-4.0145],[104.8661,-4.0129],[104.8618,-4.0081],[104.8624,-4.0063],[104.8771,-4.0083],[104.8846,-4.0069],[104.8846,-4.0111],[104.8894,-4.0157]]]}},{"type":"Feature","properties":{"name":"TegalSari","name_en":"TegalSari","admin_level":"7","osm_id":""},"geometry":{"type":"Polygon","coordinates":[[[104.8075,-3.9951],[104.79,-3.9953],[104.7876,-3.9907],[104.7848,-3.9892],[104.7834,-3.9802],[104.7935,-3.9809],[104.7986,-3.9785],[104.8015,-3.9751],[104.8065,-3.9744],[104.8086,-3.994],[104.8075,-3.9951]]]}},{"type":"Feature","properties":{"name":"TotoRejo","name_en":"TotoRejo","admin_level":"7","osm_id":""},"geometry":{"type":"Polygon","coordinates":[[[104.8804,-3.9536],[104.8868,-3.947],[104.8925,-3.9437],[104.8932,-3.9452],[104.8967,-3.9449],[104.9,-3.9421],[104.9013,-3.9451],[104.9039,-3.9444],[104.9063,-3.948],[104.912,-3.9457],[104.9059,-3.9615],[104.9022,-3.9658],[104.8918,-3.9639],[104.8868,-3.9569],[104.8848,-3.9575],[104.8804,-3.9536]]]}}]}