{"type":"FeatureCollection","metadata":{"parent_osm_id":"gid_IDN_32_31_3_1","parent_name":"BarusUtara","parent_name_1":"SumateraUtara","parent_gid":"IDN.32.31.3_1","parent_level":"6","child_level":"7","count":6,"source":"GADM 4.1","generated":"2026-05-08"},"features":[{"type":"Feature","properties":{"name":"HutaGinjang","name_en":"HutaGinjang","admin_level":"7","osm_id":""},"geometry":{"type":"Polygon","coordinates":[[[98.416,2.061],[98.4208,2.058],[98.4204,2.0461],[98.4108,2.0436],[98.4039,2.0452],[98.4042,2.054],[98.4076,2.0526],[98.4127,2.0561],[98.416,2.061]]]}},{"type":"Feature","properties":{"name":"Pananggahan","name_en":"Pananggahan","admin_level":"7","osm_id":""},"geometry":{"type":"Polygon","coordinates":[[[98.4072,2.0382],[98.4156,2.0388],[98.4256,2.0409],[98.4199,2.0305],[98.4088,2.03],[98.404,2.0378],[98.4072,2.0382]]]}},{"type":"Feature","properties":{"name":"Pariksinomba","name_en":"Pariksinomba","admin_level":"7","osm_id":""},"geometry":{"type":"Polygon","coordinates":[[[98.4047,2.0653],[98.4103,2.0654],[98.4133,2.0671],[98.4144,2.0624],[98.4093,2.0606],[98.402,2.0627],[98.4047,2.0653]]]}},{"type":"Feature","properties":{"name":"Purbatua","name_en":"Purbatua","admin_level":"7","osm_id":""},"geometry":{"type":"Polygon","coordinates":[[[98.4635,2.0894],[98.4808,2.0854],[98.4764,2.0783],[98.4683,2.0719],[98.4497,2.062],[98.4373,2.0461],[98.4259,2.0455],[98.4178,2.043],[98.4177,2.0448],[98.4209,2.0474],[98.4208,2.058],[98.416,2.061],[98.4133,2.0671],[98.435,2.0728],[98.4477,2.0781],[98.4595,2.0849],[98.4635,2.0894]]]}},{"type":"Feature","properties":{"name":"Siharbangan","name_en":"Siharbangan","admin_level":"7","osm_id":""},"geometry":{"type":"Polygon","coordinates":[[[98.4069,2.0436],[98.4177,2.0448],[98.4178,2.043],[98.4236,2.045],[98.4256,2.0409],[98.4072,2.0382],[98.4069,2.0436]]]}},{"type":"Feature","properties":{"name":"Sihorbo","name_en":"Sihorbo","admin_level":"7","osm_id":""},"geometry":{"type":"Polygon","coordinates":[[[98.3958,2.0543],[98.3982,2.0597],[98.402,2.0627],[98.4093,2.0606],[98.4144,2.0624],[98.4147,2.0641],[98.416,2.061],[98.4127,2.0561],[98.4076,2.0526],[98.4042,2.054],[98.4039,2.0452],[98.3958,2.0543]]]}}]}