{"type":"FeatureCollection","metadata":{"parent_osm_id":"gid_IDN_5_4_7_1","parent_name":"SungaiSerut","parent_name_1":"Bengkulu","parent_gid":"IDN.5.4.7_1","parent_level":"6","child_level":"7","count":7,"source":"GADM 4.1","generated":"2026-05-08"},"features":[{"type":"Feature","properties":{"name":"KampungKelawi","name_en":"KampungKelawi","admin_level":"7","osm_id":""},"geometry":{"type":"Polygon","coordinates":[[[102.2658,-3.7782],[102.2694,-3.7767],[102.2701,-3.7795],[102.2726,-3.7813],[102.267,-3.7828],[102.2655,-3.7888],[102.2644,-3.7809],[102.2658,-3.7782]]]}},{"type":"Feature","properties":{"name":"PasarBengkulu","name_en":"PasarBengkulu","admin_level":"7","osm_id":""},"geometry":{"type":"Polygon","coordinates":[[[102.262,-3.7664],[102.268,-3.766],[102.2634,-3.7682],[102.2658,-3.7782],[102.2635,-3.7822],[102.2608,-3.7805],[102.2625,-3.7749],[102.262,-3.7664]]]}},{"type":"Feature","properties":{"name":"Semarang","name_en":"Semarang","admin_level":"7","osm_id":""},"geometry":{"type":"Polygon","coordinates":[[[102.2973,-3.796],[102.2882,-3.792],[102.2908,-3.7875],[102.2929,-3.7875],[102.2911,-3.7823],[102.2929,-3.7803],[102.2945,-3.7818],[102.2986,-3.7798],[102.3023,-3.7826],[102.3033,-3.7864],[102.3069,-3.7859],[102.3077,-3.7868],[102.3035,-3.7933],[102.301,-3.7929],[102.2973,-3.796]]]}},{"type":"Feature","properties":{"name":"SukaMerindu","name_en":"SukaMerindu","admin_level":"7","osm_id":""},"geometry":{"type":"Polygon","coordinates":[[[102.2726,-3.7813],[102.2743,-3.7849],[102.269,-3.7918],[102.2657,-3.7888],[102.2669,-3.7829],[102.2726,-3.7813]]]}},{"type":"Feature","properties":{"name":"Surabaya","name_en":"Surabaya","admin_level":"7","osm_id":""},"geometry":{"type":"Polygon","coordinates":[[[102.34,-3.7831],[102.3501,-3.7966],[102.3453,-3.7992],[102.3392,-3.8061],[102.3385,-3.8022],[102.3312,-3.8096],[102.3276,-3.8106],[102.3172,-3.8038],[102.3123,-3.8026],[102.3089,-3.7984],[102.3038,-3.7993],[102.2973,-3.796],[102.301,-3.7929],[102.3035,-3.7933],[102.3074,-3.7885],[102.3069,-3.7859],[102.312,-3.7842],[102.3122,-3.7858],[102.3103,-3.7866],[102.3142,-3.7878],[102.3146,-3.7834],[102.3203,-3.7849],[102.3202,-3.7791],[102.3226,-3.7722],[102.3272,-3.767],[102.3337,-3.7649],[102.34,-3.7831]]]}},{"type":"Feature","properties":{"name":"TanjungAgung","name_en":"TanjungAgung","admin_level":"7","osm_id":""},"geometry":{"type":"Polygon","coordinates":[[[102.2746,-3.7835],[102.2807,-3.7818],[102.2842,-3.7819],[102.2834,-3.7854],[102.2823,-3.7842],[102.2818,-3.7858],[102.2729,-3.788],[102.2746,-3.7835]]]}},{"type":"Feature","properties":{"name":"TanjungJaya","name_en":"TanjungJaya","admin_level":"7","osm_id":""},"geometry":{"type":"Polygon","coordinates":[[[102.2894,-3.7827],[102.2911,-3.7823],[102.2929,-3.7875],[102.2908,-3.7875],[102.2882,-3.792],[102.2876,-3.7892],[102.283,-3.7856],[102.2842,-3.7819],[102.2894,-3.7827]]]}}]}