{"type":"FeatureCollection","metadata":{"parent_osm_id":"gid_IDN_9_23_19_1","parent_name":"Pagaden","parent_name_1":"JawaBarat","parent_gid":"IDN.9.23.19_1","parent_level":"6","child_level":"7","count":10,"source":"GADM 4.1","generated":"2026-05-08"},"features":[{"type":"Feature","properties":{"name":"Gambarsari","name_en":"Gambarsari","admin_level":"7","osm_id":""},"geometry":{"type":"Polygon","coordinates":[[[107.7903,-6.4269],[107.7975,-6.4251],[107.8012,-6.4216],[107.8021,-6.4261],[107.7998,-6.4316],[107.8009,-6.4377],[107.7993,-6.439],[107.8004,-6.4404],[107.795,-6.4431],[107.7947,-6.4507],[107.7921,-6.4548],[107.7937,-6.4588],[107.7841,-6.4556],[107.7825,-6.4515],[107.7807,-6.4511],[107.7799,-6.4544],[107.7769,-6.4539],[107.7775,-6.4511],[107.781,-6.4503],[107.7819,-6.4481],[107.7788,-6.4471],[107.7851,-6.4441],[107.7877,-6.4295],[107.7903,-6.4269]]]}},{"type":"Feature","properties":{"name":"Gembor","name_en":"Gembor","admin_level":"7","osm_id":""},"geometry":{"type":"Polygon","coordinates":[[[107.8045,-6.5322],[107.8016,-6.5291],[107.8052,-6.5212],[107.8051,-6.5186],[107.8033,-6.5178],[107.805,-6.5148],[107.8023,-6.5131],[107.8065,-6.5083],[107.8094,-6.5009],[107.8126,-6.5007],[107.8304,-6.5078],[107.8303,-6.5113],[107.8278,-6.514],[107.8289,-6.5206],[107.8269,-6.5294],[107.8193,-6.5314],[107.8178,-6.5332],[107.8147,-6.5327],[107.8176,-6.5347],[107.8136,-6.5358],[107.8099,-6.536],[107.8105,-6.5339],[107.8085,-6.5346],[107.8045,-6.5322]]]}},{"type":"Feature","properties":{"name":"Gunungsari","name_en":"Gunungsari","admin_level":"7","osm_id":""},"geometry":{"type":"Polygon","coordinates":[[[107.813,-6.4917],[107.8121,-6.5009],[107.8094,-6.5009],[107.8054,-6.5097],[107.8025,-6.5108],[107.8011,-6.5086],[107.797,-6.5088],[107.7938,-6.5059],[107.7958,-6.4981],[107.7921,-6.4962],[107.7938,-6.4904],[107.8024,-6.4884],[107.8042,-6.4865],[107.809,-6.4916],[107.813,-6.4917]]]}},{"type":"Feature","properties":{"name":"Gunungsembung","name_en":"Gunungsembung","admin_level":"7","osm_id":""},"geometry":{"type":"Polygon","coordinates":[[[107.7864,-6.4957],[107.7882,-6.4962],[107.7898,-6.4927],[107.7928,-6.4921],[107.7923,-6.4968],[107.7958,-6.4981],[107.7938,-6.5059],[107.797,-6.5088],[107.8011,-6.5086],[107.8025,-6.5108],[107.8054,-6.5097],[107.8023,-6.5131],[107.805,-6.5148],[107.8033,-6.5178],[107.8052,-6.5187],[107.8049,-6.5243],[107.8029,-6.5256],[107.7948,-6.5217],[107.7906,-6.5172],[107.7833,-6.5147],[107.7835,-6.51],[107.7885,-6.5051],[107.7864,-6.4957]]]}},{"type":"Feature","properties":{"name":"Jabong","name_en":"Jabong","admin_level":"7","osm_id":""},"geometry":{"type":"Polygon","coordinates":[[[107.8025,-6.5306],[107.7878,-6.5311],[107.7823,-6.5285],[107.7838,-6.524],[107.774,-6.5223],[107.7689,-6.5272],[107.7611,-6.5271],[107.758,-6.5135],[107.7593,-6.512],[107.7619,-6.5131],[107.7699,-6.5112],[107.7765,-6.5119],[107.7905,-6.5171],[107.7948,-6.5217],[107.8029,-6.5256],[107.8025,-6.5306]]]}},{"type":"Feature","properties":{"name":"Kamarung","name_en":"Kamarung","admin_level":"7","osm_id":""},"geometry":{"type":"Polygon","coordinates":[[[107.8183,-6.4458],[107.8259,-6.447],[107.829,-6.4508],[107.8286,-6.453],[107.8237,-6.4565],[107.8165,-6.4565],[107.8163,-6.4583],[107.8191,-6.4598],[107.8187,-6.4652],[107.8175,-6.4637],[107.811,-6.4648],[107.8091,-6.4613],[107.8128,-6.4595],[107.8148,-6.4565],[107.8183,-6.4458]]]}},{"type":"Feature","properties":{"name":"Neglasari","name_en":"Neglasari","admin_level":"7","osm_id":""},"geometry":{"type":"Polygon","coordinates":[[[107.8019,-6.4262],[107.8117,-6.431],[107.8129,-6.4352],[107.8111,-6.4405],[107.8128,-6.449],[107.8061,-6.4468],[107.8064,-6.458],[107.8021,-6.4549],[107.8003,-6.4559],[107.8003,-6.4536],[107.7942,-6.4518],[107.795,-6.4431],[107.8004,-6.4404],[107.7998,-6.4316],[107.8019,-6.4262]]]}},{"type":"Feature","properties":{"name":"Pagaden","name_en":"Pagaden","admin_level":"7","osm_id":""},"geometry":{"type":"Polygon","coordinates":[[[107.8157,-6.4286],[107.8176,-6.4298],[107.8203,-6.4414],[107.8128,-6.4595],[107.8091,-6.4618],[107.7937,-6.4588],[107.7921,-6.4548],[107.7933,-6.4515],[107.8003,-6.4536],[107.8003,-6.4559],[107.8021,-6.4549],[107.8064,-6.458],[107.8061,-6.4468],[107.8127,-6.4493],[107.8111,-6.4418],[107.8129,-6.4352],[107.8118,-6.4311],[107.8157,-6.4286]]]}},{"type":"Feature","properties":{"name":"Sukamulya","name_en":"Sukamulya","admin_level":"7","osm_id":""},"geometry":{"type":"Polygon","coordinates":[[[107.8237,-6.4565],[107.8266,-6.4568],[107.827,-6.4603],[107.8263,-6.4634],[107.8245,-6.4646],[107.8268,-6.4709],[107.8259,-6.4766],[107.8164,-6.4903],[107.809,-6.4916],[107.8042,-6.4865],[107.809,-6.4761],[107.809,-6.4722],[107.8104,-6.4718],[107.8107,-6.4651],[107.8175,-6.4637],[107.8187,-6.4652],[107.8191,-6.4598],[107.8163,-6.4583],[107.8165,-6.4565],[107.8237,-6.4565]]]}},{"type":"Feature","properties":{"name":"Sumbersari","name_en":"Sumbersari","admin_level":"7","osm_id":""},"geometry":{"type":"Polygon","coordinates":[[[107.7609,-6.4368],[107.7655,-6.4356],[107.7711,-6.4319],[107.772,-6.4296],[107.7763,-6.4293],[107.7802,-6.4255],[107.785,-6.4305],[107.7884,-6.4281],[107.7854,-6.4435],[107.7788,-6.4471],[107.7819,-6.4481],[107.7794,-6.451],[107.774,-6.4515],[107.772,-6.449],[107.7724,-6.447],[107.7689,-6.4443],[107.7592,-6.4411],[107.7609,-6.4368]]]}}]}