{"type":"FeatureCollection","metadata":{"parent_osm_id":"gid_IDN_1_22_8_1","parent_name":"TeupahSelatan","parent_name_1":"Aceh","parent_gid":"IDN.1.22.8_1","parent_level":"6","child_level":"7","count":19,"source":"GADM 4.1","generated":"2026-05-09"},"features":[{"type":"Feature","properties":{"name":"AlusAlus","name_en":"AlusAlus","admin_level":"7","osm_id":""},"geometry":{"type":"Polygon","coordinates":[[[96.3782,2.4025],[96.3883,2.4084],[96.3892,2.3574],[96.3873,2.349],[96.3754,2.3481],[96.373,2.3464],[96.3732,2.3424],[96.3696,2.346],[96.3658,2.3953],[96.3782,2.4025]]]}},{"type":"Feature","properties":{"name":"AnaAo","name_en":"AnaAo","admin_level":"7","osm_id":""},"geometry":{"type":"Polygon","coordinates":[[[96.4183,2.4347],[96.423,2.4428],[96.4281,2.4456],[96.4283,2.4513],[96.4713,2.4492],[96.4655,2.437],[96.4721,2.4355],[96.4706,2.4316],[96.4605,2.4324],[96.4525,2.4366],[96.4402,2.4383],[96.4183,2.4347]]]}},{"type":"Feature","properties":{"name":"Badegong","name_en":"Badegong","admin_level":"7","osm_id":""},"geometry":{"type":"Polygon","coordinates":[[[96.4444,2.332],[96.4443,2.329],[96.4423,2.3277],[96.4261,2.33],[96.425,2.3612],[96.4301,2.3614],[96.4302,2.3576],[96.4342,2.3553],[96.4348,2.351],[96.4382,2.3493],[96.4374,2.3471],[96.4395,2.3472],[96.439,2.3405],[96.441,2.335],[96.4444,2.332]]]}},{"type":"Feature","properties":{"name":"BatuRalang","name_en":"BatuRalang","admin_level":"7","osm_id":""},"geometry":{"type":"Polygon","coordinates":[[[96.3883,2.4084],[96.4033,2.4174],[96.4053,2.4052],[96.4038,2.3349],[96.3926,2.3401],[96.3907,2.3457],[96.3873,2.349],[96.3892,2.3574],[96.3883,2.4084]]]}},{"type":"Feature","properties":{"name":"BlangSebel","name_en":"BlangSebel","admin_level":"7","osm_id":""},"geometry":{"type":"Polygon","coordinates":[[[96.4175,2.4346],[96.4402,2.4383],[96.4449,2.4368],[96.4478,2.4375],[96.4605,2.4324],[96.4706,2.4316],[96.4682,2.4317],[96.4664,2.4288],[96.4675,2.4264],[96.4757,2.4303],[96.479,2.4246],[96.477,2.4223],[96.4753,2.4226],[96.4588,2.4008],[96.4593,2.3974],[96.4552,2.3887],[96.4526,2.3891],[96.4488,2.3847],[96.4463,2.3849],[96.4432,2.3881],[96.4385,2.3856],[96.4324,2.39],[96.4302,2.3892],[96.43,2.3916],[96.4204,2.3945],[96.4197,2.4183],[96.4218,2.4232],[96.4216,2.4274],[96.4175,2.4346]]]}},{"type":"Feature","properties":{"name":"KebunBaru","name_en":"KebunBaru","admin_level":"7","osm_id":""},"geometry":{"type":"Polygon","coordinates":[[[96.4152,2.4291],[96.4175,2.4346],[96.4216,2.4274],[96.4218,2.4232],[96.4197,2.4183],[96.4204,2.3945],[96.4272,2.3925],[96.4269,2.3703],[96.4228,2.3705],[96.4228,2.3613],[96.425,2.3612],[96.4261,2.33],[96.4159,2.3299],[96.4152,2.4291]]]}},{"type":"Feature","properties":{"name":"LabuhanBajau","name_en":"LabuhanBajau","admin_level":"7","osm_id":""},"geometry":{"type":"Polygon","coordinates":[[[96.4579,2.395],[96.4593,2.398],[96.4829,2.3932],[96.487,2.3891],[96.4899,2.39],[96.4924,2.3867],[96.4905,2.3841],[96.4579,2.395]]]}},{"type":"Feature","properties":{"name":"LabuhanBakti","name_en":"LabuhanBakti","admin_level":"7","osm_id":""},"geometry":{"type":"Polygon","coordinates":[[[96.495,2.4361],[96.4969,2.434],[96.5071,2.4327],[96.5167,2.4266],[96.5167,2.4235],[96.51,2.4148],[96.5018,2.4169],[96.5007,2.4145],[96.5,2.4168],[96.5036,2.4185],[96.5018,2.419],[96.4985,2.4178],[96.4987,2.4142],[96.4926,2.4201],[96.4861,2.4185],[96.4853,2.4193],[96.4899,2.4214],[96.4889,2.4228],[96.4871,2.4217],[96.488,2.4237],[96.4869,2.4245],[96.4853,2.424],[96.4864,2.4266],[96.4814,2.4239],[96.4795,2.4248],[96.4819,2.4275],[96.4896,2.4295],[96.4912,2.4323],[96.4882,2.4336],[96.4893,2.4377],[96.495,2.4361]]]}},{"type":"Feature","properties":{"name":"LabuhanJaya","name_en":"LabuhanJaya","admin_level":"7","osm_id":""},"geometry":{"type":"Polygon","coordinates":[[[96.4567,2.3915],[96.4579,2.395],[96.4916,2.3841],[96.4924,2.3759],[96.4968,2.374],[96.4991,2.3673],[96.4567,2.3915]]]}},{"type":"Feature","properties":{"name":"Lataling","name_en":"Lataling","admin_level":"7","osm_id":""},"geometry":{"type":"Polygon","coordinates":[[[96.4283,2.4513],[96.4279,2.4594],[96.4313,2.467],[96.4568,2.4706],[96.4555,2.4674],[96.4615,2.4625],[96.4673,2.4604],[96.4712,2.4495],[96.4452,2.4495],[96.4283,2.4513]]]}},{"type":"Feature","properties":{"name":"Latiung","name_en":"Latiung","admin_level":"7","osm_id":""},"geometry":{"type":"Polygon","coordinates":[[[96.4444,2.332],[96.441,2.335],[96.439,2.3405],[96.4388,2.3451],[96.4405,2.3471],[96.441,2.3707],[96.4369,2.3713],[96.4365,2.3732],[96.4387,2.3791],[96.4427,2.3799],[96.446,2.3851],[96.4488,2.3847],[96.4532,2.3891],[96.4801,2.3438],[96.47,2.34],[96.4678,2.3408],[96.4682,2.3441],[96.4663,2.3444],[96.4635,2.3397],[96.4596,2.3393],[96.4537,2.3331],[96.4489,2.3312],[96.4444,2.332]]]}},{"type":"Feature","properties":{"name":"PasirTinggi","name_en":"PasirTinggi","admin_level":"7","osm_id":""},"geometry":{"type":"Polygon","coordinates":[[[96.6676,2.1181],[96.6781,2.1102],[96.6813,2.0974],[96.6872,2.0905],[96.6849,2.0826],[96.6756,2.0728],[96.6728,2.0714],[96.6693,2.0721],[96.6631,2.0663],[96.6597,2.067],[96.6484,2.0563],[96.6441,2.056],[96.6382,2.0595],[96.6357,2.0583],[96.6228,2.0663],[96.6153,2.0746],[96.6119,2.0826],[96.6123,2.0885],[96.6158,2.0938],[96.6107,2.0955],[96.6105,2.1037],[96.6146,2.1128],[96.6278,2.121],[96.64,2.1189],[96.6497,2.123],[96.6614,2.1215],[96.6676,2.1181]]]}},{"type":"Feature","properties":{"name":"PulauBengkalak","name_en":"PulauBengkalak","admin_level":"7","osm_id":""},"geometry":{"type":"Polygon","coordinates":[[[96.4313,2.467],[96.4311,2.4698],[96.427,2.4754],[96.4269,2.477],[96.4298,2.4785],[96.4301,2.4813],[96.4249,2.4871],[96.4271,2.4882],[96.4269,2.4917],[96.4349,2.4887],[96.4463,2.4778],[96.4538,2.4761],[96.4572,2.4711],[96.4313,2.467]]]}},{"type":"Feature","properties":{"name":"Seuneubok","name_en":"Seuneubok","admin_level":"7","osm_id":""},"geometry":{"type":"Polygon","coordinates":[[[96.3388,2.3475],[96.3452,2.3624],[96.3495,2.3776],[96.3536,2.3596],[96.3559,2.3564],[96.3605,2.3408],[96.3535,2.339],[96.3447,2.3412],[96.3388,2.3475]]]}},{"type":"Feature","properties":{"name":"SuakLamatan","name_en":"SuakLamatan","admin_level":"7","osm_id":""},"geometry":{"type":"Polygon","coordinates":[[[96.3495,2.3776],[96.3519,2.3866],[96.3658,2.3953],[96.3696,2.346],[96.3733,2.3417],[96.3674,2.3368],[96.3643,2.3372],[96.3605,2.3408],[96.3559,2.3564],[96.3536,2.3596],[96.3495,2.3776]]]}},{"type":"Feature","properties":{"name":"TransBaru","name_en":"TransBaru","admin_level":"7","osm_id":""},"geometry":{"type":"Polygon","coordinates":[[[96.4301,2.358],[96.4301,2.3614],[96.4228,2.3613],[96.4228,2.3705],[96.4269,2.3703],[96.4272,2.3925],[96.43,2.3916],[96.4306,2.389],[96.4325,2.3899],[96.4313,2.3642],[96.4324,2.3589],[96.4301,2.358]]]}},{"type":"Feature","properties":{"name":"TransJernge","name_en":"TransJernge","admin_level":"7","osm_id":""},"geometry":{"type":"Polygon","coordinates":[[[96.4325,2.3899],[96.4385,2.3856],[96.4432,2.3881],[96.446,2.3851],[96.4447,2.3817],[96.4387,2.3791],[96.4372,2.3769],[96.4369,2.3713],[96.441,2.3707],[96.4405,2.3604],[96.4349,2.3589],[96.4324,2.3589],[96.4313,2.3642],[96.4325,2.3899]]]}},{"type":"Feature","properties":{"name":"TransMeranti","name_en":"TransMeranti","admin_level":"7","osm_id":""},"geometry":{"type":"Polygon","coordinates":[[[96.4395,2.3472],[96.4374,2.3471],[96.4382,2.3493],[96.4348,2.351],[96.4342,2.3553],[96.4301,2.358],[96.4405,2.3604],[96.4405,2.3471],[96.4395,2.3472]]]}},{"type":"Feature","properties":{"name":"UlulManyang","name_en":"UlulManyang","admin_level":"7","osm_id":""},"geometry":{"type":"Polygon","coordinates":[[[96.4033,2.4174],[96.4152,2.4291],[96.4159,2.3299],[96.4071,2.3321],[96.4038,2.3349],[96.4053,2.4052],[96.4033,2.4174]]]}}]}