{"type":"FeatureCollection","metadata":{"parent_osm_id":"gid_IDN_28_2_18_1","parent_name":"RarowatuUtara","parent_name_1":"SulawesiTenggara","parent_gid":"IDN.28.2.18_1","parent_level":"6","child_level":"7","count":8,"source":"GADM 4.1","generated":"2026-05-09"},"features":[{"type":"Feature","properties":{"name":"AnekaMarga","name_en":"AnekaMarga","admin_level":"7","osm_id":""},"geometry":{"type":"Polygon","coordinates":[[[121.9571,-4.6461],[121.992,-4.6469],[122.0068,-4.6474],[121.9988,-4.6502],[121.9934,-4.6547],[122.002,-4.665],[121.9933,-4.6633],[121.9882,-4.665],[121.9839,-4.6635],[121.981,-4.6651],[121.9685,-4.6664],[121.9671,-4.6751],[121.9638,-4.6752],[121.9546,-4.6705],[121.9571,-4.6461]]]}},{"type":"Feature","properties":{"name":"Hukaea","name_en":"Hukaea","admin_level":"7","osm_id":""},"geometry":{"type":"Polygon","coordinates":[[[122.0335,-4.667],[122.034,-4.675],[122.0309,-4.6908],[122.0138,-4.688],[122.0076,-4.6892],[121.9838,-4.7014],[121.9718,-4.7008],[121.9659,-4.7026],[121.9606,-4.7012],[121.9631,-4.6961],[121.9641,-4.6855],[121.9716,-4.678],[121.985,-4.6798],[121.9879,-4.6815],[121.9878,-4.6794],[122.0037,-4.6716],[122.0097,-4.6745],[122.016,-4.6734],[122.0208,-4.6659],[122.0335,-4.667]]]}},{"type":"Feature","properties":{"name":"Lantowua","name_en":"Lantowua","admin_level":"7","osm_id":""},"geometry":{"type":"Polygon","coordinates":[[[122.0323,-4.7003],[122.0318,-4.72],[122.0343,-4.7284],[122.0244,-4.723],[122.0027,-4.717],[121.9944,-4.7107],[121.9876,-4.7093],[121.9832,-4.7061],[122.0323,-4.7003]]]}},{"type":"Feature","properties":{"name":"MargaJaya","name_en":"MargaJaya","admin_level":"7","osm_id":""},"geometry":{"type":"Polygon","coordinates":[[[121.996,-4.6387],[122.006,-4.6413],[122.0038,-4.6431],[122.0075,-4.6471],[121.9571,-4.6461],[121.9593,-4.6247],[121.9701,-4.6268],[121.9775,-4.6308],[121.9799,-4.6351],[121.9922,-4.6398],[121.996,-4.6387]]]}},{"type":"Feature","properties":{"name":"Tembe","name_en":"Tembe","admin_level":"7","osm_id":""},"geometry":{"type":"Polygon","coordinates":[[[121.9671,-4.6751],[121.9685,-4.6664],[121.981,-4.6651],[121.9839,-4.6635],[121.9882,-4.665],[121.9933,-4.6633],[122.002,-4.665],[122.0037,-4.6716],[121.9878,-4.6794],[121.9879,-4.6815],[121.985,-4.6798],[121.9716,-4.678],[121.9671,-4.6751]]]}},{"type":"Feature","properties":{"name":"TunasBaru","name_en":"TunasBaru","admin_level":"7","osm_id":""},"geometry":{"type":"Polygon","coordinates":[[[122.007,-4.646],[122.0084,-4.6439],[122.0098,-4.6443],[122.0154,-4.6486],[122.0173,-4.6528],[122.0189,-4.6526],[122.0199,-4.648],[122.0276,-4.652],[122.0326,-4.6579],[122.0335,-4.667],[122.0208,-4.6659],[122.016,-4.6734],[122.0133,-4.6741],[122.0097,-4.6745],[122.0037,-4.6716],[122.0013,-4.6638],[121.9934,-4.6547],[121.9988,-4.6502],[122.0075,-4.6471],[122.007,-4.646]]]}},{"type":"Feature","properties":{"name":"WatuMentade","name_en":"WatuMentade","admin_level":"7","osm_id":""},"geometry":{"type":"Polygon","coordinates":[[[121.9818,-4.7013],[122.0076,-4.6892],[122.0138,-4.688],[122.0301,-4.6904],[122.0326,-4.695],[122.0324,-4.7003],[122.0295,-4.7007],[121.9832,-4.7061],[121.9818,-4.7013]]]}},{"type":"Feature","properties":{"name":"Wumbubangka","name_en":"Wumbubangka","admin_level":"7","osm_id":""},"geometry":{"type":"Polygon","coordinates":[[[121.8442,-4.5624],[121.8514,-4.5552],[121.8774,-4.5562],[121.8804,-4.5573],[121.8866,-4.5699],[121.8915,-4.5726],[121.8952,-4.5726],[121.9041,-4.564],[121.9089,-4.5618],[121.9148,-4.5696],[121.9297,-4.5812],[121.9289,-4.5838],[121.9329,-4.5901],[121.931,-4.5931],[121.9359,-4.594],[121.9424,-4.599],[121.9446,-4.598],[121.95,-4.6132],[121.9593,-4.6247],[121.9546,-4.6705],[121.9716,-4.678],[121.9641,-4.6855],[121.9631,-4.6961],[121.9609,-4.7012],[121.9501,-4.7016],[121.9421,-4.6933],[121.9311,-4.6894],[121.9248,-4.6913],[121.9178,-4.6908],[121.8913,-4.6645],[121.8767,-4.6329],[121.8723,-4.6303],[121.8649,-4.618],[121.8652,-4.6122],[121.8637,-4.6077],[121.8583,-4.6032],[121.853,-4.5933],[121.8474,-4.5938],[121.8449,-4.5913],[121.8442,-4.5624]]]}}]}