{"type":"FeatureCollection","metadata":{"parent_osm_id":"gid_IDN_31_7_3_1","parent_name":"KarangDapo","parent_name_1":"SumateraSelatan","parent_gid":"IDN.31.7.3_1","parent_level":"6","child_level":"7","count":9,"source":"GADM 4.1","generated":"2026-05-08"},"features":[{"type":"Feature","properties":{"name":"Aringin","name_en":"Aringin","admin_level":"7","osm_id":""},"geometry":{"type":"Polygon","coordinates":[[[103.0742,-2.7272],[103.0642,-2.7273],[103.0271,-2.6731],[103.0289,-2.6702],[103.0287,-2.6661],[103.01,-2.6064],[103.0143,-2.6059],[103.0161,-2.608],[103.0206,-2.6084],[103.0217,-2.6107],[103.0274,-2.6062],[103.0276,-2.6078],[103.0337,-2.61],[103.036,-2.6089],[103.0387,-2.6135],[103.0446,-2.6445],[103.05,-2.6591],[103.0616,-2.6714],[103.0641,-2.677],[103.068,-2.6788],[103.072,-2.6835],[103.0815,-2.6874],[103.0837,-2.7266],[103.0742,-2.7272]]]}},{"type":"Feature","properties":{"name":"BiaroBaru","name_en":"BiaroBaru","admin_level":"7","osm_id":""},"geometry":{"type":"Polygon","coordinates":[[[103.0271,-2.6731],[103.0642,-2.7273],[103.0742,-2.7272],[103.0744,-2.7706],[103.0604,-2.7705],[103.0288,-2.778],[103.028,-2.7747],[103.0299,-2.7682],[103.0284,-2.7636],[103.0317,-2.744],[103.0278,-2.7154],[103.0155,-2.7019],[103.0006,-2.6919],[103.0019,-2.6807],[103.0036,-2.6807],[103.0073,-2.6849],[103.0103,-2.6834],[103.0073,-2.6788],[103.0071,-2.6751],[103.0019,-2.6694],[103.0071,-2.6679],[103.0164,-2.6797],[103.0197,-2.6805],[103.0224,-2.6793],[103.0203,-2.6738],[103.021,-2.6705],[103.024,-2.6703],[103.0271,-2.6731]]]}},{"type":"Feature","properties":{"name":"BiaroLama","name_en":"BiaroLama","admin_level":"7","osm_id":""},"geometry":{"type":"Polygon","coordinates":[[[103.01,-2.6064],[103.0289,-2.6702],[103.0271,-2.6731],[103.024,-2.6703],[103.021,-2.6705],[103.0203,-2.6738],[103.0224,-2.6793],[103.0197,-2.6805],[103.0164,-2.6797],[103.0071,-2.6679],[103.0041,-2.6679],[103.0019,-2.6694],[103.0023,-2.6711],[103.0071,-2.6751],[103.0073,-2.6788],[103.0103,-2.6834],[103.0073,-2.6849],[103.0036,-2.6807],[103.0019,-2.6807],[103.0008,-2.6834],[103.0016,-2.6895],[102.9997,-2.6919],[102.9975,-2.692],[102.9873,-2.6855],[102.986,-2.6726],[102.9783,-2.6611],[102.9781,-2.6573],[102.9763,-2.6552],[102.9794,-2.651],[102.9799,-2.6394],[102.9786,-2.6353],[102.9812,-2.6285],[102.9943,-2.6274],[102.9988,-2.6237],[103.0027,-2.6171],[103.0033,-2.61],[103.0052,-2.6076],[103.01,-2.6064]]]}},{"type":"Feature","properties":{"name":"BinaKarya","name_en":"BinaKarya","admin_level":"7","osm_id":""},"geometry":{"type":"Polygon","coordinates":[[[103.0742,-2.7272],[103.0838,-2.7266],[103.082,-2.7366],[103.0853,-2.7414],[103.0837,-2.7474],[103.0856,-2.752],[103.0874,-2.7523],[103.0959,-2.7706],[103.0744,-2.7709],[103.0742,-2.7272]]]}},{"type":"Feature","properties":{"name":"KarangDapoI","name_en":"KarangDapoI","admin_level":"7","osm_id":""},"geometry":{"type":"Polygon","coordinates":[[[102.9625,-2.6398],[102.9835,-2.6951],[102.9827,-2.6976],[102.9849,-2.7082],[103.0003,-2.7706],[103.0504,-2.8053],[103.0372,-2.8525],[103.0338,-2.8531],[103.0295,-2.857],[103.0254,-2.8566],[103.017,-2.8517],[103.0097,-2.8545],[103.0041,-2.8591],[102.9939,-2.8615],[102.9815,-2.8689],[102.9493,-2.8785],[102.9038,-2.8834],[102.8792,-2.8555],[102.8818,-2.8317],[102.9269,-2.747],[102.925,-2.7512],[102.9593,-2.7289],[102.9669,-2.7223],[102.969,-2.7108],[102.9726,-2.7048],[102.9718,-2.7012],[102.9677,-2.6868],[102.9461,-2.637],[102.9517,-2.6398],[102.9537,-2.6378],[102.9557,-2.6398],[102.9625,-2.6398]]]}},{"type":"Feature","properties":{"name":"KarangDapoIi","name_en":"KarangDapoIi","admin_level":"7","osm_id":""},"geometry":{"type":"Polygon","coordinates":[[[103.0008,-2.6905],[103.0006,-2.6919],[103.0155,-2.7019],[103.0278,-2.7154],[103.0317,-2.744],[103.0284,-2.7636],[103.0299,-2.7682],[103.028,-2.7747],[103.0288,-2.778],[103.0604,-2.7705],[103.0499,-2.8052],[103.0003,-2.7706],[102.9849,-2.7082],[102.9827,-2.6976],[102.9835,-2.6951],[102.9623,-2.6395],[102.9692,-2.6388],[102.9777,-2.6323],[102.9799,-2.6394],[102.9794,-2.651],[102.9763,-2.6552],[102.9781,-2.6573],[102.9783,-2.6611],[102.986,-2.6726],[102.9873,-2.6855],[102.9975,-2.692],[103.0008,-2.6905]]]}},{"type":"Feature","properties":{"name":"Kertasari","name_en":"Kertasari","admin_level":"7","osm_id":""},"geometry":{"type":"Polygon","coordinates":[[[102.9593,-2.7289],[102.925,-2.7512],[102.9454,-2.7014],[102.9388,-2.6895],[102.9407,-2.6831],[102.9344,-2.6801],[102.9326,-2.6761],[102.9219,-2.6691],[102.9157,-2.6529],[102.949,-2.6774],[102.9526,-2.6838],[102.955,-2.7066],[102.9593,-2.7289]]]}},{"type":"Feature","properties":{"name":"RantauKadam","name_en":"RantauKadam","admin_level":"7","osm_id":""},"geometry":{"type":"Polygon","coordinates":[[[102.9461,-2.637],[102.9678,-2.6869],[102.9726,-2.7048],[102.969,-2.7108],[102.9669,-2.7223],[102.9593,-2.7289],[102.955,-2.7066],[102.9526,-2.6838],[102.949,-2.6774],[102.9284,-2.6629],[102.9087,-2.6464],[102.8935,-2.6381],[102.8799,-2.6346],[102.8747,-2.6278],[102.8785,-2.6213],[102.8885,-2.5642],[102.8868,-2.5615],[102.8939,-2.5695],[102.8969,-2.5697],[102.9071,-2.5904],[102.9119,-2.607],[102.9107,-2.6233],[102.9296,-2.6291],[102.9333,-2.6328],[102.9357,-2.6328],[102.9387,-2.6368],[102.943,-2.6359],[102.9461,-2.637]]]}},{"type":"Feature","properties":{"name":"SetiaMarga","name_en":"SetiaMarga","admin_level":"7","osm_id":""},"geometry":{"type":"Polygon","coordinates":[[[103.0604,-2.7705],[103.0962,-2.7707],[103.102,-2.7856],[103.1018,-2.8239],[103.1003,-2.8267],[103.1005,-2.8429],[103.0983,-2.8473],[103.0926,-2.8414],[103.0842,-2.8448],[103.0796,-2.8433],[103.074,-2.8464],[103.0744,-2.8486],[103.0675,-2.8493],[103.0637,-2.848],[103.0548,-2.8506],[103.0473,-2.8503],[103.0416,-2.8527],[103.0364,-2.8526],[103.0604,-2.7705]]]}}]}