{"type":"FeatureCollection","metadata":{"parent_osm_id":"gid_IDN_20_1_1_1","parent_name":"Ambalawi","parent_name_1":"NusaTenggaraBarat","parent_gid":"IDN.20.1.1_1","parent_level":"6","child_level":"7","count":6,"source":"GADM 4.1","generated":"2026-05-07"},"features":[{"type":"Feature","properties":{"name":"Kole","name_en":"Kole","admin_level":"7","osm_id":""},"geometry":{"type":"Polygon","coordinates":[[[118.7714,-8.4077],[118.7934,-8.3931],[118.7967,-8.3922],[118.7991,-8.395],[118.8016,-8.3953],[118.8128,-8.3847],[118.819,-8.3886],[118.8318,-8.3926],[118.851,-8.412],[118.8643,-8.4142],[118.8651,-8.424],[118.8413,-8.4242],[118.831,-8.4214],[118.8088,-8.4094],[118.8073,-8.4109],[118.8052,-8.4255],[118.8002,-8.4278],[118.7934,-8.4233],[118.7873,-8.4132],[118.7759,-8.4126],[118.7714,-8.4077]]]}},{"type":"Feature","properties":{"name":"Mawu","name_en":"Mawu","admin_level":"7","osm_id":""},"geometry":{"type":"Polygon","coordinates":[[[118.7799,-8.3043],[118.7869,-8.3018],[118.79,-8.2959],[118.7957,-8.2936],[118.8002,-8.2872],[118.8074,-8.2861],[118.8157,-8.2809],[118.8345,-8.2815],[118.8477,-8.2864],[118.8571,-8.2874],[118.8588,-8.2895],[118.856,-8.3077],[118.8565,-8.3199],[118.8592,-8.3334],[118.859,-8.3455],[118.8633,-8.3564],[118.8653,-8.3681],[118.855,-8.3626],[118.8385,-8.3474],[118.7965,-8.3238],[118.7852,-8.3137],[118.7799,-8.3043]]]}},{"type":"Feature","properties":{"name":"Nipa","name_en":"Nipa","admin_level":"7","osm_id":""},"geometry":{"type":"Polygon","coordinates":[[[118.7799,-8.3043],[118.7852,-8.3137],[118.7967,-8.324],[118.7916,-8.3294],[118.7857,-8.3326],[118.7807,-8.3313],[118.771,-8.3347],[118.7694,-8.3377],[118.7706,-8.3406],[118.7693,-8.3483],[118.7673,-8.3528],[118.7684,-8.3555],[118.7652,-8.3574],[118.7644,-8.3658],[118.7622,-8.3694],[118.7587,-8.3696],[118.7464,-8.3768],[118.7385,-8.3568],[118.7274,-8.3462],[118.7322,-8.3405],[118.7369,-8.3406],[118.7391,-8.3373],[118.7429,-8.3367],[118.7462,-8.3387],[118.7481,-8.3328],[118.7551,-8.3296],[118.7555,-8.3235],[118.7594,-8.3212],[118.7637,-8.3155],[118.7652,-8.3098],[118.7707,-8.3086],[118.7762,-8.3046],[118.7799,-8.3043]]]}},{"type":"Feature","properties":{"name":"Rite","name_en":"Rite","admin_level":"7","osm_id":""},"geometry":{"type":"Polygon","coordinates":[[[118.8128,-8.3847],[118.8016,-8.3953],[118.7991,-8.395],[118.7967,-8.3922],[118.7934,-8.3931],[118.7714,-8.4077],[118.7658,-8.4013],[118.7572,-8.3994],[118.7531,-8.3991],[118.7507,-8.402],[118.7394,-8.4027],[118.7421,-8.3999],[118.7415,-8.3901],[118.746,-8.3814],[118.7464,-8.3768],[118.7587,-8.3696],[118.7622,-8.3694],[118.7632,-8.3751],[118.7688,-8.3797],[118.779,-8.3729],[118.7832,-8.3658],[118.7887,-8.3636],[118.8025,-8.3692],[118.8059,-8.3736],[118.8068,-8.3778],[118.8093,-8.379],[118.8128,-8.3847]]]}},{"type":"Feature","properties":{"name":"Talapiti","name_en":"Talapiti","admin_level":"7","osm_id":""},"geometry":{"type":"Polygon","coordinates":[[[118.8643,-8.4142],[118.8505,-8.4118],[118.8318,-8.3926],[118.819,-8.3886],[118.812,-8.384],[118.8093,-8.379],[118.8068,-8.3778],[118.8059,-8.3736],[118.8025,-8.3692],[118.7916,-8.3652],[118.7921,-8.3562],[118.8121,-8.332],[118.8385,-8.3474],[118.855,-8.3626],[118.8653,-8.3681],[118.8668,-8.3817],[118.8652,-8.3852],[118.8671,-8.3921],[118.8645,-8.4026],[118.8643,-8.4142]]]}},{"type":"Feature","properties":{"name":"Tolowata","name_en":"Tolowata","admin_level":"7","osm_id":""},"geometry":{"type":"Polygon","coordinates":[[[118.7967,-8.324],[118.8121,-8.332],[118.7921,-8.3562],[118.7916,-8.3652],[118.7877,-8.3634],[118.7841,-8.3651],[118.779,-8.3729],[118.7708,-8.3789],[118.7673,-8.3795],[118.7632,-8.375],[118.7622,-8.3694],[118.7644,-8.3658],[118.7652,-8.3574],[118.7684,-8.3555],[118.7673,-8.3528],[118.7693,-8.3481],[118.7706,-8.3406],[118.7693,-8.338],[118.7707,-8.3351],[118.7807,-8.3313],[118.7857,-8.3326],[118.7916,-8.3294],[118.7967,-8.324]]]}}]}