{"type":"FeatureCollection","metadata":{"parent_osm_id":"gid_IDN_3_4_3_1","parent_name":"MendoBarat","parent_name_1":"BangkaBelitung","parent_gid":"IDN.3.4.3_1","parent_level":"6","child_level":"7","count":14,"source":"GADM 4.1","generated":"2026-05-08"},"features":[{"type":"Feature","properties":{"name":"AirBuluh","name_en":"AirBuluh","admin_level":"7","osm_id":""},"geometry":{"type":"Polygon","coordinates":[[[106.0211,-2.2075],[106.0198,-2.2127],[106.0209,-2.2144],[106.0162,-2.2168],[105.9919,-2.2217],[105.9814,-2.2269],[105.9804,-2.2307],[105.9737,-2.2299],[105.9716,-2.2276],[105.9667,-2.2263],[105.9651,-2.2243],[105.9645,-2.208],[105.9603,-2.207],[105.9572,-2.2042],[105.9541,-2.1962],[105.9542,-2.1682],[105.9561,-2.1648],[105.963,-2.1674],[105.9713,-2.1749],[105.9802,-2.1707],[105.9997,-2.1707],[106.0045,-2.1787],[106.0072,-2.1875],[106.0169,-2.1939],[106.0211,-2.2075]]]}},{"type":"Feature","properties":{"name":"Airduren","name_en":"Airduren","admin_level":"7","osm_id":""},"geometry":{"type":"Polygon","coordinates":[[[106.0396,-2.1113],[106.033,-2.1122],[106.029,-2.1106],[106.0255,-2.1122],[106.022,-2.1165],[106.021,-2.1159],[106.0205,-2.1107],[106.0156,-2.105],[106.0128,-2.105],[106.0112,-2.1011],[106.0094,-2.0893],[106.0126,-2.0765],[106.0217,-2.0759],[106.0428,-2.0797],[106.0403,-2.0823],[106.042,-2.0864],[106.0409,-2.0928],[106.0446,-2.0952],[106.0457,-2.0989],[106.0443,-2.1075],[106.0395,-2.1076],[106.0396,-2.1113]]]}},{"type":"Feature","properties":{"name":"Cengkongabang","name_en":"Cengkongabang","admin_level":"7","osm_id":""},"geometry":{"type":"Polygon","coordinates":[[[106.0027,-2.1759],[105.9997,-2.1707],[105.9802,-2.1707],[105.9713,-2.1749],[105.963,-2.1674],[105.9561,-2.1648],[105.9576,-2.1619],[105.9633,-2.1596],[105.9695,-2.154],[105.9761,-2.1527],[105.9832,-2.1443],[106.0063,-2.1356],[106.0255,-2.1122],[106.029,-2.1106],[106.033,-2.1122],[106.0396,-2.1113],[106.0414,-2.1133],[106.0444,-2.1122],[106.0468,-2.1175],[106.0566,-2.1202],[106.062,-2.1271],[106.0614,-2.1351],[106.0579,-2.1443],[106.0518,-2.1508],[106.0253,-2.1654],[106.0184,-2.1717],[106.0027,-2.1759]]]}},{"type":"Feature","properties":{"name":"Kace","name_en":"Kace","admin_level":"7","osm_id":""},"geometry":{"type":"Polygon","coordinates":[[[106.0782,-2.1513],[106.0792,-2.1539],[106.0735,-2.1567],[106.073,-2.1588],[106.0747,-2.161],[106.07,-2.1663],[106.0723,-2.1686],[106.0736,-2.1745],[106.0486,-2.1812],[106.0446,-2.1845],[106.0394,-2.1861],[106.0397,-2.1917],[106.0381,-2.1942],[106.0306,-2.1979],[106.0211,-2.2075],[106.0169,-2.1939],[106.0072,-2.1875],[106.0027,-2.1759],[106.0184,-2.1717],[106.0253,-2.1654],[106.0518,-2.1508],[106.0579,-2.1443],[106.0614,-2.1351],[106.062,-2.1271],[106.068,-2.1278],[106.0782,-2.1513]]]}},{"type":"Feature","properties":{"name":"KaceTimur","name_en":"KaceTimur","admin_level":"7","osm_id":""},"geometry":{"type":"Polygon","coordinates":[[[106.0888,-2.1456],[106.0781,-2.1513],[106.068,-2.1278],[106.0789,-2.1287],[106.0821,-2.1296],[106.0838,-2.1323],[106.0877,-2.1318],[106.0874,-2.1385],[106.0903,-2.1408],[106.0888,-2.1456]]]}},{"type":"Feature","properties":{"name":"Kemuja","name_en":"Kemuja","admin_level":"7","osm_id":""},"geometry":{"type":"Polygon","coordinates":[[[106.0126,-2.0765],[106.0092,-2.0916],[105.9921,-2.0933],[105.9815,-2.0995],[105.9754,-2.1],[105.9668,-2.1043],[105.9426,-2.1069],[105.9394,-2.1044],[105.9383,-2.0996],[105.9329,-2.0964],[105.9219,-2.0934],[105.9147,-2.089],[105.9123,-2.0834],[105.9064,-2.0802],[105.9051,-2.0779],[105.9192,-2.0648],[105.9522,-2.067],[105.9639,-2.0667],[105.9767,-2.0638],[106.0065,-2.0649],[106.0126,-2.0765]]]}},{"type":"Feature","properties":{"name":"KotaKapur","name_en":"KotaKapur","admin_level":"7","osm_id":""},"geometry":{"type":"Polygon","coordinates":[[[105.9263,-2.2084],[105.9231,-2.2114],[105.9227,-2.2251],[105.9179,-2.2304],[105.9193,-2.2432],[105.9173,-2.2456],[105.913,-2.2457],[105.9115,-2.2473],[105.9118,-2.2501],[105.9174,-2.2609],[105.9227,-2.2616],[105.9279,-2.2658],[105.9351,-2.268],[105.9355,-2.2763],[105.9178,-2.2731],[105.9059,-2.267],[105.8977,-2.2672],[105.8851,-2.2647],[105.8796,-2.2665],[105.8665,-2.2658],[105.8571,-2.2686],[105.8388,-2.2663],[105.8315,-2.2678],[105.8199,-2.2658],[105.8138,-2.2671],[105.8035,-2.2725],[105.7988,-2.27],[105.7961,-2.2633],[105.7884,-2.2538],[105.7859,-2.2364],[105.7888,-2.2312],[105.7922,-2.2285],[105.8035,-2.2299],[105.8079,-2.2289],[105.809,-2.2326],[105.8113,-2.2332],[105.817,-2.2318],[105.8188,-2.2266],[105.8211,-2.2288],[105.8276,-2.2292],[105.8275,-2.2248],[105.825,-2.2228],[105.8258,-2.2202],[105.8285,-2.2199],[105.8297,-2.2219],[105.8309,-2.2193],[105.8351,-2.2175],[105.839,-2.2188],[105.8396,-2.222],[105.8439,-2.2217],[105.8447,-2.2178],[105.8416,-2.2163],[105.8416,-2.2136],[105.8445,-2.2137],[105.8454,-2.2113],[105.8512,-2.2139],[105.8524,-2.2162],[105.8544,-2.2146],[105.8543,-2.2182],[105.8597,-2.2191],[105.861,-2.2154],[105.8649,-2.2155],[105.8683,-2.2137],[105.8667,-2.2115],[105.8681,-2.209],[105.8675,-2.205],[105.8762,-2.2009],[105.8786,-2.2046],[105.8821,-2.2053],[105.8917,-2.2032],[105.8937,-2.1982],[105.899,-2.1977],[105.9017,-2.1936],[105.9052,-2.1917],[105.9127,-2.1947],[105.9169,-2.1926],[105.9233,-2.1941],[105.9263,-2.2084]]]}},{"type":"Feature","properties":{"name":"LabuhAirPandan","name_en":"LabuhAirPandan","admin_level":"7","osm_id":""},"geometry":{"type":"Polygon","coordinates":[[[105.8762,-2.2009],[105.8673,-2.2051],[105.8681,-2.209],[105.8667,-2.2115],[105.8683,-2.2137],[105.8649,-2.2155],[105.861,-2.2154],[105.8597,-2.2191],[105.8543,-2.2182],[105.8544,-2.2146],[105.8524,-2.2162],[105.8512,-2.2139],[105.8452,-2.2114],[105.8445,-2.2137],[105.8416,-2.2136],[105.8416,-2.2163],[105.8447,-2.2178],[105.8439,-2.2217],[105.8396,-2.222],[105.839,-2.2188],[105.8351,-2.2175],[105.8309,-2.2193],[105.8297,-2.2219],[105.8285,-2.2199],[105.8261,-2.2199],[105.825,-2.2228],[105.8273,-2.2245],[105.8281,-2.2289],[105.8211,-2.2288],[105.8188,-2.2266],[105.817,-2.2318],[105.8117,-2.2332],[105.809,-2.2326],[105.8079,-2.2289],[105.8035,-2.2299],[105.7922,-2.2285],[105.7864,-2.2137],[105.7868,-2.2093],[105.791,-2.202],[105.7934,-2.1931],[105.7903,-2.1767],[105.8025,-2.1699],[105.8154,-2.1721],[105.8223,-2.1616],[105.8249,-2.1458],[105.8157,-2.1408],[105.8152,-2.1365],[105.8169,-2.1356],[105.8279,-2.1401],[105.8352,-2.1412],[105.8474,-2.1382],[105.8536,-2.1325],[105.8608,-2.1336],[105.8643,-2.1322],[105.8732,-2.1326],[105.8731,-2.1389],[105.88,-2.1496],[105.8817,-2.159],[105.8788,-2.1658],[105.8808,-2.1696],[105.8802,-2.1817],[105.8819,-2.1838],[105.886,-2.1841],[105.8895,-2.1801],[105.893,-2.1907],[105.8882,-2.1945],[105.8841,-2.1948],[105.8861,-2.1998],[105.8847,-2.2017],[105.8762,-2.2009]]]}},{"type":"Feature","properties":{"name":"Menduk","name_en":"Menduk","admin_level":"7","osm_id":""},"geometry":{"type":"Polygon","coordinates":[[[105.9233,-2.1941],[105.9169,-2.1926],[105.9127,-2.1947],[105.9052,-2.1917],[105.9017,-2.1936],[105.899,-2.1977],[105.8937,-2.1982],[105.8917,-2.2032],[105.8821,-2.2053],[105.878,-2.204],[105.8762,-2.2009],[105.8847,-2.2017],[105.8861,-2.1998],[105.8841,-2.1948],[105.8882,-2.1945],[105.893,-2.1906],[105.8895,-2.1801],[105.886,-2.1841],[105.8819,-2.1838],[105.8802,-2.1817],[105.8808,-2.1696],[105.8788,-2.1658],[105.8817,-2.159],[105.88,-2.1496],[105.8731,-2.1389],[105.8732,-2.1326],[105.8643,-2.1322],[105.8608,-2.1336],[105.8536,-2.1325],[105.8423,-2.1233],[105.8336,-2.1244],[105.8177,-2.1172],[105.8141,-2.1113],[105.8153,-2.1087],[105.8183,-2.1082],[105.8176,-2.0994],[105.8141,-2.0979],[105.8228,-2.0866],[105.8259,-2.086],[105.8268,-2.0928],[105.8283,-2.0936],[105.8326,-2.0925],[105.833,-2.0904],[105.8298,-2.0874],[105.8342,-2.0837],[105.8358,-2.086],[105.8339,-2.0886],[105.8449,-2.0892],[105.849,-2.0961],[105.8504,-2.105],[105.8574,-2.1104],[105.857,-2.1157],[105.8587,-2.1173],[105.8688,-2.1166],[105.8776,-2.1111],[105.8851,-2.1132],[105.8887,-2.1186],[105.8956,-2.1225],[105.8981,-2.1291],[105.9055,-2.1314],[105.9073,-2.1365],[105.9138,-2.1443],[105.9126,-2.1522],[105.9173,-2.1544],[105.9217,-2.1507],[105.93,-2.152],[105.931,-2.1605],[105.9277,-2.1652],[105.9257,-2.1833],[105.9265,-2.1882],[105.9233,-2.1941]]]}},{"type":"Feature","properties":{"name":"Payabenua","name_en":"Payabenua","admin_level":"7","osm_id":""},"geometry":{"type":"Polygon","coordinates":[[[105.9051,-2.0779],[105.9064,-2.0802],[105.9123,-2.0834],[105.9147,-2.089],[105.9219,-2.0934],[105.9329,-2.0964],[105.9383,-2.0996],[105.9398,-2.1023],[105.9352,-2.1201],[105.9316,-2.1254],[105.9323,-2.1319],[105.9304,-2.1397],[105.9325,-2.145],[105.9294,-2.1518],[105.9217,-2.1507],[105.9173,-2.1544],[105.9126,-2.1522],[105.9138,-2.1443],[105.9073,-2.1365],[105.9055,-2.1314],[105.8981,-2.1291],[105.8956,-2.1225],[105.8887,-2.1186],[105.8841,-2.1126],[105.8776,-2.1111],[105.8688,-2.1166],[105.8587,-2.1173],[105.857,-2.1157],[105.8574,-2.1104],[105.8504,-2.105],[105.8467,-2.091],[105.8421,-2.0885],[105.8429,-2.0867],[105.8394,-2.0849],[105.8431,-2.077],[105.8548,-2.0763],[105.8551,-2.0721],[105.8588,-2.0737],[105.8616,-2.0671],[105.8662,-2.0749],[105.8698,-2.0651],[105.8705,-2.071],[105.875,-2.0661],[105.8805,-2.0712],[105.8861,-2.0648],[105.8866,-2.0729],[105.8899,-2.0737],[105.8904,-2.0805],[105.8933,-2.0781],[105.8961,-2.0812],[105.9,-2.0785],[105.9051,-2.0779]]]}},{"type":"Feature","properties":{"name":"Penagan","name_en":"Penagan","admin_level":"7","osm_id":""},"geometry":{"type":"Polygon","coordinates":[[[105.9355,-2.2763],[105.9386,-2.2792],[105.9352,-2.2861],[105.9249,-2.2883],[105.9214,-2.2911],[105.9223,-2.2928],[105.9204,-2.3002],[105.9215,-2.3034],[105.92,-2.3063],[105.9121,-2.3115],[105.9037,-2.3217],[105.8997,-2.3384],[105.9023,-2.3425],[105.8966,-2.3418],[105.8941,-2.3388],[105.8874,-2.3385],[105.8826,-2.3342],[105.8664,-2.3331],[105.8599,-2.3384],[105.8531,-2.3401],[105.8455,-2.3394],[105.8432,-2.3455],[105.8396,-2.346],[105.8365,-2.3487],[105.83,-2.3477],[105.8292,-2.3502],[105.8278,-2.3476],[105.8257,-2.3474],[105.8254,-2.3496],[105.8233,-2.3499],[105.8126,-2.3637],[105.8033,-2.3668],[105.8033,-2.3636],[105.8065,-2.3605],[105.8145,-2.3422],[105.8206,-2.3379],[105.8225,-2.3345],[105.8231,-2.3315],[105.8217,-2.3304],[105.8246,-2.3291],[105.8256,-2.3187],[105.8271,-2.318],[105.8254,-2.3138],[105.8256,-2.3084],[105.8229,-2.3038],[105.812,-2.2964],[105.8115,-2.2916],[105.8097,-2.2903],[105.811,-2.2884],[105.8102,-2.2819],[105.8035,-2.2725],[105.8047,-2.2714],[105.8199,-2.2658],[105.8315,-2.2678],[105.8388,-2.2663],[105.8571,-2.2686],[105.8665,-2.2658],[105.8796,-2.2665],[105.8851,-2.2647],[105.8977,-2.2672],[105.9059,-2.267],[105.9178,-2.2731],[105.9355,-2.2763]]]}},{"type":"Feature","properties":{"name":"Petaling","name_en":"Petaling","admin_level":"7","osm_id":""},"geometry":{"type":"Polygon","coordinates":[[[105.9561,-2.1648],[105.9544,-2.1697],[105.9459,-2.1725],[105.9411,-2.1712],[105.9366,-2.1738],[105.9278,-2.1699],[105.9277,-2.1652],[105.931,-2.1605],[105.9311,-2.1549],[105.9294,-2.1518],[105.9325,-2.145],[105.9304,-2.1397],[105.9323,-2.1319],[105.9316,-2.1254],[105.9352,-2.1201],[105.9394,-2.1044],[105.9426,-2.1069],[105.9668,-2.1043],[105.9754,-2.1],[105.9815,-2.0995],[105.9921,-2.0933],[106.0097,-2.091],[106.0119,-2.1038],[106.0132,-2.1053],[106.0156,-2.105],[106.0205,-2.1107],[106.0214,-2.1183],[106.0137,-2.1252],[106.0109,-2.1312],[106.0063,-2.1356],[105.9832,-2.1443],[105.9761,-2.1527],[105.9695,-2.154],[105.9633,-2.1596],[105.9576,-2.1619],[105.9561,-2.1648]]]}},{"type":"Feature","properties":{"name":"Rukam","name_en":"Rukam","admin_level":"7","osm_id":""},"geometry":{"type":"Polygon","coordinates":[[[105.9653,-2.2245],[105.9632,-2.23],[105.9531,-2.2297],[105.9491,-2.2288],[105.9399,-2.2227],[105.9334,-2.2211],[105.9277,-2.2166],[105.9232,-2.1979],[105.9233,-2.1941],[105.9265,-2.1882],[105.9257,-2.1833],[105.9278,-2.1699],[105.9366,-2.1738],[105.9411,-2.1712],[105.9459,-2.1725],[105.9544,-2.1697],[105.9541,-2.1962],[105.9572,-2.2042],[105.9603,-2.207],[105.9645,-2.208],[105.9653,-2.2245]]]}},{"type":"Feature","properties":{"name":"Zed","name_en":"Zed","admin_level":"7","osm_id":""},"geometry":{"type":"Polygon","coordinates":[[[105.9857,-2.0642],[105.9731,-2.0639],[105.9699,-2.0659],[105.9522,-2.067],[105.9192,-2.0648],[105.9198,-2.0628],[105.9259,-2.0594],[105.9398,-2.0467],[105.9546,-2.0457],[105.9656,-2.039],[105.9731,-2.0378],[105.9783,-2.0339],[105.9859,-2.0338],[105.9937,-2.0282],[106.0035,-2.028],[106.0166,-2.0246],[106.0169,-2.0354],[106.0136,-2.0463],[105.9924,-2.0551],[105.9857,-2.0642]]]}}]}