{"type":"FeatureCollection","metadata":{"parent_osm_id":"gid_IDN_8_5_14_1","parent_name":"RenahPembarap","parent_name_1":"Jambi","parent_gid":"IDN.8.5.14_1","parent_level":"6","child_level":"7","count":12,"source":"GADM 4.1","generated":"2026-05-09"},"features":[{"type":"Feature","properties":{"name":"AirBatu","name_en":"AirBatu","admin_level":"7","osm_id":""},"geometry":{"type":"Polygon","coordinates":[[[102.1794,-2.1824],[102.1953,-2.204],[102.1742,-2.2211],[102.1614,-2.2293],[102.1214,-2.204],[102.1077,-2.2067],[102.1068,-2.189],[102.1099,-2.1705],[102.1181,-2.1612],[102.1185,-2.1523],[102.1275,-2.1478],[102.1376,-2.1502],[102.1606,-2.1703],[102.1717,-2.171],[102.1794,-2.1824]]]}},{"type":"Feature","properties":{"name":"DurianBatakuk","name_en":"DurianBatakuk","admin_level":"7","osm_id":""},"geometry":{"type":"Polygon","coordinates":[[[102.0466,-1.9939],[102.0446,-2.054],[102.047,-2.0552],[102.0481,-2.0708],[102.0632,-2.125],[102.0437,-2.1188],[102.0292,-2.1162],[102.0291,-2.1121],[102.0374,-2.107],[102.0393,-2.1012],[102.0374,-2.0898],[102.0292,-2.0738],[102.0093,-2.0444],[102.0103,-1.9961],[102.0331,-1.9914],[102.0466,-1.9939]]]}},{"type":"Feature","properties":{"name":"Guguk","name_en":"Guguk","admin_level":"7","osm_id":""},"geometry":{"type":"Polygon","coordinates":[[[102.0748,-2.1943],[102.0523,-2.1943],[102.0522,-2.1653],[102.0589,-2.1591],[102.0663,-2.1434],[102.0635,-2.1268],[102.073,-2.1287],[102.0865,-2.1279],[102.0879,-2.1601],[102.0938,-2.1699],[102.1088,-2.1772],[102.1068,-2.189],[102.1077,-2.2067],[102.0977,-2.2067],[102.0748,-2.1943]]]}},{"type":"Feature","properties":{"name":"Markeh","name_en":"Markeh","admin_level":"7","osm_id":""},"geometry":{"type":"Polygon","coordinates":[[[102.1426,-2.1275],[102.1422,-2.1276],[102.1717,-2.171],[102.1606,-2.1703],[102.1376,-2.1502],[102.1275,-2.1478],[102.1185,-2.1523],[102.1065,-2.14],[102.1037,-2.1261],[102.1258,-2.1277],[102.1394,-2.1226],[102.1426,-2.1275]]]}},{"type":"Feature","properties":{"name":"MarusJaya","name_en":"MarusJaya","admin_level":"7","osm_id":""},"geometry":{"type":"Polygon","coordinates":[[[102.1185,-2.1523],[102.1181,-2.1612],[102.1099,-2.1705],[102.1088,-2.1772],[102.0938,-2.1699],[102.0879,-2.1601],[102.0861,-2.1148],[102.1002,-2.1084],[102.1065,-2.14],[102.1185,-2.1523]]]}},{"type":"Feature","properties":{"name":"MuaraBantan","name_en":"MuaraBantan","admin_level":"7","osm_id":""},"geometry":{"type":"Polygon","coordinates":[[[102.047,-2.0552],[102.1006,-2.0798],[102.0991,-2.1031],[102.1002,-2.1084],[102.0861,-2.1148],[102.0865,-2.1279],[102.073,-2.1287],[102.0635,-2.1268],[102.0481,-2.0708],[102.047,-2.0552]]]}},{"type":"Feature","properties":{"name":"MuaroPancoBarat","name_en":"MuaroPancoBarat","admin_level":"7","osm_id":""},"geometry":{"type":"Polygon","coordinates":[[[102.0284,-2.1945],[102.0165,-2.1949],[102.0137,-2.1289],[102.0096,-2.1126],[102.0215,-2.1117],[102.0216,-2.12],[102.0286,-2.1484],[102.0284,-2.1945]]]}},{"type":"Feature","properties":{"name":"MuaroPancoTimur","name_en":"MuaroPancoTimur","admin_level":"7","osm_id":""},"geometry":{"type":"Polygon","coordinates":[[[102.0384,-2.1943],[102.0284,-2.1945],[102.0286,-2.1484],[102.0216,-2.12],[102.0215,-2.1117],[102.0291,-2.1119],[102.0297,-2.1184],[102.0345,-2.1297],[102.0394,-2.1351],[102.0384,-2.1943]]]}},{"type":"Feature","properties":{"name":"ParitUjungTanjung","name_en":"ParitUjungTanjung","admin_level":"7","osm_id":""},"geometry":{"type":"Polygon","coordinates":[[[102.0523,-2.1943],[102.0384,-2.1943],[102.039,-2.1486],[102.0533,-2.1491],[102.0614,-2.1537],[102.0589,-2.1591],[102.0522,-2.1653],[102.0523,-2.1943]]]}},{"type":"Feature","properties":{"name":"RenahMedan","name_en":"RenahMedan","admin_level":"7","osm_id":""},"geometry":{"type":"Polygon","coordinates":[[[102.1254,-2.1024],[102.1298,-2.1063],[102.1394,-2.1226],[102.1258,-2.1277],[102.1037,-2.1261],[102.0991,-2.1031],[102.1006,-2.0798],[102.1254,-2.1024]]]}},{"type":"Feature","properties":{"name":"SimpangParit","name_en":"SimpangParit","admin_level":"7","osm_id":""},"geometry":{"type":"Polygon","coordinates":[[[102.0292,-2.1162],[102.0437,-2.1188],[102.0632,-2.125],[102.0663,-2.1434],[102.0614,-2.1537],[102.0533,-2.1491],[102.039,-2.1486],[102.0394,-2.1351],[102.0345,-2.1297],[102.0292,-2.1162]]]}},{"type":"Feature","properties":{"name":"TalangSegegah","name_en":"TalangSegegah","admin_level":"7","osm_id":""},"geometry":{"type":"Polygon","coordinates":[[[102.0103,-1.9961],[102.0093,-2.0444],[102.0292,-2.0738],[102.0374,-2.0898],[102.0393,-2.1012],[102.0374,-2.107],[102.0291,-2.1121],[102.0096,-2.1126],[102.0072,-2.1034],[102.0013,-2.0909],[101.9862,-2.0729],[101.979,-2.0583],[101.9742,-2.0394],[101.9712,-2.0142],[101.9783,-1.9911],[102.001,-1.9976],[102.0103,-1.9961]]]}}]}