{"type":"FeatureCollection","metadata":{"parent_osm_id":"gid_IDN_10_9_4_1","parent_name":"Godong","parent_name_1":"JawaTengah","parent_gid":"IDN.10.9.4_1","parent_level":"6","child_level":"7","count":28,"source":"GADM 4.1","generated":"2026-05-07"},"features":[{"type":"Feature","properties":{"name":"Anggaswangi","name_en":"Anggaswangi","admin_level":"7","osm_id":""},"geometry":{"type":"Polygon","coordinates":[[[110.7823,-7.0581],[110.7851,-7.0617],[110.785,-7.0689],[110.7773,-7.0709],[110.769,-7.0651],[110.7708,-7.0626],[110.7701,-7.054],[110.7739,-7.0498],[110.7776,-7.0506],[110.7764,-7.0564],[110.7823,-7.0581]]]}},{"type":"Feature","properties":{"name":"Bringin","name_en":"Bringin","admin_level":"7","osm_id":""},"geometry":{"type":"Polygon","coordinates":[[[110.8092,-7.026],[110.8067,-7.0358],[110.8041,-7.0388],[110.7914,-7.0333],[110.7923,-7.0259],[110.7894,-7.0228],[110.7887,-7.0149],[110.7923,-7.0131],[110.7944,-7.0146],[110.7944,-7.0236],[110.7989,-7.0219],[110.8015,-7.0253],[110.8064,-7.0205],[110.8092,-7.026]]]}},{"type":"Feature","properties":{"name":"Bugel","name_en":"Bugel","admin_level":"7","osm_id":""},"geometry":{"type":"Polygon","coordinates":[[[110.7578,-7.0192],[110.7602,-7.0167],[110.7642,-7.0182],[110.7655,-7.0144],[110.7688,-7.015],[110.7683,-7.0252],[110.765,-7.0218],[110.7629,-7.0223],[110.7578,-7.0192]]]}},{"type":"Feature","properties":{"name":"Dorolegi","name_en":"Dorolegi","admin_level":"7","osm_id":""},"geometry":{"type":"Polygon","coordinates":[[[110.761,-7.0359],[110.7625,-7.0378],[110.7605,-7.043],[110.7541,-7.045],[110.7544,-7.0488],[110.7564,-7.05],[110.756,-7.0542],[110.7486,-7.0552],[110.7463,-7.0586],[110.7392,-7.0564],[110.7396,-7.0529],[110.7374,-7.0484],[110.7387,-7.0455],[110.7414,-7.047],[110.7494,-7.0381],[110.7543,-7.0373],[110.7592,-7.0392],[110.761,-7.0359]]]}},{"type":"Feature","properties":{"name":"Godong","name_en":"Godong","admin_level":"7","osm_id":""},"geometry":{"type":"Polygon","coordinates":[[[110.7678,-7.0251],[110.7695,-7.0204],[110.7688,-7.015],[110.7746,-7.0188],[110.7754,-7.0174],[110.7733,-7.0134],[110.7763,-7.0114],[110.7782,-7.0147],[110.776,-7.0205],[110.78,-7.021],[110.7794,-7.0244],[110.7819,-7.0255],[110.7786,-7.0318],[110.7762,-7.0423],[110.7689,-7.0406],[110.7612,-7.0366],[110.7623,-7.0332],[110.7641,-7.0337],[110.7678,-7.0251]]]}},{"type":"Feature","properties":{"name":"Guci","name_en":"Guci","admin_level":"7","osm_id":""},"geometry":{"type":"Polygon","coordinates":[[[110.7853,-7.0662],[110.785,-7.0614],[110.7818,-7.0577],[110.7845,-7.0498],[110.7912,-7.0522],[110.7978,-7.0579],[110.7974,-7.0611],[110.8,-7.0615],[110.7977,-7.0657],[110.7855,-7.0674],[110.7853,-7.0662]]]}},{"type":"Feature","properties":{"name":"Gundi","name_en":"Gundi","admin_level":"7","osm_id":""},"geometry":{"type":"Polygon","coordinates":[[[110.8216,-7.0647],[110.8096,-7.0622],[110.8047,-7.0592],[110.8057,-7.0527],[110.8079,-7.0516],[110.8097,-7.0444],[110.8208,-7.0502],[110.8203,-7.0542],[110.817,-7.0551],[110.8168,-7.0588],[110.8183,-7.0592],[110.8182,-7.0622],[110.8223,-7.0624],[110.8216,-7.0647]]]}},{"type":"Feature","properties":{"name":"Guyangan","name_en":"Guyangan","admin_level":"7","osm_id":""},"geometry":{"type":"Polygon","coordinates":[[[110.8,-7.0616],[110.7974,-7.0611],[110.7984,-7.0588],[110.8036,-7.0587],[110.8096,-7.0622],[110.8216,-7.0647],[110.8189,-7.0745],[110.8127,-7.0728],[110.8068,-7.0823],[110.8023,-7.0798],[110.8049,-7.0735],[110.8003,-7.071],[110.8036,-7.0704],[110.8009,-7.0691],[110.8035,-7.0647],[110.8029,-7.0624],[110.8,-7.0616]]]}},{"type":"Feature","properties":{"name":"Harjowinangun","name_en":"Harjowinangun","admin_level":"7","osm_id":""},"geometry":{"type":"Polygon","coordinates":[[[110.7096,-7.0249],[110.7297,-7.0329],[110.7283,-7.0373],[110.7307,-7.0377],[110.731,-7.0406],[110.734,-7.0437],[110.736,-7.0431],[110.7377,-7.0463],[110.7387,-7.0455],[110.7374,-7.0484],[110.7396,-7.0529],[110.7392,-7.0564],[110.7285,-7.0558],[110.729,-7.0441],[110.722,-7.0426],[110.7123,-7.0432],[110.711,-7.0404],[110.7114,-7.03],[110.7095,-7.0282],[110.7096,-7.0249]]]}},{"type":"Feature","properties":{"name":"Jatilor","name_en":"Jatilor","admin_level":"7","osm_id":""},"geometry":{"type":"Polygon","coordinates":[[[110.8014,-7.0376],[110.8041,-7.0388],[110.8057,-7.0376],[110.8109,-7.0226],[110.8145,-7.0197],[110.8188,-7.0201],[110.8128,-7.0262],[110.8148,-7.0283],[110.8203,-7.0248],[110.8169,-7.0319],[110.8205,-7.0337],[110.8198,-7.0447],[110.8227,-7.0455],[110.8208,-7.0502],[110.8161,-7.047],[110.8115,-7.0464],[110.8095,-7.044],[110.7996,-7.041],[110.8014,-7.0376]]]}},{"type":"Feature","properties":{"name":"Karanggeneng","name_en":"Karanggeneng","admin_level":"7","osm_id":""},"geometry":{"type":"Polygon","coordinates":[[[110.7136,-7.0437],[110.7156,-7.0424],[110.7174,-7.0437],[110.722,-7.0426],[110.7297,-7.0445],[110.727,-7.0593],[110.7168,-7.0604],[110.7162,-7.0584],[110.7076,-7.0578],[110.7091,-7.0534],[110.7114,-7.053],[110.7104,-7.0506],[110.7136,-7.0437]]]}},{"type":"Feature","properties":{"name":"Kemloko","name_en":"Kemloko","admin_level":"7","osm_id":""},"geometry":{"type":"Polygon","coordinates":[[[110.7823,-7.0581],[110.7758,-7.0557],[110.7776,-7.0506],[110.7739,-7.0498],[110.7721,-7.0532],[110.7704,-7.0536],[110.769,-7.0534],[110.7691,-7.0516],[110.7662,-7.0511],[110.7646,-7.0437],[110.7605,-7.0429],[110.7625,-7.0378],[110.7779,-7.0437],[110.7866,-7.041],[110.7884,-7.0343],[110.7915,-7.0349],[110.7914,-7.0388],[110.7932,-7.0395],[110.797,-7.039],[110.7985,-7.0364],[110.8014,-7.0376],[110.7924,-7.0478],[110.7906,-7.0465],[110.7885,-7.0506],[110.784,-7.05],[110.7823,-7.0581]]]}},{"type":"Feature","properties":{"name":"Ketangirejo","name_en":"Ketangirejo","admin_level":"7","osm_id":""},"geometry":{"type":"Polygon","coordinates":[[[110.7702,-7.0602],[110.7698,-7.0663],[110.7772,-7.0698],[110.7753,-7.0717],[110.7747,-7.0781],[110.7721,-7.0771],[110.7674,-7.0789],[110.7625,-7.0773],[110.7611,-7.083],[110.7586,-7.0827],[110.7582,-7.0848],[110.7557,-7.0854],[110.7559,-7.0786],[110.7596,-7.0758],[110.7598,-7.0736],[110.7558,-7.0706],[110.7566,-7.0652],[110.7584,-7.0645],[110.7595,-7.0607],[110.7555,-7.0607],[110.754,-7.0585],[110.7568,-7.0582],[110.7565,-7.0553],[110.7702,-7.0602]]]}},{"type":"Feature","properties":{"name":"Ketitang","name_en":"Ketitang","admin_level":"7","osm_id":""},"geometry":{"type":"Polygon","coordinates":[[[110.7458,-7.0283],[110.7626,-7.0217],[110.765,-7.0218],[110.7678,-7.0251],[110.7641,-7.0337],[110.7623,-7.0332],[110.7592,-7.0392],[110.7552,-7.0375],[110.7458,-7.0283]]]}},{"type":"Feature","properties":{"name":"Klampok","name_en":"Klampok","admin_level":"7","osm_id":""},"geometry":{"type":"Polygon","coordinates":[[[110.7887,-7.0149],[110.7894,-7.0228],[110.7923,-7.0259],[110.7912,-7.033],[110.7962,-7.0345],[110.7983,-7.0365],[110.7977,-7.0385],[110.7914,-7.0388],[110.7915,-7.0349],[110.7887,-7.0342],[110.7866,-7.041],[110.776,-7.0433],[110.7786,-7.0318],[110.7819,-7.0255],[110.7794,-7.0244],[110.78,-7.021],[110.776,-7.0205],[110.7766,-7.0173],[110.7835,-7.0111],[110.7849,-7.0119],[110.7837,-7.0167],[110.7887,-7.0149]]]}},{"type":"Feature","properties":{"name":"Kopek","name_en":"Kopek","admin_level":"7","osm_id":""},"geometry":{"type":"Polygon","coordinates":[[[110.7704,-7.0536],[110.7702,-7.0602],[110.756,-7.0552],[110.7564,-7.05],[110.7544,-7.0488],[110.7541,-7.045],[110.7595,-7.043],[110.7646,-7.0437],[110.7662,-7.0511],[110.7691,-7.0516],[110.769,-7.0534],[110.7704,-7.0536]]]}},{"type":"Feature","properties":{"name":"Latak","name_en":"Latak","admin_level":"7","osm_id":""},"geometry":{"type":"Polygon","coordinates":[[[110.7215,-7.0744],[110.731,-7.0657],[110.7329,-7.0701],[110.7308,-7.0747],[110.7314,-7.0782],[110.7337,-7.0788],[110.7351,-7.0819],[110.7399,-7.0828],[110.7428,-7.0895],[110.7311,-7.0891],[110.7246,-7.0974],[110.7188,-7.0972],[110.7196,-7.0836],[110.7221,-7.0826],[110.7232,-7.0766],[110.7215,-7.0744]]]}},{"type":"Feature","properties":{"name":"Manggarmas","name_en":"Manggarmas","admin_level":"7","osm_id":""},"geometry":{"type":"Polygon","coordinates":[[[110.6966,-7.0255],[110.6986,-7.0259],[110.6996,-7.0215],[110.6932,-7.0201],[110.6937,-7.0182],[110.7096,-7.0249],[110.7095,-7.0282],[110.7114,-7.0301],[110.711,-7.0404],[110.7075,-7.0406],[110.705,-7.0432],[110.6969,-7.0427],[110.6941,-7.0376],[110.6978,-7.0346],[110.6961,-7.0321],[110.6966,-7.0255]]]}},{"type":"Feature","properties":{"name":"Manggarwetan","name_en":"Manggarwetan","admin_level":"7","osm_id":""},"geometry":{"type":"Polygon","coordinates":[[[110.711,-7.0404],[110.7136,-7.0437],[110.7104,-7.0506],[110.7117,-7.052],[110.7085,-7.0547],[110.7044,-7.0704],[110.7025,-7.07],[110.6999,-7.0684],[110.7014,-7.0635],[110.6936,-7.0586],[110.6969,-7.0427],[110.705,-7.0432],[110.7075,-7.0406],[110.711,-7.0404]]]}},{"type":"Feature","properties":{"name":"Pahesan","name_en":"Pahesan","admin_level":"7","osm_id":""},"geometry":{"type":"Polygon","coordinates":[[[110.7168,-7.0604],[110.7279,-7.0595],[110.731,-7.0657],[110.7215,-7.0744],[110.7172,-7.0738],[110.7174,-7.0699],[110.7132,-7.0688],[110.7176,-7.0625],[110.7168,-7.0604]]]}},{"type":"Feature","properties":{"name":"Rajek","name_en":"Rajek","admin_level":"7","osm_id":""},"geometry":{"type":"Polygon","coordinates":[[[110.7444,-7.0287],[110.7458,-7.0283],[110.7552,-7.0375],[110.7494,-7.0381],[110.7414,-7.047],[110.7387,-7.0455],[110.7377,-7.0463],[110.7361,-7.0431],[110.734,-7.0437],[110.731,-7.0406],[110.7307,-7.0377],[110.7291,-7.0381],[110.7279,-7.0365],[110.7297,-7.0329],[110.7444,-7.0287]]]}},{"type":"Feature","properties":{"name":"Sambung","name_en":"Sambung","admin_level":"7","osm_id":""},"geometry":{"type":"Polygon","coordinates":[[[110.7458,-7.0585],[110.7486,-7.0552],[110.7565,-7.0553],[110.7568,-7.0582],[110.7546,-7.0582],[110.7541,-7.0597],[110.7595,-7.0607],[110.7584,-7.0645],[110.7566,-7.0652],[110.7558,-7.0706],[110.7598,-7.0736],[110.7593,-7.0771],[110.7559,-7.0786],[110.7557,-7.0854],[110.7526,-7.0859],[110.7516,-7.0841],[110.7428,-7.0895],[110.7399,-7.0828],[110.741,-7.0776],[110.7436,-7.0767],[110.7415,-7.0709],[110.7458,-7.0585]]]}},{"type":"Feature","properties":{"name":"Sumberagung","name_en":"Sumberagung","admin_level":"7","osm_id":""},"geometry":{"type":"Polygon","coordinates":[[[110.7983,-7.059],[110.7883,-7.0506],[110.7906,-7.0465],[110.7924,-7.0478],[110.7999,-7.0409],[110.8095,-7.044],[110.8079,-7.0516],[110.8057,-7.0527],[110.8049,-7.0595],[110.7983,-7.059]]]}},{"type":"Feature","properties":{"name":"Sumurgede","name_en":"Sumurgede","admin_level":"7","osm_id":""},"geometry":{"type":"Polygon","coordinates":[[[110.7392,-7.0564],[110.7458,-7.0585],[110.7415,-7.0709],[110.7436,-7.0767],[110.741,-7.0776],[110.7399,-7.0828],[110.7351,-7.0819],[110.7337,-7.0788],[110.7314,-7.0782],[110.7308,-7.0747],[110.7329,-7.0701],[110.7289,-7.0602],[110.7264,-7.0575],[110.7285,-7.0558],[110.7392,-7.0564]]]}},{"type":"Feature","properties":{"name":"Tinanding","name_en":"Tinanding","admin_level":"7","osm_id":""},"geometry":{"type":"Polygon","coordinates":[[[110.6893,-7.0331],[110.6899,-7.0322],[110.6932,-7.0337],[110.6946,-7.031],[110.6909,-7.03],[110.6921,-7.0249],[110.6966,-7.0255],[110.6961,-7.0321],[110.6978,-7.0346],[110.6941,-7.0376],[110.6969,-7.043],[110.6936,-7.0586],[110.6899,-7.0582],[110.6774,-7.0501],[110.6788,-7.0476],[110.6771,-7.0464],[110.6893,-7.0331]]]}},{"type":"Feature","properties":{"name":"Tungu","name_en":"Tungu","admin_level":"7","osm_id":""},"geometry":{"type":"Polygon","coordinates":[[[110.7215,-7.0744],[110.7232,-7.0766],[110.7221,-7.0826],[110.7196,-7.0836],[110.7187,-7.0926],[110.7092,-7.0916],[110.7065,-7.084],[110.7094,-7.0812],[110.7097,-7.0731],[110.7132,-7.0695],[110.7172,-7.0697],[110.7172,-7.0738],[110.7215,-7.0744]]]}},{"type":"Feature","properties":{"name":"Wanutunggal","name_en":"Wanutunggal","admin_level":"7","osm_id":""},"geometry":{"type":"Polygon","coordinates":[[[110.7076,-7.0578],[110.7162,-7.0584],[110.7176,-7.0625],[110.7134,-7.0694],[110.7044,-7.0704],[110.7076,-7.0578]]]}},{"type":"Feature","properties":{"name":"Werdoyo","name_en":"Werdoyo","admin_level":"7","osm_id":""},"geometry":{"type":"Polygon","coordinates":[[[110.7812,-7.07],[110.785,-7.0689],[110.7853,-7.0662],[110.7855,-7.0674],[110.7977,-7.0657],[110.8005,-7.0616],[110.8034,-7.063],[110.8035,-7.0656],[110.8013,-7.0678],[110.8023,-7.0685],[110.8009,-7.0691],[110.8036,-7.0699],[110.8003,-7.071],[110.8044,-7.0721],[110.8049,-7.0736],[110.8023,-7.0798],[110.7935,-7.0799],[110.7916,-7.0793],[110.7915,-7.0734],[110.7825,-7.0724],[110.7812,-7.07]]]}}]}