{"type":"FeatureCollection","metadata":{"parent_osm_id":"19306427","parent_name":"Bagor","parent_name_1":"JawaTimur","parent_gid":"IDN.11.24.1_1","parent_level":"6","child_level":"7","count":22,"source":"GADM 4.1","generated":"2026-05-09"},"features":[{"type":"Feature","properties":{"name":"BagorKulon","name_en":"BagorKulon","admin_level":"7","osm_id":""},"geometry":{"type":"Polygon","coordinates":[[[111.8494,-7.5559],[111.8511,-7.5566],[111.8507,-7.559],[111.8541,-7.5611],[111.8518,-7.5636],[111.8472,-7.5616],[111.8487,-7.5637],[111.847,-7.5701],[111.8447,-7.5693],[111.8403,-7.5715],[111.8361,-7.5705],[111.835,-7.5728],[111.8324,-7.5707],[111.8337,-7.5682],[111.8327,-7.5662],[111.8319,-7.5675],[111.8309,-7.5666],[111.8321,-7.5627],[111.8421,-7.5646],[111.8431,-7.5614],[111.845,-7.5606],[111.8418,-7.5591],[111.8409,-7.5561],[111.8494,-7.5559]]]}},{"type":"Feature","properties":{"name":"Balongrejo","name_en":"Balongrejo","admin_level":"7","osm_id":""},"geometry":{"type":"Polygon","coordinates":[[[111.8553,-7.6073],[111.8537,-7.6058],[111.8488,-7.6128],[111.8365,-7.6142],[111.8374,-7.6077],[111.841,-7.6036],[111.8402,-7.6013],[111.8425,-7.602],[111.844,-7.5967],[111.8506,-7.5956],[111.8514,-7.5927],[111.8544,-7.5906],[111.8541,-7.5969],[111.8555,-7.5975],[111.8534,-7.6003],[111.856,-7.6026],[111.8553,-7.6073]]]}},{"type":"Feature","properties":{"name":"BanaranKulon","name_en":"BanaranKulon","admin_level":"7","osm_id":""},"geometry":{"type":"Polygon","coordinates":[[[111.839,-7.5249],[111.8438,-7.5134],[111.8499,-7.5185],[111.8523,-7.5241],[111.8577,-7.5246],[111.8617,-7.5336],[111.8589,-7.5336],[111.8564,-7.537],[111.8526,-7.5381],[111.8523,-7.54],[111.8601,-7.546],[111.8621,-7.5487],[111.8617,-7.5508],[111.8632,-7.5512],[111.8622,-7.5543],[111.8638,-7.5616],[111.861,-7.5661],[111.8507,-7.5591],[111.8511,-7.5566],[111.8494,-7.5559],[111.8503,-7.5527],[111.8481,-7.5518],[111.8488,-7.5499],[111.8517,-7.5509],[111.8535,-7.5541],[111.8582,-7.5558],[111.8595,-7.5504],[111.8584,-7.547],[111.8537,-7.5421],[111.8486,-7.5405],[111.8514,-7.5378],[111.8498,-7.5368],[111.8494,-7.5335],[111.8467,-7.5323],[111.8426,-7.5265],[111.839,-7.5249]]]}},{"type":"Feature","properties":{"name":"BanaranWetan","name_en":"BanaranWetan","admin_level":"7","osm_id":""},"geometry":{"type":"Polygon","coordinates":[[[111.864,-7.5591],[111.8627,-7.5596],[111.8633,-7.5549],[111.8622,-7.5543],[111.8634,-7.5528],[111.8617,-7.5508],[111.8621,-7.5487],[111.8523,-7.54],[111.8526,-7.5381],[111.8564,-7.537],[111.8589,-7.5336],[111.8617,-7.5336],[111.8623,-7.5355],[111.8656,-7.5366],[111.8654,-7.538],[111.8707,-7.5383],[111.8702,-7.5399],[111.8646,-7.5412],[111.864,-7.5448],[111.8659,-7.5449],[111.8672,-7.5492],[111.8709,-7.5498],[111.8665,-7.5595],[111.864,-7.5591]]]}},{"type":"Feature","properties":{"name":"Buduran","name_en":"Buduran","admin_level":"7","osm_id":""},"geometry":{"type":"Polygon","coordinates":[[[111.8601,-7.5929],[111.8638,-7.5931],[111.8711,-7.5971],[111.8733,-7.5967],[111.873,-7.5987],[111.8754,-7.5983],[111.8751,-7.6015],[111.8743,-7.6027],[111.8685,-7.601],[111.8639,-7.6025],[111.8643,-7.6],[111.8575,-7.601],[111.8573,-7.597],[111.8601,-7.5929]]]}},{"type":"Feature","properties":{"name":"Gandu","name_en":"Gandu","admin_level":"7","osm_id":""},"geometry":{"type":"Polygon","coordinates":[[[111.8751,-7.6015],[111.8754,-7.5983],[111.873,-7.5987],[111.8733,-7.5967],[111.8711,-7.5971],[111.8636,-7.593],[111.8605,-7.5935],[111.8608,-7.5903],[111.8668,-7.5905],[111.8681,-7.5887],[111.8715,-7.5884],[111.8734,-7.5843],[111.8773,-7.5867],[111.8774,-7.5896],[111.881,-7.5913],[111.8811,-7.5962],[111.8804,-7.5997],[111.8772,-7.5995],[111.877,-7.6014],[111.8751,-7.6015]]]}},{"type":"Feature","properties":{"name":"Gemenggeng","name_en":"Gemenggeng","admin_level":"7","osm_id":""},"geometry":{"type":"Polygon","coordinates":[[[111.8683,-7.5736],[111.8697,-7.5666],[111.8768,-7.5665],[111.8772,-7.5646],[111.8793,-7.5647],[111.8798,-7.5675],[111.8817,-7.5672],[111.8817,-7.5657],[111.8869,-7.5667],[111.8835,-7.5716],[111.8796,-7.5699],[111.8784,-7.5723],[111.8761,-7.573],[111.8713,-7.571],[111.8703,-7.5742],[111.8683,-7.5736]]]}},{"type":"Feature","properties":{"name":"Girirejo","name_en":"Girirejo","admin_level":"7","osm_id":""},"geometry":{"type":"Polygon","coordinates":[[[111.8488,-7.6128],[111.8537,-7.6058],[111.8586,-7.6083],[111.8597,-7.6065],[111.8648,-7.6067],[111.8639,-7.6044],[111.8655,-7.6051],[111.8684,-7.6034],[111.8754,-7.606],[111.8746,-7.6105],[111.872,-7.6095],[111.8711,-7.6068],[111.8694,-7.6109],[111.8726,-7.6131],[111.8679,-7.6167],[111.8623,-7.613],[111.8564,-7.6159],[111.8488,-7.6128]]]}},{"type":"Feature","properties":{"name":"Guyangan","name_en":"Guyangan","admin_level":"7","osm_id":""},"geometry":{"type":"Polygon","coordinates":[[[111.881,-7.5913],[111.8773,-7.5895],[111.8776,-7.5828],[111.8756,-7.5805],[111.8759,-7.5783],[111.8788,-7.5786],[111.8806,-7.5825],[111.8801,-7.5858],[111.8819,-7.5867],[111.881,-7.5913]]]}},{"type":"Feature","properties":{"name":"Hutan","name_en":"Hutan","admin_level":"7","osm_id":""},"geometry":{"type":"Polygon","coordinates":[[[111.8324,-7.5705],[111.8352,-7.5732],[111.835,-7.5784],[111.8379,-7.58],[111.8344,-7.5818],[111.8348,-7.5829],[111.8387,-7.5814],[111.8398,-7.5847],[111.8433,-7.5812],[111.8445,-7.5822],[111.8444,-7.5856],[111.8373,-7.5945],[111.8409,-7.5938],[111.8428,-7.5914],[111.8453,-7.5948],[111.8425,-7.602],[111.8402,-7.6013],[111.841,-7.6036],[111.8374,-7.6077],[111.8365,-7.6166],[111.8229,-7.6257],[111.8196,-7.6299],[111.8201,-7.6313],[111.8184,-7.6318],[111.818,-7.6346],[111.8148,-7.6364],[111.8141,-7.6306],[111.8051,-7.6241],[111.803,-7.6204],[111.8014,-7.6209],[111.8012,-7.6191],[111.8203,-7.5893],[111.8284,-7.5703],[111.8293,-7.5689],[111.8324,-7.5705]]]}},{"type":"Feature","properties":{"name":"KarangTengah","name_en":"KarangTengah","admin_level":"7","osm_id":""},"geometry":{"type":"Polygon","coordinates":[[[111.8562,-7.5678],[111.8627,-7.5732],[111.8615,-7.5732],[111.8598,-7.5788],[111.8587,-7.578],[111.8565,-7.5862],[111.8512,-7.5813],[111.8556,-7.5763],[111.8547,-7.5714],[111.8562,-7.5678]]]}},{"type":"Feature","properties":{"name":"Kedondong","name_en":"Kedondong","admin_level":"7","osm_id":""},"geometry":{"type":"Polygon","coordinates":[[[111.8812,-7.5959],[111.8819,-7.5867],[111.8801,-7.5858],[111.8806,-7.5825],[111.8899,-7.5837],[111.8884,-7.5934],[111.8861,-7.5954],[111.8812,-7.5959]]]}},{"type":"Feature","properties":{"name":"KendalRejo","name_en":"KendalRejo","admin_level":"7","osm_id":""},"geometry":{"type":"Polygon","coordinates":[[[111.8575,-7.5645],[111.861,-7.5661],[111.864,-7.5591],[111.8671,-7.5598],[111.866,-7.5639],[111.8679,-7.5637],[111.8703,-7.5681],[111.8687,-7.5694],[111.8683,-7.5736],[111.8597,-7.5719],[111.86,-7.5701],[111.8561,-7.5677],[111.8538,-7.5685],[111.8575,-7.5645]]]}},{"type":"Feature","properties":{"name":"KerepKidul","name_en":"KerepKidul","admin_level":"7","osm_id":""},"geometry":{"type":"Polygon","coordinates":[[[111.8771,-7.5866],[111.8701,-7.5823],[111.8717,-7.577],[111.8701,-7.5749],[111.8707,-7.5712],[111.8793,-7.5728],[111.8788,-7.5786],[111.8759,-7.5783],[111.8756,-7.5798],[111.8776,-7.5828],[111.8771,-7.5866]]]}},{"type":"Feature","properties":{"name":"Kutorejo","name_en":"Kutorejo","admin_level":"7","osm_id":""},"geometry":{"type":"Polygon","coordinates":[[[111.8788,-7.5721],[111.8796,-7.5699],[111.8818,-7.5702],[111.8835,-7.5716],[111.8845,-7.5776],[111.8905,-7.5779],[111.8928,-7.5805],[111.888,-7.5834],[111.8797,-7.5821],[111.8788,-7.5721]]]}},{"type":"Feature","properties":{"name":"Ngumpul","name_en":"Ngumpul","admin_level":"7","osm_id":""},"geometry":{"type":"Polygon","coordinates":[[[111.8555,-7.5975],[111.8541,-7.5969],[111.8544,-7.5906],[111.8513,-7.5929],[111.8515,-7.595],[111.8465,-7.5971],[111.844,-7.5967],[111.8454,-7.5941],[111.8428,-7.5914],[111.8375,-7.5948],[111.8444,-7.5856],[111.8445,-7.5822],[111.8433,-7.5812],[111.8398,-7.5847],[111.8387,-7.5814],[111.8348,-7.5829],[111.8344,-7.5818],[111.8379,-7.58],[111.835,-7.5784],[111.8352,-7.5733],[111.8422,-7.5728],[111.8431,-7.5743],[111.845,-7.5732],[111.844,-7.5752],[111.847,-7.5767],[111.8445,-7.5786],[111.8468,-7.5805],[111.8485,-7.579],[111.8566,-7.5862],[111.855,-7.5905],[111.8565,-7.5942],[111.8589,-7.5956],[111.8555,-7.5975]]]}},{"type":"Feature","properties":{"name":"Paron","name_en":"Paron","admin_level":"7","osm_id":""},"geometry":{"type":"Polygon","coordinates":[[[111.8562,-7.5678],[111.8547,-7.5714],[111.8557,-7.576],[111.8541,-7.579],[111.8512,-7.5813],[111.8485,-7.579],[111.8468,-7.5805],[111.8455,-7.5796],[111.8445,-7.5778],[111.847,-7.5767],[111.844,-7.5752],[111.8465,-7.5719],[111.8511,-7.5711],[111.8518,-7.565],[111.8551,-7.5654],[111.8538,-7.5685],[111.8562,-7.5678]]]}},{"type":"Feature","properties":{"name":"Pesudukuh","name_en":"Pesudukuh","admin_level":"7","osm_id":""},"geometry":{"type":"Polygon","coordinates":[[[111.8553,-7.6073],[111.856,-7.6026],[111.8534,-7.5998],[111.8555,-7.5975],[111.8582,-7.5981],[111.8575,-7.601],[111.8643,-7.6],[111.8639,-7.6025],[111.8685,-7.601],[111.8747,-7.6028],[111.8784,-7.6057],[111.8788,-7.6102],[111.8765,-7.6104],[111.8762,-7.6124],[111.8732,-7.611],[111.8727,-7.6128],[111.8702,-7.612],[111.8694,-7.6109],[111.8711,-7.6068],[111.872,-7.6095],[111.8746,-7.6105],[111.8754,-7.606],[111.8697,-7.6036],[111.8639,-7.6044],[111.8648,-7.6067],[111.8597,-7.6065],[111.8586,-7.6083],[111.8553,-7.6073]]]}},{"type":"Feature","properties":{"name":"Petak","name_en":"Petak","admin_level":"7","osm_id":""},"geometry":{"type":"Polygon","coordinates":[[[111.835,-7.5728],[111.8361,-7.5705],[111.8403,-7.5715],[111.8447,-7.5693],[111.847,-7.5701],[111.8487,-7.5637],[111.8472,-7.5615],[111.8518,-7.5636],[111.8541,-7.5611],[111.857,-7.5626],[111.8566,-7.5661],[111.8518,-7.565],[111.8502,-7.5717],[111.8465,-7.5719],[111.8433,-7.5743],[111.8422,-7.5728],[111.835,-7.5728]]]}},{"type":"Feature","properties":{"name":"SekarPutih","name_en":"SekarPutih","admin_level":"7","osm_id":""},"geometry":{"type":"Polygon","coordinates":[[[111.8743,-7.6027],[111.877,-7.6014],[111.8772,-7.5995],[111.8831,-7.6],[111.882,-7.6112],[111.8764,-7.6122],[111.8765,-7.6104],[111.8788,-7.6103],[111.8784,-7.6057],[111.8743,-7.6027]]]}},{"type":"Feature","properties":{"name":"Selorejo","name_en":"Selorejo","admin_level":"7","osm_id":""},"geometry":{"type":"Polygon","coordinates":[[[111.8601,-7.5929],[111.8579,-7.5951],[111.855,-7.5904],[111.8587,-7.578],[111.8598,-7.5788],[111.8623,-7.5721],[111.8703,-7.5742],[111.8717,-7.577],[111.8701,-7.5823],[111.8734,-7.5843],[111.8722,-7.5878],[111.8681,-7.5887],[111.8668,-7.5905],[111.8611,-7.5901],[111.8601,-7.5929]]]}},{"type":"Feature","properties":{"name":"SugihWaras","name_en":"SugihWaras","admin_level":"7","osm_id":""},"geometry":{"type":"Polygon","coordinates":[[[111.8928,-7.5802],[111.8905,-7.5779],[111.8845,-7.5776],[111.8831,-7.5729],[111.8876,-7.5734],[111.8877,-7.5758],[111.8895,-7.5763],[111.8903,-7.5706],[111.9043,-7.576],[111.9011,-7.5786],[111.8981,-7.5783],[111.898,-7.5805],[111.8954,-7.578],[111.8931,-7.5785],[111.8928,-7.5802]]]}}]}