{"type":"FeatureCollection","metadata":{"parent_osm_id":"gid_IDN_11_34_20_1","parent_name":"Nonggunong","parent_name_1":"JawaTimur","parent_gid":"IDN.11.34.20_1","parent_level":"6","child_level":"7","count":8,"source":"GADM 4.1","generated":"2026-05-07"},"features":[{"type":"Feature","properties":{"name":"Nonggunong","name_en":"Nonggunong","admin_level":"7","osm_id":""},"geometry":{"type":"Polygon","coordinates":[[[114.4337,-6.8385],[114.4353,-6.8371],[114.4362,-6.8407],[114.4336,-6.8427],[114.4348,-6.8521],[114.4334,-6.8583],[114.4311,-6.8585],[114.4287,-6.856],[114.4236,-6.8421],[114.4265,-6.8339],[114.4298,-6.8318],[114.4318,-6.8332],[114.4337,-6.8385]]]}},{"type":"Feature","properties":{"name":"Rosong","name_en":"Rosong","admin_level":"7","osm_id":""},"geometry":{"type":"Polygon","coordinates":[[[114.3448,-7.0695],[114.341,-7.0751],[114.3419,-7.0771],[114.3403,-7.0787],[114.3385,-7.0782],[114.324,-7.0689],[114.3265,-7.0624],[114.3252,-7.0575],[114.3329,-7.0586],[114.3379,-7.0617],[114.3448,-7.0695]]]}},{"type":"Feature","properties":{"name":"SokaramePaseser","name_en":"SokaramePaseser","admin_level":"7","osm_id":""},"geometry":{"type":"Polygon","coordinates":[[[114.301,-7.0956],[114.2989,-7.0935],[114.2946,-7.0934],[114.2876,-7.0982],[114.2845,-7.0955],[114.2729,-7.094],[114.2747,-7.0885],[114.2948,-7.0659],[114.2976,-7.0646],[114.3004,-7.0714],[114.3007,-7.0791],[114.3029,-7.0827],[114.3027,-7.0884],[114.3,-7.0928],[114.301,-7.0956]]]}},{"type":"Feature","properties":{"name":"SokarameTimur","name_en":"SokarameTimur","admin_level":"7","osm_id":""},"geometry":{"type":"Polygon","coordinates":[[[114.3269,-7.0988],[114.3214,-7.0998],[114.315,-7.1047],[114.3094,-7.1048],[114.3048,-7.1024],[114.3,-7.0928],[114.3022,-7.09],[114.3029,-7.0847],[114.3003,-7.0769],[114.3078,-7.0759],[114.317,-7.0787],[114.3201,-7.0908],[114.3288,-7.094],[114.3269,-7.0988]]]}},{"type":"Feature","properties":{"name":"Somber","name_en":"Somber","admin_level":"7","osm_id":""},"geometry":{"type":"Polygon","coordinates":[[[114.34,-7.1005],[114.3311,-7.0974],[114.3269,-7.0984],[114.3319,-7.0862],[114.3403,-7.0805],[114.34,-7.0872],[114.3421,-7.0886],[114.34,-7.1005]]]}},{"type":"Feature","properties":{"name":"Sonok","name_en":"Sonok","admin_level":"7","osm_id":""},"geometry":{"type":"Polygon","coordinates":[[[114.3508,-7.1113],[114.3421,-7.1111],[114.3434,-7.1054],[114.3397,-7.1017],[114.341,-7.0997],[114.34,-7.0957],[114.3417,-7.091],[114.3512,-7.0931],[114.3528,-7.0872],[114.3522,-7.0818],[114.3542,-7.077],[114.3707,-7.0896],[114.3739,-7.0967],[114.3751,-7.1101],[114.3663,-7.1072],[114.3568,-7.1121],[114.3508,-7.1113]]]}},{"type":"Feature","properties":{"name":"Talaga","name_en":"Talaga","admin_level":"7","osm_id":""},"geometry":{"type":"Polygon","coordinates":[[[114.3253,-7.0576],[114.3265,-7.0624],[114.3252,-7.0678],[114.32,-7.0728],[114.3167,-7.0787],[114.3078,-7.0759],[114.3003,-7.0769],[114.3004,-7.0714],[114.2976,-7.0646],[114.3018,-7.0622],[114.3253,-7.0576]]]}},{"type":"Feature","properties":{"name":"Tanahmerah","name_en":"Tanahmerah","admin_level":"7","osm_id":""},"geometry":{"type":"Polygon","coordinates":[[[114.3403,-7.0787],[114.3403,-7.0805],[114.3319,-7.0862],[114.3286,-7.0939],[114.3192,-7.0896],[114.3167,-7.0787],[114.324,-7.0689],[114.3403,-7.0787]]]}}]}