{"type":"FeatureCollection","metadata":{"parent_osm_id":"gid_IDN_11_22_27_1","parent_name":"Tajinan","parent_name_1":"JawaTimur","parent_gid":"IDN.11.22.27_1","parent_level":"6","child_level":"7","count":12,"source":"GADM 4.1","generated":"2026-05-07"},"features":[{"type":"Feature","properties":{"name":"Gunungronggo","name_en":"Gunungronggo","admin_level":"7","osm_id":""},"geometry":{"type":"Polygon","coordinates":[[[112.7054,-8.0412],[112.7162,-8.0508],[112.7202,-8.0523],[112.7211,-8.061],[112.7118,-8.0642],[112.7074,-8.0564],[112.6975,-8.0547],[112.6941,-8.0558],[112.6911,-8.0543],[112.6938,-8.0502],[112.6956,-8.0507],[112.6954,-8.0479],[112.6986,-8.0487],[112.7054,-8.0412]]]}},{"type":"Feature","properties":{"name":"Gunungsari","name_en":"Gunungsari","admin_level":"7","osm_id":""},"geometry":{"type":"Polygon","coordinates":[[[112.7037,-8.0399],[112.7054,-8.0412],[112.7011,-8.0468],[112.6986,-8.0487],[112.6954,-8.0479],[112.6956,-8.0507],[112.6938,-8.0502],[112.6937,-8.0517],[112.6912,-8.0511],[112.6886,-8.0456],[112.6911,-8.0316],[112.7037,-8.0399]]]}},{"type":"Feature","properties":{"name":"Jambearjo","name_en":"Jambearjo","admin_level":"7","osm_id":""},"geometry":{"type":"Polygon","coordinates":[[[112.6528,-8.0833],[112.6542,-8.078],[112.6506,-8.0772],[112.6511,-8.0754],[112.6487,-8.0748],[112.6512,-8.0694],[112.649,-8.0684],[112.6502,-8.0655],[112.6564,-8.0654],[112.658,-8.0686],[112.6626,-8.0703],[112.6614,-8.0729],[112.6641,-8.0746],[112.6756,-8.0769],[112.6731,-8.0839],[112.667,-8.0828],[112.6635,-8.0799],[112.661,-8.0825],[112.6571,-8.0818],[112.6528,-8.0833]]]}},{"type":"Feature","properties":{"name":"Jatisari","name_en":"Jatisari","admin_level":"7","osm_id":""},"geometry":{"type":"Polygon","coordinates":[[[112.6777,-8.0762],[112.6763,-8.0771],[112.6645,-8.0748],[112.6614,-8.0729],[112.6626,-8.0703],[112.6598,-8.0693],[112.6608,-8.0666],[112.6591,-8.0649],[112.6595,-8.0623],[112.6619,-8.0603],[112.6742,-8.064],[112.6755,-8.0622],[112.6786,-8.0617],[112.6811,-8.0713],[112.6777,-8.0762]]]}},{"type":"Feature","properties":{"name":"Ngawonggo","name_en":"Ngawonggo","admin_level":"7","osm_id":""},"geometry":{"type":"Polygon","coordinates":[[[112.7015,-8.0829],[112.7009,-8.0799],[112.6982,-8.0796],[112.6968,-8.0775],[112.6893,-8.0768],[112.6904,-8.0722],[112.6918,-8.0713],[112.6931,-8.0725],[112.6974,-8.0696],[112.7052,-8.0689],[112.7084,-8.0669],[112.7155,-8.0711],[112.7155,-8.0728],[112.7181,-8.0746],[112.7248,-8.0764],[112.7239,-8.0814],[112.7179,-8.0816],[112.7162,-8.0836],[112.7015,-8.0829]]]}},{"type":"Feature","properties":{"name":"Pandanmulyo","name_en":"Pandanmulyo","admin_level":"7","osm_id":""},"geometry":{"type":"Polygon","coordinates":[[[112.6832,-8.0838],[112.6806,-8.0828],[112.6822,-8.077],[112.6777,-8.0762],[112.6849,-8.0667],[112.6899,-8.0672],[112.6917,-8.0645],[112.7016,-8.0683],[112.6931,-8.0725],[112.6918,-8.0713],[112.6904,-8.0723],[112.6893,-8.0768],[112.6968,-8.0775],[112.7016,-8.0811],[112.7015,-8.0829],[112.6983,-8.0821],[112.6955,-8.0859],[112.6966,-8.0877],[112.695,-8.0934],[112.6879,-8.0926],[112.6878,-8.0898],[112.6851,-8.0889],[112.6882,-8.0867],[112.688,-8.0838],[112.6832,-8.0838]]]}},{"type":"Feature","properties":{"name":"Purwosekar","name_en":"Purwosekar","admin_level":"7","osm_id":""},"geometry":{"type":"Polygon","coordinates":[[[112.6932,-8.0551],[112.7074,-8.0564],[112.712,-8.0634],[112.7119,-8.0657],[112.7052,-8.0689],[112.6917,-8.0645],[112.6899,-8.0672],[112.6849,-8.0667],[112.6822,-8.0714],[112.6807,-8.0712],[112.6786,-8.0617],[112.6819,-8.0578],[112.6929,-8.0576],[112.6932,-8.0551]]]}},{"type":"Feature","properties":{"name":"Randugading","name_en":"Randugading","admin_level":"7","osm_id":""},"geometry":{"type":"Polygon","coordinates":[[[112.6778,-8.0612],[112.6742,-8.064],[112.6717,-8.0624],[112.6702,-8.0637],[112.6655,-8.0621],[112.6665,-8.0589],[112.6644,-8.057],[112.6655,-8.0549],[112.6645,-8.0536],[112.6649,-8.0516],[112.6696,-8.0485],[112.6712,-8.0487],[112.6716,-8.0513],[112.6732,-8.0507],[112.6725,-8.0474],[112.6742,-8.0451],[112.6732,-8.0441],[112.6773,-8.0389],[112.6768,-8.0357],[112.6799,-8.0266],[112.684,-8.0289],[112.6818,-8.035],[112.6853,-8.0448],[112.6847,-8.0479],[112.6786,-8.0474],[112.6786,-8.0543],[112.676,-8.0543],[112.6763,-8.0594],[112.6778,-8.0612]]]}},{"type":"Feature","properties":{"name":"Sumbersuko","name_en":"Sumbersuko","admin_level":"7","osm_id":""},"geometry":{"type":"Polygon","coordinates":[[[112.6561,-8.0503],[112.6604,-8.0413],[112.6626,-8.0399],[112.6655,-8.0409],[112.6679,-8.035],[112.6728,-8.0319],[112.6769,-8.0257],[112.6799,-8.0266],[112.6768,-8.0357],[112.6773,-8.0389],[112.6732,-8.0441],[112.6742,-8.0451],[112.6725,-8.0474],[112.6732,-8.0507],[112.6716,-8.0513],[112.67,-8.0485],[112.6649,-8.0516],[112.6644,-8.057],[112.6665,-8.0589],[112.6655,-8.0621],[112.659,-8.0587],[112.6561,-8.0594],[112.6561,-8.0503]]]}},{"type":"Feature","properties":{"name":"Tajinan","name_en":"Tajinan","admin_level":"7","osm_id":""},"geometry":{"type":"Polygon","coordinates":[[[112.6937,-8.0517],[112.6911,-8.0543],[112.6932,-8.0551],[112.6929,-8.0576],[112.6821,-8.0577],[112.6793,-8.0618],[112.6765,-8.0599],[112.676,-8.0543],[112.6786,-8.0543],[112.6786,-8.0474],[112.6848,-8.0476],[112.6854,-8.0428],[112.6818,-8.035],[112.684,-8.0289],[112.6911,-8.0316],[112.6886,-8.0456],[112.6912,-8.0511],[112.6937,-8.0517]]]}},{"type":"Feature","properties":{"name":"Tambakasri","name_en":"Tambakasri","admin_level":"7","osm_id":""},"geometry":{"type":"Polygon","coordinates":[[[112.6317,-8.0459],[112.6423,-8.0499],[112.6454,-8.0483],[112.6455,-8.0513],[112.6425,-8.0513],[112.6424,-8.0552],[112.6409,-8.0547],[112.6394,-8.059],[112.636,-8.0608],[112.6342,-8.0659],[112.6301,-8.0688],[112.6291,-8.0676],[112.6312,-8.06],[112.6283,-8.0534],[112.6317,-8.0459]]]}},{"type":"Feature","properties":{"name":"Tangkilsari","name_en":"Tangkilsari","admin_level":"7","osm_id":""},"geometry":{"type":"Polygon","coordinates":[[[112.6455,-8.0513],[112.6488,-8.0479],[112.6561,-8.0503],[112.6561,-8.0594],[112.6619,-8.0599],[112.6594,-8.0625],[112.6591,-8.0649],[112.6608,-8.0666],[112.6598,-8.0693],[112.6564,-8.0654],[112.6426,-8.0618],[112.6424,-8.0515],[112.6455,-8.0513]]]}}]}