{"type":"FeatureCollection","metadata":{"parent_osm_id":"gid_IDN_21_3_8_1","parent_name":"Kelimutu","parent_name_1":"NusaTenggaraTimur","parent_gid":"IDN.21.3.8_1","parent_level":"6","child_level":"7","count":8,"source":"GADM 4.1","generated":"2026-05-08"},"features":[{"type":"Feature","properties":{"name":"Koanara","name_en":"Koanara","admin_level":"7","osm_id":""},"geometry":{"type":"Polygon","coordinates":[[[121.8605,-8.7108],[121.8611,-8.7176],[121.8596,-8.7207],[121.8608,-8.7262],[121.8752,-8.7275],[121.8812,-8.7198],[121.8835,-8.7249],[121.8756,-8.7322],[121.8743,-8.7385],[121.8602,-8.7585],[121.859,-8.7589],[121.8533,-8.7525],[121.8469,-8.7514],[121.8407,-8.7528],[121.8338,-8.7512],[121.8154,-8.7594],[121.8044,-8.7604],[121.8043,-8.7555],[121.8094,-8.7489],[121.8097,-8.7432],[121.8214,-8.7442],[121.828,-8.7423],[121.8368,-8.7423],[121.844,-8.739],[121.8517,-8.7401],[121.8518,-8.736],[121.854,-8.7346],[121.8562,-8.7167],[121.8605,-8.7108]]]}},{"type":"Feature","properties":{"name":"Kuru","name_en":"Kuru","admin_level":"7","osm_id":""},"geometry":{"type":"Polygon","coordinates":[[[121.8847,-8.6385],[121.8901,-8.6361],[121.8914,-8.6338],[121.8963,-8.6323],[121.8973,-8.6296],[121.9003,-8.6293],[121.9044,-8.6321],[121.9031,-8.6342],[121.9045,-8.637],[121.9067,-8.6375],[121.9055,-8.641],[121.9078,-8.6426],[121.9058,-8.6434],[121.9076,-8.6448],[121.9049,-8.6459],[121.9056,-8.6482],[121.903,-8.6498],[121.9068,-8.6512],[121.9,-8.6554],[121.9006,-8.6579],[121.8876,-8.6627],[121.8848,-8.6656],[121.8838,-8.668],[121.8879,-8.6761],[121.8736,-8.684],[121.874,-8.6924],[121.8771,-8.6967],[121.8824,-8.6986],[121.8827,-8.7046],[121.8689,-8.7081],[121.8563,-8.7075],[121.8395,-8.7036],[121.8506,-8.6921],[121.8502,-8.6898],[121.8521,-8.6874],[121.8549,-8.687],[121.857,-8.6846],[121.8585,-8.6809],[121.8579,-8.6743],[121.8631,-8.6701],[121.8648,-8.6661],[121.8706,-8.6632],[121.8746,-8.6547],[121.8762,-8.6468],[121.8796,-8.6427],[121.8821,-8.6429],[121.8847,-8.6385]]]}},{"type":"Feature","properties":{"name":"Ndenggarongge","name_en":"Ndenggarongge","admin_level":"7","osm_id":""},"geometry":{"type":"Polygon","coordinates":[[[121.8812,-8.7198],[121.8752,-8.7275],[121.8612,-8.7264],[121.8596,-8.7207],[121.8611,-8.7176],[121.8605,-8.7108],[121.8631,-8.7076],[121.8689,-8.7081],[121.882,-8.705],[121.8806,-8.7106],[121.8812,-8.7198]]]}},{"type":"Feature","properties":{"name":"Nduaria","name_en":"Nduaria","admin_level":"7","osm_id":""},"geometry":{"type":"Polygon","coordinates":[[[121.7934,-8.7502],[121.8016,-8.7343],[121.8023,-8.7283],[121.8047,-8.7269],[121.8087,-8.7195],[121.8081,-8.7144],[121.8099,-8.7092],[121.8082,-8.7028],[121.8178,-8.7083],[121.8216,-8.7085],[121.8324,-8.6988],[121.8395,-8.7036],[121.8456,-8.7049],[121.84,-8.717],[121.8197,-8.7231],[121.8153,-8.728],[121.8131,-8.7403],[121.8097,-8.7432],[121.8094,-8.7489],[121.8043,-8.7555],[121.8048,-8.7606],[121.8025,-8.7622],[121.7934,-8.7502]]]}},{"type":"Feature","properties":{"name":"Nuamuri","name_en":"Nuamuri","admin_level":"7","osm_id":""},"geometry":{"type":"Polygon","coordinates":[[[121.8605,-8.7108],[121.8562,-8.7167],[121.854,-8.7346],[121.8518,-8.736],[121.8517,-8.7401],[121.8424,-8.7399],[121.8423,-8.7311],[121.8293,-8.7313],[121.8238,-8.722],[121.84,-8.717],[121.8456,-8.7049],[121.8631,-8.7076],[121.8605,-8.7108]]]}},{"type":"Feature","properties":{"name":"NuamuriBarat","name_en":"NuamuriBarat","admin_level":"7","osm_id":""},"geometry":{"type":"Polygon","coordinates":[[[121.8424,-8.7399],[121.8368,-8.7423],[121.828,-8.7423],[121.8214,-8.7442],[121.8099,-8.7433],[121.8131,-8.7403],[121.8144,-8.7294],[121.822,-8.7222],[121.8238,-8.722],[121.8293,-8.7313],[121.8423,-8.7311],[121.8424,-8.7399]]]}},{"type":"Feature","properties":{"name":"Pemo","name_en":"Pemo","admin_level":"7","osm_id":""},"geometry":{"type":"Polygon","coordinates":[[[121.8153,-8.7719],[121.8376,-8.7666],[121.8409,-8.7681],[121.8495,-8.7672],[121.8447,-8.7724],[121.8451,-8.7868],[121.8396,-8.7873],[121.8314,-8.7851],[121.8153,-8.7719]]]}},{"type":"Feature","properties":{"name":"Woloara","name_en":"Woloara","admin_level":"7","osm_id":""},"geometry":{"type":"Polygon","coordinates":[[[121.8048,-8.7606],[121.8154,-8.7594],[121.8338,-8.7512],[121.8407,-8.7528],[121.8469,-8.7514],[121.8533,-8.7525],[121.8558,-8.7546],[121.8593,-8.7591],[121.8604,-8.7649],[121.8409,-8.7681],[121.8376,-8.7666],[121.8278,-8.7699],[121.8087,-8.7727],[121.8067,-8.766],[121.8025,-8.7622],[121.8048,-8.7606]]]}}]}