{"type":"FeatureCollection","metadata":{"parent_osm_id":"gid_IDN_17_7_7_1","parent_name":"TanjungRaya","parent_name_1":"Lampung","parent_gid":"IDN.17.7.7_1","parent_level":"6","child_level":"7","count":13,"source":"GADM 4.1","generated":"2026-05-09"},"features":[{"type":"Feature","properties":{"name":"BangunJaya","name_en":"BangunJaya","admin_level":"7","osm_id":""},"geometry":{"type":"Polygon","coordinates":[[[105.404,-3.9071],[105.4122,-3.9129],[105.4174,-3.9141],[105.4255,-3.9117],[105.4292,-3.9089],[105.4339,-3.9156],[105.4315,-3.9336],[105.4279,-3.9326],[105.413,-3.9401],[105.4016,-3.9392],[105.3836,-3.9457],[105.3823,-3.9376],[105.3882,-3.9357],[105.3898,-3.932],[105.3923,-3.9307],[105.3959,-3.9138],[105.4007,-3.908],[105.404,-3.9071]]]}},{"type":"Feature","properties":{"name":"Brabasan","name_en":"Brabasan","admin_level":"7","osm_id":""},"geometry":{"type":"Polygon","coordinates":[[[105.3509,-3.995],[105.3475,-3.991],[105.3397,-4.0013],[105.3296,-4.0051],[105.3254,-4.0088],[105.3155,-4.0092],[105.3161,-4.006],[105.3127,-4.0048],[105.312,-3.997],[105.3186,-3.9901],[105.3189,-3.9776],[105.3372,-3.9657],[105.3489,-3.972],[105.3518,-3.9695],[105.3596,-3.9785],[105.3571,-3.9811],[105.3635,-3.9863],[105.3509,-3.995]]]}},{"type":"Feature","properties":{"name":"BujungBuring","name_en":"BujungBuring","admin_level":"7","osm_id":""},"geometry":{"type":"Polygon","coordinates":[[[105.3363,-3.9267],[105.3388,-3.9205],[105.3519,-3.9138],[105.3568,-3.917],[105.3617,-3.9397],[105.337,-3.9569],[105.3363,-3.9267]]]}},{"type":"Feature","properties":{"name":"GedungRam","name_en":"GedungRam","admin_level":"7","osm_id":""},"geometry":{"type":"Polygon","coordinates":[[[105.3635,-3.9863],[105.3571,-3.9811],[105.3596,-3.9785],[105.3518,-3.9695],[105.3489,-3.972],[105.3372,-3.9657],[105.337,-3.9569],[105.3695,-3.9342],[105.3792,-3.9407],[105.3836,-3.9457],[105.3823,-3.9614],[105.372,-3.9773],[105.3635,-3.9863]]]}},{"type":"Feature","properties":{"name":"HarapanMukti","name_en":"HarapanMukti","admin_level":"7","osm_id":""},"geometry":{"type":"Polygon","coordinates":[[[105.3568,-3.917],[105.3575,-3.9092],[105.3668,-3.9039],[105.3771,-3.8919],[105.3879,-3.8824],[105.3917,-3.894],[105.404,-3.9071],[105.4007,-3.908],[105.3959,-3.9138],[105.3923,-3.9307],[105.3898,-3.932],[105.3882,-3.9357],[105.3823,-3.9376],[105.3836,-3.9457],[105.3792,-3.9407],[105.3695,-3.9342],[105.3617,-3.9397],[105.3568,-3.917]]]}},{"type":"Feature","properties":{"name":"KagunganDalam","name_en":"KagunganDalam","admin_level":"7","osm_id":""},"geometry":{"type":"Polygon","coordinates":[[[105.3422,-3.8725],[105.335,-3.8583],[105.3291,-3.7977],[105.3552,-3.7948],[105.3564,-3.7954],[105.3564,-3.8062],[105.3614,-3.8118],[105.3595,-3.8269],[105.3713,-3.8452],[105.3692,-3.8486],[105.3701,-3.858],[105.3593,-3.8568],[105.3505,-3.8608],[105.344,-3.8674],[105.3422,-3.8725]]]}},{"type":"Feature","properties":{"name":"MekarSari","name_en":"MekarSari","admin_level":"7","osm_id":""},"geometry":{"type":"Polygon","coordinates":[[[105.297,-3.9533],[105.2974,-3.9442],[105.3008,-3.9358],[105.3008,-3.9317],[105.3114,-3.9261],[105.3363,-3.9267],[105.3372,-3.9657],[105.3189,-3.9776],[105.3184,-3.9891],[105.2956,-3.9841],[105.297,-3.9533]]]}},{"type":"Feature","properties":{"name":"MuaraTenang","name_en":"MuaraTenang","admin_level":"7","osm_id":""},"geometry":{"type":"Polygon","coordinates":[[[105.3992,-3.9873],[105.4038,-3.9907],[105.4068,-3.9886],[105.4106,-3.9922],[105.4121,-3.9894],[105.4161,-3.9915],[105.4091,-4.0033],[105.4036,-4.0071],[105.4028,-4.0096],[105.4066,-4.0109],[105.4081,-4.0311],[105.3979,-4.0287],[105.3919,-4.0237],[105.3855,-4.0224],[105.3842,-4.0196],[105.3646,-4.0169],[105.3565,-4.011],[105.3534,-4.0054],[105.3528,-3.9973],[105.3509,-3.995],[105.3671,-3.9832],[105.3823,-3.9614],[105.3907,-3.9792],[105.3992,-3.9873]]]}},{"type":"Feature","properties":{"name":"SinarLaga","name_en":"SinarLaga","admin_level":"7","osm_id":""},"geometry":{"type":"Polygon","coordinates":[[[105.4081,-3.9796],[105.3992,-3.9873],[105.3907,-3.9792],[105.3823,-3.9614],[105.3832,-3.9459],[105.4016,-3.9392],[105.413,-3.9401],[105.4219,-3.9727],[105.4156,-3.977],[105.4081,-3.9796]]]}},{"type":"Feature","properties":{"name":"SriTanjung","name_en":"SriTanjung","admin_level":"7","osm_id":""},"geometry":{"type":"Polygon","coordinates":[[[105.3564,-3.7954],[105.3631,-3.7984],[105.3659,-3.7981],[105.3689,-3.7947],[105.3731,-3.7939],[105.3829,-3.7983],[105.3735,-3.8008],[105.3745,-3.8145],[105.3763,-3.8186],[105.3794,-3.8171],[105.3816,-3.8218],[105.3801,-3.8258],[105.385,-3.8311],[105.3863,-3.8374],[105.3964,-3.8449],[105.3978,-3.852],[105.3916,-3.8514],[105.3916,-3.848],[105.3872,-3.848],[105.3869,-3.8446],[105.3713,-3.8452],[105.3595,-3.8269],[105.3614,-3.8118],[105.3564,-3.8062],[105.3564,-3.7954]]]}},{"type":"Feature","properties":{"name":"TanjungSari","name_en":"TanjungSari","admin_level":"7","osm_id":""},"geometry":{"type":"Polygon","coordinates":[[[105.3575,-3.9092],[105.3471,-3.9023],[105.3344,-3.8777],[105.3403,-3.8774],[105.344,-3.8674],[105.3505,-3.8608],[105.3593,-3.8568],[105.3704,-3.858],[105.3714,-3.8692],[105.3879,-3.8824],[105.3771,-3.8919],[105.3668,-3.9039],[105.3575,-3.9092]]]}},{"type":"Feature","properties":{"name":"TriKaryaMulya","name_en":"TriKaryaMulya","admin_level":"7","osm_id":""},"geometry":{"type":"Polygon","coordinates":[[[105.3987,-3.8695],[105.3991,-3.8786],[105.3879,-3.8824],[105.3714,-3.8692],[105.3692,-3.8486],[105.3717,-3.8446],[105.3869,-3.8446],[105.3872,-3.848],[105.3916,-3.848],[105.3916,-3.8514],[105.3981,-3.8521],[105.3987,-3.8695]]]}},{"type":"Feature","properties":{"name":"WiraJaya","name_en":"WiraJaya","admin_level":"7","osm_id":""},"geometry":{"type":"Polygon","coordinates":[[[105.4339,-3.9156],[105.4362,-3.9193],[105.4544,-3.9285],[105.4569,-3.9388],[105.4495,-3.9613],[105.4367,-3.9676],[105.4275,-3.9681],[105.4219,-3.9727],[105.413,-3.9401],[105.4279,-3.9326],[105.4315,-3.9336],[105.4339,-3.9156]]]}}]}