{"type":"FeatureCollection","metadata":{"parent_osm_id":"gid_IDN_29_5_7_1","parent_name":"Lolak","parent_name_1":"SulawesiUtara","parent_gid":"IDN.29.5.7_1","parent_level":"6","child_level":"7","count":22,"source":"GADM 4.1","generated":"2026-05-09"},"features":[{"type":"Feature","properties":{"name":"Baturapa","name_en":"Baturapa","admin_level":"7","osm_id":""},"geometry":{"type":"Polygon","coordinates":[[[123.9981,0.7298],[123.9901,0.7281],[123.9858,0.7313],[123.9771,0.7431],[123.9627,0.7517],[123.9549,0.7685],[123.9527,0.7796],[123.9545,0.7957],[123.9506,0.8305],[123.952,0.8365],[123.9582,0.8381],[123.9593,0.8371],[123.962,0.8426],[123.9662,0.8393],[123.9718,0.8376],[123.9745,0.8346],[123.9792,0.8178],[123.9788,0.8145],[123.9853,0.8016],[123.9841,0.7751],[123.9933,0.7554],[124.001,0.7477],[124.0043,0.7405],[124.011,0.7353],[124.0127,0.7286],[124.0058,0.7276],[123.9981,0.7298]]]}},{"type":"Feature","properties":{"name":"BaturapaIi","name_en":"BaturapaIi","admin_level":"7","osm_id":""},"geometry":{"type":"Polygon","coordinates":[[[124.0393,0.7262],[124.0336,0.7257],[124.0281,0.7289],[124.0171,0.7248],[124.0127,0.7286],[124.011,0.7353],[124.0043,0.7405],[124.001,0.7477],[123.9933,0.7554],[123.9841,0.7751],[123.9853,0.8016],[123.9788,0.8145],[123.9792,0.8178],[123.9745,0.8346],[123.9718,0.8376],[123.9646,0.8402],[123.962,0.8426],[123.9625,0.8454],[123.9533,0.8454],[123.9578,0.8484],[123.9607,0.8536],[123.9718,0.8521],[123.9751,0.8438],[123.9846,0.8367],[123.9922,0.8278],[124.0009,0.8125],[124.001,0.8087],[124.0038,0.8042],[124.0052,0.7982],[124.0038,0.7943],[124.0083,0.7764],[124.008,0.7727],[124.0125,0.7685],[124.0393,0.7262]]]}},{"type":"Feature","properties":{"name":"Bumbung","name_en":"Bumbung","admin_level":"7","osm_id":""},"geometry":{"type":"Polygon","coordinates":[[[123.8974,0.8119],[123.9013,0.8115],[123.904,0.8092],[123.9089,0.7985],[123.907,0.7908],[123.905,0.7915],[123.9032,0.7884],[123.89,0.7978],[123.8925,0.8008],[123.8917,0.805],[123.8935,0.8107],[123.8974,0.8119]]]}},{"type":"Feature","properties":{"name":"Buntalo","name_en":"Buntalo","admin_level":"7","osm_id":""},"geometry":{"type":"Polygon","coordinates":[[[123.9056,0.8241],[123.8985,0.8264],[123.9035,0.8365],[123.9023,0.8379],[123.8979,0.8363],[123.8997,0.8388],[123.8976,0.8425],[123.9013,0.8451],[123.9107,0.846],[123.9137,0.8519],[123.9167,0.8465],[123.9262,0.8408],[123.9223,0.8349],[123.9235,0.8274],[123.9163,0.8243],[123.9064,0.8269],[123.9056,0.8241]]]}},{"type":"Feature","properties":{"name":"BuntaloSelatan","name_en":"BuntaloSelatan","admin_level":"7","osm_id":""},"geometry":{"type":"Polygon","coordinates":[[[123.907,0.7908],[123.9089,0.7985],[123.904,0.8092],[123.9013,0.8115],[123.8974,0.8119],[123.8969,0.817],[123.8939,0.8168],[123.8972,0.8261],[123.9056,0.8241],[123.9094,0.8207],[123.9151,0.808],[123.9212,0.8008],[123.9224,0.7856],[123.92,0.7817],[123.9149,0.7778],[123.908,0.7812],[123.907,0.7908]]]}},{"type":"Feature","properties":{"name":"BuntaloTimur","name_en":"BuntaloTimur","admin_level":"7","osm_id":""},"geometry":{"type":"Polygon","coordinates":[[[123.9089,0.6757],[123.9022,0.6713],[123.8985,0.6649],[123.8913,0.6664],[123.8882,0.6633],[123.8799,0.6598],[123.8763,0.654],[123.871,0.6546],[123.8676,0.6596],[123.8618,0.6611],[123.8617,0.6682],[123.8636,0.6721],[123.875,0.6811],[123.8797,0.6872],[123.881,0.7003],[123.8795,0.7105],[123.8827,0.717],[123.8953,0.7273],[123.9011,0.7419],[123.9049,0.7477],[123.9078,0.7648],[123.9108,0.768],[123.9186,0.7692],[123.9149,0.7778],[123.9219,0.7841],[123.9225,0.7961],[123.919,0.8046],[123.9151,0.808],[123.9119,0.8175],[123.9061,0.8225],[123.906,0.8261],[123.9098,0.827],[123.9163,0.8243],[123.9235,0.8274],[123.9307,0.8213],[123.9377,0.8007],[123.9368,0.7808],[123.9406,0.7644],[123.9481,0.7436],[123.9553,0.7323],[123.9623,0.7165],[123.9623,0.7098],[123.9657,0.7046],[123.9642,0.6991],[123.9654,0.6967],[123.9644,0.6871],[123.9665,0.6817],[123.966,0.6803],[123.9522,0.6763],[123.9465,0.677],[123.9439,0.6693],[123.9448,0.66],[123.9393,0.6557],[123.9342,0.6572],[123.932,0.6618],[123.9274,0.6628],[123.9254,0.6705],[123.9212,0.6708],[123.9127,0.6763],[123.9089,0.6757]]]}},{"type":"Feature","properties":{"name":"Diat","name_en":"Diat","admin_level":"7","osm_id":""},"geometry":{"type":"Polygon","coordinates":[[[124.0794,0.8919],[124.0813,0.8917],[124.087,0.8833],[124.0959,0.8771],[124.0964,0.8731],[124.0931,0.8699],[124.0933,0.8627],[124.0968,0.857],[124.0968,0.8511],[124.1016,0.8466],[124.0968,0.8451],[124.0999,0.8418],[124.0973,0.8394],[124.0966,0.8351],[124.0984,0.8295],[124.0948,0.8282],[124.0868,0.8302],[124.0842,0.873],[124.0794,0.8919]]]}},{"type":"Feature","properties":{"name":"LabuhanUki","name_en":"LabuhanUki","admin_level":"7","osm_id":""},"geometry":{"type":"Polygon","coordinates":[[[123.9716,0.8521],[123.9662,0.8521],[123.9621,0.8542],[123.9578,0.8484],[123.9533,0.8454],[123.9521,0.8513],[123.9435,0.8459],[123.9431,0.8486],[123.9392,0.8519],[123.9413,0.855],[123.9373,0.8557],[123.9357,0.8544],[123.9319,0.8565],[123.9301,0.8547],[123.9293,0.8576],[123.9339,0.8606],[123.9531,0.8635],[123.9678,0.872],[123.9719,0.8694],[123.9743,0.8698],[123.9758,0.8634],[123.9798,0.8564],[123.9716,0.8521]]]}},{"type":"Feature","properties":{"name":"Lalow","name_en":"Lalow","admin_level":"7","osm_id":""},"geometry":{"type":"Polygon","coordinates":[[[124.0268,0.8965],[124.0381,0.9017],[124.0463,0.9074],[124.0511,0.9024],[124.0524,0.8899],[124.0484,0.8853],[124.0518,0.8799],[124.0472,0.8727],[124.047,0.8683],[124.0504,0.8647],[124.05,0.8609],[124.0423,0.8626],[124.0375,0.866],[124.0283,0.8607],[124.0252,0.8702],[124.0257,0.8746],[124.0228,0.8786],[124.0229,0.8821],[124.0278,0.8882],[124.0243,0.8949],[124.0268,0.8965]]]}},{"type":"Feature","properties":{"name":"Lolak","name_en":"Lolak","admin_level":"7","osm_id":""},"geometry":{"type":"Polygon","coordinates":[[[124.0285,0.8603],[124.0316,0.8599],[124.0383,0.8551],[124.0422,0.8548],[124.0434,0.8499],[124.0478,0.8478],[124.0469,0.8431],[124.048,0.841],[124.0459,0.8398],[124.0506,0.8383],[124.0529,0.8354],[124.0537,0.8251],[124.0559,0.8234],[124.0551,0.8227],[124.046,0.8253],[124.0412,0.8302],[124.0214,0.8406],[124.0228,0.8454],[124.0201,0.8503],[124.0045,0.87],[124.0064,0.8774],[124.0052,0.8874],[124.0166,0.8917],[124.0151,0.8885],[124.0166,0.887],[124.0137,0.8829],[124.0135,0.8765],[124.0159,0.8748],[124.0165,0.8706],[124.0178,0.8707],[124.0181,0.8655],[124.0205,0.861],[124.0285,0.8603]]]}},{"type":"Feature","properties":{"name":"LolakIi","name_en":"LolakIi","admin_level":"7","osm_id":""},"geometry":{"type":"Polygon","coordinates":[[[124.0285,0.8603],[124.0283,0.8607],[124.0296,0.862],[124.0343,0.8651],[124.0375,0.866],[124.0423,0.8626],[124.0542,0.8593],[124.0574,0.8538],[124.0648,0.8527],[124.0671,0.851],[124.0873,0.8275],[124.0926,0.8255],[124.0922,0.8222],[124.0884,0.8186],[124.0889,0.817],[124.0909,0.8185],[124.0932,0.8173],[124.094,0.8157],[124.0913,0.8154],[124.0922,0.8136],[124.0964,0.8132],[124.0956,0.8115],[124.0902,0.8094],[124.0945,0.8046],[124.0924,0.8003],[124.0797,0.8004],[124.0761,0.8059],[124.0714,0.8065],[124.0692,0.8143],[124.0541,0.822],[124.0559,0.8234],[124.0537,0.8251],[124.0529,0.8354],[124.0506,0.8383],[124.0459,0.8398],[124.048,0.841],[124.0469,0.8431],[124.0478,0.8478],[124.0434,0.8499],[124.0422,0.8548],[124.0383,0.8551],[124.0316,0.8599],[124.0285,0.8603]]]}},{"type":"Feature","properties":{"name":"LolakTombolango","name_en":"LolakTombolango","admin_level":"7","osm_id":""},"geometry":{"type":"Polygon","coordinates":[[[124.0283,0.8607],[124.0205,0.861],[124.0181,0.8655],[124.0178,0.8707],[124.0165,0.8706],[124.0132,0.8786],[124.0137,0.8829],[124.0167,0.8877],[124.0151,0.8885],[124.0166,0.8917],[124.0145,0.8919],[124.0243,0.8957],[124.0278,0.8882],[124.0229,0.8821],[124.0228,0.8786],[124.0257,0.8746],[124.0252,0.8702],[124.0283,0.8607]]]}},{"type":"Feature","properties":{"name":"Mongkoinit","name_en":"Mongkoinit","admin_level":"7","osm_id":""},"geometry":{"type":"Polygon","coordinates":[[[123.9798,0.8564],[123.9758,0.8634],[123.9743,0.8698],[123.9719,0.8694],[123.9678,0.872],[123.9742,0.8768],[123.9897,0.8816],[123.9892,0.8758],[123.9925,0.8692],[123.9977,0.8724],[124.0042,0.8734],[124.0045,0.87],[124.0201,0.8503],[124.0228,0.8454],[124.0222,0.842],[124.0214,0.8406],[124.014,0.8434],[124.0104,0.8427],[124.0069,0.847],[124.0051,0.8461],[123.9996,0.8497],[123.9945,0.8484],[123.9848,0.8535],[123.9842,0.8525],[123.9798,0.8564]]]}},{"type":"Feature","properties":{"name":"Motabang","name_en":"Motabang","admin_level":"7","osm_id":""},"geometry":{"type":"Polygon","coordinates":[[[124.0052,0.8874],[124.0059,0.8733],[123.9916,0.8699],[123.9891,0.8809],[124.0052,0.8874]]]}},{"type":"Feature","properties":{"name":"Pindol","name_en":"Pindol","admin_level":"7","osm_id":""},"geometry":{"type":"Polygon","coordinates":[[[124.0686,0.7186],[124.0673,0.7159],[124.0625,0.716],[124.0585,0.723],[124.0558,0.7198],[124.0533,0.7194],[124.0477,0.7222],[124.0438,0.7273],[124.0393,0.7262],[124.0125,0.7685],[124.008,0.7727],[124.0057,0.7865],[124.0144,0.794],[124.0165,0.7993],[124.0239,0.8086],[124.0334,0.8109],[124.036,0.8135],[124.0442,0.8157],[124.0473,0.8183],[124.0458,0.8254],[124.0692,0.8143],[124.0714,0.8067],[124.0695,0.8038],[124.0704,0.7972],[124.074,0.7929],[124.0727,0.7893],[124.0749,0.7869],[124.0777,0.788],[124.08,0.7861],[124.0787,0.7818],[124.0799,0.7793],[124.0763,0.7783],[124.0759,0.7759],[124.0735,0.7774],[124.0745,0.7743],[124.0711,0.7742],[124.0723,0.7708],[124.0741,0.7713],[124.0741,0.7681],[124.0717,0.7673],[124.0742,0.7647],[124.0724,0.7652],[124.0727,0.7629],[124.0697,0.7624],[124.0695,0.7578],[124.0631,0.7514],[124.0584,0.7491],[124.058,0.7431],[124.0679,0.728],[124.0686,0.7186]]]}},{"type":"Feature","properties":{"name":"Pindolili","name_en":"Pindolili","admin_level":"7","osm_id":""},"geometry":{"type":"Polygon","coordinates":[[[124.0057,0.7865],[124.0038,0.7943],[124.0052,0.7982],[124.0038,0.8042],[123.9963,0.8202],[123.9984,0.822],[123.9979,0.8247],[123.9998,0.8273],[124.0046,0.8308],[124.0062,0.8348],[124.0084,0.8347],[124.0099,0.8401],[124.008,0.84],[124.0087,0.8417],[124.0068,0.8425],[124.0084,0.8444],[124.0104,0.8427],[124.014,0.8434],[124.0191,0.8419],[124.0412,0.8302],[124.0458,0.8254],[124.0474,0.8201],[124.0442,0.8157],[124.0239,0.8086],[124.0165,0.7993],[124.0144,0.794],[124.0057,0.7865]]]}},{"type":"Feature","properties":{"name":"Pinogaluman","name_en":"Pinogaluman","admin_level":"7","osm_id":""},"geometry":{"type":"Polygon","coordinates":[[[123.9963,0.8202],[123.9922,0.8278],[123.9846,0.8367],[123.9751,0.8438],[123.9718,0.8521],[123.9798,0.8564],[123.9842,0.8525],[123.9848,0.8535],[123.9945,0.8484],[123.9996,0.8497],[124.0051,0.8461],[124.008,0.846],[124.0068,0.8422],[124.0087,0.8417],[124.008,0.84],[124.0099,0.8401],[124.0084,0.8347],[124.0062,0.8348],[124.0046,0.8308],[123.9998,0.8273],[123.9979,0.8247],[123.9984,0.822],[123.9963,0.8202]]]}},{"type":"Feature","properties":{"name":"Sauk","name_en":"Sauk","admin_level":"7","osm_id":""},"geometry":{"type":"Polygon","coordinates":[[[123.9901,0.7281],[123.99,0.7223],[123.9937,0.7139],[123.9884,0.7066],[123.9913,0.7026],[123.9907,0.6984],[123.9938,0.6948],[123.9934,0.6931],[123.9903,0.6917],[123.9916,0.6876],[123.9854,0.6861],[123.9756,0.6786],[123.966,0.6803],[123.9666,0.6836],[123.9646,0.6858],[123.9642,0.6923],[123.9655,0.706],[123.9623,0.7098],[123.9623,0.7165],[123.9553,0.7323],[123.9481,0.7436],[123.9406,0.7644],[123.9368,0.7808],[123.9377,0.8007],[123.9333,0.8108],[123.9332,0.8157],[123.9307,0.8213],[123.9233,0.8278],[123.9225,0.8356],[123.9313,0.8429],[123.9339,0.8413],[123.9349,0.8356],[123.9369,0.834],[123.9421,0.8362],[123.9443,0.8391],[123.952,0.8365],[123.9503,0.8253],[123.9545,0.7957],[123.9527,0.7796],[123.9549,0.7685],[123.9627,0.7517],[123.9771,0.7431],[123.9858,0.7313],[123.9901,0.7281]]]}},{"type":"Feature","properties":{"name":"Solog","name_en":"Solog","admin_level":"7","osm_id":""},"geometry":{"type":"Polygon","coordinates":[[[124.0849,0.8861],[124.0877,0.8888],[124.0923,0.8897],[124.0971,0.8845],[124.1016,0.8868],[124.1044,0.8861],[124.1065,0.889],[124.1087,0.8889],[124.1062,0.8843],[124.1021,0.8812],[124.1,0.8757],[124.1017,0.8731],[124.1075,0.8744],[124.1094,0.8709],[124.1058,0.8684],[124.1063,0.8592],[124.1028,0.8559],[124.1053,0.8543],[124.1018,0.851],[124.1016,0.8466],[124.0968,0.8511],[124.0968,0.857],[124.0933,0.8627],[124.0931,0.8699],[124.0964,0.8731],[124.0957,0.8778],[124.087,0.8833],[124.0849,0.8861]]]}},{"type":"Feature","properties":{"name":"Tandu","name_en":"Tandu","admin_level":"7","osm_id":""},"geometry":{"type":"Polygon","coordinates":[[[124.0742,0.9191],[124.0744,0.9137],[124.071,0.9067],[124.0724,0.9017],[124.0776,0.8974],[124.0805,0.8837],[124.0834,0.8791],[124.087,0.8288],[124.0723,0.8444],[124.0758,0.8504],[124.0726,0.8641],[124.0732,0.877],[124.0695,0.8841],[124.0703,0.8892],[124.0678,0.8925],[124.069,0.8926],[124.0689,0.8964],[124.0668,0.8987],[124.0656,0.9083],[124.0634,0.9106],[124.0667,0.9111],[124.0604,0.9157],[124.0716,0.9215],[124.0747,0.9212],[124.0742,0.9191]]]}},{"type":"Feature","properties":{"name":"Totabuan","name_en":"Totabuan","admin_level":"7","osm_id":""},"geometry":{"type":"Polygon","coordinates":[[[124.1087,0.7224],[124.0991,0.7137],[124.0836,0.7153],[124.0809,0.717],[124.0766,0.7162],[124.0727,0.7192],[124.0686,0.7186],[124.0679,0.728],[124.058,0.7431],[124.0584,0.7491],[124.0631,0.7514],[124.0695,0.7578],[124.0697,0.7624],[124.0727,0.7629],[124.0724,0.7652],[124.0746,0.7655],[124.0719,0.7666],[124.0741,0.7681],[124.0741,0.7713],[124.0723,0.7708],[124.0711,0.7742],[124.0745,0.7743],[124.0735,0.7774],[124.0759,0.7759],[124.0763,0.7783],[124.0799,0.7793],[124.0787,0.7818],[124.0799,0.7867],[124.0777,0.788],[124.0756,0.7866],[124.0727,0.7893],[124.074,0.7929],[124.0704,0.7972],[124.0695,0.8038],[124.0714,0.8067],[124.0761,0.8059],[124.0797,0.8004],[124.0906,0.8009],[124.0916,0.7999],[124.089,0.799],[124.0898,0.7947],[124.0922,0.7949],[124.0936,0.7921],[124.0999,0.7879],[124.1037,0.7873],[124.1063,0.7888],[124.1123,0.7869],[124.1076,0.7785],[124.1059,0.7775],[124.103,0.7786],[124.1007,0.7764],[124.1012,0.7746],[124.1052,0.7748],[124.1074,0.7722],[124.1022,0.7679],[124.1091,0.7655],[124.1083,0.7635],[124.1031,0.7642],[124.1085,0.7582],[124.1017,0.7532],[124.1051,0.7511],[124.1049,0.7468],[124.1067,0.7445],[124.1045,0.7414],[124.1046,0.7367],[124.1083,0.7343],[124.1075,0.7321],[124.1025,0.7321],[124.1019,0.7309],[124.1045,0.7295],[124.1066,0.7234],[124.1087,0.7224]]]}},{"type":"Feature","properties":{"name":"Tuyat","name_en":"Tuyat","admin_level":"7","osm_id":""},"geometry":{"type":"Polygon","coordinates":[[[124.05,0.8609],[124.0509,0.8632],[124.047,0.8683],[124.0472,0.8727],[124.0511,0.8773],[124.0514,0.8816],[124.0484,0.8853],[124.0524,0.8899],[124.0528,0.8929],[124.0511,0.9024],[124.0463,0.9074],[124.0463,0.9093],[124.0604,0.9157],[124.0667,0.9111],[124.0634,0.9106],[124.0656,0.9083],[124.0668,0.8987],[124.0689,0.8964],[124.069,0.8926],[124.0678,0.8925],[124.0703,0.8892],[124.0695,0.8841],[124.0732,0.877],[124.0726,0.8641],[124.0747,0.8591],[124.0756,0.8485],[124.0723,0.8444],[124.0648,0.8527],[124.0574,0.8538],[124.0561,0.8579],[124.05,0.8609]]]}}]}