{"type":"FeatureCollection","metadata":{"parent_osm_id":"gid_IDN_9_24_13_1","parent_name":"Cikakak","parent_name_1":"JawaBarat","parent_gid":"IDN.9.24.13_1","parent_level":"6","child_level":"7","count":8,"source":"GADM 4.1","generated":"2026-05-09"},"features":[{"type":"Feature","properties":{"name":"Cikakak","name_en":"Cikakak","admin_level":"7","osm_id":""},"geometry":{"type":"Polygon","coordinates":[[[106.5131,-6.9662],[106.5064,-6.9632],[106.4998,-6.962],[106.4968,-6.9632],[106.4872,-6.96],[106.4904,-6.9458],[106.4997,-6.9403],[106.5057,-6.9405],[106.5044,-6.9425],[106.5055,-6.9438],[106.5025,-6.9465],[106.5046,-6.9474],[106.5038,-6.9529],[106.5055,-6.9529],[106.5032,-6.9535],[106.5033,-6.9555],[106.5132,-6.9549],[106.5175,-6.9579],[106.5131,-6.9662]]]}},{"type":"Feature","properties":{"name":"Cileungsing","name_en":"Cileungsing","admin_level":"7","osm_id":""},"geometry":{"type":"Polygon","coordinates":[[[106.5685,-6.8969],[106.5653,-6.901],[106.5656,-6.9043],[106.5676,-6.9055],[106.5671,-6.9098],[106.5643,-6.9132],[106.5623,-6.913],[106.5589,-6.9165],[106.5562,-6.917],[106.5545,-6.9204],[106.556,-6.9225],[106.555,-6.9264],[106.5498,-6.9257],[106.5459,-6.9317],[106.5368,-6.9335],[106.53,-6.9286],[106.5268,-6.9296],[106.5239,-6.9268],[106.5185,-6.928],[106.5144,-6.9269],[106.514,-6.9256],[106.516,-6.9259],[106.5154,-6.9246],[106.5191,-6.9205],[106.5249,-6.9205],[106.5262,-6.9168],[106.5307,-6.9148],[106.5285,-6.9123],[106.5296,-6.9101],[106.5321,-6.9096],[106.5339,-6.8929],[106.5421,-6.8845],[106.5454,-6.8771],[106.5495,-6.8737],[106.5543,-6.8653],[106.5535,-6.8525],[106.5612,-6.8621],[106.5605,-6.8769],[106.5645,-6.8849],[106.5683,-6.887],[106.5672,-6.8936],[106.5685,-6.8969]]]}},{"type":"Feature","properties":{"name":"Cimaja","name_en":"Cimaja","admin_level":"7","osm_id":""},"geometry":{"type":"Polygon","coordinates":[[[106.4968,-6.9424],[106.4924,-6.944],[106.4889,-6.9486],[106.4877,-6.9604],[106.4812,-6.9608],[106.4816,-6.9484],[106.4833,-6.9434],[106.4792,-6.939],[106.4804,-6.9348],[106.4792,-6.9326],[106.4831,-6.9311],[106.4835,-6.9293],[106.481,-6.924],[106.4829,-6.9184],[106.4863,-6.9159],[106.4855,-6.9133],[106.4879,-6.9116],[106.4898,-6.9126],[106.4899,-6.9065],[106.4945,-6.9067],[106.4973,-6.9043],[106.4981,-6.9134],[106.4959,-6.9167],[106.4976,-6.9283],[106.4929,-6.9362],[106.4968,-6.9424]]]}},{"type":"Feature","properties":{"name":"Gandasoli","name_en":"Gandasoli","admin_level":"7","osm_id":""},"geometry":{"type":"Polygon","coordinates":[[[106.5543,-6.9268],[106.5557,-6.9256],[106.5545,-6.9204],[106.5562,-6.917],[106.5589,-6.9165],[106.5623,-6.913],[106.5643,-6.9132],[106.5671,-6.9098],[106.5676,-6.9055],[106.5656,-6.9043],[106.5653,-6.901],[106.5685,-6.8969],[106.5733,-6.9038],[106.5783,-6.9077],[106.5846,-6.9099],[106.5924,-6.9278],[106.5931,-6.9394],[106.5838,-6.9328],[106.5744,-6.9308],[106.5603,-6.9317],[106.5543,-6.9268]]]}},{"type":"Feature","properties":{"name":"Margalaksana","name_en":"Margalaksana","admin_level":"7","osm_id":""},"geometry":{"type":"Polygon","coordinates":[[[106.5328,-6.8973],[106.5337,-6.9014],[106.5315,-6.9054],[106.532,-6.9097],[106.5296,-6.9101],[106.5286,-6.9122],[106.52,-6.9123],[106.517,-6.9168],[106.5137,-6.9078],[106.4979,-6.9077],[106.4973,-6.9043],[106.4998,-6.9028],[106.5045,-6.8953],[106.5221,-6.8956],[106.5289,-6.8981],[106.5328,-6.8973]]]}},{"type":"Feature","properties":{"name":"Ridogalih","name_en":"Ridogalih","admin_level":"7","osm_id":""},"geometry":{"type":"Polygon","coordinates":[[[106.5057,-6.9405],[106.4997,-6.9403],[106.4968,-6.9424],[106.4933,-6.9386],[106.493,-6.9349],[106.4976,-6.9283],[106.4959,-6.9167],[106.4981,-6.9134],[106.4979,-6.9077],[106.5137,-6.9078],[106.517,-6.9168],[106.52,-6.9123],[106.5282,-6.9116],[106.5305,-6.9151],[106.5262,-6.9168],[106.5249,-6.9205],[106.5195,-6.9202],[106.5156,-6.9242],[106.516,-6.9259],[106.514,-6.9256],[106.5083,-6.9309],[106.5102,-6.9333],[106.5067,-6.9355],[106.5079,-6.9368],[106.5057,-6.9405]]]}},{"type":"Feature","properties":{"name":"Sirnarasa","name_en":"Sirnarasa","admin_level":"7","osm_id":""},"geometry":{"type":"Polygon","coordinates":[[[106.5535,-6.8525],[106.5543,-6.8653],[106.5495,-6.8737],[106.5454,-6.8771],[106.5421,-6.8845],[106.5342,-6.8923],[106.5332,-6.897],[106.5289,-6.8981],[106.5221,-6.8956],[106.5045,-6.8953],[106.4982,-6.9036],[106.4947,-6.8937],[106.496,-6.8859],[106.4947,-6.8635],[106.4964,-6.8579],[106.4935,-6.8539],[106.4925,-6.8487],[106.4882,-6.8443],[106.4874,-6.8401],[106.4896,-6.8352],[106.4976,-6.8333],[106.4989,-6.8264],[106.5117,-6.8228],[106.5228,-6.8218],[106.5553,-6.8271],[106.5549,-6.8361],[106.5524,-6.8445],[106.5535,-6.8525]]]}},{"type":"Feature","properties":{"name":"Sukamaju","name_en":"Sukamaju","admin_level":"7","osm_id":""},"geometry":{"type":"Polygon","coordinates":[[[106.5175,-6.9579],[106.5132,-6.9549],[106.5056,-6.9559],[106.5033,-6.9555],[106.503,-6.9537],[106.5055,-6.9529],[106.5038,-6.9529],[106.5046,-6.9474],[106.5025,-6.9465],[106.5055,-6.9438],[106.5044,-6.9425],[106.5079,-6.9368],[106.5067,-6.9355],[106.5102,-6.9333],[106.5081,-6.9312],[106.514,-6.9261],[106.5185,-6.928],[106.5239,-6.9268],[106.5268,-6.9296],[106.53,-6.9286],[106.5368,-6.9335],[106.5305,-6.9379],[106.5175,-6.9579]]]}}]}