{"type":"FeatureCollection","metadata":{"parent_osm_id":"gid_IDN_27_8_12_1","parent_name":"PamonaTimur","parent_name_1":"SulawesiTengah","parent_gid":"IDN.27.8.12_1","parent_level":"6","child_level":"7","count":12,"source":"GADM 4.1","generated":"2026-05-08"},"features":[{"type":"Feature","properties":{"name":"Kamba","name_en":"Kamba","admin_level":"7","osm_id":""},"geometry":{"type":"Polygon","coordinates":[[[120.8736,-1.8536],[120.8799,-1.8579],[120.8853,-1.8562],[120.8884,-1.8578],[120.8958,-1.8722],[120.8949,-1.8755],[120.8952,-1.8724],[120.8861,-1.8864],[120.873,-1.8929],[120.8736,-1.8536]]]}},{"type":"Feature","properties":{"name":"Kancuu","name_en":"Kancuu","admin_level":"7","osm_id":""},"geometry":{"type":"Polygon","coordinates":[[[120.7835,-1.9492],[120.7691,-1.9451],[120.7605,-1.941],[120.7507,-1.9325],[120.7152,-1.929],[120.7082,-1.9095],[120.7575,-1.9087],[120.764,-1.9067],[120.7751,-1.8985],[120.7821,-1.8956],[120.7982,-1.8973],[120.8009,-1.8993],[120.8009,-1.8995],[120.7957,-1.9134],[120.7955,-1.9233],[120.7932,-1.9305],[120.7824,-1.9488],[120.7835,-1.9492]]]}},{"type":"Feature","properties":{"name":"Kelei","name_en":"Kelei","admin_level":"7","osm_id":""},"geometry":{"type":"Polygon","coordinates":[[[120.7586,-1.7377],[120.735,-1.7818],[120.7106,-1.8188],[120.7048,-1.8264],[120.6962,-1.8329],[120.686,-1.8346],[120.6834,-1.8173],[120.6855,-1.7912],[120.7048,-1.7511],[120.7188,-1.728],[120.7244,-1.7247],[120.7269,-1.7253],[120.7586,-1.7377]]]}},{"type":"Feature","properties":{"name":"Masewe","name_en":"Masewe","admin_level":"7","osm_id":""},"geometry":{"type":"Polygon","coordinates":[[[120.8019,-1.988],[120.7274,-1.9599],[120.7203,-1.9372],[120.7149,-1.929],[120.7507,-1.9325],[120.7605,-1.941],[120.7691,-1.9451],[120.8088,-1.9542],[120.8019,-1.988]]]}},{"type":"Feature","properties":{"name":"Matialemba","name_en":"Matialemba","admin_level":"7","osm_id":""},"geometry":{"type":"Polygon","coordinates":[[[120.8662,-1.8447],[120.8736,-1.8536],[120.8722,-1.8933],[120.8752,-1.9155],[120.8823,-1.937],[120.88,-1.9428],[120.8669,-1.9497],[120.8561,-1.9534],[120.8522,-1.9379],[120.8534,-1.9288],[120.8609,-1.9167],[120.8573,-1.8914],[120.86,-1.8662],[120.8662,-1.8447]]]}},{"type":"Feature","properties":{"name":"Olumokunde","name_en":"Olumokunde","admin_level":"7","osm_id":""},"geometry":{"type":"Polygon","coordinates":[[[120.8949,-1.8755],[120.8975,-1.8815],[120.9009,-1.8834],[120.9021,-1.89],[120.9077,-1.8902],[120.9121,-1.8973],[120.9136,-1.8948],[120.916,-1.8944],[120.9206,-1.898],[120.9085,-1.9086],[120.9076,-1.912],[120.9011,-1.9138],[120.8799,-1.9297],[120.8752,-1.9155],[120.8722,-1.8933],[120.8861,-1.8864],[120.8952,-1.8724],[120.8949,-1.8755]]]}},{"type":"Feature","properties":{"name":"OmpoDidiri","name_en":"OmpoDidiri","admin_level":"7","osm_id":""},"geometry":{"type":"Polygon","coordinates":[[[120.7106,-1.8188],[120.735,-1.7818],[120.7586,-1.7377],[120.7972,-1.7461],[120.8288,-1.7585],[120.7913,-1.8296],[120.7821,-1.8444],[120.7647,-1.8603],[120.7375,-1.8681],[120.728,-1.876],[120.7221,-1.8675],[120.7132,-1.8454],[120.7106,-1.8188]]]}},{"type":"Feature","properties":{"name":"PancasilaI","name_en":"PancasilaI","admin_level":"7","osm_id":""},"geometry":{"type":"Polygon","coordinates":[[[120.8617,-2.0051],[120.8576,-2.01],[120.8019,-1.988],[120.8088,-1.9542],[120.8424,-1.958],[120.8669,-1.9497],[120.88,-1.9428],[120.8823,-1.937],[120.8799,-1.9297],[120.9011,-1.9138],[120.9076,-1.912],[120.9085,-1.9086],[120.9206,-1.898],[120.9245,-1.9051],[120.9283,-1.9052],[120.9292,-1.9148],[120.9203,-1.9199],[120.921,-1.9234],[120.9188,-1.9338],[120.9125,-1.9388],[120.8732,-1.9919],[120.8617,-2.0051]]]}},{"type":"Feature","properties":{"name":"Petiro","name_en":"Petiro","admin_level":"7","osm_id":""},"geometry":{"type":"Polygon","coordinates":[[[120.8636,-1.8247],[120.8653,-1.8341],[120.8626,-1.8393],[120.8662,-1.8447],[120.86,-1.8662],[120.8573,-1.8914],[120.8609,-1.9167],[120.8534,-1.9288],[120.8522,-1.9379],[120.8561,-1.9534],[120.8424,-1.958],[120.838,-1.9573],[120.8304,-1.9395],[120.8255,-1.9204],[120.8293,-1.8907],[120.8636,-1.8247]]]}},{"type":"Feature","properties":{"name":"Poleganyara","name_en":"Poleganyara","admin_level":"7","osm_id":""},"geometry":{"type":"Polygon","coordinates":[[[120.8009,-1.8995],[120.7982,-1.8973],[120.7821,-1.8956],[120.7751,-1.8985],[120.764,-1.9067],[120.7575,-1.9087],[120.7082,-1.9095],[120.6978,-1.8769],[120.693,-1.8666],[120.6852,-1.8348],[120.6962,-1.8329],[120.7048,-1.8264],[120.7106,-1.8188],[120.7132,-1.8454],[120.7221,-1.8675],[120.7337,-1.8844],[120.741,-1.8886],[120.7794,-1.8889],[120.7928,-1.8806],[120.8027,-1.8784],[120.8102,-1.8855],[120.8034,-1.9018],[120.8009,-1.8995]]]}},{"type":"Feature","properties":{"name":"Taripa","name_en":"Taripa","admin_level":"7","osm_id":""},"geometry":{"type":"Polygon","coordinates":[[[120.8343,-1.7607],[120.8394,-1.7723],[120.851,-1.7882],[120.8564,-1.8084],[120.8636,-1.8247],[120.8293,-1.8907],[120.8255,-1.9204],[120.8304,-1.9395],[120.838,-1.9574],[120.808,-1.9541],[120.8157,-1.9104],[120.8236,-1.892],[120.8159,-1.8847],[120.8072,-1.8714],[120.8034,-1.8701],[120.7994,-1.8646],[120.7926,-1.8489],[120.7858,-1.8385],[120.8288,-1.7585],[120.8343,-1.7607]]]}},{"type":"Feature","properties":{"name":"Tiu","name_en":"Tiu","admin_level":"7","osm_id":""},"geometry":{"type":"Polygon","coordinates":[[[120.7835,-1.9492],[120.7824,-1.9488],[120.7932,-1.9305],[120.7955,-1.9233],[120.7957,-1.9134],[120.8006,-1.8992],[120.8034,-1.9018],[120.8102,-1.8855],[120.8027,-1.8784],[120.7928,-1.8806],[120.7794,-1.8889],[120.741,-1.8886],[120.7337,-1.8844],[120.728,-1.876],[120.7375,-1.8681],[120.7647,-1.8603],[120.7821,-1.8444],[120.7858,-1.8385],[120.7926,-1.8489],[120.7994,-1.8646],[120.8034,-1.8701],[120.8072,-1.8714],[120.8159,-1.8847],[120.8236,-1.892],[120.8237,-1.8939],[120.8157,-1.9104],[120.808,-1.9541],[120.7835,-1.9492]]]}}]}