{"type":"FeatureCollection","metadata":{"parent_osm_id":"gid_IDN_6_5_5_1","parent_name":"Boliyohuto","parent_name_1":"Gorontalo","parent_gid":"IDN.6.5.5_1","parent_level":"6","child_level":"7","count":15,"source":"GADM 4.1","generated":"2026-05-09"},"features":[{"type":"Feature","properties":{"name":"BandungRejo","name_en":"BandungRejo","admin_level":"7","osm_id":""},"geometry":{"type":"Polygon","coordinates":[[[122.6163,0.6888],[122.618,0.6919],[122.6307,0.6891],[122.6384,0.6926],[122.6387,0.6888],[122.6431,0.6904],[122.6477,0.689],[122.6494,0.6884],[122.6492,0.6851],[122.6451,0.6805],[122.6391,0.6774],[122.6358,0.6722],[122.6298,0.6764],[122.6302,0.6784],[122.6163,0.6888]]]}},{"type":"Feature","properties":{"name":"Bilato","name_en":"Bilato","admin_level":"7","osm_id":""},"geometry":{"type":"Polygon","coordinates":[[[122.6495,0.5179],[122.6465,0.5247],[122.6439,0.5277],[122.6377,0.5306],[122.637,0.5342],[122.6297,0.5332],[122.6289,0.5372],[122.6446,0.5367],[122.655,0.5396],[122.6753,0.5639],[122.6861,0.552],[122.6747,0.5451],[122.6652,0.5358],[122.6636,0.5301],[122.6528,0.5156],[122.6495,0.5179]]]}},{"type":"Feature","properties":{"name":"Bumela","name_en":"Bumela","admin_level":"7","osm_id":""},"geometry":{"type":"Polygon","coordinates":[[[122.7274,0.5316],[122.7269,0.5287],[122.7242,0.5261],[122.7122,0.5227],[122.7074,0.5141],[122.6844,0.5545],[122.6486,0.5944],[122.6411,0.6077],[122.642,0.6157],[122.6476,0.6265],[122.6541,0.6268],[122.6552,0.6301],[122.6528,0.6329],[122.6545,0.6354],[122.6617,0.6353],[122.6668,0.6312],[122.6684,0.6138],[122.6764,0.6057],[122.689,0.5792],[122.6979,0.5693],[122.7127,0.5601],[122.7201,0.553],[122.7239,0.5464],[122.7233,0.5417],[122.7276,0.5373],[122.7274,0.5316]]]}},{"type":"Feature","properties":{"name":"Diloniyohu","name_en":"Diloniyohu","admin_level":"7","osm_id":""},"geometry":{"type":"Polygon","coordinates":[[[122.5891,0.6528],[122.5884,0.6591],[122.5862,0.6562],[122.5841,0.6564],[122.5854,0.6625],[122.5804,0.6591],[122.5796,0.6552],[122.5782,0.6621],[122.5768,0.6625],[122.572,0.6587],[122.5685,0.6606],[122.5672,0.6646],[122.5714,0.6631],[122.5724,0.6647],[122.5695,0.6669],[122.5694,0.6692],[122.5635,0.6729],[122.5667,0.6774],[122.5634,0.6776],[122.5595,0.6814],[122.5643,0.6954],[122.5711,0.6932],[122.5694,0.6881],[122.5744,0.6862],[122.5785,0.6899],[122.5835,0.6884],[122.5848,0.6837],[122.5887,0.6825],[122.5893,0.6843],[122.5916,0.6835],[122.5928,0.6867],[122.5947,0.6861],[122.5976,0.6952],[122.6028,0.6936],[122.604,0.6906],[122.6066,0.6911],[122.607,0.6935],[122.6151,0.6872],[122.6094,0.6806],[122.6161,0.6751],[122.6019,0.6581],[122.6085,0.6521],[122.606,0.6492],[122.6105,0.6447],[122.6093,0.6436],[122.6125,0.6408],[122.6123,0.6388],[122.6089,0.6388],[122.6077,0.6369],[122.6053,0.6382],[122.6043,0.635],[122.603,0.635],[122.6027,0.6413],[122.595,0.639],[122.595,0.6405],[122.5991,0.642],[122.6003,0.6492],[122.5987,0.6497],[122.5964,0.6471],[122.5947,0.6479],[122.5976,0.6516],[122.5952,0.6527],[122.5937,0.6573],[122.5919,0.6524],[122.5891,0.6528]]]}},{"type":"Feature","properties":{"name":"Iloheluma","name_en":"Iloheluma","admin_level":"7","osm_id":""},"geometry":{"type":"Polygon","coordinates":[[[122.6246,0.6497],[122.6273,0.6498],[122.6362,0.6581],[122.6352,0.649],[122.6377,0.6497],[122.6377,0.6439],[122.6404,0.6387],[122.6354,0.6383],[122.6354,0.6365],[122.6335,0.6366],[122.6335,0.6317],[122.6225,0.6317],[122.6225,0.6348],[122.6155,0.6419],[122.6182,0.6439],[122.6178,0.6458],[122.621,0.6452],[122.6246,0.6497]]]}},{"type":"Feature","properties":{"name":"Ilomata","name_en":"Ilomata","admin_level":"7","osm_id":""},"geometry":{"type":"Polygon","coordinates":[[[122.6528,0.5156],[122.6636,0.5301],[122.6652,0.5358],[122.6747,0.5451],[122.6861,0.552],[122.6939,0.5397],[122.6744,0.5252],[122.6666,0.5126],[122.6607,0.5155],[122.6528,0.5156]]]}},{"type":"Feature","properties":{"name":"Lamahu","name_en":"Lamahu","admin_level":"7","osm_id":""},"geometry":{"type":"Polygon","coordinates":[[[122.7038,0.5659],[122.6944,0.5723],[122.689,0.5792],[122.6764,0.6057],[122.6684,0.6138],[122.6677,0.6287],[122.6651,0.6333],[122.6617,0.6353],[122.6691,0.6389],[122.675,0.6461],[122.6751,0.6479],[122.6735,0.6468],[122.6711,0.6478],[122.6729,0.6681],[122.6824,0.6568],[122.6828,0.6438],[122.6864,0.6363],[122.6987,0.6205],[122.699,0.6167],[122.6909,0.6092],[122.6971,0.6031],[122.6969,0.5972],[122.6953,0.5946],[122.6973,0.5906],[122.6962,0.5826],[122.7038,0.5659]]]}},{"type":"Feature","properties":{"name":"Monggolito","name_en":"Monggolito","admin_level":"7","osm_id":""},"geometry":{"type":"Polygon","coordinates":[[[122.6079,0.6648],[122.6161,0.6751],[122.6219,0.6705],[122.6237,0.6707],[122.6171,0.6621],[122.6229,0.6568],[122.636,0.6675],[122.6423,0.6622],[122.6434,0.6588],[122.6424,0.6584],[122.6415,0.6608],[122.6379,0.6578],[122.6357,0.6582],[122.6273,0.6498],[122.6246,0.6497],[122.6186,0.6566],[122.6079,0.6648]]]}},{"type":"Feature","properties":{"name":"Motoduto","name_en":"Motoduto","admin_level":"7","osm_id":""},"geometry":{"type":"Polygon","coordinates":[[[122.6222,0.596],[122.6216,0.5972],[122.6172,0.5963],[122.6168,0.601],[122.6118,0.6065],[122.6099,0.6114],[122.6096,0.6195],[122.6028,0.6313],[122.6067,0.6336],[122.6043,0.635],[122.6053,0.6382],[122.6077,0.6369],[122.6089,0.6388],[122.6119,0.6385],[122.612,0.6405],[122.6149,0.6419],[122.6225,0.6348],[122.6225,0.6317],[122.6363,0.6049],[122.6321,0.6017],[122.6277,0.6008],[122.6222,0.596]]]}},{"type":"Feature","properties":{"name":"Parungi","name_en":"Parungi","admin_level":"7","osm_id":""},"geometry":{"type":"Polygon","coordinates":[[[122.6545,0.6354],[122.6528,0.6324],[122.6552,0.6301],[122.6548,0.628],[122.6471,0.626],[122.6427,0.6192],[122.6412,0.6078],[122.6363,0.6049],[122.6235,0.6317],[122.6335,0.6317],[122.6335,0.6366],[122.6354,0.6365],[122.6354,0.6383],[122.6404,0.6387],[122.6545,0.6354]]]}},{"type":"Feature","properties":{"name":"Potanga","name_en":"Potanga","admin_level":"7","osm_id":""},"geometry":{"type":"Polygon","coordinates":[[[122.618,0.6919],[122.6151,0.6872],[122.607,0.6935],[122.6066,0.6911],[122.604,0.6906],[122.6009,0.6977],[122.6074,0.7171],[122.6037,0.7182],[122.6059,0.7259],[122.6167,0.7252],[122.6145,0.7245],[122.6159,0.722],[122.6134,0.7203],[122.6171,0.7136],[122.6178,0.7058],[122.6187,0.7044],[122.6208,0.705],[122.6212,0.7036],[122.6226,0.7052],[122.6265,0.7028],[122.6206,0.6978],[122.618,0.6919]]]}},{"type":"Feature","properties":{"name":"SidoMulyo","name_en":"SidoMulyo","admin_level":"7","osm_id":""},"geometry":{"type":"Polygon","coordinates":[[[122.6125,0.6408],[122.606,0.6492],[122.6085,0.6521],[122.6019,0.6581],[122.6079,0.6648],[122.6186,0.6566],[122.6246,0.6497],[122.621,0.6452],[122.6178,0.6458],[122.6168,0.642],[122.6125,0.6408]]]}},{"type":"Feature","properties":{"name":"Sidodadi","name_en":"Sidodadi","admin_level":"7","osm_id":""},"geometry":{"type":"Polygon","coordinates":[[[122.6163,0.6888],[122.6302,0.6784],[122.6298,0.6764],[122.6358,0.6722],[122.6349,0.6681],[122.636,0.6675],[122.6229,0.6568],[122.6171,0.6621],[122.6237,0.6707],[122.6219,0.6705],[122.6094,0.6806],[122.6163,0.6888]]]}},{"type":"Feature","properties":{"name":"Taulaa","name_en":"Taulaa","admin_level":"7","osm_id":""},"geometry":{"type":"Polygon","coordinates":[[[122.7074,0.5141],[122.7035,0.5039],[122.698,0.4982],[122.6951,0.477],[122.6941,0.4737],[122.6922,0.4733],[122.6903,0.4916],[122.6851,0.4927],[122.6839,0.4955],[122.6876,0.4979],[122.6854,0.5038],[122.6772,0.5072],[122.677,0.5116],[122.6749,0.5128],[122.6666,0.5126],[122.6744,0.5252],[122.6939,0.5397],[122.6999,0.526],[122.7074,0.5141]]]}},{"type":"Feature","properties":{"name":"Totopo","name_en":"Totopo","admin_level":"7","osm_id":""},"geometry":{"type":"Polygon","coordinates":[[[122.6289,0.5372],[122.6284,0.5396],[122.6336,0.5479],[122.6315,0.5534],[122.633,0.5613],[122.6386,0.5635],[122.6383,0.5668],[122.633,0.5766],[122.631,0.5771],[122.6319,0.5813],[122.63,0.5839],[122.6276,0.5831],[122.6306,0.5891],[122.6222,0.5927],[122.6218,0.5942],[122.6277,0.6008],[122.6321,0.6017],[122.6411,0.6077],[122.6526,0.5889],[122.6648,0.5772],[122.6753,0.5639],[122.655,0.5396],[122.6446,0.5367],[122.6289,0.5372]]]}}]}