{"type":"FeatureCollection","metadata":{"parent_osm_id":"gid_IDN_34_7_15_1","parent_name":"SangattaUtara","parent_name_1":"KalimantanTimur","parent_gid":"IDN.34.7.15_1","parent_level":"6","child_level":"7","count":4,"source":"GADM 4.1","generated":"2026-05-09"},"features":[{"type":"Feature","properties":{"name":"SangattaUtara","name_en":"SangattaUtara","admin_level":"7","osm_id":""},"geometry":{"type":"Polygon","coordinates":[[[117.5519,0.4759],[117.5489,0.4838],[117.5434,0.482],[117.5347,0.487],[117.5297,0.4857],[117.5205,0.4971],[117.5338,0.5063],[117.5279,0.5085],[117.5292,0.5113],[117.5422,0.5177],[117.5914,0.515],[117.6182,0.5023],[117.6052,0.4895],[117.6011,0.4755],[117.6013,0.4669],[117.6059,0.4474],[117.6115,0.4425],[117.6129,0.4392],[117.602,0.4408],[117.5933,0.4454],[117.5906,0.4532],[117.5883,0.4445],[117.5819,0.4472],[117.5846,0.4504],[117.5787,0.4541],[117.5777,0.4573],[117.57,0.4591],[117.5745,0.4646],[117.5645,0.4678],[117.5658,0.4724],[117.564,0.4783],[117.5581,0.4815],[117.5544,0.4788],[117.5544,0.4706],[117.5519,0.4759]]]}},{"type":"Feature","properties":{"name":"SingaGembara","name_en":"SingaGembara","admin_level":"7","osm_id":""},"geometry":{"type":"Polygon","coordinates":[[[117.5057,0.6523],[117.5671,0.6388],[117.6057,0.6246],[117.6654,0.5884],[117.6585,0.5795],[117.6613,0.5646],[117.6518,0.5613],[117.6528,0.5588],[117.649,0.5557],[117.6505,0.5522],[117.6466,0.5464],[117.6437,0.5352],[117.6326,0.5247],[117.5725,0.5568],[117.5499,0.5434],[117.5307,0.5549],[117.5288,0.5781],[117.5228,0.5903],[117.5221,0.6006],[117.4992,0.6124],[117.5087,0.6404],[117.5057,0.6523]]]}},{"type":"Feature","properties":{"name":"SwargaBara","name_en":"SwargaBara","admin_level":"7","osm_id":""},"geometry":{"type":"Polygon","coordinates":[[[117.4616,0.6618],[117.5057,0.6523],[117.5087,0.6404],[117.4992,0.6124],[117.5221,0.6006],[117.5228,0.5903],[117.5288,0.5781],[117.5307,0.5549],[117.5499,0.5434],[117.5153,0.5219],[117.5086,0.5223],[117.5086,0.5255],[117.5031,0.5282],[117.5009,0.5246],[117.4967,0.5232],[117.4935,0.5269],[117.489,0.525],[117.4858,0.5255],[117.4844,0.5333],[117.4766,0.5378],[117.4679,0.5323],[117.4661,0.5346],[117.467,0.5392],[117.4601,0.547],[117.4684,0.5603],[117.4616,0.6618]]]}},{"type":"Feature","properties":{"name":"TelukLingga","name_en":"TelukLingga","admin_level":"7","osm_id":""},"geometry":{"type":"Polygon","coordinates":[[[117.5335,0.5136],[117.5343,0.5168],[117.5292,0.5204],[117.5247,0.5223],[117.5153,0.5219],[117.5725,0.5568],[117.6326,0.5247],[117.6318,0.5203],[117.6342,0.5188],[117.6348,0.5161],[117.6285,0.5062],[117.6213,0.5056],[117.6182,0.5023],[117.5914,0.515],[117.5422,0.5177],[117.5335,0.5136]]]}}]}