{"type":"FeatureCollection","metadata":{"parent_osm_id":"gid_IDN_26_23_20_1","parent_name":"Tikala","parent_name_1":"SulawesiSelatan","parent_gid":"IDN.26.23.20_1","parent_level":"6","child_level":"7","count":7,"source":"GADM 4.1","generated":"2026-05-08"},"features":[{"type":"Feature","properties":{"name":"KelurahanBuntuBarana","name_en":"KelurahanBuntuBarana","admin_level":"7","osm_id":""},"geometry":{"type":"Polygon","coordinates":[[[119.8951,-2.9593],[119.8908,-2.9589],[119.8891,-2.9535],[119.8872,-2.9534],[119.8866,-2.9413],[119.8904,-2.9367],[119.8932,-2.9392],[119.8989,-2.941],[119.8967,-2.9425],[119.8946,-2.9482],[119.8972,-2.95],[119.8951,-2.9593]]]}},{"type":"Feature","properties":{"name":"KelurahanTikala","name_en":"KelurahanTikala","admin_level":"7","osm_id":""},"geometry":{"type":"Polygon","coordinates":[[[119.8872,-2.9534],[119.8835,-2.9573],[119.8806,-2.9576],[119.8798,-2.953],[119.8776,-2.9499],[119.8743,-2.949],[119.8737,-2.946],[119.8772,-2.9425],[119.8852,-2.942],[119.8878,-2.9457],[119.8872,-2.9534]]]}},{"type":"Feature","properties":{"name":"LembangBentengKa'doTo","name_en":"LembangBentengKa'doTo","admin_level":"7","osm_id":""},"geometry":{"type":"Polygon","coordinates":[[[119.8665,-2.9487],[119.8633,-2.94],[119.8588,-2.9349],[119.8714,-2.9353],[119.8693,-2.9389],[119.8688,-2.9464],[119.8665,-2.9487]]]}},{"type":"Feature","properties":{"name":"LembangBuntuBatu","name_en":"LembangBuntuBatu","admin_level":"7","osm_id":""},"geometry":{"type":"Polygon","coordinates":[[[119.8882,-2.9381],[119.8865,-2.9429],[119.8782,-2.9425],[119.8789,-2.9355],[119.8819,-2.9326],[119.8856,-2.9338],[119.8882,-2.9381]]]}},{"type":"Feature","properties":{"name":"LembangEmbatau","name_en":"LembangEmbatau","admin_level":"7","osm_id":""},"geometry":{"type":"Polygon","coordinates":[[[119.8714,-2.9353],[119.8732,-2.9358],[119.8781,-2.9303],[119.8812,-2.9332],[119.8789,-2.9355],[119.8782,-2.9425],[119.8737,-2.946],[119.8727,-2.9448],[119.8688,-2.9464],[119.8693,-2.9389],[119.8714,-2.9353]]]}},{"type":"Feature","properties":{"name":"LembangPangden","name_en":"LembangPangden","admin_level":"7","osm_id":""},"geometry":{"type":"Polygon","coordinates":[[[119.876,-2.9196],[119.8839,-2.9217],[119.8934,-2.9217],[119.8906,-2.9254],[119.8922,-2.9282],[119.8917,-2.937],[119.8878,-2.9381],[119.8856,-2.9338],[119.8812,-2.9332],[119.8781,-2.9303],[119.8757,-2.9248],[119.876,-2.9196]]]}},{"type":"Feature","properties":{"name":"LembangSereale","name_en":"LembangSereale","admin_level":"7","osm_id":""},"geometry":{"type":"Polygon","coordinates":[[[119.8806,-2.9576],[119.8747,-2.9561],[119.8665,-2.9487],[119.869,-2.9462],[119.8734,-2.945],[119.8743,-2.949],[119.8776,-2.9499],[119.8798,-2.953],[119.8806,-2.9576]]]}}]}