{"type":"FeatureCollection","metadata":{"parent_osm_id":"gid_IDN_14_7_2_1","parent_name":"ArutUtara","parent_name_1":"KalimantanTengah","parent_gid":"IDN.14.7.2_1","parent_level":"6","child_level":"7","count":11,"source":"GADM 4.1","generated":"2026-05-07"},"features":[{"type":"Feature","properties":{"name":"Gandis","name_en":"Gandis","admin_level":"7","osm_id":""},"geometry":{"type":"Polygon","coordinates":[[[111.9084,-2.1023],[111.9581,-2.087],[112.0287,-2.0552],[112.0398,-2.0629],[112.0207,-2.0952],[112.0097,-2.1297],[111.9723,-2.1391],[111.9579,-2.1502],[111.9514,-2.1525],[111.9402,-2.1504],[111.9263,-2.1382],[111.9215,-2.1316],[111.9084,-2.1023]]]}},{"type":"Feature","properties":{"name":"Kerabu","name_en":"Kerabu","admin_level":"7","osm_id":""},"geometry":{"type":"Polygon","coordinates":[[[112.0287,-2.0552],[111.9581,-2.087],[111.9125,-2.1007],[111.8895,-2.1097],[111.8636,-2.0535],[111.9525,-2.0373],[111.9989,-2.0227],[112.0181,-2.0466],[112.0287,-2.0552]]]}},{"type":"Feature","properties":{"name":"NangaMua","name_en":"NangaMua","admin_level":"7","osm_id":""},"geometry":{"type":"Polygon","coordinates":[[[111.8707,-2.3269],[111.8381,-2.3102],[111.823,-2.2969],[111.8103,-2.2745],[111.8028,-2.2518],[111.7995,-2.231],[111.8032,-2.2228],[111.7929,-2.2076],[111.7715,-2.1694],[111.7211,-2.1112],[111.7556,-2.0449],[111.8197,-2.0557],[111.8502,-2.1752],[111.8773,-2.1938],[111.9107,-2.249],[111.9664,-2.331],[111.9312,-2.3307],[111.9313,-2.3402],[111.8707,-2.3269]]]}},{"type":"Feature","properties":{"name":"Pandau","name_en":"Pandau","admin_level":"7","osm_id":""},"geometry":{"type":"Polygon","coordinates":[[[111.9791,-1.9965],[111.9377,-2.0064],[111.865,-2.0113],[111.7766,-2.0014],[111.7912,-1.9716],[111.7962,-1.9577],[111.8741,-1.962],[111.9167,-1.9501],[111.9485,-1.9335],[111.9791,-1.9965]]]}},{"type":"Feature","properties":{"name":"Pangkut","name_en":"Pangkut","admin_level":"7","osm_id":""},"geometry":{"type":"Polygon","coordinates":[[[111.8636,-2.0535],[111.9125,-2.1597],[111.9477,-2.1975],[111.9879,-2.1975],[111.9848,-2.2207],[111.9832,-2.2519],[111.9853,-2.2718],[111.9906,-2.2893],[112.0013,-2.2977],[112.0247,-2.3005],[112.0413,-2.3431],[111.9861,-2.328],[111.9664,-2.331],[111.9107,-2.249],[111.8773,-2.1938],[111.8502,-2.1752],[111.8197,-2.0557],[111.8636,-2.0535]]]}},{"type":"Feature","properties":{"name":"Penahan","name_en":"Penahan","admin_level":"7","osm_id":""},"geometry":{"type":"Polygon","coordinates":[[[111.9681,-1.8587],[111.9369,-1.8869],[111.9019,-1.9027],[111.8521,-1.9039],[111.8146,-1.8933],[111.8199,-1.8736],[111.8244,-1.7763],[111.8089,-1.583],[111.7969,-1.5628],[111.8361,-1.5949],[111.8531,-1.5958],[111.8585,-1.6057],[111.862,-1.6165],[111.8781,-1.6228],[111.8853,-1.6363],[111.8835,-1.6507],[111.888,-1.6579],[111.8871,-1.6642],[111.8808,-1.675],[111.8987,-1.6939],[111.9014,-1.711],[111.9055,-1.7175],[111.947,-1.7334],[111.9547,-1.7334],[111.9614,-1.7631],[111.9629,-1.7769],[111.956,-1.7965],[111.9534,-1.809],[111.9548,-1.8222],[111.9587,-1.837],[111.9681,-1.8587]]]}},{"type":"Feature","properties":{"name":"Penyombaan","name_en":"Penyombaan","admin_level":"7","osm_id":""},"geometry":{"type":"Polygon","coordinates":[[[111.9989,-2.0227],[111.9525,-2.0373],[111.8644,-2.0535],[111.8203,-2.0559],[111.7556,-2.0449],[111.7766,-2.0014],[111.865,-2.0113],[111.9377,-2.0064],[111.9791,-1.9965],[111.9989,-2.0227]]]}},{"type":"Feature","properties":{"name":"Riam","name_en":"Riam","admin_level":"7","osm_id":""},"geometry":{"type":"Polygon","coordinates":[[[111.9485,-1.9335],[111.9167,-1.9501],[111.8741,-1.962],[111.7962,-1.9577],[111.8146,-1.8933],[111.8521,-1.9039],[111.9019,-1.9027],[111.9369,-1.8869],[111.9681,-1.8587],[111.9737,-1.8661],[111.9908,-1.8982],[111.9485,-1.9335]]]}},{"type":"Feature","properties":{"name":"Sambi","name_en":"Sambi","admin_level":"7","osm_id":""},"geometry":{"type":"Polygon","coordinates":[[[112.0398,-2.0629],[112.0181,-2.0466],[111.9793,-1.9968],[111.9485,-1.9335],[111.9908,-1.8982],[112.0121,-1.9596],[112.0421,-1.9971],[112.0821,-2.0255],[112.0811,-2.0282],[112.0786,-2.0276],[112.0621,-2.0311],[112.0398,-2.0629]]]}},{"type":"Feature","properties":{"name":"Sukarami","name_en":"Sukarami","admin_level":"7","osm_id":""},"geometry":{"type":"Polygon","coordinates":[[[111.9084,-2.1023],[111.9215,-2.1316],[111.9338,-2.1457],[111.9402,-2.1504],[111.9514,-2.1525],[111.9579,-2.1502],[111.9723,-2.1391],[112.0097,-2.1297],[112.0087,-2.1403],[111.9918,-2.1799],[111.9879,-2.1975],[111.9477,-2.1975],[111.9125,-2.1597],[111.8895,-2.1097],[111.9084,-2.1023]]]}},{"type":"Feature","properties":{"name":"SungaiDau","name_en":"SungaiDau","admin_level":"7","osm_id":""},"geometry":{"type":"Polygon","coordinates":[[[112.0821,-2.0255],[112.0421,-1.9971],[112.0121,-1.9596],[111.9911,-1.8984],[112.0317,-1.9366],[112.0575,-1.9502],[112.0736,-1.9649],[112.0905,-2.0015],[112.0821,-2.0255]]]}}]}