{"type":"FeatureCollection","metadata":{"parent_osm_id":"gid_IDN_28_10_16_1","parent_name":"Routa","parent_name_1":"SulawesiTenggara","parent_gid":"IDN.28.10.16_1","parent_level":"6","child_level":"7","count":7,"source":"GADM 4.1","generated":"2026-05-08"},"features":[{"type":"Feature","properties":{"name":"Lalomerui","name_en":"Lalomerui","admin_level":"7","osm_id":""},"geometry":{"type":"Polygon","coordinates":[[[121.8645,-2.9671],[121.8704,-2.9715],[121.8824,-2.9751],[121.8992,-2.9832],[121.9208,-2.99],[121.9284,-2.9839],[121.9392,-2.9795],[121.9492,-2.9766],[121.9635,-2.9753],[121.9811,-2.9662],[122.0064,-2.9576],[122.0162,-2.9574],[122.024,-2.9595],[122.0319,-2.958],[122.0385,-2.9596],[122.0506,-2.9518],[122.0611,-2.9491],[122.0725,-2.9541],[122.079,-2.9621],[121.8419,-3.2053],[121.8444,-3.2091],[121.8283,-3.226],[121.8124,-3.2351],[121.7907,-3.2431],[121.7801,-3.2431],[121.771,-3.0112],[121.7446,-2.9696],[121.7017,-2.9315],[121.6885,-2.9166],[121.6855,-2.9008],[121.6939,-2.9022],[121.7029,-2.9118],[121.7107,-2.9138],[121.7126,-2.9195],[121.7142,-2.9203],[121.7217,-2.9194],[121.7249,-2.9168],[121.7304,-2.9159],[121.7326,-2.918],[121.7383,-2.9188],[121.7415,-2.9242],[121.7516,-2.9235],[121.7562,-2.9253],[121.7661,-2.9329],[121.7709,-2.9428],[121.775,-2.943],[121.7781,-2.9458],[121.7824,-2.9436],[121.7844,-2.9454],[121.7912,-2.9444],[121.8042,-2.9531],[121.8191,-2.9591],[121.8255,-2.969],[121.8334,-2.9722],[121.8355,-2.9707],[121.8434,-2.9703],[121.8462,-2.9679],[121.8511,-2.9673],[121.8535,-2.9645],[121.8575,-2.9639],[121.8645,-2.9671]]]}},{"type":"Feature","properties":{"name":"Parudongka","name_en":"Parudongka","admin_level":"7","osm_id":""},"geometry":{"type":"Polygon","coordinates":[[[121.5676,-2.9199],[121.5704,-2.9175],[121.5811,-2.914],[121.5815,-3.1722],[121.564,-3.1879],[121.5537,-3.2027],[121.5217,-3.2244],[121.5035,-3.2244],[121.4882,-3.2403],[121.4313,-3.2733],[121.4302,-3.2479],[121.4356,-3.2204],[121.442,-3.1684],[121.4367,-3.1587],[121.4212,-3.1495],[121.4164,-3.1421],[121.4118,-3.1194],[121.412,-3.1097],[121.4093,-3.1054],[121.3927,-3.1012],[121.3885,-3.0976],[121.3889,-3.0859],[121.3817,-3.0709],[121.3668,-3.0595],[121.3613,-3.0521],[121.3606,-3.044],[121.3629,-3.0256],[121.3687,-3.0152],[121.3699,-3.0099],[121.3578,-2.9747],[121.3727,-2.9768],[121.3815,-2.98],[121.4124,-3.0026],[121.4403,-3.0067],[121.4576,-3.0131],[121.4611,-3.0105],[121.4652,-2.9992],[121.4919,-2.9782],[121.4991,-2.9741],[121.5083,-2.9738],[121.5254,-2.9621],[121.5402,-2.9408],[121.5447,-2.9249],[121.5471,-2.9217],[121.5575,-2.9195],[121.5658,-2.9222],[121.5676,-2.9199]]]}},{"type":"Feature","properties":{"name":"Puuwiwirano","name_en":"Puuwiwirano","admin_level":"7","osm_id":""},"geometry":{"type":"Polygon","coordinates":[[[121.6998,-3.2311],[121.6881,-3.2281],[121.6722,-3.2189],[121.6779,-3.2006],[121.6688,-3.1926],[121.6561,-3.1771],[121.6544,-2.9699],[121.6937,-2.9697],[121.6937,-3.0173],[121.6998,-3.2311]]]}},{"type":"Feature","properties":{"name":"Routa","name_en":"Routa","admin_level":"7","osm_id":""},"geometry":{"type":"Polygon","coordinates":[[[121.6199,-2.9048],[121.6298,-2.8972],[121.6378,-2.8941],[121.6542,-2.8984],[121.6678,-2.8969],[121.6754,-2.9004],[121.6855,-2.9008],[121.6885,-2.9166],[121.7017,-2.9315],[121.7446,-2.9696],[121.6544,-2.9699],[121.6206,-2.9292],[121.6199,-2.9048]]]}},{"type":"Feature","properties":{"name":"Tanggola","name_en":"Tanggola","admin_level":"7","osm_id":""},"geometry":{"type":"Polygon","coordinates":[[[121.6561,-3.1771],[121.6495,-3.1673],[121.6335,-3.1605],[121.6119,-3.1662],[121.5913,-3.1604],[121.5815,-3.1722],[121.5815,-2.9701],[121.6545,-2.9701],[121.6561,-3.1771]]]}},{"type":"Feature","properties":{"name":"Tirawonua","name_en":"Tirawonua","admin_level":"7","osm_id":""},"geometry":{"type":"Polygon","coordinates":[[[121.5811,-2.914],[121.6009,-2.9035],[121.6168,-2.9057],[121.6199,-2.9048],[121.6206,-2.9292],[121.6544,-2.9699],[121.5815,-2.9701],[121.5811,-2.914]]]}},{"type":"Feature","properties":{"name":"Walandawe","name_en":"Walandawe","admin_level":"7","osm_id":""},"geometry":{"type":"Polygon","coordinates":[[[121.7801,-3.2431],[121.7759,-3.2431],[121.7645,-3.25],[121.7559,-3.2401],[121.7474,-3.2339],[121.735,-3.2447],[121.6998,-3.2311],[121.6937,-3.0173],[121.6937,-2.9697],[121.7446,-2.9696],[121.771,-3.0112],[121.7801,-3.2431]]]}}]}