{"type":"FeatureCollection","metadata":{"parent_osm_id":"18187392","parent_name":"Kadungora","parent_name_1":"JawaBarat","parent_gid":"IDN.9.11.19_1","parent_level":"6","child_level":"7","count":14,"source":"GADM 4.1","generated":"2026-05-09"},"features":[{"type":"Feature","properties":{"name":"Cikembulan","name_en":"Cikembulan","admin_level":"7","osm_id":""},"geometry":{"type":"Polygon","coordinates":[[[107.9075,-7.0801],[107.9125,-7.0805],[107.9169,-7.0843],[107.9183,-7.081],[107.9211,-7.0812],[107.9233,-7.0758],[107.9267,-7.0776],[107.9312,-7.0759],[107.933,-7.0801],[107.9308,-7.0854],[107.9154,-7.0885],[107.9091,-7.0873],[107.9073,-7.0887],[107.9056,-7.0881],[107.9056,-7.0835],[107.9075,-7.0801]]]}},{"type":"Feature","properties":{"name":"Cisaat","name_en":"Cisaat","admin_level":"7","osm_id":""},"geometry":{"type":"Polygon","coordinates":[[[107.9233,-7.0758],[107.9211,-7.0812],[107.9183,-7.081],[107.9169,-7.0843],[107.9125,-7.0805],[107.9089,-7.0807],[107.9048,-7.0783],[107.9065,-7.0738],[107.9094,-7.0752],[107.9103,-7.0732],[107.9129,-7.0749],[107.9162,-7.0739],[107.9179,-7.0708],[107.9237,-7.0722],[107.9233,-7.0758]]]}},{"type":"Feature","properties":{"name":"Gandamekar","name_en":"Gandamekar","admin_level":"7","osm_id":""},"geometry":{"type":"Polygon","coordinates":[[[107.8967,-7.0542],[107.9085,-7.0532],[107.9094,-7.0568],[107.9063,-7.0629],[107.9074,-7.0682],[107.9056,-7.0701],[107.9088,-7.0725],[107.9094,-7.0752],[107.9065,-7.0738],[107.9048,-7.0783],[107.8988,-7.0777],[107.899,-7.0697],[107.8966,-7.0681],[107.8979,-7.0657],[107.8967,-7.0542]]]}},{"type":"Feature","properties":{"name":"Harumansari","name_en":"Harumansari","admin_level":"7","osm_id":""},"geometry":{"type":"Polygon","coordinates":[[[107.9312,-7.0543],[107.9333,-7.0577],[107.9323,-7.0615],[107.9347,-7.0678],[107.9425,-7.0741],[107.938,-7.0782],[107.935,-7.0781],[107.9318,-7.0757],[107.9267,-7.0776],[107.9233,-7.0758],[107.9279,-7.0661],[107.9266,-7.0622],[107.9289,-7.0607],[107.9286,-7.0578],[107.9312,-7.0543]]]}},{"type":"Feature","properties":{"name":"Hegarsari","name_en":"Hegarsari","admin_level":"7","osm_id":""},"geometry":{"type":"Polygon","coordinates":[[[107.8827,-7.0837],[107.8926,-7.0831],[107.8941,-7.0901],[107.8926,-7.0943],[107.8872,-7.0959],[107.8798,-7.0937],[107.875,-7.0952],[107.8757,-7.092],[107.8819,-7.0865],[107.8827,-7.0837]]]}},{"type":"Feature","properties":{"name":"Kadungora","name_en":"Kadungora","admin_level":"7","osm_id":""},"geometry":{"type":"Polygon","coordinates":[[[107.9075,-7.0801],[107.9056,-7.0832],[107.9056,-7.0881],[107.903,-7.0894],[107.8985,-7.0882],[107.8988,-7.0777],[107.9025,-7.0771],[107.9075,-7.0801]]]}},{"type":"Feature","properties":{"name":"Karangmulya","name_en":"Karangmulya","admin_level":"7","osm_id":""},"geometry":{"type":"Polygon","coordinates":[[[107.8593,-7.0597],[107.8636,-7.0582],[107.8854,-7.0666],[107.8873,-7.0681],[107.8862,-7.0749],[107.8912,-7.0745],[107.8988,-7.0777],[107.8987,-7.0832],[107.8827,-7.0837],[107.8832,-7.0803],[107.882,-7.0791],[107.862,-7.0686],[107.8596,-7.0649],[107.8593,-7.0597]]]}},{"type":"Feature","properties":{"name":"Karangtengah","name_en":"Karangtengah","admin_level":"7","osm_id":""},"geometry":{"type":"Polygon","coordinates":[[[107.8636,-7.0582],[107.8741,-7.0549],[107.8766,-7.0503],[107.8919,-7.0493],[107.8929,-7.0536],[107.8971,-7.0547],[107.8979,-7.0657],[107.8966,-7.0681],[107.899,-7.0697],[107.8988,-7.0777],[107.8912,-7.0745],[107.8862,-7.0749],[107.887,-7.0677],[107.8636,-7.0582]]]}},{"type":"Feature","properties":{"name":"Mandalasari","name_en":"Mandalasari","admin_level":"7","osm_id":""},"geometry":{"type":"Polygon","coordinates":[[[107.8514,-7.059],[107.8593,-7.0597],[107.8596,-7.0649],[107.8636,-7.07],[107.882,-7.0791],[107.8833,-7.0812],[107.8819,-7.0865],[107.8761,-7.0877],[107.8758,-7.0859],[107.8715,-7.0843],[107.87,-7.0817],[107.8599,-7.0751],[107.8553,-7.0737],[107.8531,-7.0716],[107.8547,-7.0694],[107.8522,-7.0681],[107.8514,-7.059]]]}},{"type":"Feature","properties":{"name":"Mekarbakti","name_en":"Mekarbakti","admin_level":"7","osm_id":""},"geometry":{"type":"Polygon","coordinates":[[[107.9085,-7.0532],[107.9177,-7.0532],[107.9159,-7.0628],[107.9178,-7.0704],[107.9162,-7.0739],[107.9124,-7.075],[107.9057,-7.0711],[107.9076,-7.0674],[107.9063,-7.0627],[107.9094,-7.0568],[107.9085,-7.0532]]]}},{"type":"Feature","properties":{"name":"Neglasari","name_en":"Neglasari","admin_level":"7","osm_id":""},"geometry":{"type":"Polygon","coordinates":[[[107.9063,-7.0886],[107.9091,-7.0873],[107.9168,-7.0884],[107.9206,-7.0867],[107.9189,-7.0917],[107.9203,-7.0934],[107.9169,-7.0928],[107.9181,-7.096],[107.9161,-7.0979],[107.9092,-7.098],[107.9093,-7.0929],[107.9063,-7.0929],[107.9063,-7.0886]]]}},{"type":"Feature","properties":{"name":"Rancasalak","name_en":"Rancasalak","admin_level":"7","osm_id":""},"geometry":{"type":"Polygon","coordinates":[[[107.8499,-7.0588],[107.8514,-7.059],[107.8522,-7.0681],[107.8547,-7.0694],[107.8531,-7.0716],[107.8553,-7.0737],[107.8599,-7.0751],[107.87,-7.0817],[107.8715,-7.0843],[107.8758,-7.0859],[107.8761,-7.0877],[107.8817,-7.0866],[107.8757,-7.092],[107.873,-7.0988],[107.8687,-7.1006],[107.8666,-7.1043],[107.8648,-7.0973],[107.8672,-7.0893],[107.867,-7.0809],[107.8571,-7.077],[107.8476,-7.0685],[107.8466,-7.064],[107.8499,-7.0588]]]}},{"type":"Feature","properties":{"name":"Talagasari","name_en":"Talagasari","admin_level":"7","osm_id":""},"geometry":{"type":"Polygon","coordinates":[[[107.9056,-7.0881],[107.9063,-7.0929],[107.9093,-7.0929],[107.9088,-7.0978],[107.9039,-7.1027],[107.9011,-7.0996],[107.8962,-7.1006],[107.8923,-7.0983],[107.8945,-7.0958],[107.8919,-7.0961],[107.8941,-7.0901],[107.8926,-7.0831],[107.8987,-7.0832],[107.8985,-7.0882],[107.9,-7.089],[107.9056,-7.0881]]]}},{"type":"Feature","properties":{"name":"Tanggulun","name_en":"Tanggulun","admin_level":"7","osm_id":""},"geometry":{"type":"Polygon","coordinates":[[[107.9177,-7.0532],[107.9269,-7.0519],[107.9312,-7.0543],[107.9286,-7.0578],[107.9289,-7.0607],[107.9266,-7.0622],[107.9279,-7.0661],[107.924,-7.0725],[107.9177,-7.0708],[107.9182,-7.0681],[107.9159,-7.0625],[107.9177,-7.0532]]]}}]}