{"type":"FeatureCollection","metadata":{"parent_osm_id":"2388669","parent_name":"Bara","parent_name_1":"SulawesiSelatan","parent_gid":"IDN.26.14.1_1","parent_level":"6","child_level":"7","count":5,"source":"GADM 4.1","generated":"2026-05-09"},"features":[{"type":"Feature","properties":{"name":"Balandai","name_en":"Balandai","admin_level":"7","osm_id":""},"geometry":{"type":"Polygon","coordinates":[[[120.1882,-2.977],[120.183,-2.9786],[120.181,-2.9762],[120.1692,-2.9761],[120.1617,-2.9715],[120.1598,-2.9681],[120.1595,-2.9624],[120.1772,-2.9628],[120.1824,-2.9652],[120.1882,-2.9641],[120.1907,-2.9657],[120.1896,-2.9686],[120.1904,-2.9762],[120.1882,-2.977]]]}},{"type":"Feature","properties":{"name":"BuntuDatu","name_en":"BuntuDatu","admin_level":"7","osm_id":""},"geometry":{"type":"Polygon","coordinates":[[[120.1881,-2.9355],[120.1846,-2.9363],[120.1821,-2.9397],[120.1706,-2.9353],[120.1645,-2.9371],[120.1514,-2.934],[120.1506,-2.9288],[120.1731,-2.9296],[120.1813,-2.9284],[120.1838,-2.9308],[120.1882,-2.9307],[120.19,-2.933],[120.1881,-2.9355]]]}},{"type":"Feature","properties":{"name":"Rampoang","name_en":"Rampoang","admin_level":"7","osm_id":""},"geometry":{"type":"Polygon","coordinates":[[[120.1549,-2.9544],[120.1539,-2.9406],[120.1707,-2.9497],[120.1918,-2.9465],[120.1965,-2.9499],[120.1941,-2.9511],[120.1913,-2.95],[120.1881,-2.9576],[120.1821,-2.9546],[120.1714,-2.9543],[120.1663,-2.956],[120.1549,-2.9544]]]}},{"type":"Feature","properties":{"name":"Temmalebba","name_en":"Temmalebba","admin_level":"7","osm_id":""},"geometry":{"type":"Polygon","coordinates":[[[120.1905,-2.9657],[120.1876,-2.9641],[120.1821,-2.9652],[120.1772,-2.9628],[120.1595,-2.9624],[120.1549,-2.9544],[120.1663,-2.956],[120.1714,-2.9543],[120.1821,-2.9546],[120.1881,-2.9576],[120.1913,-2.95],[120.1958,-2.9506],[120.2004,-2.9446],[120.2051,-2.9428],[120.2092,-2.9443],[120.2129,-2.9435],[120.2131,-2.9463],[120.2152,-2.9477],[120.2133,-2.9498],[120.2135,-2.956],[120.2115,-2.9547],[120.2097,-2.9569],[120.1994,-2.9573],[120.199,-2.9608],[120.193,-2.9619],[120.1905,-2.9657]]]}},{"type":"Feature","properties":{"name":"To'bulung","name_en":"To'bulung","admin_level":"7","osm_id":""},"geometry":{"type":"Polygon","coordinates":[[[120.1514,-2.934],[120.1645,-2.9371],[120.1706,-2.9353],[120.1819,-2.9397],[120.1846,-2.9363],[120.1881,-2.9355],[120.1948,-2.9466],[120.1698,-2.9494],[120.1539,-2.9406],[120.1514,-2.934]]]}}]}