{"type":"FeatureCollection","metadata":{"parent_osm_id":"gid_IDN_14_2_3_1","parent_name":"DusunTengah","parent_name_1":"KalimantanTengah","parent_gid":"IDN.14.2.3_1","parent_level":"6","child_level":"7","count":8,"source":"GADM 4.1","generated":"2026-05-09"},"features":[{"type":"Feature","properties":{"name":"AmpahDua","name_en":"AmpahDua","admin_level":"7","osm_id":""},"geometry":{"type":"Polygon","coordinates":[[[115.1338,-1.8063],[115.1454,-1.8068],[115.1496,-1.8159],[115.1264,-1.8161],[115.1275,-1.8074],[115.1289,-1.8061],[115.1338,-1.8063]]]}},{"type":"Feature","properties":{"name":"AmpahKota","name_en":"AmpahKota","admin_level":"7","osm_id":""},"geometry":{"type":"Polygon","coordinates":[[[115.1496,-1.8159],[115.1454,-1.8068],[115.1338,-1.8063],[115.1322,-1.7908],[115.1142,-1.7896],[115.118,-1.7754],[115.1176,-1.7656],[115.1349,-1.7656],[115.1959,-1.7502],[115.1984,-1.7649],[115.1991,-1.7849],[115.1872,-1.7908],[115.1858,-1.7975],[115.1886,-1.8155],[115.1496,-1.8159]]]}},{"type":"Feature","properties":{"name":"MuaraAwang","name_en":"MuaraAwang","admin_level":"7","osm_id":""},"geometry":{"type":"Polygon","coordinates":[[[115.3383,-1.7103],[115.3343,-1.7148],[115.335,-1.7179],[115.3329,-1.7208],[115.3325,-1.7235],[115.3358,-1.7271],[115.2799,-1.729],[115.2733,-1.7189],[115.2607,-1.7243],[115.2521,-1.7203],[115.2554,-1.7169],[115.2521,-1.7136],[115.2568,-1.7089],[115.2574,-1.7023],[115.2467,-1.6974],[115.2574,-1.6614],[115.2568,-1.6299],[115.2842,-1.6299],[115.3503,-1.6368],[115.3493,-1.6399],[115.3541,-1.6471],[115.3553,-1.6545],[115.3444,-1.6633],[115.3464,-1.6736],[115.3503,-1.6811],[115.3413,-1.6914],[115.344,-1.7017],[115.3376,-1.7074],[115.3383,-1.7103]]]}},{"type":"Feature","properties":{"name":"Netampin","name_en":"Netampin","admin_level":"7","osm_id":""},"geometry":{"type":"Polygon","coordinates":[[[115.311,-1.8159],[115.3135,-1.8247],[115.3124,-1.8265],[115.3064,-1.8262],[115.3009,-1.8236],[115.3,-1.8246],[115.2726,-1.8209],[115.1886,-1.8155],[115.1858,-1.7975],[115.1872,-1.7908],[115.1991,-1.7849],[115.1984,-1.7649],[115.1959,-1.7502],[115.2194,-1.7417],[115.2419,-1.7191],[115.2467,-1.6974],[115.2574,-1.7023],[115.2568,-1.7089],[115.2521,-1.7136],[115.2554,-1.7169],[115.2521,-1.7203],[115.2607,-1.7243],[115.2733,-1.7189],[115.2799,-1.729],[115.3358,-1.7271],[115.3363,-1.7299],[115.3324,-1.7354],[115.3342,-1.748],[115.3228,-1.7641],[115.3147,-1.7916],[115.3108,-1.7974],[115.3095,-1.808],[115.311,-1.8159]]]}},{"type":"Feature","properties":{"name":"Putai","name_en":"Putai","admin_level":"7","osm_id":""},"geometry":{"type":"Polygon","coordinates":[[[115.1338,-1.8063],[115.1289,-1.8061],[115.1275,-1.8074],[115.1264,-1.8161],[115.1076,-1.8144],[115.1142,-1.7896],[115.1322,-1.7908],[115.1338,-1.8063]]]}},{"type":"Feature","properties":{"name":"Rodok","name_en":"Rodok","admin_level":"7","osm_id":""},"geometry":{"type":"Polygon","coordinates":[[[115.1264,-1.8161],[115.1886,-1.8155],[115.1891,-1.8195],[115.1924,-1.8242],[115.199,-1.8268],[115.2196,-1.8209],[115.2269,-1.8242],[115.2393,-1.838],[115.2229,-1.8362],[115.1758,-1.8361],[115.0993,-1.8386],[115.1026,-1.8331],[115.1076,-1.8144],[115.1264,-1.8161]]]}},{"type":"Feature","properties":{"name":"Saing","name_en":"Saing","admin_level":"7","osm_id":""},"geometry":{"type":"Polygon","coordinates":[[[115.0993,-1.8386],[115.1758,-1.8361],[115.2229,-1.8362],[115.2398,-1.8385],[115.2222,-1.8444],[115.1982,-1.8599],[115.1673,-1.8514],[115.1237,-1.874],[115.1026,-1.8894],[115.1016,-1.892],[115.0785,-1.8663],[115.0843,-1.8641],[115.0993,-1.8386]]]}},{"type":"Feature","properties":{"name":"SumberGarunggung","name_en":"SumberGarunggung","admin_level":"7","osm_id":""},"geometry":{"type":"Polygon","coordinates":[[[115.3,-1.8246],[115.307,-1.8358],[115.3062,-1.8385],[115.3088,-1.8428],[115.3084,-1.8464],[115.2841,-1.843],[115.2616,-1.843],[115.2433,-1.8374],[115.2398,-1.8385],[115.2269,-1.8242],[115.2196,-1.8209],[115.199,-1.8268],[115.1924,-1.8242],[115.1891,-1.8195],[115.1886,-1.8155],[115.2726,-1.8209],[115.3,-1.8246]]]}}]}