{"type":"FeatureCollection","metadata":{"parent_osm_id":"gid_IDN_10_13_13_1","parent_name":"Patebon","parent_name_1":"JawaTengah","parent_gid":"IDN.10.13.13_1","parent_level":"6","child_level":"7","count":18,"source":"GADM 4.1","generated":"2026-05-09"},"features":[{"type":"Feature","properties":{"name":"Bangunrejo","name_en":"Bangunrejo","admin_level":"7","osm_id":""},"geometry":{"type":"Polygon","coordinates":[[[110.192,-6.9079],[110.1936,-6.9086],[110.1919,-6.9123],[110.1881,-6.9113],[110.1884,-6.9097],[110.1844,-6.9079],[110.1833,-6.9119],[110.182,-6.9114],[110.1807,-6.9067],[110.1785,-6.9053],[110.1808,-6.9023],[110.1848,-6.9037],[110.1865,-6.9008],[110.1902,-6.9022],[110.1897,-6.9042],[110.1939,-6.9055],[110.1909,-6.9076],[110.192,-6.9079]]]}},{"type":"Feature","properties":{"name":"Bangunsari","name_en":"Bangunsari","admin_level":"7","osm_id":""},"geometry":{"type":"Polygon","coordinates":[[[110.1969,-6.8656],[110.2008,-6.8684],[110.2008,-6.8753],[110.1979,-6.8762],[110.1914,-6.8862],[110.1872,-6.8799],[110.1863,-6.8732],[110.1957,-6.8686],[110.1926,-6.8655],[110.1969,-6.8656]]]}},{"type":"Feature","properties":{"name":"Bulugede","name_en":"Bulugede","admin_level":"7","osm_id":""},"geometry":{"type":"Polygon","coordinates":[[[110.1883,-6.9367],[110.1885,-6.9399],[110.1914,-6.9407],[110.1885,-6.9451],[110.1919,-6.9483],[110.1858,-6.9457],[110.1817,-6.9476],[110.1816,-6.954],[110.1813,-6.9555],[110.1799,-6.9578],[110.1807,-6.9564],[110.1793,-6.9555],[110.1687,-6.9533],[110.1728,-6.9478],[110.1761,-6.9491],[110.1778,-6.9455],[110.175,-6.9445],[110.1777,-6.9413],[110.1808,-6.9429],[110.182,-6.9383],[110.1883,-6.9367]]]}},{"type":"Feature","properties":{"name":"Donosari","name_en":"Donosari","admin_level":"7","osm_id":""},"geometry":{"type":"Polygon","coordinates":[[[110.17,-6.9513],[110.1669,-6.9558],[110.1629,-6.9547],[110.1618,-6.9524],[110.1573,-6.9505],[110.16,-6.9384],[110.1643,-6.9394],[110.164,-6.9462],[110.1687,-6.9472],[110.17,-6.9513]]]}},{"type":"Feature","properties":{"name":"Jambearum","name_en":"Jambearum","admin_level":"7","osm_id":""},"geometry":{"type":"Polygon","coordinates":[[[110.184,-6.9156],[110.1829,-6.9218],[110.1798,-6.9209],[110.1783,-6.923],[110.1801,-6.9242],[110.1785,-6.9304],[110.1757,-6.9309],[110.1748,-6.933],[110.1698,-6.9309],[110.1684,-6.9247],[110.1715,-6.9236],[110.1718,-6.9211],[110.1746,-6.9197],[110.1764,-6.9139],[110.184,-6.9156]]]}},{"type":"Feature","properties":{"name":"Kartikajaya","name_en":"Kartikajaya","admin_level":"7","osm_id":""},"geometry":{"type":"Polygon","coordinates":[[[110.2008,-6.8753],[110.2008,-6.8684],[110.1982,-6.8677],[110.1951,-6.8622],[110.1975,-6.8539],[110.2032,-6.8562],[110.2004,-6.8622],[110.2038,-6.864],[110.2056,-6.8644],[110.2042,-6.86],[110.2136,-6.859],[110.2178,-6.8666],[110.2159,-6.8684],[110.2204,-6.875],[110.2189,-6.8762],[110.2146,-6.8727],[110.2008,-6.8753]]]}},{"type":"Feature","properties":{"name":"Kebonharjo","name_en":"Kebonharjo","admin_level":"7","osm_id":""},"geometry":{"type":"Polygon","coordinates":[[[110.154,-6.9374],[110.1557,-6.9293],[110.1619,-6.9279],[110.1627,-6.9247],[110.1683,-6.9259],[110.1701,-6.9302],[110.168,-6.9345],[110.1656,-6.9348],[110.1643,-6.9394],[110.16,-6.9384],[110.1592,-6.9367],[110.154,-6.9374]]]}},{"type":"Feature","properties":{"name":"Kumpulrejo","name_en":"Kumpulrejo","admin_level":"7","osm_id":""},"geometry":{"type":"Polygon","coordinates":[[[110.1648,-6.9139],[110.1697,-6.9085],[110.1695,-6.9051],[110.1717,-6.9043],[110.1719,-6.8989],[110.1788,-6.9025],[110.1779,-6.9069],[110.1749,-6.9057],[110.1727,-6.909],[110.1723,-6.9114],[110.1764,-6.9139],[110.1741,-6.9187],[110.1706,-6.9154],[110.1648,-6.9139]]]}},{"type":"Feature","properties":{"name":"Lanji","name_en":"Lanji","admin_level":"7","osm_id":""},"geometry":{"type":"Polygon","coordinates":[[[110.1526,-6.9471],[110.154,-6.9374],[110.1598,-6.9371],[110.1573,-6.9505],[110.1618,-6.9524],[110.1614,-6.9537],[110.156,-6.9554],[110.1516,-6.9543],[110.1526,-6.9471]]]}},{"type":"Feature","properties":{"name":"Magersari","name_en":"Magersari","admin_level":"7","osm_id":""},"geometry":{"type":"Polygon","coordinates":[[[110.1695,-6.9051],[110.1683,-6.9004],[110.1719,-6.8989],[110.172,-6.9037],[110.1695,-6.9051]]]}},{"type":"Feature","properties":{"name":"Margosari","name_en":"Margosari","admin_level":"7","osm_id":""},"geometry":{"type":"Polygon","coordinates":[[[110.1783,-6.941],[110.175,-6.9445],[110.1778,-6.9455],[110.1761,-6.9491],[110.1728,-6.9478],[110.17,-6.9513],[110.1687,-6.9472],[110.164,-6.9462],[110.165,-6.9412],[110.1731,-6.9417],[110.1749,-6.937],[110.1795,-6.9379],[110.1783,-6.941]]]}},{"type":"Feature","properties":{"name":"PidodoKulon","name_en":"PidodoKulon","admin_level":"7","osm_id":""},"geometry":{"type":"Polygon","coordinates":[[[110.1724,-6.891],[110.1662,-6.8861],[110.1696,-6.8802],[110.1672,-6.8734],[110.1689,-6.8643],[110.1578,-6.85],[110.1713,-6.8446],[110.1753,-6.8474],[110.1857,-6.8503],[110.1847,-6.8527],[110.1862,-6.8535],[110.1838,-6.8525],[110.1856,-6.8562],[110.1816,-6.8571],[110.1842,-6.8597],[110.1815,-6.8636],[110.1825,-6.8676],[110.1755,-6.8754],[110.1749,-6.8785],[110.1768,-6.8839],[110.1748,-6.8855],[110.1751,-6.8889],[110.1724,-6.891]]]}},{"type":"Feature","properties":{"name":"PidodoWetan","name_en":"PidodoWetan","admin_level":"7","osm_id":""},"geometry":{"type":"Polygon","coordinates":[[[110.1767,-6.8968],[110.1724,-6.8906],[110.175,-6.889],[110.1748,-6.8855],[110.1768,-6.8839],[110.1749,-6.8785],[110.1755,-6.8754],[110.1825,-6.8676],[110.1815,-6.8636],[110.1842,-6.8597],[110.1816,-6.8571],[110.1856,-6.8562],[110.1837,-6.854],[110.1838,-6.8525],[110.1861,-6.8538],[110.1847,-6.8527],[110.1857,-6.8503],[110.1896,-6.8521],[110.19,-6.8505],[110.1977,-6.8511],[110.1978,-6.8562],[110.1952,-6.8589],[110.1969,-6.8656],[110.1926,-6.8655],[110.1957,-6.8686],[110.1863,-6.8732],[110.1872,-6.8799],[110.1914,-6.8862],[110.177,-6.8991],[110.1767,-6.8968]]]}},{"type":"Feature","properties":{"name":"Purwokerto","name_en":"Purwokerto","admin_level":"7","osm_id":""},"geometry":{"type":"Polygon","coordinates":[[[110.1829,-6.9218],[110.1856,-6.922],[110.1839,-6.93],[110.1865,-6.9308],[110.1861,-6.9354],[110.1807,-6.9347],[110.1798,-6.9304],[110.1787,-6.9304],[110.1801,-6.9242],[110.1783,-6.923],[110.1798,-6.9209],[110.1829,-6.9218]]]}},{"type":"Feature","properties":{"name":"Purwosari","name_en":"Purwosari","admin_level":"7","osm_id":""},"geometry":{"type":"Polygon","coordinates":[[[110.1626,-6.9247],[110.1613,-6.9225],[110.165,-6.9198],[110.1648,-6.9139],[110.172,-6.9161],[110.1745,-6.9193],[110.1687,-6.9257],[110.1626,-6.9247]]]}},{"type":"Feature","properties":{"name":"Sukolilan","name_en":"Sukolilan","admin_level":"7","osm_id":""},"geometry":{"type":"Polygon","coordinates":[[[110.1845,-6.9135],[110.1849,-6.9158],[110.1747,-6.9131],[110.1721,-6.9111],[110.1736,-6.9062],[110.1779,-6.9069],[110.1795,-6.9058],[110.1833,-6.9119],[110.1844,-6.9079],[110.1884,-6.9097],[110.1879,-6.9133],[110.1845,-6.9135]]]}},{"type":"Feature","properties":{"name":"Tambakrejo","name_en":"Tambakrejo","admin_level":"7","osm_id":""},"geometry":{"type":"Polygon","coordinates":[[[110.1861,-6.9354],[110.186,-6.9382],[110.1819,-6.9384],[110.1808,-6.9429],[110.1783,-6.941],[110.1797,-6.9382],[110.176,-6.9368],[110.1731,-6.9417],[110.1643,-6.9408],[110.1656,-6.9348],[110.168,-6.9345],[110.1698,-6.9309],[110.1748,-6.933],[110.1757,-6.9309],[110.1798,-6.9304],[110.1807,-6.9347],[110.1861,-6.9354]]]}},{"type":"Feature","properties":{"name":"Wonosari","name_en":"Wonosari","admin_level":"7","osm_id":""},"geometry":{"type":"Polygon","coordinates":[[[110.1765,-6.8999],[110.192,-6.8858],[110.1984,-6.8757],[110.2146,-6.8727],[110.2202,-6.8759],[110.2159,-6.8684],[110.2178,-6.8666],[110.2137,-6.8591],[110.2042,-6.86],[110.2056,-6.8644],[110.2038,-6.864],[110.2004,-6.8622],[110.2032,-6.8562],[110.2188,-6.8605],[110.2188,-6.8636],[110.2221,-6.8679],[110.2265,-6.8803],[110.2185,-6.8835],[110.2133,-6.8821],[110.2049,-6.8846],[110.1951,-6.8996],[110.1955,-6.9049],[110.1938,-6.9059],[110.1897,-6.9042],[110.1902,-6.9022],[110.1865,-6.9008],[110.1848,-6.9037],[110.1808,-6.9023],[110.1793,-6.9052],[110.1765,-6.8999]]]}}]}