{"type":"FeatureCollection","metadata":{"parent_osm_id":"gid_IDN_9_7_22_1","parent_name":"Naringgul","parent_name_1":"JawaBarat","parent_gid":"IDN.9.7.22_1","parent_level":"6","child_level":"7","count":10,"source":"GADM 4.1","generated":"2026-05-09"},"features":[{"type":"Feature","properties":{"name":"Balegede","name_en":"Balegede","admin_level":"7","osm_id":""},"geometry":{"type":"Polygon","coordinates":[[[107.3758,-7.2406],[107.3798,-7.2417],[107.3813,-7.2496],[107.3835,-7.2521],[107.385,-7.2753],[107.3637,-7.2753],[107.3636,-7.2778],[107.3558,-7.2794],[107.3453,-7.2879],[107.3398,-7.2848],[107.3302,-7.2831],[107.3252,-7.2796],[107.3123,-7.2796],[107.3147,-7.2734],[107.3132,-7.272],[107.3145,-7.2642],[107.3175,-7.2648],[107.323,-7.2596],[107.3276,-7.2582],[107.3288,-7.2526],[107.3311,-7.2541],[107.3341,-7.2498],[107.3473,-7.2443],[107.3533,-7.2373],[107.3568,-7.2356],[107.3691,-7.2401],[107.3758,-7.2406]]]}},{"type":"Feature","properties":{"name":"Cinerang","name_en":"Cinerang","admin_level":"7","osm_id":""},"geometry":{"type":"Polygon","coordinates":[[[107.2856,-7.4423],[107.2806,-7.4393],[107.2695,-7.4409],[107.2597,-7.4356],[107.2542,-7.4277],[107.2474,-7.4271],[107.2459,-7.4293],[107.2467,-7.4335],[107.2423,-7.4338],[107.2397,-7.4376],[107.2411,-7.443],[107.2403,-7.4462],[107.233,-7.4461],[107.2312,-7.4451],[107.2333,-7.4415],[107.229,-7.4337],[107.2284,-7.4249],[107.2258,-7.421],[107.2295,-7.4145],[107.2397,-7.4164],[107.2408,-7.4181],[107.2426,-7.4171],[107.241,-7.4141],[107.2383,-7.414],[107.2385,-7.4095],[107.236,-7.4053],[107.2427,-7.4074],[107.2494,-7.4007],[107.2516,-7.403],[107.2531,-7.3974],[107.2597,-7.3988],[107.2668,-7.3919],[107.271,-7.3933],[107.2867,-7.385],[107.2909,-7.3843],[107.2921,-7.3849],[107.2897,-7.3874],[107.2889,-7.3912],[107.291,-7.402],[107.2895,-7.406],[107.2917,-7.4047],[107.2936,-7.4064],[107.2927,-7.4084],[107.295,-7.4175],[107.2975,-7.4184],[107.2932,-7.4227],[107.2945,-7.4249],[107.2915,-7.428],[107.2916,-7.4333],[107.2881,-7.4352],[107.2865,-7.4391],[107.2887,-7.4413],[107.2856,-7.4423]]]}},{"type":"Feature","properties":{"name":"Malati","name_en":"Malati","admin_level":"7","osm_id":""},"geometry":{"type":"Polygon","coordinates":[[[107.295,-7.417],[107.2927,-7.4084],[107.2936,-7.4064],[107.2917,-7.4047],[107.2895,-7.4061],[107.291,-7.402],[107.2889,-7.3912],[107.2897,-7.3874],[107.2938,-7.385],[107.2957,-7.3802],[107.2984,-7.3806],[107.3038,-7.3769],[107.3022,-7.3618],[107.313,-7.3603],[107.3142,-7.3568],[107.3191,-7.3573],[107.3203,-7.3549],[107.3254,-7.3583],[107.3353,-7.352],[107.3428,-7.3527],[107.3419,-7.3596],[107.3389,-7.3636],[107.3393,-7.3656],[107.3361,-7.3683],[107.3347,-7.3735],[107.336,-7.3788],[107.334,-7.3941],[107.3251,-7.393],[107.3171,-7.394],[107.3036,-7.4057],[107.3,-7.4104],[107.2995,-7.4148],[107.295,-7.417]]]}},{"type":"Feature","properties":{"name":"Mekarsari","name_en":"Mekarsari","admin_level":"7","osm_id":""},"geometry":{"type":"Polygon","coordinates":[[[107.4078,-7.3107],[107.4049,-7.3175],[107.4055,-7.3216],[107.4015,-7.3269],[107.3994,-7.334],[107.3966,-7.336],[107.3989,-7.3375],[107.3995,-7.341],[107.3943,-7.3426],[107.391,-7.3457],[107.3892,-7.3506],[107.3908,-7.3533],[107.3821,-7.3645],[107.38,-7.3652],[107.3769,-7.3724],[107.3798,-7.3767],[107.3792,-7.3815],[107.3817,-7.3878],[107.3839,-7.3901],[107.3809,-7.3952],[107.382,-7.4018],[107.3798,-7.4073],[107.3726,-7.4117],[107.3732,-7.4163],[107.3762,-7.4197],[107.3739,-7.4224],[107.3788,-7.425],[107.3784,-7.4275],[107.3807,-7.4275],[107.3816,-7.4299],[107.3815,-7.4314],[107.3791,-7.4325],[107.3787,-7.4359],[107.3753,-7.4362],[107.378,-7.4385],[107.376,-7.4406],[107.3769,-7.4432],[107.3737,-7.4465],[107.3743,-7.4486],[107.3789,-7.4481],[107.3789,-7.4524],[107.3599,-7.4486],[107.3576,-7.447],[107.357,-7.4436],[107.3543,-7.4446],[107.3505,-7.4413],[107.3464,-7.4343],[107.3465,-7.4311],[107.3508,-7.4288],[107.352,-7.4265],[107.3509,-7.4225],[107.3525,-7.4195],[107.35,-7.4169],[107.3504,-7.4121],[107.3486,-7.4108],[107.3498,-7.4095],[107.3465,-7.408],[107.3493,-7.4045],[107.3509,-7.3987],[107.3497,-7.3928],[107.3603,-7.3795],[107.361,-7.3721],[107.365,-7.3678],[107.3586,-7.348],[107.3588,-7.3419],[107.3666,-7.3359],[107.3739,-7.3332],[107.378,-7.3239],[107.3826,-7.3193],[107.3853,-7.3185],[107.3864,-7.3137],[107.3918,-7.3072],[107.3907,-7.3059],[107.3939,-7.3034],[107.3961,-7.299],[107.3978,-7.2986],[107.4032,-7.285],[107.4098,-7.2805],[107.4155,-7.2793],[107.4148,-7.2851],[107.4097,-7.293],[107.4114,-7.2968],[107.4087,-7.3001],[107.41,-7.3043],[107.4078,-7.3107]]]}},{"type":"Feature","properties":{"name":"Naringgul","name_en":"Naringgul","admin_level":"7","osm_id":""},"geometry":{"type":"Polygon","coordinates":[[[107.3428,-7.3527],[107.3353,-7.352],[107.3254,-7.3583],[107.3203,-7.3549],[107.3191,-7.3573],[107.3142,-7.3568],[107.313,-7.3603],[107.3022,-7.3618],[107.3049,-7.3541],[107.3033,-7.3475],[107.3048,-7.3452],[107.3102,-7.3422],[107.3221,-7.3415],[107.3253,-7.3294],[107.329,-7.3241],[107.3318,-7.3233],[107.3365,-7.3146],[107.3522,-7.3194],[107.3559,-7.3266],[107.3483,-7.3386],[107.3428,-7.3527]]]}},{"type":"Feature","properties":{"name":"Sukabakti","name_en":"Sukabakti","admin_level":"7","osm_id":""},"geometry":{"type":"Polygon","coordinates":[[[107.3798,-7.2417],[107.3988,-7.2481],[107.4066,-7.2552],[107.4124,-7.256],[107.4101,-7.2607],[107.3987,-7.2612],[107.3939,-7.2636],[107.386,-7.2811],[107.3742,-7.2944],[107.3722,-7.2937],[107.3678,-7.298],[107.3685,-7.2991],[107.3662,-7.2986],[107.365,-7.3001],[107.3665,-7.3021],[107.3641,-7.305],[107.3651,-7.3063],[107.3608,-7.3075],[107.362,-7.3074],[107.3611,-7.3107],[107.3643,-7.3108],[107.3634,-7.3125],[107.3609,-7.3125],[107.3614,-7.3148],[107.3589,-7.3159],[107.3612,-7.3205],[107.3559,-7.3266],[107.3522,-7.3194],[107.3365,-7.3146],[107.338,-7.3033],[107.3416,-7.3009],[107.3451,-7.2882],[107.3504,-7.2825],[107.3562,-7.2792],[107.3636,-7.2778],[107.3644,-7.2751],[107.385,-7.2753],[107.384,-7.2545],[107.3813,-7.2496],[107.3798,-7.2417]]]}},{"type":"Feature","properties":{"name":"Sukamulya","name_en":"Sukamulya","admin_level":"7","osm_id":""},"geometry":{"type":"Polygon","coordinates":[[[107.2933,-7.3198],[107.297,-7.3149],[107.2962,-7.3094],[107.3002,-7.3014],[107.2992,-7.2969],[107.3061,-7.2917],[107.3079,-7.2852],[107.3116,-7.2911],[107.3132,-7.3032],[107.3068,-7.3162],[107.309,-7.3273],[107.3112,-7.33],[107.3111,-7.3387],[107.3102,-7.3422],[107.3033,-7.3475],[107.3049,-7.3541],[107.3015,-7.3637],[107.3037,-7.3682],[107.3038,-7.3769],[107.2984,-7.3806],[107.2957,-7.3802],[107.2938,-7.385],[107.2881,-7.3844],[107.271,-7.3933],[107.267,-7.3918],[107.264,-7.3938],[107.2624,-7.3973],[107.261,-7.3969],[107.2597,-7.3988],[107.2571,-7.398],[107.2584,-7.3917],[107.2567,-7.3866],[107.2608,-7.383],[107.2608,-7.38],[107.263,-7.3801],[107.2636,-7.3659],[107.2698,-7.3607],[107.2717,-7.3478],[107.2832,-7.3296],[107.2933,-7.3198]]]}},{"type":"Feature","properties":{"name":"Wanasari","name_en":"Wanasari","admin_level":"7","osm_id":""},"geometry":{"type":"Polygon","coordinates":[[[107.3079,-7.2852],[107.3112,-7.2833],[107.3123,-7.2796],[107.3217,-7.2793],[107.3273,-7.2802],[107.3302,-7.2831],[107.3398,-7.2848],[107.3453,-7.2879],[107.3431,-7.298],[107.3415,-7.2983],[107.3415,-7.3012],[107.338,-7.3033],[107.3366,-7.3144],[107.3318,-7.3233],[107.329,-7.3241],[107.3256,-7.3288],[107.3242,-7.337],[107.3204,-7.3422],[107.3102,-7.3422],[107.3112,-7.33],[107.309,-7.3273],[107.3068,-7.3162],[107.3132,-7.3032],[107.3116,-7.2911],[107.3079,-7.2852]]]}},{"type":"Feature","properties":{"name":"Wangunjaya","name_en":"Wangunjaya","admin_level":"7","osm_id":""},"geometry":{"type":"Polygon","coordinates":[[[107.352,-7.4422],[107.3436,-7.4411],[107.3288,-7.448],[107.2856,-7.4423],[107.2887,-7.4413],[107.2865,-7.4391],[107.2881,-7.4352],[107.2918,-7.4331],[107.2915,-7.428],[107.2945,-7.4249],[107.2932,-7.4227],[107.2972,-7.4197],[107.2974,-7.4182],[107.295,-7.417],[107.2995,-7.4148],[107.3,-7.4104],[107.3036,-7.4057],[107.3171,-7.394],[107.3251,-7.393],[107.334,-7.3941],[107.337,-7.4024],[107.3502,-7.4002],[107.3493,-7.4045],[107.3465,-7.408],[107.3498,-7.4095],[107.3486,-7.4108],[107.3504,-7.4121],[107.35,-7.4169],[107.3525,-7.4195],[107.3509,-7.4225],[107.352,-7.4265],[107.3508,-7.4288],[107.3465,-7.4311],[107.3464,-7.4343],[107.352,-7.4422]]]}},{"type":"Feature","properties":{"name":"Wangunsari","name_en":"Wangunsari","admin_level":"7","osm_id":""},"geometry":{"type":"Polygon","coordinates":[[[107.4101,-7.2607],[107.4103,-7.2684],[107.4155,-7.2793],[107.4098,-7.2805],[107.4032,-7.285],[107.3978,-7.2986],[107.3961,-7.299],[107.3939,-7.3034],[107.3907,-7.3059],[107.3918,-7.3072],[107.3864,-7.3137],[107.3853,-7.3185],[107.3826,-7.3193],[107.378,-7.3239],[107.3739,-7.3332],[107.3693,-7.3344],[107.3593,-7.341],[107.3579,-7.3451],[107.3649,-7.3681],[107.361,-7.3721],[107.3603,-7.3795],[107.3497,-7.3928],[107.3502,-7.4002],[107.337,-7.4024],[107.3339,-7.3925],[107.3356,-7.3851],[107.3357,-7.3695],[107.3393,-7.3656],[107.3389,-7.3636],[107.3419,-7.3596],[107.3428,-7.3527],[107.3483,-7.3386],[107.3526,-7.3331],[107.3546,-7.3274],[107.3612,-7.3205],[107.359,-7.3158],[107.3605,-7.3158],[107.3609,-7.3125],[107.3634,-7.3125],[107.3643,-7.3107],[107.3611,-7.3107],[107.362,-7.3074],[107.3609,-7.3074],[107.3651,-7.3063],[107.3641,-7.305],[107.3662,-7.3039],[107.3658,-7.2989],[107.3685,-7.2991],[107.3678,-7.298],[107.3722,-7.2937],[107.3742,-7.2944],[107.386,-7.2811],[107.3945,-7.2629],[107.3987,-7.2612],[107.4101,-7.2607]]]}}]}