{"type":"FeatureCollection","metadata":{"parent_osm_id":"gid_IDN_31_6_8_1","parent_name":"SangaDesa","parent_name_1":"SumateraSelatan","parent_gid":"IDN.31.6.8_1","parent_level":"6","child_level":"7","count":17,"source":"GADM 4.1","generated":"2026-05-08"},"features":[{"type":"Feature","properties":{"name":"AirBalui","name_en":"AirBalui","admin_level":"7","osm_id":""},"geometry":{"type":"Polygon","coordinates":[[[103.427,-2.8503],[103.4016,-2.8671],[103.3536,-2.8511],[103.3466,-2.8378],[103.3343,-2.8257],[103.3381,-2.8229],[103.2712,-2.753],[103.3032,-2.7347],[103.3131,-2.7407],[103.2938,-2.7553],[103.2952,-2.7656],[103.3165,-2.7774],[103.3385,-2.776],[103.3439,-2.7526],[103.3464,-2.7518],[103.3518,-2.7775],[103.3642,-2.7975],[103.4024,-2.8167],[103.4171,-2.8285],[103.4222,-2.8396],[103.4292,-2.8488],[103.427,-2.8503]]]}},{"type":"Feature","properties":{"name":"AirItam","name_en":"AirItam","admin_level":"7","osm_id":""},"geometry":{"type":"Polygon","coordinates":[[[103.5336,-2.7125],[103.5408,-2.7336],[103.5397,-2.7359],[103.4958,-2.7038],[103.4822,-2.6993],[103.4777,-2.6633],[103.5017,-2.6773],[103.5054,-2.6876],[103.5171,-2.7016],[103.5252,-2.709],[103.5336,-2.7125]]]}},{"type":"Feature","properties":{"name":"JudI","name_en":"JudI","admin_level":"7","osm_id":""},"geometry":{"type":"Polygon","coordinates":[[[103.3131,-2.7407],[103.3032,-2.7347],[103.309,-2.7312],[103.3275,-2.7103],[103.3658,-2.7369],[103.3907,-2.7591],[103.4233,-2.7846],[103.42,-2.7916],[103.4106,-2.7981],[103.4039,-2.7909],[103.3936,-2.7857],[103.3643,-2.7605],[103.3467,-2.7516],[103.3443,-2.7527],[103.3298,-2.7487],[103.3131,-2.7407]]]}},{"type":"Feature","properties":{"name":"JudIi","name_en":"JudIi","admin_level":"7","osm_id":""},"geometry":{"type":"Polygon","coordinates":[[[103.4697,-2.8178],[103.4509,-2.8343],[103.4479,-2.8301],[103.4479,-2.8264],[103.4376,-2.8182],[103.431,-2.8168],[103.4106,-2.7981],[103.42,-2.7916],[103.4233,-2.7846],[103.4428,-2.7953],[103.4634,-2.8094],[103.4697,-2.8178]]]}},{"type":"Feature","properties":{"name":"KebanI","name_en":"KebanI","admin_level":"7","osm_id":""},"geometry":{"type":"Polygon","coordinates":[[[103.5177,-2.6618],[103.5039,-2.6625],[103.4959,-2.6662],[103.4921,-2.672],[103.4777,-2.6633],[103.4775,-2.6359],[103.4805,-2.6174],[103.4811,-2.5883],[103.5065,-2.6009],[103.5194,-2.6017],[103.5245,-2.6049],[103.5346,-2.6143],[103.5438,-2.6286],[103.5329,-2.6337],[103.529,-2.6373],[103.5177,-2.6618]]]}},{"type":"Feature","properties":{"name":"KebanIi","name_en":"KebanIi","admin_level":"7","osm_id":""},"geometry":{"type":"Polygon","coordinates":[[[103.5177,-2.6625],[103.5204,-2.6837],[103.5336,-2.7125],[103.5252,-2.709],[103.5171,-2.7016],[103.5054,-2.6876],[103.5017,-2.6773],[103.4921,-2.672],[103.4959,-2.6662],[103.5039,-2.6625],[103.5177,-2.6625]]]}},{"type":"Feature","properties":{"name":"Kemang","name_en":"Kemang","admin_level":"7","osm_id":""},"geometry":{"type":"Polygon","coordinates":[[[103.5079,-2.7522],[103.501,-2.7568],[103.4936,-2.7659],[103.4789,-2.7518],[103.4415,-2.6617],[103.443,-2.6358],[103.4474,-2.6181],[103.4497,-2.6011],[103.4474,-2.578],[103.4632,-2.5687],[103.4811,-2.5883],[103.4805,-2.6174],[103.4775,-2.6359],[103.4775,-2.6617],[103.4862,-2.7245],[103.4936,-2.7408],[103.4987,-2.7467],[103.5079,-2.7522]]]}},{"type":"Feature","properties":{"name":"Nganti","name_en":"Nganti","admin_level":"7","osm_id":""},"geometry":{"type":"Polygon","coordinates":[[[103.4509,-2.8343],[103.4292,-2.8488],[103.4222,-2.8396],[103.4171,-2.8285],[103.4024,-2.8167],[103.3642,-2.7975],[103.3518,-2.7775],[103.3464,-2.7518],[103.3643,-2.7605],[103.3936,-2.7857],[103.4039,-2.7909],[103.4215,-2.8094],[103.431,-2.8168],[103.4376,-2.8182],[103.4479,-2.8264],[103.4479,-2.8301],[103.4509,-2.8343]]]}},{"type":"Feature","properties":{"name":"NgulakI","name_en":"NgulakI","admin_level":"7","osm_id":""},"geometry":{"type":"Polygon","coordinates":[[[103.4936,-2.7659],[103.4902,-2.777],[103.4894,-2.7852],[103.4172,-2.7488],[103.3873,-2.7187],[103.3864,-2.7118],[103.3879,-2.6985],[103.393,-2.6867],[103.4039,-2.6765],[103.4099,-2.6963],[103.4165,-2.7126],[103.4183,-2.7135],[103.4165,-2.7163],[103.4157,-2.7274],[103.4209,-2.7392],[103.4576,-2.754],[103.4781,-2.7585],[103.4851,-2.7578],[103.4936,-2.7659]]]}},{"type":"Feature","properties":{"name":"NgulakIi","name_en":"NgulakIi","admin_level":"7","osm_id":""},"geometry":{"type":"Polygon","coordinates":[[[103.4697,-2.7282],[103.4789,-2.7518],[103.4851,-2.7578],[103.4781,-2.7585],[103.4576,-2.754],[103.4209,-2.7392],[103.4157,-2.7274],[103.4165,-2.7163],[103.4183,-2.7135],[103.4488,-2.7281],[103.4697,-2.7282]]]}},{"type":"Feature","properties":{"name":"NgulakIii","name_en":"NgulakIii","admin_level":"7","osm_id":""},"geometry":{"type":"Polygon","coordinates":[[[103.4894,-2.7852],[103.489,-2.7954],[103.4866,-2.8013],[103.4627,-2.7865],[103.4282,-2.7717],[103.4183,-2.7646],[103.4183,-2.7493],[103.4894,-2.7852]]]}},{"type":"Feature","properties":{"name":"Ngunang","name_en":"Ngunang","admin_level":"7","osm_id":""},"geometry":{"type":"Polygon","coordinates":[[[103.4075,-2.7729],[103.3735,-2.7438],[103.3878,-2.7222],[103.3873,-2.7187],[103.4183,-2.7493],[103.4186,-2.7643],[103.4075,-2.7729]]]}},{"type":"Feature","properties":{"name":"Panai","name_en":"Panai","admin_level":"7","osm_id":""},"geometry":{"type":"Polygon","coordinates":[[[103.3439,-2.7526],[103.3385,-2.776],[103.3165,-2.7774],[103.2952,-2.7656],[103.2938,-2.7553],[103.3131,-2.7407],[103.3298,-2.7487],[103.3439,-2.7526]]]}},{"type":"Feature","properties":{"name":"Penggage","name_en":"Penggage","admin_level":"7","osm_id":""},"geometry":{"type":"Polygon","coordinates":[[[103.4866,-2.8013],[103.4697,-2.8178],[103.4634,-2.8094],[103.4428,-2.7953],[103.4186,-2.782],[103.4075,-2.7729],[103.4183,-2.7646],[103.4282,-2.7717],[103.4627,-2.7865],[103.4866,-2.8013]]]}},{"type":"Feature","properties":{"name":"TanjungRaya","name_en":"TanjungRaya","admin_level":"7","osm_id":""},"geometry":{"type":"Polygon","coordinates":[[[103.5397,-2.7359],[103.5381,-2.7394],[103.535,-2.7414],[103.5285,-2.7427],[103.5079,-2.7522],[103.4987,-2.7467],[103.4936,-2.7408],[103.4862,-2.7245],[103.4822,-2.6993],[103.4958,-2.7038],[103.5397,-2.7359]]]}},{"type":"Feature","properties":{"name":"Terusan","name_en":"Terusan","admin_level":"7","osm_id":""},"geometry":{"type":"Polygon","coordinates":[[[103.412,-2.5766],[103.4289,-2.5808],[103.434,-2.5859],[103.4474,-2.578],[103.4497,-2.6011],[103.4474,-2.6181],[103.443,-2.6358],[103.4415,-2.6617],[103.4697,-2.7282],[103.4488,-2.7281],[103.4165,-2.7126],[103.4099,-2.6963],[103.4039,-2.6765],[103.4099,-2.6675],[103.4158,-2.6528],[103.4173,-2.6299],[103.4166,-2.5996],[103.412,-2.5766]]]}},{"type":"Feature","properties":{"name":"UlakEmbacang","name_en":"UlakEmbacang","admin_level":"7","osm_id":""},"geometry":{"type":"Polygon","coordinates":[[[103.3481,-2.5544],[103.3915,-2.5545],[103.3969,-2.5702],[103.3993,-2.5726],[103.412,-2.5766],[103.4166,-2.5996],[103.4173,-2.6299],[103.4158,-2.6528],[103.4099,-2.6675],[103.404,-2.6764],[103.393,-2.6867],[103.3879,-2.6985],[103.3864,-2.7118],[103.3878,-2.7222],[103.3735,-2.7438],[103.3658,-2.7369],[103.3275,-2.7103],[103.3416,-2.6946],[103.3435,-2.6682],[103.3664,-2.6059],[103.3665,-2.5865],[103.3481,-2.5544]]]}}]}