{"type":"FeatureCollection","metadata":{"parent_osm_id":"gid_IDN_28_6_1_1","parent_name":"Batuputih","parent_name_1":"SulawesiTenggara","parent_gid":"IDN.28.6.1_1","parent_level":"6","child_level":"7","count":11,"source":"GADM 4.1","generated":"2026-05-08"},"features":[{"type":"Feature","properties":{"name":"BatuApi","name_en":"BatuApi","admin_level":"7","osm_id":""},"geometry":{"type":"Polygon","coordinates":[[[121.0958,-3.0774],[121.0976,-3.0773],[121.0971,-3.0793],[121.1022,-3.0837],[121.1037,-3.0875],[121.1039,-3.092],[121.0999,-3.0991],[121.0823,-3.0901],[121.0752,-3.0888],[121.0796,-3.085],[121.0817,-3.0788],[121.088,-3.0798],[121.0958,-3.0774]]]}},{"type":"Feature","properties":{"name":"BatuPutih","name_en":"BatuPutih","admin_level":"7","osm_id":""},"geometry":{"type":"Polygon","coordinates":[[[121.1025,-3.0842],[121.0975,-3.08],[121.0976,-3.0773],[121.0958,-3.0774],[121.095,-3.0681],[121.1042,-3.069],[121.1126,-3.0599],[121.1179,-3.061],[121.1195,-3.0675],[121.1195,-3.0778],[121.1158,-3.0788],[121.1129,-3.0823],[121.1025,-3.0842]]]}},{"type":"Feature","properties":{"name":"BukitBaru","name_en":"BukitBaru","admin_level":"7","osm_id":""},"geometry":{"type":"Polygon","coordinates":[[[121.0999,-3.0991],[121.1037,-3.092],[121.1216,-3.0927],[121.1577,-3.0985],[121.1756,-3.1034],[121.1965,-3.1116],[121.2212,-3.1254],[121.2388,-3.1276],[121.2697,-3.1277],[121.2849,-3.1341],[121.3445,-3.1451],[121.3678,-3.1441],[121.3969,-3.14],[121.4154,-3.1352],[121.4164,-3.1421],[121.4212,-3.1495],[121.4367,-3.1587],[121.442,-3.1684],[121.4369,-3.2029],[121.4269,-3.1998],[121.3877,-3.1985],[121.3736,-3.1945],[121.3599,-3.1942],[121.3369,-3.1908],[121.2708,-3.1715],[121.2481,-3.1583],[121.1912,-3.1373],[121.1633,-3.1207],[121.1444,-3.1118],[121.0999,-3.0991]]]}},{"type":"Feature","properties":{"name":"BukitTinggi","name_en":"BukitTinggi","admin_level":"7","osm_id":""},"geometry":{"type":"Polygon","coordinates":[[[121.1039,-3.092],[121.1025,-3.0842],[121.1129,-3.0823],[121.1158,-3.0788],[121.1221,-3.0773],[121.127,-3.0742],[121.1303,-3.0674],[121.1312,-3.0701],[121.136,-3.0727],[121.1596,-3.0821],[121.187,-3.0833],[121.2031,-3.0837],[121.2493,-3.0791],[121.2826,-3.0794],[121.3159,-3.0847],[121.3517,-3.0854],[121.3662,-3.0835],[121.3843,-3.0756],[121.3889,-3.0859],[121.3885,-3.0976],[121.3927,-3.1012],[121.4093,-3.1054],[121.412,-3.1097],[121.4118,-3.1194],[121.4154,-3.1352],[121.3969,-3.14],[121.3678,-3.1441],[121.3445,-3.1451],[121.2849,-3.1341],[121.2697,-3.1277],[121.2388,-3.1276],[121.2212,-3.1254],[121.1965,-3.1116],[121.1694,-3.1016],[121.1259,-3.0932],[121.1039,-3.092]]]}},{"type":"Feature","properties":{"name":"Latowu","name_en":"Latowu","admin_level":"7","osm_id":""},"geometry":{"type":"Polygon","coordinates":[[[121.0876,-3.0798],[121.0817,-3.0788],[121.0796,-3.085],[121.0752,-3.0888],[121.0576,-3.09],[121.056,-3.0764],[121.0594,-3.0694],[121.0584,-3.0643],[121.0703,-3.0637],[121.0888,-3.0665],[121.0876,-3.0798]]]}},{"type":"Feature","properties":{"name":"Lelewawo","name_en":"Lelewawo","admin_level":"7","osm_id":""},"geometry":{"type":"Polygon","coordinates":[[[121.0753,-2.9902],[121.1041,-2.9843],[121.1029,-2.9923],[121.1048,-3.0097],[121.1024,-3.0252],[121.104,-3.0315],[121.0863,-3.0302],[121.0751,-3.0277],[121.077,-3.0148],[121.0746,-3.0104],[121.0755,-3.0087],[121.079,-3.0081],[121.0862,-3.0149],[121.0887,-3.0151],[121.0859,-3.0092],[121.0908,-2.9969],[121.089,-2.9959],[121.087,-2.9983],[121.0808,-2.999],[121.0819,-2.9944],[121.0807,-2.9938],[121.0793,-2.998],[121.0729,-2.9984],[121.0733,-2.9964],[121.0774,-2.9948],[121.0774,-2.9933],[121.075,-2.9922],[121.0753,-2.9902]]]}},{"type":"Feature","properties":{"name":"Makkuaseng","name_en":"Makkuaseng","admin_level":"7","osm_id":""},"geometry":{"type":"Polygon","coordinates":[[[121.0958,-3.0774],[121.0878,-3.0798],[121.0888,-3.0665],[121.095,-3.068],[121.0958,-3.0774]]]}},{"type":"Feature","properties":{"name":"Mosiku","name_en":"Mosiku","admin_level":"7","osm_id":""},"geometry":{"type":"Polygon","coordinates":[[[121.076,-3.0281],[121.1169,-3.0328],[121.1184,-3.0377],[121.1148,-3.0409],[121.1096,-3.0508],[121.1105,-3.0515],[121.1009,-3.0502],[121.0749,-3.0529],[121.0632,-3.0526],[121.0526,-3.0566],[121.052,-3.059],[121.0442,-3.0494],[121.0437,-3.0339],[121.05,-3.0347],[121.0515,-3.0264],[121.0565,-3.0221],[121.0593,-3.0242],[121.0614,-3.0296],[121.0643,-3.0303],[121.0638,-3.037],[121.0679,-3.0342],[121.0679,-3.0327],[121.0739,-3.0317],[121.076,-3.0281]]]}},{"type":"Feature","properties":{"name":"ParuLampe","name_en":"ParuLampe","admin_level":"7","osm_id":""},"geometry":{"type":"Polygon","coordinates":[[[121.1126,-3.0599],[121.1042,-3.069],[121.095,-3.0681],[121.0961,-3.0574],[121.095,-3.0507],[121.1105,-3.0515],[121.1126,-3.0599]]]}},{"type":"Feature","properties":{"name":"PuncakHarapan","name_en":"PuncakHarapan","admin_level":"7","osm_id":""},"geometry":{"type":"Polygon","coordinates":[[[121.1195,-3.0778],[121.1195,-3.0675],[121.1179,-3.061],[121.1114,-3.0588],[121.11,-3.0519],[121.1199,-3.0496],[121.1284,-3.0507],[121.1315,-3.0521],[121.133,-3.0608],[121.13,-3.0636],[121.1291,-3.0716],[121.127,-3.0742],[121.1195,-3.0778]]]}},{"type":"Feature","properties":{"name":"Tetebawo","name_en":"Tetebawo","admin_level":"7","osm_id":""},"geometry":{"type":"Polygon","coordinates":[[[121.0888,-3.0665],[121.0703,-3.0637],[121.0584,-3.0643],[121.0575,-3.0597],[121.0543,-3.0569],[121.0632,-3.0526],[121.095,-3.0507],[121.0961,-3.0574],[121.095,-3.068],[121.0888,-3.0665]]]}}]}