{"type":"FeatureCollection","metadata":{"parent_osm_id":"5138850","parent_name":"Pantar","parent_name_1":"NusaTenggaraTimur","parent_gid":"IDN.21.1.14_1","parent_level":"6","child_level":"7","count":11,"source":"GADM 4.1","generated":"2026-05-09"},"features":[{"type":"Feature","properties":{"name":"BANA","name_en":"BANA","admin_level":"7","osm_id":""},"geometry":{"type":"Polygon","coordinates":[[[124.2676,-8.1851],[124.278,-8.1756],[124.2904,-8.1739],[124.2914,-8.1769],[124.2891,-8.1828],[124.2876,-8.196],[124.2833,-8.1961],[124.2783,-8.2026],[124.2739,-8.2023],[124.274,-8.195],[124.2676,-8.1851]]]}},{"type":"Feature","properties":{"name":"Bandar","name_en":"Bandar","admin_level":"7","osm_id":""},"geometry":{"type":"Polygon","coordinates":[[[124.2492,-8.2815],[124.2472,-8.2912],[124.2408,-8.3027],[124.1927,-8.3004],[124.1812,-8.2978],[124.1757,-8.3008],[124.1712,-8.2983],[124.1714,-8.2966],[124.1678,-8.2961],[124.1676,-8.2912],[124.1849,-8.2738],[124.1912,-8.2725],[124.1953,-8.2773],[124.1973,-8.2778],[124.2034,-8.273],[124.2259,-8.2796],[124.2492,-8.2815]]]}},{"type":"Feature","properties":{"name":"Baolang","name_en":"Baolang","admin_level":"7","osm_id":""},"geometry":{"type":"Polygon","coordinates":[[[124.1601,-8.3323],[124.1585,-8.3226],[124.1532,-8.3172],[124.1589,-8.3141],[124.1622,-8.3157],[124.1626,-8.3123],[124.1659,-8.3121],[124.1637,-8.3099],[124.164,-8.3067],[124.1678,-8.2961],[124.1714,-8.2966],[124.1712,-8.2983],[124.1757,-8.3008],[124.1812,-8.2978],[124.1927,-8.3004],[124.2408,-8.3027],[124.236,-8.3143],[124.2254,-8.314],[124.2221,-8.3155],[124.2199,-8.3219],[124.2081,-8.333],[124.1983,-8.3337],[124.1955,-8.3302],[124.1901,-8.3293],[124.1878,-8.3348],[124.1601,-8.3323]]]}},{"type":"Feature","properties":{"name":"Bouweli","name_en":"Bouweli","admin_level":"7","osm_id":""},"geometry":{"type":"Polygon","coordinates":[[[124.2694,-8.2824],[124.2492,-8.2815],[124.243,-8.2739],[124.2182,-8.2665],[124.2167,-8.2646],[124.2174,-8.2596],[124.2276,-8.259],[124.2398,-8.261],[124.2611,-8.251],[124.2648,-8.255],[124.2638,-8.2695],[124.2694,-8.2824]]]}},{"type":"Feature","properties":{"name":"Bukitmas","name_en":"Bukitmas","admin_level":"7","osm_id":""},"geometry":{"type":"Polygon","coordinates":[[[124.2665,-8.2437],[124.2611,-8.251],[124.2398,-8.261],[124.2265,-8.2594],[124.2249,-8.259],[124.2288,-8.2442],[124.231,-8.2413],[124.2272,-8.2395],[124.2228,-8.2397],[124.2199,-8.2363],[124.221,-8.2345],[124.2229,-8.2359],[124.2289,-8.2217],[124.2373,-8.2249],[124.2385,-8.2315],[124.2665,-8.2437]]]}},{"type":"Feature","properties":{"name":"Helandohi","name_en":"Helandohi","admin_level":"7","osm_id":""},"geometry":{"type":"Polygon","coordinates":[[[124.2952,-8.2212],[124.2908,-8.2309],[124.2782,-8.2281],[124.278,-8.2152],[124.2744,-8.2087],[124.2739,-8.2023],[124.2783,-8.2026],[124.2833,-8.1961],[124.2876,-8.196],[124.2895,-8.1999],[124.2879,-8.2168],[124.2952,-8.2212]]]}},{"type":"Feature","properties":{"name":"Kabir","name_en":"Kabir","admin_level":"7","osm_id":""},"geometry":{"type":"Polygon","coordinates":[[[124.2249,-8.259],[124.2224,-8.2599],[124.2183,-8.2586],[124.2167,-8.2633],[124.2113,-8.2617],[124.214,-8.257],[124.214,-8.2493],[124.2207,-8.2375],[124.2232,-8.2399],[124.2272,-8.2395],[124.231,-8.2413],[124.2288,-8.2442],[124.2249,-8.259]]]}},{"type":"Feature","properties":{"name":"Madar","name_en":"Madar","admin_level":"7","osm_id":""},"geometry":{"type":"Polygon","coordinates":[[[124.2492,-8.2815],[124.2259,-8.2796],[124.2034,-8.273],[124.2059,-8.267],[124.2113,-8.2617],[124.2167,-8.2633],[124.2182,-8.2665],[124.2228,-8.2685],[124.243,-8.2739],[124.2492,-8.2815]]]}},{"type":"Feature","properties":{"name":"Munaseli","name_en":"Munaseli","admin_level":"7","osm_id":""},"geometry":{"type":"Polygon","coordinates":[[[124.3293,-8.2108],[124.3257,-8.2121],[124.3074,-8.2121],[124.2952,-8.2212],[124.2884,-8.218],[124.2895,-8.1999],[124.2876,-8.1946],[124.2914,-8.1769],[124.2938,-8.175],[124.2945,-8.1763],[124.2971,-8.1751],[124.3061,-8.1755],[124.3195,-8.1802],[124.3249,-8.1889],[124.3248,-8.1931],[124.3289,-8.2026],[124.3293,-8.2108]]]}},{"type":"Feature","properties":{"name":"Pandai","name_en":"Pandai","admin_level":"7","osm_id":""},"geometry":{"type":"Polygon","coordinates":[[[124.2782,-8.2281],[124.2766,-8.232],[124.2682,-8.2327],[124.2616,-8.2227],[124.2536,-8.2041],[124.246,-8.1986],[124.2519,-8.1917],[124.2676,-8.1851],[124.274,-8.195],[124.2744,-8.2087],[124.278,-8.2152],[124.2782,-8.2281]]]}},{"type":"Feature","properties":{"name":"Wailawar","name_en":"Wailawar","admin_level":"7","osm_id":""},"geometry":{"type":"Polygon","coordinates":[[[124.2682,-8.2327],[124.2665,-8.2437],[124.2385,-8.2315],[124.2373,-8.2249],[124.2296,-8.2227],[124.2288,-8.2183],[124.2316,-8.2134],[124.2369,-8.2107],[124.2414,-8.2058],[124.246,-8.1986],[124.2536,-8.2041],[124.2616,-8.2227],[124.2682,-8.2327]]]}}]}