{"type":"FeatureCollection","metadata":{"parent_osm_id":"gid_IDN_28_7_14_1","parent_name":"Tinondo","parent_name_1":"SulawesiTenggara","parent_gid":"IDN.28.7.14_1","parent_level":"6","child_level":"7","count":8,"source":"GADM 4.1","generated":"2026-05-08"},"features":[{"type":"Feature","properties":{"name":"Ambapa","name_en":"Ambapa","admin_level":"7","osm_id":""},"geometry":{"type":"Polygon","coordinates":[[[121.7237,-3.9232],[121.717,-3.9157],[121.7101,-3.8997],[121.7147,-3.891],[121.7233,-3.8826],[121.7222,-3.8799],[121.7102,-3.8772],[121.7063,-3.8779],[121.7015,-3.8745],[121.6869,-3.8497],[121.6874,-3.8421],[121.6923,-3.8387],[121.7115,-3.8336],[121.7252,-3.8419],[121.7774,-3.86],[121.8088,-3.8737],[121.8093,-3.8838],[121.7875,-3.8836],[121.7866,-3.912],[121.7532,-3.9121],[121.7237,-3.9232]]]}},{"type":"Feature","properties":{"name":"Lamunde","name_en":"Lamunde","admin_level":"7","osm_id":""},"geometry":{"type":"Polygon","coordinates":[[[121.8043,-3.9856],[121.7941,-3.9848],[121.7939,-3.98],[121.8178,-3.9672],[121.8233,-3.9615],[121.8247,-3.9575],[121.8525,-3.955],[121.8493,-3.9638],[121.8433,-3.9637],[121.8341,-3.9695],[121.8339,-3.9717],[121.8302,-3.9738],[121.8261,-3.9842],[121.8182,-3.9858],[121.8043,-3.9856]]]}},{"type":"Feature","properties":{"name":"Solewatu","name_en":"Solewatu","admin_level":"7","osm_id":""},"geometry":{"type":"Polygon","coordinates":[[[121.7409,-3.9411],[121.7355,-3.9353],[121.7269,-3.9314],[121.7237,-3.9232],[121.7532,-3.9121],[121.7861,-3.9121],[121.7855,-3.931],[121.7789,-3.9527],[121.7718,-3.9463],[121.7686,-3.9456],[121.7455,-3.9491],[121.7456,-3.946],[121.7409,-3.9411]]]}},{"type":"Feature","properties":{"name":"Talata","name_en":"Talata","admin_level":"7","osm_id":""},"geometry":{"type":"Polygon","coordinates":[[[121.8525,-3.955],[121.8249,-3.9574],[121.8168,-3.96],[121.8088,-3.9485],[121.8404,-3.9288],[121.8816,-3.9326],[121.8676,-3.9419],[121.8599,-3.9427],[121.8565,-3.9454],[121.8525,-3.955]]]}},{"type":"Feature","properties":{"name":"Tawarombadaka","name_en":"Tawarombadaka","admin_level":"7","osm_id":""},"geometry":{"type":"Polygon","coordinates":[[[121.7861,-3.9121],[121.7875,-3.8836],[121.8093,-3.8838],[121.8302,-3.8869],[121.8349,-3.8895],[121.836,-3.8936],[121.8409,-3.9288],[121.7859,-3.9631],[121.7788,-3.9529],[121.7855,-3.931],[121.7861,-3.9121]]]}},{"type":"Feature","properties":{"name":"Tinondo","name_en":"Tinondo","admin_level":"7","osm_id":""},"geometry":{"type":"Polygon","coordinates":[[[121.8247,-3.9576],[121.8233,-3.9615],[121.8178,-3.9672],[121.794,-3.9799],[121.7861,-3.9631],[121.8088,-3.9485],[121.8168,-3.96],[121.8247,-3.9576]]]}},{"type":"Feature","properties":{"name":"Upt.Ameroro","name_en":"Upt.Ameroro","admin_level":"7","osm_id":""},"geometry":{"type":"Polygon","coordinates":[[[121.8093,-3.8838],[121.8088,-3.8737],[121.7774,-3.86],[121.7252,-3.8419],[121.7115,-3.8336],[121.7586,-3.8308],[121.7668,-3.8195],[121.7499,-3.8002],[121.7511,-3.7921],[121.749,-3.7853],[121.7496,-3.781],[121.7562,-3.7755],[121.757,-3.771],[121.7531,-3.7614],[121.7604,-3.7578],[121.7611,-3.7539],[121.7651,-3.7557],[121.7701,-3.7514],[121.7712,-3.7496],[121.7701,-3.7445],[121.7746,-3.7408],[121.7749,-3.7386],[121.7849,-3.734],[121.7912,-3.7268],[121.7944,-3.7265],[121.798,-3.7266],[121.7994,-3.7306],[121.8079,-3.7299],[121.8117,-3.7342],[121.8157,-3.7339],[121.8196,-3.7314],[121.8251,-3.7351],[121.8323,-3.733],[121.8391,-3.7373],[121.8421,-3.7416],[121.8506,-3.7458],[121.8521,-3.7487],[121.8539,-3.7472],[121.8573,-3.7494],[121.8645,-3.7565],[121.8554,-3.7747],[121.8554,-3.7836],[121.8634,-3.7931],[121.8675,-3.7948],[121.8699,-3.7978],[121.8735,-3.7979],[121.8833,-3.8073],[121.8875,-3.8084],[121.8913,-3.8118],[121.8936,-3.8112],[121.8947,-3.8138],[121.9027,-3.8172],[121.9081,-3.823],[121.9185,-3.8267],[121.9257,-3.8313],[121.9306,-3.8318],[121.9358,-3.8431],[121.9495,-3.8595],[121.9625,-3.8798],[121.9301,-3.8982],[121.8816,-3.9326],[121.8409,-3.9288],[121.8349,-3.8895],[121.8302,-3.8869],[121.8093,-3.8838]]]}},{"type":"Feature","properties":{"name":"Weamo","name_en":"Weamo","admin_level":"7","osm_id":""},"geometry":{"type":"Polygon","coordinates":[[[121.7941,-3.9848],[121.7831,-3.9874],[121.7633,-3.9838],[121.7598,-3.9844],[121.7598,-3.9789],[121.7546,-3.9582],[121.7481,-3.9552],[121.7455,-3.9491],[121.7686,-3.9456],[121.7718,-3.9463],[121.7814,-3.9553],[121.788,-3.9662],[121.7929,-3.9757],[121.7941,-3.9848]]]}}]}