{"type":"FeatureCollection","metadata":{"parent_osm_id":"gid_IDN_23_28_44_1","parent_name":"Ubahak","parent_name_1":"Papua","parent_gid":"IDN.23.28.44_1","parent_level":"6","child_level":"7","count":17,"source":"GADM 4.1","generated":"2026-05-09"},"features":[{"type":"Feature","properties":{"name":"Bisifak","name_en":"Bisifak","admin_level":"7","osm_id":""},"geometry":{"type":"Polygon","coordinates":[[[139.497,-4.2255],[139.5233,-4.2257],[139.5462,-4.2398],[139.5637,-4.2433],[139.5643,-4.2505],[139.5584,-4.248],[139.5564,-4.2442],[139.5513,-4.2427],[139.5399,-4.2445],[139.5361,-4.2389],[139.5325,-4.2373],[139.53,-4.2386],[139.5131,-4.2328],[139.4963,-4.2328],[139.4942,-4.2316],[139.4954,-4.2315],[139.497,-4.2255]]]}},{"type":"Feature","properties":{"name":"Furuluk","name_en":"Furuluk","admin_level":"7","osm_id":""},"geometry":{"type":"Polygon","coordinates":[[[139.5659,-4.27],[139.5675,-4.2781],[139.562,-4.2802],[139.5559,-4.2784],[139.539,-4.2786],[139.5325,-4.2748],[139.5258,-4.2639],[139.5166,-4.2632],[139.5043,-4.2543],[139.4923,-4.2508],[139.4915,-4.2453],[139.4865,-4.2397],[139.4918,-4.2413],[139.5026,-4.24],[139.518,-4.2445],[139.5207,-4.2494],[139.5316,-4.248],[139.5358,-4.2507],[139.5421,-4.2516],[139.545,-4.2549],[139.5499,-4.2675],[139.5559,-4.2701],[139.5659,-4.27]]]}},{"type":"Feature","properties":{"name":"Keleng","name_en":"Keleng","admin_level":"7","osm_id":""},"geometry":{"type":"Polygon","coordinates":[[[139.4481,-4.3226],[139.4395,-4.3145],[139.4453,-4.2958],[139.4424,-4.283],[139.4544,-4.2796],[139.4564,-4.2774],[139.4601,-4.2494],[139.462,-4.2464],[139.4656,-4.2462],[139.4668,-4.2654],[139.4657,-4.2717],[139.4545,-4.2963],[139.4519,-4.3184],[139.4481,-4.3226]]]}},{"type":"Feature","properties":{"name":"Kibianggen","name_en":"Kibianggen","admin_level":"7","osm_id":""},"geometry":{"type":"Polygon","coordinates":[[[139.5675,-4.2781],[139.5778,-4.2995],[139.5778,-4.314],[139.571,-4.3134],[139.5598,-4.3046],[139.5521,-4.3011],[139.5322,-4.3022],[139.5206,-4.299],[139.5117,-4.2895],[139.5046,-4.2869],[139.4985,-4.2803],[139.4953,-4.2602],[139.4919,-4.2518],[139.4923,-4.2508],[139.5043,-4.2543],[139.5166,-4.2632],[139.5258,-4.2639],[139.5325,-4.2748],[139.539,-4.2786],[139.5559,-4.2784],[139.562,-4.2802],[139.5675,-4.2781]]]}},{"type":"Feature","properties":{"name":"Koluong","name_en":"Koluong","admin_level":"7","osm_id":""},"geometry":{"type":"Polygon","coordinates":[[[139.4808,-4.2248],[139.4838,-4.2257],[139.497,-4.2255],[139.4954,-4.2315],[139.4818,-4.2334],[139.4785,-4.2284],[139.4808,-4.2248]]]}},{"type":"Feature","properties":{"name":"Mabien","name_en":"Mabien","admin_level":"7","osm_id":""},"geometry":{"type":"Polygon","coordinates":[[[139.4865,-4.2397],[139.492,-4.2466],[139.4858,-4.2471],[139.482,-4.2422],[139.4784,-4.242],[139.4709,-4.2427],[139.4656,-4.2462],[139.462,-4.2464],[139.4606,-4.2411],[139.4708,-4.2396],[139.4721,-4.2377],[139.4789,-4.2358],[139.4818,-4.2334],[139.4865,-4.2397]]]}},{"type":"Feature","properties":{"name":"Nurap","name_en":"Nurap","admin_level":"7","osm_id":""},"geometry":{"type":"Polygon","coordinates":[[[139.4666,-4.3263],[139.4496,-4.3241],[139.4481,-4.3226],[139.4519,-4.3184],[139.4545,-4.2963],[139.4657,-4.2717],[139.4668,-4.2654],[139.4656,-4.2462],[139.4708,-4.2427],[139.4738,-4.2652],[139.4644,-4.2951],[139.4639,-4.3065],[139.4666,-4.3263]]]}},{"type":"Feature","properties":{"name":"Oblin","name_en":"Oblin","admin_level":"7","osm_id":""},"geometry":{"type":"Polygon","coordinates":[[[139.4942,-4.2316],[139.4963,-4.2328],[139.5189,-4.2342],[139.5209,-4.2353],[139.5202,-4.2413],[139.5172,-4.2444],[139.4997,-4.2395],[139.4972,-4.2413],[139.4918,-4.2413],[139.4865,-4.2397],[139.4818,-4.2334],[139.4942,-4.2316]]]}},{"type":"Feature","properties":{"name":"Pini","name_en":"Pini","admin_level":"7","osm_id":""},"geometry":{"type":"Polygon","coordinates":[[[139.462,-4.2464],[139.4595,-4.2518],[139.4564,-4.2774],[139.4544,-4.2796],[139.4424,-4.283],[139.4379,-4.2644],[139.4435,-4.2626],[139.4463,-4.2599],[139.4475,-4.256],[139.4583,-4.2447],[139.4613,-4.2442],[139.462,-4.2464]]]}},{"type":"Feature","properties":{"name":"Saruk","name_en":"Saruk","admin_level":"7","osm_id":""},"geometry":{"type":"Polygon","coordinates":[[[139.4608,-4.2423],[139.4613,-4.2442],[139.4558,-4.247],[139.4475,-4.256],[139.4463,-4.2599],[139.4435,-4.2626],[139.4379,-4.2644],[139.4314,-4.2417],[139.4451,-4.2395],[139.4608,-4.2423]]]}},{"type":"Feature","properties":{"name":"Silong","name_en":"Silong","admin_level":"7","osm_id":""},"geometry":{"type":"Polygon","coordinates":[[[139.4623,-4.2224],[139.4689,-4.2213],[139.4808,-4.2248],[139.4774,-4.2293],[139.4709,-4.2295],[139.4648,-4.2336],[139.4609,-4.2341],[139.4606,-4.231],[139.463,-4.2279],[139.4623,-4.2224]]]}},{"type":"Feature","properties":{"name":"Sosomikma","name_en":"Sosomikma","admin_level":"7","osm_id":""},"geometry":{"type":"Polygon","coordinates":[[[139.4547,-4.2259],[139.4584,-4.2231],[139.4623,-4.2224],[139.463,-4.2279],[139.4606,-4.231],[139.462,-4.237],[139.4604,-4.2394],[139.4568,-4.238],[139.4501,-4.2293],[139.4547,-4.2259]]]}},{"type":"Feature","properties":{"name":"Suhuntek","name_en":"Suhuntek","admin_level":"7","osm_id":""},"geometry":{"type":"Polygon","coordinates":[[[139.4785,-4.2284],[139.4818,-4.2334],[139.4789,-4.2358],[139.4721,-4.2377],[139.4708,-4.2396],[139.4606,-4.2411],[139.462,-4.237],[139.4609,-4.2341],[139.4648,-4.2336],[139.4709,-4.2295],[139.4785,-4.2284]]]}},{"type":"Feature","properties":{"name":"Tolomping","name_en":"Tolomping","admin_level":"7","osm_id":""},"geometry":{"type":"Polygon","coordinates":[[[139.5643,-4.2505],[139.5659,-4.27],[139.5559,-4.2701],[139.5499,-4.2675],[139.545,-4.2549],[139.5421,-4.2516],[139.5358,-4.2507],[139.5316,-4.248],[139.5207,-4.2494],[139.5172,-4.2444],[139.5202,-4.2413],[139.5209,-4.2353],[139.53,-4.2386],[139.5325,-4.2373],[139.5361,-4.2389],[139.5399,-4.2445],[139.5513,-4.2427],[139.5564,-4.2442],[139.5584,-4.248],[139.5643,-4.2505]]]}},{"type":"Feature","properties":{"name":"Ubahak","name_en":"Ubahak","admin_level":"7","osm_id":""},"geometry":{"type":"Polygon","coordinates":[[[139.4352,-4.2312],[139.4501,-4.2293],[139.4568,-4.238],[139.4604,-4.2394],[139.4608,-4.2423],[139.4451,-4.2395],[139.4314,-4.2417],[139.4272,-4.2322],[139.4352,-4.2312]]]}},{"type":"Feature","properties":{"name":"Wamuhuk","name_en":"Wamuhuk","admin_level":"7","osm_id":""},"geometry":{"type":"Polygon","coordinates":[[[139.4907,-4.3267],[139.4666,-4.3263],[139.4639,-4.3065],[139.4644,-4.2951],[139.4738,-4.2652],[139.4709,-4.2427],[139.4767,-4.2421],[139.4816,-4.2507],[139.4818,-4.2556],[139.4869,-4.2659],[139.491,-4.296],[139.4907,-4.3267]]]}},{"type":"Feature","properties":{"name":"Welile","name_en":"Welile","admin_level":"7","osm_id":""},"geometry":{"type":"Polygon","coordinates":[[[139.5778,-4.314],[139.5804,-4.3478],[139.5584,-4.3486],[139.5303,-4.3399],[139.5172,-4.3293],[139.4907,-4.3267],[139.491,-4.296],[139.4869,-4.2659],[139.4818,-4.2556],[139.4816,-4.2507],[139.4767,-4.2421],[139.482,-4.2422],[139.4858,-4.2471],[139.492,-4.2466],[139.493,-4.2491],[139.4919,-4.2518],[139.4953,-4.2602],[139.4985,-4.2803],[139.5046,-4.2869],[139.5117,-4.2895],[139.5206,-4.299],[139.5322,-4.3022],[139.5521,-4.3011],[139.5598,-4.3046],[139.571,-4.3134],[139.5778,-4.314]]]}}]}