{"type":"FeatureCollection","metadata":{"parent_osm_id":"20447262","parent_name":"Gianyar","parent_name_1":"Bali","parent_gid":"IDN.2.5.2_1","parent_level":"6","child_level":"7","count":17,"source":"GADM 4.1","generated":"2026-05-09"},"features":[{"type":"Feature","properties":{"name":"Abianbase","name_en":"Abianbase","admin_level":"7","osm_id":""},"geometry":{"type":"Polygon","coordinates":[[[115.3253,-8.5643],[115.3258,-8.5596],[115.3202,-8.5492],[115.3257,-8.5488],[115.3256,-8.5473],[115.3273,-8.5471],[115.327,-8.5442],[115.3283,-8.5472],[115.3332,-8.544],[115.3339,-8.5526],[115.3315,-8.5532],[115.3328,-8.5587],[115.3308,-8.5664],[115.3329,-8.5705],[115.3295,-8.5712],[115.3252,-8.5687],[115.3253,-8.5643]]]}},{"type":"Feature","properties":{"name":"Bakbakan","name_en":"Bakbakan","admin_level":"7","osm_id":""},"geometry":{"type":"Polygon","coordinates":[[[115.3251,-8.4898],[115.3242,-8.4907],[115.3265,-8.4925],[115.329,-8.5002],[115.3296,-8.5077],[115.3324,-8.5095],[115.3298,-8.5104],[115.3291,-8.513],[115.332,-8.5155],[115.3308,-8.5174],[115.3322,-8.522],[115.3303,-8.5243],[115.3239,-8.5241],[115.3222,-8.5264],[115.3214,-8.5165],[115.3152,-8.5178],[115.315,-8.515],[115.3176,-8.5054],[115.3166,-8.5041],[115.3189,-8.4889],[115.3251,-8.4898]]]}},{"type":"Feature","properties":{"name":"Beng","name_en":"Beng","admin_level":"7","osm_id":""},"geometry":{"type":"Polygon","coordinates":[[[115.3221,-8.5263],[115.3244,-8.5239],[115.3303,-8.5243],[115.3344,-8.5297],[115.3328,-8.5368],[115.3207,-8.5354],[115.3224,-8.5313],[115.3221,-8.5263]]]}},{"type":"Feature","properties":{"name":"Bitera","name_en":"Bitera","admin_level":"7","osm_id":""},"geometry":{"type":"Polygon","coordinates":[[[115.3118,-8.5393],[115.3068,-8.5271],[115.3071,-8.5234],[115.313,-8.5224],[115.3152,-8.5178],[115.3208,-8.5161],[115.3221,-8.5188],[115.3224,-8.5313],[115.3158,-8.5423],[115.32,-8.548],[115.3222,-8.5548],[115.3179,-8.552],[115.3182,-8.5507],[115.3144,-8.5497],[115.3118,-8.5393]]]}},{"type":"Feature","properties":{"name":"Gianyar","name_en":"Gianyar","admin_level":"7","osm_id":""},"geometry":{"type":"Polygon","coordinates":[[[115.3332,-8.544],[115.3283,-8.5472],[115.327,-8.5442],[115.3273,-8.5471],[115.3256,-8.5473],[115.3257,-8.5488],[115.3202,-8.5492],[115.3159,-8.5416],[115.3207,-8.5354],[115.3309,-8.5359],[115.3334,-8.5382],[115.3332,-8.544]]]}},{"type":"Feature","properties":{"name":"Lebih","name_en":"Lebih","admin_level":"7","osm_id":""},"geometry":{"type":"Polygon","coordinates":[[[115.3517,-8.5853],[115.3464,-8.577],[115.3447,-8.5696],[115.3405,-8.5677],[115.3381,-8.5641],[115.3379,-8.5627],[115.3402,-8.5631],[115.3393,-8.559],[115.3481,-8.5635],[115.3533,-8.5749],[115.3617,-8.5777],[115.3517,-8.5853]]]}},{"type":"Feature","properties":{"name":"Petak","name_en":"Petak","admin_level":"7","osm_id":""},"geometry":{"type":"Polygon","coordinates":[[[115.3265,-8.4671],[115.3249,-8.469],[115.3277,-8.4773],[115.3269,-8.4873],[115.3251,-8.4898],[115.3189,-8.4889],[115.3135,-8.4759],[115.3123,-8.4761],[115.3139,-8.4659],[115.3265,-8.4671]]]}},{"type":"Feature","properties":{"name":"PetakKaja","name_en":"PetakKaja","admin_level":"7","osm_id":""},"geometry":{"type":"Polygon","coordinates":[[[115.3245,-8.4534],[115.3233,-8.456],[115.325,-8.4573],[115.3266,-8.4671],[115.3139,-8.4659],[115.3162,-8.4551],[115.3139,-8.4532],[115.3145,-8.4499],[115.317,-8.4478],[115.3159,-8.4427],[115.3182,-8.4394],[115.3209,-8.4407],[115.3206,-8.4447],[115.3239,-8.4495],[115.3245,-8.4534]]]}},{"type":"Feature","properties":{"name":"Samplangan","name_en":"Samplangan","admin_level":"7","osm_id":""},"geometry":{"type":"Polygon","coordinates":[[[115.3347,-8.5184],[115.3345,-8.5214],[115.3405,-8.5241],[115.3428,-8.5294],[115.3465,-8.53],[115.3448,-8.5362],[115.3458,-8.5422],[115.3444,-8.5481],[115.3425,-8.5497],[115.3377,-8.5478],[115.3367,-8.5438],[115.3329,-8.54],[115.333,-8.5319],[115.3344,-8.5297],[115.3302,-8.5251],[115.3322,-8.522],[115.3308,-8.5168],[115.332,-8.5158],[115.3347,-8.5184]]]}},{"type":"Feature","properties":{"name":"Serongga","name_en":"Serongga","admin_level":"7","osm_id":""},"geometry":{"type":"Polygon","coordinates":[[[115.3493,-8.582],[115.3457,-8.5847],[115.3438,-8.5814],[115.3405,-8.5795],[115.3373,-8.5723],[115.3378,-8.5695],[115.3329,-8.5705],[115.3309,-8.5667],[115.3328,-8.5587],[115.3315,-8.5532],[115.3351,-8.5537],[115.3381,-8.5641],[115.3405,-8.5677],[115.3447,-8.5696],[115.346,-8.576],[115.3493,-8.582]]]}},{"type":"Feature","properties":{"name":"Siangan","name_en":"Siangan","admin_level":"7","osm_id":""},"geometry":{"type":"Polygon","coordinates":[[[115.3189,-8.4889],[115.3152,-8.52],[115.3129,-8.5224],[115.3071,-8.5234],[115.3082,-8.52],[115.3036,-8.5141],[115.303,-8.509],[115.3081,-8.5015],[115.3067,-8.4988],[115.3078,-8.4936],[115.3097,-8.4938],[115.3106,-8.4891],[115.3189,-8.4889]]]}},{"type":"Feature","properties":{"name":"Sidan","name_en":"Sidan","admin_level":"7","osm_id":""},"geometry":{"type":"Polygon","coordinates":[[[115.3387,-8.5232],[115.3448,-8.5249],[115.3576,-8.5209],[115.3578,-8.5234],[115.3605,-8.5246],[115.3615,-8.533],[115.3552,-8.5329],[115.3534,-8.5338],[115.3531,-8.5387],[115.3488,-8.5391],[115.3449,-8.5369],[115.3464,-8.5298],[115.3427,-8.5293],[115.3406,-8.5242],[115.3387,-8.5232]]]}},{"type":"Feature","properties":{"name":"Sumita","name_en":"Sumita","admin_level":"7","osm_id":""},"geometry":{"type":"Polygon","coordinates":[[[115.3139,-8.4532],[115.3162,-8.4551],[115.312,-8.4815],[115.307,-8.4831],[115.3026,-8.4695],[115.3111,-8.46],[115.3105,-8.4586],[115.3126,-8.4566],[115.311,-8.4553],[115.3139,-8.4532]]]}},{"type":"Feature","properties":{"name":"Suwat","name_en":"Suwat","admin_level":"7","osm_id":""},"geometry":{"type":"Polygon","coordinates":[[[115.3123,-8.4761],[115.3135,-8.4759],[115.3189,-8.4889],[115.3106,-8.4891],[115.3097,-8.4938],[115.3085,-8.4938],[115.3087,-8.4846],[115.307,-8.4831],[115.312,-8.4815],[115.3123,-8.4761]]]}},{"type":"Feature","properties":{"name":"TegalTugu","name_en":"TegalTugu","admin_level":"7","osm_id":""},"geometry":{"type":"Polygon","coordinates":[[[115.3339,-8.5526],[115.3326,-8.5418],[115.3337,-8.5411],[115.3394,-8.5491],[115.3458,-8.5485],[115.3472,-8.5546],[115.3461,-8.5576],[115.3488,-8.5597],[115.3481,-8.5633],[115.3407,-8.559],[115.3391,-8.5592],[115.3402,-8.5631],[115.3382,-8.5627],[115.3339,-8.5526]]]}},{"type":"Feature","properties":{"name":"Temesi","name_en":"Temesi","admin_level":"7","osm_id":""},"geometry":{"type":"Polygon","coordinates":[[[115.359,-8.5765],[115.3533,-8.5749],[115.348,-8.5634],[115.3488,-8.5597],[115.3461,-8.5576],[115.3468,-8.5526],[115.3459,-8.5487],[115.3438,-8.547],[115.3458,-8.5421],[115.3457,-8.5371],[115.3488,-8.5391],[115.3531,-8.5387],[115.3544,-8.5421],[115.3543,-8.5445],[115.3514,-8.5471],[115.3512,-8.5506],[115.3568,-8.5593],[115.3569,-8.5665],[115.3587,-8.5712],[115.3577,-8.5751],[115.359,-8.5765]]]}},{"type":"Feature","properties":{"name":"Tulikup","name_en":"Tulikup","admin_level":"7","osm_id":""},"geometry":{"type":"Polygon","coordinates":[[[115.3617,-8.5777],[115.3578,-8.5752],[115.3587,-8.5712],[115.3569,-8.5665],[115.3568,-8.5593],[115.3512,-8.5506],[115.3514,-8.5471],[115.3543,-8.5444],[115.3523,-8.5368],[115.3534,-8.5338],[115.356,-8.5326],[115.3631,-8.5347],[115.3636,-8.545],[115.3612,-8.5484],[115.3637,-8.5498],[115.3648,-8.5575],[115.3666,-8.5597],[115.3651,-8.5618],[115.3683,-8.5618],[115.3677,-8.5639],[115.3693,-8.5635],[115.3695,-8.5667],[115.371,-8.5669],[115.371,-8.575],[115.3617,-8.5777]]]}}]}