{"type":"FeatureCollection","metadata":{"parent_osm_id":"gid_IDN_11_10_10_1","parent_name":"Kras","parent_name_1":"JawaTimur","parent_gid":"IDN.11.10.10_1","parent_level":"6","child_level":"7","count":16,"source":"GADM 4.1","generated":"2026-05-07"},"features":[{"type":"Feature","properties":{"name":"Banjaranyar","name_en":"Banjaranyar","admin_level":"7","osm_id":""},"geometry":{"type":"Polygon","coordinates":[[[111.9643,-7.9418],[111.9655,-7.9395],[111.9672,-7.9403],[111.9699,-7.9354],[111.9716,-7.9359],[111.9708,-7.9379],[111.9772,-7.9417],[111.992,-7.9444],[111.9866,-7.9463],[111.9851,-7.9498],[111.9866,-7.9504],[111.9837,-7.9569],[111.9759,-7.9556],[111.9622,-7.9492],[111.9659,-7.9426],[111.9643,-7.9418]]]}},{"type":"Feature","properties":{"name":"Bendosari","name_en":"Bendosari","admin_level":"7","osm_id":""},"geometry":{"type":"Polygon","coordinates":[[[112.0116,-7.9685],[112.0007,-7.968],[111.9948,-7.9695],[111.9801,-7.9664],[111.9827,-7.96],[111.9978,-7.9613],[111.9995,-7.95],[112.0103,-7.9596],[112.0116,-7.9685]]]}},{"type":"Feature","properties":{"name":"Bleber","name_en":"Bleber","admin_level":"7","osm_id":""},"geometry":{"type":"Polygon","coordinates":[[[111.9659,-7.9819],[111.9663,-7.9805],[111.9749,-7.985],[111.9749,-7.9877],[111.9869,-7.9912],[111.9865,-7.9949],[111.9733,-7.9934],[111.9715,-7.9902],[111.9654,-7.9864],[111.9659,-7.9819]]]}},{"type":"Feature","properties":{"name":"Butuh","name_en":"Butuh","admin_level":"7","osm_id":""},"geometry":{"type":"Polygon","coordinates":[[[111.9932,-7.9693],[112.0116,-7.9685],[112.0137,-7.9754],[112.0026,-7.9804],[111.9934,-7.9802],[111.9918,-7.9797],[111.9932,-7.9693]]]}},{"type":"Feature","properties":{"name":"Jabang","name_en":"Jabang","admin_level":"7","osm_id":""},"geometry":{"type":"Polygon","coordinates":[[[111.9801,-7.9664],[111.9932,-7.9693],[111.9926,-7.984],[111.9857,-7.9813],[111.9855,-7.9794],[111.9791,-7.9777],[111.9815,-7.9744],[111.9784,-7.9721],[111.9801,-7.9664]]]}},{"type":"Feature","properties":{"name":"Jambean","name_en":"Jambean","admin_level":"7","osm_id":""},"geometry":{"type":"Polygon","coordinates":[[[111.9699,-7.9354],[111.9672,-7.9403],[111.9655,-7.9395],[111.9643,-7.9418],[111.9554,-7.9388],[111.9545,-7.9327],[111.9605,-7.9247],[111.9611,-7.9207],[111.9701,-7.9252],[111.9728,-7.9198],[111.9778,-7.9212],[111.9699,-7.9354]]]}},{"type":"Feature","properties":{"name":"Kanigoro","name_en":"Kanigoro","admin_level":"7","osm_id":""},"geometry":{"type":"Polygon","coordinates":[[[111.9837,-7.9569],[111.9866,-7.9504],[111.9851,-7.9498],[111.9866,-7.9463],[111.9931,-7.9444],[111.9995,-7.95],[111.9978,-7.9613],[111.9827,-7.96],[111.9837,-7.9569]]]}},{"type":"Feature","properties":{"name":"Karangtalun","name_en":"Karangtalun","admin_level":"7","osm_id":""},"geometry":{"type":"Polygon","coordinates":[[[111.9816,-7.9627],[111.9784,-7.9721],[111.9815,-7.9744],[111.9787,-7.978],[111.9736,-7.9773],[111.9676,-7.9732],[111.9601,-7.972],[111.9595,-7.9734],[111.9545,-7.971],[111.9543,-7.9688],[111.9519,-7.9678],[111.9593,-7.9545],[111.9603,-7.9591],[111.9612,-7.9583],[111.9632,-7.9618],[111.9624,-7.9638],[111.9673,-7.9647],[111.968,-7.9605],[111.9816,-7.9627]]]}},{"type":"Feature","properties":{"name":"Krandang","name_en":"Krandang","admin_level":"7","osm_id":""},"geometry":{"type":"Polygon","coordinates":[[[111.9932,-7.9283],[112.0054,-7.9333],[112.007,-7.9364],[112.013,-7.9366],[112.0105,-7.9463],[112.0067,-7.9493],[112.005,-7.9544],[111.9938,-7.9447],[111.98,-7.9412],[111.99,-7.9366],[111.9932,-7.9283]]]}},{"type":"Feature","properties":{"name":"Kras","name_en":"Kras","admin_level":"7","osm_id":""},"geometry":{"type":"Polygon","coordinates":[[[111.9622,-7.9492],[111.9759,-7.9556],[111.9837,-7.9569],[111.9816,-7.9627],[111.968,-7.9605],[111.9673,-7.9647],[111.9624,-7.9638],[111.9632,-7.9618],[111.9612,-7.9583],[111.9603,-7.9591],[111.9593,-7.9545],[111.9622,-7.9492]]]}},{"type":"Feature","properties":{"name":"Mojosari","name_en":"Mojosari","admin_level":"7","osm_id":""},"geometry":{"type":"Polygon","coordinates":[[[111.9869,-7.9912],[111.9749,-7.9877],[111.9749,-7.985],[111.9663,-7.9805],[111.9659,-7.9819],[111.9648,-7.9815],[111.9646,-7.9796],[111.9665,-7.9795],[111.9655,-7.9729],[111.9736,-7.9773],[111.9862,-7.9798],[111.9857,-7.9813],[111.9881,-7.9825],[111.9869,-7.9912]]]}},{"type":"Feature","properties":{"name":"Nyawangan","name_en":"Nyawangan","admin_level":"7","osm_id":""},"geometry":{"type":"Polygon","coordinates":[[[111.9566,-7.9594],[111.9519,-7.9678],[111.9535,-7.9685],[111.9528,-7.9701],[111.9511,-7.9692],[111.9487,-7.9737],[111.947,-7.9667],[111.9439,-7.9645],[111.9465,-7.9616],[111.9452,-7.9536],[111.9438,-7.9534],[111.9469,-7.9465],[111.9498,-7.9475],[111.9491,-7.9522],[111.9515,-7.9528],[111.9507,-7.9559],[111.9566,-7.9594]]]}},{"type":"Feature","properties":{"name":"Pelas","name_en":"Pelas","admin_level":"7","osm_id":""},"geometry":{"type":"Polygon","coordinates":[[[111.9774,-8.0089],[111.9761,-8.0121],[111.9695,-8.0072],[111.9676,-7.9984],[111.9684,-7.989],[111.9715,-7.9902],[111.9733,-7.9934],[111.9865,-7.9949],[111.9861,-7.9978],[111.9775,-7.9963],[111.9764,-8.0028],[111.979,-8.0046],[111.9774,-8.0089]]]}},{"type":"Feature","properties":{"name":"Purwodadi","name_en":"Purwodadi","admin_level":"7","osm_id":""},"geometry":{"type":"Polygon","coordinates":[[[111.9643,-7.9418],[111.9658,-7.9427],[111.9566,-7.9594],[111.9507,-7.9559],[111.9515,-7.9528],[111.9491,-7.9522],[111.9498,-7.9475],[111.9474,-7.9459],[111.9541,-7.9423],[111.9554,-7.9388],[111.9643,-7.9418]]]}},{"type":"Feature","properties":{"name":"Rejomulyo","name_en":"Rejomulyo","admin_level":"7","osm_id":""},"geometry":{"type":"Polygon","coordinates":[[[111.9659,-7.9819],[111.9653,-7.9852],[111.9521,-7.9819],[111.9504,-7.9748],[111.9487,-7.9737],[111.9511,-7.9692],[111.9528,-7.9701],[111.9543,-7.9688],[111.9545,-7.971],[111.9595,-7.9734],[111.9601,-7.972],[111.9652,-7.9732],[111.9665,-7.9795],[111.9643,-7.9805],[111.9659,-7.9819]]]}},{"type":"Feature","properties":{"name":"Setonorejo","name_en":"Setonorejo","admin_level":"7","osm_id":""},"geometry":{"type":"Polygon","coordinates":[[[111.9695,-8.0072],[111.9636,-8.0058],[111.9615,-7.9987],[111.9571,-7.9975],[111.9565,-7.9902],[111.9555,-7.9909],[111.9558,-7.9891],[111.9537,-7.9881],[111.9531,-7.9823],[111.9653,-7.9852],[111.9684,-7.989],[111.9676,-7.9984],[111.9695,-8.0072]]]}}]}