{"type":"FeatureCollection","metadata":{"parent_osm_id":"gid_IDN_24_4_11_1","parent_name":"RengatBarat","parent_name_1":"Riau","parent_gid":"IDN.24.4.11_1","parent_level":"6","child_level":"7","count":18,"source":"GADM 4.1","generated":"2026-05-09"},"features":[{"type":"Feature","properties":{"name":"AirJernih","name_en":"AirJernih","admin_level":"7","osm_id":""},"geometry":{"type":"Polygon","coordinates":[[[102.397,-0.3476],[102.4029,-0.3433],[102.4055,-0.344],[102.4073,-0.3418],[102.4142,-0.3413],[102.4151,-0.3531],[102.4176,-0.3526],[102.4208,-0.3655],[102.4209,-0.3791],[102.3978,-0.3789],[102.3978,-0.3645],[102.394,-0.3567],[102.397,-0.3476]]]}},{"type":"Feature","properties":{"name":"AlangKepayang","name_en":"AlangKepayang","admin_level":"7","osm_id":""},"geometry":{"type":"Polygon","coordinates":[[[102.3463,-0.267],[102.3394,-0.1991],[102.3391,-0.1777],[102.3681,-0.1788],[102.3776,-0.1775],[102.3822,-0.3382],[102.3891,-0.3481],[102.3928,-0.3482],[102.3897,-0.3512],[102.3699,-0.3511],[102.3628,-0.3447],[102.3521,-0.3056],[102.3463,-0.267]]]}},{"type":"Feature","properties":{"name":"Barangan","name_en":"Barangan","admin_level":"7","osm_id":""},"geometry":{"type":"Polygon","coordinates":[[[102.3606,-0.365],[102.3544,-0.3622],[102.3552,-0.3596],[102.354,-0.3589],[102.3581,-0.3528],[102.3572,-0.3495],[102.3537,-0.3465],[102.3543,-0.3445],[102.3633,-0.3448],[102.3699,-0.3511],[102.3696,-0.3768],[102.3663,-0.3687],[102.3606,-0.365]]]}},{"type":"Feature","properties":{"name":"BukitPetaling","name_en":"BukitPetaling","admin_level":"7","osm_id":""},"geometry":{"type":"Polygon","coordinates":[[[102.3596,-0.4268],[102.3694,-0.4265],[102.3737,-0.4221],[102.3816,-0.4198],[102.3805,-0.4236],[102.3828,-0.4264],[102.3845,-0.4243],[102.3888,-0.4241],[102.3962,-0.4185],[102.3965,-0.435],[102.4052,-0.4348],[102.4054,-0.4471],[102.3804,-0.4471],[102.3663,-0.4379],[102.3597,-0.438],[102.3596,-0.4268]]]}},{"type":"Feature","properties":{"name":"DanauBaru","name_en":"DanauBaru","admin_level":"7","osm_id":""},"geometry":{"type":"Polygon","coordinates":[[[102.4142,-0.3413],[102.4073,-0.3418],[102.4055,-0.344],[102.4029,-0.3433],[102.397,-0.3476],[102.3891,-0.3481],[102.3822,-0.3382],[102.3783,-0.2196],[102.3776,-0.1775],[102.3837,-0.1766],[102.4103,-0.1641],[102.4109,-0.3295],[102.4171,-0.3349],[102.4173,-0.3382],[102.4142,-0.3413]]]}},{"type":"Feature","properties":{"name":"DanauTiga","name_en":"DanauTiga","admin_level":"7","osm_id":""},"geometry":{"type":"Polygon","coordinates":[[[102.396,-0.4735],[102.4045,-0.4729],[102.4061,-0.474],[102.4061,-0.4727],[102.4077,-0.4727],[102.4094,-0.474],[102.4099,-0.4777],[102.4155,-0.4786],[102.4278,-0.4843],[102.4261,-0.4914],[102.4178,-0.493],[102.4086,-0.4922],[102.4041,-0.4895],[102.396,-0.4735]]]}},{"type":"Feature","properties":{"name":"KotaLama","name_en":"KotaLama","admin_level":"7","osm_id":""},"geometry":{"type":"Polygon","coordinates":[[[102.3714,-0.3798],[102.3696,-0.3768],[102.3699,-0.3511],[102.3897,-0.3512],[102.3912,-0.3491],[102.3967,-0.3469],[102.394,-0.3567],[102.3978,-0.3645],[102.3978,-0.3789],[102.4029,-0.379],[102.403,-0.3873],[102.3776,-0.3857],[102.3757,-0.3791],[102.3714,-0.3798]]]}},{"type":"Feature","properties":{"name":"PekanHeran","name_en":"PekanHeran","admin_level":"7","osm_id":""},"geometry":{"type":"Polygon","coordinates":[[[102.4208,-0.3655],[102.4176,-0.3526],[102.4151,-0.3531],[102.4151,-0.3512],[102.4229,-0.3501],[102.4272,-0.3529],[102.4286,-0.349],[102.4359,-0.3497],[102.4515,-0.322],[102.458,-0.322],[102.457,-0.3662],[102.4208,-0.3655]]]}},{"type":"Feature","properties":{"name":"PematangJaya","name_en":"PematangJaya","admin_level":"7","osm_id":""},"geometry":{"type":"Polygon","coordinates":[[[102.3472,-0.404],[102.3489,-0.3981],[102.3683,-0.3858],[102.371,-0.3829],[102.3714,-0.3798],[102.3757,-0.3791],[102.3776,-0.3857],[102.403,-0.3873],[102.4035,-0.3897],[102.406,-0.3897],[102.3895,-0.4007],[102.3886,-0.403],[102.3918,-0.4069],[102.392,-0.4167],[102.3951,-0.4188],[102.3888,-0.4241],[102.3845,-0.4243],[102.3828,-0.4264],[102.3805,-0.4236],[102.3816,-0.4198],[102.3737,-0.4221],[102.3683,-0.4268],[102.344,-0.4267],[102.3472,-0.404]]]}},{"type":"Feature","properties":{"name":"PematangReba","name_en":"PematangReba","admin_level":"7","osm_id":""},"geometry":{"type":"Polygon","coordinates":[[[102.4209,-0.3791],[102.4208,-0.3655],[102.4589,-0.3662],[102.4722,-0.3726],[102.4737,-0.3796],[102.4847,-0.3903],[102.4932,-0.39],[102.4936,-0.4111],[102.4377,-0.4103],[102.4376,-0.3969],[102.4355,-0.3972],[102.4348,-0.393],[102.4373,-0.3919],[102.4357,-0.3849],[102.4249,-0.3846],[102.4211,-0.3832],[102.4209,-0.3791]]]}},{"type":"Feature","properties":{"name":"RantauBakung","name_en":"RantauBakung","admin_level":"7","osm_id":""},"geometry":{"type":"Polygon","coordinates":[[[102.457,-0.3662],[102.458,-0.3051],[102.4488,-0.2793],[102.4488,-0.1805],[102.4713,-0.2347],[102.4769,-0.3209],[102.4765,-0.3389],[102.468,-0.3498],[102.4684,-0.3708],[102.457,-0.3662]]]}},{"type":"Feature","properties":{"name":"Redang","name_en":"Redang","admin_level":"7","osm_id":""},"geometry":{"type":"Polygon","coordinates":[[[102.4151,-0.3512],[102.4142,-0.3413],[102.4173,-0.3382],[102.4171,-0.3349],[102.4109,-0.3295],[102.4103,-0.1641],[102.4318,-0.1481],[102.4488,-0.1805],[102.4488,-0.2793],[102.458,-0.3051],[102.458,-0.322],[102.4515,-0.322],[102.4359,-0.3497],[102.4286,-0.349],[102.4272,-0.3529],[102.4229,-0.3501],[102.4151,-0.3512]]]}},{"type":"Feature","properties":{"name":"SialangDuaDahan","name_en":"SialangDuaDahan","admin_level":"7","osm_id":""},"geometry":{"type":"Polygon","coordinates":[[[102.4932,-0.39],[102.4847,-0.3903],[102.4737,-0.3796],[102.4722,-0.3726],[102.4684,-0.3708],[102.468,-0.3498],[102.476,-0.3404],[102.4773,-0.3332],[102.4713,-0.2347],[102.4803,-0.2544],[102.4884,-0.2778],[102.4914,-0.3024],[102.4894,-0.3402],[102.4899,-0.3425],[102.4935,-0.3421],[102.4949,-0.3448],[102.496,-0.3543],[102.4964,-0.3805],[102.4929,-0.3862],[102.4932,-0.39]]]}},{"type":"Feature","properties":{"name":"SungaiBaung","name_en":"SungaiBaung","admin_level":"7","osm_id":""},"geometry":{"type":"Polygon","coordinates":[[[102.4052,-0.4348],[102.3965,-0.435],[102.3962,-0.4185],[102.3932,-0.4187],[102.392,-0.4167],[102.3918,-0.4069],[102.3886,-0.4024],[102.4066,-0.3897],[102.4089,-0.3932],[102.4087,-0.4005],[102.3993,-0.402],[102.4025,-0.408],[102.4015,-0.4136],[102.4145,-0.4264],[102.4217,-0.4264],[102.4217,-0.4208],[102.4299,-0.4208],[102.43,-0.4343],[102.4052,-0.4348]]]}},{"type":"Feature","properties":{"name":"SungaiDawu","name_en":"SungaiDawu","admin_level":"7","osm_id":""},"geometry":{"type":"Polygon","coordinates":[[[102.4029,-0.379],[102.4209,-0.3791],[102.4211,-0.3832],[102.4249,-0.3846],[102.4357,-0.3849],[102.4373,-0.3919],[102.4348,-0.393],[102.4355,-0.3972],[102.4376,-0.3969],[102.4378,-0.4096],[102.4229,-0.4096],[102.4201,-0.4049],[102.4172,-0.4047],[102.4157,-0.4018],[102.4137,-0.403],[102.4087,-0.4008],[102.4089,-0.3932],[102.4066,-0.3897],[102.4035,-0.3897],[102.4029,-0.379]]]}},{"type":"Feature","properties":{"name":"TalangJerinjing","name_en":"TalangJerinjing","admin_level":"7","osm_id":""},"geometry":{"type":"Polygon","coordinates":[[[102.4376,-0.4208],[102.4377,-0.4103],[102.4936,-0.4111],[102.5122,-0.4489],[102.5098,-0.5151],[102.5025,-0.5155],[102.4776,-0.5105],[102.4561,-0.5031],[102.451,-0.4997],[102.4351,-0.4832],[102.4308,-0.4822],[102.4308,-0.4774],[102.4383,-0.4714],[102.4455,-0.4517],[102.4457,-0.4457],[102.4378,-0.4437],[102.4376,-0.4208]]]}},{"type":"Feature","properties":{"name":"TanahDatar","name_en":"TanahDatar","admin_level":"7","osm_id":""},"geometry":{"type":"Polygon","coordinates":[[[102.4054,-0.4471],[102.4052,-0.4348],[102.43,-0.4343],[102.4299,-0.4208],[102.4376,-0.4208],[102.4378,-0.4437],[102.4457,-0.4457],[102.4455,-0.4517],[102.4383,-0.4714],[102.4308,-0.4774],[102.4308,-0.4822],[102.4278,-0.4843],[102.4155,-0.4786],[102.4099,-0.4777],[102.4084,-0.473],[102.396,-0.4735],[102.3934,-0.4704],[102.4056,-0.4529],[102.4054,-0.4471]]]}},{"type":"Feature","properties":{"name":"TaniMakmur","name_en":"TaniMakmur","admin_level":"7","osm_id":""},"geometry":{"type":"Polygon","coordinates":[[[102.3439,-0.4377],[102.344,-0.4267],[102.3596,-0.4268],[102.3597,-0.438],[102.3663,-0.4379],[102.3804,-0.4471],[102.4054,-0.4471],[102.4056,-0.4529],[102.3934,-0.4704],[102.3728,-0.4562],[102.3448,-0.4508],[102.3439,-0.4377]]]}}]}