{"type":"FeatureCollection","metadata":{"parent_osm_id":"gid_IDN_29_15_1_1","parent_name":"TomohonBarat","parent_name_1":"SulawesiUtara","parent_gid":"IDN.29.15.1_1","parent_level":"6","child_level":"7","count":8,"source":"GADM 4.1","generated":"2026-05-09"},"features":[{"type":"Feature","properties":{"name":"Taratara","name_en":"Taratara","admin_level":"7","osm_id":""},"geometry":{"type":"Polygon","coordinates":[[[124.7708,1.2901],[124.7662,1.2885],[124.7673,1.3003],[124.7633,1.3169],[124.764,1.3251],[124.7692,1.3236],[124.776,1.3265],[124.78,1.3226],[124.7759,1.3173],[124.7833,1.3105],[124.7857,1.3144],[124.7924,1.3192],[124.7944,1.309],[124.7912,1.3022],[124.7804,1.2975],[124.7708,1.2901]]]}},{"type":"Feature","properties":{"name":"TarataraDua","name_en":"TarataraDua","admin_level":"7","osm_id":""},"geometry":{"type":"Polygon","coordinates":[[[124.7738,1.3589],[124.7749,1.3523],[124.7795,1.3512],[124.7847,1.3403],[124.7726,1.3304],[124.7712,1.3244],[124.7668,1.3238],[124.7607,1.3255],[124.744,1.333],[124.7551,1.3443],[124.7738,1.3589]]]}},{"type":"Feature","properties":{"name":"TarataraSatu","name_en":"TarataraSatu","admin_level":"7","osm_id":""},"geometry":{"type":"Polygon","coordinates":[[[124.7441,1.2875],[124.7403,1.3136],[124.744,1.333],[124.764,1.3251],[124.7633,1.3169],[124.7673,1.3003],[124.7662,1.2885],[124.7571,1.2789],[124.7501,1.2816],[124.7441,1.2875]]]}},{"type":"Feature","properties":{"name":"TarataraTiga","name_en":"TarataraTiga","admin_level":"7","osm_id":""},"geometry":{"type":"Polygon","coordinates":[[[124.7712,1.3244],[124.7726,1.3304],[124.7847,1.3403],[124.792,1.3191],[124.7857,1.3144],[124.7833,1.3105],[124.7759,1.3173],[124.78,1.3226],[124.776,1.3265],[124.7712,1.3244]]]}},{"type":"Feature","properties":{"name":"WoloanDua","name_en":"WoloanDua","admin_level":"7","osm_id":""},"geometry":{"type":"Polygon","coordinates":[[[124.7931,1.3154],[124.7924,1.3192],[124.7971,1.3238],[124.8069,1.3255],[124.8068,1.3197],[124.8119,1.3199],[124.8129,1.313],[124.8044,1.3121],[124.8004,1.3089],[124.8008,1.3187],[124.7931,1.3154]]]}},{"type":"Feature","properties":{"name":"WoloanSatu","name_en":"WoloanSatu","admin_level":"7","osm_id":""},"geometry":{"type":"Polygon","coordinates":[[[124.8129,1.313],[124.812,1.3188],[124.8183,1.3196],[124.8217,1.3216],[124.8228,1.3174],[124.8258,1.3173],[124.8261,1.3129],[124.8129,1.313]]]}},{"type":"Feature","properties":{"name":"WoloanSatuUtara","name_en":"WoloanSatuUtara","admin_level":"7","osm_id":""},"geometry":{"type":"Polygon","coordinates":[[[124.812,1.3188],[124.8119,1.3199],[124.8068,1.3197],[124.8069,1.3255],[124.8124,1.3253],[124.8186,1.3305],[124.8217,1.3216],[124.8183,1.3196],[124.812,1.3188]]]}},{"type":"Feature","properties":{"name":"WoloanTiga","name_en":"WoloanTiga","admin_level":"7","osm_id":""},"geometry":{"type":"Polygon","coordinates":[[[124.7912,1.3022],[124.7944,1.309],[124.7931,1.3154],[124.8008,1.3187],[124.8004,1.3089],[124.7912,1.3022]]]}}]}