{"type":"FeatureCollection","metadata":{"parent_osm_id":"gid_IDN_13_13_5_1","parent_name":"CandiLarasUtara","parent_name_1":"KalimantanSelatan","parent_gid":"IDN.13.13.5_1","parent_level":"6","child_level":"7","count":13,"source":"GADM 4.1","generated":"2026-05-09"},"features":[{"type":"Feature","properties":{"name":"Batalas","name_en":"Batalas","admin_level":"7","osm_id":""},"geometry":{"type":"Polygon","coordinates":[[[114.8227,-2.8318],[114.8116,-2.8069],[114.8096,-2.7959],[114.8957,-2.8078],[114.9155,-2.82],[114.89,-2.8549],[114.8247,-2.8363],[114.8227,-2.8318]]]}},{"type":"Feature","properties":{"name":"BuasBuas","name_en":"BuasBuas","admin_level":"7","osm_id":""},"geometry":{"type":"Polygon","coordinates":[[[114.8205,-2.6779],[114.8303,-2.6395],[114.8969,-2.7047],[114.9115,-2.7151],[114.9483,-2.7324],[114.9536,-2.7365],[114.9572,-2.7412],[114.9601,-2.7513],[114.9653,-2.7614],[114.9722,-2.7694],[114.9905,-2.7823],[114.9739,-2.7895],[114.9382,-2.7644],[114.9332,-2.7632],[114.9285,-2.7557],[114.8153,-2.6986],[114.8205,-2.6779]]]}},{"type":"Feature","properties":{"name":"BuasBuasHilir","name_en":"BuasBuasHilir","admin_level":"7","osm_id":""},"geometry":{"type":"Polygon","coordinates":[[[114.8044,-2.7417],[114.8153,-2.6986],[114.9285,-2.7557],[114.9332,-2.7632],[114.9382,-2.7644],[114.9739,-2.7895],[114.9615,-2.7978],[114.9228,-2.774],[114.8044,-2.7417]]]}},{"type":"Feature","properties":{"name":"Kaladan","name_en":"Kaladan","admin_level":"7","osm_id":""},"geometry":{"type":"Polygon","coordinates":[[[114.8134,-2.9322],[114.8202,-2.9187],[114.8642,-2.9995],[114.8274,-3.0148],[114.8241,-3.0111],[114.8148,-3.0071],[114.8151,-2.99],[114.8072,-2.9778],[114.8086,-2.9745],[114.8044,-2.9683],[114.8023,-2.9434],[114.8026,-2.9406],[114.8111,-2.9326],[114.8134,-2.9322]]]}},{"type":"Feature","properties":{"name":"MargasariIlir","name_en":"MargasariIlir","admin_level":"7","osm_id":""},"geometry":{"type":"Polygon","coordinates":[[[114.935,-2.8795],[114.935,-2.8812],[114.9307,-2.8837],[114.9253,-2.9367],[114.9055,-2.931],[114.913,-2.9161],[114.9104,-2.9115],[114.9035,-2.9071],[114.8983,-2.8984],[114.8998,-2.8914],[114.9046,-2.8823],[114.9098,-2.877],[114.9159,-2.8763],[114.9176,-2.8719],[114.935,-2.8795]]]}},{"type":"Feature","properties":{"name":"Pariok","name_en":"Pariok","admin_level":"7","osm_id":""},"geometry":{"type":"Polygon","coordinates":[[[114.89,-2.8549],[114.8882,-2.8591],[114.9176,-2.8719],[114.9159,-2.8763],[114.9098,-2.877],[114.9046,-2.8823],[114.8983,-2.8964],[114.8991,-2.9016],[114.9035,-2.9071],[114.9104,-2.9115],[114.913,-2.9161],[114.9029,-2.9358],[114.8619,-2.8469],[114.89,-2.8549]]]}},{"type":"Feature","properties":{"name":"Rawana","name_en":"Rawana","admin_level":"7","osm_id":""},"geometry":{"type":"Polygon","coordinates":[[[114.9229,-2.7741],[114.95,-2.7901],[114.9456,-2.7937],[114.938,-2.7964],[114.9329,-2.8037],[114.9246,-2.8102],[114.9069,-2.7895],[114.9229,-2.7741]]]}},{"type":"Feature","properties":{"name":"RawanaHulu","name_en":"RawanaHulu","admin_level":"7","osm_id":""},"geometry":{"type":"Polygon","coordinates":[[[114.9385,-2.8118],[114.9306,-2.817],[114.9246,-2.8102],[114.9329,-2.8037],[114.938,-2.7964],[114.9456,-2.7937],[114.95,-2.7901],[114.9615,-2.7978],[114.9385,-2.8118]]]}},{"type":"Feature","properties":{"name":"Sawaja","name_en":"Sawaja","admin_level":"7","osm_id":""},"geometry":{"type":"Polygon","coordinates":[[[114.8303,-2.6395],[114.8541,-2.5452],[114.8616,-2.5241],[114.8606,-2.5214],[114.9665,-2.7053],[114.9803,-2.7346],[114.9973,-2.7563],[115.015,-2.7719],[114.9905,-2.7823],[114.98,-2.7757],[114.9722,-2.7694],[114.9653,-2.7614],[114.9601,-2.7513],[114.9572,-2.7412],[114.9536,-2.7365],[114.9483,-2.7324],[114.9115,-2.7151],[114.8969,-2.7047],[114.8303,-2.6395]]]}},{"type":"Feature","properties":{"name":"SungaiPuting","name_en":"SungaiPuting","admin_level":"7","osm_id":""},"geometry":{"type":"Polygon","coordinates":[[[114.9253,-2.9367],[114.9214,-2.9754],[114.8999,-2.9845],[114.8865,-2.9472],[114.8907,-2.9338],[114.9001,-2.9384],[114.9055,-2.931],[114.9253,-2.9367]]]}},{"type":"Feature","properties":{"name":"SungaiSalai","name_en":"SungaiSalai","admin_level":"7","osm_id":""},"geometry":{"type":"Polygon","coordinates":[[[114.8373,-2.8649],[114.8247,-2.8363],[114.8619,-2.8469],[114.9029,-2.9358],[114.9001,-2.9384],[114.8907,-2.9338],[114.8865,-2.9472],[114.8999,-2.9845],[114.8865,-2.9901],[114.8726,-2.9583],[114.8669,-2.9509],[114.8655,-2.9311],[114.8606,-2.9253],[114.861,-2.9214],[114.8666,-2.9114],[114.8652,-2.9002],[114.8428,-2.8608],[114.8373,-2.8649]]]}},{"type":"Feature","properties":{"name":"SungaiSalaiHilir","name_en":"SungaiSalaiHilir","admin_level":"7","osm_id":""},"geometry":{"type":"Polygon","coordinates":[[[114.8202,-2.9187],[114.8396,-2.8746],[114.8403,-2.8707],[114.8373,-2.8649],[114.8428,-2.8608],[114.8664,-2.9038],[114.8666,-2.9114],[114.861,-2.9214],[114.8606,-2.9253],[114.8655,-2.9311],[114.8669,-2.9509],[114.8726,-2.9583],[114.8865,-2.9901],[114.8642,-2.9995],[114.8202,-2.9187]]]}},{"type":"Feature","properties":{"name":"TelukHaur","name_en":"TelukHaur","admin_level":"7","osm_id":""},"geometry":{"type":"Polygon","coordinates":[[[114.8096,-2.7959],[114.8046,-2.7416],[114.9229,-2.7741],[114.9069,-2.7895],[114.9306,-2.817],[114.929,-2.8191],[114.9155,-2.82],[114.8957,-2.8078],[114.8096,-2.7959]]]}}]}