{"type":"FeatureCollection","metadata":{"parent_osm_id":"gid_IDN_32_19_4_1","parent_name":"LahewaTimur","parent_name_1":"SumateraUtara","parent_gid":"IDN.32.19.4_1","parent_level":"6","child_level":"7","count":7,"source":"GADM 4.1","generated":"2026-05-09"},"features":[{"type":"Feature","properties":{"name":"Lauwowaga","name_en":"Lauwowaga","admin_level":"7","osm_id":""},"geometry":{"type":"Polygon","coordinates":[[[97.3416,1.2707],[97.3378,1.2816],[97.3377,1.2925],[97.3364,1.2938],[97.339,1.2966],[97.3398,1.3032],[97.3479,1.3135],[97.3493,1.3183],[97.3491,1.3324],[97.3579,1.3209],[97.3592,1.3062],[97.3637,1.301],[97.3648,1.2945],[97.3717,1.2906],[97.3704,1.2856],[97.3713,1.2788],[97.3416,1.2707]]]}},{"type":"Feature","properties":{"name":"LukhuLase","name_en":"LukhuLase","admin_level":"7","osm_id":""},"geometry":{"type":"Polygon","coordinates":[[[97.3364,1.2925],[97.323,1.2935],[97.3125,1.2922],[97.2969,1.3139],[97.2925,1.3136],[97.2878,1.3166],[97.2782,1.3169],[97.2763,1.323],[97.2954,1.3273],[97.3087,1.3273],[97.3224,1.3398],[97.3434,1.3435],[97.3425,1.3417],[97.3491,1.3324],[97.3493,1.3183],[97.3479,1.3135],[97.3398,1.3032],[97.339,1.2966],[97.3364,1.2925]]]}},{"type":"Feature","properties":{"name":"Meafu","name_en":"Meafu","admin_level":"7","osm_id":""},"geometry":{"type":"Polygon","coordinates":[[[97.3796,1.2946],[97.3717,1.2906],[97.3648,1.2945],[97.3637,1.301],[97.3592,1.3062],[97.3579,1.3209],[97.3436,1.3408],[97.3455,1.3419],[97.3564,1.3406],[97.3679,1.3313],[97.3738,1.3228],[97.3772,1.3224],[97.3779,1.3145],[97.3846,1.3098],[97.3864,1.3055],[97.3821,1.3009],[97.3796,1.2946]]]}},{"type":"Feature","properties":{"name":"Muzoi","name_en":"Muzoi","admin_level":"7","osm_id":""},"geometry":{"type":"Polygon","coordinates":[[[97.299,1.4499],[97.2998,1.4464],[97.3089,1.4346],[97.315,1.4301],[97.3278,1.4101],[97.3317,1.4004],[97.3326,1.3925],[97.324,1.3806],[97.2846,1.3566],[97.2813,1.3691],[97.2989,1.3735],[97.3047,1.3784],[97.3051,1.3913],[97.3025,1.4171],[97.2993,1.4225],[97.286,1.4299],[97.2904,1.449],[97.2921,1.4475],[97.299,1.4499]]]}},{"type":"Feature","properties":{"name":"Tefao","name_en":"Tefao","admin_level":"7","osm_id":""},"geometry":{"type":"Polygon","coordinates":[[[97.2902,1.4278],[97.2993,1.4225],[97.3025,1.4171],[97.3051,1.3913],[97.3047,1.3784],[97.2989,1.3735],[97.2813,1.3691],[97.2673,1.3843],[97.2629,1.3835],[97.2603,1.3867],[97.2613,1.3913],[97.2585,1.3933],[97.2595,1.3975],[97.2585,1.4013],[97.2555,1.4017],[97.2569,1.4027],[97.2561,1.4055],[97.2533,1.4047],[97.2527,1.4064],[97.2513,1.4059],[97.2477,1.4073],[97.2485,1.4087],[97.2457,1.4091],[97.2527,1.4117],[97.2607,1.4197],[97.2643,1.4193],[97.2679,1.4161],[97.2777,1.4197],[97.286,1.4299],[97.2902,1.4278]]]}},{"type":"Feature","properties":{"name":"TetehosiSorowi","name_en":"TetehosiSorowi","admin_level":"7","osm_id":""},"geometry":{"type":"Polygon","coordinates":[[[97.2763,1.323],[97.2783,1.3417],[97.2817,1.3502],[97.2884,1.3477],[97.299,1.3466],[97.3006,1.3497],[97.3087,1.3555],[97.3326,1.3565],[97.3386,1.3547],[97.3404,1.356],[97.3457,1.3447],[97.3224,1.3398],[97.3087,1.3273],[97.2954,1.3273],[97.2763,1.323]]]}},{"type":"Feature","properties":{"name":"TugalaLauru","name_en":"TugalaLauru","admin_level":"7","osm_id":""},"geometry":{"type":"Polygon","coordinates":[[[97.2846,1.3566],[97.324,1.3806],[97.3322,1.3909],[97.3252,1.3735],[97.3284,1.3691],[97.3363,1.3673],[97.3404,1.356],[97.3386,1.3547],[97.3326,1.3565],[97.3087,1.3555],[97.3006,1.3497],[97.299,1.3466],[97.2884,1.3477],[97.2817,1.3502],[97.2846,1.3566]]]}}]}