{"type":"FeatureCollection","metadata":{"parent_osm_id":"gid_IDN_17_3_8_1","parent_name":"MerbauMataram","parent_name_1":"Lampung","parent_gid":"IDN.17.3.8_1","parent_level":"6","child_level":"7","count":15,"source":"GADM 4.1","generated":"2026-05-07"},"features":[{"type":"Feature","properties":{"name":"BaruRanji","name_en":"BaruRanji","admin_level":"7","osm_id":""},"geometry":{"type":"Polygon","coordinates":[[[105.3372,-5.4869],[105.3315,-5.4797],[105.329,-5.4622],[105.3413,-5.4586],[105.3484,-5.4589],[105.3541,-5.455],[105.3566,-5.4643],[105.3541,-5.4711],[105.3545,-5.4761],[105.3601,-5.482],[105.3605,-5.4908],[105.3594,-5.4973],[105.356,-5.5033],[105.3523,-5.5023],[105.3506,-5.4989],[105.3406,-5.4937],[105.3372,-5.4869]]]}},{"type":"Feature","properties":{"name":"Batuagung","name_en":"Batuagung","admin_level":"7","osm_id":""},"geometry":{"type":"Polygon","coordinates":[[[105.5129,-5.442],[105.5108,-5.439],[105.5125,-5.434],[105.5086,-5.4318],[105.509,-5.4245],[105.5113,-5.4241],[105.5107,-5.4203],[105.5152,-5.4176],[105.514,-5.4162],[105.5156,-5.4154],[105.5198,-5.415],[105.5215,-5.4164],[105.5234,-5.4146],[105.5292,-5.4149],[105.5302,-5.4184],[105.5315,-5.4177],[105.5311,-5.4222],[105.5326,-5.4249],[105.5282,-5.4303],[105.5286,-5.4341],[105.5269,-5.4361],[105.5202,-5.4361],[105.5129,-5.442]]]}},{"type":"Feature","properties":{"name":"KarangJaya","name_en":"KarangJaya","admin_level":"7","osm_id":""},"geometry":{"type":"Polygon","coordinates":[[[105.356,-5.5032],[105.3594,-5.4973],[105.3605,-5.4908],[105.3601,-5.482],[105.3545,-5.4761],[105.3541,-5.4711],[105.3566,-5.4643],[105.3541,-5.455],[105.3562,-5.4534],[105.3815,-5.4561],[105.3865,-5.4741],[105.3862,-5.4768],[105.3798,-5.4835],[105.3796,-5.4944],[105.3706,-5.4941],[105.356,-5.5032]]]}},{"type":"Feature","properties":{"name":"KarangRaja","name_en":"KarangRaja","admin_level":"7","osm_id":""},"geometry":{"type":"Polygon","coordinates":[[[105.4268,-5.4784],[105.4293,-5.4999],[105.3801,-5.4863],[105.3798,-5.4835],[105.3817,-5.4807],[105.387,-5.4763],[105.4045,-5.4807],[105.406,-5.4781],[105.4268,-5.4784]]]}},{"type":"Feature","properties":{"name":"Lebungsari","name_en":"Lebungsari","admin_level":"7","osm_id":""},"geometry":{"type":"Polygon","coordinates":[[[105.4987,-5.4631],[105.495,-5.4648],[105.4917,-5.4634],[105.4932,-5.4588],[105.4901,-5.4592],[105.4873,-5.4554],[105.491,-5.4522],[105.4909,-5.4463],[105.4924,-5.4461],[105.4939,-5.4395],[105.4966,-5.4399],[105.4969,-5.4354],[105.5001,-5.4348],[105.5003,-5.4363],[105.503,-5.4366],[105.5036,-5.4346],[105.5111,-5.4384],[105.5118,-5.4421],[105.5129,-5.4419],[105.5123,-5.4442],[105.5139,-5.4449],[105.5129,-5.446],[105.5088,-5.4442],[105.5007,-5.454],[105.4987,-5.4631]]]}},{"type":"Feature","properties":{"name":"MekarJaya","name_en":"MekarJaya","admin_level":"7","osm_id":""},"geometry":{"type":"Polygon","coordinates":[[[105.3594,-5.5144],[105.3523,-5.5023],[105.3564,-5.5033],[105.3706,-5.4941],[105.3796,-5.4944],[105.3801,-5.4863],[105.4293,-5.4999],[105.4297,-5.5118],[105.4206,-5.5152],[105.4176,-5.5186],[105.4106,-5.5165],[105.3981,-5.5157],[105.3911,-5.523],[105.3873,-5.5244],[105.3703,-5.5215],[105.363,-5.5135],[105.3594,-5.5144]]]}},{"type":"Feature","properties":{"name":"MerbauMataram","name_en":"MerbauMataram","admin_level":"7","osm_id":""},"geometry":{"type":"Polygon","coordinates":[[[105.3815,-5.4561],[105.3562,-5.4534],[105.3554,-5.4439],[105.3639,-5.4384],[105.3732,-5.4406],[105.384,-5.4343],[105.3875,-5.4338],[105.3969,-5.4415],[105.3914,-5.4473],[105.387,-5.4487],[105.3894,-5.4537],[105.3815,-5.4561]]]}},{"type":"Feature","properties":{"name":"PancaTunggal","name_en":"PancaTunggal","admin_level":"7","osm_id":""},"geometry":{"type":"Polygon","coordinates":[[[105.4721,-5.459],[105.47,-5.4647],[105.4652,-5.4709],[105.4597,-5.4732],[105.4568,-5.4762],[105.4463,-5.4758],[105.4458,-5.4717],[105.4403,-5.4717],[105.4349,-5.4662],[105.4391,-5.4585],[105.4358,-5.4499],[105.4413,-5.449],[105.4468,-5.4412],[105.4588,-5.4333],[105.4696,-5.4385],[105.4767,-5.4475],[105.4766,-5.4519],[105.4721,-5.459]]]}},{"type":"Feature","properties":{"name":"Pujirahayu","name_en":"Pujirahayu","admin_level":"7","osm_id":""},"geometry":{"type":"Polygon","coordinates":[[[105.5129,-5.442],[105.5202,-5.4361],[105.5269,-5.4361],[105.5258,-5.4372],[105.5278,-5.4405],[105.5257,-5.4418],[105.5259,-5.4435],[105.5289,-5.4442],[105.5275,-5.4452],[105.5277,-5.4501],[105.5234,-5.4501],[105.5182,-5.4534],[105.515,-5.4535],[105.5165,-5.4559],[105.5168,-5.4627],[105.5066,-5.4631],[105.4991,-5.4608],[105.5007,-5.454],[105.5088,-5.4442],[105.5129,-5.446],[105.5129,-5.442]]]}},{"type":"Feature","properties":{"name":"SinarKarya","name_en":"SinarKarya","admin_level":"7","osm_id":""},"geometry":{"type":"Polygon","coordinates":[[[105.509,-5.4245],[105.5086,-5.4318],[105.5125,-5.434],[105.5111,-5.4384],[105.5036,-5.4346],[105.503,-5.4366],[105.5003,-5.4363],[105.5001,-5.4348],[105.4844,-5.438],[105.4815,-5.4373],[105.4838,-5.4314],[105.4885,-5.4311],[105.4898,-5.4251],[105.5007,-5.4215],[105.5015,-5.4148],[105.506,-5.4157],[105.5078,-5.4145],[105.509,-5.4245]]]}},{"type":"Feature","properties":{"name":"Suban","name_en":"Suban","admin_level":"7","osm_id":""},"geometry":{"type":"Polygon","coordinates":[[[105.4274,-5.4649],[105.4268,-5.4784],[105.406,-5.4781],[105.4045,-5.4807],[105.3862,-5.4765],[105.3815,-5.4561],[105.3896,-5.4527],[105.391,-5.4571],[105.3949,-5.4601],[105.4029,-5.4577],[105.4274,-5.4649]]]}},{"type":"Feature","properties":{"name":"TalangJawa","name_en":"TalangJawa","admin_level":"7","osm_id":""},"geometry":{"type":"Polygon","coordinates":[[[105.4917,-5.4634],[105.4854,-5.4615],[105.4848,-5.4635],[105.4833,-5.4631],[105.4846,-5.4614],[105.4786,-5.4591],[105.4721,-5.459],[105.4757,-5.4541],[105.4768,-5.448],[105.4817,-5.4454],[105.4899,-5.4446],[105.4902,-5.4456],[105.4924,-5.4442],[105.4924,-5.4461],[105.4909,-5.4463],[105.491,-5.4522],[105.4873,-5.4554],[105.4901,-5.4592],[105.4932,-5.4588],[105.4917,-5.4634]]]}},{"type":"Feature","properties":{"name":"TanjungBaru","name_en":"TanjungBaru","admin_level":"7","osm_id":""},"geometry":{"type":"Polygon","coordinates":[[[105.329,-5.4622],[105.3273,-5.4516],[105.3308,-5.4485],[105.3351,-5.4398],[105.3485,-5.4389],[105.3467,-5.442],[105.3557,-5.4439],[105.3562,-5.4535],[105.3484,-5.4589],[105.3413,-5.4586],[105.329,-5.4622]]]}},{"type":"Feature","properties":{"name":"TanjungHarapan","name_en":"TanjungHarapan","admin_level":"7","osm_id":""},"geometry":{"type":"Polygon","coordinates":[[[105.5271,-5.4147],[105.5237,-5.4156],[105.5234,-5.4146],[105.5215,-5.4164],[105.5176,-5.4148],[105.514,-5.4162],[105.5152,-5.4176],[105.5107,-5.4203],[105.5113,-5.4241],[105.509,-5.4245],[105.5078,-5.4145],[105.506,-5.4157],[105.5015,-5.4148],[105.5016,-5.3917],[105.5092,-5.3919],[105.5102,-5.3945],[105.5137,-5.3933],[105.5151,-5.3955],[105.519,-5.3941],[105.5249,-5.3959],[105.5257,-5.3995],[105.5243,-5.3993],[105.5241,-5.4064],[105.5282,-5.4078],[105.5259,-5.411],[105.5271,-5.4147]]]}},{"type":"Feature","properties":{"name":"Triharjo","name_en":"Triharjo","admin_level":"7","osm_id":""},"geometry":{"type":"Polygon","coordinates":[[[105.4349,-5.4662],[105.4029,-5.4577],[105.3949,-5.4601],[105.391,-5.4571],[105.387,-5.4487],[105.3914,-5.4473],[105.3969,-5.4415],[105.4354,-5.4507],[105.4391,-5.4585],[105.4349,-5.4662]]]}}]}