{"type":"FeatureCollection","metadata":{"parent_osm_id":"gid_IDN_19_5_5_1","parent_name":"MoaLakor","parent_name_1":"Maluku","parent_gid":"IDN.19.5.5_1","parent_level":"6","child_level":"7","count":12,"source":"GADM 4.1","generated":"2026-05-07"},"features":[{"type":"Feature","properties":{"name":"Kaiwatu","name_en":"Kaiwatu","admin_level":"7","osm_id":""},"geometry":{"type":"Polygon","coordinates":[[[127.7762,-8.1465],[127.7753,-8.1405],[127.7717,-8.1338],[127.758,-8.1254],[127.7533,-8.1195],[127.7513,-8.1149],[127.7546,-8.1104],[127.7821,-8.1048],[127.7951,-8.1074],[127.8038,-8.1053],[127.8113,-8.1108],[127.8267,-8.1125],[127.844,-8.1201],[127.8717,-8.1201],[127.8847,-8.1281],[127.898,-8.1314],[127.8816,-8.1518],[127.8736,-8.1511],[127.8715,-8.1527],[127.8685,-8.1514],[127.8651,-8.1524],[127.8616,-8.157],[127.8601,-8.1547],[127.8547,-8.1535],[127.8414,-8.153],[127.7951,-8.1459],[127.7762,-8.1465]]]}},{"type":"Feature","properties":{"name":"Ketty","name_en":"Ketty","admin_level":"7","osm_id":""},"geometry":{"type":"Polygon","coordinates":[[[128.1822,-8.2804],[128.1679,-8.2797],[128.1508,-8.2816],[128.1439,-8.2798],[128.1503,-8.2667],[128.1513,-8.2548],[128.1566,-8.2439],[128.1582,-8.2357],[128.1833,-8.2434],[128.1822,-8.2804]]]}},{"type":"Feature","properties":{"name":"Klis","name_en":"Klis","admin_level":"7","osm_id":""},"geometry":{"type":"Polygon","coordinates":[[[128.0043,-8.2621],[127.99,-8.2585],[127.9782,-8.2523],[127.952,-8.2489],[127.9496,-8.2442],[127.9503,-8.2402],[127.9485,-8.2328],[127.9424,-8.2261],[127.9362,-8.2214],[127.92,-8.2192],[127.9215,-8.1939],[127.9177,-8.1734],[127.9175,-8.1568],[127.9223,-8.1357],[127.9287,-8.1439],[127.9342,-8.1458],[127.9414,-8.146],[127.9444,-8.1445],[127.9578,-8.147],[127.9709,-8.1439],[127.9896,-8.1423],[128.0052,-8.1453],[128.0004,-8.1615],[128.0013,-8.1756],[127.999,-8.1854],[127.9984,-8.2001],[128.0009,-8.2192],[128.0017,-8.2438],[128.0034,-8.2503],[128.0025,-8.2549],[128.0043,-8.2621]]]}},{"type":"Feature","properties":{"name":"Lolotwara","name_en":"Lolotwara","admin_level":"7","osm_id":""},"geometry":{"type":"Polygon","coordinates":[[[128.1822,-8.2804],[128.1832,-8.2435],[128.1887,-8.2332],[128.1929,-8.2318],[128.1986,-8.2362],[128.2188,-8.2463],[128.2249,-8.2462],[128.2267,-8.2567],[128.2313,-8.2693],[128.23,-8.2735],[128.2059,-8.2797],[128.1822,-8.2804]]]}},{"type":"Feature","properties":{"name":"Moain","name_en":"Moain","admin_level":"7","osm_id":""},"geometry":{"type":"Polygon","coordinates":[[[128.0716,-8.1429],[128.0811,-8.1398],[128.0988,-8.1422],[128.1184,-8.1558],[128.1211,-8.1627],[128.1205,-8.1661],[128.1094,-8.1753],[128.0719,-8.1937],[128.0671,-8.1973],[128.0635,-8.2023],[128.0642,-8.2141],[128.0615,-8.2191],[128.0469,-8.2276],[128.0409,-8.2122],[128.0437,-8.2026],[128.0521,-8.1847],[128.0554,-8.1816],[128.0702,-8.1549],[128.0716,-8.1429]]]}},{"type":"Feature","properties":{"name":"Patti","name_en":"Patti","admin_level":"7","osm_id":""},"geometry":{"type":"Polygon","coordinates":[[[127.8271,-8.1508],[127.8547,-8.1535],[127.8601,-8.1547],[127.8616,-8.157],[127.8651,-8.1524],[127.8685,-8.1514],[127.8715,-8.1527],[127.8736,-8.1511],[127.8816,-8.1518],[127.8833,-8.1594],[127.8763,-8.1819],[127.8754,-8.1931],[127.8794,-8.215],[127.8824,-8.22],[127.8608,-8.2191],[127.8499,-8.2143],[127.8402,-8.2074],[127.814,-8.2032],[127.8017,-8.1974],[127.8089,-8.1917],[127.8139,-8.1828],[127.8184,-8.1781],[127.8249,-8.1616],[127.8271,-8.1508]]]}},{"type":"Feature","properties":{"name":"Sera","name_en":"Sera","admin_level":"7","osm_id":""},"geometry":{"type":"Polygon","coordinates":[[[128.1833,-8.2434],[128.1582,-8.2357],[128.1602,-8.2175],[128.1557,-8.213],[128.1643,-8.2092],[128.1727,-8.2083],[128.1851,-8.2016],[128.1918,-8.2004],[128.1983,-8.2034],[128.1897,-8.2306],[128.1833,-8.2434]]]}},{"type":"Feature","properties":{"name":"Tounwawan","name_en":"Tounwawan","admin_level":"7","osm_id":""},"geometry":{"type":"Polygon","coordinates":[[[128.0043,-8.2621],[128.0025,-8.2549],[128.0034,-8.2503],[128.0017,-8.2438],[128.0009,-8.2192],[127.9984,-8.2001],[127.999,-8.1854],[128.0013,-8.1756],[128.0004,-8.1615],[128.0052,-8.1453],[128.0232,-8.1476],[128.0391,-8.1474],[128.0602,-8.1466],[128.0716,-8.1429],[128.0702,-8.1549],[128.0554,-8.1816],[128.0521,-8.1847],[128.0437,-8.2026],[128.0409,-8.2122],[128.0469,-8.2276],[128.0437,-8.2327],[128.0431,-8.2558],[128.0418,-8.2593],[128.0341,-8.2623],[128.0043,-8.2621]]]}},{"type":"Feature","properties":{"name":"Wakarleli","name_en":"Wakarleli","admin_level":"7","osm_id":""},"geometry":{"type":"Polygon","coordinates":[[[127.7762,-8.1465],[127.7951,-8.1459],[127.8271,-8.1508],[127.8249,-8.1616],[127.8184,-8.1781],[127.8139,-8.1828],[127.8089,-8.1917],[127.8017,-8.1974],[127.7898,-8.19],[127.7803,-8.1784],[127.777,-8.1667],[127.7762,-8.1465]]]}},{"type":"Feature","properties":{"name":"Werwaru","name_en":"Werwaru","admin_level":"7","osm_id":""},"geometry":{"type":"Polygon","coordinates":[[[127.8816,-8.1518],[127.898,-8.1314],[127.9163,-8.1307],[127.9223,-8.1357],[127.9175,-8.1568],[127.9177,-8.1734],[127.9215,-8.1939],[127.92,-8.2192],[127.8975,-8.2164],[127.8824,-8.22],[127.8794,-8.215],[127.8754,-8.1931],[127.8763,-8.1819],[127.8833,-8.1594],[127.8816,-8.1518]]]}},{"type":"Feature","properties":{"name":"Werwawan","name_en":"Werwawan","admin_level":"7","osm_id":""},"geometry":{"type":"Polygon","coordinates":[[[128.1582,-8.2357],[128.1566,-8.2439],[128.1513,-8.2548],[128.1503,-8.2667],[128.1439,-8.2798],[128.1325,-8.2765],[128.1157,-8.2751],[128.1027,-8.2701],[128.0847,-8.2684],[128.078,-8.2639],[128.0743,-8.2581],[128.0737,-8.2532],[128.0757,-8.246],[128.0915,-8.2243],[128.0923,-8.2155],[128.0907,-8.2065],[128.0927,-8.206],[128.1082,-8.213],[128.1221,-8.2166],[128.1479,-8.2159],[128.1557,-8.213],[128.1602,-8.2175],[128.1582,-8.2357]]]}},{"type":"Feature","properties":{"name":"Yamluli","name_en":"Yamluli","admin_level":"7","osm_id":""},"geometry":{"type":"Polygon","coordinates":[[[128.2249,-8.2462],[128.2188,-8.2463],[128.1986,-8.2362],[128.1929,-8.2318],[128.1887,-8.2332],[128.1983,-8.2034],[128.212,-8.2077],[128.2167,-8.2122],[128.2249,-8.2462]]]}}]}