{"type":"FeatureCollection","metadata":{"parent_osm_id":"gid_IDN_8_2_2_1","parent_name":"BathinIiPelaya","parent_name_1":"Jambi","parent_gid":"IDN.8.2.2_1","parent_level":"6","child_level":"7","count":5,"source":"GADM 4.1","generated":"2026-05-08"},"features":[{"type":"Feature","properties":{"name":"Pelayang","name_en":"Pelayang","admin_level":"7","osm_id":""},"geometry":{"type":"Polygon","coordinates":[[[101.7887,-1.507],[101.8165,-1.4722],[101.843,-1.4452],[101.8439,-1.4349],[101.8505,-1.4343],[101.8524,-1.4425],[101.8542,-1.4444],[101.8593,-1.4439],[101.8616,-1.4469],[101.8331,-1.4833],[101.8196,-1.5145],[101.8074,-1.5326],[101.7988,-1.5232],[101.7959,-1.5163],[101.7887,-1.507]]]}},{"type":"Feature","properties":{"name":"Peninjau","name_en":"Peninjau","admin_level":"7","osm_id":""},"geometry":{"type":"Polygon","coordinates":[[[101.8439,-1.4349],[101.843,-1.4452],[101.8165,-1.4722],[101.7887,-1.507],[101.7865,-1.5053],[101.7793,-1.4985],[101.7664,-1.481],[101.7727,-1.4801],[101.7793,-1.4822],[101.7867,-1.4729],[101.7918,-1.4724],[101.8005,-1.4677],[101.8099,-1.4529],[101.8089,-1.4483],[101.8117,-1.4417],[101.8173,-1.4386],[101.8174,-1.4358],[101.8203,-1.4362],[101.8231,-1.4324],[101.8268,-1.4312],[101.8439,-1.4349]]]}},{"type":"Feature","properties":{"name":"PulauKerakap","name_en":"PulauKerakap","admin_level":"7","osm_id":""},"geometry":{"type":"Polygon","coordinates":[[[101.7875,-1.4341],[101.794,-1.4515],[101.7826,-1.4601],[101.785,-1.468],[101.782,-1.4742],[101.7654,-1.479],[101.7611,-1.4814],[101.7573,-1.4866],[101.7499,-1.4892],[101.7448,-1.487],[101.7412,-1.4734],[101.7416,-1.4658],[101.7875,-1.4341]]]}},{"type":"Feature","properties":{"name":"SeberangJaya","name_en":"SeberangJaya","admin_level":"7","osm_id":""},"geometry":{"type":"Polygon","coordinates":[[[101.8505,-1.4343],[101.8414,-1.4348],[101.8268,-1.4312],[101.8231,-1.4324],[101.8203,-1.4362],[101.8174,-1.4358],[101.8173,-1.4386],[101.8117,-1.4417],[101.8089,-1.4483],[101.8099,-1.4529],[101.8005,-1.4677],[101.7918,-1.4724],[101.7867,-1.4729],[101.7793,-1.4822],[101.7727,-1.4801],[101.7664,-1.481],[101.765,-1.4792],[101.782,-1.4742],[101.785,-1.468],[101.7826,-1.4601],[101.794,-1.4515],[101.7875,-1.4341],[101.8268,-1.4083],[101.8325,-1.4107],[101.8392,-1.4103],[101.8476,-1.4034],[101.8481,-1.4216],[101.8505,-1.4343]]]}},{"type":"Feature","properties":{"name":"TalangSilungko","name_en":"TalangSilungko","admin_level":"7","osm_id":""},"geometry":{"type":"Polygon","coordinates":[[[101.7875,-1.4341],[101.7415,-1.4658],[101.7235,-1.4385],[101.7239,-1.4353],[101.7197,-1.4229],[101.7262,-1.4246],[101.7307,-1.4283],[101.7443,-1.4225],[101.7489,-1.4233],[101.753,-1.4144],[101.7615,-1.4025],[101.7636,-1.3949],[101.7773,-1.3831],[101.7845,-1.3649],[101.7921,-1.3606],[101.8458,-1.3184],[101.8474,-1.3509],[101.8455,-1.3831],[101.8459,-1.3975],[101.8476,-1.4034],[101.8392,-1.4103],[101.8325,-1.4107],[101.8268,-1.4083],[101.7875,-1.4341]]]}}]}