{"type":"FeatureCollection","metadata":{"parent_osm_id":"19896797","parent_name":"Dolok","parent_name_1":"SumateraUtara","parent_gid":"IDN.32.21.3_1","parent_level":"6","child_level":"7","count":86,"source":"GADM 4.1","generated":"2026-05-09"},"features":[{"type":"Feature","properties":{"name":"AekHaruaya","name_en":"AekHaruaya","admin_level":"7","osm_id":""},"geometry":{"type":"Polygon","coordinates":[[[99.6884,1.8979],[99.6939,1.8979],[99.6807,1.8789],[99.6735,1.8726],[99.669,1.8647],[99.6659,1.8631],[99.6575,1.8532],[99.6472,1.8488],[99.6406,1.8434],[99.6379,1.8447],[99.6343,1.8434],[99.639,1.8478],[99.6438,1.8486],[99.6551,1.8546],[99.6766,1.8797],[99.6884,1.8979]]]}},{"type":"Feature","properties":{"name":"AekIlung","name_en":"AekIlung","admin_level":"7","osm_id":""},"geometry":{"type":"Polygon","coordinates":[[[99.656,1.7686],[99.648,1.7675],[99.6504,1.7771],[99.6491,1.7856],[99.6515,1.7864],[99.6585,1.8022],[99.6628,1.8061],[99.6568,1.8163],[99.6608,1.8197],[99.674,1.8223],[99.6798,1.8032],[99.6683,1.7959],[99.6681,1.7914],[99.6587,1.7844],[99.6581,1.7741],[99.656,1.7686]]]}},{"type":"Feature","properties":{"name":"AekRaoTapianNadenggan","name_en":"AekRaoTapianNadenggan","admin_level":"7","osm_id":""},"geometry":{"type":"Polygon","coordinates":[[[99.648,1.7675],[99.6595,1.7698],[99.6639,1.767],[99.6718,1.768],[99.6752,1.7654],[99.6697,1.7439],[99.6723,1.7246],[99.6399,1.7271],[99.6266,1.7326],[99.6204,1.7382],[99.6198,1.7402],[99.6256,1.7457],[99.6269,1.7506],[99.6284,1.7724],[99.6305,1.7728],[99.6417,1.7678],[99.648,1.7675]]]}},{"type":"Feature","properties":{"name":"AekSuhatJae","name_en":"AekSuhatJae","admin_level":"7","osm_id":""},"geometry":{"type":"Polygon","coordinates":[[[99.6785,1.8997],[99.6848,1.8983],[99.6757,1.8864],[99.6683,1.8804],[99.6588,1.8693],[99.6536,1.8578],[99.6345,1.8481],[99.6316,1.8447],[99.6267,1.8434],[99.6266,1.8481],[99.6359,1.8532],[99.6449,1.8557],[99.6474,1.8584],[99.6613,1.8834],[99.6667,1.8864],[99.6785,1.8997]]]}},{"type":"Feature","properties":{"name":"AekSuhutTr","name_en":"AekSuhutTr","admin_level":"7","osm_id":""},"geometry":{"type":"Polygon","coordinates":[[[99.6848,1.8983],[99.6884,1.8979],[99.6864,1.8935],[99.6551,1.8546],[99.6357,1.8459],[99.6316,1.8404],[99.6236,1.8406],[99.6247,1.8431],[99.6316,1.8447],[99.6345,1.8481],[99.6536,1.8578],[99.6588,1.8693],[99.6683,1.8804],[99.6757,1.8864],[99.6848,1.8983]]]}},{"type":"Feature","properties":{"name":"AekSundur","name_en":"AekSundur","admin_level":"7","osm_id":""},"geometry":{"type":"Polygon","coordinates":[[[99.6266,1.8481],[99.6262,1.8439],[99.6236,1.8406],[99.627,1.8402],[99.6276,1.8384],[99.6241,1.8356],[99.6232,1.8282],[99.6186,1.822],[99.6145,1.8258],[99.6153,1.8307],[99.6133,1.8356],[99.6144,1.8422],[99.613,1.8463],[99.6177,1.8482],[99.6193,1.8544],[99.6201,1.8546],[99.6204,1.851],[99.624,1.8507],[99.6266,1.8481]]]}},{"type":"Feature","properties":{"name":"AekTangga","name_en":"AekTangga","admin_level":"7","osm_id":""},"geometry":{"type":"Polygon","coordinates":[[[99.5802,1.867],[99.5802,1.865],[99.5842,1.8623],[99.5842,1.8522],[99.5775,1.8526],[99.5756,1.8508],[99.5712,1.8522],[99.5672,1.862],[99.5706,1.8656],[99.5669,1.8683],[99.5667,1.8705],[99.5677,1.8717],[99.5733,1.8682],[99.5792,1.8683],[99.5802,1.867]]]}},{"type":"Feature","properties":{"name":"Arse","name_en":"Arse","admin_level":"7","osm_id":""},"geometry":{"type":"Polygon","coordinates":[[[99.5946,1.806],[99.6011,1.8049],[99.6081,1.8011],[99.6109,1.7968],[99.6117,1.7918],[99.6077,1.7907],[99.6048,1.7882],[99.6048,1.7862],[99.6005,1.7832],[99.5814,1.7854],[99.5747,1.7878],[99.5663,1.7854],[99.5684,1.798],[99.5785,1.7933],[99.5959,1.7887],[99.5983,1.7893],[99.5963,1.7972],[99.5934,1.7996],[99.5946,1.806]]]}},{"type":"Feature","properties":{"name":"Bahap","name_en":"Bahap","admin_level":"7","osm_id":""},"geometry":{"type":"Polygon","coordinates":[[[99.7911,1.8094],[99.788,1.8103],[99.7851,1.8083],[99.7801,1.8087],[99.7772,1.8118],[99.7739,1.8126],[99.7733,1.8205],[99.7791,1.826],[99.7829,1.8276],[99.7929,1.8256],[99.7945,1.8217],[99.7973,1.8221],[99.7972,1.8166],[99.8014,1.8063],[99.7911,1.8094]]]}},{"type":"Feature","properties":{"name":"BandarNauli","name_en":"BandarNauli","admin_level":"7","osm_id":""},"geometry":{"type":"Polygon","coordinates":[[[99.6362,1.8797],[99.627,1.8714],[99.6256,1.8613],[99.6202,1.8549],[99.6128,1.8582],[99.6039,1.8665],[99.6136,1.8717],[99.6211,1.8839],[99.6262,1.8847],[99.6274,1.8884],[99.6334,1.89],[99.6362,1.8797]]]}},{"type":"Feature","properties":{"name":"BaringinSil","name_en":"BaringinSil","admin_level":"7","osm_id":""},"geometry":{"type":"Polygon","coordinates":[[[99.748,1.8289],[99.7455,1.8298],[99.726,1.8276],[99.7251,1.832],[99.7205,1.8371],[99.7179,1.8459],[99.7146,1.8497],[99.7287,1.8521],[99.7297,1.85],[99.735,1.8484],[99.7483,1.849],[99.7505,1.8476],[99.7507,1.8443],[99.748,1.8289]]]}},{"type":"Feature","properties":{"name":"BaringinSip","name_en":"BaringinSip","admin_level":"7","osm_id":""},"geometry":{"type":"Polygon","coordinates":[[[99.5699,1.8976],[99.5781,1.8878],[99.5806,1.8821],[99.5751,1.8807],[99.5728,1.8845],[99.5647,1.8843],[99.5608,1.8874],[99.5699,1.8976]]]}},{"type":"Feature","properties":{"name":"BatuRunding","name_en":"BatuRunding","admin_level":"7","osm_id":""},"geometry":{"type":"Polygon","coordinates":[[[99.7284,1.8521],[99.7153,1.8504],[99.7088,1.8478],[99.7081,1.8455],[99.7023,1.8436],[99.6892,1.8314],[99.6892,1.8354],[99.6941,1.8449],[99.7059,1.8586],[99.7086,1.8661],[99.7139,1.8667],[99.7151,1.8686],[99.7346,1.8777],[99.7394,1.8774],[99.7324,1.8676],[99.7284,1.8521]]]}},{"type":"Feature","properties":{"name":"BinangaGumbot","name_en":"BinangaGumbot","admin_level":"7","osm_id":""},"geometry":{"type":"Polygon","coordinates":[[[99.6939,1.8979],[99.6984,1.8979],[99.6942,1.889],[99.6818,1.8742],[99.6769,1.871],[99.6714,1.8606],[99.6588,1.8515],[99.6514,1.8496],[99.6495,1.8446],[99.6447,1.8409],[99.6343,1.8369],[99.6277,1.8382],[99.627,1.8402],[99.6316,1.8404],[99.6379,1.8447],[99.6406,1.8434],[99.6472,1.8488],[99.6575,1.8532],[99.6659,1.8631],[99.669,1.8647],[99.6735,1.8726],[99.6807,1.8789],[99.6939,1.8979]]]}},{"type":"Feature","properties":{"name":"BinangaPanosahan","name_en":"BinangaPanosahan","admin_level":"7","osm_id":""},"geometry":{"type":"Polygon","coordinates":[[[99.726,1.8276],[99.7116,1.8215],[99.7033,1.8266],[99.71,1.8333],[99.7215,1.836],[99.7251,1.832],[99.726,1.8276]]]}},{"type":"Feature","properties":{"name":"BintaisJulu","name_en":"BintaisJulu","admin_level":"7","osm_id":""},"geometry":{"type":"Polygon","coordinates":[[[99.8356,1.9511],[99.8315,1.9329],[99.8329,1.9279],[99.8281,1.9287],[99.819,1.926],[99.8147,1.9203],[99.8078,1.9183],[99.8002,1.9087],[99.801,1.8969],[99.8053,1.8912],[99.8041,1.8875],[99.8013,1.8857],[99.8045,1.882],[99.8059,1.8694],[99.8047,1.8651],[99.8098,1.8535],[99.8092,1.8488],[99.8125,1.8445],[99.8125,1.8399],[99.8159,1.8325],[99.8149,1.8299],[99.8182,1.8242],[99.8178,1.8217],[99.8255,1.8176],[99.8253,1.8121],[99.8216,1.8121],[99.8194,1.8148],[99.8127,1.8164],[99.808,1.8213],[99.8052,1.8212],[99.8051,1.8282],[99.7984,1.836],[99.796,1.8488],[99.7915,1.8564],[99.7909,1.8649],[99.787,1.8765],[99.7868,1.8906],[99.7917,1.9271],[99.8077,1.9487],[99.8151,1.9526],[99.8196,1.9513],[99.8299,1.9528],[99.8356,1.9511]]]}},{"type":"Feature","properties":{"name":"BukitTinggi","name_en":"BukitTinggi","admin_level":"7","osm_id":""},"geometry":{"type":"Polygon","coordinates":[[[99.675,1.8211],[99.674,1.8223],[99.6685,1.8215],[99.6543,1.8164],[99.6546,1.8194],[99.6609,1.8228],[99.6719,1.824],[99.6912,1.832],[99.7023,1.8436],[99.7081,1.8455],[99.7088,1.8478],[99.7143,1.8501],[99.7179,1.8459],[99.7187,1.8429],[99.7131,1.8428],[99.712,1.8405],[99.6915,1.8263],[99.6811,1.8211],[99.675,1.8211]]]}},{"type":"Feature","properties":{"name":"Bunut","name_en":"Bunut","admin_level":"7","osm_id":""},"geometry":{"type":"Polygon","coordinates":[[[99.6643,1.8233],[99.6553,1.8197],[99.6477,1.8289],[99.6482,1.8333],[99.6521,1.8387],[99.6591,1.8351],[99.6641,1.83],[99.6643,1.8233]]]}},{"type":"Feature","properties":{"name":"DalihanNatolu","name_en":"DalihanNatolu","admin_level":"7","osm_id":""},"geometry":{"type":"Polygon","coordinates":[[[99.6783,1.8065],[99.676,1.8141],[99.6913,1.8186],[99.7023,1.8266],[99.7075,1.8248],[99.708,1.8238],[99.7049,1.8237],[99.6973,1.8166],[99.6783,1.8065]]]}},{"type":"Feature","properties":{"name":"DolokSanggul","name_en":"DolokSanggul","admin_level":"7","osm_id":""},"geometry":{"type":"Polygon","coordinates":[[[99.6535,1.9073],[99.6599,1.9039],[99.6589,1.896],[99.6517,1.8881],[99.6474,1.8802],[99.6348,1.8732],[99.6327,1.8691],[99.6321,1.8594],[99.6281,1.8587],[99.6256,1.8611],[99.6255,1.8672],[99.627,1.8714],[99.6362,1.8797],[99.6423,1.8807],[99.6423,1.8831],[99.6526,1.8982],[99.6535,1.9073]]]}},{"type":"Feature","properties":{"name":"Gumaruntar","name_en":"Gumaruntar","admin_level":"7","osm_id":""},"geometry":{"type":"Polygon","coordinates":[[[99.6272,1.7649],[99.6256,1.7457],[99.6198,1.7402],[99.6083,1.7463],[99.6002,1.7479],[99.5937,1.7462],[99.5788,1.753],[99.5674,1.7552],[99.5655,1.7582],[99.5652,1.7699],[99.5726,1.7722],[99.5859,1.7703],[99.5959,1.7669],[99.6075,1.7673],[99.6272,1.7649]]]}},{"type":"Feature","properties":{"name":"Gumbot","name_en":"Gumbot","admin_level":"7","osm_id":""},"geometry":{"type":"Polygon","coordinates":[[[99.6591,1.8351],[99.6515,1.8391],[99.6499,1.8447],[99.6665,1.8527],[99.6701,1.8568],[99.6761,1.8586],[99.6778,1.8506],[99.6756,1.8444],[99.6677,1.8382],[99.6591,1.8351]]]}},{"type":"Feature","properties":{"name":"GunungMaria","name_en":"GunungMaria","admin_level":"7","osm_id":""},"geometry":{"type":"Polygon","coordinates":[[[99.6201,1.8546],[99.6177,1.8482],[99.6138,1.8463],[99.6076,1.8539],[99.6099,1.8604],[99.6201,1.8546]]]}},{"type":"Feature","properties":{"name":"GunungSalamat","name_en":"GunungSalamat","admin_level":"7","osm_id":""},"geometry":{"type":"Polygon","coordinates":[[[99.6297,1.7958],[99.6245,1.8056],[99.6189,1.8088],[99.6121,1.8181],[99.6163,1.8164],[99.6201,1.8107],[99.6327,1.8042],[99.6371,1.799],[99.6371,1.7978],[99.6297,1.7958]]]}},{"type":"Feature","properties":{"name":"HulaBaringin","name_en":"HulaBaringin","admin_level":"7","osm_id":""},"geometry":{"type":"Polygon","coordinates":[[[99.6643,1.9029],[99.6687,1.9019],[99.6619,1.892],[99.6553,1.8854],[99.6491,1.8761],[99.6395,1.872],[99.6373,1.8597],[99.6262,1.851],[99.6204,1.851],[99.6198,1.854],[99.6247,1.8609],[99.6281,1.8587],[99.6321,1.8594],[99.6333,1.8715],[99.6474,1.8802],[99.6517,1.8881],[99.6589,1.896],[99.6599,1.9039],[99.6643,1.9029]]]}},{"type":"Feature","properties":{"name":"HutaBaru(sip)","name_en":"HutaBaru(sip)","admin_level":"7","osm_id":""},"geometry":{"type":"Polygon","coordinates":[[[99.6553,1.8197],[99.6528,1.8143],[99.6476,1.8117],[99.6366,1.8192],[99.6452,1.8229],[99.65,1.8268],[99.6553,1.8197]]]}},{"type":"Feature","properties":{"name":"HutaBaruSil","name_en":"HutaBaruSil","admin_level":"7","osm_id":""},"geometry":{"type":"Polygon","coordinates":[[[99.8329,1.9279],[99.8347,1.9148],[99.8322,1.9115],[99.8242,1.9107],[99.8086,1.9036],[99.814,1.8954],[99.8174,1.8838],[99.816,1.8746],[99.812,1.8672],[99.8168,1.8611],[99.8234,1.8318],[99.833,1.8175],[99.8304,1.8136],[99.8255,1.8113],[99.8255,1.8176],[99.8178,1.8217],[99.8182,1.8242],[99.8149,1.8299],[99.8159,1.8325],[99.8125,1.8399],[99.8125,1.8445],[99.8092,1.8488],[99.8098,1.8535],[99.8047,1.8651],[99.8059,1.8694],[99.8045,1.882],[99.8013,1.8857],[99.8041,1.8875],[99.8053,1.8912],[99.801,1.8969],[99.8002,1.9087],[99.8078,1.9183],[99.8147,1.9203],[99.819,1.926],[99.8281,1.9287],[99.8329,1.9279]]]}},{"type":"Feature","properties":{"name":"HutaImbarugul","name_en":"HutaImbarugul","admin_level":"7","osm_id":""},"geometry":{"type":"Polygon","coordinates":[[[99.6282,1.7717],[99.6272,1.7649],[99.6075,1.7673],[99.5959,1.7669],[99.5859,1.7703],[99.5726,1.7722],[99.5652,1.7699],[99.5649,1.777],[99.5655,1.7809],[99.5963,1.7799],[99.6077,1.7777],[99.6219,1.7716],[99.6282,1.7717]]]}},{"type":"Feature","properties":{"name":"JamburBatu","name_en":"JamburBatu","admin_level":"7","osm_id":""},"geometry":{"type":"Polygon","coordinates":[[[99.6039,1.8665],[99.6099,1.8604],[99.6073,1.8529],[99.6019,1.8494],[99.5975,1.8632],[99.6039,1.8665]]]}},{"type":"Feature","properties":{"name":"JanjiManahanGul","name_en":"JanjiManahanGul","admin_level":"7","osm_id":""},"geometry":{"type":"Polygon","coordinates":[[[99.6423,1.7676],[99.6285,1.7725],[99.6252,1.7956],[99.6199,1.8051],[99.607,1.8145],[99.5971,1.8188],[99.6009,1.8241],[99.6101,1.8182],[99.6189,1.8088],[99.6245,1.8056],[99.6333,1.7887],[99.6333,1.7854],[99.6376,1.7797],[99.6413,1.7791],[99.6438,1.7768],[99.6445,1.7722],[99.6423,1.7676]]]}},{"type":"Feature","properties":{"name":"JanjiManahanSil","name_en":"JanjiManahanSil","admin_level":"7","osm_id":""},"geometry":{"type":"Polygon","coordinates":[[[99.8394,1.7994],[99.8301,1.7975],[99.8148,1.8069],[99.8014,1.8063],[99.7964,1.8207],[99.7978,1.8227],[99.808,1.8213],[99.8127,1.8164],[99.8163,1.8162],[99.8216,1.8121],[99.8255,1.8113],[99.8304,1.8136],[99.833,1.8175],[99.8389,1.8045],[99.8394,1.7994]]]}},{"type":"Feature","properties":{"name":"JanjiMatogu","name_en":"JanjiMatogu","admin_level":"7","osm_id":""},"geometry":{"type":"Polygon","coordinates":[[[99.6226,1.8269],[99.623,1.8336],[99.6272,1.8384],[99.6343,1.8369],[99.6447,1.8409],[99.6499,1.8447],[99.6521,1.8387],[99.6477,1.8316],[99.6352,1.828],[99.6287,1.8241],[99.6226,1.8269]]]}},{"type":"Feature","properties":{"name":"LubukGodang","name_en":"LubukGodang","admin_level":"7","osm_id":""},"geometry":{"type":"Polygon","coordinates":[[[99.6186,1.822],[99.6226,1.8269],[99.6287,1.8241],[99.6319,1.8203],[99.6384,1.8188],[99.6515,1.8078],[99.6534,1.8044],[99.6529,1.8013],[99.6509,1.7993],[99.6446,1.8085],[99.6337,1.8162],[99.6257,1.8162],[99.6186,1.822]]]}},{"type":"Feature","properties":{"name":"LubukKundur","name_en":"LubukKundur","admin_level":"7","osm_id":""},"geometry":{"type":"Polygon","coordinates":[[[99.6009,1.8241],[99.5971,1.8188],[99.5954,1.8188],[99.592,1.8267],[99.5893,1.8363],[99.5889,1.8512],[99.5922,1.853],[99.5987,1.8395],[99.6013,1.8294],[99.6009,1.8241]]]}},{"type":"Feature","properties":{"name":"LubukLanjang","name_en":"LubukLanjang","admin_level":"7","osm_id":""},"geometry":{"type":"Polygon","coordinates":[[[99.6121,1.8181],[99.6121,1.8165],[99.6009,1.8241],[99.6013,1.8294],[99.5987,1.8395],[99.5922,1.853],[99.593,1.8585],[99.5975,1.8632],[99.6013,1.8503],[99.6016,1.8357],[99.6044,1.8312],[99.6052,1.8253],[99.6117,1.8216],[99.6121,1.8181]]]}},{"type":"Feature","properties":{"name":"MompangDolok","name_en":"MompangDolok","admin_level":"7","osm_id":""},"geometry":{"type":"Polygon","coordinates":[[[99.5838,1.8519],[99.5842,1.8623],[99.5802,1.865],[99.5828,1.8706],[99.5956,1.8678],[99.6113,1.8829],[99.6174,1.8949],[99.6235,1.8972],[99.6339,1.8983],[99.6334,1.89],[99.6274,1.8884],[99.6262,1.8847],[99.6211,1.8839],[99.6136,1.8717],[99.5954,1.8619],[99.5908,1.8516],[99.5861,1.8507],[99.5838,1.8519]]]}},{"type":"Feature","properties":{"name":"MompangLombang","name_en":"MompangLombang","admin_level":"7","osm_id":""},"geometry":{"type":"Polygon","coordinates":[[[99.6339,1.8983],[99.6235,1.8972],[99.6174,1.8949],[99.6113,1.8829],[99.5956,1.8678],[99.5842,1.8697],[99.5805,1.8744],[99.5887,1.874],[99.5928,1.8766],[99.5948,1.8868],[99.5889,1.896],[99.5946,1.8978],[99.602,1.9041],[99.6072,1.9163],[99.6144,1.9124],[99.6197,1.9065],[99.6197,1.9037],[99.6219,1.9024],[99.6294,1.9024],[99.6339,1.8983]]]}},{"type":"Feature","properties":{"name":"Nabonggal","name_en":"Nabonggal","admin_level":"7","osm_id":""},"geometry":{"type":"Polygon","coordinates":[[[99.6984,1.8979],[99.7029,1.8979],[99.7013,1.8919],[99.6967,1.8889],[99.6929,1.8799],[99.6828,1.8698],[99.679,1.8611],[99.6754,1.8579],[99.6701,1.8568],[99.6665,1.8527],[99.6495,1.8446],[99.6514,1.8496],[99.6588,1.8515],[99.6714,1.8606],[99.6769,1.871],[99.6818,1.8742],[99.6942,1.889],[99.6984,1.8979]]]}},{"type":"Feature","properties":{"name":"NagaSaribu","name_en":"NagaSaribu","admin_level":"7","osm_id":""},"geometry":{"type":"Polygon","coordinates":[[[99.6687,1.9019],[99.6785,1.8997],[99.6667,1.8864],[99.6613,1.8834],[99.6474,1.8584],[99.6449,1.8557],[99.6359,1.8532],[99.6266,1.8481],[99.624,1.8507],[99.6359,1.8584],[99.6444,1.8587],[99.6472,1.8747],[99.6687,1.9019]]]}},{"type":"Feature","properties":{"name":"NapaSundali","name_en":"NapaSundali","admin_level":"7","osm_id":""},"geometry":{"type":"Polygon","coordinates":[[[99.5757,1.8807],[99.5806,1.8821],[99.5796,1.8851],[99.5699,1.8976],[99.5788,1.8949],[99.5889,1.896],[99.592,1.8927],[99.595,1.8849],[99.5928,1.8766],[99.5887,1.874],[99.5836,1.8737],[99.5805,1.8744],[99.5757,1.8807]]]}},{"type":"Feature","properties":{"name":"PagaranJuluI","name_en":"PagaranJuluI","admin_level":"7","osm_id":""},"geometry":{"type":"Polygon","coordinates":[[[99.5652,1.8435],[99.5677,1.8451],[99.5741,1.8316],[99.5741,1.8298],[99.568,1.8243],[99.5662,1.8283],[99.5684,1.832],[99.5659,1.8343],[99.5643,1.8391],[99.5652,1.8435]]]}},{"type":"Feature","properties":{"name":"PagaranJuluIi","name_en":"PagaranJuluIi","admin_level":"7","osm_id":""},"geometry":{"type":"Polygon","coordinates":[[[99.6359,1.8584],[99.6373,1.8597],[99.6379,1.8685],[99.6454,1.8668],[99.6444,1.8587],[99.6359,1.8584]]]}},{"type":"Feature","properties":{"name":"PagaranSiregar","name_en":"PagaranSiregar","admin_level":"7","osm_id":""},"geometry":{"type":"Polygon","coordinates":[[[99.5672,1.862],[99.5712,1.8522],[99.5759,1.8507],[99.5788,1.844],[99.5775,1.8412],[99.5735,1.841],[99.572,1.8461],[99.5698,1.8459],[99.5593,1.8398],[99.5559,1.8479],[99.5616,1.8503],[99.5643,1.8595],[99.5672,1.862]]]}},{"type":"Feature","properties":{"name":"Panca","name_en":"Panca","admin_level":"7","osm_id":""},"geometry":{"type":"Polygon","coordinates":[[[99.6283,1.9266],[99.6414,1.9146],[99.6355,1.9096],[99.6323,1.9024],[99.6219,1.9024],[99.6144,1.9124],[99.627,1.9151],[99.6283,1.9266]]]}},{"type":"Feature","properties":{"name":"Parigi","name_en":"Parigi","admin_level":"7","osm_id":""},"geometry":{"type":"Polygon","coordinates":[[[99.6976,1.7922],[99.7003,1.7858],[99.6948,1.7787],[99.6944,1.7651],[99.6925,1.7654],[99.6889,1.7713],[99.6867,1.7722],[99.6858,1.7766],[99.6863,1.7791],[99.69,1.7825],[99.6906,1.7873],[99.6936,1.7912],[99.6976,1.7922]]]}},{"type":"Feature","properties":{"name":"Parmeraan","name_en":"Parmeraan","admin_level":"7","osm_id":""},"geometry":{"type":"Polygon","coordinates":[[[99.7478,1.905],[99.7497,1.9072],[99.7541,1.9069],[99.7554,1.9098],[99.7616,1.9132],[99.7637,1.9108],[99.7689,1.9108],[99.7676,1.8979],[99.7695,1.8779],[99.7646,1.8696],[99.7554,1.8629],[99.7565,1.8562],[99.7536,1.8566],[99.7495,1.8539],[99.746,1.8513],[99.7457,1.8487],[99.735,1.8484],[99.7297,1.85],[99.7284,1.8521],[99.7324,1.8676],[99.7357,1.8735],[99.7405,1.8784],[99.7452,1.8786],[99.746,1.8824],[99.7438,1.889],[99.7465,1.8922],[99.7478,1.905]]]}},{"type":"Feature","properties":{"name":"PasarSipiongot","name_en":"PasarSipiongot","admin_level":"7","osm_id":""},"geometry":{"type":"Polygon","coordinates":[[[99.7155,1.8999],[99.7212,1.905],[99.7278,1.9065],[99.7326,1.9046],[99.7338,1.9055],[99.7355,1.9036],[99.7372,1.905],[99.74,1.904],[99.7478,1.905],[99.7465,1.8922],[99.7438,1.889],[99.746,1.8824],[99.7452,1.8786],[99.7346,1.8777],[99.7151,1.8686],[99.7139,1.8667],[99.7086,1.8661],[99.7059,1.8586],[99.6941,1.8449],[99.6892,1.8354],[99.6892,1.8314],[99.6719,1.824],[99.6643,1.8233],[99.6642,1.8298],[99.6821,1.8427],[99.6868,1.8596],[99.6953,1.8655],[99.7079,1.8806],[99.7106,1.8894],[99.7155,1.8932],[99.7155,1.8999]]]}},{"type":"Feature","properties":{"name":"PayaOmbik","name_en":"PayaOmbik","admin_level":"7","osm_id":""},"geometry":{"type":"Polygon","coordinates":[[[99.5992,1.9533],[99.6073,1.9496],[99.6122,1.9499],[99.6214,1.9422],[99.6257,1.9349],[99.6283,1.9266],[99.627,1.9151],[99.6144,1.9124],[99.5981,1.9198],[99.5875,1.9283],[99.5859,1.9308],[99.5891,1.9491],[99.5912,1.9515],[99.5987,1.9521],[99.5992,1.9533]]]}},{"type":"Feature","properties":{"name":"PijorKoling","name_en":"PijorKoling","admin_level":"7","osm_id":""},"geometry":{"type":"Polygon","coordinates":[[[99.676,1.8141],[99.675,1.8211],[99.6811,1.8211],[99.7006,1.8323],[99.712,1.8405],[99.7131,1.8428],[99.7187,1.8429],[99.7215,1.836],[99.71,1.8333],[99.7033,1.8266],[99.6958,1.8229],[99.6913,1.8186],[99.676,1.8141]]]}},{"type":"Feature","properties":{"name":"PpMerdeka","name_en":"PpMerdeka","admin_level":"7","osm_id":""},"geometry":{"type":"Polygon","coordinates":[[[99.6953,1.8049],[99.6965,1.799],[99.686,1.7909],[99.6729,1.7736],[99.6722,1.7679],[99.6639,1.767],[99.6639,1.7716],[99.6719,1.7844],[99.6826,1.796],[99.6886,1.7982],[99.69,1.8017],[99.6953,1.8049]]]}},{"type":"Feature","properties":{"name":"Purbatua(purbabatu)","name_en":"Purbatua(purbabatu)","admin_level":"7","osm_id":""},"geometry":{"type":"Polygon","coordinates":[[[99.6477,1.8316],[99.6477,1.8289],[99.65,1.8268],[99.6423,1.8214],[99.6366,1.8192],[99.6319,1.8203],[99.629,1.8229],[99.6303,1.826],[99.6477,1.8316]]]}},{"type":"Feature","properties":{"name":"Rancaran","name_en":"Rancaran","admin_level":"7","osm_id":""},"geometry":{"type":"Polygon","coordinates":[[[99.6117,1.7918],[99.6109,1.7968],[99.6081,1.8011],[99.6011,1.8049],[99.5946,1.806],[99.5911,1.8159],[99.5981,1.811],[99.607,1.809],[99.6162,1.8011],[99.6201,1.7893],[99.6195,1.7807],[99.6162,1.7748],[99.6068,1.7778],[99.6117,1.7854],[99.6117,1.7918]]]}},{"type":"Feature","properties":{"name":"Rongkare","name_en":"Rongkare","admin_level":"7","osm_id":""},"geometry":{"type":"Polygon","coordinates":[[[99.5663,1.7854],[99.5747,1.7878],[99.5814,1.7854],[99.6005,1.7832],[99.6048,1.7862],[99.6048,1.7882],[99.6077,1.7907],[99.6115,1.7921],[99.6125,1.7895],[99.6117,1.7854],[99.6068,1.7778],[99.5963,1.7799],[99.5655,1.7809],[99.5663,1.7854]]]}},{"type":"Feature","properties":{"name":"SialaGundi","name_en":"SialaGundi","admin_level":"7","osm_id":""},"geometry":{"type":"Polygon","coordinates":[[[99.5677,1.8717],[99.5669,1.8683],[99.5706,1.8656],[99.5643,1.8595],[99.5616,1.8503],[99.5559,1.8479],[99.5541,1.8569],[99.5489,1.8597],[99.5481,1.8636],[99.5505,1.8668],[99.5595,1.8715],[99.5639,1.8707],[99.5669,1.876],[99.5633,1.8813],[99.5635,1.8851],[99.5675,1.8839],[99.5712,1.8754],[99.5712,1.8733],[99.5677,1.8717]]]}},{"type":"Feature","properties":{"name":"SialangDolok","name_en":"SialangDolok","admin_level":"7","osm_id":""},"geometry":{"type":"Polygon","coordinates":[[[99.6379,1.8685],[99.6395,1.872],[99.6472,1.8747],[99.6471,1.8688],[99.6455,1.8668],[99.6379,1.8685]]]}},{"type":"Feature","properties":{"name":"Sibayo","name_en":"Sibayo","admin_level":"7","osm_id":""},"geometry":{"type":"Polygon","coordinates":[[[99.6285,1.7725],[99.6219,1.7716],[99.6162,1.7748],[99.6195,1.7807],[99.6201,1.7893],[99.6162,1.8011],[99.607,1.809],[99.5981,1.811],[99.5911,1.8163],[99.5942,1.8165],[99.5954,1.8188],[99.6005,1.818],[99.6199,1.8051],[99.6252,1.7956],[99.6285,1.7725]]]}},{"type":"Feature","properties":{"name":"SibayoJae","name_en":"SibayoJae","admin_level":"7","osm_id":""},"geometry":{"type":"Polygon","coordinates":[[[99.6574,1.8168],[99.6571,1.814],[99.6628,1.8061],[99.6585,1.8022],[99.6515,1.7864],[99.6491,1.7856],[99.6509,1.7993],[99.6534,1.8044],[99.6476,1.8117],[99.6509,1.8126],[99.6544,1.8166],[99.6574,1.8168]]]}},{"type":"Feature","properties":{"name":"Sibio-bio","name_en":"Sibio-bio","admin_level":"7","osm_id":""},"geometry":{"type":"Polygon","coordinates":[[[99.6072,1.9163],[99.602,1.9041],[99.5946,1.8978],[99.5904,1.8972],[99.5838,1.9006],[99.5812,1.9063],[99.5757,1.9113],[99.5669,1.912],[99.5642,1.9155],[99.5579,1.9184],[99.5552,1.9213],[99.5534,1.9303],[99.5588,1.9346],[99.5676,1.9303],[99.582,1.9297],[99.5859,1.9308],[99.5981,1.9198],[99.6072,1.9163]]]}},{"type":"Feature","properties":{"name":"SiburBur","name_en":"SiburBur","admin_level":"7","osm_id":""},"geometry":{"type":"Polygon","coordinates":[[[99.6371,1.7978],[99.6327,1.8042],[99.6201,1.8107],[99.6163,1.8164],[99.6121,1.8181],[99.6123,1.8233],[99.6158,1.8221],[99.6215,1.814],[99.6346,1.8061],[99.6406,1.7978],[99.6419,1.7891],[99.6394,1.791],[99.6371,1.7978]]]}},{"type":"Feature","properties":{"name":"SigalaGala","name_en":"SigalaGala","admin_level":"7","osm_id":""},"geometry":{"type":"Polygon","coordinates":[[[99.613,1.8463],[99.6144,1.8422],[99.6133,1.8356],[99.6154,1.8276],[99.6115,1.8217],[99.6052,1.8253],[99.6028,1.8331],[99.6068,1.8352],[99.6088,1.8341],[99.6076,1.8539],[99.613,1.8463]]]}},{"type":"Feature","properties":{"name":"Siguga","name_en":"Siguga","admin_level":"7","osm_id":""},"geometry":{"type":"Polygon","coordinates":[[[99.6496,1.9097],[99.6535,1.9073],[99.6526,1.8982],[99.6423,1.8831],[99.6423,1.8807],[99.637,1.879],[99.6333,1.8896],[99.6341,1.898],[99.6294,1.9024],[99.6335,1.9035],[99.6355,1.9096],[99.6414,1.9146],[99.6496,1.9097]]]}},{"type":"Feature","properties":{"name":"SijantungJae","name_en":"SijantungJae","admin_level":"7","osm_id":""},"geometry":{"type":"Polygon","coordinates":[[[99.6965,1.799],[99.6976,1.7922],[99.6936,1.7912],[99.6906,1.7873],[99.69,1.7825],[99.6863,1.7791],[99.6835,1.7693],[99.6758,1.7638],[99.6722,1.7679],[99.6729,1.7736],[99.686,1.7909],[99.6965,1.799]]]}},{"type":"Feature","properties":{"name":"SijantungJulu","name_en":"SijantungJulu","admin_level":"7","osm_id":""},"geometry":{"type":"Polygon","coordinates":[[[99.7026,1.7696],[99.702,1.7636],[99.7038,1.761],[99.7009,1.7601],[99.6971,1.7621],[99.6944,1.7611],[99.6948,1.7787],[99.7003,1.7858],[99.7046,1.7805],[99.7026,1.7696]]]}},{"type":"Feature","properties":{"name":"Sijara-jara","name_en":"Sijara-jara","admin_level":"7","osm_id":""},"geometry":{"type":"Polygon","coordinates":[[[99.7689,1.9108],[99.7774,1.9162],[99.7756,1.8743],[99.7807,1.8665],[99.7809,1.8602],[99.7854,1.8454],[99.7839,1.8382],[99.7872,1.8293],[99.7812,1.8265],[99.7762,1.8293],[99.7744,1.835],[99.7756,1.8405],[99.7709,1.8598],[99.7699,1.8814],[99.7681,1.8881],[99.7689,1.9108]]]}},{"type":"Feature","properties":{"name":"Sijorang","name_en":"Sijorang","admin_level":"7","osm_id":""},"geometry":{"type":"Polygon","coordinates":[[[99.5903,1.8974],[99.5899,1.8961],[99.5832,1.8947],[99.5699,1.8976],[99.5764,1.9098],[99.5812,1.9063],[99.5838,1.9006],[99.5903,1.8974]]]}},{"type":"Feature","properties":{"name":"Silangge","name_en":"Silangge","admin_level":"7","osm_id":""},"geometry":{"type":"Polygon","coordinates":[[[99.7774,1.9162],[99.7917,1.9271],[99.7868,1.8906],[99.787,1.8765],[99.7909,1.8649],[99.7915,1.8564],[99.796,1.8488],[99.7984,1.836],[99.8051,1.8282],[99.8052,1.8212],[99.7978,1.8227],[99.7945,1.8217],[99.7929,1.8256],[99.7858,1.8276],[99.7872,1.8293],[99.7839,1.8382],[99.7854,1.8454],[99.7809,1.8602],[99.7807,1.8665],[99.7756,1.8743],[99.7774,1.9162]]]}},{"type":"Feature","properties":{"name":"Silogo-logo","name_en":"Silogo-logo","admin_level":"7","osm_id":""},"geometry":{"type":"Polygon","coordinates":[[[99.5652,1.8435],[99.5647,1.8367],[99.5684,1.832],[99.5662,1.8283],[99.5593,1.8398],[99.5652,1.8435]]]}},{"type":"Feature","properties":{"name":"Siloung","name_en":"Siloung","admin_level":"7","osm_id":""},"geometry":{"type":"Polygon","coordinates":[[[99.5802,1.867],[99.5792,1.8683],[99.5733,1.8682],[99.5677,1.8717],[99.5712,1.8733],[99.5712,1.8754],[99.5675,1.8839],[99.5741,1.8835],[99.5828,1.8719],[99.5802,1.867]]]}},{"type":"Feature","properties":{"name":"Simambal","name_en":"Simambal","admin_level":"7","osm_id":""},"geometry":{"type":"Polygon","coordinates":[[[99.5606,1.8878],[99.5635,1.8851],[99.5633,1.8813],[99.5669,1.876],[99.5639,1.8707],[99.5595,1.8715],[99.5586,1.8846],[99.5606,1.8878]]]}},{"type":"Feature","properties":{"name":"SimangambatTua","name_en":"SimangambatTua","admin_level":"7","osm_id":""},"geometry":{"type":"Polygon","coordinates":[[[99.5934,1.7996],[99.5963,1.7972],[99.5983,1.7893],[99.5959,1.7887],[99.5785,1.7933],[99.5684,1.798],[99.5704,1.8065],[99.5803,1.808],[99.5897,1.8007],[99.5934,1.7996]]]}},{"type":"Feature","properties":{"name":"SimaninggirSip","name_en":"SimaninggirSip","admin_level":"7","osm_id":""},"geometry":{"type":"Polygon","coordinates":[[[99.568,1.8243],[99.5741,1.8298],[99.5677,1.8451],[99.572,1.8461],[99.5771,1.831],[99.5798,1.8072],[99.5704,1.8065],[99.568,1.8243]]]}},{"type":"Feature","properties":{"name":"Simanosor","name_en":"Simanosor","admin_level":"7","osm_id":""},"geometry":{"type":"Polygon","coordinates":[[[99.58,1.8524],[99.5847,1.8511],[99.5845,1.8412],[99.5822,1.8375],[99.5861,1.8281],[99.5908,1.8218],[99.5912,1.8141],[99.5946,1.8082],[99.5934,1.7996],[99.5897,1.8007],[99.5855,1.8046],[99.5824,1.8251],[99.5794,1.8336],[99.5794,1.8389],[99.5814,1.843],[99.58,1.8524]]]}},{"type":"Feature","properties":{"name":"Simataniari","name_en":"Simataniari","admin_level":"7","osm_id":""},"geometry":{"type":"Polygon","coordinates":[[[99.5756,1.8508],[99.5775,1.8526],[99.58,1.8524],[99.5814,1.843],[99.5794,1.8389],[99.5794,1.8336],[99.5824,1.8251],[99.5855,1.8046],[99.5803,1.808],[99.5771,1.831],[99.574,1.841],[99.5775,1.8412],[99.5788,1.844],[99.5756,1.8508]]]}},{"type":"Feature","properties":{"name":"SimataniariJae","name_en":"SimataniariJae","admin_level":"7","osm_id":""},"geometry":{"type":"Polygon","coordinates":[[[99.5889,1.8512],[99.5893,1.8363],[99.5956,1.8184],[99.5942,1.8165],[99.5911,1.8163],[99.5908,1.8218],[99.5861,1.8281],[99.5822,1.8375],[99.5845,1.8412],[99.5847,1.8509],[99.5889,1.8512]]]}},{"type":"Feature","properties":{"name":"Simatorkis","name_en":"Simatorkis","admin_level":"7","osm_id":""},"geometry":{"type":"Polygon","coordinates":[[[99.7739,1.8126],[99.7663,1.8186],[99.7599,1.8195],[99.7598,1.8245],[99.7627,1.8352],[99.7623,1.8506],[99.7565,1.8562],[99.755,1.8604],[99.7554,1.8629],[99.7646,1.8696],[99.7695,1.8779],[99.7709,1.8598],[99.7756,1.8405],[99.7744,1.835],[99.7762,1.8293],[99.7812,1.8265],[99.7733,1.8205],[99.7739,1.8126]]]}},{"type":"Feature","properties":{"name":"Sinabongan","name_en":"Sinabongan","admin_level":"7","osm_id":""},"geometry":{"type":"Polygon","coordinates":[[[99.7116,1.8215],[99.7058,1.8187],[99.6953,1.8062],[99.6919,1.8063],[99.6914,1.8083],[99.6844,1.8028],[99.6798,1.8032],[99.6783,1.8065],[99.6973,1.8166],[99.7049,1.8237],[99.7091,1.8238],[99.7116,1.8215]]]}},{"type":"Feature","properties":{"name":"Singanyal","name_en":"Singanyal","admin_level":"7","osm_id":""},"geometry":{"type":"Polygon","coordinates":[[[99.7598,1.8245],[99.7572,1.8275],[99.748,1.8289],[99.7505,1.8476],[99.7457,1.8487],[99.746,1.8513],[99.7536,1.8566],[99.7566,1.8562],[99.7623,1.8506],[99.7627,1.8352],[99.7598,1.8245]]]}},{"type":"Feature","properties":{"name":"Sipiongot","name_en":"Sipiongot","admin_level":"7","osm_id":""},"geometry":{"type":"Polygon","coordinates":[[[99.7029,1.8979],[99.7155,1.8999],[99.7163,1.8961],[99.7155,1.8932],[99.7106,1.8894],[99.7079,1.8806],[99.6953,1.8655],[99.6868,1.8596],[99.6821,1.8427],[99.6642,1.8298],[99.6591,1.8351],[99.6677,1.8382],[99.6756,1.8444],[99.6778,1.8506],[99.6761,1.8586],[99.679,1.8611],[99.6828,1.8698],[99.6929,1.8799],[99.6967,1.8889],[99.7013,1.8919],[99.7029,1.8979]]]}},{"type":"Feature","properties":{"name":"SiragaHutaPadang","name_en":"SiragaHutaPadang","admin_level":"7","osm_id":""},"geometry":{"type":"Polygon","coordinates":[[[99.6491,1.7856],[99.6504,1.7771],[99.648,1.7675],[99.6423,1.7676],[99.6445,1.7722],[99.6443,1.7756],[99.6428,1.7783],[99.6376,1.7797],[99.6333,1.7854],[99.6333,1.7887],[99.6297,1.7958],[99.6376,1.7978],[99.6403,1.7896],[99.645,1.7891],[99.6491,1.7856]]]}},{"type":"Feature","properties":{"name":"Siranap","name_en":"Siranap","admin_level":"7","osm_id":""},"geometry":{"type":"Polygon","coordinates":[[[99.6013,1.8495],[99.6048,1.8505],[99.6075,1.8536],[99.6085,1.8339],[99.6068,1.8352],[99.604,1.8331],[99.6024,1.8336],[99.6013,1.8495]]]}},{"type":"Feature","properties":{"name":"Situmbaga","name_en":"Situmbaga","admin_level":"7","osm_id":""},"geometry":{"type":"Polygon","coordinates":[[[99.6723,1.7246],[99.6697,1.7439],[99.6729,1.7597],[99.677,1.7651],[99.6835,1.7693],[99.6858,1.7756],[99.6867,1.7722],[99.6889,1.7713],[99.6925,1.7654],[99.6944,1.7651],[99.6918,1.7514],[99.6946,1.7402],[99.6942,1.7338],[99.6881,1.7228],[99.6723,1.7246]]]}},{"type":"Feature","properties":{"name":"SungaiDatar","name_en":"SungaiDatar","admin_level":"7","osm_id":""},"geometry":{"type":"Polygon","coordinates":[[[99.7038,1.761],[99.7172,1.7511],[99.7206,1.7417],[99.7317,1.7328],[99.7332,1.7244],[99.7459,1.7189],[99.7385,1.7132],[99.7336,1.7148],[99.7299,1.7106],[99.7265,1.7122],[99.7149,1.7114],[99.7137,1.7126],[99.708,1.7122],[99.7063,1.7163],[99.7021,1.715],[99.6976,1.7169],[99.6942,1.7222],[99.6881,1.7228],[99.6942,1.7338],[99.6946,1.7402],[99.6918,1.7514],[99.6944,1.7611],[99.6971,1.7621],[99.7009,1.7601],[99.7038,1.761]]]}},{"type":"Feature","properties":{"name":"SungePining","name_en":"SungePining","admin_level":"7","osm_id":""},"geometry":{"type":"Polygon","coordinates":[[[99.5545,1.9741],[99.5607,1.9697],[99.5722,1.9677],[99.5761,1.9636],[99.5808,1.9616],[99.5839,1.9621],[99.5884,1.9573],[99.5977,1.9564],[99.5987,1.9521],[99.5912,1.9515],[99.5891,1.9491],[99.5867,1.9312],[99.582,1.9297],[99.5676,1.9303],[99.5588,1.9346],[99.5534,1.9303],[99.5527,1.943],[99.5464,1.9482],[99.5449,1.9538],[99.5496,1.964],[99.5491,1.9699],[99.5545,1.9741]]]}},{"type":"Feature","properties":{"name":"TanjungBaruB","name_en":"TanjungBaruB","admin_level":"7","osm_id":""},"geometry":{"type":"Polygon","coordinates":[[[99.6145,1.8258],[99.6275,1.8136],[99.6414,1.8053],[99.6447,1.7986],[99.6451,1.789],[99.6419,1.7891],[99.6406,1.7978],[99.6346,1.8061],[99.6215,1.814],[99.6158,1.8221],[99.613,1.8235],[99.6145,1.8258]]]}},{"type":"Feature","properties":{"name":"TanjungLongat","name_en":"TanjungLongat","admin_level":"7","osm_id":""},"geometry":{"type":"Polygon","coordinates":[[[99.6953,1.8062],[99.69,1.8017],[99.6886,1.7982],[99.6826,1.796],[99.6758,1.789],[99.6639,1.7716],[99.663,1.768],[99.6595,1.7698],[99.656,1.7686],[99.6581,1.7741],[99.6587,1.7844],[99.6681,1.7914],[99.6683,1.7959],[99.6773,1.8007],[99.6795,1.8034],[99.6844,1.8028],[99.6914,1.8083],[99.6919,1.8063],[99.6953,1.8062]]]}},{"type":"Feature","properties":{"name":"TarutungBolak","name_en":"TarutungBolak","admin_level":"7","osm_id":""},"geometry":{"type":"Polygon","coordinates":[[[99.6257,1.8162],[99.6337,1.8162],[99.6446,1.8085],[99.6509,1.8001],[99.6491,1.7856],[99.6451,1.789],[99.6447,1.7986],[99.6414,1.8053],[99.6275,1.8136],[99.6257,1.8162]]]}}]}