{"type":"FeatureCollection","metadata":{"parent_osm_id":"gid_IDN_9_20_1_1","parent_name":"Ciawigebang","parent_name_1":"JawaBarat","parent_gid":"IDN.9.20.1_1","parent_level":"6","child_level":"7","count":24,"source":"GADM 4.1","generated":"2026-05-09"},"features":[{"type":"Feature","properties":{"name":"Ciawigebang","name_en":"Ciawigebang","admin_level":"7","osm_id":""},"geometry":{"type":"Polygon","coordinates":[[[108.5644,-6.9604],[108.5793,-6.9672],[108.5846,-6.9677],[108.5864,-6.9699],[108.5887,-6.9688],[108.595,-6.9696],[108.5943,-6.9722],[108.5913,-6.9715],[108.5904,-6.9743],[108.5987,-6.9794],[108.6013,-6.9799],[108.6048,-6.978],[108.6071,-6.9802],[108.6102,-6.9793],[108.6094,-6.9841],[108.5977,-6.9804],[108.585,-6.9799],[108.5869,-6.976],[108.5771,-6.974],[108.579,-6.9721],[108.5729,-6.9685],[108.5698,-6.9645],[108.5657,-6.9639],[108.5644,-6.9604]]]}},{"type":"Feature","properties":{"name":"Ciawilor","name_en":"Ciawilor","admin_level":"7","osm_id":""},"geometry":{"type":"Polygon","coordinates":[[[108.5873,-6.9689],[108.5876,-6.9702],[108.585,-6.9694],[108.5846,-6.9677],[108.5793,-6.9672],[108.5644,-6.9604],[108.5634,-6.9565],[108.5704,-6.9555],[108.5768,-6.9572],[108.5798,-6.9636],[108.5882,-6.9662],[108.5873,-6.9689]]]}},{"type":"Feature","properties":{"name":"Cigarukgak","name_en":"Cigarukgak","admin_level":"7","osm_id":""},"geometry":{"type":"Polygon","coordinates":[[[108.5918,-6.9516],[108.5981,-6.9356],[108.6051,-6.9353],[108.6068,-6.9412],[108.6102,-6.9424],[108.6053,-6.9473],[108.6029,-6.9535],[108.5982,-6.9547],[108.5918,-6.9516]]]}},{"type":"Feature","properties":{"name":"Cihaur","name_en":"Cihaur","admin_level":"7","osm_id":""},"geometry":{"type":"Polygon","coordinates":[[[108.5762,-6.957],[108.5704,-6.9555],[108.564,-6.9564],[108.5642,-6.9514],[108.5688,-6.9434],[108.5678,-6.9418],[108.5689,-6.9398],[108.5725,-6.9404],[108.5741,-6.9457],[108.5769,-6.9475],[108.5771,-6.9494],[108.5817,-6.95],[108.5816,-6.9544],[108.5792,-6.9541],[108.5789,-6.9565],[108.5762,-6.957]]]}},{"type":"Feature","properties":{"name":"Cihirup","name_en":"Cihirup","admin_level":"7","osm_id":""},"geometry":{"type":"Polygon","coordinates":[[[108.6491,-6.9046],[108.6521,-6.9045],[108.6536,-6.9019],[108.6559,-6.9018],[108.655,-6.9044],[108.6564,-6.9068],[108.6607,-6.9129],[108.6657,-6.9167],[108.6629,-6.9223],[108.6539,-6.923],[108.6497,-6.9275],[108.6419,-6.9265],[108.6353,-6.9295],[108.6336,-6.9321],[108.6294,-6.9317],[108.6284,-6.933],[108.6227,-6.9319],[108.6225,-6.9304],[108.6173,-6.9312],[108.6131,-6.9295],[108.615,-6.9181],[108.6169,-6.9163],[108.6137,-6.9129],[108.6129,-6.9138],[108.6126,-6.9118],[108.6156,-6.908],[108.6214,-6.9087],[108.6277,-6.9069],[108.6391,-6.9111],[108.6454,-6.9089],[108.6491,-6.9046]]]}},{"type":"Feature","properties":{"name":"Cijagamulya","name_en":"Cijagamulya","admin_level":"7","osm_id":""},"geometry":{"type":"Polygon","coordinates":[[[108.5556,-6.9694],[108.5575,-6.973],[108.5553,-6.9813],[108.5517,-6.9787],[108.5506,-6.9746],[108.5487,-6.9739],[108.5556,-6.9694]]]}},{"type":"Feature","properties":{"name":"Cikubangmulya","name_en":"Cikubangmulya","admin_level":"7","osm_id":""},"geometry":{"type":"Polygon","coordinates":[[[108.6131,-6.9295],[108.6173,-6.9312],[108.6225,-6.9304],[108.6227,-6.9319],[108.6271,-6.9331],[108.6294,-6.9317],[108.6336,-6.9321],[108.6355,-6.9357],[108.633,-6.9401],[108.6234,-6.9396],[108.6194,-6.9455],[108.6192,-6.9423],[108.6121,-6.9332],[108.6131,-6.9295]]]}},{"type":"Feature","properties":{"name":"Ciomas","name_en":"Ciomas","admin_level":"7","osm_id":""},"geometry":{"type":"Polygon","coordinates":[[[108.5555,-6.9803],[108.5575,-6.973],[108.5556,-6.9694],[108.5603,-6.9704],[108.5686,-6.9753],[108.5593,-6.9832],[108.559,-6.9813],[108.5555,-6.9803]]]}},{"type":"Feature","properties":{"name":"Ciputat","name_en":"Ciputat","admin_level":"7","osm_id":""},"geometry":{"type":"Polygon","coordinates":[[[108.5729,-6.9685],[108.579,-6.9721],[108.5771,-6.974],[108.5869,-6.976],[108.585,-6.9799],[108.5903,-6.9811],[108.5893,-6.9841],[108.5829,-6.9877],[108.5774,-6.9846],[108.5804,-6.9789],[108.5784,-6.9782],[108.5794,-6.9754],[108.5766,-6.9755],[108.572,-6.9716],[108.5729,-6.9685]]]}},{"type":"Feature","properties":{"name":"Dukuhdalem","name_en":"Dukuhdalem","admin_level":"7","osm_id":""},"geometry":{"type":"Polygon","coordinates":[[[108.5556,-6.9694],[108.5538,-6.9678],[108.5595,-6.9654],[108.5673,-6.9712],[108.5695,-6.9749],[108.5556,-6.9694]]]}},{"type":"Feature","properties":{"name":"Geresik","name_en":"Geresik","admin_level":"7","osm_id":""},"geometry":{"type":"Polygon","coordinates":[[[108.5903,-6.9811],[108.5914,-6.9794],[108.5977,-6.9804],[108.6094,-6.9841],[108.6088,-6.9819],[108.6109,-6.9804],[108.6157,-6.9871],[108.6144,-6.9946],[108.6125,-6.9954],[108.6077,-6.9924],[108.6006,-6.9909],[108.5958,-6.9914],[108.5974,-6.9849],[108.59,-6.983],[108.5903,-6.9811]]]}},{"type":"Feature","properties":{"name":"Kadurama","name_en":"Kadurama","admin_level":"7","osm_id":""},"geometry":{"type":"Polygon","coordinates":[[[108.6048,-6.978],[108.6013,-6.9799],[108.5964,-6.9788],[108.5901,-6.9727],[108.5926,-6.9708],[108.5937,-6.9722],[108.5957,-6.9718],[108.6029,-6.9745],[108.6048,-6.978]]]}},{"type":"Feature","properties":{"name":"Kapandayan","name_en":"Kapandayan","admin_level":"7","osm_id":""},"geometry":{"type":"Polygon","coordinates":[[[108.5733,-6.9725],[108.5766,-6.9755],[108.5794,-6.9754],[108.5784,-6.9782],[108.5804,-6.9791],[108.5793,-6.9815],[108.5745,-6.9797],[108.5734,-6.9808],[108.5705,-6.978],[108.5696,-6.9746],[108.5733,-6.9725]]]}},{"type":"Feature","properties":{"name":"Karangkamulyan","name_en":"Karangkamulyan","admin_level":"7","osm_id":""},"geometry":{"type":"Polygon","coordinates":[[[108.5882,-6.9662],[108.5798,-6.9636],[108.5765,-6.9564],[108.5784,-6.9568],[108.5792,-6.9541],[108.5824,-6.9533],[108.5858,-6.9559],[108.5881,-6.9527],[108.5906,-6.9542],[108.5897,-6.9588],[108.5861,-6.9633],[108.5882,-6.9662]]]}},{"type":"Feature","properties":{"name":"Keramatmulya","name_en":"Keramatmulya","admin_level":"7","osm_id":""},"geometry":{"type":"Polygon","coordinates":[[[108.5958,-6.9914],[108.6006,-6.9909],[108.6077,-6.9924],[108.6125,-6.9954],[108.6144,-6.9946],[108.6091,-7.0084],[108.606,-7.0094],[108.605,-7.0076],[108.6028,-7.0079],[108.5988,-7.0022],[108.5966,-7.0019],[108.5949,-6.9961],[108.5922,-6.9958],[108.5939,-6.992],[108.5958,-6.9914]]]}},{"type":"Feature","properties":{"name":"Lebaksiuh","name_en":"Lebaksiuh","admin_level":"7","osm_id":""},"geometry":{"type":"Polygon","coordinates":[[[108.5829,-6.9877],[108.59,-6.983],[108.5974,-6.9849],[108.5958,-6.9914],[108.5926,-6.9937],[108.5827,-6.9902],[108.5829,-6.9877]]]}},{"type":"Feature","properties":{"name":"Mekarjaya","name_en":"Mekarjaya","admin_level":"7","osm_id":""},"geometry":{"type":"Polygon","coordinates":[[[108.5986,-6.9352],[108.5904,-6.9541],[108.5881,-6.9527],[108.5858,-6.9559],[108.5821,-6.9535],[108.5817,-6.95],[108.577,-6.9493],[108.5725,-6.9404],[108.5694,-6.9398],[108.5643,-6.931],[108.5658,-6.9303],[108.5756,-6.934],[108.5783,-6.9372],[108.5843,-6.939],[108.5904,-6.9357],[108.5986,-6.9352]]]}},{"type":"Feature","properties":{"name":"Padarama","name_en":"Padarama","admin_level":"7","osm_id":""},"geometry":{"type":"Polygon","coordinates":[[[108.6017,-6.9079],[108.5989,-6.929],[108.5925,-6.9297],[108.5917,-6.9144],[108.5933,-6.9117],[108.6017,-6.9079]]]}},{"type":"Feature","properties":{"name":"Pajawanlor","name_en":"Pajawanlor","admin_level":"7","osm_id":""},"geometry":{"type":"Polygon","coordinates":[[[108.5774,-6.9846],[108.5829,-6.9877],[108.5827,-6.9902],[108.5813,-6.9905],[108.5824,-6.9927],[108.5763,-6.9904],[108.5774,-6.9846]]]}},{"type":"Feature","properties":{"name":"Pamijahan","name_en":"Pamijahan","admin_level":"7","osm_id":""},"geometry":{"type":"Polygon","coordinates":[[[108.595,-6.9696],[108.5873,-6.9689],[108.5882,-6.9662],[108.5861,-6.9633],[108.5897,-6.9588],[108.5918,-6.9516],[108.5955,-6.9541],[108.6004,-6.9548],[108.599,-6.9621],[108.595,-6.9696]]]}},{"type":"Feature","properties":{"name":"Pangkalan","name_en":"Pangkalan","admin_level":"7","osm_id":""},"geometry":{"type":"Polygon","coordinates":[[[108.5655,-6.9635],[108.5698,-6.9645],[108.5727,-6.9673],[108.5723,-6.9737],[108.5696,-6.9746],[108.5673,-6.9712],[108.5611,-6.9671],[108.5655,-6.9635]]]}},{"type":"Feature","properties":{"name":"Sidaraja","name_en":"Sidaraja","admin_level":"7","osm_id":""},"geometry":{"type":"Polygon","coordinates":[[[108.5593,-6.9832],[108.5695,-6.9749],[108.5734,-6.9808],[108.5745,-6.9797],[108.5793,-6.9815],[108.5764,-6.9873],[108.5762,-6.9901],[108.5782,-6.9913],[108.5759,-6.9924],[108.5673,-6.9893],[108.5662,-6.9911],[108.5641,-6.9903],[108.5655,-6.9887],[108.5615,-6.9881],[108.5593,-6.9832]]]}},{"type":"Feature","properties":{"name":"Sukadana","name_en":"Sukadana","admin_level":"7","osm_id":""},"geometry":{"type":"Polygon","coordinates":[[[108.612,-6.8964],[108.6114,-6.9005],[108.6277,-6.9069],[108.6214,-6.9087],[108.6161,-6.9078],[108.6126,-6.9118],[108.6127,-6.9136],[108.6137,-6.9129],[108.6169,-6.9168],[108.615,-6.9181],[108.6121,-6.9332],[108.6192,-6.9423],[108.6194,-6.9455],[108.6176,-6.9463],[108.6068,-6.9412],[108.6051,-6.9353],[108.5997,-6.9357],[108.5978,-6.9339],[108.6001,-6.925],[108.6003,-6.914],[108.6023,-6.9112],[108.6017,-6.9079],[108.6055,-6.9072],[108.6048,-6.9056],[108.6074,-6.9031],[108.6082,-6.8978],[108.612,-6.8964]]]}},{"type":"Feature","properties":{"name":"Sukaraja","name_en":"Sukaraja","admin_level":"7","osm_id":""},"geometry":{"type":"Polygon","coordinates":[[[108.5986,-6.9352],[108.5904,-6.9357],[108.5843,-6.939],[108.5783,-6.9372],[108.5756,-6.934],[108.5647,-6.9301],[108.5647,-6.9289],[108.574,-6.9217],[108.5813,-6.9197],[108.591,-6.9141],[108.5922,-6.9149],[108.5921,-6.9293],[108.5988,-6.9292],[108.5986,-6.9352]]]}}]}