{"type":"FeatureCollection","metadata":{"parent_osm_id":"gid_IDN_9_22_7_1","parent_name":"Jatiluhur","parent_name_1":"JawaBarat","parent_gid":"IDN.9.22.7_1","parent_level":"6","child_level":"7","count":10,"source":"GADM 4.1","generated":"2026-05-08"},"features":[{"type":"Feature","properties":{"name":"Bunder","name_en":"Bunder","admin_level":"7","osm_id":""},"geometry":{"type":"Polygon","coordinates":[[[107.4138,-6.5684],[107.4129,-6.5657],[107.4169,-6.5603],[107.4196,-6.5594],[107.422,-6.5614],[107.4227,-6.5594],[107.4241,-6.5598],[107.4245,-6.5525],[107.4264,-6.5494],[107.4243,-6.547],[107.425,-6.5446],[107.4231,-6.5437],[107.4281,-6.5427],[107.4278,-6.5405],[107.4312,-6.5424],[107.4307,-6.5449],[107.4342,-6.5472],[107.4313,-6.5513],[107.4344,-6.5512],[107.4352,-6.5593],[107.4315,-6.5645],[107.4301,-6.5632],[107.426,-6.5676],[107.4138,-6.5684]]]}},{"type":"Feature","properties":{"name":"Cibinong","name_en":"Cibinong","admin_level":"7","osm_id":""},"geometry":{"type":"Polygon","coordinates":[[[107.4196,-6.5594],[107.4169,-6.5603],[107.4129,-6.5659],[107.4148,-6.5707],[107.4139,-6.5724],[107.4196,-6.5751],[107.4218,-6.5791],[107.42,-6.5799],[107.4187,-6.5851],[107.4167,-6.5866],[107.4176,-6.5918],[107.4116,-6.5901],[107.4061,-6.5906],[107.4059,-6.5867],[107.4076,-6.5869],[107.4102,-6.5835],[107.4092,-6.575],[107.411,-6.5731],[107.4081,-6.5714],[107.409,-6.5697],[107.4001,-6.5719],[107.3984,-6.5703],[107.4037,-6.5696],[107.4044,-6.5675],[107.4028,-6.5661],[107.4048,-6.5619],[107.4013,-6.5539],[107.4066,-6.5518],[107.4104,-6.5547],[107.4137,-6.5534],[107.4159,-6.5548],[107.4161,-6.5573],[107.4196,-6.5594]]]}},{"type":"Feature","properties":{"name":"Cikaobandung","name_en":"Cikaobandung","admin_level":"7","osm_id":""},"geometry":{"type":"Polygon","coordinates":[[[107.4127,-6.5065],[107.4116,-6.5102],[107.4143,-6.5125],[107.4153,-6.5174],[107.4069,-6.5201],[107.4084,-6.5248],[107.4069,-6.5257],[107.4049,-6.5235],[107.4022,-6.5239],[107.3965,-6.5132],[107.3939,-6.5158],[107.3892,-6.5158],[107.3917,-6.5029],[107.3934,-6.5027],[107.3961,-6.5065],[107.4038,-6.5019],[107.4038,-6.5047],[107.4088,-6.5093],[107.4075,-6.5064],[107.4085,-6.5048],[107.4107,-6.5046],[107.4127,-6.5065]]]}},{"type":"Feature","properties":{"name":"Cilegong","name_en":"Cilegong","admin_level":"7","osm_id":""},"geometry":{"type":"Polygon","coordinates":[[[107.4255,-6.5312],[107.428,-6.5307],[107.4293,-6.532],[107.4281,-6.5427],[107.4211,-6.5443],[107.4134,-6.5386],[107.4085,-6.5436],[107.4044,-6.5401],[107.4096,-6.5382],[107.4112,-6.5336],[107.4132,-6.5348],[107.4169,-6.5319],[107.4255,-6.5312]]]}},{"type":"Feature","properties":{"name":"Cisalada","name_en":"Cisalada","admin_level":"7","osm_id":""},"geometry":{"type":"Polygon","coordinates":[[[107.4355,-6.5779],[107.4401,-6.5719],[107.4459,-6.5713],[107.451,-6.5788],[107.45,-6.583],[107.4431,-6.5897],[107.4359,-6.5913],[107.4372,-6.5797],[107.4355,-6.5779]]]}},{"type":"Feature","properties":{"name":"Jatiluhur","name_en":"Jatiluhur","admin_level":"7","osm_id":""},"geometry":{"type":"Polygon","coordinates":[[[107.4153,-6.5174],[107.4187,-6.5178],[107.4188,-6.5235],[107.4207,-6.5254],[107.4223,-6.5254],[107.4242,-6.522],[107.4266,-6.5237],[107.4255,-6.5312],[107.4169,-6.5319],[107.4132,-6.5348],[107.4112,-6.5336],[107.4096,-6.5382],[107.4046,-6.5401],[107.401,-6.5387],[107.3982,-6.5401],[107.395,-6.538],[107.3932,-6.5394],[107.3903,-6.5371],[107.3894,-6.5344],[107.3914,-6.532],[107.3985,-6.5349],[107.4046,-6.5329],[107.4066,-6.5258],[107.4084,-6.5248],[107.4066,-6.5204],[107.4153,-6.5174]]]}},{"type":"Feature","properties":{"name":"Jatimekar","name_en":"Jatimekar","admin_level":"7","osm_id":""},"geometry":{"type":"Polygon","coordinates":[[[107.3892,-6.5158],[107.3936,-6.5159],[107.3953,-6.5131],[107.3971,-6.5137],[107.3983,-6.5186],[107.4006,-6.5198],[107.4022,-6.5239],[107.4049,-6.5235],[107.4066,-6.5258],[107.4046,-6.5329],[107.3985,-6.5349],[107.3914,-6.532],[107.3944,-6.529],[107.3895,-6.5253],[107.393,-6.525],[107.3891,-6.5239],[107.3892,-6.5158]]]}},{"type":"Feature","properties":{"name":"Kembangkuning","name_en":"Kembangkuning","admin_level":"7","osm_id":""},"geometry":{"type":"Polygon","coordinates":[[[107.423,-6.5439],[107.425,-6.5446],[107.4243,-6.547],[107.4264,-6.5494],[107.4245,-6.5525],[107.4241,-6.5598],[107.4227,-6.5594],[107.422,-6.5614],[107.4161,-6.5573],[107.4143,-6.5537],[107.4123,-6.5549],[107.4085,-6.5539],[107.4058,-6.5494],[107.3953,-6.5483],[107.3916,-6.5452],[107.3913,-6.5423],[107.386,-6.5418],[107.3898,-6.5418],[107.3952,-6.538],[107.3984,-6.5401],[107.4035,-6.5388],[107.4085,-6.5436],[107.4134,-6.5386],[107.4186,-6.5433],[107.423,-6.5439]]]}},{"type":"Feature","properties":{"name":"Mekargalih","name_en":"Mekargalih","admin_level":"7","osm_id":""},"geometry":{"type":"Polygon","coordinates":[[[107.4138,-6.5684],[107.4253,-6.5679],[107.4301,-6.5632],[107.4315,-6.5645],[107.4336,-6.5614],[107.4356,-6.5628],[107.4364,-6.5668],[107.4408,-6.567],[107.4459,-6.5713],[107.4401,-6.5719],[107.4355,-6.5779],[107.4303,-6.5758],[107.4209,-6.5789],[107.4196,-6.5751],[107.4139,-6.5724],[107.4138,-6.5684]]]}},{"type":"Feature","properties":{"name":"Parakanlima","name_en":"Parakanlima","admin_level":"7","osm_id":""},"geometry":{"type":"Polygon","coordinates":[[[107.4359,-6.5913],[107.4431,-6.5897],[107.45,-6.583],[107.4479,-6.5919],[107.4508,-6.5936],[107.4495,-6.5959],[107.4497,-6.6044],[107.4539,-6.606],[107.4586,-6.6036],[107.4617,-6.6061],[107.4595,-6.6108],[107.461,-6.6167],[107.4579,-6.6182],[107.4621,-6.6193],[107.4632,-6.6213],[107.4602,-6.6223],[107.4597,-6.6247],[107.4529,-6.6271],[107.4514,-6.6292],[107.449,-6.6291],[107.4463,-6.619],[107.4382,-6.6168],[107.4386,-6.6078],[107.4332,-6.6059],[107.4336,-6.5967],[107.4323,-6.5945],[107.4332,-6.5922],[107.436,-6.5936],[107.4359,-6.5913]]]}}]}