{"type":"FeatureCollection","metadata":{"parent_osm_id":"gid_IDN_21_18_1_1","parent_name":"KatikutanaSelatan","parent_name_1":"NusaTenggaraTimur","parent_gid":"IDN.21.18.1_1","parent_level":"6","child_level":"7","count":7,"source":"GADM 4.1","generated":"2026-05-08"},"features":[{"type":"Feature","properties":{"name":"Dameka","name_en":"Dameka","admin_level":"7","osm_id":""},"geometry":{"type":"Polygon","coordinates":[[[119.5089,-9.625],[119.5308,-9.6223],[119.5473,-9.625],[119.5473,-9.6327],[119.5449,-9.64],[119.5463,-9.6492],[119.5486,-9.6511],[119.5447,-9.6545],[119.5405,-9.662],[119.5362,-9.6588],[119.5346,-9.6484],[119.5297,-9.6348],[119.5215,-9.6361],[119.5172,-9.6321],[119.5165,-9.6294],[119.5106,-9.6278],[119.5089,-9.625]]]}},{"type":"Feature","properties":{"name":"KondaMaloba","name_en":"KondaMaloba","admin_level":"7","osm_id":""},"geometry":{"type":"Polygon","coordinates":[[[119.5834,-9.7619],[119.5854,-9.7555],[119.5841,-9.7532],[119.5872,-9.7495],[119.5859,-9.7481],[119.5895,-9.7405],[119.5906,-9.728],[119.5924,-9.7246],[119.5856,-9.7112],[119.5851,-9.7016],[119.5933,-9.6866],[119.5924,-9.6799],[119.594,-9.6706],[119.594,-9.6638],[119.5918,-9.6646],[119.5893,-9.661],[119.5897,-9.6534],[119.5862,-9.6453],[119.5916,-9.6379],[119.5899,-9.6352],[119.5946,-9.6323],[119.593,-9.6313],[119.5928,-9.6277],[119.59,-9.6254],[119.5974,-9.6176],[119.6068,-9.6163],[119.6115,-9.6214],[119.6133,-9.6198],[119.6173,-9.6216],[119.6218,-9.6416],[119.6258,-9.6486],[119.6301,-9.6508],[119.6334,-9.6581],[119.6339,-9.6658],[119.6346,-9.6649],[119.636,-9.6666],[119.6369,-9.6712],[119.6392,-9.673],[119.6421,-9.6726],[119.6471,-9.6756],[119.6518,-9.676],[119.6521,-9.6855],[119.6605,-9.6904],[119.6637,-9.6973],[119.6761,-9.6979],[119.6944,-9.7079],[119.7275,-9.7094],[119.7278,-9.7155],[119.7325,-9.7179],[119.7384,-9.7272],[119.7412,-9.7265],[119.7488,-9.7315],[119.7497,-9.7342],[119.7426,-9.7432],[119.7378,-9.7561],[119.7369,-9.779],[119.7341,-9.7914],[119.736,-9.8068],[119.7317,-9.8227],[119.732,-9.8405],[119.7216,-9.8442],[119.7137,-9.8382],[119.6914,-9.8336],[119.6857,-9.8302],[119.6748,-9.8287],[119.6784,-9.8289],[119.6783,-9.8274],[119.6801,-9.8286],[119.6828,-9.8271],[119.6829,-9.8243],[119.6884,-9.8211],[119.69,-9.8166],[119.6887,-9.8127],[119.6851,-9.8119],[119.6866,-9.8073],[119.6841,-9.8036],[119.6827,-9.8047],[119.681,-9.8037],[119.6807,-9.8049],[119.6789,-9.8033],[119.6746,-9.8036],[119.6755,-9.8018],[119.6724,-9.7972],[119.6773,-9.7961],[119.6787,-9.7902],[119.6731,-9.7861],[119.673,-9.7831],[119.6711,-9.7809],[119.6611,-9.7769],[119.6535,-9.7763],[119.65,-9.7786],[119.6496,-9.7826],[119.647,-9.7833],[119.6467,-9.7855],[119.65,-9.7885],[119.6474,-9.79],[119.646,-9.7934],[119.6422,-9.7924],[119.6279,-9.7998],[119.6211,-9.8009],[119.6179,-9.7986],[119.6142,-9.79],[119.6203,-9.7916],[119.6221,-9.7899],[119.6225,-9.788],[119.6199,-9.7863],[119.6199,-9.7839],[119.6237,-9.7848],[119.6279,-9.778],[119.6255,-9.7751],[119.6284,-9.7726],[119.6266,-9.767],[119.6161,-9.7636],[119.6143,-9.7646],[119.6132,-9.7701],[119.6086,-9.7754],[119.6056,-9.7738],[119.6019,-9.777],[119.5949,-9.7791],[119.595,-9.7776],[119.5938,-9.7786],[119.5933,-9.7772],[119.5961,-9.7738],[119.5955,-9.7726],[119.5918,-9.7739],[119.5904,-9.7721],[119.5899,-9.7733],[119.5899,-9.7717],[119.5869,-9.7699],[119.5879,-9.7663],[119.5834,-9.7619]]]}},{"type":"Feature","properties":{"name":"Malinjak","name_en":"Malinjak","admin_level":"7","osm_id":""},"geometry":{"type":"Polygon","coordinates":[[[119.571,-9.768],[119.5661,-9.7688],[119.5583,-9.7638],[119.5612,-9.7589],[119.5615,-9.7549],[119.5665,-9.7496],[119.5684,-9.733],[119.568,-9.7205],[119.5613,-9.7075],[119.5602,-9.679],[119.5572,-9.6726],[119.5499,-9.6646],[119.5513,-9.6624],[119.5506,-9.6606],[119.5566,-9.659],[119.5542,-9.652],[119.5572,-9.6518],[119.5561,-9.6489],[119.5604,-9.6456],[119.5567,-9.6413],[119.5599,-9.6356],[119.558,-9.6344],[119.5593,-9.6321],[119.555,-9.6176],[119.5608,-9.6122],[119.5615,-9.6096],[119.5647,-9.6089],[119.5726,-9.6101],[119.5704,-9.6223],[119.5734,-9.6312],[119.5724,-9.6322],[119.577,-9.6846],[119.5741,-9.7063],[119.5797,-9.7238],[119.5777,-9.7415],[119.571,-9.768]]]}},{"type":"Feature","properties":{"name":"Manurara","name_en":"Manurara","admin_level":"7","osm_id":""},"geometry":{"type":"Polygon","coordinates":[[[119.4812,-9.6574],[119.4866,-9.6564],[119.4874,-9.6539],[119.4914,-9.6513],[119.5046,-9.6465],[119.5223,-9.6463],[119.529,-9.6516],[119.5358,-9.6702],[119.5468,-9.6824],[119.5479,-9.687],[119.5528,-9.7391],[119.5527,-9.7518],[119.5506,-9.7614],[119.5484,-9.7575],[119.5494,-9.7536],[119.5467,-9.7519],[119.543,-9.7527],[119.5414,-9.75],[119.5403,-9.7419],[119.5069,-9.7411],[119.5062,-9.7382],[119.5079,-9.7334],[119.5067,-9.7296],[119.51,-9.7286],[119.5093,-9.7264],[119.5108,-9.7267],[119.52,-9.7108],[119.5322,-9.6976],[119.5348,-9.6939],[119.5344,-9.6912],[119.5272,-9.6851],[119.5151,-9.6809],[119.502,-9.6803],[119.4989,-9.6815],[119.4974,-9.6795],[119.4925,-9.6788],[119.4829,-9.6839],[119.4804,-9.682],[119.4779,-9.6834],[119.475,-9.6806],[119.4709,-9.6805],[119.4694,-9.6765],[119.4727,-9.6746],[119.4711,-9.6701],[119.4763,-9.6656],[119.4812,-9.6574]]]}},{"type":"Feature","properties":{"name":"TanaModu","name_en":"TanaModu","admin_level":"7","osm_id":""},"geometry":{"type":"Polygon","coordinates":[[[119.5933,-9.6211],[119.59,-9.6254],[119.5928,-9.6277],[119.593,-9.6313],[119.5946,-9.6323],[119.5899,-9.6352],[119.5916,-9.6379],[119.5862,-9.6453],[119.5897,-9.6534],[119.5893,-9.661],[119.5918,-9.6646],[119.594,-9.6638],[119.5924,-9.6799],[119.5935,-9.6849],[119.5906,-9.693],[119.5851,-9.7016],[119.5856,-9.7112],[119.5924,-9.7246],[119.5906,-9.728],[119.5895,-9.7405],[119.5859,-9.7481],[119.5872,-9.7495],[119.5841,-9.7532],[119.5854,-9.7555],[119.5834,-9.7619],[119.579,-9.7629],[119.5774,-9.7663],[119.5745,-9.7656],[119.571,-9.768],[119.5777,-9.7415],[119.5797,-9.7238],[119.5741,-9.7063],[119.577,-9.6846],[119.5724,-9.6322],[119.5734,-9.6312],[119.5704,-9.6223],[119.5726,-9.6101],[119.5808,-9.6102],[119.5846,-9.6118],[119.5898,-9.6199],[119.5933,-9.6211]]]}},{"type":"Feature","properties":{"name":"WaiLawa","name_en":"WaiLawa","admin_level":"7","osm_id":""},"geometry":{"type":"Polygon","coordinates":[[[119.5405,-9.662],[119.5447,-9.6545],[119.5486,-9.6511],[119.5463,-9.6492],[119.5449,-9.64],[119.5473,-9.6327],[119.5473,-9.625],[119.5308,-9.6223],[119.5089,-9.625],[119.5056,-9.621],[119.5379,-9.6119],[119.5471,-9.6109],[119.5508,-9.612],[119.555,-9.6176],[119.5593,-9.6321],[119.558,-9.6343],[119.5599,-9.6358],[119.5568,-9.6391],[119.5567,-9.6413],[119.5604,-9.6456],[119.5561,-9.6489],[119.5572,-9.6518],[119.5543,-9.6517],[119.5566,-9.659],[119.5506,-9.6606],[119.5504,-9.6658],[119.5405,-9.662]]]}},{"type":"Feature","properties":{"name":"WaiManu","name_en":"WaiManu","admin_level":"7","osm_id":""},"geometry":{"type":"Polygon","coordinates":[[[119.4874,-9.6539],[119.4849,-9.65],[119.4852,-9.6445],[119.4881,-9.64],[119.4888,-9.6348],[119.4827,-9.6302],[119.4828,-9.6244],[119.5056,-9.621],[119.5106,-9.6278],[119.5165,-9.6294],[119.5172,-9.6321],[119.5215,-9.6361],[119.5297,-9.6348],[119.5346,-9.6484],[119.5362,-9.6588],[119.5518,-9.6668],[119.5584,-9.6743],[119.5609,-9.6823],[119.5613,-9.7075],[119.5675,-9.718],[119.5684,-9.733],[119.5664,-9.75],[119.5615,-9.7549],[119.5591,-9.7627],[119.5557,-9.7654],[119.5532,-9.766],[119.5506,-9.7614],[119.5527,-9.7518],[119.5528,-9.7391],[119.5468,-9.6824],[119.5358,-9.6702],[119.529,-9.6516],[119.5223,-9.6463],[119.5085,-9.646],[119.4914,-9.6513],[119.4874,-9.6539]]]}}]}