{"type":"FeatureCollection","metadata":{"parent_osm_id":"17757987","parent_name":"Kaliwungu","parent_name_1":"JawaTengah","parent_gid":"IDN.10.28.10_1","parent_level":"6","child_level":"7","count":11,"source":"GADM 4.1","generated":"2026-05-09"},"features":[{"type":"Feature","properties":{"name":"Jetis","name_en":"Jetis","admin_level":"7","osm_id":""},"geometry":{"type":"Polygon","coordinates":[[[110.5854,-7.4472],[110.5844,-7.4488],[110.5942,-7.4508],[110.6002,-7.4586],[110.6031,-7.4583],[110.6059,-7.4604],[110.6106,-7.4566],[110.6123,-7.4572],[110.6137,-7.4548],[110.617,-7.4592],[110.6199,-7.459],[110.6201,-7.4614],[110.6221,-7.4611],[110.6271,-7.4649],[110.6245,-7.4654],[110.6236,-7.4679],[110.6188,-7.4657],[110.6136,-7.4655],[110.6067,-7.4612],[110.6059,-7.4654],[110.6018,-7.4654],[110.6,-7.465],[110.599,-7.4622],[110.5864,-7.4601],[110.5875,-7.4564],[110.5857,-7.4552],[110.586,-7.4524],[110.5838,-7.452],[110.5855,-7.4513],[110.5785,-7.4495],[110.5817,-7.4468],[110.5854,-7.4472]]]}},{"type":"Feature","properties":{"name":"Kaliwungu","name_en":"Kaliwungu","admin_level":"7","osm_id":""},"geometry":{"type":"Polygon","coordinates":[[[110.6488,-7.4479],[110.6452,-7.4518],[110.6391,-7.4535],[110.6319,-7.4581],[110.6292,-7.4644],[110.6312,-7.466],[110.6311,-7.4686],[110.6289,-7.4696],[110.6256,-7.4754],[110.6334,-7.4821],[110.6212,-7.4799],[110.6206,-7.4746],[110.6147,-7.4739],[110.6143,-7.4696],[110.6097,-7.4721],[110.6046,-7.4693],[110.5983,-7.4702],[110.5997,-7.4635],[110.6,-7.465],[110.6059,-7.4654],[110.6067,-7.4612],[110.6136,-7.4655],[110.6188,-7.4657],[110.6236,-7.4679],[110.6245,-7.4654],[110.6262,-7.4659],[110.6274,-7.4639],[110.6201,-7.4614],[110.6199,-7.459],[110.617,-7.4592],[110.6166,-7.4587],[110.6213,-7.4578],[110.6228,-7.4566],[110.6223,-7.4549],[110.6238,-7.4553],[110.6283,-7.4521],[110.6379,-7.4521],[110.6444,-7.4464],[110.6488,-7.4479]]]}},{"type":"Feature","properties":{"name":"Kener","name_en":"Kener","admin_level":"7","osm_id":""},"geometry":{"type":"Polygon","coordinates":[[[110.634,-7.4915],[110.6334,-7.4901],[110.6293,-7.4901],[110.6297,-7.4868],[110.6328,-7.4872],[110.6305,-7.4858],[110.6312,-7.4849],[110.641,-7.4905],[110.6392,-7.4953],[110.634,-7.4915]]]}},{"type":"Feature","properties":{"name":"Kradenan","name_en":"Kradenan","admin_level":"7","osm_id":""},"geometry":{"type":"Polygon","coordinates":[[[110.6312,-7.466],[110.6392,-7.4724],[110.6407,-7.47],[110.6494,-7.4706],[110.6459,-7.4778],[110.6457,-7.4857],[110.6444,-7.487],[110.6405,-7.4864],[110.6376,-7.4887],[110.6332,-7.4854],[110.6348,-7.4852],[110.6336,-7.4816],[110.6273,-7.4781],[110.6256,-7.4754],[110.6289,-7.4696],[110.6311,-7.4686],[110.6312,-7.466]]]}},{"type":"Feature","properties":{"name":"Mukiran","name_en":"Mukiran","admin_level":"7","osm_id":""},"geometry":{"type":"Polygon","coordinates":[[[110.6045,-7.4703],[110.6097,-7.4721],[110.6143,-7.4696],[110.6138,-7.473],[110.6206,-7.4746],[110.6212,-7.4799],[110.6228,-7.48],[110.6134,-7.4838],[110.6128,-7.4825],[110.6023,-7.4806],[110.6009,-7.4757],[110.6036,-7.4741],[110.6045,-7.4703]]]}},{"type":"Feature","properties":{"name":"Pager","name_en":"Pager","admin_level":"7","osm_id":""},"geometry":{"type":"Polygon","coordinates":[[[110.6297,-7.4907],[110.6279,-7.4919],[110.6218,-7.4915],[110.6184,-7.4882],[110.6156,-7.4888],[110.6158,-7.4869],[110.6193,-7.4859],[110.6205,-7.4815],[110.6226,-7.4801],[110.624,-7.4814],[110.6259,-7.4806],[110.6298,-7.4861],[110.6297,-7.4907]]]}},{"type":"Feature","properties":{"name":"Papringan","name_en":"Papringan","admin_level":"7","osm_id":""},"geometry":{"type":"Polygon","coordinates":[[[110.6439,-7.4936],[110.6398,-7.4946],[110.6388,-7.4934],[110.641,-7.4905],[110.6376,-7.4887],[110.6405,-7.4864],[110.6435,-7.4875],[110.6457,-7.4857],[110.6455,-7.4793],[110.6494,-7.4706],[110.6615,-7.4747],[110.6554,-7.4805],[110.6542,-7.4845],[110.6547,-7.4868],[110.6582,-7.4878],[110.6604,-7.4964],[110.6573,-7.4965],[110.6474,-7.4912],[110.6439,-7.4936]]]}},{"type":"Feature","properties":{"name":"Payungan","name_en":"Payungan","admin_level":"7","osm_id":""},"geometry":{"type":"Polygon","coordinates":[[[110.5989,-7.4802],[110.594,-7.4762],[110.5907,-7.4759],[110.59,-7.4726],[110.5864,-7.472],[110.5844,-7.4683],[110.5788,-7.4655],[110.5774,-7.4622],[110.5891,-7.4648],[110.5892,-7.461],[110.599,-7.4622],[110.5983,-7.4702],[110.6045,-7.4703],[110.6036,-7.4741],[110.601,-7.4752],[110.6007,-7.4773],[110.6023,-7.4789],[110.5989,-7.4802]]]}},{"type":"Feature","properties":{"name":"Rogomulyo","name_en":"Rogomulyo","admin_level":"7","osm_id":""},"geometry":{"type":"Polygon","coordinates":[[[110.5956,-7.4532],[110.5975,-7.4541],[110.5998,-7.4478],[110.5918,-7.4441],[110.5938,-7.4419],[110.6037,-7.4412],[110.6061,-7.4468],[110.6089,-7.4476],[110.6112,-7.4459],[110.614,-7.4494],[110.6219,-7.4499],[110.6213,-7.4543],[110.6228,-7.4566],[110.6166,-7.4587],[110.6137,-7.4548],[110.6123,-7.4572],[110.6106,-7.4566],[110.6059,-7.4604],[110.6031,-7.4583],[110.6002,-7.4586],[110.5956,-7.4532]]]}},{"type":"Feature","properties":{"name":"Siwal","name_en":"Siwal","admin_level":"7","osm_id":""},"geometry":{"type":"Polygon","coordinates":[[[110.6044,-7.4895],[110.6025,-7.4891],[110.6021,-7.4904],[110.6013,-7.4889],[110.6018,-7.483],[110.5965,-7.4831],[110.5961,-7.4806],[110.5987,-7.4812],[110.5992,-7.4792],[110.6008,-7.479],[110.6134,-7.4838],[110.6205,-7.4815],[110.6193,-7.4859],[110.6158,-7.4869],[110.615,-7.4896],[110.606,-7.4878],[110.6044,-7.4895]]]}},{"type":"Feature","properties":{"name":"Udanwuh","name_en":"Udanwuh","admin_level":"7","osm_id":""},"geometry":{"type":"Polygon","coordinates":[[[110.6269,-7.4815],[110.6328,-7.4817],[110.6348,-7.4852],[110.6312,-7.4849],[110.6305,-7.4858],[110.6328,-7.4872],[110.6302,-7.4871],[110.6269,-7.4815]]]}}]}