{"type":"FeatureCollection","metadata":{"parent_osm_id":"gid_IDN_23_6_5_1","parent_name":"Sugapa","parent_name_1":"Papua","parent_gid":"IDN.23.6.5_1","parent_level":"6","child_level":"7","count":9,"source":"GADM 4.1","generated":"2026-05-08"},"features":[{"type":"Feature","properties":{"name":"Bilogai","name_en":"Bilogai","admin_level":"7","osm_id":""},"geometry":{"type":"Polygon","coordinates":[[[137.06,-3.7106],[137.0593,-3.7555],[137.0614,-3.7779],[137.0655,-3.7993],[137.049,-3.7995],[137.0205,-3.7902],[137.021,-3.7453],[137.0282,-3.7287],[137.041,-3.7116],[137.06,-3.7106]]]}},{"type":"Feature","properties":{"name":"Emondi","name_en":"Emondi","admin_level":"7","osm_id":""},"geometry":{"type":"Polygon","coordinates":[[[136.9115,-3.6991],[136.9277,-3.6993],[136.9513,-3.6969],[136.9522,-3.7076],[136.956,-3.7163],[136.9696,-3.7318],[136.972,-3.7415],[136.9705,-3.7521],[136.9715,-3.7627],[136.9686,-3.7864],[136.9542,-3.781],[136.9359,-3.777],[136.9339,-3.7606],[136.9165,-3.7248],[136.9134,-3.7024],[136.9115,-3.6991]]]}},{"type":"Feature","properties":{"name":"Mamba","name_en":"Mamba","admin_level":"7","osm_id":""},"geometry":{"type":"Polygon","coordinates":[[[136.9513,-3.6969],[136.9675,-3.6932],[136.9804,-3.6922],[136.9799,-3.7079],[136.9858,-3.7151],[136.9966,-3.7512],[136.996,-3.7886],[136.9894,-3.7891],[136.9686,-3.7864],[136.9715,-3.7627],[136.9705,-3.7521],[136.972,-3.7415],[136.9696,-3.7318],[136.956,-3.7163],[136.9522,-3.7076],[136.9513,-3.6969]]]}},{"type":"Feature","properties":{"name":"Mindau","name_en":"Mindau","admin_level":"7","osm_id":""},"geometry":{"type":"Polygon","coordinates":[[[136.9675,-3.9066],[136.9655,-3.8493],[136.9512,-3.8187],[136.9389,-3.8095],[136.9359,-3.777],[136.9542,-3.781],[136.9686,-3.7864],[136.9894,-3.7891],[137.0088,-3.7878],[137.0205,-3.7902],[137.0203,-3.8101],[137.0179,-3.8294],[137.0193,-3.8464],[137.0271,-3.8758],[137.0285,-3.9066],[136.9675,-3.9066]]]}},{"type":"Feature","properties":{"name":"Puyagiya","name_en":"Puyagiya","admin_level":"7","osm_id":""},"geometry":{"type":"Polygon","coordinates":[[[136.9928,-3.6922],[137.0093,-3.6922],[137.0123,-3.6941],[137.0106,-3.7225],[136.9878,-3.7215],[136.9858,-3.7151],[136.9799,-3.7079],[136.9804,-3.6922],[136.9928,-3.6922]]]}},{"type":"Feature","properties":{"name":"Ugimba","name_en":"Ugimba","admin_level":"7","osm_id":""},"geometry":{"type":"Polygon","coordinates":[[[137.0598,-3.7385],[137.0764,-3.7381],[137.0919,-3.7415],[137.1068,-3.7406],[137.1057,-3.7514],[137.1148,-3.7888],[137.1191,-3.7995],[137.0655,-3.7993],[137.0614,-3.7779],[137.0593,-3.7555],[137.0598,-3.7385]]]}},{"type":"Feature","properties":{"name":"Yalai","name_en":"Yalai","admin_level":"7","osm_id":""},"geometry":{"type":"Polygon","coordinates":[[[137.0123,-3.6941],[137.041,-3.7116],[137.0282,-3.7287],[137.0106,-3.7225],[137.0123,-3.6941]]]}},{"type":"Feature","properties":{"name":"Yokatapa","name_en":"Yokatapa","admin_level":"7","osm_id":""},"geometry":{"type":"Polygon","coordinates":[[[137.0282,-3.7287],[137.021,-3.7453],[137.0205,-3.7902],[137.0088,-3.7878],[136.996,-3.7886],[136.9966,-3.7512],[136.9878,-3.7215],[137.0137,-3.7228],[137.0282,-3.7287]]]}},{"type":"Feature","properties":{"name":"Yoparu","name_en":"Yoparu","admin_level":"7","osm_id":""},"geometry":{"type":"Polygon","coordinates":[[[137.0205,-3.7902],[137.049,-3.7995],[137.1191,-3.7995],[137.1264,-3.8179],[137.1439,-3.8436],[137.1721,-3.8768],[137.189,-3.909],[137.0998,-3.9066],[137.0285,-3.9066],[137.0271,-3.8758],[137.0193,-3.8464],[137.0179,-3.8294],[137.0203,-3.8101],[137.0205,-3.7902]]]}}]}