{"type":"FeatureCollection","metadata":{"parent_osm_id":"gid_IDN_30_13_4_1","parent_name":"MapatTunggulSelatan","parent_name_1":"SumateraBarat","parent_gid":"IDN.30.13.4_1","parent_level":"6","child_level":"7","count":2,"source":"GADM 4.1","generated":"2026-05-09"},"features":[{"type":"Feature","properties":{"name":"MuaroSeiLolo","name_en":"MuaroSeiLolo","admin_level":"7","osm_id":""},"geometry":{"type":"Polygon","coordinates":[[[100.255,0.442],[100.2646,0.4197],[100.2737,0.4076],[100.2808,0.4023],[100.2882,0.4002],[100.2931,0.3925],[100.2959,0.3957],[100.2991,0.3974],[100.3005,0.3966],[100.303,0.3843],[100.3116,0.3778],[100.3195,0.3676],[100.3256,0.3665],[100.3262,0.3642],[100.3232,0.3609],[100.3242,0.3576],[100.3334,0.3515],[100.328,0.3438],[100.3322,0.338],[100.3321,0.3359],[100.329,0.3329],[100.32,0.3147],[100.3101,0.3057],[100.3087,0.3002],[100.3153,0.2881],[100.3198,0.2865],[100.3158,0.2744],[100.3193,0.2741],[100.3321,0.2527],[100.3294,0.2345],[100.3325,0.2275],[100.3327,0.2194],[100.3366,0.2108],[100.3437,0.2014],[100.3515,0.1776],[100.3495,0.1706],[100.3282,0.1497],[100.328,0.145],[100.324,0.1367],[100.324,0.1232],[100.3208,0.1186],[100.3204,0.1143],[100.3209,0.1112],[100.324,0.1075],[100.3249,0.102],[100.3158,0.0878],[100.3164,0.0851],[100.3083,0.0857],[100.2992,0.0894],[100.2944,0.0887],[100.2934,0.0902],[100.2889,0.0895],[100.2667,0.0936],[100.2663,0.0988],[100.262,0.0994],[100.2583,0.1023],[100.2587,0.1086],[100.2568,0.1116],[100.2411,0.12],[100.24,0.1276],[100.2424,0.1308],[100.2437,0.1425],[100.2388,0.1444],[100.2345,0.1498],[100.2306,0.1503],[100.222,0.1608],[100.1968,0.1799],[100.1951,0.189],[100.1968,0.1957],[100.1923,0.2112],[100.1934,0.2188],[100.1909,0.2252],[100.1879,0.2269],[100.1879,0.2295],[100.1854,0.2319],[100.1847,0.2437],[100.1824,0.2444],[100.1824,0.2584],[100.1723,0.2679],[100.1719,0.2763],[100.1769,0.2976],[100.1773,0.3093],[100.175,0.3162],[100.1722,0.3192],[100.1707,0.3274],[100.1685,0.3291],[100.1668,0.3395],[100.1688,0.346],[100.1638,0.3546],[100.1647,0.3608],[100.1681,0.366],[100.1649,0.3731],[100.1617,0.3908],[100.1576,0.3956],[100.1578,0.3999],[100.1529,0.4019],[100.1518,0.4038],[100.149,0.4032],[100.1463,0.409],[100.1415,0.4103],[100.143,0.4198],[100.1413,0.4228],[100.1453,0.4253],[100.1457,0.4361],[100.1512,0.4409],[100.1492,0.4503],[100.1508,0.4512],[100.1547,0.4515],[100.1557,0.4472],[100.1588,0.4434],[100.1737,0.4338],[100.1775,0.4344],[100.1853,0.4314],[100.1923,0.4256],[100.2051,0.4264],[100.2165,0.4206],[100.218,0.4219],[100.2247,0.4198],[100.2303,0.4161],[100.2342,0.4164],[100.2335,0.4203],[100.2356,0.4254],[100.2399,0.4316],[100.2437,0.4333],[100.244,0.4364],[100.2467,0.4392],[100.2505,0.4382],[100.255,0.442]]]}},{"type":"Feature","properties":{"name":"Silayang","name_en":"Silayang","admin_level":"7","osm_id":""},"geometry":{"type":"Polygon","coordinates":[[[100.2376,0.5353],[100.2315,0.5313],[100.2294,0.5277],[100.2161,0.5207],[100.2158,0.5143],[100.2216,0.5029],[100.2412,0.4922],[100.2424,0.4858],[100.2398,0.4801],[100.2373,0.4788],[100.238,0.4742],[100.2462,0.4642],[100.25,0.4559],[100.2605,0.4448],[100.2562,0.445],[100.2543,0.4409],[100.2505,0.4382],[100.2467,0.4392],[100.244,0.4364],[100.2437,0.4333],[100.2399,0.4316],[100.2356,0.4254],[100.2335,0.4203],[100.2342,0.4164],[100.2303,0.4161],[100.2273,0.4186],[100.218,0.4219],[100.2165,0.4206],[100.2051,0.4264],[100.1923,0.4256],[100.1853,0.4314],[100.1775,0.4344],[100.1737,0.4338],[100.1601,0.4422],[100.1557,0.4472],[100.1547,0.4515],[100.1492,0.4503],[100.1448,0.4519],[100.1403,0.455],[100.1368,0.4649],[100.1321,0.4675],[100.1216,0.4789],[100.1178,0.4802],[100.1137,0.4867],[100.113,0.4906],[100.1083,0.4943],[100.1078,0.4985],[100.103,0.5058],[100.096,0.509],[100.0962,0.516],[100.1146,0.525],[100.1159,0.5272],[100.1132,0.5321],[100.1005,0.5416],[100.1007,0.5449],[100.1091,0.5485],[100.1102,0.5514],[100.1228,0.5533],[100.1403,0.5382],[100.1554,0.5287],[100.1597,0.5284],[100.1632,0.5342],[100.1686,0.5361],[100.1723,0.5321],[100.1694,0.5286],[100.1772,0.5279],[100.181,0.5329],[100.183,0.5309],[100.1819,0.5273],[100.1859,0.5283],[100.1881,0.5325],[100.1979,0.5377],[100.1989,0.5429],[100.2063,0.5467],[100.2197,0.5415],[100.2259,0.5437],[100.233,0.5432],[100.2354,0.539],[100.235,0.5361],[100.2376,0.5353]]]}}]}