{"type":"FeatureCollection","metadata":{"parent_osm_id":"16999796","parent_name":"Purwakarta","parent_name_1":"Banten","parent_gid":"IDN.4.1.8_1","parent_level":"6","child_level":"7","count":6,"source":"GADM 4.1","generated":"2026-05-09"},"features":[{"type":"Feature","properties":{"name":"Kebondalem","name_en":"Kebondalem","admin_level":"7","osm_id":""},"geometry":{"type":"Polygon","coordinates":[[[106.0535,-5.9949],[106.0588,-6.0033],[106.0558,-6.0046],[106.0539,-6.0036],[106.0497,-6.0071],[106.0457,-6.0064],[106.0442,-6.0087],[106.0426,-6.0062],[106.038,-6.0064],[106.0368,-6.0043],[106.0387,-6.0029],[106.0381,-5.9987],[106.0402,-5.9987],[106.0443,-5.9944],[106.0489,-5.9963],[106.0501,-5.9941],[106.0535,-5.9949]]]}},{"type":"Feature","properties":{"name":"Kotabumi","name_en":"Kotabumi","admin_level":"7","osm_id":""},"geometry":{"type":"Polygon","coordinates":[[[106.033,-5.9833],[106.0354,-5.9855],[106.0362,-5.9815],[106.0418,-5.978],[106.0486,-5.986],[106.0492,-5.99],[106.0505,-5.9898],[106.0515,-5.9922],[106.0514,-5.9943],[106.0489,-5.9963],[106.0443,-5.9944],[106.0402,-5.9987],[106.0381,-5.9987],[106.0387,-6.0029],[106.0359,-6.0053],[106.0332,-6.0004],[106.0295,-6.0023],[106.0275,-5.9998],[106.0283,-5.9963],[106.027,-5.9958],[106.0327,-5.9873],[106.033,-5.9833]]]}},{"type":"Feature","properties":{"name":"Pabean","name_en":"Pabean","admin_level":"7","osm_id":""},"geometry":{"type":"Polygon","coordinates":[[[106.0381,-5.9597],[106.0419,-5.9566],[106.0399,-5.9505],[106.046,-5.9492],[106.0456,-5.9445],[106.0589,-5.9518],[106.0623,-5.9566],[106.0626,-5.9588],[106.055,-5.9572],[106.0529,-5.959],[106.0533,-5.9729],[106.0519,-5.9724],[106.0509,-5.9754],[106.0485,-5.9756],[106.0456,-5.983],[106.0418,-5.978],[106.0435,-5.9656],[106.0381,-5.9597]]]}},{"type":"Feature","properties":{"name":"Purwakarta","name_en":"Purwakarta","admin_level":"7","osm_id":""},"geometry":{"type":"Polygon","coordinates":[[[106.0626,-5.9895],[106.0611,-5.9916],[106.0554,-5.9923],[106.0535,-5.9949],[106.0514,-5.9943],[106.0487,-5.9861],[106.0548,-5.9817],[106.0553,-5.9829],[106.0594,-5.9815],[106.0593,-5.9832],[106.0647,-5.9865],[106.0626,-5.9895]]]}},{"type":"Feature","properties":{"name":"Ramanuju","name_en":"Ramanuju","admin_level":"7","osm_id":""},"geometry":{"type":"Polygon","coordinates":[[[106.0467,-6.0156],[106.0415,-6.0118],[106.0252,-6.0093],[106.0217,-6.0035],[106.0229,-6.0029],[106.023,-5.9992],[106.0275,-5.9998],[106.0295,-6.0023],[106.0332,-6.0004],[106.0359,-6.0053],[106.0426,-6.0062],[106.0423,-6.0076],[106.0469,-6.0105],[106.0467,-6.0156]]]}},{"type":"Feature","properties":{"name":"TegalBunder","name_en":"TegalBunder","admin_level":"7","osm_id":""},"geometry":{"type":"Polygon","coordinates":[[[106.0487,-5.9861],[106.0456,-5.983],[106.0485,-5.9756],[106.0509,-5.9754],[106.0519,-5.9724],[106.0533,-5.9729],[106.0524,-5.96],[106.055,-5.9572],[106.0626,-5.9588],[106.0586,-5.9724],[106.0608,-5.979],[106.0594,-5.9815],[106.0553,-5.9829],[106.0548,-5.9817],[106.0487,-5.9861]]]}}]}