{"type":"FeatureCollection","metadata":{"parent_osm_id":"gid_IDN_27_7_16_1","parent_name":"TinomboSelatan","parent_name_1":"SulawesiTengah","parent_gid":"IDN.27.7.16_1","parent_level":"6","child_level":"7","count":14,"source":"GADM 4.1","generated":"2026-05-08"},"features":[{"type":"Feature","properties":{"name":"Khatulistiwa","name_en":"Khatulistiwa","admin_level":"7","osm_id":""},"geometry":{"type":"Polygon","coordinates":[[[119.9574,0.043],[119.9553,0.0458],[119.9538,0.0542],[119.9602,0.0719],[119.9721,0.0649],[119.9739,0.0622],[119.9797,0.061],[120.0229,0.0421],[120.0813,0.0256],[120.09,0.0269],[120.0997,0.0259],[120.1035,0.0178],[120.1013,0.0139],[120.1027,0.0063],[120.1017,0.0027],[120.1031,0.0011],[120.1016,-0.0049],[120.0905,-0.0033],[120.0869,0.0004],[120.078,0.0004],[120.0763,-0.0018],[120.0719,-0.0015],[120.0706,-0.0004],[120.0713,0.0048],[120.0662,0.0068],[120.0246,0.0149],[120.0004,0.0234],[119.9858,0.0264],[119.9663,0.0396],[119.9574,0.043]]]}},{"type":"Feature","properties":{"name":"Malanggo","name_en":"Malanggo","admin_level":"7","osm_id":""},"geometry":{"type":"Polygon","coordinates":[[[120.0528,0.1812],[120.0714,0.1806],[120.0814,0.1708],[120.0895,0.1709],[120.0956,0.1728],[120.1037,0.1708],[120.1275,0.1714],[120.124,0.162],[120.1286,0.1563],[120.1339,0.1535],[120.1334,0.1489],[120.1363,0.1395],[120.133,0.1282],[120.1158,0.1361],[120.106,0.1428],[120.0962,0.1455],[120.0877,0.1552],[120.0777,0.1614],[120.0713,0.1688],[120.0528,0.1812]]]}},{"type":"Feature","properties":{"name":"Maninili","name_en":"Maninili","admin_level":"7","osm_id":""},"geometry":{"type":"Polygon","coordinates":[[[120.0015,0.1232],[120.0322,0.1272],[120.0599,0.1074],[120.106,0.092],[120.106,0.0881],[120.1092,0.0813],[120.1079,0.0682],[120.1117,0.0571],[120.1086,0.046],[120.1055,0.0449],[120.104,0.0422],[120.068,0.0569],[120.0523,0.059],[120.0285,0.0696],[120.0212,0.071],[120.0085,0.0761],[119.9961,0.0843],[119.9858,0.0952],[119.9906,0.1074],[120.0009,0.1108],[120.0015,0.1232]]]}},{"type":"Feature","properties":{"name":"Poly","name_en":"Poly","admin_level":"7","osm_id":""},"geometry":{"type":"Polygon","coordinates":[[[120.0965,-0.0229],[120.095,-0.0314],[120.0915,-0.0358],[120.0804,-0.0313],[120.0713,-0.0246],[120.0673,-0.0122],[120.0603,-0.0115],[120.0613,-0.0035],[120.0747,-0.008],[120.0857,-0.0204],[120.0965,-0.0229]]]}},{"type":"Feature","properties":{"name":"Siaga","name_en":"Siaga","admin_level":"7","osm_id":""},"geometry":{"type":"Polygon","coordinates":[[[119.9596,0.078],[119.9614,0.0844],[119.9672,0.0883],[119.9715,0.0961],[119.9829,0.096],[119.9836,0.0975],[119.9961,0.0843],[120.0085,0.0761],[120.0212,0.071],[120.0285,0.0696],[120.0523,0.059],[120.068,0.0569],[120.1017,0.0438],[120.104,0.0422],[120.1015,0.0386],[120.0995,0.0265],[120.0813,0.0256],[120.0229,0.0421],[119.9797,0.061],[119.9739,0.0622],[119.9721,0.0649],[119.9576,0.0738],[119.9596,0.078]]]}},{"type":"Feature","properties":{"name":"SigegaBersehati","name_en":"SigegaBersehati","admin_level":"7","osm_id":""},"geometry":{"type":"Polygon","coordinates":[[[120.0447,0.1723],[120.0528,0.1812],[120.0713,0.1688],[120.0777,0.1614],[120.0877,0.1552],[120.0926,0.1495],[120.0918,0.1426],[120.0741,0.1484],[120.0684,0.1565],[120.0447,0.1723]]]}},{"type":"Feature","properties":{"name":"Sigenti","name_en":"Sigenti","admin_level":"7","osm_id":""},"geometry":{"type":"Polygon","coordinates":[[[120.0452,0.1463],[120.0459,0.1489],[120.0424,0.1521],[120.0401,0.1573],[120.0405,0.1587],[120.0435,0.157],[120.0449,0.1606],[120.053,0.1544],[120.0834,0.1389],[120.0933,0.1358],[120.1045,0.1291],[120.1062,0.1309],[120.1134,0.1306],[120.1158,0.1361],[120.133,0.1278],[120.1224,0.1169],[120.1141,0.1122],[120.1078,0.1159],[120.0968,0.1193],[120.0452,0.1463]]]}},{"type":"Feature","properties":{"name":"SigentiBarat","name_en":"SigentiBarat","admin_level":"7","osm_id":""},"geometry":{"type":"Polygon","coordinates":[[[120.0449,0.1606],[120.0436,0.1683],[120.0447,0.1723],[120.0684,0.1565],[120.0741,0.1484],[120.0918,0.1426],[120.0926,0.1495],[120.0962,0.1455],[120.106,0.1428],[120.1158,0.1351],[120.1134,0.1306],[120.1062,0.1309],[120.1045,0.1291],[120.0933,0.1358],[120.0834,0.1389],[120.053,0.1544],[120.0449,0.1606]]]}},{"type":"Feature","properties":{"name":"SigentiSelatan","name_en":"SigentiSelatan","admin_level":"7","osm_id":""},"geometry":{"type":"Polygon","coordinates":[[[120.0322,0.1272],[120.038,0.1291],[120.0342,0.1345],[120.0369,0.1389],[120.0452,0.1463],[120.0968,0.1193],[120.1137,0.1127],[120.1125,0.1046],[120.1111,0.1008],[120.106,0.0951],[120.106,0.092],[120.104,0.0919],[120.0821,0.1008],[120.0599,0.1074],[120.0322,0.1272]]]}},{"type":"Feature","properties":{"name":"Silutung","name_en":"Silutung","admin_level":"7","osm_id":""},"geometry":{"type":"Polygon","coordinates":[[[119.9516,0.0191],[119.9523,0.0239],[119.9572,0.0315],[119.9769,0.0221],[119.9813,0.0221],[120.0224,0.0081],[120.0562,0.0006],[120.0584,-0.0033],[120.0613,-0.0035],[120.0603,-0.0115],[120.0588,-0.0157],[120.0565,-0.017],[120.0557,-0.0133],[120.0522,-0.0134],[120.0516,-0.0112],[120.0404,-0.0095],[120.0364,-0.0063],[120.0332,-0.0101],[120.0289,-0.0099],[120.0255,-0.012],[120.0264,-0.0151],[120.022,-0.0153],[120.0237,-0.0187],[120.0233,-0.0214],[120.0256,-0.0245],[120.0201,-0.0242],[120.0182,-0.0261],[120.0142,-0.0262],[120.0142,-0.0281],[120.0124,-0.0257],[120.0095,-0.0254],[120.0105,-0.0213],[120.0063,-0.0217],[120.0075,-0.0184],[119.9987,-0.0203],[119.9946,-0.0195],[119.9939,-0.0234],[119.9901,-0.0248],[119.9867,-0.0138],[119.9818,-0.0059],[119.9792,-0.0052],[119.9782,0.0021],[119.9761,0.003],[119.9749,0.0076],[119.9721,0.0065],[119.9694,0.0099],[119.9473,0.0157],[119.95,0.0165],[119.9516,0.0191]]]}},{"type":"Feature","properties":{"name":"Sinei","name_en":"Sinei","admin_level":"7","osm_id":""},"geometry":{"type":"Polygon","coordinates":[[[119.9572,0.0315],[119.9574,0.043],[119.9663,0.0396],[119.9858,0.0264],[120.0004,0.0234],[120.0246,0.0149],[120.0662,0.0068],[120.0713,0.0048],[120.0706,-0.0004],[120.0719,-0.0015],[120.0763,-0.0018],[120.078,0.0004],[120.0875,0.0003],[120.0905,-0.0033],[120.1016,-0.0049],[120.1018,-0.0071],[120.0987,-0.0115],[120.1002,-0.0162],[120.0974,-0.0183],[120.0965,-0.0229],[120.0861,-0.0206],[120.0827,-0.0183],[120.0747,-0.008],[120.0652,-0.0042],[120.0584,-0.0033],[120.0562,0.0006],[120.0224,0.0081],[119.9813,0.0221],[119.9769,0.0221],[119.9572,0.0315]]]}},{"type":"Feature","properties":{"name":"Tada","name_en":"Tada","admin_level":"7","osm_id":""},"geometry":{"type":"Polygon","coordinates":[[[120.0603,-0.0115],[120.0673,-0.0122],[120.0714,-0.0238],[120.0651,-0.0401],[120.0716,-0.0509],[120.0663,-0.0602],[120.0629,-0.0566],[120.0629,-0.0541],[120.061,-0.0545],[120.0614,-0.0525],[120.0597,-0.0524],[120.0592,-0.0473],[120.0574,-0.0477],[120.0557,-0.0455],[120.0594,-0.0426],[120.0563,-0.0377],[120.0562,-0.0338],[120.0581,-0.0338],[120.0589,-0.0312],[120.0562,-0.029],[120.0595,-0.0227],[120.0618,-0.0214],[120.0588,-0.0157],[120.0603,-0.0115]]]}},{"type":"Feature","properties":{"name":"TadaSelatan","name_en":"TadaSelatan","admin_level":"7","osm_id":""},"geometry":{"type":"Polygon","coordinates":[[[119.9405,-0.0291],[119.94,-0.0256],[119.9441,-0.02],[119.9408,-0.0116],[119.9441,0.0103],[119.9448,0.0139],[119.9473,0.0157],[119.9694,0.0099],[119.9721,0.0065],[119.9749,0.0076],[119.9761,0.003],[119.9782,0.0021],[119.9792,-0.0052],[119.9818,-0.0059],[119.9867,-0.0138],[119.9901,-0.0248],[119.9939,-0.0234],[119.9946,-0.0195],[119.9987,-0.0203],[120.0075,-0.0184],[120.0063,-0.0217],[120.0105,-0.0213],[120.0095,-0.0254],[120.0124,-0.0257],[120.0142,-0.0281],[120.0142,-0.0262],[120.0182,-0.0261],[120.0201,-0.0242],[120.0256,-0.0245],[120.0233,-0.0214],[120.0237,-0.0187],[120.022,-0.0153],[120.0264,-0.0151],[120.0255,-0.012],[120.0289,-0.0099],[120.0332,-0.0101],[120.0364,-0.0063],[120.0404,-0.0095],[120.0516,-0.0112],[120.0522,-0.0134],[120.0557,-0.0133],[120.0565,-0.017],[120.0599,-0.0158],[120.0618,-0.0214],[120.0595,-0.0227],[120.0562,-0.029],[120.0589,-0.0312],[120.0581,-0.0338],[120.0562,-0.0338],[120.0563,-0.0377],[120.0594,-0.0426],[120.0557,-0.0455],[120.0574,-0.0477],[120.0592,-0.0473],[120.0597,-0.0524],[120.0614,-0.0525],[120.061,-0.0545],[120.0629,-0.0541],[120.0629,-0.0566],[120.0655,-0.0596],[120.0511,-0.0592],[120.0495,-0.056],[120.0423,-0.0583],[120.0404,-0.0535],[120.0338,-0.0487],[120.0201,-0.0438],[120.0148,-0.0438],[120.0052,-0.0409],[119.9755,-0.0389],[119.9611,-0.0329],[119.9405,-0.0291]]]}},{"type":"Feature","properties":{"name":"TadaTimur","name_en":"TadaTimur","admin_level":"7","osm_id":""},"geometry":{"type":"Polygon","coordinates":[[[120.0713,-0.0246],[120.0804,-0.0313],[120.0915,-0.0358],[120.0849,-0.0431],[120.0714,-0.0506],[120.0651,-0.0401],[120.0713,-0.0246]]]}}]}