{"type":"FeatureCollection","metadata":{"parent_osm_id":"gid_IDN_11_4_16_1","parent_name":"Sutojayan","parent_name_1":"JawaTimur","parent_gid":"IDN.11.4.16_1","parent_level":"6","child_level":"7","count":12,"source":"GADM 4.1","generated":"2026-05-07"},"features":[{"type":"Feature","properties":{"name":"Bacem","name_en":"Bacem","admin_level":"7","osm_id":""},"geometry":{"type":"Polygon","coordinates":[[[112.2532,-8.1864],[112.2525,-8.191],[112.254,-8.1933],[112.2454,-8.1966],[112.247,-8.2016],[112.2442,-8.2032],[112.2276,-8.1999],[112.2298,-8.1932],[112.2239,-8.1927],[112.2255,-8.1847],[112.2356,-8.1862],[112.2407,-8.1845],[112.2532,-8.1864]]]}},{"type":"Feature","properties":{"name":"HutanKaulon","name_en":"HutanKaulon","admin_level":"7","osm_id":""},"geometry":{"type":"Polygon","coordinates":[[[112.2543,-8.2032],[112.2552,-8.2067],[112.2509,-8.211],[112.2483,-8.2101],[112.2454,-8.2125],[112.2377,-8.2096],[112.2357,-8.2131],[112.2328,-8.2142],[112.22,-8.2145],[112.2161,-8.211],[112.2109,-8.2114],[112.2089,-8.2077],[112.2114,-8.2035],[112.2118,-8.1984],[112.2194,-8.1904],[112.2248,-8.1933],[112.2295,-8.1928],[112.2276,-8.1999],[112.2442,-8.2032],[112.247,-8.2016],[112.2454,-8.1966],[112.2541,-8.1933],[112.2543,-8.2032]]]}},{"type":"Feature","properties":{"name":"Jegu","name_en":"Jegu","admin_level":"7","osm_id":""},"geometry":{"type":"Polygon","coordinates":[[[112.2276,-8.1512],[112.2301,-8.1503],[112.232,-8.1439],[112.2352,-8.1444],[112.2354,-8.1473],[112.2376,-8.1479],[112.2462,-8.1416],[112.2513,-8.1415],[112.2643,-8.1459],[112.2629,-8.1503],[112.2581,-8.149],[112.2545,-8.1502],[112.2513,-8.1487],[112.251,-8.1562],[112.2439,-8.1552],[112.2437,-8.157],[112.2316,-8.1541],[112.2248,-8.1556],[112.2248,-8.1532],[112.2276,-8.1512]]]}},{"type":"Feature","properties":{"name":"Jingglong","name_en":"Jingglong","admin_level":"7","osm_id":""},"geometry":{"type":"Polygon","coordinates":[[[112.2508,-8.1562],[112.2504,-8.1647],[112.2614,-8.1712],[112.2617,-8.1749],[112.2542,-8.1738],[112.2479,-8.1698],[112.2297,-8.1681],[112.2292,-8.1717],[112.2241,-8.17],[112.2248,-8.1556],[112.2316,-8.1541],[112.2437,-8.157],[112.2439,-8.1552],[112.2508,-8.1562]]]}},{"type":"Feature","properties":{"name":"Kalipang","name_en":"Kalipang","admin_level":"7","osm_id":""},"geometry":{"type":"Polygon","coordinates":[[[112.2248,-8.1556],[112.2241,-8.17],[112.2328,-8.1756],[112.2167,-8.1731],[112.2105,-8.1667],[112.2098,-8.1603],[112.2178,-8.1603],[112.218,-8.157],[112.2248,-8.1556]]]}},{"type":"Feature","properties":{"name":"Kaulon","name_en":"Kaulon","admin_level":"7","osm_id":""},"geometry":{"type":"Polygon","coordinates":[[[112.293,-8.1656],[112.2928,-8.1703],[112.2879,-8.1711],[112.2776,-8.1676],[112.2762,-8.1646],[112.2662,-8.1598],[112.2629,-8.1569],[112.262,-8.1536],[112.2643,-8.1459],[112.2673,-8.1471],[112.2696,-8.1519],[112.2759,-8.1502],[112.2812,-8.1555],[112.2816,-8.1583],[112.2865,-8.1627],[112.2894,-8.1629],[112.2897,-8.1654],[112.293,-8.1656]]]}},{"type":"Feature","properties":{"name":"KedungBunder","name_en":"KedungBunder","admin_level":"7","osm_id":""},"geometry":{"type":"Polygon","coordinates":[[[112.1782,-8.1672],[112.1807,-8.1616],[112.1904,-8.153],[112.1909,-8.1504],[112.21,-8.1547],[112.2097,-8.1629],[112.2126,-8.1694],[112.2122,-8.1726],[112.21,-8.174],[112.2105,-8.18],[112.2132,-8.1826],[112.2108,-8.1939],[112.2153,-8.1941],[112.2118,-8.1984],[112.2114,-8.2035],[112.2089,-8.2077],[112.2109,-8.2114],[112.2036,-8.2083],[112.2035,-8.2068],[112.2066,-8.1963],[112.2084,-8.1787],[112.1971,-8.1748],[112.1949,-8.1719],[112.188,-8.1685],[112.1782,-8.1672]]]}},{"type":"Feature","properties":{"name":"Kembangarum","name_en":"Kembangarum","admin_level":"7","osm_id":""},"geometry":{"type":"Polygon","coordinates":[[[112.21,-8.1547],[112.2179,-8.1537],[112.224,-8.1494],[112.2276,-8.1512],[112.2248,-8.1532],[112.2248,-8.1556],[112.218,-8.157],[112.2178,-8.1603],[112.2098,-8.1603],[112.21,-8.1547]]]}},{"type":"Feature","properties":{"name":"Pandanarum","name_en":"Pandanarum","admin_level":"7","osm_id":""},"geometry":{"type":"Polygon","coordinates":[[[112.1652,-8.1987],[112.1655,-8.1956],[112.1694,-8.1919],[112.1699,-8.1845],[112.1721,-8.1835],[112.1783,-8.1857],[112.1819,-8.1853],[112.1851,-8.1829],[112.1861,-8.1788],[112.1948,-8.177],[112.1943,-8.1715],[112.1971,-8.1748],[112.2085,-8.179],[112.2073,-8.1883],[112.2052,-8.1895],[112.1881,-8.1928],[112.1804,-8.1917],[112.1846,-8.1995],[112.1848,-8.2016],[112.1829,-8.2036],[112.1794,-8.2031],[112.177,-8.2048],[112.1729,-8.1993],[112.168,-8.2],[112.1652,-8.1987]]]}},{"type":"Feature","properties":{"name":"Sotojayan","name_en":"Sotojayan","admin_level":"7","osm_id":""},"geometry":{"type":"Polygon","coordinates":[[[112.2314,-8.1858],[112.2247,-8.1853],[112.2238,-8.1928],[112.2194,-8.1904],[112.2152,-8.1942],[112.2108,-8.1939],[112.2132,-8.1826],[112.2106,-8.1804],[112.21,-8.174],[112.2122,-8.1726],[112.2126,-8.1698],[112.2179,-8.1736],[112.2335,-8.1756],[112.2314,-8.1858]]]}},{"type":"Feature","properties":{"name":"Sukorejo","name_en":"Sukorejo","admin_level":"7","osm_id":""},"geometry":{"type":"Polygon","coordinates":[[[112.2651,-8.1761],[112.2642,-8.1774],[112.2618,-8.1766],[112.2619,-8.1779],[112.255,-8.1818],[112.2483,-8.1782],[112.2479,-8.1795],[112.2329,-8.1776],[112.2331,-8.1748],[112.2275,-8.1725],[112.2277,-8.1712],[112.2292,-8.1717],[112.2297,-8.1681],[112.2477,-8.1697],[112.2542,-8.1738],[112.2651,-8.1761]]]}},{"type":"Feature","properties":{"name":"Sumberjo","name_en":"Sumberjo","admin_level":"7","osm_id":""},"geometry":{"type":"Polygon","coordinates":[[[112.255,-8.1818],[112.2527,-8.1822],[112.2529,-8.1865],[112.2407,-8.1845],[112.2314,-8.1858],[112.2329,-8.1776],[112.2479,-8.1795],[112.2483,-8.1782],[112.255,-8.1818]]]}}]}