{"type":"FeatureCollection","metadata":{"parent_osm_id":"gid_IDN_31_13_4_1","parent_name":"PagarAlamSelatan","parent_name_1":"SumateraSelatan","parent_gid":"IDN.31.13.4_1","parent_level":"6","child_level":"7","count":8,"source":"GADM 4.1","generated":"2026-05-08"},"features":[{"type":"Feature","properties":{"name":"BasemahSerasan","name_en":"BasemahSerasan","admin_level":"7","osm_id":""},"geometry":{"type":"Polygon","coordinates":[[[103.2518,-4.0258],[103.2525,-4.0239],[103.2508,-4.0217],[103.2545,-4.0203],[103.2571,-4.0223],[103.2652,-4.0194],[103.2676,-4.0168],[103.2707,-4.0213],[103.2518,-4.0258]]]}},{"type":"Feature","properties":{"name":"GunungDempo","name_en":"GunungDempo","admin_level":"7","osm_id":""},"geometry":{"type":"Polygon","coordinates":[[[103.1214,-4.0156],[103.1454,-4.0188],[103.1623,-4.0192],[103.1781,-4.0175],[103.1849,-4.0222],[103.1848,-4.0294],[103.1906,-4.0286],[103.1942,-4.0325],[103.1981,-4.0302],[103.1982,-4.0394],[103.1917,-4.0415],[103.1872,-4.0406],[103.1869,-4.0465],[103.178,-4.0542],[103.172,-4.0497],[103.1645,-4.0574],[103.1706,-4.062],[103.1663,-4.0692],[103.1626,-4.0686],[103.1574,-4.0638],[103.1431,-4.0695],[103.1356,-4.0391],[103.1309,-4.0283],[103.124,-4.0212],[103.1214,-4.0156]]]}},{"type":"Feature","properties":{"name":"Nendagung","name_en":"Nendagung","admin_level":"7","osm_id":""},"geometry":{"type":"Polygon","coordinates":[[[103.2364,-4.0352],[103.2356,-4.0327],[103.233,-4.0326],[103.2198,-4.0397],[103.2194,-4.0344],[103.2216,-4.0286],[103.218,-4.026],[103.2171,-4.0274],[103.2119,-4.0266],[103.2157,-4.0236],[103.2247,-4.0253],[103.2281,-4.0249],[103.2301,-4.0228],[103.2375,-4.0226],[103.2382,-4.0247],[103.2406,-4.0245],[103.2424,-4.0344],[103.2364,-4.0352]]]}},{"type":"Feature","properties":{"name":"Sidorejo","name_en":"Sidorejo","admin_level":"7","osm_id":""},"geometry":{"type":"Polygon","coordinates":[[[103.2423,-4.0301],[103.2406,-4.0245],[103.2382,-4.0247],[103.2375,-4.0226],[103.2464,-4.0212],[103.2451,-4.0254],[103.2469,-4.0277],[103.2423,-4.0301]]]}},{"type":"Feature","properties":{"name":"TanjungAgung","name_en":"TanjungAgung","admin_level":"7","osm_id":""},"geometry":{"type":"Polygon","coordinates":[[[103.2395,-4.0507],[103.2387,-4.04],[103.2369,-4.0397],[103.2364,-4.0352],[103.2433,-4.034],[103.2543,-4.0345],[103.2558,-4.0388],[103.2515,-4.0446],[103.2524,-4.0487],[103.2499,-4.0474],[103.2395,-4.0507]]]}},{"type":"Feature","properties":{"name":"TebatGiriIndah","name_en":"TebatGiriIndah","admin_level":"7","osm_id":""},"geometry":{"type":"Polygon","coordinates":[[[103.2508,-4.0217],[103.2526,-4.0247],[103.2509,-4.0271],[103.2464,-4.0274],[103.2458,-4.0238],[103.2508,-4.0217]]]}},{"type":"Feature","properties":{"name":"TumbakUlas","name_en":"TumbakUlas","admin_level":"7","osm_id":""},"geometry":{"type":"Polygon","coordinates":[[[103.2518,-4.0258],[103.2591,-4.0241],[103.2639,-4.0322],[103.2585,-4.0341],[103.2558,-4.0384],[103.2543,-4.0345],[103.2424,-4.0344],[103.2423,-4.0301],[103.2439,-4.0284],[103.2497,-4.0278],[103.2518,-4.0258]]]}},{"type":"Feature","properties":{"name":"UluRurah","name_en":"UluRurah","admin_level":"7","osm_id":""},"geometry":{"type":"Polygon","coordinates":[[[103.2901,-4.0148],[103.291,-4.0161],[103.2881,-4.0183],[103.2891,-4.0199],[103.2857,-4.0197],[103.286,-4.0212],[103.2834,-4.0225],[103.2851,-4.0254],[103.2804,-4.0255],[103.2809,-4.0272],[103.2783,-4.0313],[103.2807,-4.031],[103.2804,-4.0332],[103.2777,-4.0376],[103.2705,-4.0394],[103.2649,-4.0455],[103.2514,-4.0468],[103.2585,-4.0341],[103.2639,-4.0322],[103.259,-4.024],[103.2707,-4.0213],[103.2676,-4.0168],[103.2721,-4.0167],[103.2756,-4.0146],[103.2775,-4.0156],[103.2791,-4.0137],[103.2832,-4.0155],[103.2879,-4.0138],[103.2901,-4.0148]]]}}]}