{"type":"FeatureCollection","metadata":{"parent_osm_id":"gid_IDN_21_16_1_1","parent_name":"KodiBangedo","parent_name_1":"NusaTenggaraTimur","parent_gid":"IDN.21.16.1_1","parent_level":"6","child_level":"7","count":13,"source":"GADM 4.1","generated":"2026-05-09"},"features":[{"type":"Feature","properties":{"name":"Dinjo","name_en":"Dinjo","admin_level":"7","osm_id":""},"geometry":{"type":"Polygon","coordinates":[[[119.0278,-9.6004],[119.0046,-9.6014],[118.9958,-9.5939],[118.9981,-9.593],[118.9982,-9.591],[119.003,-9.5898],[119.0018,-9.5879],[119.0032,-9.5862],[119.0084,-9.5851],[119.0128,-9.5793],[119.0124,-9.5775],[119.0201,-9.5761],[119.0242,-9.5934],[119.0278,-9.6004]]]}},{"type":"Feature","properties":{"name":"Kahale","name_en":"Kahale","admin_level":"7","osm_id":""},"geometry":{"type":"Polygon","coordinates":[[[119.1446,-9.73],[119.1379,-9.7277],[119.1346,-9.7309],[119.1326,-9.7291],[119.1314,-9.7308],[119.1302,-9.7293],[119.128,-9.7299],[119.1292,-9.7274],[119.1248,-9.727],[119.1234,-9.7249],[119.1178,-9.7265],[119.1157,-9.7207],[119.1051,-9.7135],[119.0924,-9.7142],[119.0915,-9.7158],[119.0954,-9.6747],[119.0945,-9.662],[119.102,-9.6597],[119.108,-9.6545],[119.1313,-9.6527],[119.137,-9.6729],[119.143,-9.6805],[119.1522,-9.6855],[119.1475,-9.694],[119.148,-9.7035],[119.1436,-9.7091],[119.1486,-9.7186],[119.1442,-9.7243],[119.1458,-9.7276],[119.1446,-9.73]]]}},{"type":"Feature","properties":{"name":"LeteLoko","name_en":"LeteLoko","admin_level":"7","osm_id":""},"geometry":{"type":"Polygon","coordinates":[[[118.9985,-9.5973],[119.0073,-9.6018],[119.0172,-9.6001],[119.0307,-9.6004],[119.0369,-9.609],[119.0315,-9.6089],[118.9928,-9.624],[118.9865,-9.6154],[118.9848,-9.6096],[118.9865,-9.6069],[118.992,-9.606],[118.9984,-9.5998],[118.9985,-9.5973]]]}},{"type":"Feature","properties":{"name":"MataKapore","name_en":"MataKapore","admin_level":"7","osm_id":""},"geometry":{"type":"Polygon","coordinates":[[[119.0995,-9.599],[119.0845,-9.6008],[119.082,-9.5985],[119.0802,-9.5988],[119.0793,-9.5968],[119.0768,-9.597],[119.0753,-9.5947],[119.077,-9.5932],[119.0763,-9.5873],[119.0727,-9.5852],[119.0697,-9.5753],[119.0625,-9.5666],[119.0736,-9.5685],[119.0799,-9.5749],[119.084,-9.5738],[119.0896,-9.5754],[119.0982,-9.5736],[119.103,-9.5747],[119.1066,-9.5787],[119.1138,-9.5814],[119.1098,-9.5971],[119.0995,-9.599]]]}},{"type":"Feature","properties":{"name":"PanenggoEde","name_en":"PanenggoEde","admin_level":"7","osm_id":""},"geometry":{"type":"Polygon","coordinates":[[[119.0938,-9.6877],[119.0914,-9.7158],[119.0909,-9.7135],[119.0749,-9.7024],[119.0622,-9.6972],[119.0595,-9.6995],[119.0556,-9.6955],[119.0491,-9.6925],[119.0468,-9.6892],[119.0262,-9.6751],[119.0198,-9.6646],[119.0533,-9.66],[119.0773,-9.6764],[119.0885,-9.6862],[119.0938,-9.6877]]]}},{"type":"Feature","properties":{"name":"RadaLoko","name_en":"RadaLoko","admin_level":"7","osm_id":""},"geometry":{"type":"Polygon","coordinates":[[[119.0278,-9.6004],[119.0242,-9.5934],[119.0201,-9.5761],[119.0209,-9.5711],[119.0396,-9.5683],[119.0411,-9.5653],[119.0449,-9.5657],[119.0529,-9.5608],[119.0547,-9.5657],[119.0497,-9.5843],[119.0396,-9.5902],[119.0361,-9.5969],[119.0319,-9.6003],[119.0278,-9.6004]]]}},{"type":"Feature","properties":{"name":"UmbuNgedo","name_en":"UmbuNgedo","admin_level":"7","osm_id":""},"geometry":{"type":"Polygon","coordinates":[[[118.9928,-9.624],[119.0302,-9.6098],[119.0346,-9.613],[119.0389,-9.6309],[119.0345,-9.6302],[119.0323,-9.636],[119.0301,-9.6335],[119.0241,-9.6342],[119.017,-9.6268],[119.0086,-9.6294],[119.0037,-9.6288],[119.003,-9.6306],[118.9977,-9.6286],[118.9928,-9.624]]]}},{"type":"Feature","properties":{"name":"WaiHa","name_en":"WaiHa","admin_level":"7","osm_id":""},"geometry":{"type":"Polygon","coordinates":[[[119.0976,-9.5995],[119.0998,-9.5995],[119.1004,-9.6069],[119.1023,-9.6074],[119.1029,-9.6113],[119.092,-9.6189],[119.0788,-9.6243],[119.0618,-9.6346],[119.0533,-9.66],[119.0402,-9.6621],[119.0369,-9.6507],[119.0366,-9.6305],[119.0391,-9.631],[119.0415,-9.6339],[119.044,-9.6339],[119.051,-9.6284],[119.0573,-9.6183],[119.0656,-9.6181],[119.0663,-9.6163],[119.0773,-9.6113],[119.0783,-9.6076],[119.0855,-9.6091],[119.088,-9.6137],[119.0896,-9.614],[119.0896,-9.6107],[119.0933,-9.6037],[119.0976,-9.5995]]]}},{"type":"Feature","properties":{"name":"WaiKadada","name_en":"WaiKadada","admin_level":"7","osm_id":""},"geometry":{"type":"Polygon","coordinates":[[[119.0369,-9.609],[119.0307,-9.6004],[119.0354,-9.5977],[119.0396,-9.5902],[119.0505,-9.5831],[119.055,-9.5606],[119.0553,-9.5628],[119.0606,-9.5668],[119.0625,-9.5666],[119.0697,-9.5753],[119.0727,-9.5852],[119.0763,-9.5873],[119.077,-9.5932],[119.0753,-9.5947],[119.0768,-9.597],[119.0793,-9.5968],[119.0802,-9.5988],[119.082,-9.5985],[119.0845,-9.6008],[119.0694,-9.602],[119.0493,-9.6077],[119.0369,-9.609]]]}},{"type":"Feature","properties":{"name":"WaiKarara","name_en":"WaiKarara","admin_level":"7","osm_id":""},"geometry":{"type":"Polygon","coordinates":[[[119.0945,-9.662],[119.0954,-9.6748],[119.0938,-9.6877],[119.0914,-9.6877],[119.0533,-9.66],[119.0618,-9.6346],[119.0669,-9.6321],[119.0742,-9.6373],[119.0843,-9.6494],[119.0901,-9.6601],[119.0945,-9.662]]]}},{"type":"Feature","properties":{"name":"Wailangira","name_en":"Wailangira","admin_level":"7","osm_id":""},"geometry":{"type":"Polygon","coordinates":[[[119.1313,-9.6527],[119.108,-9.6545],[119.0987,-9.6613],[119.0922,-9.662],[119.0801,-9.6435],[119.0669,-9.6321],[119.1019,-9.6123],[119.1025,-9.608],[119.1004,-9.6069],[119.0995,-9.599],[119.1098,-9.5971],[119.1291,-9.6235],[119.1291,-9.6407],[119.1313,-9.6527]]]}},{"type":"Feature","properties":{"name":"Wainyapu","name_en":"Wainyapu","admin_level":"7","osm_id":""},"geometry":{"type":"Polygon","coordinates":[[[119.0402,-9.6621],[119.0198,-9.6646],[119.0091,-9.6463],[119.0035,-9.6289],[119.0086,-9.6294],[119.017,-9.6268],[119.0241,-9.6342],[119.0301,-9.6335],[119.0323,-9.636],[119.0343,-9.6304],[119.0366,-9.6305],[119.0369,-9.6507],[119.0402,-9.6621]]]}},{"type":"Feature","properties":{"name":"WallaNdimu","name_en":"WallaNdimu","admin_level":"7","osm_id":""},"geometry":{"type":"Polygon","coordinates":[[[119.0302,-9.6098],[119.0335,-9.6083],[119.0493,-9.6077],[119.0694,-9.602],[119.0976,-9.5995],[119.0933,-9.6037],[119.0896,-9.6107],[119.0896,-9.614],[119.088,-9.6137],[119.0855,-9.6091],[119.0783,-9.6076],[119.0773,-9.6113],[119.0663,-9.6163],[119.0656,-9.6181],[119.0573,-9.6183],[119.051,-9.6284],[119.043,-9.6342],[119.0389,-9.6309],[119.0346,-9.613],[119.0302,-9.6098]]]}}]}