{"type":"FeatureCollection","metadata":{"parent_osm_id":"gid_IDN_10_7_11_1","parent_name":"Jeruklegi","parent_name_1":"JawaTengah","parent_gid":"IDN.10.7.11_1","parent_level":"6","child_level":"7","count":13,"source":"GADM 4.1","generated":"2026-05-07"},"features":[{"type":"Feature","properties":{"name":"Brebeg","name_en":"Brebeg","admin_level":"7","osm_id":""},"geometry":{"type":"Polygon","coordinates":[[[109.0068,-7.6557],[109.0015,-7.6528],[109.0007,-7.6503],[108.9973,-7.6516],[108.9951,-7.647],[108.9908,-7.6475],[108.9896,-7.649],[108.9882,-7.6472],[108.9854,-7.6475],[108.9843,-7.6507],[108.9804,-7.6521],[108.975,-7.6484],[108.9728,-7.6443],[108.9727,-7.6369],[108.9763,-7.6341],[108.9792,-7.6349],[108.9837,-7.6295],[108.9828,-7.6245],[108.9839,-7.6192],[108.988,-7.6172],[108.9924,-7.6206],[108.9968,-7.6203],[108.9991,-7.6172],[109.0022,-7.6193],[109.0059,-7.619],[109.0087,-7.6204],[109.009,-7.6228],[109.0117,-7.6223],[109.0125,-7.6276],[109.011,-7.6293],[109.0127,-7.6337],[109.0202,-7.6351],[109.0177,-7.6386],[109.0147,-7.637],[109.0101,-7.6526],[109.0068,-7.6557]]]}},{"type":"Feature","properties":{"name":"Cilibang","name_en":"Cilibang","admin_level":"7","osm_id":""},"geometry":{"type":"Polygon","coordinates":[[[109.0123,-7.5731],[109.0153,-7.5726],[109.0157,-7.5756],[109.018,-7.5757],[109.0216,-7.5825],[109.025,-7.5849],[109.0295,-7.5833],[109.0347,-7.5837],[109.0384,-7.59],[109.0511,-7.6014],[109.0481,-7.6058],[109.0456,-7.6059],[109.0377,-7.6014],[109.0321,-7.6041],[109.0308,-7.5976],[109.028,-7.5949],[109.0223,-7.5943],[109.0208,-7.5961],[109.0178,-7.5964],[109.018,-7.5946],[109.0156,-7.5953],[109.0163,-7.5936],[109.0146,-7.5915],[109.0166,-7.5881],[109.0166,-7.5839],[109.0103,-7.5809],[109.0061,-7.5811],[109.0063,-7.5795],[109.0018,-7.5778],[109.0031,-7.5761],[109.0052,-7.5769],[109.0067,-7.5747],[109.0123,-7.5731]]]}},{"type":"Feature","properties":{"name":"Citepus","name_en":"Citepus","admin_level":"7","osm_id":""},"geometry":{"type":"Polygon","coordinates":[[[108.9819,-7.5206],[108.9835,-7.5243],[108.9893,-7.5239],[108.9961,-7.5255],[109.0001,-7.5268],[109.0009,-7.5294],[109.0051,-7.53],[109.0028,-7.5483],[108.9998,-7.5592],[108.9929,-7.5633],[108.9894,-7.5634],[108.9867,-7.5662],[108.9773,-7.5677],[108.9726,-7.562],[108.9773,-7.5544],[108.9739,-7.5404],[108.9731,-7.5187],[108.9774,-7.5207],[108.9802,-7.5196],[108.9819,-7.5206]]]}},{"type":"Feature","properties":{"name":"Jambusari","name_en":"Jambusari","admin_level":"7","osm_id":""},"geometry":{"type":"Polygon","coordinates":[[[109.0168,-7.5463],[109.0396,-7.5582],[109.0367,-7.5718],[109.044,-7.5793],[109.0347,-7.5837],[109.0295,-7.5833],[109.0252,-7.585],[109.0216,-7.5825],[109.018,-7.5757],[109.0157,-7.5756],[109.0153,-7.5726],[109.0123,-7.5731],[109.0114,-7.5672],[109.0168,-7.5463]]]}},{"type":"Feature","properties":{"name":"JeruklegiKulon","name_en":"JeruklegiKulon","admin_level":"7","osm_id":""},"geometry":{"type":"Polygon","coordinates":[[[109.0125,-7.6276],[109.0116,-7.622],[109.009,-7.6228],[109.0084,-7.6202],[109.0034,-7.6183],[109.002,-7.6192],[108.9924,-7.6106],[108.9919,-7.6084],[109.0052,-7.6057],[109.0029,-7.5972],[109.0047,-7.5908],[109.0014,-7.5806],[109.0024,-7.5783],[109.0063,-7.5795],[109.0061,-7.5811],[109.0103,-7.5809],[109.0166,-7.5839],[109.0166,-7.5881],[109.0146,-7.5915],[109.0163,-7.5936],[109.0154,-7.5951],[109.018,-7.5946],[109.0178,-7.5964],[109.0199,-7.5955],[109.0192,-7.5978],[109.0216,-7.6009],[109.0221,-7.6038],[109.0207,-7.6055],[109.023,-7.609],[109.0227,-7.6114],[109.0192,-7.6111],[109.0152,-7.6166],[109.0118,-7.618],[109.0148,-7.6282],[109.0125,-7.6276]]]}},{"type":"Feature","properties":{"name":"JeruklegiWetan","name_en":"JeruklegiWetan","admin_level":"7","osm_id":""},"geometry":{"type":"Polygon","coordinates":[[[109.02,-7.596],[109.0223,-7.5943],[109.0301,-7.5963],[109.0321,-7.6041],[109.029,-7.6073],[109.029,-7.6115],[109.0336,-7.6168],[109.0363,-7.6164],[109.0391,-7.6195],[109.0399,-7.625],[109.0386,-7.6266],[109.0331,-7.6252],[109.0277,-7.6265],[109.0249,-7.629],[109.0144,-7.6289],[109.0118,-7.618],[109.0152,-7.6166],[109.0194,-7.6111],[109.0223,-7.6122],[109.0231,-7.6098],[109.0207,-7.6055],[109.0221,-7.6037],[109.0216,-7.6009],[109.0202,-7.6006],[109.0206,-7.5983],[109.0192,-7.5978],[109.02,-7.596]]]}},{"type":"Feature","properties":{"name":"Karangkemiri","name_en":"Karangkemiri","admin_level":"7","osm_id":""},"geometry":{"type":"Polygon","coordinates":[[[109.0586,-7.5568],[109.0595,-7.5661],[109.0619,-7.5716],[109.0577,-7.5752],[109.044,-7.5793],[109.0367,-7.5718],[109.0396,-7.5582],[109.0464,-7.56],[109.0568,-7.5561],[109.0586,-7.5568]]]}},{"type":"Feature","properties":{"name":"Mendala","name_en":"Mendala","admin_level":"7","osm_id":""},"geometry":{"type":"Polygon","coordinates":[[[109.062,-7.5708],[109.067,-7.5734],[109.0652,-7.5802],[109.0593,-7.5837],[109.0579,-7.5874],[109.0575,-7.5917],[109.0621,-7.5994],[109.0505,-7.6013],[109.0384,-7.59],[109.0347,-7.5837],[109.0512,-7.5761],[109.0577,-7.5752],[109.062,-7.5708]]]}},{"type":"Feature","properties":{"name":"Prapagan","name_en":"Prapagan","admin_level":"7","osm_id":""},"geometry":{"type":"Polygon","coordinates":[[[109.0028,-7.5438],[109.0127,-7.5439],[109.0171,-7.5478],[109.0114,-7.5672],[109.012,-7.5739],[109.0067,-7.5747],[109.0052,-7.5769],[109.0031,-7.5761],[109.0018,-7.5778],[109.0,-7.5761],[108.9924,-7.5758],[108.9922,-7.5721],[108.9854,-7.5681],[108.9894,-7.5634],[108.9929,-7.5633],[108.9998,-7.5592],[109.0028,-7.5438]]]}},{"type":"Feature","properties":{"name":"Sawangan","name_en":"Sawangan","admin_level":"7","osm_id":""},"geometry":{"type":"Polygon","coordinates":[[[109.0018,-7.5778],[109.0047,-7.5908],[109.0043,-7.5959],[109.0029,-7.597],[109.0052,-7.6057],[108.9919,-7.6084],[108.9894,-7.604],[108.9921,-7.6012],[108.9901,-7.5976],[108.9882,-7.5973],[108.9902,-7.596],[108.9879,-7.5939],[108.9898,-7.5938],[108.9859,-7.5911],[108.9838,-7.5869],[108.9823,-7.5862],[108.9812,-7.5887],[108.9789,-7.5887],[108.9789,-7.5866],[108.9771,-7.5859],[108.9793,-7.5786],[108.977,-7.573],[108.979,-7.5703],[108.9783,-7.5677],[108.9861,-7.5661],[108.9856,-7.5686],[108.9922,-7.5721],[108.9924,-7.5758],[109.0,-7.5761],[109.0018,-7.5778]]]}},{"type":"Feature","properties":{"name":"Sumingkir","name_en":"Sumingkir","admin_level":"7","osm_id":""},"geometry":{"type":"Polygon","coordinates":[[[109.0321,-7.6041],[109.0377,-7.6014],[109.0518,-7.608],[109.0533,-7.6122],[109.0567,-7.6136],[109.0561,-7.6184],[109.0585,-7.6216],[109.0596,-7.628],[109.0539,-7.6311],[109.0482,-7.6301],[109.0445,-7.6317],[109.0422,-7.6282],[109.0386,-7.6266],[109.0399,-7.625],[109.0391,-7.6195],[109.0363,-7.6164],[109.0336,-7.6168],[109.029,-7.6115],[109.029,-7.6073],[109.0321,-7.6041]]]}},{"type":"Feature","properties":{"name":"TritihLor","name_en":"TritihLor","admin_level":"7","osm_id":""},"geometry":{"type":"Polygon","coordinates":[[[109.0462,-7.6578],[109.0441,-7.6564],[109.0462,-7.6539],[109.0453,-7.6529],[109.0415,-7.652],[109.024,-7.6361],[109.0128,-7.6339],[109.0114,-7.6283],[109.0233,-7.6292],[109.0264,-7.6285],[109.0277,-7.6265],[109.0355,-7.625],[109.0422,-7.6282],[109.0444,-7.6316],[109.0482,-7.6301],[109.0539,-7.6311],[109.0507,-7.6336],[109.046,-7.6415],[109.055,-7.6506],[109.0489,-7.654],[109.0462,-7.6578]]]}},{"type":"Feature","properties":{"name":"TritihWetan","name_en":"TritihWetan","admin_level":"7","osm_id":""},"geometry":{"type":"Polygon","coordinates":[[[109.0576,-7.6626],[109.0456,-7.6689],[109.042,-7.661],[109.0463,-7.6596],[109.0489,-7.654],[109.055,-7.6506],[109.0658,-7.6546],[109.0659,-7.6566],[109.058,-7.6603],[109.0566,-7.6621],[109.0576,-7.6626]]]}}]}