{"type":"FeatureCollection","metadata":{"parent_osm_id":"gid_IDN_21_21_10_1","parent_name":"BikomiUtara","parent_name_1":"NusaTenggaraTimur","parent_gid":"IDN.21.21.10_1","parent_level":"6","child_level":"7","count":9,"source":"GADM 4.1","generated":"2026-05-09"},"features":[{"type":"Feature","properties":{"name":"Baas","name_en":"Baas","admin_level":"7","osm_id":""},"geometry":{"type":"Polygon","coordinates":[[[124.4221,-9.4145],[124.4189,-9.4145],[124.416,-9.4175],[124.4114,-9.4166],[124.4115,-9.4096],[124.4139,-9.4088],[124.4129,-9.4069],[124.4163,-9.4057],[124.4215,-9.3996],[124.4226,-9.4005],[124.4211,-9.4043],[124.4221,-9.4145]]]}},{"type":"Feature","properties":{"name":"Banain","name_en":"Banain","admin_level":"7","osm_id":""},"geometry":{"type":"Polygon","coordinates":[[[124.4146,-9.3642],[124.4223,-9.3606],[124.4246,-9.362],[124.4255,-9.3594],[124.4313,-9.3571],[124.4386,-9.3595],[124.4392,-9.3645],[124.4458,-9.3599],[124.4469,-9.3739],[124.4404,-9.3744],[124.4368,-9.3778],[124.4337,-9.3763],[124.4266,-9.3765],[124.4261,-9.3748],[124.428,-9.3732],[124.4218,-9.3738],[124.4188,-9.3673],[124.4146,-9.3642]]]}},{"type":"Feature","properties":{"name":"BanainB","name_en":"BanainB","admin_level":"7","osm_id":""},"geometry":{"type":"Polygon","coordinates":[[[124.4223,-9.3606],[124.4146,-9.3643],[124.411,-9.3612],[124.4095,-9.3617],[124.4061,-9.3533],[124.4021,-9.3503],[124.402,-9.3457],[124.4045,-9.3414],[124.4036,-9.3399],[124.4095,-9.3369],[124.412,-9.3383],[124.4149,-9.3356],[124.4208,-9.3359],[124.4216,-9.345],[124.4199,-9.3461],[124.4198,-9.3525],[124.4213,-9.3576],[124.4237,-9.3583],[124.4223,-9.3606]]]}},{"type":"Feature","properties":{"name":"BanainC","name_en":"BanainC","admin_level":"7","osm_id":""},"geometry":{"type":"Polygon","coordinates":[[[124.4223,-9.3606],[124.4237,-9.3583],[124.4213,-9.3576],[124.4198,-9.3525],[124.4217,-9.3407],[124.4202,-9.3356],[124.4219,-9.3363],[124.4265,-9.3318],[124.4311,-9.3339],[124.4342,-9.3315],[124.4353,-9.3349],[124.4365,-9.3333],[124.4386,-9.3336],[124.4416,-9.3366],[124.442,-9.3403],[124.4399,-9.3434],[124.4475,-9.3452],[124.45,-9.3496],[124.4503,-9.3536],[124.448,-9.3532],[124.4381,-9.3598],[124.4313,-9.3571],[124.4255,-9.3594],[124.4246,-9.362],[124.4223,-9.3606]]]}},{"type":"Feature","properties":{"name":"Faennake","name_en":"Faennake","admin_level":"7","osm_id":""},"geometry":{"type":"Polygon","coordinates":[[[124.4331,-9.4113],[124.4278,-9.412],[124.4241,-9.4143],[124.4216,-9.4135],[124.4211,-9.4043],[124.4226,-9.4005],[124.4213,-9.3983],[124.4238,-9.3883],[124.4262,-9.3866],[124.4288,-9.3766],[124.4368,-9.3778],[124.4404,-9.3744],[124.4469,-9.3739],[124.4483,-9.3745],[124.4494,-9.3845],[124.4446,-9.4012],[124.4477,-9.4051],[124.4457,-9.4055],[124.4436,-9.4089],[124.4331,-9.4113]]]}},{"type":"Feature","properties":{"name":"Haumeni","name_en":"Haumeni","admin_level":"7","osm_id":""},"geometry":{"type":"Polygon","coordinates":[[[124.4094,-9.4155],[124.4062,-9.3934],[124.4202,-9.3876],[124.4206,-9.3842],[124.422,-9.3847],[124.4248,-9.3869],[124.4215,-9.3996],[124.4163,-9.4057],[124.4129,-9.4069],[124.4139,-9.4088],[124.4115,-9.4096],[124.4114,-9.4166],[124.4094,-9.4155]]]}},{"type":"Feature","properties":{"name":"Napan","name_en":"Napan","admin_level":"7","osm_id":""},"geometry":{"type":"Polygon","coordinates":[[[124.4021,-9.3503],[124.4061,-9.3533],[124.4088,-9.3583],[124.411,-9.3687],[124.4094,-9.3718],[124.3942,-9.3717],[124.3924,-9.3768],[124.3885,-9.38],[124.3858,-9.3786],[124.3784,-9.3795],[124.3753,-9.3781],[124.3742,-9.3764],[124.3767,-9.3745],[124.3788,-9.3686],[124.3779,-9.3652],[124.3805,-9.3615],[124.38,-9.3568],[124.3896,-9.3606],[124.3999,-9.3534],[124.4021,-9.3503]]]}},{"type":"Feature","properties":{"name":"Sainoni","name_en":"Sainoni","admin_level":"7","osm_id":""},"geometry":{"type":"Polygon","coordinates":[[[124.4101,-9.3618],[124.4136,-9.3627],[124.4171,-9.3672],[124.4188,-9.3673],[124.4218,-9.3738],[124.428,-9.3732],[124.426,-9.3761],[124.4288,-9.3766],[124.4262,-9.3866],[124.4206,-9.3842],[124.4202,-9.3876],[124.4075,-9.392],[124.4089,-9.3852],[124.4072,-9.3792],[124.411,-9.3687],[124.4101,-9.3618]]]}},{"type":"Feature","properties":{"name":"Tes","name_en":"Tes","admin_level":"7","osm_id":""},"geometry":{"type":"Polygon","coordinates":[[[124.4062,-9.3934],[124.4004,-9.395],[124.3901,-9.3842],[124.3808,-9.3864],[124.3785,-9.3795],[124.384,-9.3784],[124.3893,-9.3798],[124.3924,-9.3768],[124.3942,-9.3717],[124.4094,-9.3718],[124.4072,-9.3802],[124.4087,-9.3881],[124.4062,-9.3934]]]}}]}