{"type":"FeatureCollection","metadata":{"parent_osm_id":"19957674","parent_name":"Cileungsi","parent_name_1":"JawaBarat","parent_gid":"IDN.9.5.12_1","parent_level":"6","child_level":"7","count":12,"source":"GADM 4.1","generated":"2026-05-09"},"features":[{"type":"Feature","properties":{"name":"Cileungsi","name_en":"Cileungsi","admin_level":"7","osm_id":""},"geometry":{"type":"Polygon","coordinates":[[[106.9788,-6.3983],[106.9735,-6.3988],[106.9707,-6.4009],[106.97,-6.407],[106.9632,-6.4045],[106.9617,-6.4061],[106.9556,-6.4053],[106.957,-6.4015],[106.9544,-6.4012],[106.9553,-6.3964],[106.9525,-6.3961],[106.9513,-6.3921],[106.9522,-6.3884],[106.9566,-6.3886],[106.9583,-6.3945],[106.9626,-6.3947],[106.9632,-6.3959],[106.9698,-6.395],[106.9697,-6.3937],[106.9724,-6.395],[106.9741,-6.3924],[106.977,-6.3927],[106.9768,-6.3968],[106.9788,-6.3983]]]}},{"type":"Feature","properties":{"name":"CileungsiKidul","name_en":"CileungsiKidul","admin_level":"7","osm_id":""},"geometry":{"type":"Polygon","coordinates":[[[106.9554,-6.4043],[106.9586,-6.4061],[106.9617,-6.4061],[106.9632,-6.4045],[106.97,-6.407],[106.9707,-6.401],[106.9735,-6.3988],[106.9788,-6.3983],[106.9837,-6.4002],[106.9875,-6.3982],[106.9847,-6.401],[106.9855,-6.4098],[106.9807,-6.4189],[106.9734,-6.4176],[106.9721,-6.4194],[106.9685,-6.4166],[106.9637,-6.4177],[106.9607,-6.4164],[106.9594,-6.4194],[106.9559,-6.4198],[106.9531,-6.4162],[106.9511,-6.4195],[106.9503,-6.4139],[106.9531,-6.4107],[106.9512,-6.4057],[106.9539,-6.406],[106.9554,-6.4043]]]}},{"type":"Feature","properties":{"name":"Cipenjo","name_en":"Cipenjo","admin_level":"7","osm_id":""},"geometry":{"type":"Polygon","coordinates":[[[107.0037,-6.378],[107.0059,-6.3782],[107.0064,-6.3845],[107.0004,-6.3915],[107.0003,-6.3979],[106.9978,-6.3979],[106.9974,-6.3955],[106.9884,-6.3988],[106.9865,-6.398],[106.9837,-6.4002],[106.9768,-6.3968],[106.9866,-6.3857],[106.9887,-6.3862],[106.9882,-6.3845],[106.9946,-6.3831],[106.9957,-6.3786],[107.0012,-6.3793],[107.0037,-6.378]]]}},{"type":"Feature","properties":{"name":"Cipeucang","name_en":"Cipeucang","admin_level":"7","osm_id":""},"geometry":{"type":"Polygon","coordinates":[[[107.0312,-6.4109],[107.0354,-6.4057],[107.0415,-6.4069],[107.0472,-6.4026],[107.0456,-6.4068],[107.0444,-6.4062],[107.0391,-6.4098],[107.0369,-6.4136],[107.0399,-6.4163],[107.0443,-6.4133],[107.044,-6.4191],[107.0455,-6.4195],[107.046,-6.4242],[107.0506,-6.4276],[107.0496,-6.4351],[107.053,-6.4367],[107.0493,-6.4369],[107.0482,-6.4387],[107.0479,-6.4367],[107.0457,-6.4391],[107.0431,-6.4387],[107.0396,-6.4407],[107.0386,-6.4393],[107.0365,-6.4417],[107.0377,-6.436],[107.0331,-6.4257],[107.0338,-6.4225],[107.0294,-6.4181],[107.0312,-6.4109]]]}},{"type":"Feature","properties":{"name":"Dayeuh","name_en":"Dayeuh","admin_level":"7","osm_id":""},"geometry":{"type":"Polygon","coordinates":[[[106.9559,-6.4198],[106.9594,-6.4194],[106.9607,-6.4164],[106.9637,-6.4177],[106.9685,-6.4166],[106.9721,-6.4194],[106.9734,-6.4176],[106.983,-6.4198],[106.9842,-6.4211],[106.9821,-6.426],[106.9834,-6.4365],[106.9816,-6.44],[106.9786,-6.442],[106.9724,-6.44],[106.9693,-6.4442],[106.9622,-6.4491],[106.9604,-6.4477],[106.9619,-6.4407],[106.9562,-6.4423],[106.9514,-6.4404],[106.9527,-6.4336],[106.9512,-6.4265],[106.9565,-6.4232],[106.9559,-6.4198]]]}},{"type":"Feature","properties":{"name":"Gandoang","name_en":"Gandoang","admin_level":"7","osm_id":""},"geometry":{"type":"Polygon","coordinates":[[[107.0231,-6.4042],[107.0232,-6.4097],[107.0268,-6.409],[107.0269,-6.4103],[107.0312,-6.4109],[107.0295,-6.4178],[107.0273,-6.4199],[107.016,-6.418],[107.01,-6.4208],[107.0066,-6.4193],[106.9979,-6.4212],[106.9949,-6.4205],[106.9975,-6.4161],[106.9951,-6.4149],[107.0002,-6.4124],[107.0007,-6.4103],[107.0047,-6.4097],[107.0061,-6.4064],[107.0037,-6.4061],[107.0052,-6.4044],[107.019,-6.4002],[107.0208,-6.4014],[107.0202,-6.404],[107.0231,-6.4042]]]}},{"type":"Feature","properties":{"name":"Jatisari","name_en":"Jatisari","admin_level":"7","osm_id":""},"geometry":{"type":"Polygon","coordinates":[[[107.0584,-6.4231],[107.0572,-6.4242],[107.0589,-6.4267],[107.0546,-6.4289],[107.056,-6.4292],[107.0564,-6.4318],[107.053,-6.432],[107.0518,-6.4349],[107.0531,-6.4366],[107.0496,-6.4351],[107.0506,-6.4276],[107.046,-6.4242],[107.0455,-6.4195],[107.044,-6.4191],[107.0443,-6.4133],[107.0399,-6.4163],[107.0369,-6.4136],[107.0391,-6.4098],[107.0444,-6.4062],[107.0456,-6.4068],[107.0472,-6.398],[107.0515,-6.3943],[107.0622,-6.3997],[107.0611,-6.4016],[107.0588,-6.4008],[107.059,-6.4031],[107.0545,-6.4051],[107.0544,-6.4068],[107.0568,-6.4071],[107.0583,-6.4105],[107.0544,-6.4127],[107.0576,-6.4156],[107.0555,-6.4166],[107.0522,-6.4154],[107.0512,-6.4172],[107.0552,-6.4207],[107.0546,-6.4194],[107.0564,-6.4176],[107.0567,-6.4223],[107.0584,-6.4231]]]}},{"type":"Feature","properties":{"name":"LimusNunggal","name_en":"LimusNunggal","admin_level":"7","osm_id":""},"geometry":{"type":"Polygon","coordinates":[[[106.977,-6.3927],[106.9741,-6.3924],[106.9731,-6.3949],[106.9697,-6.3937],[106.9698,-6.395],[106.9641,-6.396],[106.9583,-6.3945],[106.9567,-6.3921],[106.9572,-6.3844],[106.9612,-6.3844],[106.9616,-6.3805],[106.964,-6.3784],[106.9612,-6.3759],[106.9653,-6.3703],[106.9637,-6.3635],[106.9693,-6.364],[106.9675,-6.3613],[106.9687,-6.355],[106.9662,-6.3519],[106.9696,-6.3491],[106.9771,-6.3533],[106.9784,-6.3568],[106.982,-6.358],[106.9792,-6.3619],[106.979,-6.3709],[106.9752,-6.375],[106.9746,-6.3799],[106.9711,-6.3829],[106.9707,-6.3868],[106.9685,-6.3874],[106.9687,-6.3888],[106.975,-6.3888],[106.977,-6.3927]]]}},{"type":"Feature","properties":{"name":"Mampir","name_en":"Mampir","admin_level":"7","osm_id":""},"geometry":{"type":"Polygon","coordinates":[[[106.9821,-6.4386],[106.9834,-6.4365],[106.9821,-6.426],[106.9842,-6.4211],[106.9891,-6.421],[106.992,-6.4187],[106.9979,-6.4212],[107.0066,-6.4193],[107.01,-6.4208],[107.016,-6.418],[107.0196,-6.4196],[107.015,-6.4215],[107.0129,-6.4291],[107.0101,-6.433],[107.0106,-6.4358],[107.0035,-6.4344],[107.0026,-6.4438],[106.9977,-6.4452],[106.992,-6.4411],[106.9921,-6.4394],[106.9821,-6.4386]]]}},{"type":"Feature","properties":{"name":"Mekarsari","name_en":"Mekarsari","admin_level":"7","osm_id":""},"geometry":{"type":"Polygon","coordinates":[[[107.0048,-6.3879],[107.0111,-6.3919],[107.0085,-6.3959],[107.0103,-6.4026],[107.0047,-6.4047],[107.0037,-6.4063],[107.0062,-6.4068],[107.0047,-6.4097],[107.0007,-6.4103],[107.0002,-6.4124],[106.9951,-6.4149],[106.9975,-6.4161],[106.9949,-6.419],[106.992,-6.4187],[106.9854,-6.4215],[106.9807,-6.4189],[106.9855,-6.4098],[106.9854,-6.3997],[106.9974,-6.3955],[106.9978,-6.3979],[107.0003,-6.3979],[107.0004,-6.3915],[107.0048,-6.3879]]]}},{"type":"Feature","properties":{"name":"PasirAngin","name_en":"PasirAngin","admin_level":"7","osm_id":""},"geometry":{"type":"Polygon","coordinates":[[[106.994,-6.3671],[106.993,-6.3705],[106.9957,-6.3786],[106.9934,-6.3842],[106.9882,-6.3845],[106.9887,-6.3862],[106.9866,-6.3857],[106.9777,-6.3948],[106.975,-6.3888],[106.9687,-6.3888],[106.9685,-6.3874],[106.9707,-6.3868],[106.9711,-6.3829],[106.9746,-6.3799],[106.9752,-6.375],[106.979,-6.3709],[106.9797,-6.3643],[106.9881,-6.3637],[106.994,-6.3671]]]}},{"type":"Feature","properties":{"name":"SetuSari","name_en":"SetuSari","admin_level":"7","osm_id":""},"geometry":{"type":"Polygon","coordinates":[[[107.0294,-6.4181],[107.0338,-6.4225],[107.0331,-6.4257],[107.0377,-6.436],[107.0365,-6.4417],[107.0276,-6.4453],[107.0269,-6.4472],[107.0257,-6.4449],[107.024,-6.4451],[107.0242,-6.4357],[107.0201,-6.4352],[107.0124,-6.4379],[107.0103,-6.4411],[107.0082,-6.4404],[107.0058,-6.4431],[107.0031,-6.4432],[107.0035,-6.4344],[107.0106,-6.4358],[107.0101,-6.433],[107.0129,-6.4291],[107.015,-6.4215],[107.019,-6.4196],[107.0271,-6.42],[107.0294,-6.4181]]]}}]}