{"type":"FeatureCollection","metadata":{"parent_osm_id":"gid_IDN_17_1_2_1","parent_name":"Kemiling","parent_name_1":"Lampung","parent_gid":"IDN.17.1.2_1","parent_level":"6","child_level":"7","count":7,"source":"GADM 4.1","generated":"2026-05-07"},"features":[{"type":"Feature","properties":{"name":"BeringinRaya","name_en":"BeringinRaya","admin_level":"7","osm_id":""},"geometry":{"type":"Polygon","coordinates":[[[105.2147,-5.4088],[105.199,-5.4103],[105.2003,-5.4141],[105.198,-5.4143],[105.1979,-5.409],[105.2001,-5.405],[105.1971,-5.4037],[105.1979,-5.3939],[105.1968,-5.3928],[105.2136,-5.3962],[105.2109,-5.4003],[105.2121,-5.4038],[105.222,-5.4085],[105.2147,-5.4088]]]}},{"type":"Feature","properties":{"name":"Kedaung","name_en":"Kedaung","admin_level":"7","osm_id":""},"geometry":{"type":"Polygon","coordinates":[[[105.1993,-5.4144],[105.2003,-5.4141],[105.199,-5.4103],[105.2147,-5.4088],[105.2134,-5.4147],[105.2159,-5.4249],[105.215,-5.4274],[105.2116,-5.4274],[105.2117,-5.4293],[105.206,-5.4294],[105.2046,-5.4213],[105.1954,-5.4201],[105.195,-5.4185],[105.1992,-5.417],[105.1993,-5.4144]]]}},{"type":"Feature","properties":{"name":"KemilingPermaiI","name_en":"KemilingPermaiI","admin_level":"7","osm_id":""},"geometry":{"type":"Polygon","coordinates":[[[105.2208,-5.3778],[105.2218,-5.3842],[105.2191,-5.3905],[105.2151,-5.3908],[105.2146,-5.3923],[105.2075,-5.3895],[105.2062,-5.3792],[105.208,-5.3749],[105.2116,-5.3732],[105.2113,-5.3698],[105.2148,-5.3692],[105.2176,-5.3709],[105.2194,-5.3734],[105.2185,-5.377],[105.2208,-5.3778]]]}},{"type":"Feature","properties":{"name":"LangkaPura","name_en":"LangkaPura","admin_level":"7","osm_id":""},"geometry":{"type":"Polygon","coordinates":[[[105.222,-5.4085],[105.2191,-5.407],[105.2181,-5.4007],[105.2206,-5.396],[105.2231,-5.3949],[105.2217,-5.3939],[105.2228,-5.3903],[105.2208,-5.3778],[105.226,-5.3772],[105.2301,-5.3794],[105.2281,-5.3897],[105.2327,-5.3909],[105.2336,-5.3935],[105.2361,-5.3947],[105.2314,-5.4007],[105.2276,-5.3994],[105.222,-5.4061],[105.222,-5.4085]]]}},{"type":"Feature","properties":{"name":"PinangJaya","name_en":"PinangJaya","admin_level":"7","osm_id":""},"geometry":{"type":"Polygon","coordinates":[[[105.2018,-5.3937],[105.1968,-5.3928],[105.1979,-5.3939],[105.1973,-5.4044],[105.1919,-5.4035],[105.1917,-5.4049],[105.1852,-5.4006],[105.1904,-5.394],[105.1911,-5.391],[105.1938,-5.3912],[105.1975,-5.3851],[105.1987,-5.3897],[105.2042,-5.3879],[105.2018,-5.3937]]]}},{"type":"Feature","properties":{"name":"SumberAgung","name_en":"SumberAgung","admin_level":"7","osm_id":""},"geometry":{"type":"Polygon","coordinates":[[[105.1973,-5.4044],[105.2001,-5.405],[105.1979,-5.4096],[105.1992,-5.417],[105.1959,-5.4183],[105.1958,-5.4167],[105.1899,-5.4162],[105.1864,-5.4198],[105.1814,-5.4171],[105.1755,-5.4075],[105.1828,-5.3995],[105.185,-5.3993],[105.1917,-5.4049],[105.1919,-5.4035],[105.1973,-5.4044]]]}},{"type":"Feature","properties":{"name":"SumberRejo","name_en":"SumberRejo","admin_level":"7","osm_id":""},"geometry":{"type":"Polygon","coordinates":[[[105.2191,-5.407],[105.212,-5.4036],[105.2109,-5.4003],[105.2136,-5.3962],[105.2018,-5.3937],[105.2042,-5.3879],[105.2146,-5.3923],[105.2151,-5.3908],[105.2191,-5.3905],[105.2213,-5.3858],[105.2221,-5.3866],[105.2217,-5.3939],[105.2231,-5.3949],[105.2206,-5.396],[105.2182,-5.4001],[105.2191,-5.407]]]}}]}