{"type":"FeatureCollection","metadata":{"parent_osm_id":"gid_IDN_23_10_8_1","parent_name":"Wonawa","parent_name_1":"Papua","parent_gid":"IDN.23.10.8_1","parent_level":"6","child_level":"7","count":6,"source":"GADM 4.1","generated":"2026-05-08"},"features":[{"type":"Feature","properties":{"name":"Aibondeni","name_en":"Aibondeni","admin_level":"7","osm_id":""},"geometry":{"type":"Polygon","coordinates":[[[135.654,-1.6691],[135.6532,-1.6728],[135.6582,-1.6768],[135.6588,-1.6808],[135.6573,-1.6851],[135.6525,-1.6855],[135.6513,-1.684],[135.6444,-1.6854],[135.6408,-1.6841],[135.6375,-1.6876],[135.632,-1.69],[135.6314,-1.6923],[135.6294,-1.6924],[135.6287,-1.6944],[135.63,-1.6957],[135.6288,-1.6966],[135.6136,-1.6972],[135.6125,-1.6963],[135.616,-1.6948],[135.614,-1.6909],[135.6263,-1.6867],[135.6182,-1.684],[135.6102,-1.6845],[135.6077,-1.6811],[135.6037,-1.6825],[135.5969,-1.6807],[135.5934,-1.6839],[135.5847,-1.6832],[135.5854,-1.6502],[135.6549,-1.6645],[135.654,-1.6691]]]}},{"type":"Feature","properties":{"name":"Dumani","name_en":"Dumani","admin_level":"7","osm_id":""},"geometry":{"type":"Polygon","coordinates":[[[135.526,-1.6647],[135.5223,-1.6632],[135.5219,-1.6605],[135.5165,-1.6643],[135.5129,-1.6698],[135.5091,-1.6701],[135.5058,-1.6637],[135.5046,-1.6567],[135.496,-1.6493],[135.5027,-1.6422],[135.5108,-1.6391],[135.5277,-1.6383],[135.5314,-1.6595],[135.526,-1.6647]]]}},{"type":"Feature","properties":{"name":"Kanaki","name_en":"Kanaki","admin_level":"7","osm_id":""},"geometry":{"type":"Polygon","coordinates":[[[135.4988,-1.6513],[135.5046,-1.6567],[135.5093,-1.6714],[135.5131,-1.6736],[135.5113,-1.6758],[135.5079,-1.6744],[135.5075,-1.679],[135.5139,-1.6832],[135.5144,-1.6862],[135.5093,-1.686],[135.5004,-1.6796],[135.4942,-1.6794],[135.4928,-1.6745],[135.4903,-1.6748],[135.4862,-1.6796],[135.4771,-1.6813],[135.4735,-1.6796],[135.4737,-1.6691],[135.4712,-1.668],[135.4703,-1.6645],[135.476,-1.6603],[135.4867,-1.6563],[135.496,-1.6493],[135.4988,-1.6513]]]}},{"type":"Feature","properties":{"name":"Miosnum","name_en":"Miosnum","admin_level":"7","osm_id":""},"geometry":{"type":"Polygon","coordinates":[[[135.1232,-1.4684],[135.1256,-1.4729],[135.1212,-1.4767],[135.1257,-1.4784],[135.1286,-1.4775],[135.1289,-1.4743],[135.131,-1.4733],[135.1338,-1.4781],[135.1369,-1.4716],[135.1388,-1.4711],[135.1406,-1.4733],[135.1462,-1.4747],[135.1468,-1.4796],[135.1498,-1.4813],[135.1496,-1.4833],[135.1535,-1.4873],[135.1537,-1.4899],[135.1561,-1.4906],[135.1609,-1.4874],[135.1651,-1.4779],[135.1682,-1.4777],[135.1704,-1.4815],[135.1746,-1.4779],[135.1787,-1.4778],[135.1816,-1.4885],[135.1866,-1.4833],[135.1918,-1.4818],[135.1924,-1.4766],[135.197,-1.4807],[135.1984,-1.4781],[135.2029,-1.4767],[135.2052,-1.4776],[135.2068,-1.4762],[135.2099,-1.4768],[135.2157,-1.4744],[135.2185,-1.4772],[135.2171,-1.4821],[135.2176,-1.4892],[135.2071,-1.4932],[135.2063,-1.4994],[135.2078,-1.5043],[135.2151,-1.5019],[135.2189,-1.5039],[135.2217,-1.508],[135.2242,-1.5077],[135.2248,-1.505],[135.2308,-1.5008],[135.2304,-1.4987],[135.2254,-1.4943],[135.2303,-1.4911],[135.2319,-1.4862],[135.2358,-1.4829],[135.2379,-1.4845],[135.2456,-1.4843],[135.2493,-1.4942],[135.2439,-1.498],[135.2417,-1.5036],[135.2434,-1.505],[135.2473,-1.5042],[135.2505,-1.5071],[135.2501,-1.5115],[135.2474,-1.5142],[135.2496,-1.5168],[135.2494,-1.5195],[135.2535,-1.5218],[135.2595,-1.518],[135.2578,-1.5117],[135.2615,-1.5068],[135.2604,-1.5025],[135.2638,-1.4962],[135.2634,-1.4923],[135.2583,-1.4916],[135.2604,-1.489],[135.2597,-1.4824],[135.2615,-1.4788],[135.2654,-1.4819],[135.2713,-1.483],[135.2718,-1.4866],[135.2694,-1.488],[135.2712,-1.4908],[135.2792,-1.4817],[135.2833,-1.482],[135.2856,-1.4786],[135.2904,-1.479],[135.2934,-1.4751],[135.2973,-1.4747],[135.299,-1.48],[135.2961,-1.487],[135.2985,-1.4882],[135.3007,-1.4862],[135.3038,-1.4873],[135.305,-1.4907],[135.3089,-1.4903],[135.3088,-1.4934],[135.3109,-1.496],[135.3155,-1.494],[135.3206,-1.4944],[135.3251,-1.4885],[135.3288,-1.4883],[135.3353,-1.481],[135.3374,-1.4832],[135.3344,-1.4849],[135.3339,-1.4876],[135.3361,-1.493],[135.329,-1.501],[135.3237,-1.5026],[135.326,-1.5053],[135.3254,-1.5095],[135.3204,-1.5092],[135.3137,-1.5137],[135.3089,-1.5125],[135.3055,-1.5161],[135.299,-1.5193],[135.2892,-1.5187],[135.2856,-1.5211],[135.2822,-1.5172],[135.2791,-1.5165],[135.2617,-1.5267],[135.2573,-1.5266],[135.2561,-1.5284],[135.2473,-1.5298],[135.245,-1.5286],[135.2426,-1.5216],[135.2303,-1.5184],[135.2299,-1.5199],[135.2237,-1.519],[135.2215,-1.5252],[135.2194,-1.5248],[135.2192,-1.5221],[135.2155,-1.5231],[135.215,-1.5208],[135.2126,-1.5208],[135.2093,-1.5245],[135.2097,-1.5259],[135.2056,-1.528],[135.2077,-1.5231],[135.2034,-1.5175],[135.2011,-1.5182],[135.1999,-1.5166],[135.197,-1.5165],[135.1937,-1.5183],[135.1897,-1.5154],[135.1861,-1.5184],[135.1862,-1.5123],[135.1769,-1.5109],[135.1757,-1.5149],[135.1785,-1.5212],[135.1757,-1.5242],[135.1691,-1.5203],[135.168,-1.5181],[135.1591,-1.5209],[135.1528,-1.5194],[135.1455,-1.5125],[135.1435,-1.5122],[135.136,-1.5038],[135.1351,-1.5064],[135.1304,-1.5066],[135.129,-1.509],[135.1244,-1.5056],[135.1222,-1.5004],[135.1195,-1.5021],[135.1144,-1.4997],[135.1046,-1.508],[135.102,-1.5064],[135.0986,-1.508],[135.0914,-1.5009],[135.0957,-1.497],[135.0944,-1.4937],[135.0964,-1.4931],[135.0969,-1.4906],[135.0947,-1.4893],[135.1007,-1.4864],[135.1018,-1.4843],[135.1002,-1.4813],[135.1066,-1.4832],[135.1137,-1.4793],[135.1143,-1.4748],[135.1115,-1.4715],[135.1144,-1.4653],[135.1181,-1.465],[135.1171,-1.4632],[135.1232,-1.4684]]]}},{"type":"Feature","properties":{"name":"Woinap","name_en":"Woinap","admin_level":"7","osm_id":""},"geometry":{"type":"Polygon","coordinates":[[[135.526,-1.6231],[135.5277,-1.6383],[135.5108,-1.6391],[135.5027,-1.6422],[135.4987,-1.6473],[135.4867,-1.6563],[135.4769,-1.6601],[135.4742,-1.6598],[135.4665,-1.6533],[135.4697,-1.648],[135.4699,-1.6445],[135.4647,-1.6358],[135.4596,-1.6331],[135.4497,-1.643],[135.4455,-1.6388],[135.4424,-1.6278],[135.4441,-1.6225],[135.4419,-1.6208],[135.4439,-1.6196],[135.4437,-1.6128],[135.442,-1.6115],[135.4331,-1.6119],[135.4204,-1.6078],[135.4158,-1.6079],[135.4111,-1.6047],[135.4104,-1.6018],[135.4188,-1.6008],[135.435,-1.6033],[135.4363,-1.6031],[135.4363,-1.6013],[135.4416,-1.6028],[135.4543,-1.5994],[135.4593,-1.6015],[135.4658,-1.6013],[135.474,-1.5986],[135.4781,-1.5991],[135.495,-1.6085],[135.4998,-1.609],[135.5026,-1.6072],[135.52,-1.6085],[135.5246,-1.6114],[135.526,-1.6231]]]}},{"type":"Feature","properties":{"name":"Wooi","name_en":"Wooi","admin_level":"7","osm_id":""},"geometry":{"type":"Polygon","coordinates":[[[135.5277,-1.6383],[135.5854,-1.6502],[135.5857,-1.6731],[135.5844,-1.6803],[135.5808,-1.6809],[135.5795,-1.6872],[135.5783,-1.6873],[135.5754,-1.6806],[135.5775,-1.6796],[135.5755,-1.6742],[135.5701,-1.6766],[135.5665,-1.6718],[135.5641,-1.6726],[135.5616,-1.6712],[135.5617,-1.6679],[135.5547,-1.6666],[135.5551,-1.6629],[135.5535,-1.6625],[135.5444,-1.6705],[135.5465,-1.673],[135.546,-1.6755],[135.5441,-1.6756],[135.5449,-1.6767],[135.5423,-1.6766],[135.5422,-1.6753],[135.5414,-1.6768],[135.5356,-1.6778],[135.5346,-1.6795],[135.5325,-1.6774],[135.5324,-1.679],[135.5267,-1.6809],[135.5245,-1.6849],[135.5187,-1.6866],[135.5198,-1.6776],[135.5273,-1.6699],[135.5283,-1.6672],[135.526,-1.6647],[135.5314,-1.6595],[135.5277,-1.6383]]]}}]}