{"type":"FeatureCollection","metadata":{"parent_osm_id":"gid_IDN_18_7_4_1","parent_name":"MorotaiTimur","parent_name_1":"MalukuUtara","parent_gid":"IDN.18.7.4_1","parent_level":"6","child_level":"7","count":8,"source":"GADM 4.1","generated":"2026-05-09"},"features":[{"type":"Feature","properties":{"name":"BuhoBuho","name_en":"BuhoBuho","admin_level":"7","osm_id":""},"geometry":{"type":"Polygon","coordinates":[[[128.4572,2.2907],[128.4673,2.2981],[128.5395,2.2469],[128.618,2.2073],[128.6119,2.2013],[128.6101,2.197],[128.6028,2.1944],[128.602,2.1876],[128.599,2.185],[128.5712,2.2005],[128.5582,2.2115],[128.5222,2.2281],[128.4572,2.2907]]]}},{"type":"Feature","properties":{"name":"Lifao","name_en":"Lifao","admin_level":"7","osm_id":""},"geometry":{"type":"Polygon","coordinates":[[[128.4673,2.2981],[128.4787,2.3063],[128.4927,2.3014],[128.5739,2.2617],[128.6089,2.2477],[128.6275,2.2477],[128.6259,2.2451],[128.624,2.2328],[128.622,2.2308],[128.6227,2.2223],[128.6247,2.2179],[128.6215,2.2111],[128.618,2.2073],[128.5395,2.2469],[128.4673,2.2981]]]}},{"type":"Feature","properties":{"name":"Mira","name_en":"Mira","admin_level":"7","osm_id":""},"geometry":{"type":"Polygon","coordinates":[[[128.4958,2.2257],[128.5102,2.2134],[128.5477,2.1958],[128.5809,2.173],[128.5938,2.1679],[128.5868,2.1613],[128.5855,2.1553],[128.5755,2.1567],[128.5565,2.167],[128.5141,2.1986],[128.4958,2.2257]]]}},{"type":"Feature","properties":{"name":"Rahmat","name_en":"Rahmat","admin_level":"7","osm_id":""},"geometry":{"type":"Polygon","coordinates":[[[128.4783,2.2203],[128.4958,2.2257],[128.5141,2.1986],[128.5565,2.167],[128.5755,2.1567],[128.5855,2.1553],[128.5843,2.1491],[128.579,2.1449],[128.575,2.1371],[128.576,2.1323],[128.5794,2.1277],[128.5793,2.1197],[128.5652,2.1265],[128.5355,2.1605],[128.4938,2.2016],[128.4783,2.2203]]]}},{"type":"Feature","properties":{"name":"Sambiki","name_en":"Sambiki","admin_level":"7","osm_id":""},"geometry":{"type":"Polygon","coordinates":[[[128.5014,2.1521],[128.4924,2.1707],[128.4784,2.1861],[128.4767,2.1934],[128.4773,2.2025],[128.4976,2.1809],[128.521,2.1517],[128.5411,2.1129],[128.5484,2.1033],[128.5448,2.1001],[128.5444,2.0974],[128.5415,2.0981],[128.5334,2.1058],[128.5201,2.1302],[128.5014,2.1521]]]}},{"type":"Feature","properties":{"name":"SambikiBaru","name_en":"SambikiBaru","admin_level":"7","osm_id":""},"geometry":{"type":"Polygon","coordinates":[[[128.5033,2.0589],[128.5002,2.0806],[128.5069,2.1019],[128.51,2.1247],[128.5014,2.1521],[128.5201,2.1302],[128.5334,2.1058],[128.5446,2.0969],[128.5422,2.0909],[128.5325,2.0818],[128.5273,2.0818],[128.5248,2.0801],[128.5239,2.0728],[128.5207,2.0676],[128.5101,2.0612],[128.5033,2.0589]]]}},{"type":"Feature","properties":{"name":"Sangowo","name_en":"Sangowo","admin_level":"7","osm_id":""},"geometry":{"type":"Polygon","coordinates":[[[128.4773,2.2025],[128.4783,2.2203],[128.4938,2.2016],[128.5355,2.1605],[128.5652,2.1265],[128.5793,2.1197],[128.5777,2.1115],[128.574,2.107],[128.5668,2.1035],[128.5625,2.1054],[128.5614,2.1046],[128.5609,2.1059],[128.5516,2.105],[128.5484,2.1033],[128.5411,2.1129],[128.521,2.1517],[128.4976,2.1809],[128.4773,2.2025]]]}},{"type":"Feature","properties":{"name":"Wewemo","name_en":"Wewemo","admin_level":"7","osm_id":""},"geometry":{"type":"Polygon","coordinates":[[[128.4962,2.2258],[128.4386,2.2772],[128.4572,2.2907],[128.5222,2.2281],[128.5582,2.2115],[128.5712,2.2005],[128.599,2.185],[128.5933,2.175],[128.594,2.1681],[128.5809,2.173],[128.5477,2.1958],[128.5102,2.2134],[128.4962,2.2258]]]}}]}