{"type":"FeatureCollection","metadata":{"parent_osm_id":"gid_IDN_17_6_5_1","parent_name":"AbungSemuli","parent_name_1":"Lampung","parent_gid":"IDN.17.6.5_1","parent_level":"6","child_level":"7","count":7,"source":"GADM 4.1","generated":"2026-05-07"},"features":[{"type":"Feature","properties":{"name":"GunungKramat","name_en":"GunungKramat","admin_level":"7","osm_id":""},"geometry":{"type":"Polygon","coordinates":[[[105.1206,-4.7493],[105.1205,-4.7538],[105.1234,-4.7602],[105.1227,-4.7659],[105.1108,-4.7658],[105.1071,-4.7606],[105.0858,-4.7559],[105.0981,-4.7416],[105.1206,-4.7493]]]}},{"type":"Feature","properties":{"name":"GunungSari","name_en":"GunungSari","admin_level":"7","osm_id":""},"geometry":{"type":"Polygon","coordinates":[[[105.1227,-4.7659],[105.0979,-4.8136],[105.0818,-4.8066],[105.0681,-4.7935],[105.0595,-4.7824],[105.0858,-4.7559],[105.1071,-4.7606],[105.1108,-4.7658],[105.1227,-4.7659]]]}},{"type":"Feature","properties":{"name":"PapanAsri","name_en":"PapanAsri","admin_level":"7","osm_id":""},"geometry":{"type":"Polygon","coordinates":[[[105.0979,-4.8136],[105.0913,-4.8201],[105.0772,-4.8234],[105.0691,-4.822],[105.0577,-4.8145],[105.0597,-4.805],[105.0487,-4.8076],[105.0595,-4.7824],[105.0681,-4.7935],[105.0818,-4.8066],[105.0979,-4.8136]]]}},{"type":"Feature","properties":{"name":"SemuliJaya","name_en":"SemuliJaya","admin_level":"7","osm_id":""},"geometry":{"type":"Polygon","coordinates":[[[104.9867,-4.847],[104.9873,-4.8424],[104.9826,-4.8201],[104.9855,-4.769],[105.0058,-4.776],[105.007,-4.7838],[105.0053,-4.7944],[105.0062,-4.805],[105.0118,-4.8087],[105.0078,-4.8158],[105.008,-4.8394],[104.9867,-4.847]]]}},{"type":"Feature","properties":{"name":"SemuliRaya","name_en":"SemuliRaya","admin_level":"7","osm_id":""},"geometry":{"type":"Polygon","coordinates":[[[105.008,-4.8394],[105.0078,-4.8158],[105.0118,-4.8087],[105.0062,-4.805],[105.0053,-4.7944],[105.007,-4.7838],[105.0058,-4.776],[105.013,-4.7785],[105.0487,-4.8076],[105.0251,-4.8222],[105.0177,-4.8359],[105.008,-4.8394]]]}},{"type":"Feature","properties":{"name":"SidoRahayu","name_en":"SidoRahayu","admin_level":"7","osm_id":""},"geometry":{"type":"Polygon","coordinates":[[[105.0818,-4.8396],[105.0676,-4.864],[105.0588,-4.8709],[105.0533,-4.8726],[105.0501,-4.8554],[105.0577,-4.8145],[105.0691,-4.822],[105.0816,-4.8232],[105.0913,-4.8201],[105.0818,-4.8396]]]}},{"type":"Feature","properties":{"name":"Sukamaju","name_en":"Sukamaju","admin_level":"7","osm_id":""},"geometry":{"type":"Polygon","coordinates":[[[104.9896,-4.8794],[104.9814,-4.8781],[104.9867,-4.847],[105.0177,-4.8359],[105.0207,-4.8403],[105.0203,-4.8419],[105.0051,-4.854],[104.9987,-4.8683],[104.9896,-4.8794]]]}}]}