{"type":"FeatureCollection","metadata":{"parent_osm_id":"gid_IDN_32_30_7_1","parent_name":"BatangToru","parent_name_1":"SumateraUtara","parent_gid":"IDN.32.30.7_1","parent_level":"6","child_level":"7","count":29,"source":"GADM 4.1","generated":"2026-05-08"},"features":[{"type":"Feature","properties":{"name":"AekNgadol","name_en":"AekNgadol","admin_level":"7","osm_id":""},"geometry":{"type":"Polygon","coordinates":[[[99.0455,1.5092],[99.0472,1.5091],[99.0487,1.5067],[99.046,1.5043],[99.0465,1.5014],[99.0436,1.4987],[99.0439,1.4963],[99.0361,1.4955],[99.0403,1.5053],[99.0451,1.507],[99.0455,1.5092]]]}},{"type":"Feature","properties":{"name":"AekPining","name_en":"AekPining","admin_level":"7","osm_id":""},"geometry":{"type":"Polygon","coordinates":[[[99.0712,1.4931],[99.0553,1.4865],[99.0548,1.4877],[99.0607,1.4907],[99.0712,1.4931]]]}},{"type":"Feature","properties":{"name":"BatuHoring","name_en":"BatuHoring","admin_level":"7","osm_id":""},"geometry":{"type":"Polygon","coordinates":[[[99.1257,1.5087],[99.0844,1.5145],[99.0602,1.5135],[99.027,1.5178],[99.0073,1.5263],[98.9933,1.5348],[98.9967,1.5385],[99.0017,1.5388],[99.0062,1.5425],[99.005,1.5478],[99.0128,1.5564],[99.0126,1.5659],[99.0156,1.5704],[99.0214,1.5723],[99.0256,1.5775],[99.0273,1.5863],[99.0305,1.5903],[99.0294,1.5982],[99.0314,1.6068],[99.0379,1.6239],[99.0449,1.629],[99.057,1.643],[99.0603,1.6678],[99.0517,1.7001],[99.0617,1.6993],[99.0685,1.6968],[99.0779,1.6986],[99.08,1.6941],[99.085,1.6913],[99.0896,1.6816],[99.0972,1.6739],[99.1047,1.6614],[99.1107,1.6574],[99.1145,1.6511],[99.1168,1.6513],[99.1187,1.6485],[99.1487,1.6476],[99.163,1.6643],[99.1684,1.6539],[99.1734,1.6495],[99.1787,1.6416],[99.1789,1.6388],[99.1754,1.6362],[99.1757,1.6346],[99.1787,1.6344],[99.1809,1.6289],[99.1765,1.6226],[99.1783,1.6159],[99.1776,1.6074],[99.1734,1.6026],[99.1682,1.602],[99.1668,1.599],[99.1685,1.5941],[99.1678,1.5849],[99.17,1.5824],[99.1697,1.5788],[99.1528,1.5566],[99.1489,1.5447],[99.1413,1.5401],[99.1415,1.5305],[99.1436,1.525],[99.1397,1.5157],[99.1281,1.5132],[99.1257,1.5087]]]}},{"type":"Feature","properties":{"name":"BatuHula","name_en":"BatuHula","admin_level":"7","osm_id":""},"geometry":{"type":"Polygon","coordinates":[[[99.0361,1.4955],[99.0439,1.4963],[99.0436,1.4987],[99.0465,1.5014],[99.046,1.5043],[99.0487,1.5077],[99.0455,1.5092],[99.045,1.5154],[99.0602,1.5135],[99.0844,1.5145],[99.1257,1.5087],[99.1219,1.5036],[99.114,1.5002],[99.1122,1.4974],[99.0993,1.5005],[99.0791,1.499],[99.0448,1.4868],[99.0341,1.486],[99.0361,1.4955]]]}},{"type":"Feature","properties":{"name":"Garoga","name_en":"Garoga","admin_level":"7","osm_id":""},"geometry":{"type":"Polygon","coordinates":[[[98.9933,1.5348],[99.0073,1.5263],[99.0133,1.5244],[99.0093,1.5183],[99.0037,1.5169],[99.0009,1.513],[99.0005,1.5042],[98.9942,1.5061],[98.9922,1.511],[98.9885,1.5125],[98.9883,1.5224],[98.9917,1.527],[98.9933,1.5348]]]}},{"type":"Feature","properties":{"name":"HapesongBaru","name_en":"HapesongBaru","admin_level":"7","osm_id":""},"geometry":{"type":"Polygon","coordinates":[[[99.1006,1.4684],[99.101,1.4644],[99.0834,1.4632],[99.0708,1.4649],[99.0687,1.4636],[99.0612,1.4703],[99.0588,1.4781],[99.0669,1.4769],[99.0689,1.4788],[99.0769,1.4791],[99.0867,1.4831],[99.0887,1.4887],[99.0928,1.4899],[99.0968,1.4884],[99.0969,1.4851],[99.1001,1.4822],[99.1006,1.4684]]]}},{"type":"Feature","properties":{"name":"HapesongLama","name_en":"HapesongLama","admin_level":"7","osm_id":""},"geometry":{"type":"Polygon","coordinates":[[[99.0755,1.449],[99.0726,1.4495],[99.0651,1.4441],[99.0591,1.4426],[99.0586,1.444],[99.0638,1.4514],[99.0767,1.4604],[99.0789,1.4596],[99.0755,1.449]]]}},{"type":"Feature","properties":{"name":"HutaGodang","name_en":"HutaGodang","admin_level":"7","osm_id":""},"geometry":{"type":"Polygon","coordinates":[[[99.0133,1.5244],[99.0289,1.5176],[99.0258,1.505],[99.0198,1.4963],[99.0196,1.4897],[99.017,1.4909],[99.0109,1.4898],[99.0135,1.4984],[99.0005,1.5042],[99.0009,1.513],[99.0037,1.5169],[99.0093,1.5183],[99.0133,1.5244]]]}},{"type":"Feature","properties":{"name":"Hutabaru","name_en":"Hutabaru","admin_level":"7","osm_id":""},"geometry":{"type":"Polygon","coordinates":[[[99.101,1.4647],[99.1006,1.4684],[99.1106,1.469],[99.1214,1.4725],[99.1402,1.4694],[99.14,1.4639],[99.1302,1.4643],[99.1201,1.4674],[99.101,1.4647]]]}},{"type":"Feature","properties":{"name":"Napa","name_en":"Napa","admin_level":"7","osm_id":""},"geometry":{"type":"Polygon","coordinates":[[[99.0553,1.4865],[99.0768,1.4955],[99.0872,1.4981],[99.1,1.4977],[99.1096,1.4955],[99.1098,1.4935],[99.0958,1.4961],[99.0817,1.4949],[99.056,1.4852],[99.0553,1.4865]]]}},{"type":"Feature","properties":{"name":"PadangLancat","name_en":"PadangLancat","admin_level":"7","osm_id":""},"geometry":{"type":"Polygon","coordinates":[[[99.14,1.4481],[99.1352,1.4488],[99.124,1.4412],[99.1152,1.4382],[99.1087,1.4404],[99.101,1.4395],[99.101,1.4493],[99.1166,1.449],[99.1415,1.4524],[99.1423,1.4476],[99.14,1.4481]]]}},{"type":"Feature","properties":{"name":"Parinduhan","name_en":"Parinduhan","admin_level":"7","osm_id":""},"geometry":{"type":"Polygon","coordinates":[[[99.1247,1.466],[99.14,1.4639],[99.1404,1.4592],[99.126,1.4603],[99.1229,1.4636],[99.1247,1.466]]]}},{"type":"Feature","properties":{"name":"PerkAekPahu","name_en":"PerkAekPahu","admin_level":"7","osm_id":""},"geometry":{"type":"Polygon","coordinates":[[[99.0712,1.4931],[99.0589,1.49],[99.0583,1.4911],[99.0791,1.499],[99.0993,1.5005],[99.1122,1.4974],[99.1096,1.4955],[99.1,1.4977],[99.0872,1.4981],[99.0712,1.4931]]]}},{"type":"Feature","properties":{"name":"PerkBatangToru","name_en":"PerkBatangToru","admin_level":"7","osm_id":""},"geometry":{"type":"Polygon","coordinates":[[[99.0548,1.4877],[99.0588,1.4781],[99.0569,1.4762],[99.0552,1.4684],[99.0452,1.4667],[99.0323,1.4599],[99.0275,1.4591],[99.0244,1.4542],[99.0204,1.4542],[99.0118,1.4507],[99.0067,1.4461],[98.9978,1.4451],[98.9995,1.4483],[99.0093,1.4503],[99.015,1.4545],[99.0154,1.4614],[99.0129,1.4631],[99.0107,1.4698],[99.0513,1.483],[99.0548,1.4877]]]}},{"type":"Feature","properties":{"name":"PerkHapesong","name_en":"PerkHapesong","admin_level":"7","osm_id":""},"geometry":{"type":"Polygon","coordinates":[[[99.0232,1.4219],[99.0218,1.4235],[99.0228,1.4292],[99.0128,1.4263],[99.0078,1.4276],[99.0048,1.4256],[98.9978,1.4351],[98.9978,1.4451],[99.0067,1.4461],[99.0103,1.4499],[99.0204,1.4542],[99.0378,1.4511],[99.0519,1.4542],[99.0708,1.4649],[99.0834,1.4632],[99.101,1.4644],[99.101,1.4395],[99.0872,1.4403],[99.084,1.4439],[99.0755,1.449],[99.0789,1.4596],[99.0767,1.4604],[99.0676,1.4547],[99.0596,1.4468],[99.0591,1.4426],[99.0545,1.4357],[99.0539,1.429],[99.0431,1.4243],[99.0289,1.4259],[99.0232,1.4219]]]}},{"type":"Feature","properties":{"name":"Siagian","name_en":"Siagian","admin_level":"7","osm_id":""},"geometry":{"type":"Polygon","coordinates":[[[99.1006,1.4684],[99.1001,1.4738],[99.1062,1.4738],[99.1235,1.4791],[99.1313,1.4777],[99.1413,1.4731],[99.1402,1.4694],[99.1264,1.4726],[99.1006,1.4684]]]}},{"type":"Feature","properties":{"name":"Sialang","name_en":"Sialang","admin_level":"7","osm_id":""},"geometry":{"type":"Polygon","coordinates":[[[99.1069,1.4487],[99.101,1.4493],[99.1008,1.4576],[99.1131,1.4592],[99.1242,1.4633],[99.1262,1.4603],[99.1212,1.4549],[99.1069,1.4487]]]}},{"type":"Feature","properties":{"name":"Sianggunan","name_en":"Sianggunan","admin_level":"7","osm_id":""},"geometry":{"type":"Polygon","coordinates":[[[99.101,1.4644],[99.1201,1.4674],[99.1247,1.466],[99.1194,1.4608],[99.1008,1.4576],[99.101,1.4644]]]}},{"type":"Feature","properties":{"name":"Sigala-gala","name_en":"Sigala-gala","admin_level":"7","osm_id":""},"geometry":{"type":"Polygon","coordinates":[[[99.0588,1.4781],[99.0612,1.4703],[99.0687,1.4636],[99.0569,1.4561],[99.0378,1.4511],[99.0245,1.4544],[99.0275,1.4591],[99.0323,1.4599],[99.0452,1.4667],[99.0552,1.4684],[99.0569,1.4762],[99.0588,1.4781]]]}},{"type":"Feature","properties":{"name":"Siolung","name_en":"Siolung","admin_level":"7","osm_id":""},"geometry":{"type":"Polygon","coordinates":[[[99.1415,1.4524],[99.1166,1.449],[99.1069,1.4487],[99.1212,1.4549],[99.1262,1.4603],[99.1404,1.4592],[99.1415,1.4524]]]}},{"type":"Feature","properties":{"name":"Sipenggeng","name_en":"Sipenggeng","admin_level":"7","osm_id":""},"geometry":{"type":"Polygon","coordinates":[[[99.1001,1.4738],[99.1001,1.4822],[99.1072,1.4786],[99.1243,1.4847],[99.1345,1.4837],[99.1432,1.4769],[99.1413,1.4731],[99.1313,1.4777],[99.1235,1.4791],[99.1062,1.4738],[99.1001,1.4738]]]}},{"type":"Feature","properties":{"name":"SisomaJae","name_en":"SisomaJae","admin_level":"7","osm_id":""},"geometry":{"type":"Polygon","coordinates":[[[99.1845,1.4574],[99.1766,1.4511],[99.168,1.4504],[99.1627,1.452],[99.1544,1.4481],[99.1423,1.4476],[99.14,1.4613],[99.1415,1.4738],[99.1432,1.4769],[99.1512,1.4738],[99.1794,1.4696],[99.1905,1.4628],[99.1845,1.4574]]]}},{"type":"Feature","properties":{"name":"Sitinjak","name_en":"Sitinjak","admin_level":"7","osm_id":""},"geometry":{"type":"Polygon","coordinates":[[[99.0455,1.5092],[99.0451,1.507],[99.0403,1.5053],[99.0386,1.5021],[99.0341,1.486],[99.0267,1.4892],[99.0196,1.4897],[99.0198,1.4963],[99.0258,1.505],[99.0289,1.5176],[99.045,1.5154],[99.0455,1.5092]]]}},{"type":"Feature","properties":{"name":"Sumuran","name_en":"Sumuran","admin_level":"7","osm_id":""},"geometry":{"type":"Polygon","coordinates":[[[99.0589,1.49],[99.0529,1.4864],[99.0513,1.483],[99.0105,1.4701],[99.009,1.4748],[99.0093,1.479],[99.012,1.4821],[99.0097,1.4844],[99.0109,1.4898],[99.017,1.4909],[99.0256,1.4895],[99.0329,1.4859],[99.0448,1.4868],[99.0583,1.4911],[99.0589,1.49]]]}},{"type":"Feature","properties":{"name":"Telo","name_en":"Telo","admin_level":"7","osm_id":""},"geometry":{"type":"Polygon","coordinates":[[[99.056,1.4852],[99.0723,1.4912],[99.0731,1.4893],[99.0567,1.4836],[99.056,1.4852]]]}},{"type":"Feature","properties":{"name":"WekIBatangToru","name_en":"WekIBatangToru","admin_level":"7","osm_id":""},"geometry":{"type":"Polygon","coordinates":[[[99.0876,1.4857],[99.0867,1.4831],[99.0839,1.4819],[99.0679,1.4777],[99.0651,1.4823],[99.0876,1.4857]]]}},{"type":"Feature","properties":{"name":"WekIiBatangToru","name_en":"WekIiBatangToru","admin_level":"7","osm_id":""},"geometry":{"type":"Polygon","coordinates":[[[99.0679,1.4777],[99.0588,1.4781],[99.0575,1.482],[99.0848,1.4907],[99.0943,1.4911],[99.0987,1.4898],[99.0968,1.4884],[99.0899,1.4894],[99.0876,1.4857],[99.0651,1.4823],[99.0679,1.4777]]]}},{"type":"Feature","properties":{"name":"WekIiiBatangToru","name_en":"WekIiiBatangToru","admin_level":"7","osm_id":""},"geometry":{"type":"Polygon","coordinates":[[[99.0575,1.482],[99.0567,1.4836],[99.0636,1.4867],[99.0834,1.4933],[99.0934,1.4934],[99.1031,1.4912],[99.0987,1.4898],[99.0943,1.4911],[99.0848,1.4907],[99.0575,1.482]]]}},{"type":"Feature","properties":{"name":"WekIvBatangToru","name_en":"WekIvBatangToru","admin_level":"7","osm_id":""},"geometry":{"type":"Polygon","coordinates":[[[99.0723,1.4912],[99.0817,1.4949],[99.0926,1.4961],[99.1098,1.4935],[99.1061,1.4911],[99.0934,1.4934],[99.0834,1.4933],[99.0731,1.4893],[99.0723,1.4912]]]}}]}