{"type":"FeatureCollection","metadata":{"parent_osm_id":"gid_IDN_20_5_7_1","parent_name":"PrayaBarat","parent_name_1":"NusaTenggaraBarat","parent_gid":"IDN.20.5.7_1","parent_level":"6","child_level":"7","count":9,"source":"GADM 4.1","generated":"2026-05-09"},"features":[{"type":"Feature","properties":{"name":"BanyuUrip","name_en":"BanyuUrip","admin_level":"7","osm_id":""},"geometry":{"type":"Polygon","coordinates":[[[116.2094,-8.8366],[116.2207,-8.8376],[116.2239,-8.8409],[116.2301,-8.8396],[116.2396,-8.8494],[116.2428,-8.8489],[116.2413,-8.8523],[116.242,-8.8552],[116.237,-8.8624],[116.2312,-8.8647],[116.2233,-8.8725],[116.2228,-8.8798],[116.2084,-8.8792],[116.2061,-8.8752],[116.2021,-8.8734],[116.1965,-8.8737],[116.1897,-8.87],[116.1882,-8.8648],[116.196,-8.8605],[116.199,-8.8533],[116.1987,-8.8504],[116.2058,-8.8437],[116.2094,-8.8366]]]}},{"type":"Feature","properties":{"name":"Batujai","name_en":"Batujai","admin_level":"7","osm_id":""},"geometry":{"type":"Polygon","coordinates":[[[116.2341,-8.7086],[116.2408,-8.709],[116.2408,-8.707],[116.2537,-8.7042],[116.2566,-8.7078],[116.2554,-8.7148],[116.2565,-8.7159],[116.2614,-8.7129],[116.2618,-8.7112],[116.2625,-8.7172],[116.2657,-8.7138],[116.2665,-8.7185],[116.2722,-8.7163],[116.2718,-8.7145],[116.274,-8.7114],[116.2748,-8.7113],[116.2721,-8.7196],[116.2796,-8.7126],[116.2784,-8.716],[116.2736,-8.7204],[116.277,-8.7191],[116.2806,-8.7196],[116.2829,-8.7158],[116.2815,-8.7194],[116.2744,-8.7213],[116.2772,-8.7253],[116.2813,-8.723],[116.2819,-8.7243],[116.284,-8.7239],[116.2815,-8.7267],[116.2785,-8.7267],[116.2795,-8.729],[116.2756,-8.7346],[116.2812,-8.7394],[116.2808,-8.7458],[116.2792,-8.7446],[116.2779,-8.7461],[116.2765,-8.7452],[116.2762,-8.7475],[116.2752,-8.7458],[116.2675,-8.7449],[116.2655,-8.7426],[116.2605,-8.7433],[116.2548,-8.7415],[116.2486,-8.7421],[116.2301,-8.7399],[116.2251,-8.7327],[116.2209,-8.7332],[116.218,-8.7151],[116.2165,-8.7136],[116.2205,-8.7108],[116.2282,-8.7131],[116.2341,-8.7086]]]}},{"type":"Feature","properties":{"name":"Bondir","name_en":"Bondir","admin_level":"7","osm_id":""},"geometry":{"type":"Polygon","coordinates":[[[116.2098,-8.7936],[116.2106,-8.79],[116.2202,-8.782],[116.223,-8.7755],[116.2214,-8.7735],[116.224,-8.7739],[116.2302,-8.7695],[116.2314,-8.7603],[116.2384,-8.7611],[116.251,-8.774],[116.2431,-8.7788],[116.2317,-8.7935],[116.2098,-8.7936]]]}},{"type":"Feature","properties":{"name":"Kateng","name_en":"Kateng","admin_level":"7","osm_id":""},"geometry":{"type":"Polygon","coordinates":[[[116.2428,-8.8489],[116.2396,-8.8494],[116.2301,-8.8396],[116.2239,-8.8409],[116.2207,-8.8376],[116.2094,-8.8366],[116.2163,-8.8324],[116.2182,-8.8286],[116.2179,-8.8212],[116.232,-8.8093],[116.2317,-8.7935],[116.2431,-8.7788],[116.251,-8.774],[116.2542,-8.7779],[116.255,-8.7852],[116.254,-8.8063],[116.252,-8.8132],[116.2502,-8.8108],[116.2452,-8.8147],[116.2457,-8.8215],[116.2433,-8.8305],[116.2442,-8.8389],[116.2428,-8.8489]]]}},{"type":"Feature","properties":{"name":"Mangkung","name_en":"Mangkung","admin_level":"7","osm_id":""},"geometry":{"type":"Polygon","coordinates":[[[116.1536,-8.8383],[116.1591,-8.8344],[116.1631,-8.8211],[116.1624,-8.8166],[116.1729,-8.8189],[116.1792,-8.8145],[116.1883,-8.8148],[116.192,-8.8123],[116.2052,-8.8146],[116.2054,-8.8083],[116.2092,-8.8045],[116.2106,-8.8],[116.2098,-8.7936],[116.2317,-8.7935],[116.232,-8.8093],[116.2179,-8.8212],[116.2182,-8.8286],[116.2163,-8.8324],[116.2103,-8.8353],[116.2063,-8.8432],[116.1987,-8.8504],[116.197,-8.8592],[116.1913,-8.8639],[116.188,-8.8649],[116.1855,-8.855],[116.1782,-8.8491],[116.1693,-8.8493],[116.1552,-8.8412],[116.1536,-8.8383]]]}},{"type":"Feature","properties":{"name":"MekarSari","name_en":"MekarSari","admin_level":"7","osm_id":""},"geometry":{"type":"Polygon","coordinates":[[[116.1897,-8.87],[116.1965,-8.8737],[116.2021,-8.8734],[116.2061,-8.8752],[116.2084,-8.8792],[116.2228,-8.8798],[116.2205,-8.8921],[116.2217,-8.8987],[116.2205,-8.9059],[116.2219,-8.909],[116.2188,-8.9087],[116.215,-8.9019],[116.2069,-8.901],[116.2019,-8.902],[116.1981,-8.9045],[116.1977,-8.9101],[116.1992,-8.9114],[116.195,-8.9153],[116.1948,-8.9174],[116.194,-8.913],[116.1907,-8.9113],[116.1872,-8.9113],[116.1847,-8.9145],[116.1809,-8.9113],[116.1781,-8.9117],[116.1759,-8.9137],[116.1737,-8.9138],[116.1721,-8.9103],[116.1678,-8.91],[116.1686,-8.9077],[116.1672,-8.9053],[116.1621,-8.908],[116.162,-8.9047],[116.1635,-8.9048],[116.1647,-8.9009],[116.175,-8.8956],[116.1763,-8.8892],[116.1754,-8.8839],[116.1781,-8.8797],[116.1787,-8.8705],[116.1828,-8.8665],[116.1882,-8.8648],[116.1897,-8.87]]]}},{"type":"Feature","properties":{"name":"Penujak","name_en":"Penujak","admin_level":"7","osm_id":""},"geometry":{"type":"Polygon","coordinates":[[[116.224,-8.7513],[116.2246,-8.7466],[116.2301,-8.7399],[116.2486,-8.7421],[116.2548,-8.7415],[116.2605,-8.7433],[116.2655,-8.7426],[116.2708,-8.7461],[116.2752,-8.7458],[116.2766,-8.7495],[116.2804,-8.7514],[116.2808,-8.7565],[116.2712,-8.7542],[116.2634,-8.7591],[116.2618,-8.7638],[116.2514,-8.7745],[116.2384,-8.7611],[116.2319,-8.7606],[116.229,-8.7588],[116.2283,-8.7524],[116.224,-8.7513]]]}},{"type":"Feature","properties":{"name":"SelongBelanak","name_en":"SelongBelanak","admin_level":"7","osm_id":""},"geometry":{"type":"Polygon","coordinates":[[[116.1464,-8.844],[116.1536,-8.8383],[116.1552,-8.8412],[116.1693,-8.8493],[116.1782,-8.8491],[116.1855,-8.855],[116.188,-8.8649],[116.1828,-8.8665],[116.1787,-8.8705],[116.1781,-8.8797],[116.1754,-8.8839],[116.1763,-8.8892],[116.175,-8.8956],[116.1655,-8.9009],[116.1621,-8.8982],[116.1624,-8.8959],[116.1606,-8.8956],[116.1599,-8.8968],[116.1601,-8.895],[116.1564,-8.8938],[116.1609,-8.8861],[116.1573,-8.8772],[116.1598,-8.8759],[116.1613,-8.8768],[116.1618,-8.8735],[116.1554,-8.8644],[116.1498,-8.863],[116.1418,-8.8691],[116.1368,-8.87],[116.1233,-8.8671],[116.1156,-8.8671],[116.1093,-8.8725],[116.1138,-8.8624],[116.1102,-8.86],[116.1077,-8.8552],[116.1132,-8.8515],[116.1256,-8.8477],[116.1362,-8.8502],[116.1464,-8.844]]]}},{"type":"Feature","properties":{"name":"Setanggor","name_en":"Setanggor","admin_level":"7","osm_id":""},"geometry":{"type":"Polygon","coordinates":[[[116.2006,-8.783],[116.1995,-8.7785],[116.2034,-8.7767],[116.2065,-8.778],[116.2063,-8.776],[116.2036,-8.7752],[116.2059,-8.7626],[116.2167,-8.7532],[116.224,-8.7513],[116.2283,-8.7524],[116.229,-8.7588],[116.2314,-8.7603],[116.2302,-8.7695],[116.224,-8.7739],[116.2214,-8.7735],[116.223,-8.7755],[116.2209,-8.7797],[116.2144,-8.7793],[116.2044,-8.7845],[116.2006,-8.783]]]}}]}