{"type":"FeatureCollection","metadata":{"parent_osm_id":"gid_IDN_29_15_3_1","parent_name":"TomohonTengah","parent_name_1":"SulawesiUtara","parent_gid":"IDN.29.15.3_1","parent_level":"6","child_level":"7","count":9,"source":"GADM 4.1","generated":"2026-05-08"},"features":[{"type":"Feature","properties":{"name":"Kamasi","name_en":"Kamasi","admin_level":"7","osm_id":""},"geometry":{"type":"Polygon","coordinates":[[[124.8217,1.3216],[124.8186,1.3305],[124.8205,1.3322],[124.8277,1.3266],[124.838,1.3275],[124.8386,1.3261],[124.8365,1.3244],[124.8348,1.3254],[124.8238,1.3183],[124.8217,1.3216]]]}},{"type":"Feature","properties":{"name":"KamasiSatu","name_en":"KamasiSatu","admin_level":"7","osm_id":""},"geometry":{"type":"Polygon","coordinates":[[[124.838,1.3275],[124.8277,1.3266],[124.8208,1.3322],[124.8332,1.3349],[124.8325,1.3293],[124.8378,1.3302],[124.838,1.3275]]]}},{"type":"Feature","properties":{"name":"Kolongan","name_en":"Kolongan","admin_level":"7","osm_id":""},"geometry":{"type":"Polygon","coordinates":[[[124.8258,1.3173],[124.8227,1.3182],[124.8294,1.3209],[124.8348,1.3254],[124.8385,1.3248],[124.8382,1.3199],[124.8337,1.3206],[124.8333,1.322],[124.8308,1.3178],[124.8258,1.3173]]]}},{"type":"Feature","properties":{"name":"KolonganSatu","name_en":"KolonganSatu","admin_level":"7","osm_id":""},"geometry":{"type":"Polygon","coordinates":[[[124.8261,1.3129],[124.8259,1.3176],[124.8308,1.3178],[124.8333,1.322],[124.8337,1.3206],[124.8368,1.3201],[124.8329,1.3058],[124.8307,1.3031],[124.8261,1.3129]]]}},{"type":"Feature","properties":{"name":"MataniDua","name_en":"MataniDua","admin_level":"7","osm_id":""},"geometry":{"type":"Polygon","coordinates":[[[124.8612,1.2973],[124.8556,1.2948],[124.8592,1.2895],[124.8583,1.285],[124.8507,1.294],[124.8501,1.3003],[124.8417,1.3092],[124.8428,1.3112],[124.8415,1.3135],[124.8423,1.3206],[124.8445,1.318],[124.8434,1.3116],[124.8467,1.311],[124.8612,1.2973]]]}},{"type":"Feature","properties":{"name":"MataniSatu","name_en":"MataniSatu","admin_level":"7","osm_id":""},"geometry":{"type":"Polygon","coordinates":[[[124.8775,1.3278],[124.8717,1.3184],[124.8699,1.3055],[124.8638,1.2984],[124.8612,1.2973],[124.8467,1.311],[124.8434,1.3116],[124.8445,1.318],[124.8466,1.3177],[124.856,1.3233],[124.8691,1.3238],[124.8775,1.3278]]]}},{"type":"Feature","properties":{"name":"MataniTiga","name_en":"MataniTiga","admin_level":"7","osm_id":""},"geometry":{"type":"Polygon","coordinates":[[[124.8419,1.3112],[124.8414,1.3132],[124.8351,1.3147],[124.8368,1.3201],[124.8423,1.3206],[124.8419,1.3112]]]}},{"type":"Feature","properties":{"name":"TaleteDua","name_en":"TaleteDua","admin_level":"7","osm_id":""},"geometry":{"type":"Polygon","coordinates":[[[124.8629,1.353],[124.8575,1.3431],[124.8518,1.3383],[124.8427,1.3343],[124.8401,1.3308],[124.8325,1.3293],[124.8332,1.3349],[124.8503,1.343],[124.8629,1.353]]]}},{"type":"Feature","properties":{"name":"TaleteSatu","name_en":"TaleteSatu","admin_level":"7","osm_id":""},"geometry":{"type":"Polygon","coordinates":[[[124.838,1.3275],[124.8379,1.3304],[124.8423,1.3325],[124.8427,1.3343],[124.8518,1.3383],[124.8575,1.3431],[124.863,1.353],[124.8618,1.3371],[124.8599,1.334],[124.8483,1.3303],[124.8457,1.3277],[124.8425,1.3281],[124.8412,1.3253],[124.8386,1.3255],[124.838,1.3275]]]}}]}