{"type":"FeatureCollection","metadata":{"parent_osm_id":"gid_IDN_32_27_6_1","parent_name":"PantaiCermin","parent_name_1":"SumateraUtara","parent_gid":"IDN.32.27.6_1","parent_level":"6","child_level":"7","count":12,"source":"GADM 4.1","generated":"2026-05-08"},"features":[{"type":"Feature","properties":{"name":"AraPayung","name_en":"AraPayung","admin_level":"7","osm_id":""},"geometry":{"type":"Polygon","coordinates":[[[99.0075,3.6213],[99.0173,3.6212],[99.0165,3.6155],[99.0192,3.6146],[99.0152,3.5972],[99.0099,3.601],[98.9924,3.6029],[98.9963,3.6052],[98.9963,3.6082],[99.0075,3.6213]]]}},{"type":"Feature","properties":{"name":"Besar2Terjun","name_en":"Besar2Terjun","admin_level":"7","osm_id":""},"geometry":{"type":"Polygon","coordinates":[[[98.9726,3.6142],[98.969,3.6253],[98.9701,3.627],[98.9694,3.6331],[98.9739,3.6324],[98.9773,3.6347],[98.9809,3.6318],[98.9885,3.6303],[98.987,3.6236],[98.989,3.6231],[98.9832,3.6035],[98.975,3.604],[98.975,3.6141],[98.9726,3.6142]]]}},{"type":"Feature","properties":{"name":"Celawan","name_en":"Celawan","admin_level":"7","osm_id":""},"geometry":{"type":"Polygon","coordinates":[[[98.9212,3.6046],[98.9253,3.6128],[98.93,3.6148],[98.9379,3.6233],[98.9436,3.6407],[98.95,3.6406],[98.95,3.6427],[98.9547,3.6426],[98.9553,3.6441],[98.9572,3.6431],[98.9573,3.6405],[98.9693,3.6405],[98.9701,3.627],[98.969,3.6253],[98.9726,3.6142],[98.9662,3.6143],[98.9656,3.5959],[98.9592,3.596],[98.9586,3.5781],[98.9519,3.5784],[98.9537,3.6065],[98.9449,3.6065],[98.9447,3.6033],[98.938,3.6034],[98.9378,3.6012],[98.9257,3.6002],[98.9257,3.6019],[98.9199,3.6021],[98.9212,3.6046]]]}},{"type":"Feature","properties":{"name":"KotaPari","name_en":"KotaPari","admin_level":"7","osm_id":""},"geometry":{"type":"Polygon","coordinates":[[[98.9436,3.6407],[98.946,3.6477],[98.9461,3.6581],[98.949,3.6647],[98.9444,3.6684],[98.9443,3.6741],[98.9428,3.6752],[98.9517,3.6739],[98.9491,3.67],[98.9519,3.6723],[98.9527,3.6714],[98.9536,3.6676],[98.9559,3.6662],[98.9553,3.6623],[98.9573,3.6677],[98.963,3.6619],[98.976,3.6577],[98.9742,3.6404],[98.9573,3.6405],[98.9572,3.6431],[98.9553,3.6441],[98.9547,3.6426],[98.95,3.6427],[98.95,3.6406],[98.9436,3.6407]]]}},{"type":"Feature","properties":{"name":"KualaLama","name_en":"KualaLama","admin_level":"7","osm_id":""},"geometry":{"type":"Polygon","coordinates":[[[99.0173,3.6212],[99.0009,3.6213],[99.0009,3.6264],[98.9955,3.6313],[98.9994,3.6336],[99.0047,3.6429],[99.0122,3.6373],[99.0128,3.6352],[99.032,3.6262],[99.0309,3.6242],[99.0327,3.622],[99.03,3.6172],[99.0265,3.6191],[99.0242,3.6179],[99.0215,3.6228],[99.0173,3.6212]]]}},{"type":"Feature","properties":{"name":"LubukSaban","name_en":"LubukSaban","admin_level":"7","osm_id":""},"geometry":{"type":"Polygon","coordinates":[[[99.03,3.6172],[99.0327,3.622],[99.0309,3.6242],[99.032,3.6262],[99.0528,3.6198],[99.0519,3.6164],[99.0491,3.6181],[99.0444,3.6168],[99.0441,3.6141],[99.0472,3.6112],[99.0446,3.6002],[99.0344,3.6051],[99.0317,3.6082],[99.0239,3.6055],[99.03,3.6172]]]}},{"type":"Feature","properties":{"name":"NagaKisar","name_en":"NagaKisar","admin_level":"7","osm_id":""},"geometry":{"type":"Polygon","coordinates":[[[99.0446,3.6002],[99.0472,3.6112],[99.0441,3.6141],[99.0444,3.6168],[99.0491,3.6181],[99.0519,3.6164],[99.0528,3.6198],[99.0732,3.6078],[99.091,3.5928],[99.0783,3.5798],[99.0616,3.58],[99.0556,3.5855],[99.0428,3.5922],[99.0403,3.5974],[99.0433,3.5975],[99.0454,3.5994],[99.0446,3.6002]]]}},{"type":"Feature","properties":{"name":"PantaiCerminKanan","name_en":"PantaiCerminKanan","admin_level":"7","osm_id":""},"geometry":{"type":"Polygon","coordinates":[[[98.9773,3.6347],[98.9739,3.6324],[98.9694,3.6331],[98.9693,3.6405],[98.9742,3.6404],[98.976,3.6577],[98.9828,3.6562],[98.9929,3.6512],[98.9806,3.6416],[98.9773,3.6347]]]}},{"type":"Feature","properties":{"name":"PantaiCerminKiri","name_en":"PantaiCerminKiri","admin_level":"7","osm_id":""},"geometry":{"type":"Polygon","coordinates":[[[98.989,3.6231],[98.987,3.6236],[98.9885,3.6303],[98.9809,3.6318],[98.9773,3.6347],[98.9806,3.6416],[98.9929,3.6512],[99.0047,3.6429],[98.9994,3.6336],[98.9955,3.6313],[98.9954,3.629],[98.9913,3.628],[98.989,3.6231]]]}},{"type":"Feature","properties":{"name":"PematangKasih","name_en":"PematangKasih","admin_level":"7","osm_id":""},"geometry":{"type":"Polygon","coordinates":[[[99.0161,3.5976],[99.0192,3.6146],[99.0165,3.6155],[99.0173,3.6212],[99.0215,3.6228],[99.0242,3.6179],[99.0265,3.6191],[99.03,3.6172],[99.0233,3.6046],[99.0226,3.597],[99.0161,3.5976]]]}},{"type":"Feature","properties":{"name":"Sementara","name_en":"Sementara","admin_level":"7","osm_id":""},"geometry":{"type":"Polygon","coordinates":[[[99.0075,3.6213],[98.9963,3.6082],[98.996,3.605],[98.9924,3.6029],[98.9832,3.6035],[98.9913,3.628],[98.9954,3.629],[98.9956,3.6305],[99.0009,3.6264],[99.0009,3.6213],[99.0075,3.6213]]]}},{"type":"Feature","properties":{"name":"UjungRambung","name_en":"UjungRambung","admin_level":"7","osm_id":""},"geometry":{"type":"Polygon","coordinates":[[[98.9187,3.5838],[98.9213,3.5914],[98.9188,3.6],[98.9199,3.6021],[98.9257,3.6019],[98.9257,3.6002],[98.9378,3.6012],[98.938,3.6034],[98.9447,3.6033],[98.9449,3.6065],[98.9537,3.6065],[98.9519,3.5784],[98.9213,3.5798],[98.9187,3.5838]]]}}]}