{"type":"FeatureCollection","metadata":{"parent_osm_id":"gid_IDN_32_10_3_1","parent_name":"SeiTualangRaso","parent_name_1":"SumateraUtara","parent_gid":"IDN.32.10.3_1","parent_level":"6","child_level":"7","count":5,"source":"GADM 4.1","generated":"2026-05-09"},"features":[{"type":"Feature","properties":{"name":"KeramatKubah","name_en":"KeramatKubah","admin_level":"7","osm_id":""},"geometry":{"type":"Polygon","coordinates":[[[99.8081,2.9788],[99.8085,2.9733],[99.8016,2.9724],[99.8004,2.9736],[99.7995,2.9718],[99.7985,2.9738],[99.7998,2.9752],[99.803,2.9734],[99.8081,2.9788]]]}},{"type":"Feature","properties":{"name":"MuaraSentosa","name_en":"MuaraSentosa","admin_level":"7","osm_id":""},"geometry":{"type":"Polygon","coordinates":[[[99.7985,2.9738],[99.798,2.9727],[99.793,2.9767],[99.7941,2.984],[99.7964,2.9824],[99.7953,2.9805],[99.7985,2.9738]]]}},{"type":"Feature","properties":{"name":"PasarBaru","name_en":"PasarBaru","admin_level":"7","osm_id":""},"geometry":{"type":"Polygon","coordinates":[[[99.7817,2.9701],[99.7773,2.9817],[99.794,2.9763],[99.7977,2.9729],[99.7945,2.9729],[99.7916,2.9701],[99.7888,2.9718],[99.7854,2.9692],[99.7817,2.9701]]]}},{"type":"Feature","properties":{"name":"SeiRaja","name_en":"SeiRaja","admin_level":"7","osm_id":""},"geometry":{"type":"Polygon","coordinates":[[[99.7773,2.9817],[99.769,3.0015],[99.766,3.009],[99.7801,3.0089],[99.78,3.0053],[99.7852,3.0052],[99.7854,3.0028],[99.7912,2.9985],[99.7924,2.9921],[99.7959,2.9914],[99.7987,2.9885],[99.7959,2.983],[99.7931,2.983],[99.793,2.9767],[99.7773,2.9817]]]}},{"type":"Feature","properties":{"name":"SumberSari","name_en":"SumberSari","admin_level":"7","osm_id":""},"geometry":{"type":"Polygon","coordinates":[[[99.8004,2.9756],[99.7985,2.9738],[99.7964,2.978],[99.7999,2.9811],[99.8011,2.9792],[99.8004,2.9756]]]}}]}