{"type":"FeatureCollection","metadata":{"parent_osm_id":"gid_IDN_4_5_7_1","parent_name":"Cibitung","parent_name_1":"Banten","parent_gid":"IDN.4.5.7_1","parent_level":"6","child_level":"7","count":10,"source":"GADM 4.1","generated":"2026-05-09"},"features":[{"type":"Feature","properties":{"name":"Cikadu","name_en":"Cikadu","admin_level":"7","osm_id":""},"geometry":{"type":"Polygon","coordinates":[[[105.7156,-6.7409],[105.7186,-6.7598],[105.7139,-6.7699],[105.6851,-6.7682],[105.6954,-6.7564],[105.6956,-6.7472],[105.6973,-6.7443],[105.6948,-6.741],[105.6981,-6.7407],[105.6983,-6.739],[105.6964,-6.7358],[105.6965,-6.7298],[105.7056,-6.7315],[105.7086,-6.7364],[105.7083,-6.7391],[105.713,-6.7414],[105.7156,-6.7409]]]}},{"type":"Feature","properties":{"name":"Cikalong","name_en":"Cikalong","admin_level":"7","osm_id":""},"geometry":{"type":"Polygon","coordinates":[[[105.6954,-6.7198],[105.6985,-6.7251],[105.6962,-6.7313],[105.6981,-6.7407],[105.6948,-6.741],[105.6973,-6.7443],[105.6956,-6.7472],[105.6953,-6.7506],[105.6965,-6.7512],[105.6953,-6.7567],[105.6851,-6.7682],[105.6785,-6.764],[105.6776,-6.765],[105.6751,-6.7637],[105.6734,-6.7653],[105.6694,-6.7641],[105.6681,-6.7626],[105.6699,-6.7593],[105.6738,-6.7573],[105.6745,-6.7479],[105.6764,-6.746],[105.6777,-6.7467],[105.6823,-6.7418],[105.6823,-6.7377],[105.685,-6.7355],[105.688,-6.7288],[105.6932,-6.7247],[105.6954,-6.7198]]]}},{"type":"Feature","properties":{"name":"Cikiruh","name_en":"Cikiruh","admin_level":"7","osm_id":""},"geometry":{"type":"Polygon","coordinates":[[[105.7556,-6.7863],[105.764,-6.7903],[105.7731,-6.7903],[105.7768,-6.7925],[105.781,-6.7921],[105.7864,-6.7958],[105.8052,-6.7996],[105.7953,-6.8073],[105.7947,-6.8139],[105.7963,-6.8205],[105.7936,-6.833],[105.7873,-6.835],[105.7826,-6.8338],[105.7712,-6.819],[105.7626,-6.8111],[105.7558,-6.808],[105.7443,-6.8069],[105.7346,-6.8021],[105.7316,-6.7974],[105.7343,-6.7875],[105.7253,-6.7794],[105.7201,-6.7792],[105.7152,-6.7815],[105.7139,-6.7701],[105.7234,-6.7671],[105.7361,-6.7713],[105.7488,-6.7839],[105.7556,-6.7863]]]}},{"type":"Feature","properties":{"name":"Citeluk","name_en":"Citeluk","admin_level":"7","osm_id":""},"geometry":{"type":"Polygon","coordinates":[[[105.6835,-6.837],[105.6719,-6.8363],[105.6736,-6.8323],[105.6759,-6.831],[105.6736,-6.8232],[105.6705,-6.819],[105.6668,-6.8191],[105.665,-6.8169],[105.664,-6.8109],[105.6667,-6.8069],[105.6652,-6.805],[105.6629,-6.8063],[105.6617,-6.8039],[105.6646,-6.8025],[105.6596,-6.8002],[105.6632,-6.7966],[105.6632,-6.7922],[105.6746,-6.7933],[105.6825,-6.8002],[105.689,-6.8028],[105.684,-6.8103],[105.6819,-6.8231],[105.6788,-6.8239],[105.6776,-6.8269],[105.6835,-6.837]]]}},{"type":"Feature","properties":{"name":"Kiarajangkung","name_en":"Kiarajangkung","admin_level":"7","osm_id":""},"geometry":{"type":"Polygon","coordinates":[[[105.7039,-6.769],[105.7139,-6.7699],[105.7143,-6.7861],[105.718,-6.7937],[105.7183,-6.8093],[105.7218,-6.8193],[105.7282,-6.8259],[105.731,-6.839],[105.7122,-6.8368],[105.7057,-6.8266],[105.705,-6.8242],[105.7066,-6.8231],[105.7049,-6.8056],[105.699,-6.8046],[105.6989,-6.8024],[105.6991,-6.7949],[105.7004,-6.7927],[105.6993,-6.7862],[105.7016,-6.782],[105.7039,-6.769]]]}},{"type":"Feature","properties":{"name":"Kiarapayung","name_en":"Kiarapayung","admin_level":"7","osm_id":""},"geometry":{"type":"Polygon","coordinates":[[[105.6681,-6.7624],[105.6734,-6.7653],[105.6754,-6.7636],[105.681,-6.7648],[105.6854,-6.7685],[105.6834,-6.774],[105.6858,-6.7759],[105.6862,-6.7806],[105.6888,-6.7837],[105.6874,-6.7861],[105.688,-6.791],[105.6862,-6.793],[105.6869,-6.7953],[105.6839,-6.8007],[105.6746,-6.7933],[105.6613,-6.791],[105.6624,-6.7849],[105.6602,-6.7809],[105.6608,-6.7775],[105.6628,-6.7776],[105.6589,-6.7759],[105.6553,-6.7717],[105.6587,-6.7667],[105.6574,-6.7652],[105.6581,-6.7633],[105.6681,-6.7624]]]}},{"type":"Feature","properties":{"name":"Kutakarang","name_en":"Kutakarang","admin_level":"7","osm_id":""},"geometry":{"type":"Polygon","coordinates":[[[105.7152,-6.7815],[105.7206,-6.7792],[105.7253,-6.7794],[105.7285,-6.7814],[105.7343,-6.7875],[105.7316,-6.7974],[105.7346,-6.8021],[105.7443,-6.8069],[105.7555,-6.8079],[105.7609,-6.8101],[105.7757,-6.8242],[105.7806,-6.8322],[105.7734,-6.8341],[105.7738,-6.84],[105.7723,-6.8399],[105.7715,-6.8373],[105.7689,-6.8383],[105.7687,-6.8459],[105.7722,-6.8487],[105.731,-6.839],[105.7282,-6.8259],[105.7218,-6.8193],[105.7183,-6.8093],[105.718,-6.7937],[105.7143,-6.7861],[105.7152,-6.7815]]]}},{"type":"Feature","properties":{"name":"Malangnengah","name_en":"Malangnengah","admin_level":"7","osm_id":""},"geometry":{"type":"Polygon","coordinates":[[[105.7425,-6.7536],[105.7349,-6.7709],[105.7234,-6.7671],[105.7139,-6.7699],[105.7185,-6.7601],[105.73,-6.7525],[105.7425,-6.7536]]]}},{"type":"Feature","properties":{"name":"Manglid","name_en":"Manglid","admin_level":"7","osm_id":""},"geometry":{"type":"Polygon","coordinates":[[[105.6851,-6.7682],[105.7039,-6.769],[105.7016,-6.782],[105.6993,-6.7862],[105.7005,-6.7892],[105.699,-6.8046],[105.6899,-6.8035],[105.6837,-6.8005],[105.6869,-6.7953],[105.6862,-6.793],[105.688,-6.791],[105.6874,-6.7861],[105.6888,-6.7837],[105.6862,-6.7806],[105.6858,-6.7759],[105.6834,-6.774],[105.6851,-6.7719],[105.6851,-6.7682]]]}},{"type":"Feature","properties":{"name":"Sindangkerta","name_en":"Sindangkerta","admin_level":"7","osm_id":""},"geometry":{"type":"Polygon","coordinates":[[[105.6835,-6.837],[105.6776,-6.8275],[105.6786,-6.824],[105.6819,-6.8231],[105.6834,-6.8197],[105.6843,-6.8094],[105.689,-6.8031],[105.7046,-6.8051],[105.7066,-6.8231],[105.705,-6.8245],[105.7122,-6.8368],[105.6835,-6.837]]]}}]}