{"type":"FeatureCollection","metadata":{"parent_osm_id":"gid_IDN_21_21_9_1","parent_name":"BikomiTengah","parent_name_1":"NusaTenggaraTimur","parent_gid":"IDN.21.21.9_1","parent_level":"6","child_level":"7","count":8,"source":"GADM 4.1","generated":"2026-05-09"},"features":[{"type":"Feature","properties":{"name":"Buk","name_en":"Buk","admin_level":"7","osm_id":""},"geometry":{"type":"Polygon","coordinates":[[[124.4033,-9.4263],[124.391,-9.4199],[124.391,-9.4172],[124.386,-9.4166],[124.3868,-9.4106],[124.3838,-9.4084],[124.3824,-9.403],[124.3826,-9.4005],[124.3862,-9.3979],[124.3867,-9.394],[124.3853,-9.3928],[124.38,-9.3943],[124.3793,-9.3933],[124.3819,-9.3902],[124.3808,-9.3864],[124.3901,-9.3842],[124.4004,-9.395],[124.4062,-9.3934],[124.4094,-9.4155],[124.4057,-9.4191],[124.407,-9.4221],[124.4058,-9.4254],[124.4033,-9.4263]]]}},{"type":"Feature","properties":{"name":"Kuanek","name_en":"Kuanek","admin_level":"7","osm_id":""},"geometry":{"type":"Polygon","coordinates":[[[124.3968,-9.4467],[124.3963,-9.4442],[124.4039,-9.4433],[124.4119,-9.4473],[124.4149,-9.4527],[124.4145,-9.4621],[124.4093,-9.465],[124.4081,-9.4703],[124.4096,-9.4759],[124.4042,-9.4714],[124.4035,-9.4691],[124.4054,-9.4659],[124.4025,-9.4628],[124.4053,-9.4595],[124.4046,-9.4581],[124.4063,-9.4584],[124.407,-9.4546],[124.4042,-9.4535],[124.4053,-9.452],[124.4002,-9.4508],[124.3993,-9.4483],[124.3975,-9.4498],[124.3983,-9.4485],[124.3968,-9.4467]]]}},{"type":"Feature","properties":{"name":"Nimasi","name_en":"Nimasi","admin_level":"7","osm_id":""},"geometry":{"type":"Polygon","coordinates":[[[124.3963,-9.4442],[124.3957,-9.4425],[124.4024,-9.4391],[124.4033,-9.4347],[124.4065,-9.4333],[124.4057,-9.4318],[124.4248,-9.4383],[124.431,-9.4387],[124.4346,-9.4368],[124.4353,-9.4384],[124.4374,-9.4383],[124.4365,-9.4395],[124.4386,-9.4399],[124.4405,-9.4433],[124.4434,-9.4427],[124.4441,-9.4534],[124.446,-9.4564],[124.4382,-9.4602],[124.4246,-9.4618],[124.42,-9.4642],[124.4145,-9.4621],[124.4149,-9.4527],[124.4119,-9.4473],[124.4039,-9.4433],[124.3963,-9.4442]]]}},{"type":"Feature","properties":{"name":"Oelbonak","name_en":"Oelbonak","admin_level":"7","osm_id":""},"geometry":{"type":"Polygon","coordinates":[[[124.4057,-9.4318],[124.4033,-9.4263],[124.4058,-9.4254],[124.407,-9.4221],[124.4064,-9.4177],[124.4094,-9.4155],[124.416,-9.4175],[124.4189,-9.4145],[124.4331,-9.4113],[124.4272,-9.4274],[124.4288,-9.4301],[124.4282,-9.4337],[124.4339,-9.4349],[124.4346,-9.4368],[124.431,-9.4387],[124.4248,-9.4383],[124.4057,-9.4318]]]}},{"type":"Feature","properties":{"name":"Oenenu","name_en":"Oenenu","admin_level":"7","osm_id":""},"geometry":{"type":"Polygon","coordinates":[[[124.454,-9.44],[124.4474,-9.4403],[124.4423,-9.4385],[124.453,-9.426],[124.4517,-9.4247],[124.4502,-9.4256],[124.4498,-9.4223],[124.4537,-9.4214],[124.464,-9.4246],[124.4649,-9.4356],[124.4634,-9.4391],[124.454,-9.44]]]}},{"type":"Feature","properties":{"name":"OenenuSelatan","name_en":"OenenuSelatan","admin_level":"7","osm_id":""},"geometry":{"type":"Polygon","coordinates":[[[124.4442,-9.4534],[124.4434,-9.4427],[124.4405,-9.4433],[124.4386,-9.4399],[124.4365,-9.4393],[124.4415,-9.4396],[124.4423,-9.4385],[124.4474,-9.4403],[124.4538,-9.4392],[124.4542,-9.443],[124.4514,-9.4484],[124.4442,-9.4534]]]}},{"type":"Feature","properties":{"name":"OenenuUtara","name_en":"OenenuUtara","admin_level":"7","osm_id":""},"geometry":{"type":"Polygon","coordinates":[[[124.4375,-9.439],[124.4353,-9.4384],[124.4339,-9.4349],[124.4282,-9.4337],[124.4288,-9.4301],[124.4272,-9.4271],[124.4292,-9.4198],[124.4325,-9.4149],[124.4338,-9.4162],[124.4418,-9.417],[124.4458,-9.421],[124.4497,-9.4222],[124.4502,-9.4256],[124.4517,-9.4247],[124.453,-9.426],[124.4415,-9.4396],[124.4375,-9.439]]]}},{"type":"Feature","properties":{"name":"Oenino","name_en":"Oenino","admin_level":"7","osm_id":""},"geometry":{"type":"Polygon","coordinates":[[[124.4488,-9.4643],[124.4469,-9.4629],[124.4358,-9.4669],[124.4354,-9.4694],[124.4311,-9.4737],[124.4319,-9.4791],[124.4293,-9.4812],[124.4275,-9.479],[124.4169,-9.4818],[124.4096,-9.4759],[124.4084,-9.4722],[124.4105,-9.4635],[124.4145,-9.4621],[124.4206,-9.4643],[124.4246,-9.4618],[124.4431,-9.4586],[124.446,-9.4564],[124.4442,-9.4534],[124.4498,-9.4495],[124.4468,-9.4598],[124.4519,-9.4637],[124.4488,-9.4643]]]}}]}