{"type":"FeatureCollection","metadata":{"parent_osm_id":"5615300","parent_name":"Lendah","parent_name_1":"Yogyakarta","parent_gid":"IDN.33.4.5_1","parent_level":"6","child_level":"7","count":6,"source":"GADM 4.1","generated":"2026-05-09"},"features":[{"type":"Feature","properties":{"name":"Bumirejo","name_en":"Bumirejo","admin_level":"7","osm_id":""},"geometry":{"type":"Polygon","coordinates":[[[110.2102,-7.931],[110.1946,-7.9303],[110.1956,-7.9229],[110.1904,-7.922],[110.191,-7.9202],[110.1857,-7.9201],[110.186,-7.9177],[110.1842,-7.9174],[110.1883,-7.9025],[110.192,-7.9027],[110.1934,-7.8983],[110.1945,-7.8999],[110.2032,-7.9004],[110.2043,-7.8949],[110.2144,-7.8986],[110.2126,-7.9003],[110.2156,-7.9029],[110.2155,-7.9063],[110.2106,-7.9102],[110.2078,-7.9148],[110.2108,-7.9162],[110.2092,-7.9218],[110.2102,-7.931]]]}},{"type":"Feature","properties":{"name":"Gulurejo","name_en":"Gulurejo","admin_level":"7","osm_id":""},"geometry":{"type":"Polygon","coordinates":[[[110.2733,-7.9127],[110.2695,-7.9278],[110.2626,-7.9279],[110.2562,-7.9234],[110.2554,-7.9123],[110.236,-7.9035],[110.2366,-7.9015],[110.2387,-7.9009],[110.2389,-7.8954],[110.245,-7.8966],[110.2513,-7.9041],[110.253,-7.9029],[110.2555,-7.9041],[110.2565,-7.9002],[110.2599,-7.8999],[110.265,-7.9037],[110.2638,-7.9117],[110.2679,-7.9111],[110.2733,-7.9127]]]}},{"type":"Feature","properties":{"name":"Jatirejo","name_en":"Jatirejo","admin_level":"7","osm_id":""},"geometry":{"type":"Polygon","coordinates":[[[110.2519,-7.9249],[110.2468,-7.929],[110.2441,-7.9346],[110.24,-7.9341],[110.2398,-7.9362],[110.2345,-7.9354],[110.2337,-7.9402],[110.2253,-7.9395],[110.2237,-7.9372],[110.2102,-7.931],[110.2092,-7.9218],[110.2108,-7.9162],[110.2078,-7.9148],[110.2106,-7.9102],[110.2141,-7.9086],[110.2156,-7.9036],[110.2166,-7.9038],[110.2238,-7.9064],[110.2201,-7.9175],[110.2205,-7.9221],[110.2233,-7.9244],[110.2322,-7.9252],[110.2387,-7.9316],[110.2519,-7.9249]]]}},{"type":"Feature","properties":{"name":"Ngentakrejo","name_en":"Ngentakrejo","admin_level":"7","osm_id":""},"geometry":{"type":"Polygon","coordinates":[[[110.2687,-7.8853],[110.2733,-7.8934],[110.2743,-7.9005],[110.2733,-7.9127],[110.2679,-7.9111],[110.2638,-7.9117],[110.265,-7.9037],[110.2599,-7.8999],[110.2565,-7.9002],[110.2555,-7.9041],[110.253,-7.9029],[110.2513,-7.9041],[110.2453,-7.8969],[110.2404,-7.895],[110.2436,-7.8929],[110.2496,-7.8945],[110.2511,-7.8907],[110.2495,-7.8915],[110.2501,-7.8884],[110.2549,-7.8854],[110.2597,-7.8881],[110.2687,-7.8853]]]}},{"type":"Feature","properties":{"name":"Sidorejo","name_en":"Sidorejo","admin_level":"7","osm_id":""},"geometry":{"type":"Polygon","coordinates":[[[110.2562,-7.9234],[110.2415,-7.931],[110.2369,-7.931],[110.2322,-7.9252],[110.2233,-7.9244],[110.2205,-7.9221],[110.2201,-7.9175],[110.2225,-7.9089],[110.224,-7.906],[110.2295,-7.9049],[110.2302,-7.9034],[110.2337,-7.905],[110.2341,-7.9025],[110.2386,-7.9041],[110.2554,-7.9123],[110.2562,-7.9234]]]}},{"type":"Feature","properties":{"name":"Wahyuharjo","name_en":"Wahyuharjo","admin_level":"7","osm_id":""},"geometry":{"type":"Polygon","coordinates":[[[110.1946,-7.9303],[110.1919,-7.9341],[110.185,-7.9343],[110.1826,-7.9255],[110.1842,-7.9174],[110.186,-7.9177],[110.1857,-7.9201],[110.191,-7.9202],[110.1904,-7.922],[110.1956,-7.9229],[110.1946,-7.9303]]]}}]}