{"type":"FeatureCollection","metadata":{"parent_osm_id":"gid_IDN_25_4_8_1","parent_name":"Pangale","parent_name_1":"SulawesiBarat","parent_gid":"IDN.25.4.8_1","parent_level":"6","child_level":"7","count":9,"source":"GADM 4.1","generated":"2026-05-08"},"features":[{"type":"Feature","properties":{"name":"KUO","name_en":"KUO","admin_level":"7","osm_id":""},"geometry":{"type":"Polygon","coordinates":[[[119.2222,-2.2267],[119.227,-2.237],[119.2272,-2.2321],[119.2312,-2.2322],[119.2297,-2.2252],[119.2321,-2.223],[119.2363,-2.224],[119.2355,-2.2258],[119.2388,-2.2283],[119.2398,-2.2258],[119.2436,-2.2274],[119.2445,-2.2256],[119.2475,-2.229],[119.248,-2.2254],[119.2452,-2.2238],[119.2478,-2.2247],[119.248,-2.2235],[119.2509,-2.2256],[119.2528,-2.223],[119.2552,-2.2272],[119.2536,-2.2292],[119.2522,-2.228],[119.2521,-2.2305],[119.2544,-2.2309],[119.2525,-2.2338],[119.2545,-2.2351],[119.253,-2.236],[119.262,-2.2381],[119.2609,-2.2405],[119.263,-2.2394],[119.2641,-2.2404],[119.2619,-2.2415],[119.2622,-2.2473],[119.2592,-2.2523],[119.2572,-2.2516],[119.2537,-2.2533],[119.252,-2.2634],[119.2332,-2.2683],[119.2291,-2.2679],[119.2289,-2.2716],[119.2313,-2.2717],[119.2325,-2.2735],[119.2281,-2.2785],[119.2263,-2.286],[119.2241,-2.2836],[119.2209,-2.2853],[119.2177,-2.2821],[119.2185,-2.2786],[119.2174,-2.2759],[119.2147,-2.2744],[119.2107,-2.2616],[119.2128,-2.2616],[119.2135,-2.2526],[119.2159,-2.2508],[119.2159,-2.2484],[119.2206,-2.2484],[119.2222,-2.2267]]]}},{"type":"Feature","properties":{"name":"Kombiling","name_en":"Kombiling","admin_level":"7","osm_id":""},"geometry":{"type":"Polygon","coordinates":[[[119.1362,-2.266],[119.1376,-2.2617],[119.1476,-2.248],[119.1499,-2.2512],[119.1541,-2.2526],[119.1491,-2.2714],[119.1362,-2.266]]]}},{"type":"Feature","properties":{"name":"Lamba-lamba","name_en":"Lamba-lamba","admin_level":"7","osm_id":""},"geometry":{"type":"Polygon","coordinates":[[[119.1465,-2.1977],[119.151,-2.2022],[119.1508,-2.2053],[119.1532,-2.2065],[119.1577,-2.2058],[119.1579,-2.2004],[119.1602,-2.1983],[119.1635,-2.2006],[119.1636,-2.1985],[119.1669,-2.1995],[119.1797,-2.1908],[119.1833,-2.1917],[119.1811,-2.1941],[119.1827,-2.1959],[119.1798,-2.1964],[119.1803,-2.1992],[119.1827,-2.1982],[119.1839,-2.2006],[119.1748,-2.2129],[119.1735,-2.2124],[119.1724,-2.216],[119.1654,-2.22],[119.1611,-2.2274],[119.1597,-2.252],[119.1541,-2.2526],[119.1499,-2.2512],[119.1476,-2.248],[119.1513,-2.2423],[119.1524,-2.2357],[119.1454,-2.2005],[119.1465,-2.1977]]]}},{"type":"Feature","properties":{"name":"Lemo-lemo","name_en":"Lemo-lemo","admin_level":"7","osm_id":""},"geometry":{"type":"Polygon","coordinates":[[[119.1757,-2.3071],[119.1761,-2.2959],[119.1707,-2.2909],[119.1781,-2.2876],[119.1908,-2.2894],[119.194,-2.2841],[119.2043,-2.2905],[119.2059,-2.3015],[119.2042,-2.3022],[119.2048,-2.3033],[119.1982,-2.3139],[119.1939,-2.3056],[119.1757,-2.3071]]]}},{"type":"Feature","properties":{"name":"Pangale","name_en":"Pangale","admin_level":"7","osm_id":""},"geometry":{"type":"Polygon","coordinates":[[[119.1362,-2.266],[119.1491,-2.2714],[119.1605,-2.2835],[119.1761,-2.2959],[119.1757,-2.3071],[119.1732,-2.3029],[119.1682,-2.3023],[119.1665,-2.3046],[119.1623,-2.3053],[119.1568,-2.299],[119.1502,-2.3018],[119.1475,-2.3089],[119.1446,-2.3073],[119.1456,-2.2999],[119.1421,-2.2981],[119.1337,-2.3078],[119.1286,-2.2959],[119.1283,-2.2888],[119.1302,-2.2768],[119.1362,-2.266]]]}},{"type":"Feature","properties":{"name":"PoloLereng","name_en":"PoloLereng","admin_level":"7","osm_id":""},"geometry":{"type":"Polygon","coordinates":[[[119.1938,-2.2128],[119.1989,-2.2103],[119.2118,-2.2133],[119.2121,-2.2106],[119.2153,-2.2125],[119.2131,-2.2168],[119.2154,-2.2153],[119.2167,-2.2175],[119.2113,-2.234],[119.2111,-2.2391],[119.2144,-2.2393],[119.2141,-2.2459],[119.211,-2.2457],[119.2107,-2.2616],[119.1892,-2.2602],[119.1783,-2.2548],[119.1724,-2.2485],[119.1709,-2.2347],[119.1798,-2.2293],[119.1938,-2.2128]]]}},{"type":"Feature","properties":{"name":"Polocamba","name_en":"Polocamba","admin_level":"7","osm_id":""},"geometry":{"type":"Polygon","coordinates":[[[119.1994,-2.2056],[119.2041,-2.2044],[119.204,-2.2081],[119.2012,-2.2062],[119.1978,-2.2098],[119.1979,-2.2062],[119.1965,-2.2063],[119.1925,-2.2115],[119.1938,-2.2128],[119.1854,-2.2237],[119.1798,-2.2293],[119.1709,-2.2347],[119.1724,-2.2485],[119.1673,-2.2519],[119.1597,-2.252],[119.1611,-2.2274],[119.1654,-2.22],[119.1724,-2.216],[119.1735,-2.2124],[119.1748,-2.2129],[119.1839,-2.2006],[119.1855,-2.2012],[119.1836,-2.2032],[119.1874,-2.2061],[119.1917,-2.1973],[119.1947,-2.1973],[119.1932,-2.2034],[119.194,-2.2044],[119.1948,-2.2007],[119.1963,-2.2007],[119.1994,-2.2056]]]}},{"type":"Feature","properties":{"name":"Polopangale","name_en":"Polopangale","admin_level":"7","osm_id":""},"geometry":{"type":"Polygon","coordinates":[[[119.2107,-2.2616],[119.2147,-2.2744],[119.2174,-2.2759],[119.2185,-2.2786],[119.2177,-2.2821],[119.2209,-2.2853],[119.2043,-2.2905],[119.194,-2.2841],[119.1908,-2.2894],[119.1781,-2.2876],[119.1707,-2.2909],[119.1605,-2.2835],[119.1605,-2.2712],[119.1748,-2.2761],[119.1848,-2.2755],[119.1892,-2.2602],[119.2107,-2.2616]]]}},{"type":"Feature","properties":{"name":"Sartanamaju","name_en":"Sartanamaju","admin_level":"7","osm_id":""},"geometry":{"type":"Polygon","coordinates":[[[119.1491,-2.2714],[119.1541,-2.2526],[119.1673,-2.2519],[119.1724,-2.2485],[119.1783,-2.2548],[119.1892,-2.2602],[119.1848,-2.2755],[119.1748,-2.2761],[119.1605,-2.2712],[119.1605,-2.2835],[119.1491,-2.2714]]]}}]}