{"type":"FeatureCollection","metadata":{"parent_osm_id":"gid_IDN_25_5_10_1","parent_name":"Matakali","parent_name_1":"SulawesiBarat","parent_gid":"IDN.25.5.10_1","parent_level":"6","child_level":"7","count":7,"source":"GADM 4.1","generated":"2026-05-08"},"features":[{"type":"Feature","properties":{"name":"Barumbung","name_en":"Barumbung","admin_level":"7","osm_id":""},"geometry":{"type":"Polygon","coordinates":[[[119.2683,-3.3611],[119.2718,-3.3395],[119.276,-3.3349],[119.2968,-3.3325],[119.3049,-3.3294],[119.2996,-3.335],[119.2887,-3.3643],[119.2864,-3.3652],[119.2873,-3.3688],[119.2818,-3.3786],[119.2757,-3.3787],[119.2674,-3.3697],[119.2683,-3.3611]]]}},{"type":"Feature","properties":{"name":"BungaBunga","name_en":"BungaBunga","admin_level":"7","osm_id":""},"geometry":{"type":"Polygon","coordinates":[[[119.304,-3.377],[119.3058,-3.3817],[119.312,-3.3825],[119.3105,-3.3865],[119.3079,-3.3882],[119.3069,-3.3929],[119.308,-3.3972],[119.2849,-3.3854],[119.2901,-3.3813],[119.304,-3.377]]]}},{"type":"Feature","properties":{"name":"Indumakkombong","name_en":"Indumakkombong","admin_level":"7","osm_id":""},"geometry":{"type":"Polygon","coordinates":[[[119.276,-3.3349],[119.2718,-3.3395],[119.2683,-3.3611],[119.2435,-3.3547],[119.2436,-3.3504],[119.2414,-3.3502],[119.2482,-3.339],[119.25,-3.3406],[119.2691,-3.3333],[119.276,-3.3349]]]}},{"type":"Feature","properties":{"name":"Matakali","name_en":"Matakali","admin_level":"7","osm_id":""},"geometry":{"type":"Polygon","coordinates":[[[119.2683,-3.3611],[119.2674,-3.3697],[119.2757,-3.3787],[119.2818,-3.3786],[119.2873,-3.3688],[119.2864,-3.3652],[119.2887,-3.3643],[119.2895,-3.3616],[119.2955,-3.3645],[119.2937,-3.3703],[119.2911,-3.3714],[119.2874,-3.3781],[119.2812,-3.3937],[119.2775,-3.3999],[119.2742,-3.4023],[119.2746,-3.4048],[119.2662,-3.3999],[119.264,-3.3916],[119.2583,-3.3842],[119.2595,-3.3697],[119.258,-3.3584],[119.2683,-3.3611]]]}},{"type":"Feature","properties":{"name":"Pasiang","name_en":"Pasiang","admin_level":"7","osm_id":""},"geometry":{"type":"Polygon","coordinates":[[[119.3453,-3.289],[119.352,-3.2892],[119.3565,-3.2911],[119.3451,-3.3083],[119.3401,-3.3238],[119.3273,-3.3442],[119.3197,-3.3513],[119.3186,-3.3687],[119.3169,-3.3719],[119.3099,-3.3768],[119.3034,-3.3768],[119.2987,-3.3796],[119.2946,-3.3797],[119.2849,-3.3854],[119.2911,-3.3714],[119.2937,-3.3703],[119.2954,-3.3667],[119.2946,-3.3632],[119.2895,-3.3616],[119.2996,-3.335],[119.3073,-3.3279],[119.3151,-3.316],[119.3219,-3.3103],[119.3283,-3.2982],[119.3326,-3.2933],[119.336,-3.2902],[119.3453,-3.289]]]}},{"type":"Feature","properties":{"name":"Patampanua","name_en":"Patampanua","admin_level":"7","osm_id":""},"geometry":{"type":"Polygon","coordinates":[[[119.2849,-3.3854],[119.308,-3.3984],[119.3036,-3.3997],[119.2995,-3.4033],[119.2944,-3.4043],[119.2951,-3.4239],[119.2949,-3.4254],[119.2931,-3.4256],[119.2949,-3.4292],[119.2921,-3.4312],[119.2855,-3.4294],[119.2816,-3.434],[119.2825,-3.4407],[119.2773,-3.4306],[119.2805,-3.4288],[119.2799,-3.4259],[119.2826,-3.4234],[119.2823,-3.4218],[119.2798,-3.4217],[119.2807,-3.4183],[119.279,-3.4182],[119.2814,-3.4166],[119.2787,-3.4154],[119.2798,-3.414],[119.278,-3.4134],[119.2787,-3.4124],[119.2753,-3.4114],[119.274,-3.4037],[119.278,-3.3992],[119.2849,-3.3854]]]}},{"type":"Feature","properties":{"name":"TonroLima","name_en":"TonroLima","admin_level":"7","osm_id":""},"geometry":{"type":"Polygon","coordinates":[[[119.2442,-3.3549],[119.258,-3.3584],[119.2595,-3.3697],[119.2583,-3.3842],[119.264,-3.3916],[119.2662,-3.3999],[119.2612,-3.3964],[119.2499,-3.3943],[119.2446,-3.3872],[119.2384,-3.3829],[119.2361,-3.3788],[119.2392,-3.373],[119.2406,-3.3656],[119.2448,-3.3611],[119.2442,-3.3549]]]}}]}