{"type":"FeatureCollection","metadata":{"parent_osm_id":"10111037","parent_name":"Baros","parent_name_1":"JawaBarat","parent_gid":"IDN.9.18.1_1","parent_level":"6","child_level":"7","count":4,"source":"GADM 4.1","generated":"2026-05-09"},"features":[{"type":"Feature","properties":{"name":"Baros","name_en":"Baros","admin_level":"7","osm_id":""},"geometry":{"type":"Polygon","coordinates":[[[106.9327,-6.9655],[106.9365,-6.9628],[106.9348,-6.9602],[106.9384,-6.9549],[106.9386,-6.9579],[106.9413,-6.9576],[106.9405,-6.9596],[106.9426,-6.96],[106.9478,-6.9564],[106.9498,-6.9592],[106.9516,-6.9582],[106.9514,-6.9595],[106.9541,-6.9597],[106.9527,-6.964],[106.9466,-6.9691],[106.9446,-6.9672],[106.9377,-6.9672],[106.9362,-6.9652],[106.9327,-6.9655]]]}},{"type":"Feature","properties":{"name":"Jayamekar","name_en":"Jayamekar","admin_level":"7","osm_id":""},"geometry":{"type":"Polygon","coordinates":[[[106.9287,-6.9507],[106.9306,-6.9513],[106.9286,-6.9546],[106.9265,-6.9551],[106.9272,-6.9598],[106.925,-6.9653],[106.931,-6.9663],[106.9237,-6.9701],[106.9196,-6.9672],[106.9197,-6.9636],[106.9227,-6.9568],[106.927,-6.9529],[106.9265,-6.9498],[106.9287,-6.9507]]]}},{"type":"Feature","properties":{"name":"Jayaraksa","name_en":"Jayaraksa","admin_level":"7","osm_id":""},"geometry":{"type":"Polygon","coordinates":[[[106.9348,-6.9602],[106.9366,-6.9626],[106.9353,-6.9646],[106.931,-6.9663],[106.9252,-6.9657],[106.9249,-6.9631],[106.9272,-6.9598],[106.9265,-6.9551],[106.9286,-6.9546],[106.9306,-6.9513],[106.9292,-6.9501],[106.9332,-6.9487],[106.9362,-6.9436],[106.9367,-6.9452],[106.9336,-6.9508],[106.9348,-6.9602]]]}},{"type":"Feature","properties":{"name":"SudajayaHilir","name_en":"SudajayaHilir","admin_level":"7","osm_id":""},"geometry":{"type":"Polygon","coordinates":[[[106.9265,-6.9498],[106.927,-6.9529],[106.9227,-6.9568],[106.9197,-6.9636],[106.9205,-6.9649],[106.9185,-6.9647],[106.9159,-6.9626],[106.9188,-6.9585],[106.9203,-6.9585],[106.9202,-6.946],[106.9244,-6.9467],[106.9245,-6.949],[106.9265,-6.9498]]]}}]}