{"type":"FeatureCollection","metadata":{"parent_osm_id":"gid_IDN_13_9_3_1","parent_name":"KelumpangHilir","parent_name_1":"KalimantanSelatan","parent_gid":"IDN.13.9.3_1","parent_level":"6","child_level":"7","count":9,"source":"GADM 4.1","generated":"2026-05-07"},"features":[{"type":"Feature","properties":{"name":"Langadai","name_en":"Langadai","admin_level":"7","osm_id":""},"geometry":{"type":"Polygon","coordinates":[[[116.0738,-3.1788],[116.0759,-3.1781],[116.074,-3.1806],[116.0751,-3.1818],[116.0762,-3.1775],[116.0725,-3.1779],[116.0806,-3.1715],[116.0822,-3.174],[116.0842,-3.1741],[116.084,-3.1708],[116.0838,-3.1738],[116.0816,-3.1716],[116.0823,-3.1668],[116.0848,-3.1642],[116.0864,-3.1644],[116.0851,-3.1628],[116.091,-3.1587],[116.0933,-3.1558],[116.0961,-3.1576],[116.0937,-3.1611],[116.0939,-3.1624],[116.0951,-3.1627],[116.0942,-3.1609],[116.0964,-3.1577],[116.096,-3.1559],[116.0925,-3.1557],[116.09,-3.1585],[116.0891,-3.158],[116.0912,-3.1549],[116.106,-3.1472],[116.1204,-3.1487],[116.1225,-3.1551],[116.1251,-3.1566],[116.1248,-3.161],[116.1218,-3.1611],[116.1226,-3.1645],[116.1235,-3.167],[116.1262,-3.1684],[116.1265,-3.1673],[116.1238,-3.1666],[116.1221,-3.1619],[116.1253,-3.1612],[116.1257,-3.1567],[116.1227,-3.1543],[116.1214,-3.1484],[116.1311,-3.1507],[116.13,-3.1575],[116.132,-3.1599],[116.1315,-3.1629],[116.1323,-3.1631],[116.1343,-3.1614],[116.1378,-3.1646],[116.1377,-3.1654],[116.1361,-3.1646],[116.1335,-3.1653],[116.1344,-3.1675],[116.1343,-3.1654],[116.1376,-3.1658],[116.1386,-3.1644],[116.1347,-3.1607],[116.132,-3.1627],[116.1328,-3.1596],[116.1307,-3.1576],[116.1319,-3.1506],[116.1389,-3.1523],[116.1514,-3.1596],[116.1674,-3.1651],[116.1684,-3.1805],[116.1786,-3.2055],[116.18,-3.2117],[116.179,-3.2167],[116.1808,-3.2183],[116.1833,-3.2278],[116.1813,-3.2397],[116.1776,-3.2457],[116.1768,-3.2513],[116.1703,-3.2524],[116.1668,-3.2514],[116.1644,-3.2457],[116.1608,-3.2432],[116.1642,-3.2459],[116.1661,-3.2525],[116.1492,-3.2606],[116.1372,-3.2564],[116.1313,-3.2576],[116.1312,-3.2611],[116.1272,-3.2621],[116.1234,-3.2593],[116.1176,-3.2583],[116.1197,-3.2569],[116.1193,-3.2535],[116.1102,-3.2535],[116.1048,-3.2489],[116.0994,-3.247],[116.0951,-3.2388],[116.0983,-3.2355],[116.0966,-3.2316],[116.0952,-3.2298],[116.0901,-3.2307],[116.0842,-3.2204],[116.0796,-3.2201],[116.0788,-3.2219],[116.074,-3.2232],[116.073,-3.2268],[116.0702,-3.2282],[116.0592,-3.2294],[116.0644,-3.2227],[116.0779,-3.2162],[116.0887,-3.2068],[116.0803,-3.1984],[116.0756,-3.1909],[116.0737,-3.1862],[116.0738,-3.1788]]]}},{"type":"Feature","properties":{"name":"Mandala","name_en":"Mandala","admin_level":"7","osm_id":""},"geometry":{"type":"Polygon","coordinates":[[[116.0699,-3.1566],[116.0725,-3.1632],[116.0672,-3.1677],[116.0663,-3.17],[116.0739,-3.1634],[116.0764,-3.1677],[116.068,-3.185],[116.0679,-3.1896],[116.0736,-3.1976],[116.073,-3.2033],[116.0682,-3.2067],[116.0608,-3.2002],[116.054,-3.2038],[116.0539,-3.2006],[116.0561,-3.1987],[116.0522,-3.1982],[116.0429,-3.189],[116.04,-3.1881],[116.0365,-3.1783],[116.0315,-3.1721],[116.0402,-3.1632],[116.0649,-3.1608],[116.0699,-3.1566]]]}},{"type":"Feature","properties":{"name":"PelajuBaru","name_en":"PelajuBaru","admin_level":"7","osm_id":""},"geometry":{"type":"Polygon","coordinates":[[[116.0329,-3.1145],[116.0288,-3.1156],[116.0197,-3.1105],[116.0105,-3.1117],[116.0086,-3.1124],[116.0048,-3.1238],[115.9824,-3.1286],[115.9799,-3.1171],[115.9763,-3.1104],[116.0082,-3.0869],[116.0139,-3.0908],[116.0152,-3.0937],[116.0178,-3.0941],[116.0188,-3.0975],[116.0263,-3.1029],[116.027,-3.1071],[116.0296,-3.1092],[116.0293,-3.1116],[116.0329,-3.1145]]]}},{"type":"Feature","properties":{"name":"PulauPanci","name_en":"PulauPanci","admin_level":"7","osm_id":""},"geometry":{"type":"Polygon","coordinates":[[[116.0046,-3.1238],[116.0086,-3.1124],[116.0105,-3.1117],[116.0197,-3.1105],[116.0288,-3.1156],[116.0374,-3.113],[116.0397,-3.1178],[116.0413,-3.1181],[116.0428,-3.1148],[116.0452,-3.121],[116.0478,-3.1205],[116.0473,-3.1252],[116.057,-3.1195],[116.0629,-3.125],[116.0715,-3.1248],[116.0738,-3.1321],[116.0692,-3.1344],[116.0679,-3.1403],[116.0616,-3.1342],[116.0587,-3.1348],[116.0622,-3.135],[116.0678,-3.1413],[116.0679,-3.1442],[116.0703,-3.1393],[116.0797,-3.1359],[116.0902,-3.1472],[116.0876,-3.1489],[116.0856,-3.1467],[116.0819,-3.1449],[116.0795,-3.1466],[116.0786,-3.1433],[116.077,-3.1428],[116.0738,-3.1457],[116.0718,-3.1454],[116.0678,-3.152],[116.0629,-3.1516],[116.062,-3.149],[116.0635,-3.1472],[116.0623,-3.1458],[116.0596,-3.1576],[116.0581,-3.1593],[116.0551,-3.1593],[116.0515,-3.1572],[116.052,-3.15],[116.0461,-3.149],[116.0464,-3.1439],[116.0421,-3.146],[116.0304,-3.1459],[116.0245,-3.1413],[116.0109,-3.1383],[116.0032,-3.1383],[116.0003,-3.1336],[116.0004,-3.128],[116.0041,-3.1257],[116.0046,-3.1238]]]}},{"type":"Feature","properties":{"name":"Sahapi","name_en":"Sahapi","admin_level":"7","osm_id":""},"geometry":{"type":"Polygon","coordinates":[[[115.9873,-3.203],[115.9802,-3.2214],[115.9781,-3.2207],[115.979,-3.2226],[115.9734,-3.2245],[115.9647,-3.246],[115.9614,-3.2489],[115.9582,-3.2473],[115.9525,-3.2476],[115.9468,-3.2539],[115.9306,-3.236],[115.9281,-3.2222],[115.9331,-3.2142],[115.9396,-3.2105],[115.9503,-3.2205],[115.9576,-3.2221],[115.9608,-3.2154],[115.9679,-3.2184],[115.9699,-3.2168],[115.9818,-3.2014],[115.9873,-3.203]]]}},{"type":"Feature","properties":{"name":"Serongga","name_en":"Serongga","admin_level":"7","osm_id":""},"geometry":{"type":"Polygon","coordinates":[[[116.0738,-3.1788],[116.0737,-3.1862],[116.0756,-3.1909],[116.0803,-3.1984],[116.0887,-3.2068],[116.0779,-3.2162],[116.0644,-3.2227],[116.0588,-3.2298],[116.0434,-3.2349],[116.0275,-3.2354],[116.0205,-3.2372],[116.014,-3.2412],[116.0098,-3.2369],[116.0011,-3.2344],[115.9939,-3.2216],[115.9901,-3.2199],[115.9822,-3.2209],[115.9819,-3.2222],[115.9802,-3.2214],[115.9873,-3.203],[115.9923,-3.2033],[115.9973,-3.2074],[115.9987,-3.1994],[116.0045,-3.1957],[116.0049,-3.1895],[116.0086,-3.185],[116.0092,-3.178],[116.012,-3.1748],[116.0178,-3.1753],[116.0315,-3.1721],[116.0365,-3.1783],[116.04,-3.1881],[116.0429,-3.189],[116.0522,-3.1982],[116.0562,-3.1992],[116.0539,-3.2006],[116.05409920106526,-3.204285219707053],[116.0616,-3.2008],[116.0658,-3.2068],[116.0684,-3.2072],[116.0737,-3.2036],[116.0744,-3.1961],[116.069,-3.1878],[116.0696,-3.1839],[116.0738,-3.1788]]]}},{"type":"Feature","properties":{"name":"Tarjun","name_en":"Tarjun","admin_level":"7","osm_id":""},"geometry":{"type":"Polygon","coordinates":[[[116.0591,-3.2293],[116.0702,-3.2282],[116.073,-3.2268],[116.074,-3.2232],[116.0788,-3.2219],[116.0796,-3.2201],[116.0842,-3.2204],[116.0901,-3.2307],[116.0952,-3.2298],[116.0966,-3.2316],[116.0983,-3.2355],[116.0951,-3.2388],[116.0994,-3.247],[116.1048,-3.2489],[116.1102,-3.2535],[116.1193,-3.2535],[116.1197,-3.2569],[116.1176,-3.2583],[116.1234,-3.2593],[116.1272,-3.2621],[116.1312,-3.2611],[116.1313,-3.2576],[116.1372,-3.2564],[116.1492,-3.2606],[116.1488,-3.2635],[116.1447,-3.2662],[116.1157,-3.2741],[116.0989,-3.2816],[116.0923,-3.2831],[116.0842,-3.276],[116.0846,-3.2648],[116.0815,-3.2577],[116.0779,-3.259],[116.0711,-3.2648],[116.0673,-3.2643],[116.0659,-3.2602],[116.0623,-3.2574],[116.0607,-3.2577],[116.0601,-3.2612],[116.052,-3.2603],[116.0411,-3.2616],[116.0391,-3.257],[116.0336,-3.2517],[116.0141,-3.2415],[116.0205,-3.2372],[116.0275,-3.2354],[116.0434,-3.2349],[116.0591,-3.2293]]]}},{"type":"Feature","properties":{"name":"TegalRejo","name_en":"TegalRejo","admin_level":"7","osm_id":""},"geometry":{"type":"Polygon","coordinates":[[[115.9873,-3.203],[115.9818,-3.2014],[115.9679,-3.2184],[115.9608,-3.2154],[115.9576,-3.2221],[115.9503,-3.2205],[115.9396,-3.2105],[115.9478,-3.2037],[115.9514,-3.1922],[115.9493,-3.1797],[115.9435,-3.168],[115.9525,-3.1653],[115.9557,-3.1676],[116.012,-3.1748],[116.0092,-3.178],[116.0086,-3.185],[116.0049,-3.1895],[116.0045,-3.1957],[115.9987,-3.1994],[115.9973,-3.2074],[115.9923,-3.2033],[115.9873,-3.203]]]}},{"type":"Feature","properties":{"name":"TelagaSari","name_en":"TelagaSari","admin_level":"7","osm_id":""},"geometry":{"type":"Polygon","coordinates":[[[116.0699,-3.1566],[116.0649,-3.1608],[116.0402,-3.1632],[116.0308,-3.1725],[116.0178,-3.1753],[115.9557,-3.1676],[115.9525,-3.1653],[115.9435,-3.168],[115.9345,-3.1528],[115.9412,-3.1542],[115.9437,-3.1564],[115.9474,-3.1548],[115.9489,-3.1579],[115.954,-3.1606],[115.9573,-3.1577],[115.9636,-3.1575],[115.965,-3.1458],[115.9707,-3.1447],[115.9824,-3.1286],[116.0046,-3.1238],[116.0041,-3.1257],[116.0004,-3.128],[116.0003,-3.1336],[116.0032,-3.1383],[116.0109,-3.1383],[116.0245,-3.1413],[116.0304,-3.1459],[116.0421,-3.146],[116.0464,-3.1439],[116.0457,-3.1496],[116.051,-3.1504],[116.0514,-3.1586],[116.0566,-3.1603],[116.0594,-3.1595],[116.0645,-3.1529],[116.0699,-3.1566]]]}}]}