{"type":"FeatureCollection","metadata":{"parent_osm_id":"gid_IDN_5_10_2_1","parent_name":"IlirTalo","parent_name_1":"Bengkulu","parent_gid":"IDN.5.10.2_1","parent_level":"6","child_level":"7","count":15,"source":"GADM 4.1","generated":"2026-05-08"},"features":[{"type":"Feature","properties":{"name":"DusunBaru","name_en":"DusunBaru","admin_level":"7","osm_id":""},"geometry":{"type":"Polygon","coordinates":[[[102.6952,-4.2389],[102.6991,-4.2399],[102.7027,-4.249],[102.7011,-4.2505],[102.6985,-4.247],[102.6952,-4.2462],[102.6976,-4.2514],[102.693,-4.2539],[102.6972,-4.2553],[102.6974,-4.2583],[102.6922,-4.2575],[102.6831,-4.2505],[102.6818,-4.2513],[102.6719,-4.2427],[102.6842,-4.2361],[102.6952,-4.2389]]]}},{"type":"Feature","properties":{"name":"MargoSari","name_en":"MargoSari","admin_level":"7","osm_id":""},"geometry":{"type":"Polygon","coordinates":[[[102.6004,-4.1815],[102.5833,-4.1811],[102.5779,-4.1786],[102.5866,-4.1701],[102.6004,-4.1815]]]}},{"type":"Feature","properties":{"name":"MekarSari","name_en":"MekarSari","admin_level":"7","osm_id":""},"geometry":{"type":"Polygon","coordinates":[[[102.5883,-4.1816],[102.6004,-4.1815],[102.6111,-4.1897],[102.5991,-4.2046],[102.5928,-4.1998],[102.593,-4.1894],[102.5921,-4.1857],[102.5883,-4.1816]]]}},{"type":"Feature","properties":{"name":"NantiAgung","name_en":"NantiAgung","admin_level":"7","osm_id":""},"geometry":{"type":"Polygon","coordinates":[[[102.6991,-4.2399],[102.6952,-4.2389],[102.697,-4.2304],[102.6939,-4.2276],[102.6982,-4.2219],[102.7045,-4.2274],[102.7052,-4.23],[102.7018,-4.2343],[102.7054,-4.2337],[102.7062,-4.2405],[102.7084,-4.2415],[102.7077,-4.2432],[102.7058,-4.2431],[102.7006,-4.239],[102.699,-4.2386],[102.6991,-4.2399]]]}},{"type":"Feature","properties":{"name":"PadangBatu","name_en":"PadangBatu","admin_level":"7","osm_id":""},"geometry":{"type":"Polygon","coordinates":[[[102.6974,-4.2583],[102.6972,-4.2553],[102.693,-4.2539],[102.6976,-4.2514],[102.6952,-4.2462],[102.6985,-4.247],[102.7011,-4.2505],[102.7035,-4.2491],[102.7121,-4.2586],[102.7127,-4.2629],[102.7118,-4.2649],[102.7048,-4.2587],[102.6974,-4.2583]]]}},{"type":"Feature","properties":{"name":"PadangCekur","name_en":"PadangCekur","admin_level":"7","osm_id":""},"geometry":{"type":"Polygon","coordinates":[[[102.6952,-4.2389],[102.6842,-4.2361],[102.6719,-4.2427],[102.653,-4.2215],[102.6623,-4.218],[102.6676,-4.2215],[102.6785,-4.2243],[102.6829,-4.2286],[102.6897,-4.2297],[102.6939,-4.2276],[102.697,-4.2304],[102.6952,-4.2389]]]}},{"type":"Feature","properties":{"name":"PaluhTerap","name_en":"PaluhTerap","admin_level":"7","osm_id":""},"geometry":{"type":"Polygon","coordinates":[[[102.5779,-4.1786],[102.5883,-4.1816],[102.5921,-4.1857],[102.5928,-4.1998],[102.5737,-4.1854],[102.5779,-4.1786]]]}},{"type":"Feature","properties":{"name":"PasarTalo","name_en":"PasarTalo","admin_level":"7","osm_id":""},"geometry":{"type":"Polygon","coordinates":[[[102.6818,-4.2513],[102.6831,-4.2505],[102.6922,-4.2575],[102.7048,-4.2587],[102.7118,-4.2649],[102.7033,-4.2818],[102.6741,-4.2604],[102.6818,-4.2513]]]}},{"type":"Feature","properties":{"name":"PenagoBaru","name_en":"PenagoBaru","admin_level":"7","osm_id":""},"geometry":{"type":"Polygon","coordinates":[[[102.5991,-4.2046],[102.6111,-4.1897],[102.6361,-4.2046],[102.6414,-4.2064],[102.6333,-4.2153],[102.6198,-4.2203],[102.5991,-4.2046]]]}},{"type":"Feature","properties":{"name":"PenagoI","name_en":"PenagoI","admin_level":"7","osm_id":""},"geometry":{"type":"Polygon","coordinates":[[[102.6719,-4.2427],[102.6818,-4.2513],[102.6743,-4.2602],[102.6558,-4.2454],[102.6198,-4.2203],[102.6333,-4.2153],[102.6414,-4.2064],[102.6719,-4.2427]]]}},{"type":"Feature","properties":{"name":"PenagoIi","name_en":"PenagoIi","admin_level":"7","osm_id":""},"geometry":{"type":"Polygon","coordinates":[[[102.6414,-4.2064],[102.6299,-4.2008],[102.6439,-4.1869],[102.6514,-4.1901],[102.6578,-4.1899],[102.6581,-4.1914],[102.6527,-4.1976],[102.6503,-4.2058],[102.6472,-4.2102],[102.6454,-4.2117],[102.6414,-4.2064]]]}},{"type":"Feature","properties":{"name":"RawaIndah","name_en":"RawaIndah","admin_level":"7","osm_id":""},"geometry":{"type":"Polygon","coordinates":[[[102.5866,-4.1701],[102.5794,-4.1767],[102.5737,-4.1854],[102.5307,-4.1519],[102.5456,-4.149],[102.5644,-4.1505],[102.5866,-4.1701]]]}},{"type":"Feature","properties":{"name":"TalangKabu","name_en":"TalangKabu","admin_level":"7","osm_id":""},"geometry":{"type":"Polygon","coordinates":[[[102.6623,-4.218],[102.653,-4.2215],[102.6454,-4.2117],[102.6503,-4.2058],[102.6527,-4.1976],[102.6578,-4.1913],[102.6626,-4.1916],[102.6743,-4.1993],[102.6831,-4.1994],[102.6855,-4.2021],[102.6862,-4.2091],[102.6623,-4.218]]]}},{"type":"Feature","properties":{"name":"TalangPanjang","name_en":"TalangPanjang","admin_level":"7","osm_id":""},"geometry":{"type":"Polygon","coordinates":[[[102.6982,-4.2219],[102.694,-4.2276],[102.6897,-4.2297],[102.6829,-4.2286],[102.6785,-4.2243],[102.6676,-4.2215],[102.6623,-4.218],[102.6862,-4.2091],[102.689,-4.2098],[102.6906,-4.2132],[102.696,-4.2169],[102.6982,-4.2219]]]}},{"type":"Feature","properties":{"name":"TanahAbang","name_en":"TanahAbang","admin_level":"7","osm_id":""},"geometry":{"type":"Polygon","coordinates":[[[102.6004,-4.1815],[102.5751,-4.1612],[102.5644,-4.1505],[102.6031,-4.1553],[102.602,-4.1569],[102.6056,-4.1669],[102.6152,-4.1771],[102.6171,-4.1869],[102.6211,-4.1865],[102.6271,-4.1794],[102.63,-4.1807],[102.6324,-4.1795],[102.6355,-4.1848],[102.6373,-4.1855],[102.6401,-4.1837],[102.6404,-4.1854],[102.6439,-4.1869],[102.6299,-4.2008],[102.6004,-4.1815]]]}}]}