{"type":"FeatureCollection","metadata":{"parent_osm_id":"9680041","parent_name":"Sukodono","parent_name_1":"JawaTimur","parent_gid":"IDN.11.32.12_1","parent_level":"6","child_level":"7","count":19,"source":"GADM 4.1","generated":"2026-05-09"},"features":[{"type":"Feature","properties":{"name":"Anggaswangi","name_en":"Anggaswangi","admin_level":"7","osm_id":""},"geometry":{"type":"Polygon","coordinates":[[[112.6929,-7.4231],[112.6921,-7.4282],[112.6869,-7.4273],[112.686,-7.4231],[112.6815,-7.4216],[112.6827,-7.417],[112.6742,-7.4139],[112.6739,-7.4099],[112.6766,-7.409],[112.6848,-7.4109],[112.6846,-7.4159],[112.6902,-7.4179],[112.6929,-7.4231]]]}},{"type":"Feature","properties":{"name":"Bangsri","name_en":"Bangsri","admin_level":"7","osm_id":""},"geometry":{"type":"Polygon","coordinates":[[[112.6692,-7.3813],[112.6688,-7.3883],[112.6723,-7.3874],[112.6703,-7.392],[112.6638,-7.3887],[112.6577,-7.3908],[112.6592,-7.3797],[112.6692,-7.3813]]]}},{"type":"Feature","properties":{"name":"Cangkringsari","name_en":"Cangkringsari","admin_level":"7","osm_id":""},"geometry":{"type":"Polygon","coordinates":[[[112.6393,-7.4025],[112.639,-7.3996],[112.6367,-7.3992],[112.6355,-7.3951],[112.6426,-7.3929],[112.6423,-7.3948],[112.6536,-7.397],[112.6527,-7.4084],[112.65,-7.4068],[112.6407,-7.4071],[112.6393,-7.4025]]]}},{"type":"Feature","properties":{"name":"Jogosatru","name_en":"Jogosatru","admin_level":"7","osm_id":""},"geometry":{"type":"Polygon","coordinates":[[[112.6264,-7.3941],[112.6355,-7.3951],[112.6367,-7.3992],[112.639,-7.3996],[112.6393,-7.4025],[112.6353,-7.4005],[112.6253,-7.4021],[112.6251,-7.3957],[112.6264,-7.3941]]]}},{"type":"Feature","properties":{"name":"Jumputrejo","name_en":"Jumputrejo","admin_level":"7","osm_id":""},"geometry":{"type":"Polygon","coordinates":[[[112.7031,-7.4173],[112.7022,-7.4203],[112.6929,-7.4231],[112.6902,-7.4179],[112.6846,-7.4159],[112.69,-7.4029],[112.7056,-7.4073],[112.7047,-7.413],[112.7024,-7.4126],[112.7018,-7.4156],[112.6993,-7.414],[112.6998,-7.411],[112.6953,-7.4106],[112.6952,-7.4133],[112.7031,-7.4173]]]}},{"type":"Feature","properties":{"name":"Kebonagung","name_en":"Kebonagung","admin_level":"7","osm_id":""},"geometry":{"type":"Polygon","coordinates":[[[112.6815,-7.4216],[112.676,-7.4218],[112.6756,-7.4271],[112.6718,-7.4261],[112.6722,-7.4244],[112.6687,-7.4233],[112.6688,-7.4193],[112.6669,-7.4184],[112.6657,-7.4148],[112.6689,-7.4125],[112.676,-7.4139],[112.6827,-7.417],[112.6815,-7.4216]]]}},{"type":"Feature","properties":{"name":"Keloposepuluh","name_en":"Keloposepuluh","admin_level":"7","osm_id":""},"geometry":{"type":"Polygon","coordinates":[[[112.699,-7.3968],[112.7017,-7.3983],[112.7001,-7.4054],[112.6805,-7.4019],[112.6809,-7.3979],[112.6795,-7.3957],[112.6841,-7.3884],[112.689,-7.3909],[112.6924,-7.3947],[112.6923,-7.3968],[112.699,-7.3968]]]}},{"type":"Feature","properties":{"name":"MasanganKulon","name_en":"MasanganKulon","admin_level":"7","osm_id":""},"geometry":{"type":"Polygon","coordinates":[[[112.6908,-7.3932],[112.6864,-7.3891],[112.6813,-7.3882],[112.6821,-7.379],[112.6865,-7.3752],[112.6909,-7.376],[112.6934,-7.3794],[112.693,-7.3819],[112.6969,-7.384],[112.6964,-7.3875],[112.6947,-7.387],[112.6908,-7.3932]]]}},{"type":"Feature","properties":{"name":"MasanganWetan","name_en":"MasanganWetan","admin_level":"7","osm_id":""},"geometry":{"type":"Polygon","coordinates":[[[112.7041,-7.3908],[112.7033,-7.3942],[112.7004,-7.394],[112.6974,-7.3973],[112.6923,-7.3968],[112.6908,-7.3932],[112.6947,-7.387],[112.6964,-7.3875],[112.6969,-7.384],[112.7048,-7.3865],[112.7041,-7.3908]]]}},{"type":"Feature","properties":{"name":"Ngaresrejo","name_en":"Ngaresrejo","admin_level":"7","osm_id":""},"geometry":{"type":"Polygon","coordinates":[[[112.6307,-7.394],[112.6342,-7.3871],[112.6366,-7.386],[112.6381,-7.388],[112.6437,-7.387],[112.6441,-7.3853],[112.6474,-7.3846],[112.6477,-7.3925],[112.6458,-7.3915],[112.6355,-7.3951],[112.6307,-7.394]]]}},{"type":"Feature","properties":{"name":"Pademonegoro","name_en":"Pademonegoro","admin_level":"7","osm_id":""},"geometry":{"type":"Polygon","coordinates":[[[112.6527,-7.4084],[112.6532,-7.3986],[112.6589,-7.3996],[112.6601,-7.3952],[112.6676,-7.3969],[112.6664,-7.4031],[112.6638,-7.4054],[112.6622,-7.4115],[112.6527,-7.4084]]]}},{"type":"Feature","properties":{"name":"Panjunan","name_en":"Panjunan","admin_level":"7","osm_id":""},"geometry":{"type":"Polygon","coordinates":[[[112.672,-7.387],[112.6688,-7.3883],[112.6692,-7.3813],[112.6712,-7.3815],[112.6718,-7.3786],[112.6821,-7.379],[112.6819,-7.3858],[112.672,-7.387]]]}},{"type":"Feature","properties":{"name":"Pekarungan","name_en":"Pekarungan","admin_level":"7","osm_id":""},"geometry":{"type":"Polygon","coordinates":[[[112.6766,-7.409],[112.6739,-7.4099],[112.6741,-7.4131],[112.6678,-7.4126],[112.6671,-7.415],[112.6653,-7.4144],[112.6654,-7.4123],[112.6622,-7.4115],[112.6676,-7.3972],[112.6706,-7.3985],[112.6714,-7.4029],[112.6762,-7.4031],[112.6751,-7.4065],[112.6766,-7.409]]]}},{"type":"Feature","properties":{"name":"Plumbungan","name_en":"Plumbungan","admin_level":"7","osm_id":""},"geometry":{"type":"Polygon","coordinates":[[[112.6577,-7.3908],[112.6638,-7.3887],[112.668,-7.3906],[112.6676,-7.3969],[112.6601,-7.3952],[112.6589,-7.3996],[112.6533,-7.3986],[112.6552,-7.3919],[112.6577,-7.3908]]]}},{"type":"Feature","properties":{"name":"Sambungrejo","name_en":"Sambungrejo","admin_level":"7","osm_id":""},"geometry":{"type":"Polygon","coordinates":[[[112.6586,-7.3845],[112.6577,-7.3908],[112.6552,-7.3919],[112.6545,-7.3972],[112.6423,-7.3948],[112.6433,-7.3922],[112.6477,-7.3925],[112.6474,-7.3849],[112.6504,-7.3807],[112.6543,-7.3804],[112.6541,-7.3844],[112.6586,-7.3845]]]}},{"type":"Feature","properties":{"name":"Suko","name_en":"Suko","admin_level":"7","osm_id":""},"geometry":{"type":"Polygon","coordinates":[[[112.6969,-7.384],[112.693,-7.3819],[112.6934,-7.3794],[112.6904,-7.3756],[112.6935,-7.3703],[112.6982,-7.3703],[112.7034,-7.3669],[112.7052,-7.3673],[112.7037,-7.3794],[112.701,-7.38],[112.6986,-7.3851],[112.6969,-7.384]]]}},{"type":"Feature","properties":{"name":"Sukodono","name_en":"Sukodono","admin_level":"7","osm_id":""},"geometry":{"type":"Polygon","coordinates":[[[112.6683,-7.3907],[112.6703,-7.392],[112.6721,-7.3861],[112.6819,-7.3858],[112.6813,-7.3882],[112.683,-7.3887],[112.682,-7.3928],[112.6795,-7.3957],[112.6809,-7.3979],[112.6805,-7.4019],[112.6714,-7.4029],[112.6706,-7.3985],[112.6676,-7.3972],[112.6683,-7.3907]]]}},{"type":"Feature","properties":{"name":"Suruh","name_en":"Suruh","admin_level":"7","osm_id":""},"geometry":{"type":"Polygon","coordinates":[[[112.6854,-7.4115],[112.6762,-7.4087],[112.6751,-7.4065],[112.6761,-7.4014],[112.6871,-7.4022],[112.6899,-7.4041],[112.6872,-7.4106],[112.6854,-7.4115]]]}},{"type":"Feature","properties":{"name":"Wilayut","name_en":"Wilayut","admin_level":"7","osm_id":""},"geometry":{"type":"Polygon","coordinates":[[[112.6687,-7.4233],[112.657,-7.4212],[112.6599,-7.4107],[112.6655,-7.4124],[112.6661,-7.4171],[112.6691,-7.4203],[112.6687,-7.4233]]]}}]}