{"type":"FeatureCollection","metadata":{"parent_osm_id":"gid_IDN_27_4_14_1","parent_name":"SojolUtara","parent_name_1":"SulawesiTengah","parent_gid":"IDN.27.4.14_1","parent_level":"6","child_level":"7","count":4,"source":"GADM 4.1","generated":"2026-05-08"},"features":[{"type":"Feature","properties":{"name":"Lenju","name_en":"Lenju","admin_level":"7","osm_id":""},"geometry":{"type":"Polygon","coordinates":[[[120.0982,0.6869],[120.0903,0.7055],[120.0651,0.7347],[120.0766,0.7422],[120.0817,0.739],[120.093,0.7397],[120.1011,0.7505],[120.1007,0.7257],[120.1151,0.7067],[120.1112,0.7006],[120.1115,0.6878],[120.1092,0.6784],[120.1028,0.6814],[120.0982,0.6869]]]}},{"type":"Feature","properties":{"name":"OgoamasI","name_en":"OgoamasI","admin_level":"7","osm_id":""},"geometry":{"type":"Polygon","coordinates":[[[120.1699,0.6505],[120.1506,0.6774],[120.1469,0.7036],[120.1413,0.7191],[120.13,0.7265],[120.1263,0.734],[120.1262,0.7418],[120.1363,0.7473],[120.1393,0.7433],[120.1383,0.742],[120.1437,0.7331],[120.143,0.7319],[120.1515,0.7246],[120.1783,0.7133],[120.1839,0.7076],[120.1889,0.7065],[120.1966,0.7006],[120.1999,0.6734],[120.1989,0.6638],[120.1959,0.6581],[120.1962,0.6466],[120.1926,0.6304],[120.1927,0.6152],[120.1859,0.6188],[120.1758,0.6317],[120.1699,0.6505]]]}},{"type":"Feature","properties":{"name":"OgoamasIi","name_en":"OgoamasIi","admin_level":"7","osm_id":""},"geometry":{"type":"Polygon","coordinates":[[[120.1092,0.6784],[120.1115,0.6878],[120.1112,0.7006],[120.1151,0.7079],[120.1007,0.7257],[120.1011,0.7505],[120.1034,0.7471],[120.1018,0.7439],[120.1037,0.7411],[120.1118,0.7429],[120.1205,0.741],[120.1262,0.7418],[120.1263,0.734],[120.13,0.7265],[120.1413,0.7191],[120.1435,0.7103],[120.1463,0.7059],[120.1506,0.6774],[120.1699,0.6505],[120.1581,0.6493],[120.149,0.6519],[120.1275,0.6516],[120.122,0.6559],[120.1092,0.6784]]]}},{"type":"Feature","properties":{"name":"Pesik","name_en":"Pesik","admin_level":"7","osm_id":""},"geometry":{"type":"Polygon","coordinates":[[[120.0699,0.7285],[120.0867,0.7106],[120.0941,0.6978],[120.0986,0.686],[120.0923,0.6802],[120.0804,0.6824],[120.0736,0.6803],[120.0662,0.6818],[120.0586,0.6792],[120.0387,0.6943],[120.038,0.702],[120.0407,0.7119],[120.0384,0.7174],[120.0435,0.7148],[120.043,0.7131],[120.0452,0.7117],[120.0534,0.7119],[120.057,0.7168],[120.0588,0.7161],[120.0609,0.7176],[120.0592,0.7272],[120.0651,0.7347],[120.0699,0.7285]]]}}]}