{"type":"FeatureCollection","metadata":{"parent_osm_id":"gid_IDN_11_18_7_1","parent_name":"KarangGeneng","parent_name_1":"JawaTimur","parent_gid":"IDN.11.18.7_1","parent_level":"6","child_level":"7","count":18,"source":"GADM 4.1","generated":"2026-05-07"},"features":[{"type":"Feature","properties":{"name":"Banjarmadu","name_en":"Banjarmadu","admin_level":"7","osm_id":""},"geometry":{"type":"Polygon","coordinates":[[[112.3443,-7.0466],[112.3463,-7.0568],[112.344,-7.0679],[112.342,-7.074],[112.338,-7.0737],[112.3397,-7.0684],[112.3355,-7.0672],[112.3365,-7.0635],[112.3343,-7.0627],[112.3365,-7.0579],[112.3375,-7.0488],[112.3393,-7.0461],[112.3443,-7.0466]]]}},{"type":"Feature","properties":{"name":"Bantengputih","name_en":"Bantengputih","admin_level":"7","osm_id":""},"geometry":{"type":"Polygon","coordinates":[[[112.3133,-7.0016],[112.3168,-7.0074],[112.3157,-7.0127],[112.3184,-7.0136],[112.316,-7.0188],[112.306,-7.0162],[112.3061,-7.007],[112.3011,-7.0055],[112.3014,-7.0001],[112.3038,-7.0003],[112.304,-6.9985],[112.3111,-6.999],[112.3133,-7.0016]]]}},{"type":"Feature","properties":{"name":"Guci","name_en":"Guci","admin_level":"7","osm_id":""},"geometry":{"type":"Polygon","coordinates":[[[112.3184,-7.0136],[112.3157,-7.0127],[112.3168,-7.0074],[112.3133,-7.0016],[112.3148,-7.0],[112.3208,-7.0022],[112.3215,-6.9995],[112.323,-6.9997],[112.3284,-7.0037],[112.3279,-7.0063],[112.3269,-7.0085],[112.3244,-7.0087],[112.3247,-7.0108],[112.3196,-7.0119],[112.3184,-7.0136]]]}},{"type":"Feature","properties":{"name":"Jagran","name_en":"Jagran","admin_level":"7","osm_id":""},"geometry":{"type":"Polygon","coordinates":[[[112.3607,-6.9891],[112.3565,-6.993],[112.3569,-7.0041],[112.3552,-7.0064],[112.3548,-7.0118],[112.3524,-7.0117],[112.3519,-7.0087],[112.3485,-7.0075],[112.3485,-6.9947],[112.3545,-6.9918],[112.353,-6.9843],[112.3607,-6.9891]]]}},{"type":"Feature","properties":{"name":"Kalanganyar","name_en":"Kalanganyar","admin_level":"7","osm_id":""},"geometry":{"type":"Polygon","coordinates":[[[112.3393,-7.0461],[112.3375,-7.0488],[112.3369,-7.0557],[112.3318,-7.0536],[112.331,-7.0574],[112.3264,-7.056],[112.3298,-7.0454],[112.3287,-7.0432],[112.3297,-7.0376],[112.3322,-7.0383],[112.3318,-7.0407],[112.3337,-7.0427],[112.3396,-7.0443],[112.3393,-7.0461]]]}},{"type":"Feature","properties":{"name":"Kaligerman","name_en":"Kaligerman","admin_level":"7","osm_id":""},"geometry":{"type":"Polygon","coordinates":[[[112.3133,-7.0016],[112.3146,-6.9968],[112.3174,-6.9941],[112.3197,-6.9956],[112.3231,-6.995],[112.3248,-6.9924],[112.332,-6.9964],[112.3354,-7.0022],[112.3285,-7.0018],[112.3275,-7.0034],[112.3222,-6.9995],[112.3208,-7.0022],[112.3148,-7.0],[112.3133,-7.0016]]]}},{"type":"Feature","properties":{"name":"Karanggeneng","name_en":"Karanggeneng","admin_level":"7","osm_id":""},"geometry":{"type":"Polygon","coordinates":[[[112.3685,-6.9903],[112.3717,-6.9848],[112.3751,-6.9867],[112.3741,-6.9928],[112.3727,-6.9927],[112.372,-6.9991],[112.3735,-6.9989],[112.3735,-7.0002],[112.3715,-7.0106],[112.368,-7.0097],[112.371,-6.9935],[112.3684,-6.9934],[112.3685,-6.9903]]]}},{"type":"Feature","properties":{"name":"Karangrejo","name_en":"Karangrejo","admin_level":"7","osm_id":""},"geometry":{"type":"Polygon","coordinates":[[[112.3131,-7.0012],[112.3111,-6.9993],[112.312,-6.9965],[112.3144,-6.991],[112.3165,-6.9909],[112.3194,-6.9841],[112.3287,-6.9828],[112.3295,-6.984],[112.3274,-6.9855],[112.323,-6.9868],[112.3229,-6.9899],[112.3248,-6.9924],[112.3231,-6.995],[112.3197,-6.9956],[112.3174,-6.9941],[112.3146,-6.9968],[112.3131,-7.0012]]]}},{"type":"Feature","properties":{"name":"Karangwungu","name_en":"Karangwungu","admin_level":"7","osm_id":""},"geometry":{"type":"Polygon","coordinates":[[[112.3548,-7.0118],[112.3574,-6.9997],[112.3565,-6.993],[112.3607,-6.9891],[112.3615,-6.9958],[112.3632,-6.9973],[112.3633,-7.0051],[112.3627,-7.0063],[112.361,-7.0058],[112.3581,-7.0151],[112.3548,-7.0118]]]}},{"type":"Feature","properties":{"name":"Kawistolegi","name_en":"Kawistolegi","admin_level":"7","osm_id":""},"geometry":{"type":"Polygon","coordinates":[[[112.3485,-6.9947],[112.3485,-7.0075],[112.3519,-7.0087],[112.3524,-7.0117],[112.3548,-7.0118],[112.3522,-7.0164],[112.3483,-7.0164],[112.3482,-7.0179],[112.3375,-7.0129],[112.3395,-7.0055],[112.3382,-7.0032],[112.3401,-6.9977],[112.3485,-6.9947]]]}},{"type":"Feature","properties":{"name":"Kendalkemlagi","name_en":"Kendalkemlagi","admin_level":"7","osm_id":""},"geometry":{"type":"Polygon","coordinates":[[[112.3596,-7.028],[112.3564,-7.0324],[112.3459,-7.0317],[112.3461,-7.0302],[112.3409,-7.0281],[112.3426,-7.0244],[112.3427,-7.0163],[112.3482,-7.0179],[112.3483,-7.0164],[112.3522,-7.0164],[112.3545,-7.0127],[112.3569,-7.0134],[112.3565,-7.0148],[112.3622,-7.0163],[112.3614,-7.0244],[112.3596,-7.028]]]}},{"type":"Feature","properties":{"name":"Latukan","name_en":"Latukan","admin_level":"7","osm_id":""},"geometry":{"type":"Polygon","coordinates":[[[112.316,-7.0188],[112.3196,-7.0119],[112.3247,-7.0108],[112.3251,-7.0079],[112.3353,-7.0107],[112.3351,-7.0125],[112.3437,-7.0161],[112.342,-7.0258],[112.3404,-7.0289],[112.3385,-7.0293],[112.3218,-7.0264],[112.3152,-7.0218],[112.316,-7.0188]]]}},{"type":"Feature","properties":{"name":"Mertani","name_en":"Mertani","admin_level":"7","osm_id":""},"geometry":{"type":"Polygon","coordinates":[[[112.3751,-6.9867],[112.3797,-6.9883],[112.3804,-6.9966],[112.3846,-7.0047],[112.3852,-7.0115],[112.3826,-7.0111],[112.382,-7.0132],[112.3718,-7.0162],[112.3669,-7.0146],[112.3681,-7.0097],[112.3718,-7.0098],[112.3735,-7.0002],[112.3735,-6.9989],[112.372,-6.9991],[112.3727,-6.9927],[112.3741,-6.9928],[112.3751,-6.9867]]]}},{"type":"Feature","properties":{"name":"Prijekngablag","name_en":"Prijekngablag","admin_level":"7","osm_id":""},"geometry":{"type":"Polygon","coordinates":[[[112.3295,-6.984],[112.3271,-6.9825],[112.3207,-6.9839],[112.3168,-6.9793],[112.3228,-6.9696],[112.3267,-6.9683],[112.3291,-6.9692],[112.3294,-6.9677],[112.3315,-6.9703],[112.3356,-6.9718],[112.3342,-6.9754],[112.3312,-6.9752],[112.3318,-6.9813],[112.3295,-6.984]]]}},{"type":"Feature","properties":{"name":"Sonoadi","name_en":"Sonoadi","admin_level":"7","osm_id":""},"geometry":{"type":"Polygon","coordinates":[[[112.3269,-7.0085],[112.3285,-7.0018],[112.3354,-7.0022],[112.3394,-7.005],[112.3375,-7.0129],[112.3351,-7.0125],[112.3353,-7.0107],[112.3269,-7.0085]]]}},{"type":"Feature","properties":{"name":"Sumberwudi","name_en":"Sumberwudi","admin_level":"7","osm_id":""},"geometry":{"type":"Polygon","coordinates":[[[112.3674,-6.9919],[112.3685,-6.9903],[112.3684,-6.9934],[112.371,-6.9935],[112.3669,-7.0146],[112.3636,-7.0136],[112.3622,-7.0163],[112.3581,-7.0151],[112.361,-7.0058],[112.3627,-7.0063],[112.3633,-7.0051],[112.3632,-6.9973],[112.3666,-6.9967],[112.3674,-6.9919]]]}},{"type":"Feature","properties":{"name":"Sungelebak","name_en":"Sungelebak","admin_level":"7","osm_id":""},"geometry":{"type":"Polygon","coordinates":[[[112.3543,-7.0363],[112.3531,-7.0394],[112.3476,-7.0419],[112.3444,-7.0466],[112.3393,-7.0461],[112.3396,-7.0443],[112.3337,-7.0427],[112.3318,-7.0407],[112.3339,-7.0287],[112.3442,-7.0291],[112.3461,-7.0302],[112.3453,-7.0329],[112.3543,-7.0363]]]}},{"type":"Feature","properties":{"name":"Tracal","name_en":"Tracal","admin_level":"7","osm_id":""},"geometry":{"type":"Polygon","coordinates":[[[112.3274,-6.9855],[112.3314,-6.9824],[112.3312,-6.9752],[112.3342,-6.9754],[112.3352,-6.9729],[112.3408,-6.9762],[112.3426,-6.9831],[112.3387,-6.9891],[112.3355,-6.9897],[112.3274,-6.9855]]]}}]}