{"type":"FeatureCollection","metadata":{"parent_osm_id":"gid_IDN_23_28_6_1","parent_name":"Duram","parent_name_1":"Papua","parent_gid":"IDN.23.28.6_1","parent_level":"6","child_level":"7","count":6,"source":"GADM 4.1","generated":"2026-05-08"},"features":[{"type":"Feature","properties":{"name":"Dengat","name_en":"Dengat","admin_level":"7","osm_id":""},"geometry":{"type":"Polygon","coordinates":[[[139.5776,-4.503],[139.5942,-4.5056],[139.601,-4.5034],[139.6155,-4.4917],[139.6238,-4.4886],[139.625,-4.4854],[139.6346,-4.4884],[139.6268,-4.4977],[139.6176,-4.4991],[139.6105,-4.5041],[139.6069,-4.5133],[139.597,-4.5168],[139.5836,-4.5183],[139.5793,-4.5216],[139.5769,-4.5158],[139.5812,-4.5099],[139.5776,-4.503]]]}},{"type":"Feature","properties":{"name":"Digitme","name_en":"Digitme","admin_level":"7","osm_id":""},"geometry":{"type":"Polygon","coordinates":[[[139.625,-4.4854],[139.6238,-4.4886],[139.6155,-4.4917],[139.601,-4.5034],[139.5942,-4.5056],[139.5776,-4.503],[139.5655,-4.4908],[139.5639,-4.4828],[139.5587,-4.4738],[139.56,-4.467],[139.5992,-4.4803],[139.625,-4.4854]]]}},{"type":"Feature","properties":{"name":"Duram","name_en":"Duram","admin_level":"7","osm_id":""},"geometry":{"type":"Polygon","coordinates":[[[139.6346,-4.4884],[139.6175,-4.4831],[139.6182,-4.4741],[139.6219,-4.4625],[139.6155,-4.445],[139.6224,-4.422],[139.6263,-4.4257],[139.6257,-4.4488],[139.6344,-4.4631],[139.6317,-4.4645],[139.6374,-4.485],[139.6346,-4.4884]]]}},{"type":"Feature","properties":{"name":"Goak","name_en":"Goak","admin_level":"7","osm_id":""},"geometry":{"type":"Polygon","coordinates":[[[139.6344,-4.4631],[139.6257,-4.4488],[139.6263,-4.4257],[139.6224,-4.422],[139.6197,-4.3998],[139.6263,-4.3868],[139.6325,-4.3687],[139.6637,-4.3812],[139.6565,-4.3972],[139.6508,-4.4156],[139.6487,-4.4248],[139.6487,-4.4404],[139.6466,-4.4517],[139.643,-4.4588],[139.6344,-4.4631]]]}},{"type":"Feature","properties":{"name":"Niniwi","name_en":"Niniwi","admin_level":"7","osm_id":""},"geometry":{"type":"Polygon","coordinates":[[[139.5776,-4.503],[139.5812,-4.5099],[139.5769,-4.5158],[139.5793,-4.5216],[139.5708,-4.5282],[139.5609,-4.5409],[139.5581,-4.5706],[139.5609,-4.5805],[139.5595,-4.5996],[139.5439,-4.6202],[139.5425,-4.6343],[139.534,-4.6471],[139.5255,-4.6549],[139.5206,-4.6619],[139.5129,-4.682],[139.4905,-4.6687],[139.4977,-4.6458],[139.4941,-4.641],[139.4772,-4.629],[139.47,-4.6169],[139.4688,-4.5687],[139.4809,-4.5567],[139.4833,-4.5458],[139.4989,-4.5422],[139.5038,-4.5314],[139.5014,-4.4928],[139.511,-4.4832],[139.523,-4.4759],[139.5336,-4.4618],[139.5505,-4.4633],[139.56,-4.467],[139.5587,-4.4738],[139.5639,-4.4828],[139.5655,-4.4908],[139.5776,-4.503]]]}},{"type":"Feature","properties":{"name":"Yaminikma","name_en":"Yaminikma","admin_level":"7","osm_id":""},"geometry":{"type":"Polygon","coordinates":[[[139.6175,-4.4831],[139.5992,-4.4803],[139.5863,-4.4766],[139.5505,-4.4633],[139.5336,-4.4618],[139.5339,-4.4482],[139.5267,-4.4398],[139.5267,-4.4241],[139.5351,-4.4157],[139.5556,-4.4036],[139.564,-4.394],[139.5749,-4.3892],[139.5761,-4.3663],[139.5804,-4.3478],[139.6325,-4.3687],[139.6263,-4.3868],[139.6197,-4.3998],[139.6201,-4.4114],[139.6226,-4.4213],[139.6155,-4.445],[139.6219,-4.4625],[139.6182,-4.4741],[139.6175,-4.4831]]]}}]}