{"type":"FeatureCollection","metadata":{"parent_osm_id":"8942194","parent_name":"Alafan","parent_name_1":"Aceh","parent_gid":"IDN.1.22.1_1","parent_level":"6","child_level":"7","count":8,"source":"GADM 4.1","generated":"2026-05-09"},"features":[{"type":"Feature","properties":{"name":"Lafakha","name_en":"Lafakha","admin_level":"7","osm_id":""},"geometry":{"type":"Polygon","coordinates":[[[95.8101,2.7522],[95.8139,2.7476],[95.8114,2.7485],[95.8081,2.7461],[95.8038,2.7372],[95.7889,2.7189],[95.7714,2.7135],[95.765,2.7089],[95.7631,2.7115],[95.763,2.7147],[95.756,2.7157],[95.7557,2.7182],[95.7521,2.7178],[95.7506,2.7199],[95.7492,2.7221],[95.7507,2.728],[95.7495,2.7307],[95.742,2.7356],[95.7244,2.7387],[95.7217,2.7414],[95.7234,2.7433],[95.7225,2.7474],[95.7251,2.7468],[95.7324,2.7496],[95.7343,2.7528],[95.7329,2.7574],[95.7311,2.7587],[95.73,2.757],[95.7262,2.7602],[95.7331,2.7619],[95.7552,2.7578],[95.8103,2.7563],[95.8101,2.7522]]]}},{"type":"Feature","properties":{"name":"Lamerem","name_en":"Lamerem","admin_level":"7","osm_id":""},"geometry":{"type":"Polygon","coordinates":[[[95.7642,2.8783],[95.7651,2.8833],[95.7691,2.8863],[95.7677,2.8975],[95.7701,2.9023],[95.7819,2.8982],[95.788,2.8942],[95.8107,2.8874],[95.8147,2.8621],[95.8018,2.8665],[95.7962,2.8669],[95.7751,2.8762],[95.7642,2.8783]]]}},{"type":"Feature","properties":{"name":"Langi","name_en":"Langi","admin_level":"7","osm_id":""},"geometry":{"type":"Polygon","coordinates":[[[95.8047,2.7931],[95.8038,2.7809],[95.8063,2.7726],[95.753,2.8029],[95.7473,2.811],[95.7275,2.8292],[95.733,2.8318],[95.738,2.8302],[95.7396,2.8279],[95.7452,2.8305],[95.747,2.8294],[95.7502,2.8304],[95.7556,2.8285],[95.7613,2.8242],[95.7676,2.8265],[95.774,2.8264],[95.7742,2.8241],[95.7723,2.8226],[95.775,2.8238],[95.7789,2.8179],[95.7902,2.814],[95.8056,2.7988],[95.8047,2.7931]]]}},{"type":"Feature","properties":{"name":"Lewak","name_en":"Lewak","admin_level":"7","osm_id":""},"geometry":{"type":"Polygon","coordinates":[[[95.8086,2.8881],[95.788,2.8942],[95.7697,2.903],[95.7713,2.9086],[95.7745,2.9048],[95.7808,2.9096],[95.7809,2.9162],[95.784,2.9256],[95.7899,2.93],[95.7951,2.9285],[95.8014,2.9316],[95.8051,2.9298],[95.8053,2.9218],[95.8016,2.9227],[95.8009,2.9179],[95.8046,2.9188],[95.8057,2.9164],[95.7997,2.9146],[95.7979,2.916],[95.7989,2.9129],[95.803,2.9131],[95.8012,2.9119],[95.802,2.9071],[95.8048,2.9134],[95.806,2.9109],[95.8088,2.9114],[95.8068,2.9154],[95.8104,2.9131],[95.8111,2.915],[95.8167,2.9142],[95.8141,2.9124],[95.8103,2.9039],[95.8107,2.8874],[95.8086,2.8881]]]}},{"type":"Feature","properties":{"name":"LhokDalam","name_en":"LhokDalam","admin_level":"7","osm_id":""},"geometry":{"type":"Polygon","coordinates":[[[95.8103,2.7563],[95.7552,2.7578],[95.7331,2.7619],[95.7209,2.7594],[95.7199,2.7584],[95.7215,2.756],[95.7169,2.7551],[95.7138,2.7471],[95.7086,2.75],[95.7037,2.7473],[95.6993,2.752],[95.6979,2.7561],[95.6999,2.7633],[95.6928,2.7711],[95.6924,2.7746],[95.7139,2.7768],[95.7406,2.7756],[95.7742,2.7716],[95.8041,2.7709],[95.8066,2.7703],[95.8102,2.7608],[95.8103,2.7563]]]}},{"type":"Feature","properties":{"name":"LhokPauh","name_en":"LhokPauh","admin_level":"7","osm_id":""},"geometry":{"type":"Polygon","coordinates":[[[95.7661,2.8782],[95.7844,2.873],[95.7962,2.8669],[95.8018,2.8665],[95.8147,2.8621],[95.8154,2.8486],[95.8135,2.8435],[95.8075,2.8499],[95.7889,2.8559],[95.7772,2.8522],[95.7708,2.8473],[95.7679,2.8486],[95.7664,2.8471],[95.7648,2.8484],[95.7658,2.8519],[95.7634,2.8575],[95.7676,2.8625],[95.7664,2.8685],[95.7675,2.8722],[95.7647,2.878],[95.7661,2.8782]]]}},{"type":"Feature","properties":{"name":"LubukBaik","name_en":"LubukBaik","admin_level":"7","osm_id":""},"geometry":{"type":"Polygon","coordinates":[[[95.7275,2.8292],[95.7473,2.811],[95.753,2.8029],[95.8063,2.7726],[95.8066,2.7703],[95.7139,2.7768],[95.6924,2.7746],[95.6952,2.7799],[95.7068,2.7896],[95.7063,2.7978],[95.7103,2.8049],[95.7164,2.8095],[95.7188,2.8158],[95.7171,2.8239],[95.7275,2.8292]]]}},{"type":"Feature","properties":{"name":"Serafon","name_en":"Serafon","admin_level":"7","osm_id":""},"geometry":{"type":"Polygon","coordinates":[[[95.8053,2.7991],[95.7902,2.814],[95.7789,2.8179],[95.7785,2.8196],[95.7801,2.821],[95.7778,2.8219],[95.7776,2.8255],[95.7805,2.8307],[95.7817,2.832],[95.7833,2.8305],[95.7822,2.8294],[95.785,2.8299],[95.7862,2.8264],[95.7879,2.8263],[95.7861,2.8314],[95.788,2.8295],[95.7888,2.8314],[95.7907,2.8306],[95.7912,2.8326],[95.7896,2.8338],[95.7906,2.8369],[95.7964,2.8422],[95.7951,2.8442],[95.7918,2.8411],[95.7883,2.8427],[95.7875,2.8394],[95.7858,2.842],[95.7828,2.8416],[95.7789,2.8451],[95.7715,2.8479],[95.7772,2.8522],[95.7889,2.8559],[95.8075,2.8499],[95.8136,2.8434],[95.8104,2.8348],[95.8116,2.8245],[95.8036,2.8158],[95.8053,2.7991]]]}}]}