{"type":"FeatureCollection","metadata":{"parent_osm_id":"gid_IDN_20_8_4_1","parent_name":"Sandubaya","parent_name_1":"NusaTenggaraBarat","parent_gid":"IDN.20.8.4_1","parent_level":"6","child_level":"7","count":7,"source":"GADM 4.1","generated":"2026-05-07"},"features":[{"type":"Feature","properties":{"name":"AbianTubuhBaru","name_en":"AbianTubuhBaru","admin_level":"7","osm_id":""},"geometry":{"type":"Polygon","coordinates":[[[116.1291,-8.5968],[116.1288,-8.6018],[116.1322,-8.6018],[116.1319,-8.605],[116.1309,-8.6063],[116.1262,-8.6065],[116.1244,-8.5965],[116.1291,-8.5968]]]}},{"type":"Feature","properties":{"name":"Babakan","name_en":"Babakan","admin_level":"7","osm_id":""},"geometry":{"type":"Polygon","coordinates":[[[116.1322,-8.6018],[116.1322,-8.5979],[116.1358,-8.5983],[116.1372,-8.6088],[116.1357,-8.6117],[116.1326,-8.6114],[116.1329,-8.6065],[116.1313,-8.6069],[116.1305,-8.6063],[116.1322,-8.6018]]]}},{"type":"Feature","properties":{"name":"Bertais","name_en":"Bertais","admin_level":"7","osm_id":""},"geometry":{"type":"Polygon","coordinates":[[[116.1609,-8.5903],[116.1701,-8.5915],[116.171,-8.5933],[116.1631,-8.5932],[116.1544,-8.5988],[116.1543,-8.5953],[116.1519,-8.5958],[116.1505,-8.5924],[116.1469,-8.5912],[116.1472,-8.5873],[116.1492,-8.5868],[116.1516,-8.5879],[116.1527,-8.5908],[116.1601,-8.592],[116.1601,-8.5933],[116.1609,-8.5903]]]}},{"type":"Feature","properties":{"name":"DasanCermen","name_en":"DasanCermen","admin_level":"7","osm_id":""},"geometry":{"type":"Polygon","coordinates":[[[116.1362,-8.612],[116.1367,-8.6166],[116.1335,-8.6154],[116.1309,-8.6189],[116.1271,-8.617],[116.1215,-8.6188],[116.1213,-8.6166],[116.1187,-8.6161],[116.12,-8.6097],[116.1252,-8.6068],[116.1329,-8.6065],[116.1326,-8.6114],[116.1362,-8.612]]]}},{"type":"Feature","properties":{"name":"Mandalika","name_en":"Mandalika","admin_level":"7","osm_id":""},"geometry":{"type":"Polygon","coordinates":[[[116.1543,-8.6075],[116.1493,-8.6054],[116.1492,-8.6018],[116.1402,-8.598],[116.1446,-8.5925],[116.1464,-8.5911],[116.1505,-8.5924],[116.1519,-8.5958],[116.1543,-8.5953],[116.1544,-8.5988],[116.1631,-8.5932],[116.1693,-8.594],[116.1558,-8.6077],[116.1543,-8.6075]]]}},{"type":"Feature","properties":{"name":"Selagalas","name_en":"Selagalas","admin_level":"7","osm_id":""},"geometry":{"type":"Polygon","coordinates":[[[116.1559,-8.5829],[116.1561,-8.5842],[116.16,-8.5849],[116.1606,-8.5932],[116.1601,-8.592],[116.1527,-8.5908],[116.1499,-8.5868],[116.1409,-8.5874],[116.1372,-8.5828],[116.1395,-8.5801],[116.1366,-8.5772],[116.1396,-8.5766],[116.1384,-8.5738],[116.15,-8.5713],[116.1484,-8.5726],[116.1502,-8.5757],[116.1475,-8.5794],[116.1478,-8.5824],[116.1499,-8.5839],[116.1559,-8.5829]]]}},{"type":"Feature","properties":{"name":"Turida","name_en":"Turida","admin_level":"7","osm_id":""},"geometry":{"type":"Polygon","coordinates":[[[116.1428,-8.614],[116.1357,-8.6117],[116.1372,-8.6088],[116.1359,-8.5983],[116.1422,-8.5984],[116.1492,-8.6018],[116.1493,-8.6054],[116.1532,-8.6079],[116.1507,-8.6122],[116.1428,-8.614]]]}}]}