{"type":"FeatureCollection","metadata":{"parent_osm_id":"gid_IDN_26_23_7_1","parent_name":"DendePionganNapo","parent_name_1":"SulawesiSelatan","parent_gid":"IDN.26.23.7_1","parent_level":"6","child_level":"7","count":8,"source":"GADM 4.1","generated":"2026-05-09"},"features":[{"type":"Feature","properties":{"name":"KelurahanPasang","name_en":"KelurahanPasang","admin_level":"7","osm_id":""},"geometry":{"type":"Polygon","coordinates":[[[119.8385,-3.0004],[119.8371,-3.0007],[119.8307,-3.0146],[119.8219,-3.0083],[119.8187,-3.0098],[119.8179,-3.0057],[119.8203,-3.0042],[119.8199,-2.9981],[119.816,-2.9949],[119.8154,-2.9926],[119.8191,-2.9864],[119.816,-2.9843],[119.8144,-2.9789],[119.813,-2.9662],[119.8183,-2.9662],[119.8261,-2.9695],[119.828,-2.9674],[119.8329,-2.9718],[119.8346,-2.9711],[119.8327,-2.9796],[119.8377,-2.9917],[119.8385,-3.0004]]]}},{"type":"Feature","properties":{"name":"LembangBuntuTagari","name_en":"LembangBuntuTagari","admin_level":"7","osm_id":""},"geometry":{"type":"Polygon","coordinates":[[[119.7837,-2.9326],[119.7844,-2.9288],[119.7821,-2.9237],[119.7855,-2.9263],[119.7887,-2.9245],[119.792,-2.9264],[119.7979,-2.9258],[119.804,-2.9292],[119.8184,-2.9287],[119.8155,-2.9348],[119.8126,-2.9356],[119.8094,-2.939],[119.8084,-2.9447],[119.8102,-2.9492],[119.8065,-2.9491],[119.8056,-2.9455],[119.7976,-2.9409],[119.798,-2.9376],[119.7941,-2.9329],[119.7917,-2.9344],[119.7889,-2.9325],[119.7837,-2.9326]]]}},{"type":"Feature","properties":{"name":"LembangDende","name_en":"LembangDende","admin_level":"7","osm_id":""},"geometry":{"type":"Polygon","coordinates":[[[119.8352,-2.972],[119.8341,-2.9707],[119.8329,-2.9718],[119.8307,-2.9689],[119.8297,-2.9699],[119.828,-2.9674],[119.8261,-2.9695],[119.8183,-2.9662],[119.8096,-2.9664],[119.8107,-2.963],[119.8099,-2.9585],[119.8124,-2.9529],[119.8175,-2.9561],[119.8222,-2.9566],[119.8285,-2.9527],[119.8335,-2.9536],[119.8354,-2.9595],[119.8342,-2.9631],[119.8352,-2.972]]]}},{"type":"Feature","properties":{"name":"LembangKapoloang","name_en":"LembangKapoloang","admin_level":"7","osm_id":""},"geometry":{"type":"Polygon","coordinates":[[[119.8035,-3.0291],[119.8004,-3.0125],[119.8045,-3.0146],[119.8074,-3.0131],[119.8096,-3.0152],[119.8107,-3.0114],[119.8135,-3.0126],[119.8164,-3.0091],[119.8176,-3.0102],[119.8213,-3.0082],[119.8289,-3.0145],[119.832,-3.0137],[119.8312,-3.0171],[119.8224,-3.0294],[119.8153,-3.0304],[119.8035,-3.0291]]]}},{"type":"Feature","properties":{"name":"LembangMa'dong","name_en":"LembangMa'dong","admin_level":"7","osm_id":""},"geometry":{"type":"Polygon","coordinates":[[[119.7892,-2.9475],[119.7841,-2.939],[119.7837,-2.9326],[119.7889,-2.9325],[119.7917,-2.9344],[119.7941,-2.9329],[119.7958,-2.9343],[119.798,-2.9376],[119.7976,-2.9409],[119.8056,-2.9455],[119.8065,-2.9491],[119.8106,-2.9495],[119.8124,-2.9529],[119.8114,-2.9564],[119.7973,-2.9525],[119.7892,-2.9475]]]}},{"type":"Feature","properties":{"name":"LembangPaku","name_en":"LembangPaku","admin_level":"7","osm_id":""},"geometry":{"type":"Polygon","coordinates":[[[119.7997,-2.9664],[119.797,-2.959],[119.7924,-2.9557],[119.7894,-2.9473],[119.7973,-2.9525],[119.8114,-2.9564],[119.8098,-2.959],[119.8107,-2.963],[119.8096,-2.9664],[119.7997,-2.9664]]]}},{"type":"Feature","properties":{"name":"LembangParindingan","name_en":"LembangParindingan","admin_level":"7","osm_id":""},"geometry":{"type":"Polygon","coordinates":[[[119.8102,-2.9492],[119.8084,-2.9447],[119.8094,-2.939],[119.8126,-2.9356],[119.8155,-2.9348],[119.8178,-2.9291],[119.8235,-2.9286],[119.8295,-2.9334],[119.8335,-2.9536],[119.8285,-2.9527],[119.8223,-2.9565],[119.8175,-2.9561],[119.812,-2.9527],[119.8102,-2.9492]]]}},{"type":"Feature","properties":{"name":"LembangPiongan","name_en":"LembangPiongan","admin_level":"7","osm_id":""},"geometry":{"type":"Polygon","coordinates":[[[119.8004,-3.0125],[119.7954,-3.0034],[119.7942,-2.9899],[119.7912,-2.9788],[119.7873,-2.9729],[119.7878,-2.971],[119.7966,-2.9666],[119.8129,-2.966],[119.8159,-2.9841],[119.8191,-2.9864],[119.8155,-2.9927],[119.816,-2.9949],[119.8198,-2.9977],[119.8203,-3.0042],[119.8179,-3.0054],[119.8187,-3.0098],[119.8164,-3.0091],[119.8135,-3.0126],[119.8107,-3.0114],[119.8096,-3.0152],[119.8074,-3.0131],[119.8045,-3.0146],[119.8004,-3.0125]]]}}]}