{"type":"FeatureCollection","metadata":{"parent_osm_id":"13246111","parent_name":"Pangkajene","parent_name_1":"SulawesiSelatan","parent_gid":"IDN.26.15.11_1","parent_level":"6","child_level":"7","count":9,"source":"GADM 4.1","generated":"2026-05-09"},"features":[{"type":"Feature","properties":{"name":"AnrongAppaka","name_en":"AnrongAppaka","admin_level":"7","osm_id":""},"geometry":{"type":"Polygon","coordinates":[[[119.5497,-4.8467],[119.5498,-4.8602],[119.5482,-4.8637],[119.5443,-4.8676],[119.54,-4.8681],[119.5303,-4.8736],[119.5273,-4.8777],[119.5207,-4.8703],[119.5208,-4.8684],[119.5298,-4.8613],[119.5303,-4.8524],[119.5326,-4.848],[119.5315,-4.842],[119.5497,-4.8467]]]}},{"type":"Feature","properties":{"name":"BontoPerak","name_en":"BontoPerak","admin_level":"7","osm_id":""},"geometry":{"type":"Polygon","coordinates":[[[119.5584,-4.8461],[119.5693,-4.8541],[119.5657,-4.868],[119.5624,-4.8695],[119.5564,-4.8684],[119.5475,-4.8737],[119.5273,-4.8777],[119.5303,-4.8736],[119.54,-4.8681],[119.5443,-4.8676],[119.5482,-4.8637],[119.5498,-4.8602],[119.5497,-4.8467],[119.5584,-4.8461]]]}},{"type":"Feature","properties":{"name":"Jagong","name_en":"Jagong","admin_level":"7","osm_id":""},"geometry":{"type":"Polygon","coordinates":[[[119.5416,-4.8453],[119.5302,-4.8415],[119.5298,-4.8354],[119.542,-4.8352],[119.5416,-4.8453]]]}},{"type":"Feature","properties":{"name":"Mappasaile","name_en":"Mappasaile","admin_level":"7","osm_id":""},"geometry":{"type":"Polygon","coordinates":[[[119.5119,-4.8449],[119.5195,-4.8387],[119.522,-4.8335],[119.5238,-4.8341],[119.5287,-4.8297],[119.5343,-4.8315],[119.5425,-4.8248],[119.5542,-4.8212],[119.5545,-4.8345],[119.5305,-4.8349],[119.5292,-4.8373],[119.5305,-4.8411],[119.5285,-4.8431],[119.519,-4.8455],[119.5152,-4.8495],[119.5116,-4.8477],[119.5119,-4.8449]]]}},{"type":"Feature","properties":{"name":"Pabundukang","name_en":"Pabundukang","admin_level":"7","osm_id":""},"geometry":{"type":"Polygon","coordinates":[[[119.5542,-4.8212],[119.5622,-4.8186],[119.5712,-4.8132],[119.5732,-4.8129],[119.5747,-4.8157],[119.5708,-4.8256],[119.5642,-4.8258],[119.5628,-4.8287],[119.5576,-4.8305],[119.5545,-4.8345],[119.5542,-4.8212]]]}},{"type":"Feature","properties":{"name":"PaddoangDoangan","name_en":"PaddoangDoangan","admin_level":"7","osm_id":""},"geometry":{"type":"Polygon","coordinates":[[[119.5619,-4.8348],[119.5626,-4.8398],[119.5582,-4.8464],[119.5469,-4.8346],[119.5548,-4.8345],[119.5576,-4.8305],[119.5609,-4.8294],[119.5619,-4.8348]]]}},{"type":"Feature","properties":{"name":"Sibatua","name_en":"Sibatua","admin_level":"7","osm_id":""},"geometry":{"type":"Polygon","coordinates":[[[119.5461,-4.892],[119.5427,-4.8925],[119.5372,-4.8904],[119.53,-4.8923],[119.5279,-4.8867],[119.5273,-4.8777],[119.5475,-4.8737],[119.5564,-4.8684],[119.5624,-4.8695],[119.5657,-4.868],[119.5693,-4.8541],[119.5761,-4.8583],[119.5753,-4.86],[119.5816,-4.8662],[119.5793,-4.8696],[119.5773,-4.869],[119.5762,-4.8708],[119.5754,-4.8689],[119.5742,-4.8696],[119.5771,-4.874],[119.5725,-4.8738],[119.5731,-4.8781],[119.5675,-4.8799],[119.5665,-4.8823],[119.5631,-4.8823],[119.561,-4.8806],[119.5601,-4.8841],[119.5525,-4.8862],[119.5518,-4.8911],[119.5461,-4.892]]]}},{"type":"Feature","properties":{"name":"Tekolabbua","name_en":"Tekolabbua","admin_level":"7","osm_id":""},"geometry":{"type":"Polygon","coordinates":[[[119.5277,-4.884],[119.5261,-4.8853],[119.52,-4.8835],[119.5198,-4.8814],[119.5129,-4.8726],[119.507,-4.8683],[119.5049,-4.8554],[119.5002,-4.8479],[119.5013,-4.843],[119.4992,-4.8351],[119.5069,-4.8421],[119.5117,-4.8438],[119.5116,-4.8477],[119.5137,-4.8493],[119.5162,-4.849],[119.519,-4.8455],[119.5315,-4.842],[119.5326,-4.848],[119.5303,-4.8524],[119.5298,-4.8613],[119.5208,-4.8684],[119.5207,-4.8703],[119.5273,-4.8777],[119.5277,-4.884]]]}},{"type":"Feature","properties":{"name":"Tumampua","name_en":"Tumampua","admin_level":"7","osm_id":""},"geometry":{"type":"Polygon","coordinates":[[[119.5497,-4.8467],[119.5416,-4.8453],[119.542,-4.8352],[119.5469,-4.8346],[119.5572,-4.8454],[119.5497,-4.8467]]]}}]}