{"type":"FeatureCollection","metadata":{"parent_osm_id":"gid_IDN_9_20_6_1","parent_name":"Cigugur","parent_name_1":"JawaBarat","parent_gid":"IDN.9.20.6_1","parent_level":"6","child_level":"7","count":10,"source":"GADM 4.1","generated":"2026-05-08"},"features":[{"type":"Feature","properties":{"name":"Babakanmulya","name_en":"Babakanmulya","admin_level":"7","osm_id":""},"geometry":{"type":"Polygon","coordinates":[[[108.4448,-6.9666],[108.4439,-6.9727],[108.4392,-6.9806],[108.4372,-6.9822],[108.4328,-6.981],[108.4333,-6.977],[108.4357,-6.9749],[108.4342,-6.9718],[108.4371,-6.9675],[108.4369,-6.9619],[108.4409,-6.9603],[108.4406,-6.963],[108.4433,-6.9623],[108.4448,-6.9666]]]}},{"type":"Feature","properties":{"name":"Cigadung","name_en":"Cigadung","admin_level":"7","osm_id":""},"geometry":{"type":"Polygon","coordinates":[[[108.4516,-6.9867],[108.4594,-6.9827],[108.465,-6.9769],[108.4703,-6.9827],[108.4697,-6.9855],[108.4735,-6.9853],[108.4751,-6.9868],[108.4708,-6.9918],[108.4611,-6.9886],[108.4609,-6.9903],[108.4545,-6.9893],[108.4516,-6.9906],[108.4506,-6.9895],[108.4516,-6.9867]]]}},{"type":"Feature","properties":{"name":"Cigugur","name_en":"Cigugur","admin_level":"7","osm_id":""},"geometry":{"type":"Polygon","coordinates":[[[108.4443,-6.971],[108.4448,-6.9666],[108.4481,-6.9639],[108.4524,-6.9631],[108.4582,-6.9546],[108.4659,-6.96],[108.4668,-6.9626],[108.4696,-6.9628],[108.4706,-6.9735],[108.4661,-6.9731],[108.4649,-6.9753],[108.4589,-6.9731],[108.4541,-6.9773],[108.4443,-6.971]]]}},{"type":"Feature","properties":{"name":"Cileuleuy","name_en":"Cileuleuy","admin_level":"7","osm_id":""},"geometry":{"type":"Polygon","coordinates":[[[108.4376,-6.9816],[108.4416,-6.977],[108.4443,-6.971],[108.4583,-6.9813],[108.4495,-6.9877],[108.4427,-6.9826],[108.4398,-6.9831],[108.4376,-6.9816]]]}},{"type":"Feature","properties":{"name":"Cipari","name_en":"Cipari","admin_level":"7","osm_id":""},"geometry":{"type":"Polygon","coordinates":[[[108.4696,-6.9628],[108.4668,-6.9626],[108.4659,-6.96],[108.4621,-6.9584],[108.4613,-6.9559],[108.4555,-6.9522],[108.4565,-6.951],[108.4592,-6.9505],[108.466,-6.9554],[108.4696,-6.9542],[108.4752,-6.9573],[108.4732,-6.9581],[108.473,-6.96],[108.4697,-6.9585],[108.4696,-6.9628]]]}},{"type":"Feature","properties":{"name":"Cisantana","name_en":"Cisantana","admin_level":"7","osm_id":""},"geometry":{"type":"Polygon","coordinates":[[[108.4448,-6.9666],[108.4433,-6.9623],[108.4406,-6.963],[108.4409,-6.9603],[108.4376,-6.9613],[108.4375,-6.9584],[108.4265,-6.9469],[108.4253,-6.9358],[108.4298,-6.9376],[108.4388,-6.9357],[108.4461,-6.9397],[108.4487,-6.9393],[108.4466,-6.9408],[108.4488,-6.9435],[108.4537,-6.9449],[108.4516,-6.9491],[108.4582,-6.9546],[108.4524,-6.9631],[108.4481,-6.9639],[108.4448,-6.9666]]]}},{"type":"Feature","properties":{"name":"Gunungkeling","name_en":"Gunungkeling","admin_level":"7","osm_id":""},"geometry":{"type":"Polygon","coordinates":[[[108.4683,-6.9541],[108.466,-6.9554],[108.4592,-6.9505],[108.4543,-6.9517],[108.4516,-6.9491],[108.453,-6.9454],[108.4685,-6.9449],[108.4733,-6.9427],[108.4734,-6.9462],[108.4746,-6.9467],[108.4723,-6.9514],[108.4689,-6.9512],[108.4683,-6.9541]]]}},{"type":"Feature","properties":{"name":"Puncak","name_en":"Puncak","admin_level":"7","osm_id":""},"geometry":{"type":"Polygon","coordinates":[[[108.4376,-6.9613],[108.4371,-6.9675],[108.4342,-6.9718],[108.4357,-6.9749],[108.4333,-6.977],[108.4326,-6.9738],[108.4257,-6.9685],[108.422,-6.9594],[108.4195,-6.9576],[108.4202,-6.956],[108.418,-6.9518],[108.4151,-6.9506],[108.4126,-6.9455],[108.4017,-6.933],[108.4026,-6.9131],[108.4072,-6.895],[108.4113,-6.9122],[108.4184,-6.9176],[108.4209,-6.923],[108.4212,-6.931],[108.425,-6.9341],[108.4265,-6.9469],[108.4375,-6.9584],[108.4376,-6.9613]]]}},{"type":"Feature","properties":{"name":"Sukamulya","name_en":"Sukamulya","admin_level":"7","osm_id":""},"geometry":{"type":"Polygon","coordinates":[[[108.465,-6.9769],[108.4594,-6.9827],[108.454,-6.9769],[108.4589,-6.9731],[108.4649,-6.9753],[108.465,-6.9769]]]}},{"type":"Feature","properties":{"name":"Winduherang","name_en":"Winduherang","admin_level":"7","osm_id":""},"geometry":{"type":"Polygon","coordinates":[[[108.4706,-6.9735],[108.4689,-6.9661],[108.4697,-6.9585],[108.473,-6.96],[108.4732,-6.9581],[108.4752,-6.9573],[108.482,-6.9595],[108.4768,-6.9744],[108.4723,-6.972],[108.4706,-6.9735]]]}}]}