{"type":"FeatureCollection","metadata":{"parent_osm_id":"gid_IDN_22_2_4_1","parent_name":"Kambrau","parent_name_1":"PapuaBarat","parent_gid":"IDN.22.2.4_1","parent_level":"6","child_level":"7","count":7,"source":"GADM 4.1","generated":"2026-05-08"},"features":[{"type":"Feature","properties":{"name":"Bahumia","name_en":"Bahumia","admin_level":"7","osm_id":""},"geometry":{"type":"Polygon","coordinates":[[[133.52,-3.3677],[133.5346,-3.3676],[133.551,-3.3714],[133.5798,-3.3701],[133.5832,-3.3681],[133.5934,-3.3705],[133.5934,-3.3782],[133.5829,-3.3828],[133.5837,-3.3898],[133.5816,-3.3987],[133.57,-3.4057],[133.5721,-3.4172],[133.561,-3.4228],[133.5574,-3.4162],[133.5489,-3.411],[133.548,-3.4125],[133.548,-3.4195],[133.5543,-3.4242],[133.5543,-3.4266],[133.5594,-3.4324],[133.5551,-3.4377],[133.5431,-3.4309],[133.5428,-3.4191],[133.5297,-3.4118],[133.5259,-3.3925],[133.5184,-3.3871],[133.5216,-3.3777],[133.5184,-3.371],[133.52,-3.3677]]]}},{"type":"Feature","properties":{"name":"Kooy","name_en":"Kooy","admin_level":"7","osm_id":""},"geometry":{"type":"Polygon","coordinates":[[[133.6338,-3.4329],[133.6339,-3.436],[133.6286,-3.4429],[133.6288,-3.4481],[133.6261,-3.4546],[133.6249,-3.4567],[133.6225,-3.4563],[133.619,-3.4518],[133.6135,-3.4487],[133.6142,-3.4459],[133.6126,-3.4423],[133.6143,-3.4421],[133.6161,-3.4381],[133.6195,-3.4386],[133.6228,-3.4344],[133.6272,-3.4338],[133.63,-3.4306],[133.6323,-3.4296],[133.6338,-3.4329]]]}},{"type":"Feature","properties":{"name":"Rauna","name_en":"Rauna","admin_level":"7","osm_id":""},"geometry":{"type":"Polygon","coordinates":[[[133.4094,-3.3479],[133.4187,-3.3541],[133.427,-3.3571],[133.4384,-3.3587],[133.4424,-3.3567],[133.4574,-3.3615],[133.4934,-3.3635],[133.52,-3.3677],[133.5184,-3.371],[133.5216,-3.3777],[133.5184,-3.3871],[133.5259,-3.3925],[133.5273,-3.3991],[133.5111,-3.3979],[133.4969,-3.3944],[133.4864,-3.4005],[133.4732,-3.3976],[133.47,-3.393],[133.4409,-3.393],[133.4358,-3.3995],[133.4165,-3.4001],[133.4081,-3.3658],[133.4079,-3.3537],[133.4094,-3.3479]]]}},{"type":"Feature","properties":{"name":"Sermuku","name_en":"Sermuku","admin_level":"7","osm_id":""},"geometry":{"type":"Polygon","coordinates":[[[133.5784,-3.4969],[133.5418,-3.4799],[133.5052,-3.4729],[133.483,-3.4653],[133.4625,-3.4552],[133.4509,-3.4476],[133.4573,-3.4446],[133.4595,-3.4382],[133.4622,-3.436],[133.4705,-3.4333],[133.4754,-3.4296],[133.4778,-3.4317],[133.4891,-3.4277],[133.4941,-3.4275],[133.5209,-3.4442],[133.5496,-3.4548],[133.5508,-3.4574],[133.554,-3.458],[133.5616,-3.4753],[133.5784,-3.4969]]]}},{"type":"Feature","properties":{"name":"Waho","name_en":"Waho","admin_level":"7","osm_id":""},"geometry":{"type":"Polygon","coordinates":[[[133.5934,-3.3705],[133.6119,-3.3739],[133.6293,-3.3702],[133.6568,-3.3723],[133.6688,-3.3713],[133.667,-3.379],[133.6585,-3.3942],[133.6411,-3.4167],[133.6359,-3.4183],[133.6305,-3.4164],[133.6203,-3.4176],[133.6131,-3.4144],[133.6106,-3.4151],[133.6092,-3.421],[133.6064,-3.4229],[133.6008,-3.4249],[133.59,-3.4259],[133.589,-3.4303],[133.5872,-3.4311],[133.579,-3.4302],[133.5665,-3.4323],[133.5645,-3.4309],[133.561,-3.4228],[133.5721,-3.4172],[133.57,-3.4057],[133.5816,-3.3987],[133.5837,-3.3898],[133.5829,-3.3828],[133.5934,-3.3782],[133.5934,-3.3705]]]}},{"type":"Feature","properties":{"name":"Wamesa","name_en":"Wamesa","admin_level":"7","osm_id":""},"geometry":{"type":"Polygon","coordinates":[[[133.6323,-3.4296],[133.6272,-3.4338],[133.6228,-3.4344],[133.6195,-3.4386],[133.6161,-3.4381],[133.6143,-3.4421],[133.6042,-3.439],[133.6015,-3.4345],[133.6108,-3.4313],[133.6139,-3.4231],[133.6159,-3.4222],[133.6174,-3.4239],[133.6286,-3.4258],[133.6323,-3.4296]]]}},{"type":"Feature","properties":{"name":"Werafuta","name_en":"Werafuta","admin_level":"7","osm_id":""},"geometry":{"type":"Polygon","coordinates":[[[133.4509,-3.4476],[133.4443,-3.4441],[133.4365,-3.4374],[133.427,-3.4256],[133.421,-3.4136],[133.4165,-3.4001],[133.4358,-3.3995],[133.4409,-3.393],[133.47,-3.393],[133.4732,-3.3976],[133.4864,-3.4005],[133.4969,-3.3944],[133.5111,-3.3979],[133.5273,-3.3991],[133.5297,-3.4118],[133.5428,-3.4191],[133.5431,-3.4309],[133.5551,-3.4377],[133.5534,-3.4408],[133.5463,-3.4427],[133.5222,-3.4389],[133.5116,-3.4336],[133.5023,-3.4266],[133.4985,-3.4179],[133.4787,-3.4202],[133.4702,-3.4085],[133.4667,-3.4069],[133.4721,-3.4211],[133.4784,-3.4226],[133.4932,-3.4213],[133.4968,-3.4246],[133.4941,-3.4275],[133.4891,-3.4277],[133.4778,-3.4317],[133.4754,-3.4296],[133.4705,-3.4333],[133.4622,-3.436],[133.4595,-3.4382],[133.4573,-3.4446],[133.4509,-3.4476]]]}}]}