{"type":"FeatureCollection","metadata":{"parent_osm_id":"gid_IDN_27_1_14_1","parent_name":"PelingTengah","parent_name_1":"SulawesiTengah","parent_gid":"IDN.27.1.14_1","parent_level":"6","child_level":"7","count":11,"source":"GADM 4.1","generated":"2026-05-08"},"features":[{"type":"Feature","properties":{"name":"Alakasing","name_en":"Alakasing","admin_level":"7","osm_id":""},"geometry":{"type":"Polygon","coordinates":[[[123.2461,-1.4364],[123.2445,-1.4563],[123.242,-1.4613],[123.2235,-1.4769],[123.2198,-1.4834],[123.2136,-1.4821],[123.2012,-1.454],[123.2011,-1.4076],[123.2148,-1.4048],[123.2262,-1.4273],[123.2296,-1.4297],[123.2397,-1.4319],[123.2461,-1.4364]]]}},{"type":"Feature","properties":{"name":"Balombong","name_en":"Balombong","admin_level":"7","osm_id":""},"geometry":{"type":"Polygon","coordinates":[[[123.1563,-1.342],[123.1854,-1.3427],[123.1978,-1.3696],[123.16,-1.3845],[123.1583,-1.3755],[123.1602,-1.3755],[123.1612,-1.3773],[123.1617,-1.3755],[123.1634,-1.3773],[123.1651,-1.3756],[123.1605,-1.3734],[123.1578,-1.374],[123.1564,-1.3676],[123.1584,-1.3527],[123.1563,-1.342]]]}},{"type":"Feature","properties":{"name":"Kolak","name_en":"Kolak","admin_level":"7","osm_id":""},"geometry":{"type":"Polygon","coordinates":[[[123.1616,-1.3844],[123.1978,-1.3696],[123.2063,-1.3874],[123.1688,-1.3966],[123.1689,-1.3946],[123.1653,-1.3919],[123.168,-1.3864],[123.1633,-1.3867],[123.1616,-1.3844]]]}},{"type":"Feature","properties":{"name":"Koyobunga","name_en":"Koyobunga","admin_level":"7","osm_id":""},"geometry":{"type":"Polygon","coordinates":[[[123.2148,-1.4048],[123.1669,-1.4163],[123.1668,-1.414],[123.1689,-1.4138],[123.1665,-1.413],[123.1672,-1.4093],[123.1647,-1.4076],[123.1637,-1.4002],[123.1651,-1.3978],[123.1689,-1.3982],[123.1688,-1.3966],[123.2063,-1.3874],[123.2148,-1.4048]]]}},{"type":"Feature","properties":{"name":"Labibi","name_en":"Labibi","admin_level":"7","osm_id":""},"geometry":{"type":"Polygon","coordinates":[[[123.2141,-1.4997],[123.2099,-1.5232],[123.1788,-1.5218],[123.1834,-1.5186],[123.1849,-1.5125],[123.1805,-1.5006],[123.1761,-1.4986],[123.2141,-1.4997]]]}},{"type":"Feature","properties":{"name":"Luk","name_en":"Luk","admin_level":"7","osm_id":""},"geometry":{"type":"Polygon","coordinates":[[[123.1861,-1.499],[123.1761,-1.4986],[123.1765,-1.4889],[123.1783,-1.4876],[123.1786,-1.4848],[123.1744,-1.4758],[123.1879,-1.4756],[123.1861,-1.499]]]}},{"type":"Feature","properties":{"name":"Patukuki","name_en":"Patukuki","admin_level":"7","osm_id":""},"geometry":{"type":"Polygon","coordinates":[[[123.2011,-1.4076],[123.2007,-1.4489],[123.1639,-1.4478],[123.1653,-1.4385],[123.1667,-1.4384],[123.167,-1.4464],[123.1726,-1.4283],[123.1671,-1.4218],[123.1669,-1.4163],[123.2011,-1.4076]]]}},{"type":"Feature","properties":{"name":"Popisi","name_en":"Popisi","admin_level":"7","osm_id":""},"geometry":{"type":"Polygon","coordinates":[[[123.2099,-1.5232],[123.2049,-1.5487],[123.1438,-1.5477],[123.1497,-1.5435],[123.1586,-1.542],[123.1702,-1.536],[123.1709,-1.5324],[123.175,-1.5287],[123.1788,-1.5218],[123.2099,-1.5232]]]}},{"type":"Feature","properties":{"name":"Tolulos","name_en":"Tolulos","admin_level":"7","osm_id":""},"geometry":{"type":"Polygon","coordinates":[[[123.2049,-1.5487],[123.2006,-1.5573],[123.1945,-1.5642],[123.1726,-1.5843],[123.1649,-1.5868],[123.1486,-1.5876],[123.0985,-1.5868],[123.1012,-1.5768],[123.1064,-1.5722],[123.1074,-1.5666],[123.1192,-1.5647],[123.1228,-1.5655],[123.126,-1.5685],[123.1282,-1.5681],[123.1306,-1.5655],[123.131,-1.5608],[123.1432,-1.5511],[123.1438,-1.5477],[123.2049,-1.5487]]]}},{"type":"Feature","properties":{"name":"Tombos","name_en":"Tombos","admin_level":"7","osm_id":""},"geometry":{"type":"Polygon","coordinates":[[[123.2007,-1.4489],[123.2011,-1.4527],[123.1937,-1.4604],[123.1893,-1.4687],[123.1879,-1.4756],[123.1744,-1.4758],[123.1765,-1.4702],[123.1729,-1.4642],[123.1743,-1.4597],[123.1722,-1.4564],[123.1723,-1.4534],[123.167,-1.4503],[123.1656,-1.4557],[123.1632,-1.4532],[123.1639,-1.4478],[123.2007,-1.4489]]]}},{"type":"Feature","properties":{"name":"Tunggaling","name_en":"Tunggaling","admin_level":"7","osm_id":""},"geometry":{"type":"Polygon","coordinates":[[[123.2198,-1.4834],[123.2141,-1.4997],[123.1861,-1.499],[123.1893,-1.4687],[123.1937,-1.4604],[123.2011,-1.4527],[123.2136,-1.4821],[123.2198,-1.4834]]]}}]}