{"type":"FeatureCollection","metadata":{"parent_osm_id":"gid_IDN_32_2_7_1","parent_name":"TanjungTiram","parent_name_1":"SumateraUtara","parent_gid":"IDN.32.2.7_1","parent_level":"6","child_level":"7","count":12,"source":"GADM 4.1","generated":"2026-05-08"},"features":[{"type":"Feature","properties":{"name":"BaganBaru","name_en":"BaganBaru","admin_level":"7","osm_id":""},"geometry":{"type":"Polygon","coordinates":[[[99.7523,3.1708],[99.7476,3.1601],[99.7416,3.1527],[99.7228,3.1359],[99.7132,3.1301],[99.6977,3.144],[99.6908,3.1427],[99.6617,3.1717],[99.6923,3.1959],[99.6968,3.2017],[99.6999,3.2002],[99.699,3.1964],[99.7003,3.1998],[99.7046,3.1978],[99.7116,3.1925],[99.7115,3.1893],[99.7127,3.1905],[99.7161,3.1895],[99.7264,3.1799],[99.7386,3.1742],[99.7399,3.1722],[99.7523,3.1708]]]}},{"type":"Feature","properties":{"name":"BaganDalam","name_en":"BaganDalam","admin_level":"7","osm_id":""},"geometry":{"type":"Polygon","coordinates":[[[99.5945,3.2184],[99.596,3.2167],[99.5927,3.2121],[99.5845,3.217],[99.5882,3.2218],[99.5945,3.2184]]]}},{"type":"Feature","properties":{"name":"Bogak","name_en":"Bogak","admin_level":"7","osm_id":""},"geometry":{"type":"Polygon","coordinates":[[[99.5771,3.2173],[99.5733,3.2249],[99.5756,3.2317],[99.5748,3.2336],[99.5821,3.2326],[99.5853,3.2297],[99.5825,3.2231],[99.5771,3.2173]]]}},{"type":"Feature","properties":{"name":"Guntung","name_en":"Guntung","admin_level":"7","osm_id":""},"geometry":{"type":"Polygon","coordinates":[[[99.5935,3.2126],[99.596,3.2167],[99.5945,3.2184],[99.6039,3.2283],[99.6201,3.2232],[99.6028,3.2078],[99.5983,3.2075],[99.5935,3.2126]]]}},{"type":"Feature","properties":{"name":"LimaLaras","name_en":"LimaLaras","admin_level":"7","osm_id":""},"geometry":{"type":"Polygon","coordinates":[[[99.5918,3.2122],[99.5935,3.2126],[99.5983,3.2075],[99.6028,3.2078],[99.6201,3.2232],[99.641,3.2177],[99.618,3.1948],[99.6113,3.1831],[99.607,3.1847],[99.6005,3.1826],[99.5965,3.1718],[99.5949,3.1765],[99.5967,3.1858],[99.5997,3.1889],[99.6006,3.1932],[99.5958,3.1992],[99.5957,3.2072],[99.5918,3.2122]]]}},{"type":"Feature","properties":{"name":"PematangRambai","name_en":"PematangRambai","admin_level":"7","osm_id":""},"geometry":{"type":"Polygon","coordinates":[[[99.6936,3.1054],[99.6756,3.1055],[99.649,3.153],[99.666,3.1674],[99.6908,3.1427],[99.6977,3.144],[99.7132,3.1301],[99.7067,3.1251],[99.6936,3.1054]]]}},{"type":"Feature","properties":{"name":"Sentang","name_en":"Sentang","admin_level":"7","osm_id":""},"geometry":{"type":"Polygon","coordinates":[[[99.5769,3.193],[99.586,3.1958],[99.5867,3.203],[99.5903,3.2045],[99.5886,3.2062],[99.5851,3.2047],[99.5855,3.2082],[99.5895,3.2129],[99.5918,3.2122],[99.5957,3.2072],[99.5958,3.1992],[99.6006,3.1932],[99.5997,3.1889],[99.5967,3.1858],[99.5949,3.1765],[99.5965,3.1718],[99.5945,3.1694],[99.5929,3.1688],[99.5924,3.1741],[99.5877,3.1754],[99.5855,3.1796],[99.5837,3.1801],[99.581,3.178],[99.5812,3.1813],[99.576,3.1885],[99.5769,3.193]]]}},{"type":"Feature","properties":{"name":"SukaMaju","name_en":"SukaMaju","admin_level":"7","osm_id":""},"geometry":{"type":"Polygon","coordinates":[[[99.5871,3.2098],[99.5749,3.2143],[99.5812,3.2217],[99.5853,3.219],[99.5849,3.2162],[99.5895,3.2129],[99.5871,3.2098]]]}},{"type":"Feature","properties":{"name":"SungaiMentaram","name_en":"SungaiMentaram","admin_level":"7","osm_id":""},"geometry":{"type":"Polygon","coordinates":[[[99.6326,3.1174],[99.6292,3.1257],[99.6218,3.1304],[99.6219,3.1364],[99.6121,3.1453],[99.6308,3.1599],[99.6333,3.1557],[99.6376,3.1526],[99.6492,3.1528],[99.6756,3.1055],[99.6483,3.1055],[99.6377,3.1179],[99.6353,3.1197],[99.6326,3.1174]]]}},{"type":"Feature","properties":{"name":"TanjungMulia","name_en":"TanjungMulia","admin_level":"7","osm_id":""},"geometry":{"type":"Polygon","coordinates":[[[99.6126,3.1458],[99.6118,3.1514],[99.6054,3.1553],[99.6033,3.1609],[99.6017,3.1603],[99.5985,3.1621],[99.5973,3.1604],[99.5968,3.1623],[99.5905,3.1648],[99.5964,3.1714],[99.6005,3.1826],[99.607,3.1847],[99.6187,3.18],[99.6323,3.1668],[99.6308,3.1599],[99.6126,3.1458]]]}},{"type":"Feature","properties":{"name":"TanjungTiram","name_en":"TanjungTiram","admin_level":"7","osm_id":""},"geometry":{"type":"Polygon","coordinates":[[[99.5945,3.2184],[99.5897,3.2218],[99.5853,3.219],[99.5812,3.2217],[99.5853,3.2297],[99.5886,3.2299],[99.5925,3.234],[99.6039,3.2283],[99.5945,3.2184]]]}},{"type":"Feature","properties":{"name":"UjungKubu","name_en":"UjungKubu","admin_level":"7","osm_id":""},"geometry":{"type":"Polygon","coordinates":[[[99.6953,3.1989],[99.6617,3.1717],[99.666,3.1674],[99.6492,3.1528],[99.6376,3.1526],[99.6333,3.1557],[99.6308,3.1599],[99.6323,3.1668],[99.6237,3.1763],[99.6113,3.1831],[99.618,3.1948],[99.641,3.2177],[99.67,3.2115],[99.6725,3.2071],[99.6699,3.2063],[99.6687,3.2046],[99.6758,3.209],[99.6793,3.2097],[99.6848,3.2081],[99.6916,3.2045],[99.6905,3.2023],[99.6903,3.1997],[99.6924,3.2044],[99.6957,3.2026],[99.6953,3.1989]]]}}]}