{"type":"FeatureCollection","metadata":{"parent_osm_id":"gid_IDN_27_1_2_1","parent_name":"BanggaiTengah","parent_name_1":"SulawesiTengah","parent_gid":"IDN.27.1.2_1","parent_level":"6","child_level":"7","count":6,"source":"GADM 4.1","generated":"2026-05-09"},"features":[{"type":"Feature","properties":{"name":"Adean","name_en":"Adean","admin_level":"7","osm_id":""},"geometry":{"type":"Polygon","coordinates":[[[123.5639,-1.6393],[123.5583,-1.6461],[123.555,-1.6581],[123.5017,-1.6569],[123.4975,-1.6345],[123.5123,-1.6348],[123.5142,-1.6327],[123.5204,-1.6307],[123.523,-1.6266],[123.5373,-1.629],[123.5639,-1.6393]]]}},{"type":"Feature","properties":{"name":"Badumpayan","name_en":"Badumpayan","admin_level":"7","osm_id":""},"geometry":{"type":"Polygon","coordinates":[[[123.5518,-1.6727],[123.5435,-1.6773],[123.5059,-1.6841],[123.5017,-1.6569],[123.555,-1.6581],[123.5518,-1.6727]]]}},{"type":"Feature","properties":{"name":"Gong-gong","name_en":"Gong-gong","admin_level":"7","osm_id":""},"geometry":{"type":"Polygon","coordinates":[[[123.4872,-1.6336],[123.485,-1.6278],[123.4824,-1.6291],[123.4785,-1.6226],[123.4797,-1.6225],[123.4797,-1.6149],[123.4844,-1.6145],[123.4857,-1.6123],[123.4958,-1.6143],[123.4975,-1.6345],[123.4872,-1.6336]]]}},{"type":"Feature","properties":{"name":"Mominit","name_en":"Mominit","admin_level":"7","osm_id":""},"geometry":{"type":"Polygon","coordinates":[[[123.523,-1.6266],[123.5204,-1.6307],[123.5139,-1.6331],[123.5085,-1.6298],[123.5069,-1.6225],[123.523,-1.6266]]]}},{"type":"Feature","properties":{"name":"Monsongan","name_en":"Monsongan","admin_level":"7","osm_id":""},"geometry":{"type":"Polygon","coordinates":[[[123.5059,-1.6841],[123.4803,-1.6896],[123.4798,-1.6886],[123.4829,-1.6871],[123.4825,-1.6847],[123.485,-1.6817],[123.4835,-1.6803],[123.4826,-1.6726],[123.4799,-1.6664],[123.4766,-1.6657],[123.4763,-1.6592],[123.4726,-1.6536],[123.4764,-1.6474],[123.4745,-1.6468],[123.4753,-1.6415],[123.4786,-1.6406],[123.4788,-1.6432],[123.4816,-1.6432],[123.485,-1.6376],[123.4833,-1.6362],[123.4866,-1.634],[123.4886,-1.6368],[123.4872,-1.6336],[123.4975,-1.6345],[123.5059,-1.6841]]]}},{"type":"Feature","properties":{"name":"Timbong","name_en":"Timbong","admin_level":"7","osm_id":""},"geometry":{"type":"Polygon","coordinates":[[[123.5139,-1.6331],[123.5113,-1.6351],[123.4975,-1.6345],[123.4958,-1.6143],[123.5069,-1.6225],[123.5085,-1.6298],[123.5139,-1.6331]]]}}]}