{"type":"FeatureCollection","metadata":{"parent_osm_id":"5802397","parent_name":"Pulogadung","parent_name_1":"JakartaRaya","parent_gid":"IDN.7.4.10_1","parent_level":"6","child_level":"7","count":7,"source":"GADM 4.1","generated":"2026-05-09"},"features":[{"type":"Feature","properties":{"name":"Cipinang","name_en":"Cipinang","admin_level":"7","osm_id":""},"geometry":{"type":"Polygon","coordinates":[[[106.8957,-6.2134],[106.888,-6.2142],[106.8891,-6.212],[106.8847,-6.2118],[106.8859,-6.202],[106.8977,-6.2025],[106.8966,-6.2052],[106.8976,-6.2104],[106.8957,-6.2134]]]}},{"type":"Feature","properties":{"name":"Jati","name_en":"Jati","admin_level":"7","osm_id":""},"geometry":{"type":"Polygon","coordinates":[[[106.8977,-6.2025],[106.8903,-6.2021],[106.8911,-6.1888],[106.9051,-6.1863],[106.9042,-6.1915],[106.9018,-6.1926],[106.9025,-6.1954],[106.9008,-6.2017],[106.8977,-6.2025]]]}},{"type":"Feature","properties":{"name":"JatinegaraKaum","name_en":"JatinegaraKaum","admin_level":"7","osm_id":""},"geometry":{"type":"Polygon","coordinates":[[[106.906,-6.1907],[106.9047,-6.2017],[106.9007,-6.2128],[106.8957,-6.2134],[106.8976,-6.2104],[106.897,-6.2039],[106.9008,-6.2017],[106.9025,-6.1954],[106.9018,-6.1926],[106.9042,-6.1915],[106.9051,-6.1863],[106.906,-6.1907]]]}},{"type":"Feature","properties":{"name":"KayuPutih","name_en":"KayuPutih","admin_level":"7","osm_id":""},"geometry":{"type":"Polygon","coordinates":[[[106.8754,-6.1882],[106.8761,-6.1757],[106.8788,-6.1665],[106.8943,-6.1762],[106.8916,-6.1817],[106.8911,-6.1888],[106.8821,-6.1901],[106.8754,-6.1882]]]}},{"type":"Feature","properties":{"name":"PisanganTimur","name_en":"PisanganTimur","admin_level":"7","osm_id":""},"geometry":{"type":"Polygon","coordinates":[[[106.8867,-6.2144],[106.8741,-6.2151],[106.8733,-6.2035],[106.8859,-6.202],[106.8847,-6.2118],[106.8892,-6.2121],[106.8867,-6.2144]]]}},{"type":"Feature","properties":{"name":"PuloGadung","name_en":"PuloGadung","admin_level":"7","osm_id":""},"geometry":{"type":"Polygon","coordinates":[[[106.9101,-6.1825],[106.9061,-6.1863],[106.8911,-6.1888],[106.8916,-6.1817],[106.8943,-6.1762],[106.9101,-6.1825]]]}},{"type":"Feature","properties":{"name":"Rawamangun","name_en":"Rawamangun","admin_level":"7","osm_id":""},"geometry":{"type":"Polygon","coordinates":[[[106.875,-6.1923],[106.8754,-6.1882],[106.8821,-6.1901],[106.8911,-6.1888],[106.8903,-6.2021],[106.8733,-6.2035],[106.875,-6.1923]]]}}]}