{"type":"FeatureCollection","metadata":{"parent_osm_id":"19289159","parent_name":"Semaka","parent_name_1":"Lampung","parent_gid":"IDN.17.11.17_1","parent_level":"6","child_level":"7","count":20,"source":"GADM 4.1","generated":"2026-05-09"},"features":[{"type":"Feature","properties":{"name":"BangunRejo","name_en":"BangunRejo","admin_level":"7","osm_id":""},"geometry":{"type":"Polygon","coordinates":[[[104.5059,-5.5144],[104.5034,-5.5181],[104.4963,-5.5093],[104.4971,-5.5075],[104.4932,-5.5007],[104.4941,-5.4981],[104.4971,-5.4967],[104.4944,-5.4942],[104.5009,-5.4956],[104.5019,-5.5055],[104.5032,-5.5046],[104.5039,-5.5058],[104.5059,-5.5144]]]}},{"type":"Feature","properties":{"name":"Garut","name_en":"Garut","admin_level":"7","osm_id":""},"geometry":{"type":"Polygon","coordinates":[[[104.5091,-5.5164],[104.5059,-5.5144],[104.5152,-5.5003],[104.5202,-5.5058],[104.5091,-5.5164]]]}},{"type":"Feature","properties":{"name":"KacaPura","name_en":"KacaPura","admin_level":"7","osm_id":""},"geometry":{"type":"Polygon","coordinates":[[[104.5315,-5.5418],[104.5216,-5.5431],[104.5042,-5.5323],[104.5017,-5.5293],[104.5039,-5.5257],[104.4967,-5.5216],[104.4963,-5.5093],[104.5034,-5.5181],[104.5059,-5.5144],[104.5112,-5.5176],[104.5258,-5.5339],[104.5267,-5.533],[104.5339,-5.5374],[104.5315,-5.5418]]]}},{"type":"Feature","properties":{"name":"Kanoman","name_en":"Kanoman","admin_level":"7","osm_id":""},"geometry":{"type":"Polygon","coordinates":[[[104.4995,-5.4948],[104.4944,-5.4942],[104.4971,-5.4967],[104.4939,-5.4986],[104.4915,-5.4875],[104.5031,-5.4839],[104.5074,-5.4882],[104.4995,-5.4948]]]}},{"type":"Feature","properties":{"name":"KarangAgung","name_en":"KarangAgung","admin_level":"7","osm_id":""},"geometry":{"type":"Polygon","coordinates":[[[104.4141,-5.4637],[104.4093,-5.4531],[104.4258,-5.4544],[104.4373,-5.4532],[104.4433,-5.4523],[104.4522,-5.4475],[104.4552,-5.4536],[104.4607,-5.459],[104.4429,-5.458],[104.4189,-5.4616],[104.4192,-5.4629],[104.4141,-5.4637]]]}},{"type":"Feature","properties":{"name":"KarangRejo","name_en":"KarangRejo","admin_level":"7","osm_id":""},"geometry":{"type":"Polygon","coordinates":[[[104.5091,-5.5164],[104.5202,-5.5058],[104.5276,-5.5139],[104.5324,-5.515],[104.5336,-5.5201],[104.5385,-5.5203],[104.5448,-5.5271],[104.5396,-5.5323],[104.5408,-5.5331],[104.5339,-5.5374],[104.5267,-5.533],[104.5258,-5.5339],[104.5091,-5.5164]]]}},{"type":"Feature","properties":{"name":"PardaWaras","name_en":"PardaWaras","admin_level":"7","osm_id":""},"geometry":{"type":"Polygon","coordinates":[[[104.4253,-5.4934],[104.4162,-5.4855],[104.4131,-5.4781],[104.4201,-5.4753],[104.431,-5.4743],[104.4369,-5.4712],[104.457,-5.4697],[104.4637,-5.471],[104.4679,-5.4745],[104.4674,-5.4787],[104.4689,-5.4807],[104.4744,-5.4837],[104.4583,-5.4825],[104.4468,-5.4868],[104.4424,-5.4908],[104.4267,-5.4935],[104.4254,-5.4918],[104.4253,-5.4934]]]}},{"type":"Feature","properties":{"name":"Sedayu","name_en":"Sedayu","admin_level":"7","osm_id":""},"geometry":{"type":"Polygon","coordinates":[[[104.454,-5.5255],[104.4522,-5.5212],[104.4493,-5.5207],[104.4412,-5.5233],[104.4392,-5.5193],[104.4478,-5.517],[104.4551,-5.5131],[104.4672,-5.5033],[104.4811,-5.4999],[104.4836,-5.4971],[104.4901,-5.5025],[104.4842,-5.5079],[104.4828,-5.5112],[104.4771,-5.5152],[104.454,-5.5255]]]}},{"type":"Feature","properties":{"name":"SidoDadi","name_en":"SidoDadi","admin_level":"7","osm_id":""},"geometry":{"type":"Polygon","coordinates":[[[104.5059,-5.5144],[104.5039,-5.5058],[104.5142,-5.4991],[104.5152,-5.5003],[104.5059,-5.5144]]]}},{"type":"Feature","properties":{"name":"SidoMulyo","name_en":"SidoMulyo","admin_level":"7","osm_id":""},"geometry":{"type":"Polygon","coordinates":[[[104.4093,-5.4531],[104.399,-5.4415],[104.4026,-5.4397],[104.4082,-5.4405],[104.4324,-5.4378],[104.4353,-5.4381],[104.4398,-5.4434],[104.4433,-5.4424],[104.4478,-5.4463],[104.4524,-5.4464],[104.4433,-5.4523],[104.4258,-5.4544],[104.4093,-5.4531]]]}},{"type":"Feature","properties":{"name":"SriKaton","name_en":"SriKaton","admin_level":"7","osm_id":""},"geometry":{"type":"Polygon","coordinates":[[[104.4131,-5.4781],[104.4141,-5.4637],[104.4192,-5.4629],[104.4189,-5.4616],[104.4429,-5.458],[104.4599,-5.4589],[104.4665,-5.4641],[104.4681,-5.4673],[104.4679,-5.4745],[104.4637,-5.471],[104.457,-5.4697],[104.4369,-5.4712],[104.431,-5.4743],[104.4201,-5.4753],[104.4131,-5.4781]]]}},{"type":"Feature","properties":{"name":"SriKuncoro","name_en":"SriKuncoro","admin_level":"7","osm_id":""},"geometry":{"type":"Polygon","coordinates":[[[104.4566,-5.4545],[104.4643,-5.4468],[104.4657,-5.4433],[104.4702,-5.4453],[104.4674,-5.4525],[104.4689,-5.453],[104.469,-5.4565],[104.466,-5.4611],[104.4665,-5.4641],[104.4566,-5.4545]]]}},{"type":"Feature","properties":{"name":"SriPurnomo","name_en":"SriPurnomo","admin_level":"7","osm_id":""},"geometry":{"type":"Polygon","coordinates":[[[104.4807,-5.4573],[104.4873,-5.4625],[104.4732,-5.4698],[104.4684,-5.4706],[104.466,-5.4611],[104.469,-5.4565],[104.4688,-5.4523],[104.4746,-5.4536],[104.4807,-5.4573]]]}},{"type":"Feature","properties":{"name":"Sudimoro","name_en":"Sudimoro","admin_level":"7","osm_id":""},"geometry":{"type":"Polygon","coordinates":[[[104.4941,-5.4707],[104.4988,-5.4805],[104.5031,-5.4839],[104.4851,-5.488],[104.4833,-5.484],[104.4745,-5.4838],[104.4802,-5.4784],[104.4865,-5.4779],[104.4941,-5.4707]]]}},{"type":"Feature","properties":{"name":"SudimoroBangun","name_en":"SudimoroBangun","admin_level":"7","osm_id":""},"geometry":{"type":"Polygon","coordinates":[[[104.4873,-5.4625],[104.4941,-5.4707],[104.4914,-5.4741],[104.4865,-5.4779],[104.4802,-5.4784],[104.4745,-5.4838],[104.4709,-5.4827],[104.4674,-5.4787],[104.4684,-5.4706],[104.4732,-5.4698],[104.4873,-5.4625]]]}},{"type":"Feature","properties":{"name":"Sukaraja","name_en":"Sukaraja","admin_level":"7","osm_id":""},"geometry":{"type":"Polygon","coordinates":[[[104.4747,-5.5355],[104.4553,-5.5286],[104.454,-5.5255],[104.4771,-5.5152],[104.4828,-5.5112],[104.4842,-5.5079],[104.4916,-5.5011],[104.4933,-5.5009],[104.4971,-5.5075],[104.4967,-5.5216],[104.4908,-5.5284],[104.4777,-5.5374],[104.4755,-5.5347],[104.4747,-5.5355]]]}},{"type":"Feature","properties":{"name":"TuguPapak","name_en":"TuguPapak","admin_level":"7","osm_id":""},"geometry":{"type":"Polygon","coordinates":[[[104.488,-5.5473],[104.4747,-5.5355],[104.4755,-5.5347],[104.4777,-5.5374],[104.4908,-5.5284],[104.4967,-5.5216],[104.5039,-5.5257],[104.5017,-5.5293],[104.5042,-5.5323],[104.5219,-5.5434],[104.5144,-5.5447],[104.5038,-5.5494],[104.4968,-5.5501],[104.488,-5.5473]]]}},{"type":"Feature","properties":{"name":"TuguRejo","name_en":"TuguRejo","admin_level":"7","osm_id":""},"geometry":{"type":"Polygon","coordinates":[[[104.5039,-5.5058],[104.5032,-5.5046],[104.5019,-5.5055],[104.5009,-5.4956],[104.4995,-5.4948],[104.5074,-5.4882],[104.513,-5.4953],[104.5142,-5.4991],[104.5039,-5.5058]]]}},{"type":"Feature","properties":{"name":"TulungAsahan","name_en":"TulungAsahan","admin_level":"7","osm_id":""},"geometry":{"type":"Polygon","coordinates":[[[104.399,-5.4415],[104.3852,-5.4264],[104.3942,-5.4241],[104.3956,-5.4258],[104.4014,-5.4252],[104.4101,-5.4193],[104.4193,-5.4209],[104.4251,-5.4274],[104.4286,-5.4273],[104.4288,-5.4305],[104.4394,-5.4345],[104.4353,-5.4381],[104.4278,-5.4375],[104.4082,-5.4405],[104.4026,-5.4397],[104.399,-5.4415]]]}},{"type":"Feature","properties":{"name":"WayKerap","name_en":"WayKerap","admin_level":"7","osm_id":""},"geometry":{"type":"Polygon","coordinates":[[[104.4392,-5.5193],[104.4314,-5.5106],[104.4314,-5.4993],[104.4253,-5.4934],[104.4254,-5.4918],[104.4267,-5.4935],[104.4424,-5.4908],[104.4468,-5.4868],[104.4583,-5.4825],[104.4833,-5.484],[104.4851,-5.488],[104.4921,-5.4865],[104.4933,-5.5009],[104.4901,-5.5025],[104.4836,-5.4971],[104.4811,-5.4999],[104.4672,-5.5033],[104.4551,-5.5131],[104.4478,-5.517],[104.4392,-5.5193]]]}}]}