{"type":"FeatureCollection","metadata":{"parent_osm_id":"gid_IDN_18_5_1_1","parent_name":"GalelaBarat","parent_name_1":"MalukuUtara","parent_gid":"IDN.18.5.1_1","parent_level":"6","child_level":"7","count":10,"source":"GADM 4.1","generated":"2026-05-07"},"features":[{"type":"Feature","properties":{"name":"DanauGalela","name_en":"DanauGalela","admin_level":"7","osm_id":""},"geometry":{"type":"Polygon","coordinates":[[[127.7924,1.8241],[127.7945,1.8241],[127.7938,1.8257],[127.7993,1.8259],[127.8071,1.8217],[127.8054,1.8241],[127.8099,1.8254],[127.8135,1.8204],[127.8139,1.8225],[127.8111,1.8252],[127.8165,1.8243],[127.8144,1.8274],[127.8158,1.8292],[127.8138,1.8311],[127.8112,1.8296],[127.8126,1.8314],[127.8097,1.8339],[127.8092,1.838],[127.8124,1.8424],[127.8146,1.8431],[127.8169,1.8411],[127.8164,1.8388],[127.8117,1.8354],[127.8145,1.8357],[127.8137,1.8335],[127.8159,1.8336],[127.8151,1.8312],[127.8173,1.8255],[127.8234,1.8225],[127.8298,1.8222],[127.831,1.8207],[127.8233,1.8164],[127.8226,1.813],[127.821,1.8138],[127.8154,1.8101],[127.8111,1.8094],[127.8073,1.8113],[127.8099,1.8121],[127.8081,1.8134],[127.8095,1.8146],[127.8063,1.8162],[127.8073,1.8171],[127.8041,1.8151],[127.7971,1.8231],[127.7902,1.8212],[127.7924,1.8241]]]}},{"type":"Feature","properties":{"name":"Dokulamo","name_en":"Dokulamo","admin_level":"7","osm_id":""},"geometry":{"type":"Polygon","coordinates":[[[127.7968,1.8257],[127.7924,1.8241],[127.7895,1.8269],[127.7695,1.8242],[127.7489,1.8134],[127.746,1.8259],[127.7628,1.8335],[127.7781,1.8458],[127.7903,1.8358],[127.7968,1.8257]]]}},{"type":"Feature","properties":{"name":"Duma","name_en":"Duma","admin_level":"7","osm_id":""},"geometry":{"type":"Polygon","coordinates":[[[127.8145,1.8272],[127.8165,1.8243],[127.8111,1.8248],[127.8139,1.8225],[127.8134,1.8203],[127.8099,1.8254],[127.8054,1.8241],[127.8069,1.8217],[127.8031,1.8247],[127.7986,1.8258],[127.7971,1.8367],[127.7798,1.8543],[127.7805,1.8616],[127.7909,1.8498],[127.8033,1.8296],[127.8145,1.8272]]]}},{"type":"Feature","properties":{"name":"Gotalamo","name_en":"Gotalamo","admin_level":"7","osm_id":""},"geometry":{"type":"Polygon","coordinates":[[[127.8093,1.8353],[127.8126,1.8314],[127.8112,1.8296],[127.8149,1.8308],[127.8158,1.829],[127.8144,1.8274],[127.8033,1.8296],[127.7909,1.8498],[127.7805,1.8616],[127.7766,1.8729],[127.7723,1.8776],[127.7783,1.8823],[127.7923,1.8608],[127.803,1.8361],[127.8093,1.8353]]]}},{"type":"Feature","properties":{"name":"Kira","name_en":"Kira","admin_level":"7","osm_id":""},"geometry":{"type":"Polygon","coordinates":[[[127.7986,1.8258],[127.7968,1.8257],[127.7848,1.8415],[127.7781,1.8458],[127.7794,1.8468],[127.7798,1.8543],[127.7971,1.8367],[127.7986,1.8258]]]}},{"type":"Feature","properties":{"name":"Makete","name_en":"Makete","admin_level":"7","osm_id":""},"geometry":{"type":"Polygon","coordinates":[[[127.8107,1.8407],[127.8093,1.8353],[127.803,1.8361],[127.7923,1.8608],[127.7783,1.8823],[127.785,1.8878],[127.7943,1.8795],[127.8011,1.8677],[127.802,1.8427],[127.8031,1.8408],[127.8094,1.8419],[127.8107,1.8407]]]}},{"type":"Feature","properties":{"name":"Ngidiho","name_en":"Ngidiho","admin_level":"7","osm_id":""},"geometry":{"type":"Polygon","coordinates":[[[127.8121,1.8422],[127.812,1.8407],[127.8094,1.8419],[127.8031,1.8408],[127.802,1.8427],[127.8011,1.8677],[127.7943,1.8795],[127.785,1.8878],[127.7927,1.8954],[127.7996,1.8826],[127.8059,1.8813],[127.8097,1.8712],[127.8076,1.8519],[127.8111,1.8502],[127.8121,1.8422]]]}},{"type":"Feature","properties":{"name":"Roko","name_en":"Roko","admin_level":"7","osm_id":""},"geometry":{"type":"Polygon","coordinates":[[[127.7444,1.8379],[127.7488,1.8473],[127.7476,1.8512],[127.7438,1.8553],[127.7446,1.8575],[127.7503,1.8572],[127.7475,1.8607],[127.7484,1.862],[127.7503,1.8613],[127.7542,1.8649],[127.7566,1.8593],[127.7593,1.8595],[127.76,1.862],[127.765,1.8655],[127.7617,1.871],[127.7723,1.8776],[127.7766,1.8729],[127.7806,1.8627],[127.7794,1.8468],[127.7628,1.8335],[127.746,1.8259],[127.7444,1.8379]]]}},{"type":"Feature","properties":{"name":"Samuda","name_en":"Samuda","admin_level":"7","osm_id":""},"geometry":{"type":"Polygon","coordinates":[[[127.7901,1.8219],[127.7936,1.8157],[127.7931,1.8113],[127.784,1.796],[127.774,1.7844],[127.7664,1.7783],[127.7676,1.774],[127.7576,1.7909],[127.7868,1.8234],[127.7901,1.8219]]]}},{"type":"Feature","properties":{"name":"Soatobaru","name_en":"Soatobaru","admin_level":"7","osm_id":""},"geometry":{"type":"Polygon","coordinates":[[[127.7924,1.8241],[127.7901,1.8219],[127.7868,1.8234],[127.7576,1.7909],[127.7522,1.8001],[127.7489,1.8134],[127.7695,1.8242],[127.7895,1.8269],[127.7924,1.8241]]]}}]}