{"type":"FeatureCollection","metadata":{"parent_osm_id":"gid_IDN_5_1_3_1","parent_name":"KedurangIlir","parent_name_1":"Bengkulu","parent_gid":"IDN.5.1.3_1","parent_level":"6","child_level":"7","count":12,"source":"GADM 4.1","generated":"2026-05-08"},"features":[{"type":"Feature","properties":{"name":"AirSulau","name_en":"AirSulau","admin_level":"7","osm_id":""},"geometry":{"type":"Polygon","coordinates":[[[103.063,-4.5194],[103.0646,-4.5203],[103.0704,-4.5069],[103.0736,-4.5082],[103.0771,-4.5046],[103.0815,-4.5072],[103.0853,-4.5018],[103.0989,-4.5038],[103.0973,-4.5066],[103.0984,-4.5102],[103.0952,-4.516],[103.0851,-4.5282],[103.0835,-4.5362],[103.0865,-4.55],[103.0851,-4.5562],[103.0697,-4.5488],[103.0579,-4.5408],[103.0595,-4.5335],[103.0574,-4.5297],[103.0625,-4.5269],[103.063,-4.5194]]]}},{"type":"Feature","properties":{"name":"Betungan","name_en":"Betungan","admin_level":"7","osm_id":""},"geometry":{"type":"Polygon","coordinates":[[[103.0477,-4.4636],[103.0514,-4.4699],[103.0631,-4.4779],[103.0661,-4.4856],[103.0475,-4.4723],[103.0453,-4.4676],[103.0477,-4.4636]]]}},{"type":"Feature","properties":{"name":"KarangCaya","name_en":"KarangCaya","admin_level":"7","osm_id":""},"geometry":{"type":"Polygon","coordinates":[[[103.0631,-4.4779],[103.0514,-4.4699],[103.0477,-4.4636],[103.0536,-4.4499],[103.0602,-4.4733],[103.0631,-4.4779]]]}},{"type":"Feature","properties":{"name":"Limus","name_en":"Limus","admin_level":"7","osm_id":""},"geometry":{"type":"Polygon","coordinates":[[[103.0328,-4.4964],[103.0344,-4.4958],[103.0358,-4.4912],[103.069,-4.5101],[103.0646,-4.5203],[103.0509,-4.5126],[103.0376,-4.4992],[103.0328,-4.4964]]]}},{"type":"Feature","properties":{"name":"LubukLadung","name_en":"LubukLadung","admin_level":"7","osm_id":""},"geometry":{"type":"Polygon","coordinates":[[[103.019,-4.5286],[103.0205,-4.5266],[103.0181,-4.5234],[103.0176,-4.5192],[103.0223,-4.5156],[103.022,-4.5083],[103.025,-4.5062],[103.0239,-4.5029],[103.0292,-4.5029],[103.0301,-4.5007],[103.0333,-4.5032],[103.0406,-4.5154],[103.0507,-4.5124],[103.063,-4.5194],[103.0625,-4.5269],[103.0574,-4.5297],[103.0595,-4.5335],[103.0551,-4.5428],[103.0548,-4.5409],[103.0514,-4.5403],[103.0504,-4.5426],[103.0366,-4.5342],[103.019,-4.5286]]]}},{"type":"Feature","properties":{"name":"Nanjungan","name_en":"Nanjungan","admin_level":"7","osm_id":""},"geometry":{"type":"Polygon","coordinates":[[[103.0371,-4.4846],[103.039,-4.4789],[103.0476,-4.4818],[103.0692,-4.4964],[103.0705,-4.5003],[103.0427,-4.4895],[103.0371,-4.4846]]]}},{"type":"Feature","properties":{"name":"PadangBindu","name_en":"PadangBindu","admin_level":"7","osm_id":""},"geometry":{"type":"Polygon","coordinates":[[[103.0363,-4.4882],[103.0377,-4.4871],[103.0371,-4.4846],[103.0427,-4.4895],[103.0705,-4.5003],[103.0704,-4.5068],[103.0363,-4.4882]]]}},{"type":"Feature","properties":{"name":"PagarBanyu","name_en":"PagarBanyu","admin_level":"7","osm_id":""},"geometry":{"type":"Polygon","coordinates":[[[103.0453,-4.4676],[103.0475,-4.4723],[103.0661,-4.4856],[103.0665,-4.489],[103.0471,-4.4751],[103.0461,-4.4712],[103.043,-4.4688],[103.0453,-4.4676]]]}},{"type":"Feature","properties":{"name":"Penindaian","name_en":"Penindaian","admin_level":"7","osm_id":""},"geometry":{"type":"Polygon","coordinates":[[[103.0358,-4.4912],[103.0363,-4.4882],[103.0704,-4.5069],[103.069,-4.5101],[103.0358,-4.4912]]]}},{"type":"Feature","properties":{"name":"Sukajaya","name_en":"Sukajaya","admin_level":"7","osm_id":""},"geometry":{"type":"Polygon","coordinates":[[[103.0574,-4.5391],[103.0674,-4.5474],[103.0851,-4.5564],[103.0802,-4.5597],[103.0726,-4.558],[103.0698,-4.5593],[103.0573,-4.5471],[103.0504,-4.5426],[103.0514,-4.5403],[103.0548,-4.5409],[103.0551,-4.5428],[103.0574,-4.5391]]]}},{"type":"Feature","properties":{"name":"Sukaraja","name_en":"Sukaraja","admin_level":"7","osm_id":""},"geometry":{"type":"Polygon","coordinates":[[[103.0301,-4.5007],[103.0312,-4.4961],[103.0328,-4.4964],[103.0376,-4.4992],[103.0507,-4.5124],[103.0406,-4.5154],[103.0333,-4.5032],[103.0301,-4.5007]]]}},{"type":"Feature","properties":{"name":"Sukarami","name_en":"Sukarami","admin_level":"7","osm_id":""},"geometry":{"type":"Polygon","coordinates":[[[103.0692,-4.4964],[103.0476,-4.4818],[103.039,-4.4789],[103.0352,-4.4744],[103.0373,-4.4709],[103.0393,-4.4714],[103.043,-4.4688],[103.0461,-4.4712],[103.0471,-4.4751],[103.0665,-4.489],[103.0692,-4.4964]]]}}]}