{"type":"FeatureCollection","metadata":{"parent_osm_id":"gid_IDN_10_24_1_1","parent_name":"Bobotsari","parent_name_1":"JawaTengah","parent_gid":"IDN.10.24.1_1","parent_level":"6","child_level":"7","count":16,"source":"GADM 4.1","generated":"2026-05-07"},"features":[{"type":"Feature","properties":{"name":"Banjarsari","name_en":"Banjarsari","admin_level":"7","osm_id":""},"geometry":{"type":"Polygon","coordinates":[[[109.3714,-7.2825],[109.3686,-7.2816],[109.3689,-7.2797],[109.3821,-7.2778],[109.3842,-7.2821],[109.3843,-7.2974],[109.3883,-7.2984],[109.3892,-7.3015],[109.3918,-7.302],[109.3927,-7.3042],[109.3821,-7.3036],[109.3808,-7.2977],[109.377,-7.2962],[109.377,-7.2872],[109.3736,-7.2851],[109.3731,-7.2824],[109.3714,-7.2825]]]}},{"type":"Feature","properties":{"name":"Bobotsari","name_en":"Bobotsari","admin_level":"7","osm_id":""},"geometry":{"type":"Polygon","coordinates":[[[109.3711,-7.3088],[109.3651,-7.3088],[109.3625,-7.3119],[109.3602,-7.3075],[109.3559,-7.3057],[109.362,-7.3027],[109.3639,-7.3002],[109.3697,-7.3003],[109.3711,-7.3088]]]}},{"type":"Feature","properties":{"name":"Dagan","name_en":"Dagan","admin_level":"7","osm_id":""},"geometry":{"type":"Polygon","coordinates":[[[109.3689,-7.2797],[109.3685,-7.2814],[109.3717,-7.2827],[109.3717,-7.2842],[109.366,-7.2852],[109.3507,-7.2795],[109.352,-7.2755],[109.3539,-7.2745],[109.3609,-7.2764],[109.3673,-7.274],[109.3689,-7.2797]]]}},{"type":"Feature","properties":{"name":"Gandasuli","name_en":"Gandasuli","admin_level":"7","osm_id":""},"geometry":{"type":"Polygon","coordinates":[[[109.3625,-7.3119],[109.3651,-7.3088],[109.3711,-7.3088],[109.3723,-7.3131],[109.3756,-7.3133],[109.3759,-7.3176],[109.3653,-7.3165],[109.3625,-7.3119]]]}},{"type":"Feature","properties":{"name":"Gunungkarang","name_en":"Gunungkarang","admin_level":"7","osm_id":""},"geometry":{"type":"Polygon","coordinates":[[[109.3625,-7.2935],[109.3522,-7.2913],[109.3544,-7.2945],[109.3512,-7.3002],[109.3437,-7.2931],[109.3508,-7.2861],[109.3535,-7.2872],[109.3577,-7.2864],[109.3623,-7.2906],[109.3625,-7.2935]]]}},{"type":"Feature","properties":{"name":"Kalapacung","name_en":"Kalapacung","admin_level":"7","osm_id":""},"geometry":{"type":"Polygon","coordinates":[[[109.3759,-7.3176],[109.3761,-7.307],[109.383,-7.3063],[109.3843,-7.3101],[109.3879,-7.3121],[109.387,-7.3189],[109.3832,-7.3173],[109.3759,-7.3176]]]}},{"type":"Feature","properties":{"name":"Karangduren","name_en":"Karangduren","admin_level":"7","osm_id":""},"geometry":{"type":"Polygon","coordinates":[[[109.3626,-7.3015],[109.3584,-7.3043],[109.3527,-7.302],[109.3513,-7.2994],[109.3544,-7.2945],[109.3522,-7.2913],[109.3625,-7.2935],[109.3626,-7.3015]]]}},{"type":"Feature","properties":{"name":"Karangmalang","name_en":"Karangmalang","admin_level":"7","osm_id":""},"geometry":{"type":"Polygon","coordinates":[[[109.3829,-7.3044],[109.3927,-7.3042],[109.3957,-7.3116],[109.3967,-7.3238],[109.3928,-7.3239],[109.3875,-7.3212],[109.3879,-7.3121],[109.3836,-7.3092],[109.3829,-7.3044]]]}},{"type":"Feature","properties":{"name":"Karangtalun","name_en":"Karangtalun","admin_level":"7","osm_id":""},"geometry":{"type":"Polygon","coordinates":[[[109.3714,-7.2825],[109.3731,-7.2824],[109.3736,-7.2851],[109.377,-7.2872],[109.3771,-7.2943],[109.3676,-7.2915],[109.3654,-7.289],[109.362,-7.289],[109.3623,-7.2906],[109.3568,-7.286],[109.3554,-7.2818],[109.366,-7.2852],[109.3716,-7.2843],[109.3714,-7.2825]]]}},{"type":"Feature","properties":{"name":"Limbasari","name_en":"Limbasari","admin_level":"7","osm_id":""},"geometry":{"type":"Polygon","coordinates":[[[109.3817,-7.2775],[109.3718,-7.2786],[109.3736,-7.2748],[109.3732,-7.2686],[109.3658,-7.2575],[109.3687,-7.2478],[109.3667,-7.242],[109.37,-7.2432],[109.3727,-7.2468],[109.3862,-7.2443],[109.3901,-7.2453],[109.3915,-7.2473],[109.3929,-7.2517],[109.3897,-7.2621],[109.387,-7.2618],[109.3827,-7.2642],[109.3788,-7.2684],[109.3817,-7.2775]]]}},{"type":"Feature","properties":{"name":"Majapura","name_en":"Majapura","admin_level":"7","osm_id":""},"geometry":{"type":"Polygon","coordinates":[[[109.3792,-7.2963],[109.3808,-7.2977],[109.383,-7.3063],[109.3761,-7.307],[109.3756,-7.3133],[109.3735,-7.3139],[109.3711,-7.3111],[109.3708,-7.3012],[109.3724,-7.3012],[109.3735,-7.2987],[109.3785,-7.2981],[109.3792,-7.2963]]]}},{"type":"Feature","properties":{"name":"Pakuncen","name_en":"Pakuncen","admin_level":"7","osm_id":""},"geometry":{"type":"Polygon","coordinates":[[[109.3771,-7.2943],[109.377,-7.2962],[109.3792,-7.2963],[109.3785,-7.2981],[109.3735,-7.2987],[109.3724,-7.3012],[109.3669,-7.3],[109.3626,-7.3015],[109.362,-7.289],[109.3654,-7.289],[109.3676,-7.2915],[109.3771,-7.2943]]]}},{"type":"Feature","properties":{"name":"PalumbunganKulon","name_en":"PalumbunganKulon","admin_level":"7","osm_id":""},"geometry":{"type":"Polygon","coordinates":[[[109.3674,-7.2741],[109.3609,-7.2764],[109.3571,-7.2744],[109.3521,-7.2756],[109.3472,-7.2715],[109.3498,-7.2684],[109.3509,-7.2622],[109.3529,-7.2615],[109.3563,-7.2544],[109.3704,-7.2716],[109.3674,-7.2741]]]}},{"type":"Feature","properties":{"name":"PalumbunganWetan","name_en":"PalumbunganWetan","admin_level":"7","osm_id":""},"geometry":{"type":"Polygon","coordinates":[[[109.3718,-7.2786],[109.3689,-7.2797],[109.3674,-7.2741],[109.3704,-7.2716],[109.3563,-7.2544],[109.3578,-7.2469],[109.3612,-7.2405],[109.3667,-7.242],[109.3686,-7.2465],[109.3658,-7.2575],[109.3732,-7.2686],[109.3736,-7.2748],[109.3718,-7.2786]]]}},{"type":"Feature","properties":{"name":"Talagening","name_en":"Talagening","admin_level":"7","osm_id":""},"geometry":{"type":"Polygon","coordinates":[[[109.3508,-7.2861],[109.3437,-7.2931],[109.3399,-7.2923],[109.3338,-7.2849],[109.3343,-7.2814],[109.3326,-7.2763],[109.3306,-7.2747],[109.3309,-7.2707],[109.3382,-7.2799],[109.3438,-7.2791],[109.3505,-7.2842],[109.3508,-7.2861]]]}},{"type":"Feature","properties":{"name":"Tlagayasa","name_en":"Tlagayasa","admin_level":"7","osm_id":""},"geometry":{"type":"Polygon","coordinates":[[[109.352,-7.2755],[109.3511,-7.2806],[109.3564,-7.2825],[109.3574,-7.2863],[109.3515,-7.2867],[109.3505,-7.2842],[109.3438,-7.2791],[109.3382,-7.2799],[109.3309,-7.2707],[109.3317,-7.267],[109.339,-7.2687],[109.3426,-7.2728],[109.3488,-7.2722],[109.352,-7.2755]]]}}]}