{"type":"FeatureCollection","metadata":{"parent_osm_id":"gid_IDN_11_22_14_1","parent_name":"Kromengan","parent_name_1":"JawaTimur","parent_gid":"IDN.11.22.14_1","parent_level":"6","child_level":"7","count":7,"source":"GADM 4.1","generated":"2026-05-07"},"features":[{"type":"Feature","properties":{"name":"Jambuwer","name_en":"Jambuwer","admin_level":"7","osm_id":""},"geometry":{"type":"Polygon","coordinates":[[[112.4568,-8.0741],[112.4581,-8.0708],[112.4578,-8.0675],[112.4561,-8.0663],[112.4585,-8.065],[112.4649,-8.0686],[112.4653,-8.0759],[112.4699,-8.088],[112.4687,-8.0952],[112.4698,-8.0997],[112.4631,-8.1031],[112.4618,-8.1079],[112.4611,-8.1156],[112.4653,-8.1254],[112.4637,-8.1274],[112.4644,-8.1299],[112.4624,-8.1311],[112.462,-8.1342],[112.4631,-8.1345],[112.4611,-8.1354],[112.4613,-8.1442],[112.4584,-8.1439],[112.4538,-8.1466],[112.4522,-8.1445],[112.4533,-8.1369],[112.4523,-8.136],[112.4532,-8.1319],[112.4555,-8.131],[112.4552,-8.1274],[112.4578,-8.1265],[112.4567,-8.1229],[112.4592,-8.1149],[112.4576,-8.1095],[112.4559,-8.11],[112.4543,-8.1067],[112.4546,-8.0998],[112.4532,-8.0978],[112.4549,-8.0932],[112.4541,-8.0879],[112.4568,-8.081],[112.4553,-8.0784],[112.4569,-8.0779],[112.4558,-8.0766],[112.457,-8.0762],[112.4568,-8.0741]]]}},{"type":"Feature","properties":{"name":"Jatikerto","name_en":"Jatikerto","admin_level":"7","osm_id":""},"geometry":{"type":"Polygon","coordinates":[[[112.5426,-8.1457],[112.5405,-8.1524],[112.5394,-8.152],[112.5351,-8.1487],[112.5337,-8.1453],[112.5287,-8.1426],[112.5303,-8.1409],[112.5257,-8.1393],[112.5239,-8.1338],[112.5371,-8.1224],[112.5418,-8.1257],[112.5472,-8.1234],[112.5474,-8.1275],[112.5491,-8.1286],[112.5449,-8.136],[112.5478,-8.1375],[112.5416,-8.1453],[112.5426,-8.1457]]]}},{"type":"Feature","properties":{"name":"Karangrejo","name_en":"Karangrejo","admin_level":"7","osm_id":""},"geometry":{"type":"Polygon","coordinates":[[[112.4983,-8.1209],[112.4915,-8.1221],[112.4888,-8.1269],[112.4859,-8.126],[112.484,-8.129],[112.4813,-8.1286],[112.4793,-8.1314],[112.4746,-8.1338],[112.4735,-8.1338],[112.4745,-8.1284],[112.4773,-8.1257],[112.4808,-8.1099],[112.4807,-8.095],[112.4834,-8.095],[112.4841,-8.0936],[112.4842,-8.0959],[112.488,-8.0972],[112.4909,-8.0959],[112.4913,-8.0942],[112.4947,-8.1059],[112.4962,-8.1065],[112.4961,-8.1151],[112.4993,-8.1169],[112.4983,-8.1209]]]}},{"type":"Feature","properties":{"name":"Kromengan","name_en":"Kromengan","admin_level":"7","osm_id":""},"geometry":{"type":"Polygon","coordinates":[[[112.4612,-8.1398],[112.462,-8.136],[112.471,-8.136],[112.4793,-8.1314],[112.4813,-8.1286],[112.484,-8.129],[112.4859,-8.126],[112.4888,-8.1269],[112.4923,-8.1217],[112.4983,-8.1209],[112.5038,-8.1224],[112.5015,-8.1377],[112.4992,-8.1393],[112.4984,-8.142],[112.4957,-8.1427],[112.4955,-8.1472],[112.4934,-8.1496],[112.4899,-8.1497],[112.4886,-8.1479],[112.4848,-8.1485],[112.4841,-8.1505],[112.4823,-8.1449],[112.474,-8.146],[112.4732,-8.1442],[112.47,-8.1446],[112.4643,-8.1416],[112.464,-8.1452],[112.4622,-8.1375],[112.4612,-8.1398]]]}},{"type":"Feature","properties":{"name":"Ngadirejo","name_en":"Ngadirejo","admin_level":"7","osm_id":""},"geometry":{"type":"Polygon","coordinates":[[[112.4955,-8.1472],[112.4957,-8.1427],[112.4984,-8.142],[112.4992,-8.1393],[112.5015,-8.1377],[112.5039,-8.1199],[112.5126,-8.1224],[112.5183,-8.1208],[112.5233,-8.1245],[112.5243,-8.1295],[112.5203,-8.1368],[112.5221,-8.1393],[112.5196,-8.1406],[112.5183,-8.1395],[112.5164,-8.1428],[112.5163,-8.1401],[112.5144,-8.139],[112.5106,-8.1436],[112.5069,-8.1413],[112.507,-8.1436],[112.5058,-8.142],[112.505,-8.1436],[112.5065,-8.1468],[112.5041,-8.1461],[112.4994,-8.1502],[112.4967,-8.1467],[112.4955,-8.1472]]]}},{"type":"Feature","properties":{"name":"Peniwen","name_en":"Peniwen","admin_level":"7","osm_id":""},"geometry":{"type":"Polygon","coordinates":[[[112.4613,-8.1365],[112.4631,-8.1345],[112.462,-8.1342],[112.4624,-8.1311],[112.4644,-8.1299],[112.4637,-8.1274],[112.4653,-8.1254],[112.4611,-8.1156],[112.4631,-8.1031],[112.4693,-8.1001],[112.4738,-8.0938],[112.4807,-8.095],[112.4808,-8.1099],[112.4773,-8.1257],[112.4745,-8.1284],[112.4745,-8.133],[112.471,-8.136],[112.4613,-8.1365]]]}},{"type":"Feature","properties":{"name":"Slorok","name_en":"Slorok","admin_level":"7","osm_id":""},"geometry":{"type":"Polygon","coordinates":[[[112.5405,-8.1524],[112.5421,-8.1577],[112.5409,-8.1602],[112.5376,-8.1561],[112.5335,-8.1573],[112.5306,-8.1561],[112.5313,-8.1534],[112.525,-8.1528],[112.5256,-8.151],[112.5209,-8.1477],[112.5146,-8.1459],[112.5146,-8.1444],[112.5109,-8.1424],[112.5144,-8.139],[112.5163,-8.1401],[112.5164,-8.1428],[112.5183,-8.1395],[112.5196,-8.1406],[112.5221,-8.1393],[112.5203,-8.1366],[112.5232,-8.1335],[112.5257,-8.1393],[112.5303,-8.1409],[112.5287,-8.1426],[112.5337,-8.1453],[112.5353,-8.1489],[112.5405,-8.1524]]]}}]}