{"type":"FeatureCollection","metadata":{"parent_osm_id":"gid_IDN_9_2_29_1","parent_name":"Rancaekek","parent_name_1":"JawaBarat","parent_gid":"IDN.9.2.29_1","parent_level":"6","child_level":"7","count":13,"source":"GADM 4.1","generated":"2026-05-08"},"features":[{"type":"Feature","properties":{"name":"Bojongloa","name_en":"Bojongloa","admin_level":"7","osm_id":""},"geometry":{"type":"Polygon","coordinates":[[[107.7725,-6.9593],[107.7735,-6.9604],[107.7689,-6.9707],[107.7676,-6.9705],[107.7662,-6.9748],[107.7647,-6.9743],[107.7618,-6.9848],[107.7642,-6.9956],[107.7627,-6.9948],[107.7597,-6.998],[107.7592,-6.9958],[107.7573,-6.9973],[107.7575,-6.9949],[107.7559,-6.9947],[107.7578,-6.9922],[107.757,-6.99],[107.7533,-6.9933],[107.7541,-6.9949],[107.7518,-6.9937],[107.7485,-6.9967],[107.7475,-6.9964],[107.7493,-6.9835],[107.7517,-6.982],[107.7542,-6.9827],[107.7554,-6.9782],[107.7596,-6.9797],[107.7654,-6.9586],[107.7628,-6.9591],[107.7616,-6.9572],[107.7648,-6.955],[107.7641,-6.9529],[107.7706,-6.955],[107.769,-6.9574],[107.7725,-6.9593]]]}},{"type":"Feature","properties":{"name":"Bojongsalam","name_en":"Bojongsalam","admin_level":"7","osm_id":""},"geometry":{"type":"Polygon","coordinates":[[[107.8118,-6.9807],[107.809,-6.9873],[107.8108,-6.9881],[107.8152,-6.9859],[107.8237,-6.987],[107.8259,-6.9889],[107.824,-6.9913],[107.8189,-6.9918],[107.8188,-6.9883],[107.8159,-6.988],[107.8151,-6.9929],[107.7995,-6.9952],[107.7993,-6.9932],[107.8025,-6.9899],[107.8028,-6.9877],[107.8007,-6.9848],[107.802,-6.9843],[107.8014,-6.9827],[107.8067,-6.9804],[107.8063,-6.9783],[107.8118,-6.9807]]]}},{"type":"Feature","properties":{"name":"Cangkuang","name_en":"Cangkuang","admin_level":"7","osm_id":""},"geometry":{"type":"Polygon","coordinates":[[[107.7869,-6.9908],[107.7868,-6.9833],[107.7892,-6.9801],[107.7879,-6.9767],[107.7917,-6.9779],[107.7927,-6.9739],[107.7947,-6.9736],[107.7947,-6.9708],[107.7973,-6.9709],[107.8002,-6.9646],[107.8078,-6.966],[107.8082,-6.9699],[107.8052,-6.972],[107.8042,-6.9783],[107.8018,-6.9816],[107.8004,-6.9811],[107.7998,-6.9842],[107.795,-6.9845],[107.7949,-6.9882],[107.7921,-6.9885],[107.7915,-6.9917],[107.7869,-6.9908]]]}},{"type":"Feature","properties":{"name":"Haurpugur","name_en":"Haurpugur","admin_level":"7","osm_id":""},"geometry":{"type":"Polygon","coordinates":[[[107.8087,-6.977],[107.8061,-6.9784],[107.8066,-6.9804],[107.8013,-6.983],[107.802,-6.9843],[107.8007,-6.9849],[107.8028,-6.9877],[107.8017,-6.9915],[107.7952,-6.9942],[107.7914,-6.9988],[107.7867,-6.999],[107.7856,-7.0004],[107.7849,-6.9994],[107.7825,-7.0018],[107.7833,-7.0027],[107.7759,-7.0041],[107.7722,-6.999],[107.7678,-6.997],[107.768,-6.9952],[107.7737,-6.9965],[107.7859,-6.9948],[107.7869,-6.9908],[107.7915,-6.9917],[107.7921,-6.9885],[107.7948,-6.9883],[107.795,-6.9845],[107.7998,-6.9842],[107.8001,-6.9815],[107.8018,-6.9816],[107.8045,-6.9764],[107.8087,-6.977]]]}},{"type":"Feature","properties":{"name":"Jelegong","name_en":"Jelegong","admin_level":"7","osm_id":""},"geometry":{"type":"Polygon","coordinates":[[[107.7639,-6.9942],[107.7615,-6.9864],[107.7647,-6.9743],[107.7662,-6.9748],[107.7676,-6.9705],[107.769,-6.9706],[107.7735,-6.9604],[107.7725,-6.9592],[107.7742,-6.9595],[107.774,-6.956],[107.7781,-6.9572],[107.7785,-6.9551],[107.7814,-6.9551],[107.782,-6.9662],[107.781,-6.9682],[107.777,-6.969],[107.7757,-6.9778],[107.7736,-6.9784],[107.7723,-6.9812],[107.7668,-6.9834],[107.7676,-6.9926],[107.7661,-6.9947],[107.7639,-6.9942]]]}},{"type":"Feature","properties":{"name":"Linggar","name_en":"Linggar","admin_level":"7","osm_id":""},"geometry":{"type":"Polygon","coordinates":[[[107.8002,-6.9646],[107.7972,-6.971],[107.7832,-6.9705],[107.7821,-6.9813],[107.7788,-6.9811],[107.7756,-6.9891],[107.7693,-6.9909],[107.7667,-6.9835],[107.7757,-6.9778],[107.777,-6.969],[107.781,-6.9682],[107.782,-6.9662],[107.7822,-6.9585],[107.8002,-6.9646]]]}},{"type":"Feature","properties":{"name":"Nanjungmekar","name_en":"Nanjungmekar","admin_level":"7","osm_id":""},"geometry":{"type":"Polygon","coordinates":[[[107.8267,-6.9707],[107.8218,-6.9694],[107.8156,-6.9703],[107.8122,-6.9725],[107.813,-6.9742],[107.8093,-6.9774],[107.8045,-6.9764],[107.8052,-6.972],[107.8082,-6.9699],[107.8078,-6.966],[107.8265,-6.9672],[107.8267,-6.9707]]]}},{"type":"Feature","properties":{"name":"RancaekekKulon","name_en":"RancaekekKulon","admin_level":"7","osm_id":""},"geometry":{"type":"Polygon","coordinates":[[[107.7367,-6.9644],[107.7424,-6.9646],[107.7503,-6.9622],[107.7519,-6.959],[107.7582,-6.9573],[107.7539,-6.9642],[107.7516,-6.9635],[107.747,-6.9808],[107.7408,-6.9831],[107.7343,-6.9812],[107.7329,-6.9843],[107.7314,-6.9845],[107.7367,-6.9644]]]}},{"type":"Feature","properties":{"name":"RancaekekWetan","name_en":"RancaekekWetan","admin_level":"7","osm_id":""},"geometry":{"type":"Polygon","coordinates":[[[107.7564,-6.9576],[107.7599,-6.9528],[107.7619,-6.9536],[107.7628,-6.9591],[107.7654,-6.9586],[107.7596,-6.9797],[107.7554,-6.9782],[107.7542,-6.9827],[107.7517,-6.982],[107.7493,-6.9835],[107.747,-6.9808],[107.7505,-6.9668],[107.7516,-6.9635],[107.7539,-6.9642],[107.7582,-6.9573],[107.7564,-6.9576]]]}},{"type":"Feature","properties":{"name":"Sangiang","name_en":"Sangiang","admin_level":"7","osm_id":""},"geometry":{"type":"Polygon","coordinates":[[[107.7975,-7.0056],[107.7908,-7.005],[107.7781,-7.0078],[107.7759,-7.0041],[107.783,-7.0028],[107.7849,-6.9994],[107.7856,-7.0004],[107.7867,-6.999],[107.7914,-6.9988],[107.7952,-6.9942],[107.7993,-6.9932],[107.7995,-6.9952],[107.8021,-6.9949],[107.802,-7.0018],[107.7975,-7.0056]]]}},{"type":"Feature","properties":{"name":"Sukamanah","name_en":"Sukamanah","admin_level":"7","osm_id":""},"geometry":{"type":"Polygon","coordinates":[[[107.7074,-6.9867],[107.7044,-6.9826],[107.706,-6.9806],[107.7215,-6.9834],[107.7206,-6.9874],[107.723,-6.9883],[107.7328,-6.9844],[107.7343,-6.9812],[107.7408,-6.9831],[107.7467,-6.9805],[107.7493,-6.9834],[107.7478,-6.9962],[107.743,-6.9987],[107.7354,-6.9921],[107.7338,-6.9926],[107.7335,-6.9952],[107.7312,-6.9952],[107.7324,-6.9963],[107.7289,-6.9948],[107.7263,-6.9951],[107.7275,-6.996],[107.7264,-6.9963],[107.7223,-6.9923],[107.7116,-6.9869],[107.7074,-6.9867]]]}},{"type":"Feature","properties":{"name":"Sukamulya","name_en":"Sukamulya","admin_level":"7","osm_id":""},"geometry":{"type":"Polygon","coordinates":[[[107.7947,-6.9708],[107.7947,-6.9736],[107.7927,-6.9739],[107.7917,-6.9779],[107.7879,-6.9767],[107.7892,-6.9803],[107.7868,-6.9833],[107.7859,-6.9948],[107.7737,-6.9965],[107.768,-6.9952],[107.7676,-6.9888],[107.7693,-6.9909],[107.7717,-6.9911],[107.773,-6.989],[107.7759,-6.9887],[107.7788,-6.9811],[107.7821,-6.9813],[107.7832,-6.9705],[107.7947,-6.9708]]]}},{"type":"Feature","properties":{"name":"Tegalsumedang","name_en":"Tegalsumedang","admin_level":"7","osm_id":""},"geometry":{"type":"Polygon","coordinates":[[[107.7066,-6.9806],[107.7062,-6.9783],[107.7104,-6.9775],[107.7089,-6.9749],[107.7141,-6.9709],[107.7185,-6.9717],[107.7204,-6.9688],[107.7315,-6.9703],[107.7367,-6.9644],[107.7306,-6.9853],[107.723,-6.9883],[107.7206,-6.9874],[107.7215,-6.9834],[107.7066,-6.9806]]]}}]}