{"type":"FeatureCollection","metadata":{"parent_osm_id":"gid_IDN_5_9_6_1","parent_name":"CurupTimur","parent_name_1":"Bengkulu","parent_gid":"IDN.5.9.6_1","parent_level":"6","child_level":"7","count":9,"source":"GADM 4.1","generated":"2026-05-09"},"features":[{"type":"Feature","properties":{"name":"AirMelesBawah","name_en":"AirMelesBawah","admin_level":"7","osm_id":""},"geometry":{"type":"Polygon","coordinates":[[[102.5567,-3.4716],[102.5481,-3.4712],[102.5486,-3.4688],[102.5397,-3.4673],[102.5403,-3.4621],[102.543,-3.4607],[102.5496,-3.4646],[102.5529,-3.4576],[102.5567,-3.4716]]]}},{"type":"Feature","properties":{"name":"DukuIlir","name_en":"DukuIlir","admin_level":"7","osm_id":""},"geometry":{"type":"Polygon","coordinates":[[[102.5397,-3.4526],[102.5373,-3.4505],[102.5346,-3.4505],[102.5335,-3.4479],[102.5465,-3.4471],[102.5397,-3.4526]]]}},{"type":"Feature","properties":{"name":"DukuUlu","name_en":"DukuUlu","admin_level":"7","osm_id":""},"geometry":{"type":"Polygon","coordinates":[[[102.5519,-3.4563],[102.5425,-3.4581],[102.5465,-3.4471],[102.5552,-3.4419],[102.5626,-3.4439],[102.5642,-3.4502],[102.5592,-3.451],[102.5519,-3.4563]]]}},{"type":"Feature","properties":{"name":"KampungDelima","name_en":"KampungDelima","admin_level":"7","osm_id":""},"geometry":{"type":"Polygon","coordinates":[[[102.5335,-3.4479],[102.5346,-3.4505],[102.5373,-3.4505],[102.5397,-3.4526],[102.5331,-3.4542],[102.5296,-3.4478],[102.5335,-3.4479]]]}},{"type":"Feature","properties":{"name":"KarangAnyar","name_en":"KarangAnyar","admin_level":"7","osm_id":""},"geometry":{"type":"Polygon","coordinates":[[[102.5296,-3.4478],[102.5315,-3.4528],[102.5345,-3.4537],[102.5321,-3.4597],[102.5269,-3.4594],[102.5296,-3.4478]]]}},{"type":"Feature","properties":{"name":"KesambeBaru","name_en":"KesambeBaru","admin_level":"7","osm_id":""},"geometry":{"type":"Polygon","coordinates":[[[102.5529,-3.4576],[102.5496,-3.4646],[102.543,-3.4607],[102.5389,-3.4618],[102.5373,-3.4593],[102.5419,-3.4594],[102.5425,-3.4581],[102.5492,-3.4563],[102.5529,-3.4576]]]}},{"type":"Feature","properties":{"name":"KesambeLama","name_en":"KesambeLama","admin_level":"7","osm_id":""},"geometry":{"type":"Polygon","coordinates":[[[102.5346,-3.463],[102.5289,-3.4614],[102.5285,-3.4598],[102.5321,-3.4597],[102.5345,-3.4537],[102.5397,-3.4526],[102.5465,-3.4471],[102.5419,-3.4594],[102.5373,-3.4593],[102.5346,-3.463]]]}},{"type":"Feature","properties":{"name":"Sukaraja","name_en":"Sukaraja","admin_level":"7","osm_id":""},"geometry":{"type":"Polygon","coordinates":[[[102.5397,-3.4673],[102.5346,-3.463],[102.5373,-3.4593],[102.5403,-3.4621],[102.5397,-3.4673]]]}},{"type":"Feature","properties":{"name":"TalangUlu","name_en":"TalangUlu","admin_level":"7","osm_id":""},"geometry":{"type":"Polygon","coordinates":[[[102.5644,-3.4716],[102.5567,-3.4716],[102.5519,-3.4563],[102.5592,-3.451],[102.5642,-3.4502],[102.5689,-3.4611],[102.5644,-3.4716]]]}}]}