{"type":"FeatureCollection","metadata":{"parent_osm_id":"gid_IDN_23_12_7_1","parent_name":"Pirime","parent_name_1":"Papua","parent_gid":"IDN.23.12.7_1","parent_level":"6","child_level":"7","count":27,"source":"GADM 4.1","generated":"2026-05-09"},"features":[{"type":"Feature","properties":{"name":"Ekanom","name_en":"Ekanom","admin_level":"7","osm_id":""},"geometry":{"type":"Polygon","coordinates":[[[138.506,-4.0113],[138.4938,-4.0014],[138.4999,-3.9974],[138.5007,-3.9933],[138.5088,-3.9845],[138.5127,-3.9868],[138.5178,-3.987],[138.5316,-3.9834],[138.5314,-3.9941],[138.5253,-4.0014],[138.5276,-4.0024],[138.5276,-4.0057],[138.5245,-4.0115],[138.5227,-4.0113],[138.5204,-4.0137],[138.5099,-4.0107],[138.506,-4.0113]]]}},{"type":"Feature","properties":{"name":"Golo","name_en":"Golo","admin_level":"7","osm_id":""},"geometry":{"type":"Polygon","coordinates":[[[138.4791,-3.9359],[138.4951,-3.9349],[138.4981,-3.9327],[138.504,-3.9406],[138.506,-3.9497],[138.5026,-3.9476],[138.4877,-3.9464],[138.4795,-3.941],[138.4812,-3.94],[138.4791,-3.9359]]]}},{"type":"Feature","properties":{"name":"Golomi","name_en":"Golomi","admin_level":"7","osm_id":""},"geometry":{"type":"Polygon","coordinates":[[[138.4951,-3.934],[138.4912,-3.9355],[138.4791,-3.9359],[138.474,-3.932],[138.4843,-3.9235],[138.4911,-3.9209],[138.4951,-3.934]]]}},{"type":"Feature","properties":{"name":"Golopura","name_en":"Golopura","admin_level":"7","osm_id":""},"geometry":{"type":"Polygon","coordinates":[[[138.4911,-3.9209],[138.4843,-3.9235],[138.474,-3.932],[138.4708,-3.9308],[138.467,-3.9224],[138.4686,-3.9148],[138.4729,-3.9106],[138.4808,-3.9146],[138.4853,-3.9133],[138.4911,-3.9209]]]}},{"type":"Feature","properties":{"name":"Ilunggume","name_en":"Ilunggume","admin_level":"7","osm_id":""},"geometry":{"type":"Polygon","coordinates":[[[138.4873,-4.0704],[138.4836,-4.0657],[138.4586,-4.0464],[138.461,-4.03],[138.479,-4.0293],[138.4818,-4.0244],[138.4839,-4.0155],[138.484,-4.0033],[138.4938,-4.0014],[138.506,-4.0113],[138.5028,-4.0182],[138.5032,-4.0214],[138.5007,-4.0245],[138.4991,-4.0361],[138.5009,-4.0446],[138.4979,-4.0558],[138.4938,-4.0631],[138.4873,-4.0704]]]}},{"type":"Feature","properties":{"name":"Karunggame","name_en":"Karunggame","admin_level":"7","osm_id":""},"geometry":{"type":"Polygon","coordinates":[[[138.5088,-3.9845],[138.4963,-4.0004],[138.484,-4.0033],[138.4837,-3.9905],[138.4855,-3.9862],[138.4825,-3.9775],[138.4833,-3.9744],[138.4816,-3.9652],[138.4872,-3.9624],[138.4989,-3.9675],[138.4989,-3.9716],[138.502,-3.973],[138.5042,-3.9779],[138.5127,-3.9775],[138.5101,-3.9797],[138.5088,-3.9845]]]}},{"type":"Feature","properties":{"name":"Kugame","name_en":"Kugame","admin_level":"7","osm_id":""},"geometry":{"type":"Polygon","coordinates":[[[138.5179,-3.9097],[138.5237,-3.9109],[138.5423,-3.9215],[138.5379,-3.9265],[138.5227,-3.9242],[138.5154,-3.9204],[138.5089,-3.9137],[138.5143,-3.909],[138.5179,-3.9097]]]}},{"type":"Feature","properties":{"name":"Kulia","name_en":"Kulia","admin_level":"7","osm_id":""},"geometry":{"type":"Polygon","coordinates":[[[138.4592,-3.87],[138.4665,-3.874],[138.4686,-3.8898],[138.4648,-3.8959],[138.4579,-3.8971],[138.455,-3.9026],[138.4497,-3.9048],[138.4492,-3.9087],[138.4458,-3.9048],[138.4412,-3.8938],[138.4562,-3.8788],[138.4565,-3.8747],[138.4592,-3.87]]]}},{"type":"Feature","properties":{"name":"Kuwanom","name_en":"Kuwanom","admin_level":"7","osm_id":""},"geometry":{"type":"Polygon","coordinates":[[[138.4482,-3.8641],[138.4592,-3.87],[138.4565,-3.8747],[138.4562,-3.8788],[138.4432,-3.891],[138.441,-3.8957],[138.4301,-3.8863],[138.4482,-3.8641]]]}},{"type":"Feature","properties":{"name":"Libome","name_en":"Libome","admin_level":"7","osm_id":""},"geometry":{"type":"Polygon","coordinates":[[[138.5254,-3.9246],[138.5385,-3.9261],[138.5444,-3.934],[138.5456,-3.946],[138.5397,-3.9411],[138.5359,-3.9405],[138.5247,-3.9444],[138.5215,-3.9356],[138.5254,-3.9246]]]}},{"type":"Feature","properties":{"name":"Lubutini","name_en":"Lubutini","admin_level":"7","osm_id":""},"geometry":{"type":"Polygon","coordinates":[[[138.4913,-4.0755],[138.4873,-4.0704],[138.4938,-4.0631],[138.4979,-4.0558],[138.5009,-4.0446],[138.4991,-4.0361],[138.4999,-4.0292],[138.504,-4.0151],[138.506,-4.0113],[138.5099,-4.0107],[138.5204,-4.0137],[138.5227,-4.0113],[138.5247,-4.0115],[138.5229,-4.0156],[138.5253,-4.0317],[138.5227,-4.0325],[138.5221,-4.0441],[138.5178,-4.0604],[138.5103,-4.0797],[138.5045,-4.0852],[138.4971,-4.083],[138.4913,-4.0755]]]}},{"type":"Feature","properties":{"name":"Melendik","name_en":"Melendik","admin_level":"7","osm_id":""},"geometry":{"type":"Polygon","coordinates":[[[138.5314,-4.0942],[138.5045,-4.0852],[138.5103,-4.0797],[138.5178,-4.0604],[138.5221,-4.0441],[138.5227,-4.0325],[138.5322,-4.0319],[138.5505,-4.039],[138.5695,-4.0394],[138.5679,-4.0632],[138.5581,-4.1046],[138.5314,-4.0942]]]}},{"type":"Feature","properties":{"name":"Milimbo","name_en":"Milimbo","admin_level":"7","osm_id":""},"geometry":{"type":"Polygon","coordinates":[[[138.4729,-3.9106],[138.4686,-3.9148],[138.467,-3.9224],[138.4593,-3.9145],[138.4492,-3.9087],[138.4497,-3.9048],[138.455,-3.9026],[138.4579,-3.8971],[138.4648,-3.8959],[138.4671,-3.8933],[138.4703,-3.8971],[138.4729,-3.9106]]]}},{"type":"Feature","properties":{"name":"Nambume","name_en":"Nambume","admin_level":"7","osm_id":""},"geometry":{"type":"Polygon","coordinates":[[[138.5127,-3.9775],[138.5042,-3.9779],[138.502,-3.973],[138.4989,-3.9716],[138.4989,-3.9675],[138.4872,-3.9624],[138.489,-3.9596],[138.4985,-3.9559],[138.4993,-3.9533],[138.5028,-3.9529],[138.5065,-3.95],[138.5278,-3.9609],[138.5127,-3.9775]]]}},{"type":"Feature","properties":{"name":"Nanim","name_en":"Nanim","admin_level":"7","osm_id":""},"geometry":{"type":"Polygon","coordinates":[[[138.4599,-3.973],[138.4623,-3.9712],[138.4695,-3.9706],[138.4788,-3.9673],[138.4816,-3.9652],[138.4833,-3.9744],[138.4825,-3.9775],[138.4855,-3.9862],[138.4837,-3.9905],[138.4839,-4.0155],[138.4818,-4.0244],[138.479,-4.0293],[138.461,-4.03],[138.4645,-3.9958],[138.4599,-3.973]]]}},{"type":"Feature","properties":{"name":"Nileme","name_en":"Nileme","admin_level":"7","osm_id":""},"geometry":{"type":"Polygon","coordinates":[[[138.4798,-3.8848],[138.4936,-3.8975],[138.4855,-3.9099],[138.4853,-3.9136],[138.4808,-3.9146],[138.4731,-3.9117],[138.4703,-3.8971],[138.4671,-3.8933],[138.4686,-3.8898],[138.4665,-3.874],[138.4798,-3.8848]]]}},{"type":"Feature","properties":{"name":"Pirime","name_en":"Pirime","admin_level":"7","osm_id":""},"geometry":{"type":"Polygon","coordinates":[[[138.5316,-3.9834],[138.5178,-3.987],[138.5127,-3.9868],[138.5088,-3.9845],[138.5101,-3.9797],[138.5278,-3.9609],[138.5308,-3.9626],[138.5444,-3.9637],[138.5426,-3.9787],[138.5388,-3.9843],[138.5316,-3.9834]]]}},{"type":"Feature","properties":{"name":"Takobak","name_en":"Takobak","admin_level":"7","osm_id":""},"geometry":{"type":"Polygon","coordinates":[[[138.6337,-4.0774],[138.6147,-4.0963],[138.6042,-4.1195],[138.5995,-4.1409],[138.5903,-4.1272],[138.5759,-4.1128],[138.5581,-4.1046],[138.5679,-4.0632],[138.5695,-4.0394],[138.5867,-4.0398],[138.5891,-4.0455],[138.604,-4.0616],[138.6251,-4.0749],[138.6337,-4.0774]]]}},{"type":"Feature","properties":{"name":"Tekul","name_en":"Tekul","admin_level":"7","osm_id":""},"geometry":{"type":"Polygon","coordinates":[[[138.5623,-3.9672],[138.5629,-3.9748],[138.5717,-4.001],[138.5643,-4.0023],[138.5597,-4.0049],[138.5532,-4.0051],[138.545,-3.9998],[138.543,-3.9962],[138.5387,-3.9943],[138.5387,-3.9844],[138.5426,-3.9787],[138.5444,-3.9637],[138.5485,-3.9649],[138.5493,-3.9677],[138.5623,-3.9672]]]}},{"type":"Feature","properties":{"name":"Umbanume","name_en":"Umbanume","admin_level":"7","osm_id":""},"geometry":{"type":"Polygon","coordinates":[[[138.5245,-4.0115],[138.5276,-4.0057],[138.5276,-4.0024],[138.5253,-4.0014],[138.5314,-3.9941],[138.5316,-3.9834],[138.5388,-3.9843],[138.5387,-3.9943],[138.543,-3.9962],[138.5562,-4.0109],[138.5591,-4.0308],[138.556,-4.0328],[138.5548,-4.0389],[138.5434,-4.037],[138.5391,-4.0336],[138.5253,-4.0317],[138.5229,-4.0156],[138.5245,-4.0115]]]}},{"type":"Feature","properties":{"name":"Wamindik","name_en":"Wamindik","admin_level":"7","osm_id":""},"geometry":{"type":"Polygon","coordinates":[[[138.56,-3.9512],[138.5623,-3.9672],[138.5493,-3.9677],[138.5485,-3.9649],[138.5446,-3.9637],[138.5294,-3.9618],[138.53,-3.9594],[138.5263,-3.9549],[138.5247,-3.9444],[138.5359,-3.9405],[138.5397,-3.9411],[138.5467,-3.947],[138.56,-3.9512]]]}},{"type":"Feature","properties":{"name":"Wenam","name_en":"Wenam","admin_level":"7","osm_id":""},"geometry":{"type":"Polygon","coordinates":[[[138.4597,-3.9726],[138.4492,-3.9544],[138.465,-3.9495],[138.4795,-3.941],[138.4877,-3.9464],[138.5026,-3.9476],[138.5065,-3.95],[138.5028,-3.9529],[138.4993,-3.9533],[138.4985,-3.9559],[138.489,-3.9596],[138.4872,-3.9624],[138.4788,-3.9673],[138.4597,-3.9726]]]}},{"type":"Feature","properties":{"name":"Wirini","name_en":"Wirini","admin_level":"7","osm_id":""},"geometry":{"type":"Polygon","coordinates":[[[138.4936,-3.8975],[138.4982,-3.9021],[138.5143,-3.909],[138.4983,-3.9199],[138.4989,-3.93],[138.4981,-3.9329],[138.4951,-3.934],[138.4912,-3.9211],[138.4853,-3.9133],[138.4855,-3.9099],[138.4936,-3.8975]]]}},{"type":"Feature","properties":{"name":"Yalipak","name_en":"Yalipak","admin_level":"7","osm_id":""},"geometry":{"type":"Polygon","coordinates":[[[138.5717,-4.001],[138.5769,-4.0151],[138.5867,-4.0398],[138.5548,-4.0389],[138.556,-4.0328],[138.5591,-4.0308],[138.5586,-4.0261],[138.5564,-4.0192],[138.5562,-4.0109],[138.5499,-4.0033],[138.5532,-4.0051],[138.5597,-4.0049],[138.5643,-4.0023],[138.5717,-4.001]]]}},{"type":"Feature","properties":{"name":"Yamiga","name_en":"Yamiga","admin_level":"7","osm_id":""},"geometry":{"type":"Polygon","coordinates":[[[138.5032,-3.9394],[138.4981,-3.9327],[138.4983,-3.9199],[138.5009,-3.9176],[138.5089,-3.9137],[138.5154,-3.9204],[138.5254,-3.9246],[138.5215,-3.9356],[138.5133,-3.9356],[138.5046,-3.9377],[138.5032,-3.9394]]]}},{"type":"Feature","properties":{"name":"Yiwili","name_en":"Yiwili","admin_level":"7","osm_id":""},"geometry":{"type":"Polygon","coordinates":[[[138.506,-3.9497],[138.5032,-3.9394],[138.5046,-3.9377],[138.5164,-3.935],[138.5215,-3.9356],[138.5249,-3.9452],[138.5263,-3.9549],[138.53,-3.9594],[138.5294,-3.9618],[138.506,-3.9497]]]}},{"type":"Feature","properties":{"name":"Yugumabur","name_en":"Yugumabur","admin_level":"7","osm_id":""},"geometry":{"type":"Polygon","coordinates":[[[138.5423,-3.9215],[138.5586,-3.9264],[138.5602,-3.9375],[138.56,-3.9512],[138.5456,-3.946],[138.5444,-3.934],[138.5385,-3.9261],[138.5423,-3.9215]]]}}]}