{"type":"FeatureCollection","metadata":{"parent_osm_id":"gid_IDN_9_20_4_1","parent_name":"Cidahu","parent_name_1":"JawaBarat","parent_gid":"IDN.9.20.4_1","parent_level":"6","child_level":"7","count":12,"source":"GADM 4.1","generated":"2026-05-08"},"features":[{"type":"Feature","properties":{"name":"Bunder","name_en":"Bunder","admin_level":"7","osm_id":""},"geometry":{"type":"Polygon","coordinates":[[[108.6725,-6.9915],[108.6727,-6.9883],[108.6703,-6.9857],[108.666,-6.9825],[108.6634,-6.9827],[108.6653,-6.9779],[108.6762,-6.9773],[108.6763,-6.9795],[108.682,-6.9822],[108.681,-6.9906],[108.6799,-6.9913],[108.6758,-6.9878],[108.6725,-6.9915]]]}},{"type":"Feature","properties":{"name":"Cibulan","name_en":"Cibulan","admin_level":"7","osm_id":""},"geometry":{"type":"Polygon","coordinates":[[[108.6533,-6.9343],[108.664,-6.9406],[108.6656,-6.9453],[108.6634,-6.9494],[108.6621,-6.9481],[108.6634,-6.9516],[108.6622,-6.9566],[108.6582,-6.9597],[108.657,-6.9627],[108.6534,-6.9621],[108.6514,-6.9638],[108.6474,-6.9622],[108.6445,-6.9652],[108.6462,-6.9595],[108.6457,-6.951],[108.6476,-6.9463],[108.6497,-6.9463],[108.6507,-6.9387],[108.6533,-6.9343]]]}},{"type":"Feature","properties":{"name":"Cidahu","name_en":"Cidahu","admin_level":"7","osm_id":""},"geometry":{"type":"Polygon","coordinates":[[[108.6428,-6.9698],[108.6478,-6.9711],[108.6476,-6.9755],[108.6529,-6.9763],[108.6513,-6.9825],[108.6494,-6.9824],[108.6491,-6.9861],[108.6528,-6.9913],[108.6567,-6.9921],[108.6556,-6.9944],[108.6431,-6.9895],[108.643,-6.9834],[108.6395,-6.9817],[108.6398,-6.9748],[108.6428,-6.9698]]]}},{"type":"Feature","properties":{"name":"Cieurih","name_en":"Cieurih","admin_level":"7","osm_id":""},"geometry":{"type":"Polygon","coordinates":[[[108.6728,-6.9316],[108.6749,-6.9327],[108.6746,-6.9389],[108.6723,-6.9448],[108.6711,-6.9435],[108.6714,-6.9506],[108.6617,-6.9637],[108.6618,-6.9656],[108.6641,-6.967],[108.661,-6.9777],[108.6476,-6.9755],[108.6478,-6.9711],[108.6428,-6.9698],[108.6457,-6.9628],[108.6493,-6.9622],[108.6514,-6.9638],[108.6534,-6.9621],[108.657,-6.9627],[108.6582,-6.9597],[108.6616,-6.9576],[108.6633,-6.9527],[108.6621,-6.9481],[108.6634,-6.9494],[108.6656,-6.9453],[108.6639,-6.9414],[108.6641,-6.9403],[108.6661,-6.9406],[108.6655,-6.937],[108.6669,-6.9346],[108.6691,-6.9375],[108.6708,-6.9353],[108.6692,-6.9334],[108.6728,-6.9316]]]}},{"type":"Feature","properties":{"name":"Cihideunggirang","name_en":"Cihideunggirang","admin_level":"7","osm_id":""},"geometry":{"type":"Polygon","coordinates":[[[108.6107,-6.9803],[108.6071,-6.9802],[108.6047,-6.9769],[108.6061,-6.9758],[108.61,-6.9768],[108.6149,-6.9745],[108.6161,-6.9714],[108.6227,-6.9696],[108.622,-6.9822],[108.6159,-6.9825],[108.6137,-6.9801],[108.6107,-6.9803]]]}},{"type":"Feature","properties":{"name":"Cihideunghilir","name_en":"Cihideunghilir","admin_level":"7","osm_id":""},"geometry":{"type":"Polygon","coordinates":[[[108.6396,-6.9765],[108.6395,-6.9817],[108.643,-6.9834],[108.6431,-6.9895],[108.6237,-6.9874],[108.6246,-6.983],[108.6221,-6.9827],[108.6217,-6.9769],[108.6285,-6.9743],[108.6323,-6.9756],[108.6324,-6.9779],[108.6396,-6.9765]]]}},{"type":"Feature","properties":{"name":"Cikeusik","name_en":"Cikeusik","admin_level":"7","osm_id":""},"geometry":{"type":"Polygon","coordinates":[[[108.6674,-6.9568],[108.6714,-6.9506],[108.671,-6.9488],[108.6732,-6.948],[108.681,-6.9487],[108.6807,-6.9499],[108.6884,-6.9498],[108.6981,-6.9535],[108.6966,-6.9584],[108.6943,-6.9599],[108.687,-6.9583],[108.6826,-6.9588],[108.681,-6.9606],[108.6723,-6.9569],[108.6674,-6.9568]]]}},{"type":"Feature","properties":{"name":"Datar","name_en":"Datar","admin_level":"7","osm_id":""},"geometry":{"type":"Polygon","coordinates":[[[108.6634,-6.9827],[108.666,-6.9825],[108.6727,-6.9883],[108.6733,-6.9979],[108.6652,-6.9952],[108.6589,-6.9956],[108.6634,-6.9827]]]}},{"type":"Feature","properties":{"name":"Jatimulya","name_en":"Jatimulya","admin_level":"7","osm_id":""},"geometry":{"type":"Polygon","coordinates":[[[108.6749,-6.9327],[108.6779,-6.9297],[108.6747,-6.9281],[108.6782,-6.9263],[108.6779,-6.9252],[108.6818,-6.9253],[108.6828,-6.9233],[108.6855,-6.9269],[108.6815,-6.9287],[108.6832,-6.9315],[108.6898,-6.9317],[108.7009,-6.9361],[108.6955,-6.9397],[108.6948,-6.942],[108.7017,-6.9493],[108.6999,-6.9529],[108.6981,-6.9535],[108.6884,-6.9498],[108.6807,-6.9499],[108.6806,-6.9486],[108.671,-6.9488],[108.6711,-6.9435],[108.6723,-6.9448],[108.6746,-6.9389],[108.6749,-6.9327]]]}},{"type":"Feature","properties":{"name":"Kertawinangun","name_en":"Kertawinangun","admin_level":"7","osm_id":""},"geometry":{"type":"Polygon","coordinates":[[[108.6653,-6.9779],[108.6587,-6.9936],[108.6499,-6.9887],[108.6493,-6.9828],[108.6513,-6.9825],[108.6529,-6.9763],[108.6653,-6.9779]]]}},{"type":"Feature","properties":{"name":"Legok","name_en":"Legok","admin_level":"7","osm_id":""},"geometry":{"type":"Polygon","coordinates":[[[108.6762,-6.9773],[108.661,-6.9777],[108.6641,-6.967],[108.6618,-6.9656],[108.6617,-6.9637],[108.6674,-6.9568],[108.6723,-6.9569],[108.681,-6.9606],[108.6812,-6.969],[108.6762,-6.9773]]]}},{"type":"Feature","properties":{"name":"Nanggela","name_en":"Nanggela","admin_level":"7","osm_id":""},"geometry":{"type":"Polygon","coordinates":[[[108.6428,-6.9698],[108.6396,-6.9765],[108.6324,-6.9779],[108.6323,-6.9756],[108.6285,-6.9743],[108.6213,-6.9769],[108.6231,-6.9691],[108.6277,-6.9685],[108.6352,-6.9705],[108.6374,-6.967],[108.6439,-6.965],[108.6428,-6.9698]]]}}]}