{"type":"FeatureCollection","metadata":{"parent_osm_id":"gid_IDN_32_34_16_1","parent_name":"Uluan","parent_name_1":"SumateraUtara","parent_gid":"IDN.32.34.16_1","parent_level":"6","child_level":"7","count":15,"source":"GADM 4.1","generated":"2026-05-08"},"features":[{"type":"Feature","properties":{"name":"DolokNagodang","name_en":"DolokNagodang","admin_level":"7","osm_id":""},"geometry":{"type":"Polygon","coordinates":[[[99.0569,2.5009],[99.0675,2.4842],[99.0779,2.4744],[99.0822,2.467],[99.0763,2.4647],[99.061,2.4758],[99.0555,2.4975],[99.0569,2.5009]]]}},{"type":"Feature","properties":{"name":"DolokSaribuJanjiMatogu","name_en":"DolokSaribuJanjiMatogu","admin_level":"7","osm_id":""},"geometry":{"type":"Polygon","coordinates":[[[99.0652,2.4615],[99.0719,2.448],[99.0804,2.439],[99.0793,2.4312],[99.0655,2.4468],[99.0617,2.4595],[99.0652,2.4615]]]}},{"type":"Feature","properties":{"name":"LumbanBinanga","name_en":"LumbanBinanga","admin_level":"7","osm_id":""},"geometry":{"type":"Polygon","coordinates":[[[99.1202,2.4275],[99.1183,2.4232],[99.1156,2.4227],[99.1112,2.4343],[99.1069,2.4403],[99.0954,2.4496],[99.086,2.4546],[99.0844,2.4581],[99.077,2.4592],[99.0769,2.4649],[99.0822,2.467],[99.095,2.463],[99.0996,2.4593],[99.1031,2.4534],[99.1114,2.4467],[99.1202,2.4275]]]}},{"type":"Feature","properties":{"name":"LumbanHolbung","name_en":"LumbanHolbung","admin_level":"7","osm_id":""},"geometry":{"type":"Polygon","coordinates":[[[99.123,2.4332],[99.1213,2.4325],[99.1202,2.4275],[99.1114,2.4467],[99.1031,2.4534],[99.0996,2.4592],[99.1034,2.4641],[99.1079,2.4659],[99.1166,2.4574],[99.1203,2.4501],[99.123,2.4332]]]}},{"type":"Feature","properties":{"name":"LumbanNabolon","name_en":"LumbanNabolon","admin_level":"7","osm_id":""},"geometry":{"type":"Polygon","coordinates":[[[99.0792,2.4718],[99.0902,2.4793],[99.1079,2.4659],[99.1034,2.4641],[99.0996,2.4592],[99.095,2.463],[99.0827,2.4664],[99.0792,2.4718]]]}},{"type":"Feature","properties":{"name":"Marom","name_en":"Marom","admin_level":"7","osm_id":""},"geometry":{"type":"Polygon","coordinates":[[[99.0563,2.4361],[99.0585,2.4429],[99.0541,2.4441],[99.0576,2.4484],[99.0542,2.452],[99.0524,2.457],[99.0565,2.4579],[99.0611,2.4437],[99.0749,2.4235],[99.0809,2.4061],[99.0779,2.4059],[99.0746,2.4025],[99.07,2.4064],[99.0683,2.4154],[99.0614,2.4244],[99.0563,2.4361]]]}},{"type":"Feature","properties":{"name":"ParbagasanJanjiMatogu","name_en":"ParbagasanJanjiMatogu","admin_level":"7","osm_id":""},"geometry":{"type":"Polygon","coordinates":[[[99.0716,2.4679],[99.0769,2.4649],[99.0776,2.4526],[99.0812,2.4477],[99.0804,2.439],[99.0719,2.448],[99.0652,2.4615],[99.0716,2.4679]]]}},{"type":"Feature","properties":{"name":"ParhabinSaranJanjiMato","name_en":"ParhabinSaranJanjiMato","admin_level":"7","osm_id":""},"geometry":{"type":"Polygon","coordinates":[[[99.1156,2.4227],[99.114,2.4219],[99.1147,2.4169],[99.1132,2.4164],[99.1035,2.4374],[99.1001,2.4412],[99.0949,2.4438],[99.0794,2.4486],[99.077,2.4592],[99.0844,2.4581],[99.086,2.4546],[99.1039,2.4434],[99.1112,2.4343],[99.1156,2.4227]]]}},{"type":"Feature","properties":{"name":"Parik","name_en":"Parik","admin_level":"7","osm_id":""},"geometry":{"type":"Polygon","coordinates":[[[99.0524,2.457],[99.0487,2.4595],[99.0487,2.4643],[99.051,2.4661],[99.0477,2.4674],[99.0461,2.4701],[99.046,2.4753],[99.0491,2.4802],[99.0487,2.4832],[99.0585,2.4833],[99.061,2.4758],[99.0716,2.4679],[99.0671,2.4626],[99.0617,2.4595],[99.0524,2.457]]]}},{"type":"Feature","properties":{"name":"PartorJanjiMatogu","name_en":"PartorJanjiMatogu","admin_level":"7","osm_id":""},"geometry":{"type":"Polygon","coordinates":[[[99.1054,2.4152],[99.1006,2.4115],[99.0989,2.406],[99.0965,2.4093],[99.0937,2.4094],[99.0794,2.429],[99.0803,2.4369],[99.0864,2.4358],[99.088,2.4376],[99.0921,2.4358],[99.0999,2.428],[99.1054,2.4152]]]}},{"type":"Feature","properties":{"name":"PartoruanJanjiMatogu","name_en":"PartoruanJanjiMatogu","admin_level":"7","osm_id":""},"geometry":{"type":"Polygon","coordinates":[[[99.1132,2.4164],[99.1054,2.4152],[99.0999,2.428],[99.0921,2.4358],[99.088,2.4376],[99.0864,2.4358],[99.0803,2.4369],[99.0812,2.4477],[99.1001,2.4412],[99.1035,2.4374],[99.1132,2.4164]]]}},{"type":"Feature","properties":{"name":"Sibuntuon","name_en":"Sibuntuon","admin_level":"7","osm_id":""},"geometry":{"type":"Polygon","coordinates":[[[99.0937,2.4094],[99.0903,2.4101],[99.0812,2.4066],[99.0737,2.4262],[99.0611,2.4437],[99.0565,2.4579],[99.0617,2.4595],[99.0655,2.4468],[99.0793,2.4312],[99.0794,2.429],[99.0937,2.4094]]]}},{"type":"Feature","properties":{"name":"SigaolBarat","name_en":"SigaolBarat","admin_level":"7","osm_id":""},"geometry":{"type":"Polygon","coordinates":[[[99.0475,2.4141],[99.0532,2.4221],[99.0539,2.43],[99.0563,2.4361],[99.0619,2.4232],[99.0599,2.4044],[99.0639,2.3973],[99.0589,2.3987],[99.0504,2.3962],[99.0475,2.4141]]]}},{"type":"Feature","properties":{"name":"SigaolTimur","name_en":"SigaolTimur","admin_level":"7","osm_id":""},"geometry":{"type":"Polygon","coordinates":[[[99.0737,2.4029],[99.0683,2.4018],[99.0649,2.397],[99.0614,2.4007],[99.0596,2.4111],[99.0618,2.4192],[99.0614,2.4244],[99.0683,2.4154],[99.07,2.4064],[99.0737,2.4029]]]}},{"type":"Feature","properties":{"name":"SiregarAekNalas","name_en":"SiregarAekNalas","admin_level":"7","osm_id":""},"geometry":{"type":"Polygon","coordinates":[[[99.0504,2.3962],[99.0483,2.3956],[99.0434,2.4041],[99.0437,2.4082],[99.0416,2.4089],[99.0455,2.4143],[99.0475,2.4141],[99.0494,2.4072],[99.0504,2.3962]]]}}]}