{"type":"FeatureCollection","metadata":{"parent_osm_id":"gid_IDN_5_4_2_1","parent_name":"KampungMelayu","parent_name_1":"Bengkulu","parent_gid":"IDN.5.4.2_1","parent_level":"6","child_level":"7","count":6,"source":"GADM 4.1","generated":"2026-05-08"},"features":[{"type":"Feature","properties":{"name":"Kandang","name_en":"Kandang","admin_level":"7","osm_id":""},"geometry":{"type":"Polygon","coordinates":[[[102.3029,-3.8607],[102.3042,-3.8648],[102.3091,-3.8667],[102.3153,-3.8788],[102.3131,-3.882],[102.3073,-3.8849],[102.3031,-3.882],[102.3027,-3.8737],[102.2996,-3.8613],[102.3029,-3.8607]]]}},{"type":"Feature","properties":{"name":"KandangMas","name_en":"KandangMas","admin_level":"7","osm_id":""},"geometry":{"type":"Polygon","coordinates":[[[102.3153,-3.8788],[102.3091,-3.8667],[102.3042,-3.8648],[102.3029,-3.8607],[102.3066,-3.8529],[102.3092,-3.8512],[102.3136,-3.8535],[102.316,-3.8528],[102.313,-3.8569],[102.3265,-3.8717],[102.3153,-3.8788]]]}},{"type":"Feature","properties":{"name":"MuaraDua","name_en":"MuaraDua","admin_level":"7","osm_id":""},"geometry":{"type":"Polygon","coordinates":[[[102.2897,-3.8318],[102.2926,-3.8409],[102.2959,-3.8399],[102.3001,-3.8467],[102.3053,-3.8486],[102.3057,-3.8507],[102.3092,-3.8511],[102.3066,-3.8529],[102.3027,-3.861],[102.2996,-3.8613],[102.2926,-3.8463],[102.2844,-3.8369],[102.2897,-3.8318]]]}},{"type":"Feature","properties":{"name":"PadangSerai","name_en":"PadangSerai","admin_level":"7","osm_id":""},"geometry":{"type":"Polygon","coordinates":[[[102.3249,-3.8737],[102.3265,-3.8717],[102.3355,-3.8816],[102.3389,-3.8906],[102.3472,-3.8867],[102.3444,-3.8912],[102.3478,-3.9006],[102.333,-3.9099],[102.3185,-3.9105],[102.3154,-3.9125],[102.3045,-3.9041],[102.3103,-3.901],[102.3154,-3.9004],[102.3257,-3.8916],[102.3283,-3.8809],[102.3249,-3.8737]]]}},{"type":"Feature","properties":{"name":"SumberJaya","name_en":"SumberJaya","admin_level":"7","osm_id":""},"geometry":{"type":"Polygon","coordinates":[[[102.3153,-3.8788],[102.3249,-3.8737],[102.3283,-3.8809],[102.3257,-3.8916],[102.3154,-3.9004],[102.3103,-3.901],[102.3045,-3.9041],[102.3014,-3.9048],[102.2945,-3.9005],[102.294,-3.8974],[102.3012,-3.89],[102.3031,-3.882],[102.3073,-3.8849],[102.3131,-3.882],[102.3153,-3.8788]]]}},{"type":"Feature","properties":{"name":"TelukSepang","name_en":"TelukSepang","admin_level":"7","osm_id":""},"geometry":{"type":"Polygon","coordinates":[[[102.3045,-3.9041],[102.3154,-3.9125],[102.3134,-3.9155],[102.3162,-3.922],[102.3136,-3.9254],[102.3154,-3.9304],[102.3107,-3.9298],[102.3102,-3.937],[102.3039,-3.9417],[102.3033,-3.9448],[102.2994,-3.9411],[102.2875,-3.9396],[102.277,-3.9331],[102.2691,-3.9237],[102.2651,-3.916],[102.2656,-3.9121],[102.2724,-3.9057],[102.2755,-3.897],[102.2857,-3.9019],[102.294,-3.8974],[102.2945,-3.9005],[102.3014,-3.9048],[102.3045,-3.9041]]]}}]}