{"type":"FeatureCollection","metadata":{"parent_osm_id":"19013848","parent_name":"Winong","parent_name_1":"JawaTengah","parent_gid":"IDN.10.21.21_1","parent_level":"6","child_level":"7","count":30,"source":"GADM 4.1","generated":"2026-05-09"},"features":[{"type":"Feature","properties":{"name":"Blingijati","name_en":"Blingijati","admin_level":"7","osm_id":""},"geometry":{"type":"Polygon","coordinates":[[[111.0924,-6.8254],[111.0933,-6.8272],[111.0916,-6.8365],[111.09,-6.8366],[111.0861,-6.8353],[111.0852,-6.8321],[111.0797,-6.8306],[111.0807,-6.8253],[111.0787,-6.8218],[111.081,-6.822],[111.0831,-6.8197],[111.0871,-6.8236],[111.0924,-6.8254]]]}},{"type":"Feature","properties":{"name":"Bringinwareng","name_en":"Bringinwareng","admin_level":"7","osm_id":""},"geometry":{"type":"Polygon","coordinates":[[[111.071,-6.796],[111.0684,-6.7949],[111.0683,-6.7919],[111.0654,-6.7905],[111.0672,-6.7836],[111.0759,-6.7848],[111.0747,-6.787],[111.0788,-6.7887],[111.0785,-6.7916],[111.0743,-6.794],[111.0739,-6.7962],[111.071,-6.796]]]}},{"type":"Feature","properties":{"name":"Bumiharjo","name_en":"Bumiharjo","admin_level":"7","osm_id":""},"geometry":{"type":"Polygon","coordinates":[[[111.094,-6.8023],[111.0878,-6.7995],[111.088,-6.7978],[111.0898,-6.7977],[111.0871,-6.7954],[111.0886,-6.7942],[111.0832,-6.7926],[111.0887,-6.7928],[111.0903,-6.7897],[111.0939,-6.7908],[111.0959,-6.7874],[111.1018,-6.7923],[111.1048,-6.7982],[111.104,-6.8008],[111.1062,-6.8013],[111.1063,-6.8029],[111.094,-6.8023]]]}},{"type":"Feature","properties":{"name":"Danyangmulyo","name_en":"Danyangmulyo","admin_level":"7","osm_id":""},"geometry":{"type":"Polygon","coordinates":[[[111.0912,-6.8364],[111.0933,-6.8272],[111.0925,-6.8246],[111.1011,-6.8267],[111.1031,-6.831],[111.1013,-6.8313],[111.1007,-6.8358],[111.1028,-6.8431],[111.1028,-6.8506],[111.1015,-6.8518],[111.1029,-6.8556],[111.1003,-6.8579],[111.0952,-6.8555],[111.094,-6.8576],[111.0909,-6.8534],[111.0911,-6.85],[111.088,-6.8451],[111.0904,-6.8437],[111.0912,-6.8364]]]}},{"type":"Feature","properties":{"name":"Degan","name_en":"Degan","admin_level":"7","osm_id":""},"geometry":{"type":"Polygon","coordinates":[[[111.0754,-6.7789],[111.0762,-6.7761],[111.0781,-6.7764],[111.0815,-6.7733],[111.0881,-6.7738],[111.0857,-6.7821],[111.0867,-6.7837],[111.0848,-6.7845],[111.0761,-6.7823],[111.0754,-6.7789]]]}},{"type":"Feature","properties":{"name":"Godo","name_en":"Godo","admin_level":"7","osm_id":""},"geometry":{"type":"Polygon","coordinates":[[[111.1289,-6.8889],[111.1273,-6.8933],[111.1185,-6.8972],[111.1127,-6.8981],[111.1112,-6.8955],[111.1092,-6.8951],[111.101,-6.9033],[111.0997,-6.9008],[111.1011,-6.8981],[111.0952,-6.8949],[111.0941,-6.8926],[111.0912,-6.8926],[111.0881,-6.8885],[111.0908,-6.8864],[111.0853,-6.8833],[111.0852,-6.8797],[111.0822,-6.8793],[111.0814,-6.8749],[111.0831,-6.8734],[111.0818,-6.8677],[111.0858,-6.869],[111.0868,-6.8679],[111.0875,-6.8697],[111.0945,-6.8689],[111.0989,-6.875],[111.1038,-6.873],[111.1038,-6.8782],[111.107,-6.8812],[111.1099,-6.8807],[111.1122,-6.8841],[111.1181,-6.8822],[111.1186,-6.884],[111.12,-6.8831],[111.1183,-6.8868],[111.1195,-6.8901],[111.1273,-6.8879],[111.1289,-6.8889]]]}},{"type":"Feature","properties":{"name":"Gunungpanti","name_en":"Gunungpanti","admin_level":"7","osm_id":""},"geometry":{"type":"Polygon","coordinates":[[[111.111,-6.9126],[111.1057,-6.9132],[111.1056,-6.9144],[111.0938,-6.9139],[111.0907,-6.9129],[111.0861,-6.9075],[111.084,-6.9082],[111.082,-6.9062],[111.0776,-6.9059],[111.0777,-6.8999],[111.0822,-6.8957],[111.0809,-6.8903],[111.0777,-6.8862],[111.0775,-6.8816],[111.0753,-6.8792],[111.077,-6.8737],[111.0749,-6.8714],[111.0719,-6.8717],[111.0706,-6.8696],[111.0703,-6.8715],[111.0673,-6.8693],[111.0693,-6.8653],[111.0689,-6.8618],[111.0721,-6.8564],[111.0821,-6.8581],[111.0822,-6.8793],[111.0852,-6.8797],[111.0853,-6.8833],[111.0908,-6.8864],[111.0881,-6.8885],[111.0912,-6.8926],[111.0941,-6.8926],[111.0952,-6.8949],[111.1011,-6.8981],[111.0997,-6.9008],[111.1009,-6.9032],[111.1092,-6.8951],[111.113,-6.8981],[111.1203,-6.896],[111.115,-6.9064],[111.1108,-6.9094],[111.111,-6.9126]]]}},{"type":"Feature","properties":{"name":"Guyangan","name_en":"Guyangan","admin_level":"7","osm_id":""},"geometry":{"type":"Polygon","coordinates":[[[111.1225,-6.86],[111.1242,-6.8627],[111.1262,-6.8619],[111.1262,-6.866],[111.1305,-6.8691],[111.1306,-6.8715],[111.1288,-6.8731],[111.1294,-6.8776],[111.1335,-6.8832],[111.1292,-6.8887],[111.1273,-6.8879],[111.1195,-6.8901],[111.1183,-6.8868],[111.1202,-6.8833],[111.1182,-6.8837],[111.1199,-6.8819],[111.1199,-6.8757],[111.1184,-6.8742],[111.1191,-6.8684],[111.1148,-6.8597],[111.1225,-6.86]]]}},{"type":"Feature","properties":{"name":"Karangkonang","name_en":"Karangkonang","admin_level":"7","osm_id":""},"geometry":{"type":"Polygon","coordinates":[[[111.1182,-6.8051],[111.1182,-6.8087],[111.1219,-6.8094],[111.1236,-6.8119],[111.1198,-6.8124],[111.1184,-6.8147],[111.1146,-6.814],[111.1139,-6.8169],[111.1119,-6.817],[111.1107,-6.8142],[111.1079,-6.8135],[111.109,-6.8114],[111.1062,-6.8083],[111.1066,-6.8045],[111.1182,-6.8051]]]}},{"type":"Feature","properties":{"name":"Karangsumber","name_en":"Karangsumber","admin_level":"7","osm_id":""},"geometry":{"type":"Polygon","coordinates":[[[111.0979,-6.8574],[111.1003,-6.8579],[111.1025,-6.8563],[111.1048,-6.8519],[111.1132,-6.8576],[111.1191,-6.8682],[111.1199,-6.8821],[111.1122,-6.8841],[111.1099,-6.8807],[111.107,-6.8812],[111.1042,-6.879],[111.1031,-6.8749],[111.1061,-6.872],[111.1017,-6.8675],[111.1037,-6.8653],[111.1021,-6.863],[111.0978,-6.8615],[111.0979,-6.8574]]]}},{"type":"Feature","properties":{"name":"Kebolampang","name_en":"Kebolampang","admin_level":"7","osm_id":""},"geometry":{"type":"Polygon","coordinates":[[[111.1131,-6.8335],[111.1096,-6.8373],[111.1111,-6.8392],[111.1118,-6.8381],[111.1146,-6.8389],[111.1134,-6.8405],[111.1156,-6.8481],[111.115,-6.8491],[111.1135,-6.8479],[111.1128,-6.8495],[111.1102,-6.8486],[111.1095,-6.8457],[111.1028,-6.8454],[111.1007,-6.8358],[111.1013,-6.8313],[111.1101,-6.8316],[111.1131,-6.8335]]]}},{"type":"Feature","properties":{"name":"Kebowan","name_en":"Kebowan","admin_level":"7","osm_id":""},"geometry":{"type":"Polygon","coordinates":[[[111.0924,-6.8254],[111.0868,-6.8234],[111.0851,-6.819],[111.0872,-6.8158],[111.0897,-6.8163],[111.0918,-6.8141],[111.0914,-6.8092],[111.094,-6.8084],[111.0988,-6.8114],[111.0971,-6.8225],[111.0953,-6.8222],[111.095,-6.8244],[111.0924,-6.8254]]]}},{"type":"Feature","properties":{"name":"Klecoregonang","name_en":"Klecoregonang","admin_level":"7","osm_id":""},"geometry":{"type":"Polygon","coordinates":[[[111.0887,-6.8004],[111.094,-6.8023],[111.0942,-6.8042],[111.0931,-6.8084],[111.0914,-6.8092],[111.0918,-6.8141],[111.0897,-6.8163],[111.0866,-6.814],[111.0853,-6.808],[111.087,-6.8014],[111.0887,-6.8004]]]}},{"type":"Feature","properties":{"name":"Kropak","name_en":"Kropak","admin_level":"7","osm_id":""},"geometry":{"type":"Polygon","coordinates":[[[111.0904,-6.8505],[111.094,-6.8576],[111.095,-6.8556],[111.0983,-6.8566],[111.0978,-6.8615],[111.1021,-6.863],[111.1037,-6.8653],[111.1017,-6.8675],[111.1059,-6.8727],[111.0989,-6.875],[111.0945,-6.8689],[111.0875,-6.8697],[111.0868,-6.8679],[111.0858,-6.869],[111.0816,-6.8677],[111.0824,-6.8574],[111.0854,-6.8553],[111.0878,-6.8499],[111.0904,-6.8505]]]}},{"type":"Feature","properties":{"name":"Kudur","name_en":"Kudur","admin_level":"7","osm_id":""},"geometry":{"type":"Polygon","coordinates":[[[111.0764,-6.8563],[111.0754,-6.8523],[111.0783,-6.8514],[111.0808,-6.8463],[111.0837,-6.8444],[111.0841,-6.8399],[111.0872,-6.8403],[111.0874,-6.8354],[111.0912,-6.8364],[111.0904,-6.8437],[111.088,-6.8451],[111.0908,-6.8506],[111.0878,-6.8499],[111.0854,-6.8553],[111.0814,-6.8585],[111.0764,-6.8563]]]}},{"type":"Feature","properties":{"name":"Mintorahayu","name_en":"Mintorahayu","admin_level":"7","osm_id":""},"geometry":{"type":"Polygon","coordinates":[[[111.0747,-6.8225],[111.0729,-6.8216],[111.0719,-6.8181],[111.0741,-6.8063],[111.0777,-6.8075],[111.0785,-6.8093],[111.0799,-6.8079],[111.0856,-6.8085],[111.0866,-6.814],[111.0886,-6.8161],[111.0869,-6.8161],[111.0852,-6.8208],[111.0831,-6.8197],[111.081,-6.822],[111.0788,-6.8212],[111.0792,-6.8238],[111.0747,-6.8225]]]}},{"type":"Feature","properties":{"name":"Padangan","name_en":"Padangan","admin_level":"7","osm_id":""},"geometry":{"type":"Polygon","coordinates":[[[111.0732,-6.8258],[111.0747,-6.8225],[111.0805,-6.8242],[111.0797,-6.8306],[111.0862,-6.8332],[111.0872,-6.8403],[111.0841,-6.8399],[111.0849,-6.8417],[111.0826,-6.8452],[111.0778,-6.8447],[111.0752,-6.8418],[111.075,-6.8394],[111.0775,-6.8375],[111.0752,-6.831],[111.0727,-6.829],[111.0732,-6.8258]]]}},{"type":"Feature","properties":{"name":"Pagendisan","name_en":"Pagendisan","admin_level":"7","osm_id":""},"geometry":{"type":"Polygon","coordinates":[[[111.1231,-6.8124],[111.1242,-6.8137],[111.1201,-6.8152],[111.1191,-6.8174],[111.1177,-6.8219],[111.1187,-6.8257],[111.1159,-6.8276],[111.117,-6.8313],[111.1158,-6.8305],[111.1126,-6.8334],[111.1099,-6.8315],[111.109,-6.8265],[111.1068,-6.8245],[111.1081,-6.8205],[111.1108,-6.8204],[111.1146,-6.814],[111.1184,-6.8147],[111.1198,-6.8124],[111.1231,-6.8124]]]}},{"type":"Feature","properties":{"name":"Pekalongan","name_en":"Pekalongan","admin_level":"7","osm_id":""},"geometry":{"type":"Polygon","coordinates":[[[111.1031,-6.831],[111.101,-6.8278],[111.1015,-6.8091],[111.1062,-6.8076],[111.1074,-6.8109],[111.109,-6.8114],[111.1079,-6.8135],[111.1107,-6.8142],[111.1122,-6.8176],[111.1108,-6.8204],[111.1083,-6.8203],[111.1068,-6.8245],[111.109,-6.8265],[111.1099,-6.8315],[111.1031,-6.831]]]}},{"type":"Feature","properties":{"name":"Pohgading","name_en":"Pohgading","admin_level":"7","osm_id":""},"geometry":{"type":"Polygon","coordinates":[[[111.1102,-6.9129],[111.1108,-6.9159],[111.1053,-6.9188],[111.1007,-6.9265],[111.1015,-6.9275],[111.099,-6.9284],[111.0967,-6.9332],[111.0926,-6.9342],[111.0904,-6.9371],[111.0814,-6.9386],[111.0783,-6.9341],[111.0795,-6.9305],[111.0776,-6.9283],[111.0791,-6.9225],[111.0758,-6.9156],[111.0775,-6.9057],[111.082,-6.9062],[111.084,-6.9082],[111.0861,-6.9075],[111.0907,-6.9129],[111.0938,-6.9139],[111.1056,-6.9144],[111.1057,-6.9132],[111.1102,-6.9129]]]}},{"type":"Feature","properties":{"name":"Pulorejo","name_en":"Pulorejo","admin_level":"7","osm_id":""},"geometry":{"type":"Polygon","coordinates":[[[111.1063,-6.8029],[111.1036,-6.7981],[111.1063,-6.7896],[111.1059,-6.7851],[111.11,-6.785],[111.1126,-6.7928],[111.1101,-6.7951],[111.11,-6.8044],[111.1068,-6.8046],[111.1063,-6.8029]]]}},{"type":"Feature","properties":{"name":"Sarimulyo","name_en":"Sarimulyo","admin_level":"7","osm_id":""},"geometry":{"type":"Polygon","coordinates":[[[111.1289,-6.7771],[111.1275,-6.7779],[111.131,-6.7778],[111.1305,-6.7797],[111.1342,-6.781],[111.1347,-6.7838],[111.1323,-6.785],[111.1324,-6.7886],[111.1424,-6.7916],[111.1416,-6.7943],[111.1397,-6.7936],[111.1375,-6.7968],[111.1242,-6.7946],[111.1234,-6.7867],[111.1192,-6.7875],[111.1183,-6.784],[111.1133,-6.78],[111.1142,-6.7759],[111.1167,-6.7772],[111.1176,-6.7756],[111.1292,-6.7754],[111.1289,-6.7771]]]}},{"type":"Feature","properties":{"name":"Serutsadang","name_en":"Serutsadang","admin_level":"7","osm_id":""},"geometry":{"type":"Polygon","coordinates":[[[111.0975,-6.7806],[111.1003,-6.7784],[111.1032,-6.7798],[111.1034,-6.7844],[111.1064,-6.7843],[111.1041,-6.7961],[111.1026,-6.796],[111.1001,-6.7903],[111.0968,-6.7883],[111.099,-6.7857],[111.0975,-6.7806]]]}},{"type":"Feature","properties":{"name":"Sugihan","name_en":"Sugihan","admin_level":"7","osm_id":""},"geometry":{"type":"Polygon","coordinates":[[[111.1126,-6.8495],[111.1122,-6.8516],[111.115,-6.8502],[111.1149,-6.8525],[111.1177,-6.8533],[111.1191,-6.852],[111.1207,-6.858],[111.123,-6.8587],[111.1225,-6.86],[111.1148,-6.8597],[111.1048,-6.8519],[111.1043,-6.8548],[111.1021,-6.8546],[111.1028,-6.8454],[111.1095,-6.8457],[111.1102,-6.8486],[111.1126,-6.8495]]]}},{"type":"Feature","properties":{"name":"Sumbermulyo","name_en":"Sumbermulyo","admin_level":"7","osm_id":""},"geometry":{"type":"Polygon","coordinates":[[[111.0672,-6.7836],[111.0651,-6.7827],[111.0658,-6.7798],[111.0717,-6.7783],[111.0754,-6.7789],[111.0761,-6.7823],[111.083,-6.7846],[111.0894,-6.7836],[111.0937,-6.7799],[111.0968,-6.7801],[111.099,-6.7857],[111.0986,-6.7877],[111.0947,-6.788],[111.0939,-6.7908],[111.0903,-6.7897],[111.0887,-6.7928],[111.0866,-6.7928],[111.0819,-6.7918],[111.0814,-6.7895],[111.0747,-6.787],[111.0759,-6.7848],[111.0672,-6.7836]]]}},{"type":"Feature","properties":{"name":"Tanggel","name_en":"Tanggel","admin_level":"7","osm_id":""},"geometry":{"type":"Polygon","coordinates":[[[111.1188,-6.794],[111.1217,-6.7977],[111.1207,-6.8006],[111.1224,-6.8049],[111.1205,-6.8061],[111.1104,-6.8047],[111.1101,-6.7951],[111.1126,-6.7933],[111.1188,-6.794]]]}},{"type":"Feature","properties":{"name":"Tawangrejo","name_en":"Tawangrejo","admin_level":"7","osm_id":""},"geometry":{"type":"Polygon","coordinates":[[[111.0744,-6.806],[111.0731,-6.8047],[111.0742,-6.7942],[111.0785,-6.7916],[111.0787,-6.7893],[111.0814,-6.7895],[111.0818,-6.7917],[111.0851,-6.794],[111.0886,-6.7942],[111.0871,-6.7954],[111.0898,-6.7977],[111.088,-6.7978],[111.0886,-6.8009],[111.087,-6.8014],[111.0856,-6.8085],[111.0799,-6.8079],[111.0785,-6.8093],[111.0744,-6.806]]]}},{"type":"Feature","properties":{"name":"Tlogorejo","name_en":"Tlogorejo","admin_level":"7","osm_id":""},"geometry":{"type":"Polygon","coordinates":[[[111.1304,-6.828],[111.1316,-6.829],[111.131,-6.8322],[111.1269,-6.8318],[111.1265,-6.8337],[111.1245,-6.832],[111.124,-6.8347],[111.1229,-6.8322],[111.1205,-6.8326],[111.1187,-6.835],[111.1167,-6.8333],[111.1141,-6.8335],[111.1148,-6.8313],[111.117,-6.8313],[111.116,-6.8272],[111.1187,-6.8257],[111.1177,-6.8219],[111.1215,-6.8143],[111.1242,-6.8137],[111.1261,-6.8154],[111.1246,-6.8186],[111.1283,-6.8184],[111.1286,-6.8236],[111.1309,-6.8252],[111.1283,-6.8255],[111.1286,-6.8275],[111.1304,-6.828]]]}},{"type":"Feature","properties":{"name":"Winong","name_en":"Winong","admin_level":"7","osm_id":""},"geometry":{"type":"Polygon","coordinates":[[[111.094,-6.8023],[111.1068,-6.8029],[111.1062,-6.8076],[111.1015,-6.8091],[111.1011,-6.8267],[111.0958,-6.8263],[111.0949,-6.8242],[111.098,-6.8199],[111.0988,-6.8114],[111.0931,-6.8084],[111.094,-6.8023]]]}},{"type":"Feature","properties":{"name":"Wirun","name_en":"Wirun","admin_level":"7","osm_id":""},"geometry":{"type":"Polygon","coordinates":[[[111.1064,-6.7843],[111.1095,-6.7774],[111.1138,-6.7772],[111.1133,-6.78],[111.1183,-6.784],[111.1192,-6.7875],[111.1234,-6.7867],[111.1234,-6.7927],[111.1217,-6.7942],[111.1194,-6.7921],[111.1199,-6.7941],[111.1121,-6.7935],[111.1109,-6.7854],[111.1064,-6.7843]]]}}]}