{"type":"FeatureCollection","metadata":{"parent_osm_id":"gid_IDN_21_10_6_1","parent_name":"Ruteng","parent_name_1":"NusaTenggaraTimur","parent_gid":"IDN.21.10.6_1","parent_level":"6","child_level":"7","count":16,"source":"GADM 4.1","generated":"2026-05-09"},"features":[{"type":"Feature","properties":{"name":"BangkaLao","name_en":"BangkaLao","admin_level":"7","osm_id":""},"geometry":{"type":"Polygon","coordinates":[[[120.3722,-8.6083],[120.373,-8.6054],[120.378,-8.6038],[120.3892,-8.605],[120.401,-8.615],[120.4087,-8.6261],[120.4066,-8.6295],[120.4052,-8.6274],[120.3969,-8.6237],[120.3936,-8.6244],[120.387,-8.622],[120.3894,-8.6158],[120.3881,-8.6149],[120.3889,-8.612],[120.3836,-8.6102],[120.3825,-8.6068],[120.3722,-8.6083]]]}},{"type":"Feature","properties":{"name":"BelangTuri","name_en":"BelangTuri","admin_level":"7","osm_id":""},"geometry":{"type":"Polygon","coordinates":[[[120.3466,-8.5977],[120.3393,-8.5964],[120.3352,-8.5934],[120.3265,-8.5942],[120.3253,-8.5876],[120.3232,-8.5849],[120.3148,-8.5831],[120.3198,-8.5794],[120.349,-8.5784],[120.3526,-8.583],[120.3556,-8.5839],[120.3563,-8.5876],[120.3548,-8.591],[120.3466,-8.5977]]]}},{"type":"Feature","properties":{"name":"BentengKuwu","name_en":"BentengKuwu","admin_level":"7","osm_id":""},"geometry":{"type":"Polygon","coordinates":[[[120.4352,-8.5914],[120.4347,-8.5969],[120.4286,-8.6051],[120.4224,-8.603],[120.4227,-8.5942],[120.4211,-8.5902],[120.4187,-8.5891],[120.4201,-8.5842],[120.4181,-8.5844],[120.4158,-8.5874],[120.4173,-8.594],[120.4072,-8.5923],[120.4074,-8.5885],[120.4061,-8.5876],[120.3983,-8.5912],[120.3966,-8.5855],[120.3916,-8.5836],[120.3924,-8.5814],[120.4032,-8.5819],[120.406,-8.5768],[120.4111,-8.5782],[120.4145,-8.5817],[120.4295,-8.5843],[120.4329,-8.5866],[120.4352,-8.5914]]]}},{"type":"Feature","properties":{"name":"BeoRahong","name_en":"BeoRahong","admin_level":"7","osm_id":""},"geometry":{"type":"Polygon","coordinates":[[[120.4026,-8.5549],[120.4065,-8.5682],[120.4057,-8.5793],[120.4029,-8.5821],[120.3924,-8.5814],[120.3913,-8.5836],[120.389,-8.5821],[120.3858,-8.5855],[120.3857,-8.5836],[120.3838,-8.5836],[120.3807,-8.5779],[120.3822,-8.5742],[120.3784,-8.5656],[120.3841,-8.5634],[120.3878,-8.5599],[120.3949,-8.5589],[120.4026,-8.5549]]]}},{"type":"Feature","properties":{"name":"Bulan","name_en":"Bulan","admin_level":"7","osm_id":""},"geometry":{"type":"Polygon","coordinates":[[[120.3495,-8.6374],[120.3491,-8.6251],[120.3475,-8.6219],[120.3576,-8.6154],[120.3602,-8.6059],[120.3661,-8.6042],[120.3686,-8.6004],[120.3707,-8.5998],[120.3719,-8.6109],[120.3753,-8.6107],[120.3764,-8.6124],[120.375,-8.6129],[120.3746,-8.6178],[120.3728,-8.6205],[120.3711,-8.6203],[120.3644,-8.6316],[120.3644,-8.6378],[120.3613,-8.6423],[120.359,-8.6559],[120.3561,-8.654],[120.355,-8.655],[120.3528,-8.6511],[120.3492,-8.6496],[120.3467,-8.6458],[120.3495,-8.6374]]]}},{"type":"Feature","properties":{"name":"CompangDalo","name_en":"CompangDalo","admin_level":"7","osm_id":""},"geometry":{"type":"Polygon","coordinates":[[[120.3975,-8.612],[120.3892,-8.605],[120.3855,-8.6039],[120.378,-8.6038],[120.372,-8.6065],[120.3703,-8.6034],[120.3715,-8.6012],[120.3704,-8.601],[120.3732,-8.5995],[120.3729,-8.597],[120.3749,-8.5953],[120.378,-8.5949],[120.3791,-8.5909],[120.3821,-8.591],[120.388,-8.5951],[120.3923,-8.5933],[120.3961,-8.5969],[120.3962,-8.6016],[120.3984,-8.6014],[120.3968,-8.6031],[120.3995,-8.603],[120.403,-8.6095],[120.3975,-8.612]]]}},{"type":"Feature","properties":{"name":"Cumbi","name_en":"Cumbi","admin_level":"7","osm_id":""},"geometry":{"type":"Polygon","coordinates":[[[120.4238,-8.6281],[120.4218,-8.639],[120.4108,-8.631],[120.407,-8.63],[120.4085,-8.6255],[120.3975,-8.612],[120.4115,-8.6057],[120.4099,-8.597],[120.4056,-8.5933],[120.4072,-8.5923],[120.4128,-8.5939],[120.4135,-8.6066],[120.4172,-8.6085],[120.4167,-8.6122],[120.4207,-8.625],[120.4238,-8.6281]]]}},{"type":"Feature","properties":{"name":"Goloworok","name_en":"Goloworok","admin_level":"7","osm_id":""},"geometry":{"type":"Polygon","coordinates":[[[120.3203,-8.5666],[120.3325,-8.5583],[120.3427,-8.571],[120.3517,-8.5719],[120.3528,-8.5765],[120.3508,-8.5799],[120.3454,-8.578],[120.3198,-8.5794],[120.3159,-8.5826],[120.3148,-8.5831],[120.3175,-8.5785],[120.3203,-8.5666]]]}},{"type":"Feature","properties":{"name":"Kakor","name_en":"Kakor","admin_level":"7","osm_id":""},"geometry":{"type":"Polygon","coordinates":[[[120.4057,-8.5636],[120.4065,-8.561],[120.4123,-8.5565],[120.4231,-8.5579],[120.4268,-8.5608],[120.4283,-8.5713],[120.4267,-8.5723],[120.4285,-8.5796],[120.4267,-8.5831],[120.4145,-8.5817],[120.4111,-8.5782],[120.406,-8.5768],[120.4057,-8.5636]]]}},{"type":"Feature","properties":{"name":"Meler","name_en":"Meler","admin_level":"7","osm_id":""},"geometry":{"type":"Polygon","coordinates":[[[120.3517,-8.5719],[120.3648,-8.5666],[120.3784,-8.5656],[120.3819,-8.5732],[120.3818,-8.5763],[120.3773,-8.5778],[120.3744,-8.5882],[120.375,-8.5914],[120.3708,-8.5948],[120.3697,-8.5984],[120.3673,-8.5964],[120.3668,-8.592],[120.363,-8.5912],[120.3597,-8.588],[120.3583,-8.5888],[120.3556,-8.5839],[120.351,-8.5811],[120.3528,-8.5763],[120.3517,-8.5719]]]}},{"type":"Feature","properties":{"name":"PocoLikang","name_en":"PocoLikang","admin_level":"7","osm_id":""},"geometry":{"type":"Polygon","coordinates":[[[120.4286,-8.6051],[120.424,-8.6139],[120.4253,-8.6191],[120.4236,-8.6226],[120.4238,-8.6281],[120.4207,-8.625],[120.4167,-8.6122],[120.4172,-8.6085],[120.4137,-8.6071],[120.4131,-8.6054],[120.4138,-8.5997],[120.4122,-8.5929],[120.4173,-8.594],[120.4158,-8.5876],[120.4181,-8.5844],[120.4201,-8.5842],[120.4188,-8.5892],[120.4211,-8.5902],[120.4227,-8.5942],[120.4224,-8.603],[120.4286,-8.6051]]]}},{"type":"Feature","properties":{"name":"PongLao","name_en":"PongLao","admin_level":"7","osm_id":""},"geometry":{"type":"Polygon","coordinates":[[[120.3722,-8.6083],[120.3825,-8.6068],[120.3836,-8.6102],[120.3889,-8.612],[120.3881,-8.6149],[120.3894,-8.6158],[120.387,-8.622],[120.3744,-8.6212],[120.3698,-8.6224],[120.3746,-8.6178],[120.375,-8.6129],[120.3765,-8.6123],[120.3753,-8.6107],[120.3719,-8.6109],[120.3722,-8.6083]]]}},{"type":"Feature","properties":{"name":"PongLeko","name_en":"PongLeko","admin_level":"7","osm_id":""},"geometry":{"type":"Polygon","coordinates":[[[120.3472,-8.6229],[120.3437,-8.6202],[120.3414,-8.6089],[120.3427,-8.6022],[120.3548,-8.591],[120.3564,-8.5868],[120.3668,-8.592],[120.3673,-8.5964],[120.3697,-8.5986],[120.3661,-8.6042],[120.3602,-8.6059],[120.3576,-8.6154],[120.3472,-8.6229]]]}},{"type":"Feature","properties":{"name":"PongMurung","name_en":"PongMurung","admin_level":"7","osm_id":""},"geometry":{"type":"Polygon","coordinates":[[[120.3983,-8.5912],[120.4037,-8.5897],[120.4046,-8.5877],[120.4072,-8.588],[120.4076,-8.5916],[120.4056,-8.5933],[120.4099,-8.597],[120.4115,-8.6057],[120.403,-8.6095],[120.3995,-8.603],[120.3971,-8.6036],[120.3984,-8.6014],[120.396,-8.6014],[120.3962,-8.5971],[120.3947,-8.5954],[120.3983,-8.5912]]]}},{"type":"Feature","properties":{"name":"Rai","name_en":"Rai","admin_level":"7","osm_id":""},"geometry":{"type":"Polygon","coordinates":[[[120.3916,-8.5836],[120.3966,-8.5855],[120.3986,-8.5894],[120.3948,-8.5956],[120.3908,-8.593],[120.388,-8.5951],[120.3799,-8.5905],[120.3839,-8.5837],[120.3856,-8.5834],[120.386,-8.5856],[120.389,-8.5821],[120.3916,-8.5836]]]}},{"type":"Feature","properties":{"name":"WaeBelang","name_en":"WaeBelang","admin_level":"7","osm_id":""},"geometry":{"type":"Polygon","coordinates":[[[120.3809,-8.5768],[120.3837,-8.5845],[120.3805,-8.5908],[120.3783,-8.592],[120.378,-8.5949],[120.3729,-8.597],[120.373,-8.5998],[120.3691,-8.6004],[120.3707,-8.5949],[120.375,-8.5914],[120.3744,-8.5882],[120.3773,-8.5778],[120.3809,-8.5768]]]}}]}