{"type":"FeatureCollection","metadata":{"parent_osm_id":"gid_IDN_12_1_14_1","parent_name":"SungaiRaya","parent_name_1":"KalimantanBarat","parent_gid":"IDN.12.1.14_1","parent_level":"6","child_level":"7","count":5,"source":"GADM 4.1","generated":"2026-05-09"},"features":[{"type":"Feature","properties":{"name":"SungaiDuri","name_en":"SungaiDuri","admin_level":"7","osm_id":""},"geometry":{"type":"Polygon","coordinates":[[[109.0304,0.575],[109.0308,0.5693],[109.0278,0.5703],[109.0272,0.5677],[109.0232,0.5693],[109.0213,0.5669],[109.0112,0.5647],[109.0111,0.5606],[109.0074,0.5616],[109.0089,0.5577],[109.0026,0.5536],[109.0015,0.5502],[109.0031,0.546],[108.9988,0.544],[108.9987,0.5417],[108.996,0.5417],[108.9931,0.5446],[108.9937,0.5476],[108.9909,0.5538],[108.9887,0.5511],[108.9824,0.548],[108.9826,0.5402],[108.9791,0.542],[108.9782,0.5386],[108.974,0.5375],[108.9702,0.5324],[108.972,0.5301],[108.9709,0.529],[108.9675,0.5287],[108.9666,0.5322],[108.9653,0.5292],[108.9621,0.5284],[108.9586,0.5314],[108.9564,0.5279],[108.952,0.5293],[108.9494,0.5342],[108.9504,0.5395],[108.9475,0.5384],[108.9462,0.5407],[108.9314,0.5462],[108.9335,0.5486],[108.9289,0.5514],[108.93,0.5526],[108.9325,0.5516],[108.9295,0.5534],[108.9305,0.5585],[108.9285,0.5586],[108.9277,0.5563],[108.9258,0.5574],[108.9278,0.5593],[108.9264,0.5612],[108.9267,0.5657],[108.9291,0.5751],[108.9305,0.5926],[108.9428,0.5934],[108.965,0.5876],[108.9732,0.5877],[108.9883,0.5893],[109.0239,0.6027],[109.0303,0.6012],[109.0293,0.5978],[109.0312,0.5952],[109.0307,0.5898],[109.0339,0.5804],[109.0304,0.575]]]}},{"type":"Feature","properties":{"name":"SungaiJagaA","name_en":"SungaiJagaA","admin_level":"7","osm_id":""},"geometry":{"type":"Polygon","coordinates":[[[108.9713,0.6275],[108.9826,0.6154],[108.9894,0.6047],[108.993,0.5909],[108.965,0.5876],[108.9428,0.5934],[108.9305,0.5926],[108.9293,0.6058],[108.9534,0.6103],[108.9621,0.6154],[108.9713,0.6275]]]}},{"type":"Feature","properties":{"name":"SungaiJagaB","name_en":"SungaiJagaB","admin_level":"7","osm_id":""},"geometry":{"type":"Polygon","coordinates":[[[108.9686,0.6308],[108.9713,0.6275],[108.9706,0.6257],[108.9621,0.6154],[108.9534,0.6103],[108.9293,0.6058],[108.9284,0.6147],[108.9542,0.6218],[108.9686,0.6308]]]}},{"type":"Feature","properties":{"name":"SungaiPangkalanI","name_en":"SungaiPangkalanI","admin_level":"7","osm_id":""},"geometry":{"type":"Polygon","coordinates":[[[108.96,0.6416],[108.9686,0.6308],[108.9676,0.6298],[108.9542,0.6218],[108.9284,0.6147],[108.9263,0.6277],[108.9362,0.6295],[108.9527,0.636],[108.96,0.6416]]]}},{"type":"Feature","properties":{"name":"SungaiPangkalanIi","name_en":"SungaiPangkalanIi","admin_level":"7","osm_id":""},"geometry":{"type":"Polygon","coordinates":[[[108.9693,0.6794],[108.9668,0.6746],[108.9558,0.6629],[108.9522,0.6559],[108.96,0.6416],[108.9527,0.636],[108.9362,0.6295],[108.9263,0.6277],[108.9184,0.6587],[108.9217,0.6609],[108.9415,0.6638],[108.9513,0.6705],[108.9596,0.6793],[108.9693,0.6794]]]}}]}