{"type":"FeatureCollection","metadata":{"parent_osm_id":"gid_IDN_10_24_7_1","parent_name":"Karangjambu","parent_name_1":"JawaTengah","parent_gid":"IDN.10.24.7_1","parent_level":"6","child_level":"7","count":6,"source":"GADM 4.1","generated":"2026-05-09"},"features":[{"type":"Feature","properties":{"name":"Danasari","name_en":"Danasari","admin_level":"7","osm_id":""},"geometry":{"type":"Polygon","coordinates":[[[109.461,-7.1825],[109.4588,-7.185],[109.4565,-7.1849],[109.4488,-7.1778],[109.4394,-7.1784],[109.4398,-7.1848],[109.4367,-7.2],[109.4325,-7.1999],[109.4278,-7.1968],[109.4228,-7.1978],[109.4179,-7.1941],[109.4245,-7.1861],[109.4285,-7.1866],[109.4287,-7.1842],[109.4373,-7.1762],[109.4382,-7.1746],[109.4361,-7.1738],[109.4355,-7.1702],[109.4401,-7.1657],[109.438,-7.1638],[109.4427,-7.1612],[109.4533,-7.1669],[109.4549,-7.1732],[109.4615,-7.1794],[109.461,-7.1825]]]}},{"type":"Feature","properties":{"name":"Jingkang","name_en":"Jingkang","admin_level":"7","osm_id":""},"geometry":{"type":"Polygon","coordinates":[[[109.404,-7.1998],[109.4089,-7.2005],[109.4179,-7.1941],[109.4228,-7.1978],[109.4278,-7.1968],[109.4325,-7.1999],[109.4367,-7.2],[109.442,-7.2098],[109.4396,-7.2198],[109.4407,-7.221],[109.4381,-7.2248],[109.4406,-7.2295],[109.4361,-7.2307],[109.4254,-7.2259],[109.4169,-7.2267],[109.4134,-7.2253],[109.4106,-7.2102],[109.4049,-7.2035],[109.404,-7.1998]]]}},{"type":"Feature","properties":{"name":"Karangjambu","name_en":"Karangjambu","admin_level":"7","osm_id":""},"geometry":{"type":"Polygon","coordinates":[[[109.3923,-7.2536],[109.3915,-7.2473],[109.3886,-7.2445],[109.375,-7.2467],[109.3763,-7.237],[109.3706,-7.2329],[109.3705,-7.2309],[109.375,-7.2299],[109.3816,-7.2229],[109.3813,-7.2159],[109.3961,-7.2203],[109.4071,-7.2207],[109.4154,-7.2265],[109.4232,-7.2255],[109.4345,-7.2305],[109.4406,-7.2295],[109.4437,-7.2355],[109.4443,-7.2489],[109.4438,-7.2512],[109.4394,-7.2544],[109.4319,-7.2525],[109.427,-7.2539],[109.4252,-7.2519],[109.4217,-7.2529],[109.4174,-7.2516],[109.4133,-7.2545],[109.4053,-7.2508],[109.3997,-7.2509],[109.3923,-7.2536]]]}},{"type":"Feature","properties":{"name":"Purbasari","name_en":"Purbasari","admin_level":"7","osm_id":""},"geometry":{"type":"Polygon","coordinates":[[[109.375,-7.2467],[109.3724,-7.2468],[109.37,-7.2432],[109.364,-7.2403],[109.3598,-7.2415],[109.3549,-7.2384],[109.3563,-7.2318],[109.3553,-7.2266],[109.3568,-7.2232],[109.3611,-7.2208],[109.3647,-7.2217],[109.3737,-7.2179],[109.3763,-7.2156],[109.375,-7.2106],[109.3763,-7.2082],[109.3794,-7.2045],[109.3823,-7.2046],[109.3853,-7.2084],[109.3805,-7.2173],[109.3816,-7.2229],[109.378,-7.2277],[109.3704,-7.2312],[109.3707,-7.2332],[109.3763,-7.237],[109.375,-7.2467]]]}},{"type":"Feature","properties":{"name":"Sanguwatang","name_en":"Sanguwatang","admin_level":"7","osm_id":""},"geometry":{"type":"Polygon","coordinates":[[[109.3822,-7.1903],[109.3901,-7.1929],[109.3911,-7.1979],[109.397,-7.1972],[109.404,-7.1998],[109.4049,-7.2035],[109.4106,-7.2102],[109.4124,-7.2235],[109.4071,-7.2207],[109.3961,-7.2203],[109.3813,-7.2159],[109.3853,-7.2084],[109.3823,-7.2046],[109.3783,-7.2058],[109.376,-7.2003],[109.3759,-7.1933],[109.3822,-7.1903]]]}},{"type":"Feature","properties":{"name":"Sirandu","name_en":"Sirandu","admin_level":"7","osm_id":""},"geometry":{"type":"Polygon","coordinates":[[[109.3526,-7.2025],[109.3697,-7.196],[109.3733,-7.1963],[109.3759,-7.1933],[109.376,-7.2003],[109.3783,-7.2058],[109.375,-7.2106],[109.3763,-7.2156],[109.3713,-7.2195],[109.367,-7.2198],[109.3647,-7.2217],[109.3593,-7.2206],[109.3531,-7.2103],[109.3526,-7.2025]]]}}]}