{"type":"FeatureCollection","metadata":{"parent_osm_id":"gid_IDN_31_14_5_1","parent_name":"IlirBaratIi","parent_name_1":"SumateraSelatan","parent_gid":"IDN.31.14.5_1","parent_level":"6","child_level":"7","count":7,"source":"GADM 4.1","generated":"2026-05-09"},"features":[{"type":"Feature","properties":{"name":"27Ilir","name_en":"27Ilir","admin_level":"7","osm_id":""},"geometry":{"type":"Polygon","coordinates":[[[104.7562,-2.9918],[104.7569,-2.9932],[104.7536,-2.9941],[104.7534,-2.9931],[104.7562,-2.9918]]]}},{"type":"Feature","properties":{"name":"28Ilir","name_en":"28Ilir","admin_level":"7","osm_id":""},"geometry":{"type":"Polygon","coordinates":[[[104.7568,-2.9932],[104.7581,-2.9958],[104.7558,-2.9981],[104.7535,-2.9948],[104.7568,-2.9932]]]}},{"type":"Feature","properties":{"name":"29Ilir","name_en":"29Ilir","admin_level":"7","osm_id":""},"geometry":{"type":"Polygon","coordinates":[[[104.7498,-2.9943],[104.7531,-2.9918],[104.7559,-2.9981],[104.7535,-2.9981],[104.7498,-2.9943]]]}},{"type":"Feature","properties":{"name":"30Ilir","name_en":"30Ilir","admin_level":"7","osm_id":""},"geometry":{"type":"Polygon","coordinates":[[[104.7442,-2.9873],[104.7442,-2.9926],[104.7501,-2.9944],[104.7552,-2.999],[104.7541,-3.0011],[104.7456,-2.9969],[104.7383,-2.9993],[104.7363,-2.9973],[104.7402,-2.994],[104.7379,-2.9896],[104.7442,-2.9873]]]}},{"type":"Feature","properties":{"name":"32Ilir","name_en":"32Ilir","admin_level":"7","osm_id":""},"geometry":{"type":"Polygon","coordinates":[[[104.7407,-3.0035],[104.7407,-3.0011],[104.7383,-2.9993],[104.742,-2.997],[104.7458,-2.9969],[104.754,-3.0011],[104.7527,-3.0038],[104.7447,-3.0013],[104.7407,-3.0035]]]}},{"type":"Feature","properties":{"name":"35Ilir","name_en":"35Ilir","admin_level":"7","osm_id":""},"geometry":{"type":"Polygon","coordinates":[[[104.7509,-3.0087],[104.7447,-3.0065],[104.7389,-3.0095],[104.738,-3.0072],[104.739,-3.004],[104.7447,-3.0013],[104.7527,-3.0038],[104.7509,-3.0087]]]}},{"type":"Feature","properties":{"name":"KemangManis","name_en":"KemangManis","admin_level":"7","osm_id":""},"geometry":{"type":"Polygon","coordinates":[[[104.7354,-2.9897],[104.7379,-2.9895],[104.7402,-2.994],[104.7363,-2.9973],[104.7382,-2.9981],[104.7372,-2.9998],[104.7335,-2.9968],[104.7335,-2.9929],[104.7354,-2.9897]]]}}]}