{"type":"FeatureCollection","metadata":{"parent_osm_id":"gid_IDN_17_11_5_1","parent_name":"Gisting","parent_name_1":"Lampung","parent_gid":"IDN.17.11.5_1","parent_level":"6","child_level":"7","count":9,"source":"GADM 4.1","generated":"2026-05-09"},"features":[{"type":"Feature","properties":{"name":"Banjarmanis","name_en":"Banjarmanis","admin_level":"7","osm_id":""},"geometry":{"type":"Polygon","coordinates":[[[104.7375,-5.425],[104.7354,-5.4219],[104.7376,-5.4197],[104.7368,-5.4136],[104.7416,-5.4155],[104.7494,-5.4134],[104.7515,-5.431],[104.7495,-5.4352],[104.749,-5.4434],[104.7416,-5.4481],[104.7435,-5.4442],[104.744,-5.4358],[104.7418,-5.4293],[104.7375,-5.425]]]}},{"type":"Feature","properties":{"name":"Campang","name_en":"Campang","admin_level":"7","osm_id":""},"geometry":{"type":"Polygon","coordinates":[[[104.7368,-5.4136],[104.7376,-5.4197],[104.7354,-5.4219],[104.7375,-5.425],[104.731,-5.4276],[104.7222,-5.4264],[104.7204,-5.4195],[104.7233,-5.4171],[104.7176,-5.4114],[104.7307,-5.411],[104.7333,-5.4072],[104.7356,-5.4091],[104.7383,-5.4077],[104.7379,-5.4102],[104.74,-5.4126],[104.7368,-5.4136]]]}},{"type":"Feature","properties":{"name":"GistingAtas","name_en":"GistingAtas","admin_level":"7","osm_id":""},"geometry":{"type":"Polygon","coordinates":[[[104.7091,-5.4348],[104.7189,-5.449],[104.7244,-5.4487],[104.7251,-5.4502],[104.7301,-5.451],[104.7364,-5.4546],[104.7342,-5.457],[104.7354,-5.4602],[104.7308,-5.4616],[104.7255,-5.4542],[104.7204,-5.4631],[104.7149,-5.4562],[104.6987,-5.4448],[104.7047,-5.441],[104.7091,-5.4348]]]}},{"type":"Feature","properties":{"name":"GistingBawah","name_en":"GistingBawah","admin_level":"7","osm_id":""},"geometry":{"type":"Polygon","coordinates":[[[104.7301,-5.451],[104.7251,-5.4502],[104.7244,-5.4487],[104.7189,-5.449],[104.715,-5.4417],[104.7106,-5.4384],[104.7091,-5.4348],[104.7111,-5.4318],[104.7161,-5.4315],[104.7229,-5.4373],[104.7265,-5.437],[104.7294,-5.4422],[104.7322,-5.4428],[104.7318,-5.4465],[104.7292,-5.4461],[104.7321,-5.4475],[104.7301,-5.451]]]}},{"type":"Feature","properties":{"name":"Hutan","name_en":"Hutan","admin_level":"7","osm_id":""},"geometry":{"type":"Polygon","coordinates":[[[104.7416,-5.4481],[104.749,-5.4434],[104.7495,-5.4352],[104.7515,-5.431],[104.7494,-5.4134],[104.7416,-5.4155],[104.7368,-5.4136],[104.74,-5.4126],[104.7379,-5.4102],[104.7383,-5.4077],[104.7356,-5.4091],[104.7333,-5.4072],[104.7307,-5.411],[104.7176,-5.4114],[104.7133,-5.4071],[104.7136,-5.401],[104.7161,-5.3952],[104.7219,-5.3892],[104.7382,-5.3903],[104.7408,-5.3853],[104.7399,-5.3781],[104.7374,-5.3738],[104.7313,-5.3719],[104.7409,-5.3699],[104.7575,-5.3765],[104.7491,-5.3803],[104.7481,-5.3866],[104.7492,-5.4053],[104.756,-5.4059],[104.7586,-5.4188],[104.7584,-5.428],[104.7628,-5.4368],[104.7595,-5.4413],[104.7562,-5.4428],[104.7543,-5.4569],[104.7547,-5.4757],[104.7604,-5.4829],[104.7629,-5.4944],[104.7673,-5.4944],[104.7603,-5.5005],[104.7526,-5.5003],[104.7494,-5.4955],[104.7428,-5.492],[104.7408,-5.486],[104.739,-5.4853],[104.734,-5.4755],[104.7204,-5.4631],[104.7255,-5.4542],[104.7308,-5.4616],[104.7354,-5.4602],[104.7342,-5.457],[104.7362,-5.4535],[104.7409,-5.4512],[104.7416,-5.4481]]]}},{"type":"Feature","properties":{"name":"KutaDalam","name_en":"KutaDalam","admin_level":"7","osm_id":""},"geometry":{"type":"Polygon","coordinates":[[[104.7375,-5.425],[104.7418,-5.4293],[104.744,-5.4358],[104.7435,-5.4442],[104.7416,-5.4481],[104.7402,-5.4433],[104.7373,-5.4425],[104.7347,-5.4355],[104.7321,-5.4342],[104.7315,-5.4276],[104.7375,-5.425]]]}},{"type":"Feature","properties":{"name":"Lanbauw","name_en":"Lanbauw","admin_level":"7","osm_id":""},"geometry":{"type":"Polygon","coordinates":[[[104.7222,-5.4264],[104.7315,-5.4276],[104.7321,-5.4342],[104.7268,-5.4373],[104.7217,-5.4363],[104.7174,-5.4327],[104.7207,-5.4307],[104.7222,-5.4264]]]}},{"type":"Feature","properties":{"name":"Purwodadi","name_en":"Purwodadi","admin_level":"7","osm_id":""},"geometry":{"type":"Polygon","coordinates":[[[104.7362,-5.4545],[104.7301,-5.451],[104.7321,-5.4475],[104.7291,-5.4469],[104.7318,-5.4465],[104.7322,-5.4428],[104.7294,-5.4422],[104.7268,-5.4373],[104.7313,-5.4342],[104.7347,-5.4355],[104.7365,-5.4413],[104.7402,-5.4433],[104.7416,-5.4481],[104.7409,-5.4512],[104.7362,-5.4545]]]}},{"type":"Feature","properties":{"name":"Sidokaton","name_en":"Sidokaton","admin_level":"7","osm_id":""},"geometry":{"type":"Polygon","coordinates":[[[104.7176,-5.4114],[104.7233,-5.4171],[104.7204,-5.4195],[104.7216,-5.4207],[104.7216,-5.4292],[104.7174,-5.4327],[104.7111,-5.4318],[104.7118,-5.4201],[104.7081,-5.4133],[104.7136,-5.4068],[104.7176,-5.4114]]]}}]}