{"type":"FeatureCollection","metadata":{"parent_osm_id":"19565901","parent_name":"Ngemplak","parent_name_1":"Yogyakarta","parent_gid":"IDN.33.5.11_1","parent_level":"6","child_level":"7","count":5,"source":"GADM 4.1","generated":"2026-05-09"},"features":[{"type":"Feature","properties":{"name":"BimoMartani","name_en":"BimoMartani","admin_level":"7","osm_id":""},"geometry":{"type":"Polygon","coordinates":[[[110.4478,-7.682],[110.4529,-7.6795],[110.459,-7.6791],[110.4606,-7.6817],[110.462,-7.6808],[110.4629,-7.6821],[110.4621,-7.6844],[110.4643,-7.6898],[110.4688,-7.69],[110.469,-7.6878],[110.4705,-7.6888],[110.472,-7.6954],[110.4666,-7.696],[110.4675,-7.699],[110.4693,-7.7002],[110.4723,-7.7085],[110.4772,-7.7119],[110.4821,-7.7184],[110.4806,-7.7201],[110.4762,-7.7226],[110.4729,-7.7154],[110.4716,-7.7165],[110.467,-7.7091],[110.4609,-7.7118],[110.4594,-7.7056],[110.4543,-7.6979],[110.4543,-7.69],[110.4478,-7.6893],[110.4478,-7.682]]]}},{"type":"Feature","properties":{"name":"Sindumartani","name_en":"Sindumartani","admin_level":"7","osm_id":""},"geometry":{"type":"Polygon","coordinates":[[[110.4774,-7.6778],[110.483,-7.7028],[110.481,-7.7106],[110.4821,-7.7184],[110.4772,-7.7119],[110.4723,-7.7085],[110.4693,-7.7002],[110.4675,-7.699],[110.4666,-7.696],[110.472,-7.6954],[110.4705,-7.6888],[110.4683,-7.6882],[110.4665,-7.6847],[110.4666,-7.6704],[110.4689,-7.6706],[110.4707,-7.6739],[110.4735,-7.6718],[110.4734,-7.6742],[110.475,-7.6736],[110.4774,-7.6778]]]}},{"type":"Feature","properties":{"name":"Umbulmartani","name_en":"Umbulmartani","admin_level":"7","osm_id":""},"geometry":{"type":"Polygon","coordinates":[[[110.4306,-7.6678],[110.4315,-7.6732],[110.442,-7.6745],[110.442,-7.6787],[110.4386,-7.6789],[110.4395,-7.6827],[110.4381,-7.6829],[110.4443,-7.6972],[110.4441,-7.7001],[110.4424,-7.7],[110.4425,-7.7038],[110.4391,-7.7034],[110.4377,-7.7004],[110.437,-7.6926],[110.4344,-7.6866],[110.4308,-7.6865],[110.4303,-7.6887],[110.4272,-7.6884],[110.4273,-7.6856],[110.4242,-7.6847],[110.422,-7.6928],[110.4144,-7.6924],[110.4136,-7.6886],[110.4084,-7.687],[110.4125,-7.6795],[110.415,-7.6781],[110.4168,-7.6692],[110.4175,-7.6706],[110.4205,-7.6706],[110.4214,-7.674],[110.4233,-7.6742],[110.4254,-7.6738],[110.4248,-7.6716],[110.4256,-7.6733],[110.428,-7.6732],[110.427,-7.6693],[110.4283,-7.6677],[110.4306,-7.6678]]]}},{"type":"Feature","properties":{"name":"Wedomartani","name_en":"Wedomartani","admin_level":"7","osm_id":""},"geometry":{"type":"Polygon","coordinates":[[[110.4148,-7.7564],[110.4146,-7.7551],[110.4135,-7.7562],[110.4129,-7.7544],[110.4143,-7.7536],[110.4123,-7.7522],[110.4121,-7.7495],[110.4087,-7.7471],[110.4101,-7.74],[110.4086,-7.738],[110.4092,-7.7321],[110.4132,-7.7246],[110.4119,-7.7239],[110.4121,-7.7204],[110.4208,-7.7228],[110.4217,-7.7247],[110.4259,-7.7248],[110.4257,-7.7179],[110.4338,-7.7145],[110.4344,-7.7075],[110.4393,-7.7072],[110.4407,-7.7116],[110.4398,-7.7164],[110.4412,-7.7316],[110.4434,-7.7322],[110.4452,-7.7445],[110.4474,-7.7473],[110.44,-7.7462],[110.438,-7.742],[110.4342,-7.7432],[110.4343,-7.7476],[110.4277,-7.7532],[110.4196,-7.7521],[110.4197,-7.7467],[110.4169,-7.7462],[110.4148,-7.7564]]]}},{"type":"Feature","properties":{"name":"WidodoMartani","name_en":"WidodoMartani","admin_level":"7","osm_id":""},"geometry":{"type":"Polygon","coordinates":[[[110.4477,-7.6727],[110.4488,-7.6785],[110.4476,-7.6887],[110.4543,-7.69],[110.4543,-7.6979],[110.4594,-7.7056],[110.4612,-7.7127],[110.4548,-7.7147],[110.454,-7.7131],[110.4517,-7.7129],[110.4512,-7.7153],[110.4478,-7.7162],[110.4468,-7.718],[110.4468,-7.7167],[110.4403,-7.7192],[110.4407,-7.7116],[110.443,-7.7096],[110.4424,-7.7],[110.4441,-7.7001],[110.4443,-7.6972],[110.4421,-7.6897],[110.4385,-7.6855],[110.4397,-7.6803],[110.4386,-7.6789],[110.442,-7.6787],[110.442,-7.6745],[110.446,-7.6747],[110.4477,-7.6727]]]}}]}