{"type":"FeatureCollection","metadata":{"parent_osm_id":"gid_IDN_5_9_10_1","parent_name":"PadangUlakTanding","parent_name_1":"Bengkulu","parent_gid":"IDN.5.9.10_1","parent_level":"6","child_level":"7","count":15,"source":"GADM 4.1","generated":"2026-05-08"},"features":[{"type":"Feature","properties":{"name":"AirKati","name_en":"AirKati","admin_level":"7","osm_id":""},"geometry":{"type":"Polygon","coordinates":[[[102.8365,-3.3853],[102.8273,-3.3707],[102.8427,-3.361],[102.8516,-3.3442],[102.8617,-3.3437],[102.8613,-3.3531],[102.8632,-3.3552],[102.8664,-3.371],[102.861,-3.3832],[102.8365,-3.3853]]]}},{"type":"Feature","properties":{"name":"BelumaiI","name_en":"BelumaiI","admin_level":"7","osm_id":""},"geometry":{"type":"Polygon","coordinates":[[[102.7962,-3.3634],[102.7759,-3.3578],[102.7709,-3.3383],[102.796,-3.3103],[102.7988,-3.3211],[102.8035,-3.3255],[102.8021,-3.336],[102.791,-3.3553],[102.7951,-3.3584],[102.7962,-3.3634]]]}},{"type":"Feature","properties":{"name":"BelumaiIi","name_en":"BelumaiIi","admin_level":"7","osm_id":""},"geometry":{"type":"Polygon","coordinates":[[[102.7759,-3.3578],[102.7925,-3.3619],[102.7962,-3.3634],[102.7967,-3.3659],[102.793,-3.3704],[102.7846,-3.3735],[102.7728,-3.3631],[102.7759,-3.3578]]]}},{"type":"Feature","properties":{"name":"BukitBatu","name_en":"BukitBatu","admin_level":"7","osm_id":""},"geometry":{"type":"Polygon","coordinates":[[[102.796,-3.3103],[102.7708,-3.3384],[102.7335,-3.3641],[102.7155,-3.3624],[102.6945,-3.3641],[102.6668,-3.3632],[102.6375,-3.3579],[102.6362,-3.3525],[102.6418,-3.3497],[102.6502,-3.3392],[102.6704,-3.3296],[102.6753,-3.3222],[102.6876,-3.3187],[102.7011,-3.3178],[102.7059,-3.3189],[102.7249,-3.317],[102.7265,-3.3156],[102.7438,-3.3156],[102.7486,-3.2983],[102.7507,-3.2949],[102.759,-3.2882],[102.7605,-3.2837],[102.7752,-3.2827],[102.7798,-3.2874],[102.7888,-3.288],[102.7931,-3.2947],[102.796,-3.3103]]]}},{"type":"Feature","properties":{"name":"GuruAgung","name_en":"GuruAgung","admin_level":"7","osm_id":""},"geometry":{"type":"Polygon","coordinates":[[[102.8273,-3.3707],[102.8474,-3.4043],[102.8465,-3.4153],[102.8412,-3.407],[102.8351,-3.403],[102.8273,-3.4017],[102.8207,-3.404],[102.812,-3.401],[102.8061,-3.3946],[102.8047,-3.3853],[102.8273,-3.3707]]]}},{"type":"Feature","properties":{"name":"KarangBaru","name_en":"KarangBaru","admin_level":"7","osm_id":""},"geometry":{"type":"Polygon","coordinates":[[[102.8365,-3.3853],[102.861,-3.3832],[102.8559,-3.3989],[102.8593,-3.4016],[102.8713,-3.3853],[102.8779,-3.3808],[102.8845,-3.3831],[102.8797,-3.3907],[102.8781,-3.3899],[102.8783,-3.385],[102.8753,-3.3852],[102.8751,-3.3876],[102.8727,-3.3888],[102.8688,-3.4045],[102.8605,-3.4115],[102.8559,-3.4189],[102.855,-3.4312],[102.8517,-3.4288],[102.8465,-3.4153],[102.8474,-3.4043],[102.8365,-3.3853]]]}},{"type":"Feature","properties":{"name":"KasieKasubun","name_en":"KasieKasubun","admin_level":"7","osm_id":""},"geometry":{"type":"Polygon","coordinates":[[[102.7709,-3.3383],[102.7759,-3.3578],[102.7728,-3.3631],[102.7761,-3.366],[102.7741,-3.3698],[102.7676,-3.3751],[102.7508,-3.3744],[102.7263,-3.382],[102.7129,-3.3943],[102.6799,-3.4136],[102.678,-3.4126],[102.6761,-3.4142],[102.6727,-3.4122],[102.6636,-3.4133],[102.6582,-3.4055],[102.6505,-3.4051],[102.6455,-3.3989],[102.6382,-3.3954],[102.6448,-3.3871],[102.6375,-3.3579],[102.6668,-3.3632],[102.6945,-3.3641],[102.7155,-3.3624],[102.7335,-3.3641],[102.7709,-3.3383]]]}},{"type":"Feature","properties":{"name":"MuaraTelita","name_en":"MuaraTelita","admin_level":"7","osm_id":""},"geometry":{"type":"Polygon","coordinates":[[[102.8046,-3.4124],[102.8046,-3.4084],[102.8019,-3.4071],[102.7908,-3.3899],[102.7836,-3.3863],[102.7845,-3.3847],[102.7741,-3.3698],[102.7761,-3.366],[102.7846,-3.3735],[102.7859,-3.3816],[102.7924,-3.3831],[102.7985,-3.391],[102.7998,-3.3967],[102.812,-3.4097],[102.8046,-3.4124]]]}},{"type":"Feature","properties":{"name":"PasarPadangUlakTanding","name_en":"PasarPadangUlakTanding","admin_level":"7","osm_id":""},"geometry":{"type":"Polygon","coordinates":[[[102.8155,-3.3777],[102.8047,-3.3853],[102.8012,-3.3811],[102.7951,-3.3793],[102.803,-3.3651],[102.8088,-3.3682],[102.8155,-3.3777]]]}},{"type":"Feature","properties":{"name":"TabaTinggi","name_en":"TabaTinggi","admin_level":"7","osm_id":""},"geometry":{"type":"Polygon","coordinates":[[[102.8047,-3.3853],[102.8061,-3.3946],[102.812,-3.401],[102.8207,-3.404],[102.812,-3.4097],[102.7998,-3.3967],[102.7985,-3.391],[102.7924,-3.3831],[102.7859,-3.3816],[102.7846,-3.3735],[102.7912,-3.3742],[102.7951,-3.3793],[102.8012,-3.3811],[102.8047,-3.3853]]]}},{"type":"Feature","properties":{"name":"Taktoi","name_en":"Taktoi","admin_level":"7","osm_id":""},"geometry":{"type":"Polygon","coordinates":[[[102.8019,-3.4071],[102.7961,-3.4066],[102.7906,-3.4029],[102.786,-3.3925],[102.7701,-3.3883],[102.7596,-3.3798],[102.7567,-3.3827],[102.7545,-3.389],[102.7495,-3.3932],[102.7462,-3.4008],[102.742,-3.4058],[102.7325,-3.4146],[102.7268,-3.4176],[102.7232,-3.4184],[102.7171,-3.413],[102.7112,-3.4144],[102.706,-3.4121],[102.7,-3.4142],[102.6902,-3.4111],[102.6799,-3.4136],[102.7129,-3.3943],[102.7263,-3.382],[102.7508,-3.3744],[102.7713,-3.3797],[102.7908,-3.3899],[102.8019,-3.4071]]]}},{"type":"Feature","properties":{"name":"TanjungSanaiI","name_en":"TanjungSanaiI","admin_level":"7","osm_id":""},"geometry":{"type":"Polygon","coordinates":[[[102.8516,-3.3442],[102.8427,-3.361],[102.8273,-3.3707],[102.8172,-3.3511],[102.8206,-3.3338],[102.8349,-3.3339],[102.8347,-3.3414],[102.8516,-3.3442]]]}},{"type":"Feature","properties":{"name":"TanjungSanaiIi","name_en":"TanjungSanaiIi","admin_level":"7","osm_id":""},"geometry":{"type":"Polygon","coordinates":[[[102.8021,-3.336],[102.8035,-3.3255],[102.8131,-3.3366],[102.8158,-3.3341],[102.821,-3.3342],[102.8172,-3.3511],[102.8273,-3.3707],[102.8155,-3.3777],[102.8088,-3.3682],[102.803,-3.3651],[102.8054,-3.3459],[102.8021,-3.336]]]}},{"type":"Feature","properties":{"name":"UjanPanas","name_en":"UjanPanas","admin_level":"7","osm_id":""},"geometry":{"type":"Polygon","coordinates":[[[102.7542,-3.3748],[102.7676,-3.3751],[102.7741,-3.3698],[102.7845,-3.3847],[102.7836,-3.3863],[102.7713,-3.3797],[102.7542,-3.3748]]]}},{"type":"Feature","properties":{"name":"UlakTanding","name_en":"UlakTanding","admin_level":"7","osm_id":""},"geometry":{"type":"Polygon","coordinates":[[[102.7962,-3.3634],[102.7951,-3.3584],[102.791,-3.3553],[102.8021,-3.336],[102.8054,-3.3459],[102.803,-3.3651],[102.7951,-3.3793],[102.7912,-3.3742],[102.7846,-3.3735],[102.793,-3.3704],[102.7967,-3.3659],[102.7962,-3.3634]]]}}]}