{"type":"FeatureCollection","metadata":{"parent_osm_id":"8930366","parent_name":"Sukajaya","parent_name_1":"Aceh","parent_gid":"IDN.1.21.1_1","parent_level":"6","child_level":"7","count":10,"source":"GADM 4.1","generated":"2026-05-09"},"features":[{"type":"Feature","properties":{"name":"AnoiItam","name_en":"AnoiItam","admin_level":"7","osm_id":""},"geometry":{"type":"Polygon","coordinates":[[[95.3533,5.8701],[95.3613,5.8564],[95.3644,5.8536],[95.369,5.8525],[95.375,5.8473],[95.373,5.8451],[95.378,5.827],[95.3771,5.8112],[95.3759,5.8055],[95.3739,5.8043],[95.3489,5.8633],[95.351,5.8642],[95.3486,5.8686],[95.3533,5.8701]]]}},{"type":"Feature","properties":{"name":"Balohan","name_en":"Balohan","admin_level":"7","osm_id":""},"geometry":{"type":"Polygon","coordinates":[[[95.3592,5.8367],[95.3732,5.8042],[95.3711,5.8048],[95.3534,5.828],[95.3452,5.8262],[95.3444,5.8212],[95.3458,5.8131],[95.3366,5.8129],[95.3197,5.8182],[95.3241,5.8207],[95.326,5.8254],[95.3242,5.8355],[95.3251,5.8444],[95.3374,5.8431],[95.3499,5.8447],[95.3592,5.8367]]]}},{"type":"Feature","properties":{"name":"Beurawang","name_en":"Beurawang","admin_level":"7","osm_id":""},"geometry":{"type":"Polygon","coordinates":[[[95.3426,5.7862],[95.3358,5.7768],[95.3308,5.7726],[95.3276,5.7721],[95.3277,5.7966],[95.3314,5.7971],[95.3333,5.7909],[95.3426,5.7862]]]}},{"type":"Feature","properties":{"name":"CotAbeuk","name_en":"CotAbeuk","admin_level":"7","osm_id":""},"geometry":{"type":"Polygon","coordinates":[[[95.3489,5.8633],[95.3592,5.8367],[95.3499,5.8447],[95.3374,5.8431],[95.3255,5.8443],[95.3237,5.8528],[95.3291,5.8542],[95.3317,5.8579],[95.3414,5.8631],[95.3459,5.868],[95.347,5.8682],[95.3489,5.8633]]]}},{"type":"Feature","properties":{"name":"CotBa'u","name_en":"CotBa'u","admin_level":"7","osm_id":""},"geometry":{"type":"Polygon","coordinates":[[[95.3486,5.8686],[95.351,5.8642],[95.3489,5.8633],[95.347,5.8682],[95.3459,5.868],[95.3414,5.8631],[95.3352,5.8605],[95.3349,5.8699],[95.3272,5.8785],[95.3271,5.8887],[95.3249,5.8906],[95.3262,5.8937],[95.3349,5.8864],[95.3416,5.8865],[95.3399,5.8787],[95.3486,5.8686]]]}},{"type":"Feature","properties":{"name":"IeMeule","name_en":"IeMeule","admin_level":"7","osm_id":""},"geometry":{"type":"Polygon","coordinates":[[[95.3416,5.8865],[95.3349,5.8864],[95.3262,5.8937],[95.3214,5.9],[95.3257,5.9014],[95.334,5.898],[95.3451,5.8884],[95.3416,5.8865]]]}},{"type":"Feature","properties":{"name":"Jaboi","name_en":"Jaboi","admin_level":"7","osm_id":""},"geometry":{"type":"Polygon","coordinates":[[[95.3197,5.8182],[95.3366,5.8129],[95.3458,5.8131],[95.3466,5.8105],[95.3447,5.8093],[95.3447,5.8069],[95.3469,5.8078],[95.3484,5.8048],[95.3456,5.7992],[95.3471,5.7935],[95.3446,5.7953],[95.3426,5.7862],[95.3333,5.7909],[95.3314,5.7971],[95.3277,5.7966],[95.3138,5.8002],[95.3144,5.8078],[95.312,5.8134],[95.3128,5.8158],[95.3151,5.8183],[95.3197,5.8182]]]}},{"type":"Feature","properties":{"name":"Keunekai","name_en":"Keunekai","admin_level":"7","osm_id":""},"geometry":{"type":"Polygon","coordinates":[[[95.3277,5.7966],[95.3276,5.7721],[95.3246,5.774],[95.3185,5.7737],[95.3119,5.7772],[95.3138,5.8002],[95.3277,5.7966]]]}},{"type":"Feature","properties":{"name":"Paya","name_en":"Paya","admin_level":"7","osm_id":""},"geometry":{"type":"Polygon","coordinates":[[[95.312,5.8134],[95.3144,5.8078],[95.3119,5.7772],[95.3043,5.7801],[95.2964,5.7795],[95.29,5.7817],[95.2873,5.7799],[95.2856,5.7805],[95.2783,5.7877],[95.273,5.7987],[95.2666,5.8071],[95.267,5.8117],[95.2647,5.8143],[95.2647,5.8185],[95.2585,5.8256],[95.2614,5.8287],[95.2607,5.833],[95.2693,5.8408],[95.2802,5.8234],[95.2894,5.8163],[95.312,5.8134]]]}},{"type":"Feature","properties":{"name":"UjongKareung","name_en":"UjongKareung","admin_level":"7","osm_id":""},"geometry":{"type":"Polygon","coordinates":[[[95.3533,5.8701],[95.3486,5.8686],[95.3399,5.8787],[95.3416,5.8865],[95.3451,5.8884],[95.3492,5.8865],[95.3539,5.8779],[95.3533,5.8701]]]}}]}