{"type":"FeatureCollection","metadata":{"parent_osm_id":"gid_IDN_11_30_19_1","parent_name":"Sumberasih","parent_name_1":"JawaTimur","parent_gid":"IDN.11.30.19_1","parent_level":"6","child_level":"7","count":13,"source":"GADM 4.1","generated":"2026-05-09"},"features":[{"type":"Feature","properties":{"name":"Ambulu","name_en":"Ambulu","admin_level":"7","osm_id":""},"geometry":{"type":"Polygon","coordinates":[[[113.1382,-7.7563],[113.1407,-7.7509],[113.1465,-7.752],[113.1442,-7.7537],[113.1479,-7.7652],[113.1503,-7.7676],[113.1484,-7.7718],[113.1469,-7.77],[113.1451,-7.7714],[113.1414,-7.7698],[113.1422,-7.7668],[113.1372,-7.7611],[113.1382,-7.7563]]]}},{"type":"Feature","properties":{"name":"Banjarsari","name_en":"Banjarsari","admin_level":"7","osm_id":""},"geometry":{"type":"Polygon","coordinates":[[[113.1446,-7.7516],[113.1407,-7.7509],[113.1382,-7.7563],[113.1379,-7.7533],[113.132,-7.7524],[113.1322,-7.7453],[113.131,-7.7439],[113.1339,-7.728],[113.1376,-7.7269],[113.1411,-7.729],[113.1417,-7.7277],[113.1508,-7.7413],[113.1527,-7.7395],[113.1502,-7.748],[113.148,-7.7469],[113.1446,-7.7516]]]}},{"type":"Feature","properties":{"name":"GiliKetapang","name_en":"GiliKetapang","admin_level":"7","osm_id":""},"geometry":{"type":"Polygon","coordinates":[[[113.2616,-7.6763],[113.2607,-7.6793],[113.2578,-7.6809],[113.2428,-7.6804],[113.2501,-7.6774],[113.2616,-7.6763]]]}},{"type":"Feature","properties":{"name":"Jangur","name_en":"Jangur","admin_level":"7","osm_id":""},"geometry":{"type":"Polygon","coordinates":[[[113.1643,-7.7734],[113.1654,-7.7739],[113.1625,-7.7843],[113.1592,-7.7833],[113.1587,-7.7851],[113.1572,-7.7849],[113.1542,-7.7797],[113.1509,-7.779],[113.1475,-7.7814],[113.146,-7.7794],[113.1477,-7.779],[113.1475,-7.7765],[113.1504,-7.7762],[113.1506,-7.7725],[113.1539,-7.7731],[113.1537,-7.7757],[113.1566,-7.7762],[113.1609,-7.7749],[113.1615,-7.7728],[113.1643,-7.7734]]]}},{"type":"Feature","properties":{"name":"Laweyan","name_en":"Laweyan","admin_level":"7","osm_id":""},"geometry":{"type":"Polygon","coordinates":[[[113.1766,-7.7827],[113.1789,-7.7834],[113.1755,-7.795],[113.171,-7.7996],[113.1643,-7.7921],[113.1666,-7.7928],[113.1686,-7.7875],[113.1655,-7.7869],[113.1681,-7.7803],[113.1766,-7.7827]]]}},{"type":"Feature","properties":{"name":"Lemahkembar","name_en":"Lemahkembar","admin_level":"7","osm_id":""},"geometry":{"type":"Polygon","coordinates":[[[113.1467,-7.7599],[113.1442,-7.7537],[113.1464,-7.7522],[113.1446,-7.7516],[113.1454,-7.7488],[113.1472,-7.7492],[113.148,-7.7469],[113.1502,-7.748],[113.1529,-7.7413],[113.1571,-7.7422],[113.1581,-7.7401],[113.1631,-7.7421],[113.1674,-7.7395],[113.1693,-7.7407],[113.166,-7.7449],[113.1665,-7.7497],[113.1609,-7.7486],[113.1579,-7.7594],[113.1515,-7.7604],[113.1517,-7.7578],[113.1482,-7.7571],[113.1467,-7.7599]]]}},{"type":"Feature","properties":{"name":"Mentor","name_en":"Mentor","admin_level":"7","osm_id":""},"geometry":{"type":"Polygon","coordinates":[[[113.1484,-7.7718],[113.1503,-7.7676],[113.1463,-7.7607],[113.147,-7.7573],[113.1517,-7.7578],[113.1515,-7.7604],[113.1579,-7.7594],[113.1585,-7.7563],[113.1613,-7.7568],[113.1573,-7.7754],[113.1537,-7.7757],[113.1539,-7.7731],[113.1506,-7.7725],[113.1504,-7.7762],[113.1475,-7.7765],[113.1484,-7.7718]]]}},{"type":"Feature","properties":{"name":"Muneng","name_en":"Muneng","admin_level":"7","osm_id":""},"geometry":{"type":"Polygon","coordinates":[[[113.1639,-7.7792],[113.1681,-7.7803],[113.1655,-7.7869],[113.1686,-7.7875],[113.1666,-7.7928],[113.1637,-7.7915],[113.1618,-7.7965],[113.1522,-7.7952],[113.1533,-7.7904],[113.1517,-7.7878],[113.1495,-7.7878],[113.1503,-7.7823],[113.1475,-7.7814],[113.1509,-7.779],[113.1542,-7.7797],[113.1567,-7.7845],[113.1587,-7.7851],[113.1592,-7.7833],[113.1625,-7.7843],[113.1639,-7.7792]]]}},{"type":"Feature","properties":{"name":"MunengKidul","name_en":"MunengKidul","admin_level":"7","osm_id":""},"geometry":{"type":"Polygon","coordinates":[[[113.1643,-7.7921],[113.1735,-7.8008],[113.1718,-7.8086],[113.1698,-7.8083],[113.1696,-7.8098],[113.1585,-7.8065],[113.1593,-7.803],[113.153,-7.801],[113.1539,-7.7978],[113.1521,-7.7975],[113.1522,-7.7952],[113.1618,-7.7965],[113.1643,-7.7921]]]}},{"type":"Feature","properties":{"name":"Pesisir","name_en":"Pesisir","admin_level":"7","osm_id":""},"geometry":{"type":"Polygon","coordinates":[[[113.1787,-7.7476],[113.1763,-7.7518],[113.175,-7.7515],[113.1743,-7.7545],[113.1724,-7.7525],[113.1715,-7.7548],[113.1661,-7.7539],[113.1653,-7.7573],[113.1593,-7.7565],[113.1609,-7.7486],[113.1665,-7.7497],[113.166,-7.7449],[113.1693,-7.7407],[113.1674,-7.7395],[113.1707,-7.7368],[113.1695,-7.7335],[113.1676,-7.7333],[113.1675,-7.728],[113.1728,-7.7267],[113.1741,-7.736],[113.1792,-7.742],[113.1787,-7.7476]]]}},{"type":"Feature","properties":{"name":"PohsangitLeres","name_en":"PohsangitLeres","admin_level":"7","osm_id":""},"geometry":{"type":"Polygon","coordinates":[[[113.177,-7.7885],[113.1822,-7.7896],[113.1828,-7.7914],[113.1779,-7.809],[113.1817,-7.8104],[113.1822,-7.8124],[113.1692,-7.8115],[113.1698,-7.8083],[113.1718,-7.8086],[113.1735,-7.801],[113.1711,-7.7996],[113.1755,-7.795],[113.177,-7.7885]]]}},{"type":"Feature","properties":{"name":"Sumberbendo","name_en":"Sumberbendo","admin_level":"7","osm_id":""},"geometry":{"type":"Polygon","coordinates":[[[113.1372,-7.7611],[113.1422,-7.7668],[113.1414,-7.7698],[113.1451,-7.7714],[113.1469,-7.77],[113.1483,-7.7715],[113.1479,-7.7786],[113.146,-7.7794],[113.1504,-7.7825],[113.1495,-7.7878],[113.1519,-7.7879],[113.1533,-7.7908],[113.1499,-7.7898],[113.133,-7.7958],[113.1266,-7.7963],[113.134,-7.7885],[113.1334,-7.7831],[113.1348,-7.7809],[113.1266,-7.7735],[113.1284,-7.7742],[113.1296,-7.7719],[113.1335,-7.7709],[113.1369,-7.7646],[113.136,-7.7613],[113.1372,-7.7611]]]}},{"type":"Feature","properties":{"name":"Sumurmati","name_en":"Sumurmati","admin_level":"7","osm_id":""},"geometry":{"type":"Polygon","coordinates":[[[113.1648,-7.7572],[113.1643,-7.7592],[113.168,-7.7614],[113.1667,-7.7678],[113.1652,-7.7709],[113.1631,-7.7709],[113.1642,-7.7735],[113.1615,-7.7728],[113.1609,-7.7749],[113.1575,-7.7752],[113.1613,-7.7568],[113.1648,-7.7572]]]}}]}