{"type":"FeatureCollection","metadata":{"parent_osm_id":"gid_IDN_17_9_2_1","parent_name":"Hutan","parent_name_1":"Lampung","parent_gid":"IDN.17.9.2_1","parent_level":"6","child_level":"7","count":1,"source":"GADM 4.1","generated":"2026-05-07"},"features":[{"type":"Feature","properties":{"name":"Hutan","name_en":"Hutan","admin_level":"7","osm_id":""},"geometry":{"type":"Polygon","coordinates":[[[105.1954,-5.4183],[105.1964,-5.4205],[105.2022,-5.42],[105.2046,-5.4213],[105.2062,-5.4321],[105.2053,-5.4369],[105.1849,-5.441],[105.1674,-5.4487],[105.1589,-5.4634],[105.2076,-5.5275],[105.2121,-5.5267],[105.2178,-5.5301],[105.2196,-5.5293],[105.2183,-5.5274],[105.2154,-5.5269],[105.2148,-5.5259],[105.2165,-5.525],[105.2261,-5.535],[105.2245,-5.5357],[105.2258,-5.5379],[105.2285,-5.538],[105.2289,-5.5395],[105.2277,-5.54],[105.2319,-5.5445],[105.227,-5.547],[105.2267,-5.5553],[105.2227,-5.5606],[105.2183,-5.5536],[105.2121,-5.5536],[105.1969,-5.5598],[105.1843,-5.559],[105.1806,-5.5691],[105.1698,-5.5712],[105.1479,-5.5815],[105.1371,-5.5886],[105.1308,-5.5956],[105.1073,-5.5508],[105.1037,-5.5475],[105.101,-5.5504],[105.0924,-5.5467],[105.0995,-5.5403],[105.1,-5.5338],[105.1032,-5.5277],[105.1031,-5.5117],[105.082,-5.5205],[105.0642,-5.5106],[105.0515,-5.4971],[105.0498,-5.4933],[105.0389,-5.4888],[105.0395,-5.4874],[105.0394,-5.4885],[105.0484,-5.489],[105.0592,-5.4776],[105.0576,-5.4699],[105.0641,-5.4664],[105.0557,-5.4478],[105.0499,-5.4512],[105.0519,-5.4559],[105.0465,-5.4565],[105.045,-5.4563],[105.04,-5.4489],[105.0598,-5.4336],[105.0675,-5.449],[105.0779,-5.4496],[105.0969,-5.4545],[105.1006,-5.4531],[105.1035,-5.4512],[105.1036,-5.446],[105.1029,-5.4436],[105.1009,-5.4429],[105.0995,-5.4311],[105.0951,-5.4179],[105.1005,-5.4191],[105.1053,-5.4173],[105.1099,-5.4138],[105.1023,-5.4136],[105.0997,-5.4107],[105.1014,-5.4083],[105.1109,-5.4017],[105.1054,-5.4071],[105.1047,-5.4099],[105.1111,-5.4126],[105.1153,-5.4076],[105.1152,-5.4007],[105.1357,-5.3891],[105.1376,-5.4106],[105.1633,-5.3983],[105.1758,-5.3994],[105.1739,-5.3912],[105.1748,-5.3904],[105.1798,-5.3904],[105.1804,-5.3924],[105.185,-5.394],[105.187,-5.3935],[105.1864,-5.3891],[105.1903,-5.3901],[105.1971,-5.3863],[105.1938,-5.3912],[105.1911,-5.391],[105.19,-5.3945],[105.1851,-5.3994],[105.1793,-5.4023],[105.1755,-5.4075],[105.1814,-5.4171],[105.1843,-5.4192],[105.1868,-5.4196],[105.1899,-5.4162],[105.1958,-5.4167],[105.1954,-5.4183]]]}}]}