{"type":"FeatureCollection","metadata":{"parent_osm_id":"gid_IDN_26_4_8_1","parent_name":"RilauAle","parent_name_1":"SulawesiSelatan","parent_gid":"IDN.26.4.8_1","parent_level":"6","child_level":"7","count":13,"source":"GADM 4.1","generated":"2026-05-08"},"features":[{"type":"Feature","properties":{"name":"Anrang","name_en":"Anrang","admin_level":"7","osm_id":""},"geometry":{"type":"Polygon","coordinates":[[[120.1608,-5.441],[120.1577,-5.4428],[120.1555,-5.4397],[120.1516,-5.4399],[120.1509,-5.4384],[120.1524,-5.4373],[120.1462,-5.4338],[120.1415,-5.4274],[120.1392,-5.4275],[120.1396,-5.4254],[120.1374,-5.4254],[120.1231,-5.4103],[120.1176,-5.4095],[120.1138,-5.404],[120.1037,-5.3991],[120.1022,-5.3962],[120.1059,-5.3922],[120.1094,-5.3842],[120.1159,-5.3922],[120.1161,-5.3965],[120.119,-5.3988],[120.1187,-5.4012],[120.1223,-5.4035],[120.125,-5.4027],[120.1293,-5.4052],[120.1316,-5.4043],[120.1327,-5.4065],[120.1367,-5.4049],[120.1383,-5.4081],[120.1438,-5.4099],[120.1465,-5.4089],[120.1535,-5.4164],[120.1564,-5.4158],[120.1599,-5.4185],[120.1649,-5.4168],[120.1675,-5.4193],[120.1725,-5.4199],[120.1777,-5.4231],[120.168,-5.4374],[120.1608,-5.441]]]}},{"type":"Feature","properties":{"name":"Bajiminasa","name_en":"Bajiminasa","admin_level":"7","osm_id":""},"geometry":{"type":"Polygon","coordinates":[[[120.1502,-5.4127],[120.1462,-5.4088],[120.1438,-5.4099],[120.1377,-5.4078],[120.1367,-5.4049],[120.1324,-5.4064],[120.132,-5.4045],[120.1293,-5.4052],[120.1253,-5.4027],[120.1254,-5.4005],[120.1326,-5.3961],[120.1336,-5.3885],[120.1317,-5.3823],[120.1441,-5.3796],[120.1519,-5.3814],[120.1516,-5.3842],[120.1613,-5.3841],[120.1569,-5.3998],[120.1502,-5.4127]]]}},{"type":"Feature","properties":{"name":"Batukaropa","name_en":"Batukaropa","admin_level":"7","osm_id":""},"geometry":{"type":"Polygon","coordinates":[[[120.1777,-5.4231],[120.1889,-5.4105],[120.188,-5.4096],[120.1917,-5.4048],[120.1929,-5.405],[120.2,-5.4087],[120.2014,-5.4126],[120.2074,-5.414],[120.2099,-5.4179],[120.2095,-5.4211],[120.216,-5.4211],[120.2241,-5.4294],[120.2274,-5.4304],[120.2278,-5.4329],[120.2298,-5.4335],[120.23,-5.438],[120.2329,-5.4388],[120.2217,-5.4396],[120.2192,-5.4366],[120.2095,-5.4336],[120.2072,-5.4307],[120.1971,-5.429],[120.192,-5.4258],[120.1878,-5.4258],[120.1828,-5.422],[120.1777,-5.4231]]]}},{"type":"Feature","properties":{"name":"BontoMatene","name_en":"BontoMatene","admin_level":"7","osm_id":""},"geometry":{"type":"Polygon","coordinates":[[[120.1253,-5.4027],[120.123,-5.4038],[120.1187,-5.4012],[120.119,-5.3988],[120.1161,-5.3965],[120.1159,-5.3922],[120.1094,-5.3842],[120.1134,-5.3774],[120.1206,-5.3807],[120.1245,-5.3857],[120.1257,-5.3845],[120.1311,-5.385],[120.1336,-5.3885],[120.1326,-5.3961],[120.1254,-5.4005],[120.1253,-5.4027]]]}},{"type":"Feature","properties":{"name":"Bontobangun","name_en":"Bontobangun","admin_level":"7","osm_id":""},"geometry":{"type":"Polygon","coordinates":[[[120.1777,-5.4231],[120.1725,-5.4199],[120.1675,-5.4193],[120.1649,-5.4168],[120.1599,-5.4185],[120.1564,-5.4158],[120.1535,-5.4164],[120.1502,-5.4127],[120.1569,-5.3998],[120.1613,-5.3841],[120.1673,-5.3843],[120.1758,-5.3932],[120.1919,-5.4038],[120.188,-5.4096],[120.1889,-5.4105],[120.1777,-5.4231]]]}},{"type":"Feature","properties":{"name":"Bontoharu","name_en":"Bontoharu","admin_level":"7","osm_id":""},"geometry":{"type":"Polygon","coordinates":[[[120.1964,-5.3798],[120.2042,-5.3823],[120.2061,-5.3809],[120.2082,-5.3843],[120.211,-5.3821],[120.2187,-5.3824],[120.2206,-5.3847],[120.2195,-5.3864],[120.2216,-5.3858],[120.209,-5.3999],[120.2071,-5.4051],[120.2098,-5.4083],[120.2062,-5.4142],[120.2014,-5.4126],[120.2003,-5.4093],[120.1976,-5.4069],[120.1917,-5.4048],[120.1926,-5.3861],[120.1964,-5.3798]]]}},{"type":"Feature","properties":{"name":"Bontolohe","name_en":"Bontolohe","admin_level":"7","osm_id":""},"geometry":{"type":"Polygon","coordinates":[[[120.0943,-5.363],[120.1,-5.3663],[120.1043,-5.3657],[120.1062,-5.3674],[120.1101,-5.3675],[120.1145,-5.3706],[120.123,-5.3701],[120.1237,-5.3723],[120.128,-5.374],[120.135,-5.3744],[120.1392,-5.3721],[120.145,-5.3716],[120.147,-5.3728],[120.1464,-5.3806],[120.1433,-5.3796],[120.1363,-5.381],[120.1317,-5.3823],[120.1317,-5.3856],[120.1257,-5.3845],[120.1245,-5.3857],[120.1206,-5.3807],[120.1139,-5.3773],[120.1115,-5.3787],[120.1094,-5.3842],[120.1075,-5.3843],[120.1011,-5.3796],[120.0915,-5.3763],[120.0959,-5.3683],[120.0943,-5.363]]]}},{"type":"Feature","properties":{"name":"Bontomanai","name_en":"Bontomanai","admin_level":"7","osm_id":""},"geometry":{"type":"Polygon","coordinates":[[[120.1728,-5.4534],[120.1608,-5.441],[120.168,-5.4374],[120.1747,-5.4279],[120.1857,-5.4323],[120.1925,-5.4375],[120.2003,-5.4388],[120.202,-5.4363],[120.2098,-5.4413],[120.2103,-5.437],[120.2122,-5.4349],[120.2188,-5.4365],[120.2221,-5.4397],[120.2329,-5.4388],[120.2346,-5.4412],[120.242,-5.444],[120.2373,-5.4458],[120.2266,-5.4536],[120.2222,-5.4539],[120.2152,-5.4497],[120.2035,-5.4476],[120.1835,-5.4469],[120.1728,-5.4534]]]}},{"type":"Feature","properties":{"name":"Bulolohe","name_en":"Bulolohe","admin_level":"7","osm_id":""},"geometry":{"type":"Polygon","coordinates":[[[120.1747,-5.4279],[120.1777,-5.4231],[120.1828,-5.422],[120.1878,-5.4258],[120.192,-5.4258],[120.1971,-5.429],[120.2072,-5.4307],[120.2122,-5.4349],[120.2095,-5.4413],[120.202,-5.4363],[120.2003,-5.4388],[120.1925,-5.4375],[120.1857,-5.4323],[120.1747,-5.4279]]]}},{"type":"Feature","properties":{"name":"Karama","name_en":"Karama","admin_level":"7","osm_id":""},"geometry":{"type":"Polygon","coordinates":[[[120.2336,-5.3931],[120.2348,-5.3956],[120.2377,-5.3957],[120.2422,-5.4013],[120.245,-5.4022],[120.2448,-5.4042],[120.229,-5.4184],[120.2262,-5.4304],[120.216,-5.4211],[120.2095,-5.4211],[120.2098,-5.4178],[120.2067,-5.4136],[120.2098,-5.408],[120.2071,-5.4051],[120.2118,-5.396],[120.2211,-5.3874],[120.2244,-5.3916],[120.2257,-5.3906],[120.2259,-5.3936],[120.2289,-5.3953],[120.2306,-5.3952],[120.2298,-5.3932],[120.2336,-5.3931]]]}},{"type":"Feature","properties":{"name":"Palampang","name_en":"Palampang","admin_level":"7","osm_id":""},"geometry":{"type":"Polygon","coordinates":[[[120.147,-5.3728],[120.1486,-5.3715],[120.1531,-5.3753],[120.1544,-5.3745],[120.1556,-5.3756],[120.1667,-5.3744],[120.1662,-5.3729],[120.1726,-5.374],[120.1766,-5.3762],[120.1753,-5.3767],[120.1762,-5.3778],[120.1803,-5.3774],[120.181,-5.3788],[120.1851,-5.3786],[120.1879,-5.3808],[120.1909,-5.3807],[120.1909,-5.3781],[120.1948,-5.3776],[120.1964,-5.3798],[120.1926,-5.3861],[120.1913,-5.4031],[120.1758,-5.3932],[120.1673,-5.3843],[120.1516,-5.3842],[120.1519,-5.3814],[120.1464,-5.3806],[120.147,-5.3728]]]}},{"type":"Feature","properties":{"name":"Swatani","name_en":"Swatani","admin_level":"7","osm_id":""},"geometry":{"type":"Polygon","coordinates":[[[120.2448,-5.4042],[120.2471,-5.4078],[120.2491,-5.4055],[120.2501,-5.4083],[120.2532,-5.4055],[120.2567,-5.4048],[120.2606,-5.407],[120.261,-5.4055],[120.2633,-5.4075],[120.2631,-5.4091],[120.2655,-5.408],[120.2661,-5.4112],[120.2601,-5.4192],[120.2535,-5.4369],[120.2474,-5.439],[120.2451,-5.4444],[120.2346,-5.4412],[120.2328,-5.4384],[120.23,-5.438],[120.2298,-5.4335],[120.2281,-5.4332],[120.2262,-5.4296],[120.229,-5.4184],[120.2448,-5.4042]]]}},{"type":"Feature","properties":{"name":"TanahHarapan","name_en":"TanahHarapan","admin_level":"7","osm_id":""},"geometry":{"type":"Polygon","coordinates":[[[120.1999,-5.4831],[120.1976,-5.4818],[120.197,-5.4771],[120.194,-5.4783],[120.1924,-5.4771],[120.192,-5.4757],[120.1946,-5.4759],[120.1948,-5.4741],[120.1917,-5.4739],[120.1916,-5.4715],[120.1884,-5.4684],[120.1886,-5.4649],[120.1852,-5.463],[120.1875,-5.4659],[120.186,-5.4666],[120.1835,-5.4648],[120.1833,-5.4617],[120.1809,-5.4629],[120.1738,-5.4563],[120.1745,-5.4537],[120.1728,-5.4534],[120.1746,-5.4514],[120.1804,-5.4499],[120.1831,-5.4469],[120.1907,-5.4469],[120.2152,-5.4497],[120.223,-5.4541],[120.228,-5.4531],[120.2225,-5.4612],[120.2179,-5.4637],[120.2077,-5.4746],[120.2051,-5.4799],[120.1999,-5.4831]]]}}]}