{"type":"FeatureCollection","metadata":{"parent_osm_id":"gid_IDN_28_11_26_1","parent_name":"TiworoTengah","parent_name_1":"SulawesiTenggara","parent_gid":"IDN.28.11.26_1","parent_level":"6","child_level":"7","count":8,"source":"GADM 4.1","generated":"2026-05-08"},"features":[{"type":"Feature","properties":{"name":"Labokolo","name_en":"Labokolo","admin_level":"7","osm_id":""},"geometry":{"type":"Polygon","coordinates":[[[122.3996,-4.7575],[122.3996,-4.7594],[122.4078,-4.7681],[122.4052,-4.7739],[122.4037,-4.7876],[122.3895,-4.7961],[122.385,-4.7787],[122.3834,-4.762],[122.3879,-4.7618],[122.3996,-4.7575]]]}},{"type":"Feature","properties":{"name":"Lakabu","name_en":"Lakabu","admin_level":"7","osm_id":""},"geometry":{"type":"Polygon","coordinates":[[[122.3418,-4.7984],[122.3418,-4.795],[122.3515,-4.7831],[122.3707,-4.7924],[122.3734,-4.7973],[122.3695,-4.7977],[122.3621,-4.804],[122.3543,-4.8163],[122.3502,-4.8106],[122.3446,-4.8074],[122.3418,-4.7984]]]}},{"type":"Feature","properties":{"name":"Langku-langku","name_en":"Langku-langku","admin_level":"7","osm_id":""},"geometry":{"type":"Polygon","coordinates":[[[122.3543,-4.8163],[122.3599,-4.8064],[122.3695,-4.7977],[122.3896,-4.7966],[122.3884,-4.8075],[122.3723,-4.8274],[122.3543,-4.8163]]]}},{"type":"Feature","properties":{"name":"MekarJaya","name_en":"MekarJaya","admin_level":"7","osm_id":""},"geometry":{"type":"Polygon","coordinates":[[[122.4192,-4.8256],[122.4199,-4.8313],[122.425,-4.8392],[122.3988,-4.8369],[122.3978,-4.84],[122.3723,-4.8274],[122.3858,-4.8116],[122.4192,-4.8256]]]}},{"type":"Feature","properties":{"name":"Momuntu","name_en":"Momuntu","admin_level":"7","osm_id":""},"geometry":{"type":"Polygon","coordinates":[[[122.3963,-4.8451],[122.3601,-4.8331],[122.3563,-4.8399],[122.3472,-4.8419],[122.3426,-4.8374],[122.3325,-4.834],[122.3303,-4.8295],[122.3246,-4.8302],[122.3249,-4.8234],[122.3379,-4.8064],[122.3383,-4.803],[122.3403,-4.8023],[122.3418,-4.7984],[122.3446,-4.8074],[122.3502,-4.8106],[122.3554,-4.8175],[122.3797,-4.8316],[122.3978,-4.84],[122.3963,-4.8451]]]}},{"type":"Feature","properties":{"name":"SukaDamai","name_en":"SukaDamai","admin_level":"7","osm_id":""},"geometry":{"type":"Polygon","coordinates":[[[122.4037,-4.7875],[122.4087,-4.792],[122.4089,-4.7963],[122.4157,-4.8048],[122.4032,-4.808],[122.3896,-4.7966],[122.4037,-4.7875]]]}},{"type":"Feature","properties":{"name":"Wanseriwu","name_en":"Wanseriwu","admin_level":"7","osm_id":""},"geometry":{"type":"Polygon","coordinates":[[[122.3834,-4.762],[122.385,-4.7787],[122.3896,-4.7966],[122.3734,-4.7973],[122.3707,-4.7924],[122.3515,-4.7831],[122.3526,-4.7814],[122.3549,-4.7816],[122.3541,-4.7788],[122.3582,-4.765],[122.3604,-4.7642],[122.3666,-4.766],[122.362,-4.7629],[122.3809,-4.7636],[122.3834,-4.762]]]}},{"type":"Feature","properties":{"name":"Wapae","name_en":"Wapae","admin_level":"7","osm_id":""},"geometry":{"type":"Polygon","coordinates":[[[122.4188,-4.8231],[122.4192,-4.8256],[122.3857,-4.8116],[122.3884,-4.8075],[122.3896,-4.7966],[122.4032,-4.808],[122.4122,-4.806],[122.4167,-4.8097],[122.4188,-4.8231]]]}}]}