{"type":"FeatureCollection","metadata":{"parent_osm_id":"gid_IDN_23_2_4_1","parent_name":"BiakKota","parent_name_1":"Papua","parent_gid":"IDN.23.2.4_1","parent_level":"6","child_level":"7","count":15,"source":"GADM 4.1","generated":"2026-05-08"},"features":[{"type":"Feature","properties":{"name":"Ambroben","name_en":"Ambroben","admin_level":"7","osm_id":""},"geometry":{"type":"Polygon","coordinates":[[[136.123,-1.1965],[136.1068,-1.1935],[136.1079,-1.1903],[136.1064,-1.1898],[136.1049,-1.178],[136.1121,-1.1747],[136.1194,-1.1779],[136.1175,-1.185],[136.1219,-1.1914],[136.1211,-1.1938],[136.1236,-1.1947],[136.123,-1.1965]]]}},{"type":"Feature","properties":{"name":"Anggraidi","name_en":"Anggraidi","admin_level":"7","osm_id":""},"geometry":{"type":"Polygon","coordinates":[[[136.1618,-1.186],[136.1563,-1.1933],[136.1541,-1.1918],[136.1491,-1.1824],[136.1572,-1.1806],[136.1618,-1.186]]]}},{"type":"Feature","properties":{"name":"Burokub","name_en":"Burokub","admin_level":"7","osm_id":""},"geometry":{"type":"Polygon","coordinates":[[[136.0802,-1.1853],[136.077,-1.1863],[136.0774,-1.1842],[136.075,-1.1826],[136.0761,-1.1764],[136.0806,-1.1784],[136.0802,-1.1853]]]}},{"type":"Feature","properties":{"name":"Fandoi","name_en":"Fandoi","admin_level":"7","osm_id":""},"geometry":{"type":"Polygon","coordinates":[[[136.0802,-1.1853],[136.0806,-1.1784],[136.0856,-1.1788],[136.085,-1.1871],[136.0802,-1.1853]]]}},{"type":"Feature","properties":{"name":"Inggiri","name_en":"Inggiri","admin_level":"7","osm_id":""},"geometry":{"type":"Polygon","coordinates":[[[136.0482,-1.1566],[136.0439,-1.1552],[136.0387,-1.1499],[136.0441,-1.1468],[136.0486,-1.1404],[136.056,-1.1455],[136.0482,-1.1566]]]}},{"type":"Feature","properties":{"name":"Insrom","name_en":"Insrom","admin_level":"7","osm_id":""},"geometry":{"type":"Polygon","coordinates":[[[136.0486,-1.1404],[136.0416,-1.1487],[136.0387,-1.1494],[136.0357,-1.1474],[136.0393,-1.1389],[136.0486,-1.1404]]]}},{"type":"Feature","properties":{"name":"Mandala","name_en":"Mandala","admin_level":"7","osm_id":""},"geometry":{"type":"Polygon","coordinates":[[[136.1051,-1.1818],[136.1064,-1.1898],[136.1079,-1.1903],[136.1068,-1.1935],[136.0844,-1.1876],[136.0856,-1.1788],[136.089,-1.1775],[136.1051,-1.1818]]]}},{"type":"Feature","properties":{"name":"Manswam","name_en":"Manswam","admin_level":"7","osm_id":""},"geometry":{"type":"Polygon","coordinates":[[[136.1318,-1.1988],[136.1251,-1.1968],[136.1282,-1.1921],[136.1334,-1.1948],[136.1318,-1.1988]]]}},{"type":"Feature","properties":{"name":"Mokmer","name_en":"Mokmer","admin_level":"7","osm_id":""},"geometry":{"type":"Polygon","coordinates":[[[136.1318,-1.1988],[136.1334,-1.1948],[136.1282,-1.1921],[136.1309,-1.1824],[136.1431,-1.1832],[136.1468,-1.199],[136.1416,-1.2002],[136.1318,-1.1988]]]}},{"type":"Feature","properties":{"name":"Parai","name_en":"Parai","admin_level":"7","osm_id":""},"geometry":{"type":"Polygon","coordinates":[[[136.1491,-1.1824],[136.1541,-1.1918],[136.1563,-1.1933],[136.1488,-1.1999],[136.1466,-1.1984],[136.1431,-1.1832],[136.1491,-1.1824]]]}},{"type":"Feature","properties":{"name":"Samau","name_en":"Samau","admin_level":"7","osm_id":""},"geometry":{"type":"Polygon","coordinates":[[[136.0532,-1.1746],[136.0497,-1.1713],[136.0492,-1.1648],[136.0565,-1.1652],[136.0552,-1.1673],[136.0573,-1.1702],[136.0532,-1.1746]]]}},{"type":"Feature","properties":{"name":"Saramom","name_en":"Saramom","admin_level":"7","osm_id":""},"geometry":{"type":"Polygon","coordinates":[[[136.0761,-1.1764],[136.0742,-1.1811],[136.0721,-1.1804],[136.0737,-1.1754],[136.0761,-1.1764]]]}},{"type":"Feature","properties":{"name":"Sorido","name_en":"Sorido","admin_level":"7","osm_id":""},"geometry":{"type":"Polygon","coordinates":[[[136.0482,-1.1566],[136.056,-1.1455],[136.0648,-1.1455],[136.0643,-1.1566],[136.0687,-1.1594],[136.0664,-1.1636],[136.0666,-1.1705],[136.063,-1.174],[136.0573,-1.1702],[136.0552,-1.1673],[136.0565,-1.1652],[136.0492,-1.1648],[136.05,-1.158],[136.0482,-1.1566]]]}},{"type":"Feature","properties":{"name":"Swapodibo","name_en":"Swapodibo","admin_level":"7","osm_id":""},"geometry":{"type":"Polygon","coordinates":[[[136.123,-1.1965],[136.1236,-1.1947],[136.1211,-1.1938],[136.1219,-1.1914],[136.1175,-1.185],[136.1194,-1.1779],[136.1309,-1.1824],[136.1282,-1.1921],[136.1251,-1.1968],[136.123,-1.1965]]]}},{"type":"Feature","properties":{"name":"Waupnor","name_en":"Waupnor","admin_level":"7","osm_id":""},"geometry":{"type":"Polygon","coordinates":[[[136.075,-1.18],[136.077,-1.1863],[136.0567,-1.1779],[136.0532,-1.1746],[136.057,-1.1703],[136.063,-1.174],[136.0666,-1.1705],[136.0737,-1.1754],[136.0721,-1.1804],[136.075,-1.18]]]}}]}