{"type":"FeatureCollection","metadata":{"parent_osm_id":"gid_IDN_30_5_6_1","parent_name":"SiberutTengah","parent_name_1":"SumateraBarat","parent_gid":"IDN.30.5.6_1","parent_level":"6","child_level":"7","count":3,"source":"GADM 4.1","generated":"2026-05-08"},"features":[{"type":"Feature","properties":{"name":"Cimpungan","name_en":"Cimpungan","admin_level":"7","osm_id":""},"geometry":{"type":"Polygon","coordinates":[[[98.959,-1.3061],[98.94,-1.2839],[98.9127,-1.2644],[98.924,-1.2512],[98.9305,-1.2477],[98.9442,-1.2473],[98.9594,-1.2512],[98.9712,-1.2477],[98.9838,-1.2371],[98.9918,-1.2359],[98.9983,-1.2374],[99.0074,-1.2355],[99.012,-1.2416],[99.0409,-1.2424],[99.0504,-1.2352],[99.057,-1.233],[99.0577,-1.2425],[99.0684,-1.2526],[99.0676,-1.2607],[99.0704,-1.2641],[99.0687,-1.2657],[99.0691,-1.264],[99.0654,-1.2642],[99.0658,-1.2703],[99.0673,-1.2701],[99.0686,-1.2733],[99.0667,-1.2727],[99.0652,-1.2752],[99.0594,-1.2759],[99.0528,-1.2731],[99.0524,-1.2744],[99.0591,-1.2809],[99.0586,-1.2853],[99.0629,-1.2857],[99.0643,-1.2875],[99.0639,-1.2902],[99.0586,-1.29],[99.0562,-1.2915],[99.054,-1.2897],[99.0509,-1.2934],[99.0317,-1.2987],[99.0269,-1.3017],[99.0247,-1.3052],[99.0232,-1.3139],[99.0163,-1.3175],[99.0147,-1.32],[99.0085,-1.3222],[99.0068,-1.322],[99.0048,-1.3186],[99.0,-1.3177],[98.9954,-1.3125],[98.9914,-1.3157],[98.979,-1.3185],[98.9665,-1.304],[98.9615,-1.3037],[98.959,-1.3061]]]}},{"type":"Feature","properties":{"name":"SaibiSamukop","name_en":"SaibiSamukop","admin_level":"7","osm_id":""},"geometry":{"type":"Polygon","coordinates":[[[98.9594,-1.3186],[98.9609,-1.3162],[98.9586,-1.3072],[98.9615,-1.3037],[98.9665,-1.304],[98.979,-1.3185],[98.9914,-1.3157],[98.9954,-1.3125],[99.0,-1.3177],[99.0048,-1.3186],[99.0068,-1.322],[99.0118,-1.3215],[99.0232,-1.3139],[99.0247,-1.3052],[99.0269,-1.3017],[99.0317,-1.2987],[99.0509,-1.2934],[99.0509,-1.295],[99.0543,-1.2973],[99.0523,-1.2946],[99.0531,-1.2927],[99.0565,-1.2961],[99.0575,-1.2933],[99.0612,-1.297],[99.0643,-1.2963],[99.0625,-1.301],[99.0664,-1.3009],[99.0691,-1.3036],[99.068,-1.2985],[99.0706,-1.2973],[99.0734,-1.2998],[99.0724,-1.2915],[99.0772,-1.2902],[99.0837,-1.299],[99.0838,-1.3052],[99.0873,-1.3076],[99.0872,-1.3106],[99.0917,-1.316],[99.0894,-1.3299],[99.0969,-1.3488],[99.0765,-1.3593],[99.0712,-1.3597],[99.067,-1.3702],[99.0608,-1.3745],[99.0575,-1.3792],[99.0517,-1.3816],[99.0399,-1.3802],[99.0242,-1.3859],[99.0085,-1.3835],[99.0004,-1.3892],[98.9885,-1.3897],[98.9847,-1.3878],[98.9833,-1.3526],[98.9809,-1.3455],[98.9719,-1.3307],[98.9594,-1.3186]]]}},{"type":"Feature","properties":{"name":"Saliguma","name_en":"Saliguma","admin_level":"7","osm_id":""},"geometry":{"type":"Polygon","coordinates":[[[99.082,-1.5142],[99.0774,-1.4981],[99.0546,-1.4444],[99.0413,-1.4296],[99.0185,-1.4083],[98.9971,-1.3959],[98.9901,-1.3898],[99.0004,-1.3892],[99.0085,-1.3835],[99.0242,-1.3859],[99.0399,-1.3802],[99.0517,-1.3816],[99.0575,-1.3792],[99.0608,-1.3745],[99.067,-1.3702],[99.0712,-1.3597],[99.0765,-1.3593],[99.0969,-1.3488],[99.0991,-1.3653],[99.1079,-1.3706],[99.1094,-1.3795],[99.1171,-1.3782],[99.1149,-1.385],[99.1112,-1.3841],[99.1098,-1.3822],[99.1104,-1.38],[99.1093,-1.3814],[99.1103,-1.3852],[99.1126,-1.3861],[99.1118,-1.3882],[99.1092,-1.3887],[99.1063,-1.3871],[99.1017,-1.3883],[99.1047,-1.3886],[99.1034,-1.3891],[99.1032,-1.3918],[99.1045,-1.3892],[99.1069,-1.3889],[99.107,-1.3909],[99.1081,-1.3894],[99.111,-1.3915],[99.1111,-1.3947],[99.1134,-1.3973],[99.1151,-1.3956],[99.113,-1.3915],[99.1149,-1.3877],[99.1222,-1.3837],[99.1299,-1.3866],[99.1327,-1.39],[99.134,-1.3953],[99.1324,-1.4018],[99.127,-1.4059],[99.1275,-1.408],[99.1343,-1.4056],[99.14,-1.3979],[99.1453,-1.3981],[99.1522,-1.4065],[99.1534,-1.416],[99.1597,-1.4214],[99.167,-1.4314],[99.1657,-1.4329],[99.1691,-1.441],[99.1654,-1.4442],[99.161,-1.444],[99.1599,-1.4498],[99.1635,-1.4498],[99.1621,-1.455],[99.1605,-1.455],[99.1621,-1.4574],[99.1649,-1.4576],[99.1696,-1.4656],[99.1703,-1.4693],[99.1686,-1.4715],[99.1665,-1.4713],[99.1604,-1.4655],[99.1576,-1.4659],[99.1544,-1.462],[99.1527,-1.4633],[99.1503,-1.4624],[99.1492,-1.4594],[99.1431,-1.4597],[99.127,-1.4445],[99.1248,-1.4445],[99.123,-1.4399],[99.1149,-1.4408],[99.1182,-1.4461],[99.1227,-1.448],[99.1201,-1.449],[99.1239,-1.454],[99.1242,-1.4569],[99.1274,-1.4555],[99.1292,-1.4585],[99.1327,-1.46],[99.1306,-1.462],[99.131,-1.4636],[99.1424,-1.4743],[99.1443,-1.4803],[99.1482,-1.4828],[99.1482,-1.4859],[99.1512,-1.4854],[99.1537,-1.4888],[99.1558,-1.4877],[99.1594,-1.4907],[99.1599,-1.4892],[99.1624,-1.495],[99.1682,-1.4963],[99.1606,-1.5],[99.1364,-1.4991],[99.1197,-1.5048],[99.1107,-1.5053],[99.082,-1.5142]]]}}]}