{"type":"FeatureCollection","metadata":{"parent_osm_id":"gid_IDN_1_9_7_1","parent_name":"DarulHasanah","parent_name_1":"Aceh","parent_gid":"IDN.1.9.7_1","parent_level":"6","child_level":"7","count":29,"source":"GADM 4.1","generated":"2026-05-07"},"features":[{"type":"Feature","properties":{"name":"BuntulKendawi","name_en":"BuntulKendawi","admin_level":"7","osm_id":""},"geometry":{"type":"Polygon","coordinates":[[[97.7053,3.6327],[97.7047,3.6294],[97.6997,3.6292],[97.698,3.6333],[97.6988,3.6369],[97.7053,3.6327]]]}},{"type":"Feature","properties":{"name":"DarulMakmur","name_en":"DarulMakmur","admin_level":"7","osm_id":""},"geometry":{"type":"Polygon","coordinates":[[[97.7047,3.6294],[97.7053,3.6327],[97.7206,3.6201],[97.7178,3.6183],[97.7137,3.6204],[97.7069,3.6252],[97.7047,3.6294]]]}},{"type":"Feature","properties":{"name":"Gulo","name_en":"Gulo","admin_level":"7","osm_id":""},"geometry":{"type":"Polygon","coordinates":[[[97.7733,3.5262],[97.7762,3.527],[97.7783,3.5235],[97.7715,3.5215],[97.7701,3.5249],[97.7733,3.5262]]]}},{"type":"Feature","properties":{"name":"Hutan","name_en":"Hutan","admin_level":"7","osm_id":""},"geometry":{"type":"Polygon","coordinates":[[[97.4408,3.3953],[97.4384,3.4017],[97.4244,3.4218],[97.4122,3.4344],[97.3985,3.4521],[97.3988,3.456],[97.4141,3.4821],[97.4521,3.54],[97.4547,3.5418],[97.4791,3.545],[97.4839,3.5517],[97.4843,3.5583],[97.4829,3.5623],[97.4724,3.5693],[97.469,3.5756],[97.4678,3.591],[97.4625,3.6048],[97.4618,3.6192],[97.455,3.6305],[97.4466,3.6358],[97.4316,3.6385],[97.4205,3.6246],[97.4101,3.6196],[97.4034,3.6192],[97.3825,3.6384],[97.3778,3.6411],[97.372,3.6411],[97.367,3.6382],[97.3582,3.6258],[97.3434,3.6225],[97.3304,3.6129],[97.2952,3.5993],[97.2933,3.6125],[97.2846,3.6396],[97.2793,3.6488],[97.261,3.6542],[97.2242,3.6788],[97.2062,3.6939],[97.2555,3.6954],[97.2584,3.6938],[97.2642,3.6851],[97.3115,3.6765],[97.4603,3.6977],[97.4773,3.7017],[97.4938,3.7029],[97.4979,3.7007],[97.5115,3.7001],[97.5284,3.706],[97.5349,3.7067],[97.5496,3.7142],[97.5527,3.7143],[97.5561,3.7107],[97.6227,3.7221],[97.6242,3.7205],[97.627,3.7208],[97.6264,3.7152],[97.6309,3.7145],[97.6313,3.7114],[97.6335,3.711],[97.6371,3.7031],[97.6425,3.7017],[97.645,3.696],[97.6473,3.6946],[97.6459,3.6901],[97.6473,3.6856],[97.6591,3.6744],[97.6543,3.6703],[97.6551,3.6671],[97.6725,3.6581],[97.6716,3.657],[97.6759,3.6513],[97.6988,3.6369],[97.698,3.6333],[97.6997,3.6292],[97.7047,3.6294],[97.7069,3.6252],[97.7182,3.618],[97.7252,3.6062],[97.7211,3.6013],[97.7308,3.5974],[97.7344,3.5901],[97.7289,3.5879],[97.7418,3.5672],[97.7583,3.5595],[97.7592,3.5628],[97.7613,3.5623],[97.7617,3.5592],[97.7598,3.559],[97.7604,3.5479],[97.756,3.5479],[97.7552,3.5459],[97.7556,3.544],[97.7587,3.5445],[97.7596,3.5399],[97.7575,3.5394],[97.7582,3.5339],[97.7644,3.5331],[97.7662,3.5243],[97.7701,3.5249],[97.7721,3.5203],[97.7776,3.5182],[97.7908,3.5062],[97.789,3.506],[97.7931,3.4939],[97.7918,3.4907],[97.7962,3.4795],[97.7947,3.4728],[97.7957,3.4666],[97.8,3.4628],[97.7995,3.4603],[97.801,3.4581],[97.7984,3.4574],[97.7981,3.4553],[97.7904,3.4527],[97.7899,3.4433],[97.7879,3.4386],[97.7837,3.4355],[97.7787,3.4349],[97.7734,3.425],[97.76,3.4178],[97.7575,3.4173],[97.7498,3.4204],[97.6229,3.3463],[97.4965,3.2748],[97.4833,3.2688],[97.469,3.2679],[97.4672,3.2722],[97.4686,3.3013],[97.4733,3.3314],[97.4682,3.3385],[97.4408,3.3953]]]}},{"type":"Feature","properties":{"name":"Istiqomah","name_en":"Istiqomah","admin_level":"7","osm_id":""},"geometry":{"type":"Polygon","coordinates":[[[97.7616,3.5335],[97.7582,3.5339],[97.7575,3.5394],[97.7614,3.5398],[97.7616,3.5335]]]}},{"type":"Feature","properties":{"name":"KhotanJaya","name_en":"KhotanJaya","admin_level":"7","osm_id":""},"geometry":{"type":"Polygon","coordinates":[[[97.7587,3.5445],[97.7556,3.544],[97.756,3.5479],[97.7604,3.5479],[97.7609,3.5448],[97.7587,3.5445]]]}},{"type":"Feature","properties":{"name":"KiteMeranggun","name_en":"KiteMeranggun","admin_level":"7","osm_id":""},"geometry":{"type":"Polygon","coordinates":[[[97.7719,3.5398],[97.7754,3.5392],[97.7755,3.5361],[97.767,3.5342],[97.7651,3.5396],[97.7719,3.5398]]]}},{"type":"Feature","properties":{"name":"KuningAbadi","name_en":"KuningAbadi","admin_level":"7","osm_id":""},"geometry":{"type":"Polygon","coordinates":[[[97.7178,3.6183],[97.7214,3.6198],[97.7296,3.6098],[97.7286,3.6083],[97.7252,3.6062],[97.7178,3.6183]]]}},{"type":"Feature","properties":{"name":"KutaUjung","name_en":"KutaUjung","admin_level":"7","osm_id":""},"geometry":{"type":"Polygon","coordinates":[[[97.7626,3.5532],[97.7658,3.5528],[97.7658,3.5474],[97.7611,3.5446],[97.7602,3.5531],[97.7626,3.5532]]]}},{"type":"Feature","properties":{"name":"KuteRambe","name_en":"KuteRambe","admin_level":"7","osm_id":""},"geometry":{"type":"Polygon","coordinates":[[[97.7714,3.5433],[97.772,3.5396],[97.7651,3.5396],[97.7652,3.5431],[97.7714,3.5433]]]}},{"type":"Feature","properties":{"name":"LaweMamasIndah","name_en":"LaweMamasIndah","admin_level":"7","osm_id":""},"geometry":{"type":"Polygon","coordinates":[[[97.7653,3.5621],[97.7648,3.5578],[97.7621,3.5576],[97.7613,3.5622],[97.7653,3.5621]]]}},{"type":"Feature","properties":{"name":"LawePinis","name_en":"LawePinis","admin_level":"7","osm_id":""},"geometry":{"type":"Polygon","coordinates":[[[97.7306,3.5976],[97.7271,3.5989],[97.7322,3.6045],[97.7345,3.6021],[97.7306,3.5976]]]}},{"type":"Feature","properties":{"name":"LaweStul","name_en":"LaweStul","admin_level":"7","osm_id":""},"geometry":{"type":"Polygon","coordinates":[[[97.773,3.5296],[97.7733,3.5261],[97.7662,3.5243],[97.7658,3.5286],[97.773,3.5296]]]}},{"type":"Feature","properties":{"name":"MakmurJaya","name_en":"MakmurJaya","admin_level":"7","osm_id":""},"geometry":{"type":"Polygon","coordinates":[[[97.7271,3.5989],[97.7211,3.6013],[97.7286,3.6083],[97.7322,3.6047],[97.7271,3.5989]]]}},{"type":"Feature","properties":{"name":"Mamas","name_en":"Mamas","admin_level":"7","osm_id":""},"geometry":{"type":"Polygon","coordinates":[[[97.7648,3.5578],[97.7659,3.5578],[97.7671,3.5541],[97.7626,3.5541],[97.7621,3.5576],[97.7648,3.5578]]]}},{"type":"Feature","properties":{"name":"MamasBaru","name_en":"MamasBaru","admin_level":"7","osm_id":""},"geometry":{"type":"Polygon","coordinates":[[[97.7626,3.5541],[97.7594,3.5531],[97.7598,3.559],[97.7617,3.5591],[97.7626,3.5541]]]}},{"type":"Feature","properties":{"name":"PuloGadung","name_en":"PuloGadung","admin_level":"7","osm_id":""},"geometry":{"type":"Polygon","coordinates":[[[97.7738,3.533],[97.773,3.5296],[97.7658,3.5286],[97.7644,3.5331],[97.7689,3.5348],[97.7741,3.5347],[97.7738,3.533]]]}},{"type":"Feature","properties":{"name":"PuloPiku","name_en":"PuloPiku","admin_level":"7","osm_id":""},"geometry":{"type":"Polygon","coordinates":[[[97.7644,3.5331],[97.7616,3.5335],[97.7614,3.5398],[97.7651,3.5396],[97.7664,3.5372],[97.767,3.534],[97.7644,3.5331]]]}},{"type":"Feature","properties":{"name":"RambungJaya","name_en":"RambungJaya","admin_level":"7","osm_id":""},"geometry":{"type":"Polygon","coordinates":[[[97.7344,3.5901],[97.732,3.5951],[97.7385,3.5978],[97.7435,3.5901],[97.7469,3.5791],[97.7409,3.5761],[97.7394,3.5803],[97.7419,3.5821],[97.7371,3.5914],[97.7344,3.5901]]]}},{"type":"Feature","properties":{"name":"RambungTeldak","name_en":"RambungTeldak","admin_level":"7","osm_id":""},"geometry":{"type":"Polygon","coordinates":[[[97.7419,3.5671],[97.7289,3.5879],[97.7371,3.5914],[97.7419,3.5821],[97.7394,3.5803],[97.7409,3.5761],[97.7448,3.578],[97.7461,3.5734],[97.7419,3.5671]]]}},{"type":"Feature","properties":{"name":"Serimuda","name_en":"Serimuda","admin_level":"7","osm_id":""},"geometry":{"type":"Polygon","coordinates":[[[97.732,3.5951],[97.7306,3.5976],[97.7345,3.6021],[97.7385,3.5978],[97.732,3.5951]]]}},{"type":"Feature","properties":{"name":"SimpangIvTanjung","name_en":"SimpangIvTanjung","admin_level":"7","osm_id":""},"geometry":{"type":"Polygon","coordinates":[[[97.7645,3.5653],[97.7641,3.562],[97.7613,3.5622],[97.7616,3.5666],[97.7645,3.5653]]]}},{"type":"Feature","properties":{"name":"TanjungAman","name_en":"TanjungAman","admin_level":"7","osm_id":""},"geometry":{"type":"Polygon","coordinates":[[[97.7592,3.5628],[97.7552,3.5633],[97.7557,3.5649],[97.7593,3.5643],[97.7592,3.5628]]]}},{"type":"Feature","properties":{"name":"TanjungBaru","name_en":"TanjungBaru","admin_level":"7","osm_id":""},"geometry":{"type":"Polygon","coordinates":[[[97.7541,3.561],[97.7419,3.5671],[97.7461,3.5734],[97.7562,3.5683],[97.7541,3.561]]]}},{"type":"Feature","properties":{"name":"TanjungLama","name_en":"TanjungLama","admin_level":"7","osm_id":""},"geometry":{"type":"Polygon","coordinates":[[[97.7593,3.5643],[97.7557,3.5649],[97.7562,3.5683],[97.7599,3.5674],[97.7593,3.5643]]]}},{"type":"Feature","properties":{"name":"TanjungLeuser","name_en":"TanjungLeuser","admin_level":"7","osm_id":""},"geometry":{"type":"Polygon","coordinates":[[[97.759,3.5621],[97.7583,3.5595],[97.7541,3.561],[97.7552,3.5633],[97.759,3.5621]]]}},{"type":"Feature","properties":{"name":"TanjungMuda","name_en":"TanjungMuda","admin_level":"7","osm_id":""},"geometry":{"type":"Polygon","coordinates":[[[97.7613,3.5623],[97.7592,3.5628],[97.7599,3.5674],[97.7624,3.5643],[97.7613,3.5623]]]}},{"type":"Feature","properties":{"name":"TerutungKute","name_en":"TerutungKute","admin_level":"7","osm_id":""},"geometry":{"type":"Polygon","coordinates":[[[97.7596,3.5399],[97.7589,3.543],[97.7652,3.5431],[97.7651,3.5396],[97.7596,3.5399]]]}},{"type":"Feature","properties":{"name":"UjungBaru","name_en":"UjungBaru","admin_level":"7","osm_id":""},"geometry":{"type":"Polygon","coordinates":[[[97.7656,3.5466],[97.7696,3.5462],[97.7714,3.5433],[97.7589,3.543],[97.7587,3.5445],[97.7634,3.5449],[97.7638,3.5468],[97.7656,3.5466]]]}}]}