{"type":"FeatureCollection","metadata":{"parent_osm_id":"gid_IDN_16_2_2_1","parent_name":"BintanTimur","parent_name_1":"KepulauanRiau","parent_gid":"IDN.16.2.2_1","parent_level":"6","child_level":"7","count":4,"source":"GADM 4.1","generated":"2026-05-09"},"features":[{"type":"Feature","properties":{"name":"GunungLengkuas","name_en":"GunungLengkuas","admin_level":"7","osm_id":""},"geometry":{"type":"Polygon","coordinates":[[[104.5438,0.8202],[104.541,0.8238],[104.5367,0.8235],[104.5289,0.8263],[104.522,0.8256],[104.5189,0.8273],[104.5196,0.8284],[104.5148,0.8388],[104.5152,0.8432],[104.5137,0.8436],[104.5152,0.8458],[104.5131,0.8469],[104.5151,0.8476],[104.5129,0.8491],[104.5154,0.8487],[104.514,0.8506],[104.521,0.8583],[104.5241,0.8578],[104.5317,0.8619],[104.534,0.8766],[104.5397,0.8821],[104.537,0.8864],[104.5381,0.8966],[104.5405,0.8985],[104.542,0.903],[104.5502,0.91],[104.553,0.9222],[104.5601,0.9188],[104.5601,0.9164],[104.5632,0.9132],[104.5694,0.9011],[104.5706,0.8939],[104.5767,0.8848],[104.5801,0.8821],[104.5958,0.8799],[104.5982,0.8777],[104.5957,0.8667],[104.5979,0.8641],[104.5911,0.864],[104.5846,0.8574],[104.5775,0.8572],[104.5754,0.8548],[104.5717,0.8553],[104.5685,0.8529],[104.5504,0.8519],[104.5493,0.853],[104.5431,0.8374],[104.5459,0.8268],[104.5438,0.8202]]]}},{"type":"Feature","properties":{"name":"KijangKota","name_en":"KijangKota","admin_level":"7","osm_id":""},"geometry":{"type":"Polygon","coordinates":[[[104.5754,0.8548],[104.5775,0.8572],[104.5846,0.8574],[104.5911,0.864],[104.5979,0.8641],[104.5957,0.8667],[104.598,0.8757],[104.608,0.8752],[104.612,0.8776],[104.614,0.8666],[104.6105,0.8571],[104.611,0.8459],[104.609,0.8384],[104.6112,0.8333],[104.6079,0.8264],[104.602,0.8226],[104.6013,0.8261],[104.5985,0.8277],[104.5999,0.8305],[104.597,0.8326],[104.5984,0.8336],[104.597,0.8343],[104.5945,0.8445],[104.5907,0.8439],[104.5885,0.8473],[104.5822,0.8479],[104.577,0.8515],[104.5754,0.8548]]]}},{"type":"Feature","properties":{"name":"SungaiEnam","name_en":"SungaiEnam","admin_level":"7","osm_id":""},"geometry":{"type":"Polygon","coordinates":[[[104.5438,0.8202],[104.5459,0.8268],[104.5431,0.8374],[104.5493,0.853],[104.5504,0.8519],[104.5543,0.8531],[104.5637,0.8519],[104.5727,0.8554],[104.5754,0.8548],[104.577,0.8515],[104.5822,0.8479],[104.5885,0.8473],[104.5907,0.8439],[104.5945,0.8445],[104.597,0.8343],[104.5984,0.8336],[104.597,0.8326],[104.5999,0.8305],[104.5988,0.8268],[104.6013,0.8261],[104.602,0.8226],[104.6049,0.8226],[104.5931,0.8103],[104.5876,0.8103],[104.5826,0.8141],[104.5759,0.8122],[104.5554,0.8145],[104.5536,0.8212],[104.5438,0.8202]]]}},{"type":"Feature","properties":{"name":"SungaiLekop","name_en":"SungaiLekop","admin_level":"7","osm_id":""},"geometry":{"type":"Polygon","coordinates":[[[104.5988,0.8761],[104.5958,0.8799],[104.5801,0.8821],[104.5712,0.8928],[104.5694,0.9011],[104.5597,0.9183],[104.562,0.9179],[104.5681,0.9289],[104.5787,0.921],[104.5757,0.9125],[104.587,0.9134],[104.5922,0.9102],[104.5983,0.9019],[104.605,0.8974],[104.613,0.8974],[104.6172,0.8948],[104.6148,0.8907],[104.6115,0.877],[104.6044,0.8748],[104.6033,0.8764],[104.5988,0.8761]]]}}]}