{"type":"FeatureCollection","metadata":{"parent_osm_id":"gid_IDN_9_18_3_1","parent_name":"Cikole","parent_name_1":"JawaBarat","parent_gid":"IDN.9.18.3_1","parent_level":"6","child_level":"7","count":6,"source":"GADM 4.1","generated":"2026-05-09"},"features":[{"type":"Feature","properties":{"name":"Cikole","name_en":"Cikole","admin_level":"7","osm_id":""},"geometry":{"type":"Polygon","coordinates":[[[106.9389,-6.9045],[106.9397,-6.9093],[106.9374,-6.9148],[106.9384,-6.9187],[106.9361,-6.9185],[106.9356,-6.9209],[106.9311,-6.9205],[106.9316,-6.9182],[106.9295,-6.9175],[106.9321,-6.916],[106.9379,-6.9039],[106.9389,-6.9045]]]}},{"type":"Feature","properties":{"name":"Cisarua","name_en":"Cisarua","admin_level":"7","osm_id":""},"geometry":{"type":"Polygon","coordinates":[[[106.9384,-6.9187],[106.9375,-6.9145],[106.9397,-6.9092],[106.9384,-6.905],[106.9443,-6.9052],[106.9465,-6.9072],[106.9443,-6.9169],[106.9452,-6.9181],[106.9408,-6.9243],[106.9401,-6.9279],[106.936,-6.9264],[106.9384,-6.9187]]]}},{"type":"Feature","properties":{"name":"GunungParang","name_en":"GunungParang","admin_level":"7","osm_id":""},"geometry":{"type":"Polygon","coordinates":[[[106.9295,-6.9175],[106.9316,-6.9182],[106.9301,-6.9253],[106.9273,-6.9246],[106.9277,-6.9223],[106.9216,-6.9205],[106.9258,-6.9184],[106.9277,-6.9198],[106.9295,-6.9175]]]}},{"type":"Feature","properties":{"name":"Kebonjati","name_en":"Kebonjati","admin_level":"7","osm_id":""},"geometry":{"type":"Polygon","coordinates":[[[106.9313,-6.9206],[106.9356,-6.9209],[106.9361,-6.9185],[106.9384,-6.9187],[106.9379,-6.9223],[106.9359,-6.9241],[106.9362,-6.9269],[106.9301,-6.9253],[106.9313,-6.9206]]]}},{"type":"Feature","properties":{"name":"Selabatu","name_en":"Selabatu","admin_level":"7","osm_id":""},"geometry":{"type":"Polygon","coordinates":[[[106.9379,-6.9039],[106.9326,-6.9153],[106.9275,-6.9197],[106.9256,-6.9178],[106.9295,-6.9118],[106.9289,-6.9041],[106.9329,-6.9022],[106.9379,-6.9039]]]}},{"type":"Feature","properties":{"name":"Subangjaya","name_en":"Subangjaya","admin_level":"7","osm_id":""},"geometry":{"type":"Polygon","coordinates":[[[106.95,-6.9206],[106.943,-6.9286],[106.9401,-6.9279],[106.9408,-6.9243],[106.9452,-6.9181],[106.9443,-6.9169],[106.9465,-6.9074],[106.9489,-6.9079],[106.9502,-6.9056],[106.954,-6.9048],[106.9552,-6.9153],[106.9523,-6.916],[106.95,-6.9206]]]}}]}