{"type":"FeatureCollection","metadata":{"parent_osm_id":"gid_IDN_22_8_12_1","parent_name":"Mayamuk","parent_name_1":"PapuaBarat","parent_gid":"IDN.22.8.12_1","parent_level":"6","child_level":"7","count":8,"source":"GADM 4.1","generated":"2026-05-08"},"features":[{"type":"Feature","properties":{"name":"Arar","name_en":"Arar","admin_level":"7","osm_id":""},"geometry":{"type":"Polygon","coordinates":[[[131.2554,-1.0155],[131.2601,-1.0173],[131.2763,-1.0182],[131.2759,-1.0457],[131.2668,-1.0476],[131.2574,-1.059],[131.2432,-1.0653],[131.2377,-1.0641],[131.2414,-1.0561],[131.2413,-1.0387],[131.2536,-1.0142],[131.2554,-1.0155]]]}},{"type":"Feature","properties":{"name":"Klain","name_en":"Klain","admin_level":"7","osm_id":""},"geometry":{"type":"Polygon","coordinates":[[[131.3009,-1.0212],[131.3052,-1.0229],[131.3112,-1.0289],[131.3182,-1.0396],[131.3334,-1.0496],[131.3519,-1.0545],[131.3692,-1.0543],[131.365,-1.0635],[131.3479,-1.0679],[131.321,-1.0574],[131.3091,-1.0474],[131.3026,-1.0394],[131.3009,-1.0212]]]}},{"type":"Feature","properties":{"name":"Klasmelek","name_en":"Klasmelek","admin_level":"7","osm_id":""},"geometry":{"type":"Polygon","coordinates":[[[131.3951,-1.0848],[131.3946,-1.0871],[131.35,-1.0887],[131.3061,-1.074],[131.2937,-1.064],[131.2923,-1.0577],[131.2934,-1.049],[131.3044,-1.0562],[131.3112,-1.0585],[131.3155,-1.0576],[131.3178,-1.0547],[131.321,-1.0574],[131.3479,-1.0679],[131.365,-1.0635],[131.3697,-1.0543],[131.3729,-1.0579],[131.3789,-1.0585],[131.3849,-1.0619],[131.3889,-1.0667],[131.39,-1.0708],[131.3979,-1.0712],[131.3951,-1.0848]]]}},{"type":"Feature","properties":{"name":"Makbalim","name_en":"Makbalim","admin_level":"7","osm_id":""},"geometry":{"type":"Polygon","coordinates":[[[131.3946,-1.0871],[131.3927,-1.1025],[131.3724,-1.1009],[131.3385,-1.1018],[131.3208,-1.0982],[131.3059,-1.0916],[131.2941,-1.0819],[131.2801,-1.0744],[131.2708,-1.0724],[131.2713,-1.062],[131.2764,-1.0495],[131.2756,-1.0458],[131.2858,-1.0489],[131.2934,-1.049],[131.2923,-1.0577],[131.2937,-1.064],[131.3061,-1.074],[131.35,-1.0887],[131.3946,-1.0871]]]}},{"type":"Feature","properties":{"name":"Makbusun","name_en":"Makbusun","admin_level":"7","osm_id":""},"geometry":{"type":"Polygon","coordinates":[[[131.2816,-1.0177],[131.2856,-1.0183],[131.295,-1.0159],[131.2986,-1.0185],[131.3009,-1.0212],[131.3026,-1.0394],[131.3178,-1.0547],[131.3155,-1.0576],[131.3112,-1.0585],[131.3044,-1.0562],[131.2941,-1.049],[131.2842,-1.0483],[131.2859,-1.0453],[131.2859,-1.0305],[131.2816,-1.0177]]]}},{"type":"Feature","properties":{"name":"Makotyamsa","name_en":"Makotyamsa","admin_level":"7","osm_id":""},"geometry":{"type":"Polygon","coordinates":[[[131.3927,-1.1025],[131.3923,-1.1148],[131.3799,-1.1118],[131.3627,-1.1128],[131.3524,-1.1212],[131.3354,-1.114],[131.3215,-1.1134],[131.3107,-1.1055],[131.2747,-1.099],[131.2708,-1.0724],[131.2801,-1.0744],[131.2941,-1.0819],[131.3059,-1.0916],[131.3208,-1.0982],[131.3385,-1.1018],[131.3724,-1.1009],[131.3927,-1.1025]]]}},{"type":"Feature","properties":{"name":"Wen","name_en":"Wen","admin_level":"7","osm_id":""},"geometry":{"type":"Polygon","coordinates":[[[131.2763,-1.0182],[131.2816,-1.0177],[131.2859,-1.0305],[131.2859,-1.0453],[131.2842,-1.0483],[131.2759,-1.0457],[131.2763,-1.0182]]]}},{"type":"Feature","properties":{"name":"Yeflio","name_en":"Yeflio","admin_level":"7","osm_id":""},"geometry":{"type":"Polygon","coordinates":[[[131.2432,-1.0653],[131.2574,-1.059],[131.2668,-1.0476],[131.2756,-1.0458],[131.2756,-1.0538],[131.2713,-1.062],[131.2708,-1.0751],[131.2747,-1.099],[131.2428,-1.0954],[131.2362,-1.0976],[131.2327,-1.1027],[131.2352,-1.0887],[131.2289,-1.0846],[131.2299,-1.0752],[131.2377,-1.0641],[131.2432,-1.0653]]]}}]}