{"type":"FeatureCollection","metadata":{"parent_osm_id":"20048288","parent_name":"Sunggal","parent_name_1":"SumateraUtara","parent_gid":"IDN.32.4.21_1","parent_level":"6","child_level":"7","count":17,"source":"GADM 4.1","generated":"2026-05-09"},"features":[{"type":"Feature","properties":{"name":"Helvetia","name_en":"Helvetia","admin_level":"7","osm_id":""},"geometry":{"type":"Polygon","coordinates":[[[98.6097,3.6592],[98.6205,3.6517],[98.6264,3.6442],[98.6596,3.644],[98.6593,3.6387],[98.663,3.6373],[98.6632,3.6355],[98.6448,3.6344],[98.6089,3.6434],[98.6108,3.6499],[98.6097,3.6592]]]}},{"type":"Feature","properties":{"name":"KampungLalang","name_en":"KampungLalang","admin_level":"7","osm_id":""},"geometry":{"type":"Polygon","coordinates":[[[98.5725,3.6143],[98.5723,3.6274],[98.611,3.6288],[98.6349,3.6256],[98.6653,3.6256],[98.6613,3.6222],[98.6601,3.6227],[98.6526,3.6152],[98.6304,3.6157],[98.6276,3.6127],[98.6222,3.6128],[98.6219,3.6117],[98.613,3.6121],[98.6131,3.6182],[98.6103,3.6184],[98.61,3.6132],[98.6054,3.6131],[98.6056,3.6186],[98.5993,3.6203],[98.6023,3.6164],[98.6016,3.6121],[98.6067,3.6105],[98.6067,3.6045],[98.5969,3.606],[98.5922,3.6118],[98.5725,3.6143]]]}},{"type":"Feature","properties":{"name":"MedanKrio","name_en":"MedanKrio","admin_level":"7","osm_id":""},"geometry":{"type":"Polygon","coordinates":[[[98.5732,3.599],[98.5905,3.5972],[98.5879,3.5931],[98.5747,3.5837],[98.5651,3.5839],[98.5652,3.5872],[98.5632,3.5883],[98.5544,3.586],[98.547,3.5887],[98.5485,3.601],[98.5732,3.599]]]}},{"type":"Feature","properties":{"name":"Mulyorejo","name_en":"Mulyorejo","admin_level":"7","osm_id":""},"geometry":{"type":"Polygon","coordinates":[[[98.5638,3.6616],[98.5687,3.661],[98.5678,3.6288],[98.5723,3.6274],[98.5725,3.6143],[98.5386,3.616],[98.5385,3.62],[98.5418,3.6254],[98.5431,3.6314],[98.542,3.6501],[98.5432,3.6614],[98.5638,3.6616]]]}},{"type":"Feature","properties":{"name":"PayaGeli","name_en":"PayaGeli","admin_level":"7","osm_id":""},"geometry":{"type":"Polygon","coordinates":[[[98.5757,3.6141],[98.5922,3.6118],[98.5969,3.606],[98.6067,3.6045],[98.6052,3.5989],[98.6081,3.5958],[98.6039,3.5948],[98.6077,3.5946],[98.6082,3.593],[98.5868,3.5981],[98.5732,3.599],[98.5757,3.6141]]]}},{"type":"Feature","properties":{"name":"PujiMulyo","name_en":"PujiMulyo","admin_level":"7","osm_id":""},"geometry":{"type":"Polygon","coordinates":[[[98.5725,3.6143],[98.5757,3.6141],[98.5732,3.599],[98.5505,3.601],[98.5519,3.6151],[98.5725,3.6143]]]}},{"type":"Feature","properties":{"name":"Purwodadi","name_en":"Purwodadi","admin_level":"7","osm_id":""},"geometry":{"type":"Polygon","coordinates":[[[98.5684,3.662],[98.5867,3.6633],[98.5841,3.6378],[98.5903,3.638],[98.5894,3.6343],[98.5914,3.6275],[98.5766,3.627],[98.5678,3.6288],[98.5684,3.662]]]}},{"type":"Feature","properties":{"name":"SeiBerasSekata","name_en":"SeiBerasSekata","admin_level":"7","osm_id":""},"geometry":{"type":"Polygon","coordinates":[[[98.5689,3.552],[98.5638,3.5547],[98.5648,3.5586],[98.5618,3.5633],[98.563,3.5666],[98.5747,3.5803],[98.6095,3.5752],[98.6075,3.5658],[98.5895,3.5722],[98.5827,3.5723],[98.5787,3.5704],[98.5704,3.5578],[98.5689,3.552]]]}},{"type":"Feature","properties":{"name":"SeiMencirim","name_en":"SeiMencirim","admin_level":"7","osm_id":""},"geometry":{"type":"Polygon","coordinates":[[[98.5463,3.567],[98.5432,3.5698],[98.5452,3.5815],[98.54,3.5831],[98.5385,3.5795],[98.5362,3.5807],[98.5357,3.5887],[98.5444,3.5895],[98.5544,3.586],[98.5602,3.5881],[98.5652,3.5872],[98.5654,3.5845],[98.5631,3.5812],[98.5549,3.5816],[98.5524,3.5774],[98.5506,3.577],[98.5487,3.5699],[98.5492,3.5647],[98.5463,3.567]]]}},{"type":"Feature","properties":{"name":"SeiSemayang","name_en":"SeiSemayang","admin_level":"7","osm_id":""},"geometry":{"type":"Polygon","coordinates":[[[98.5505,3.601],[98.5485,3.601],[98.5474,3.5977],[98.547,3.5887],[98.5352,3.589],[98.5351,3.593],[98.5325,3.5931],[98.5339,3.5943],[98.5331,3.5964],[98.5362,3.6068],[98.5356,3.6114],[98.5337,3.6113],[98.5325,3.6164],[98.5519,3.6151],[98.5505,3.601]]]}},{"type":"Feature","properties":{"name":"SerbaJadi","name_en":"SerbaJadi","admin_level":"7","osm_id":""},"geometry":{"type":"Polygon","coordinates":[[[98.5112,3.6605],[98.5361,3.6609],[98.5357,3.6332],[98.5329,3.6307],[98.5161,3.6296],[98.5161,3.6317],[98.5119,3.6318],[98.5107,3.6334],[98.5118,3.6336],[98.5116,3.6417],[98.5166,3.6417],[98.5178,3.6457],[98.5114,3.6459],[98.5114,3.6523],[98.5179,3.6522],[98.5179,3.6536],[98.5169,3.6554],[98.5112,3.6555],[98.5112,3.6605]]]}},{"type":"Feature","properties":{"name":"SukaMaju","name_en":"SukaMaju","admin_level":"7","osm_id":""},"geometry":{"type":"Polygon","coordinates":[[[98.5638,3.5547],[98.5492,3.5647],[98.5497,3.5751],[98.5549,3.5816],[98.5617,3.5807],[98.5651,3.5839],[98.5747,3.5837],[98.5746,3.5799],[98.563,3.5666],[98.5618,3.5633],[98.5648,3.5586],[98.5638,3.5547]]]}},{"type":"Feature","properties":{"name":"SumberMelatiDiski","name_en":"SumberMelatiDiski","admin_level":"7","osm_id":""},"geometry":{"type":"Polygon","coordinates":[[[98.5361,3.6609],[98.5432,3.6614],[98.542,3.6501],[98.5431,3.6314],[98.5418,3.6254],[98.5385,3.62],[98.5386,3.616],[98.5325,3.6164],[98.5328,3.6208],[98.5256,3.6207],[98.5263,3.6306],[98.5329,3.6307],[98.5357,3.6332],[98.5361,3.6609]]]}},{"type":"Feature","properties":{"name":"SunggalKanan","name_en":"SunggalKanan","admin_level":"7","osm_id":""},"geometry":{"type":"Polygon","coordinates":[[[98.5747,3.5837],[98.5879,3.5931],[98.5905,3.5972],[98.607,3.5923],[98.6043,3.5924],[98.6048,3.5884],[98.6022,3.587],[98.6078,3.5813],[98.6105,3.584],[98.6115,3.5827],[98.6102,3.5782],[98.6084,3.5772],[98.6095,3.5752],[98.5747,3.5803],[98.5747,3.5837]]]}},{"type":"Feature","properties":{"name":"TanjungGusta","name_en":"TanjungGusta","admin_level":"7","osm_id":""},"geometry":{"type":"Polygon","coordinates":[[[98.5867,3.6633],[98.5971,3.6626],[98.6097,3.6592],[98.6108,3.6499],[98.6089,3.6434],[98.6448,3.6344],[98.6663,3.6357],[98.6644,3.6317],[98.6647,3.6265],[98.6349,3.6256],[98.611,3.6288],[98.5914,3.6275],[98.5894,3.6343],[98.5903,3.638],[98.5841,3.6378],[98.5867,3.6633]]]}},{"type":"Feature","properties":{"name":"TanjungSelamat","name_en":"TanjungSelamat","admin_level":"7","osm_id":""},"geometry":{"type":"Polygon","coordinates":[[[98.5793,3.5476],[98.5689,3.552],[98.5704,3.5578],[98.5787,3.5704],[98.5827,3.5723],[98.5895,3.5722],[98.6119,3.5633],[98.6115,3.5614],[98.6067,3.5589],[98.6108,3.5596],[98.6116,3.5537],[98.6062,3.5532],[98.6058,3.55],[98.5988,3.5465],[98.5931,3.5403],[98.5897,3.5445],[98.5793,3.5476]]]}},{"type":"Feature","properties":{"name":"TelagaSari","name_en":"TelagaSari","admin_level":"7","osm_id":""},"geometry":{"type":"Polygon","coordinates":[[[98.5432,3.5698],[98.5361,3.5763],[98.5362,3.5799],[98.5385,3.5795],[98.54,3.5831],[98.5442,3.5826],[98.5456,3.5802],[98.5432,3.5698]]]}}]}