{"type":"FeatureCollection","metadata":{"parent_osm_id":"8931134","parent_name":"Bandar","parent_name_1":"Aceh","parent_gid":"IDN.1.13.1_1","parent_level":"6","child_level":"7","count":48,"source":"GADM 4.1","generated":"2026-05-09"},"features":[{"type":"Feature","properties":{"name":"BahgieBertona","name_en":"BahgieBertona","admin_level":"7","osm_id":""},"geometry":{"type":"Polygon","coordinates":[[[96.9191,4.7644],[96.9274,4.7651],[96.928,4.7624],[96.931,4.763],[96.9258,4.7568],[96.9185,4.7556],[96.9179,4.7621],[96.9191,4.7644]]]}},{"type":"Feature","properties":{"name":"BandarJaya","name_en":"BandarJaya","admin_level":"7","osm_id":""},"geometry":{"type":"Polygon","coordinates":[[[96.9028,4.7676],[96.8925,4.7673],[96.892,4.7788],[96.8954,4.7797],[96.9022,4.7772],[96.9109,4.7769],[96.908,4.7742],[96.9066,4.7701],[96.9028,4.7676]]]}},{"type":"Feature","properties":{"name":"BatinBaru","name_en":"BatinBaru","admin_level":"7","osm_id":""},"geometry":{"type":"Polygon","coordinates":[[[96.8925,4.7673],[96.9028,4.7676],[96.9014,4.7568],[96.8936,4.7569],[96.8925,4.7673]]]}},{"type":"Feature","properties":{"name":"BenerKelipahSelatan","name_en":"BenerKelipahSelatan","admin_level":"7","osm_id":""},"geometry":{"type":"Polygon","coordinates":[[[96.9237,4.774],[96.9322,4.7748],[96.9338,4.7692],[96.9228,4.7692],[96.9216,4.7719],[96.9237,4.774]]]}},{"type":"Feature","properties":{"name":"BenerKelipahUtara","name_en":"BenerKelipahUtara","admin_level":"7","osm_id":""},"geometry":{"type":"Polygon","coordinates":[[[96.9322,4.7748],[96.9237,4.774],[96.9187,4.7756],[96.9215,4.7766],[96.9224,4.7816],[96.9272,4.7835],[96.9311,4.7819],[96.9324,4.7836],[96.9351,4.7816],[96.9322,4.7748]]]}},{"type":"Feature","properties":{"name":"BenerLukupIi","name_en":"BenerLukupIi","admin_level":"7","osm_id":""},"geometry":{"type":"Polygon","coordinates":[[[96.9253,4.7646],[96.9171,4.7651],[96.914,4.7681],[96.9138,4.7707],[96.922,4.77],[96.9253,4.7646]]]}},{"type":"Feature","properties":{"name":"BeranunTeleden","name_en":"BeranunTeleden","admin_level":"7","osm_id":""},"geometry":{"type":"Polygon","coordinates":[[[96.9242,4.7294],[96.9184,4.731],[96.9188,4.7337],[96.9153,4.739],[96.9177,4.7386],[96.9193,4.7445],[96.9221,4.7401],[96.9307,4.7382],[96.925,4.7327],[96.9242,4.7294]]]}},{"type":"Feature","properties":{"name":"BintangMusara","name_en":"BintangMusara","admin_level":"7","osm_id":""},"geometry":{"type":"Polygon","coordinates":[[[96.9632,4.7579],[96.96,4.7547],[96.9531,4.7552],[96.9483,4.7557],[96.9474,4.7593],[96.9536,4.7665],[96.9632,4.7579]]]}},{"type":"Feature","properties":{"name":"BlangPulo","name_en":"BlangPulo","admin_level":"7","osm_id":""},"geometry":{"type":"Polygon","coordinates":[[[96.96,4.7547],[96.9632,4.7579],[96.976,4.7482],[96.98,4.7478],[96.9795,4.7399],[96.9659,4.7458],[96.9638,4.7383],[96.9588,4.7369],[96.9524,4.7442],[96.9598,4.7472],[96.96,4.7547]]]}},{"type":"Feature","properties":{"name":"BukitWihIlang","name_en":"BukitWihIlang","admin_level":"7","osm_id":""},"geometry":{"type":"Polygon","coordinates":[[[96.904,4.736],[96.9123,4.7394],[96.9136,4.7384],[96.9133,4.7297],[96.9084,4.7287],[96.9105,4.7262],[96.9102,4.7218],[96.9056,4.72],[96.8975,4.7368],[96.904,4.736]]]}},{"type":"Feature","properties":{"name":"GeleSemayang","name_en":"GeleSemayang","admin_level":"7","osm_id":""},"geometry":{"type":"Polygon","coordinates":[[[96.9106,4.7387],[96.904,4.736],[96.9021,4.7393],[96.9018,4.7443],[96.9062,4.7465],[96.9106,4.7387]]]}},{"type":"Feature","properties":{"name":"GunungAntara","name_en":"GunungAntara","admin_level":"7","osm_id":""},"geometry":{"type":"Polygon","coordinates":[[[96.9056,4.72],[96.9087,4.722],[96.913,4.7205],[96.9191,4.7212],[96.927,4.7188],[96.9328,4.721],[96.9368,4.7207],[96.9442,4.7123],[96.9458,4.6997],[96.9274,4.702],[96.9121,4.7096],[96.9056,4.72]]]}},{"type":"Feature","properties":{"name":"GunungMusara","name_en":"GunungMusara","admin_level":"7","osm_id":""},"geometry":{"type":"Polygon","coordinates":[[[96.931,4.763],[96.928,4.7624],[96.9277,4.7648],[96.9253,4.7646],[96.922,4.77],[96.9396,4.7685],[96.9361,4.7616],[96.931,4.763]]]}},{"type":"Feature","properties":{"name":"HakimWihIlang","name_en":"HakimWihIlang","admin_level":"7","osm_id":""},"geometry":{"type":"Polygon","coordinates":[[[96.9153,4.739],[96.9188,4.7337],[96.9184,4.731],[96.9236,4.7301],[96.9241,4.7285],[96.9216,4.7253],[96.9118,4.7214],[96.9102,4.7218],[96.9105,4.7262],[96.9084,4.7287],[96.9133,4.7297],[96.913,4.7395],[96.9153,4.739]]]}},{"type":"Feature","properties":{"name":"HutanBandar","name_en":"HutanBandar","admin_level":"7","osm_id":""},"geometry":{"type":"Polygon","coordinates":[[[96.9809,4.6414],[96.9545,4.6514],[96.929,4.6567],[96.9214,4.657],[96.9202,4.6616],[96.9218,4.6777],[96.9299,4.6925],[96.9279,4.7019],[96.9432,4.6995],[96.9561,4.701],[96.9731,4.6987],[96.9714,4.7118],[96.9764,4.7135],[96.9815,4.7124],[96.981,4.7142],[96.9835,4.7176],[96.9817,4.7194],[96.9829,4.7199],[96.9792,4.7366],[96.98,4.7478],[96.9857,4.747],[96.9878,4.7374],[96.9905,4.7341],[96.9889,4.7213],[96.9933,4.7125],[96.984,4.7118],[96.9804,4.7053],[96.9809,4.6414]]]}},{"type":"Feature","properties":{"name":"JadiSepakat","name_en":"JadiSepakat","admin_level":"7","osm_id":""},"geometry":{"type":"Polygon","coordinates":[[[96.9291,4.7472],[96.9233,4.7467],[96.9191,4.7483],[96.9201,4.7486],[96.9187,4.7507],[96.9305,4.7531],[96.9341,4.7497],[96.9291,4.7472]]]}},{"type":"Feature","properties":{"name":"Janarata","name_en":"Janarata","admin_level":"7","osm_id":""},"geometry":{"type":"Polygon","coordinates":[[[96.9113,4.7573],[96.9141,4.7617],[96.9155,4.7625],[96.9154,4.7552],[96.9114,4.7551],[96.9113,4.7573]]]}},{"type":"Feature","properties":{"name":"JongokMeluem","name_en":"JongokMeluem","admin_level":"7","osm_id":""},"geometry":{"type":"Polygon","coordinates":[[[96.9014,4.7568],[96.9028,4.7676],[96.908,4.769],[96.9094,4.7653],[96.9139,4.7628],[96.9139,4.7602],[96.9113,4.7573],[96.9092,4.7591],[96.9014,4.7568]]]}},{"type":"Feature","properties":{"name":"KalaNempan","name_en":"KalaNempan","admin_level":"7","osm_id":""},"geometry":{"type":"Polygon","coordinates":[[[96.934,4.7621],[96.9361,4.7616],[96.9358,4.7592],[96.939,4.758],[96.9367,4.7526],[96.9314,4.7524],[96.934,4.7621]]]}},{"type":"Feature","properties":{"name":"KalaTenang","name_en":"KalaTenang","admin_level":"7","osm_id":""},"geometry":{"type":"Polygon","coordinates":[[[96.9338,4.7692],[96.9322,4.7749],[96.9349,4.7804],[96.938,4.7795],[96.938,4.7765],[96.9429,4.7759],[96.9426,4.7719],[96.9396,4.7685],[96.9338,4.7692]]]}},{"type":"Feature","properties":{"name":"KeramatJaya","name_en":"KeramatJaya","admin_level":"7","osm_id":""},"geometry":{"type":"Polygon","coordinates":[[[96.9307,4.7382],[96.9221,4.7401],[96.9191,4.7447],[96.9191,4.7483],[96.9233,4.7467],[96.9331,4.7465],[96.9323,4.7386],[96.9307,4.7382]]]}},{"type":"Feature","properties":{"name":"LewaJadi","name_en":"LewaJadi","admin_level":"7","osm_id":""},"geometry":{"type":"Polygon","coordinates":[[[96.9321,4.7208],[96.927,4.7188],[96.9191,4.7212],[96.9128,4.7213],[96.9135,4.7229],[96.9216,4.7253],[96.9241,4.7288],[96.9266,4.7261],[96.9322,4.7249],[96.9321,4.7208]]]}},{"type":"Feature","properties":{"name":"LotBenerKelipah","name_en":"LotBenerKelipah","admin_level":"7","osm_id":""},"geometry":{"type":"Polygon","coordinates":[[[96.9074,4.7725],[96.9158,4.7825],[96.9224,4.7816],[96.9215,4.7766],[96.9187,4.7756],[96.9237,4.774],[96.9214,4.7701],[96.9074,4.7725]]]}},{"type":"Feature","properties":{"name":"MakmurSentosa","name_en":"MakmurSentosa","admin_level":"7","osm_id":""},"geometry":{"type":"Polygon","coordinates":[[[96.913,4.7395],[96.9106,4.7387],[96.9016,4.752],[96.9035,4.7524],[96.9079,4.7497],[96.9087,4.747],[96.9129,4.7471],[96.914,4.7413],[96.913,4.7395]]]}},{"type":"Feature","properties":{"name":"Mutiara","name_en":"Mutiara","admin_level":"7","osm_id":""},"geometry":{"type":"Polygon","coordinates":[[[96.9113,4.7573],[96.9115,4.754],[96.9129,4.7535],[96.9124,4.7517],[96.9097,4.7517],[96.9068,4.7586],[96.9103,4.7588],[96.9113,4.7573]]]}},{"type":"Feature","properties":{"name":"MuyangKuteMangku","name_en":"MuyangKuteMangku","admin_level":"7","osm_id":""},"geometry":{"type":"Polygon","coordinates":[[[96.9793,4.7385],[96.9809,4.7243],[96.9829,4.7199],[96.9817,4.7194],[96.9835,4.7176],[96.981,4.7142],[96.9815,4.7124],[96.9764,4.7135],[96.9714,4.7118],[96.9613,4.7149],[96.9586,4.72],[96.9641,4.7323],[96.9638,4.7383],[96.9676,4.7395],[96.9721,4.7369],[96.9737,4.7384],[96.9793,4.7385]]]}},{"type":"Feature","properties":{"name":"NosarBaru","name_en":"NosarBaru","admin_level":"7","osm_id":""},"geometry":{"type":"Polygon","coordinates":[[[96.9022,4.7772],[96.8954,4.7797],[96.8915,4.7788],[96.8939,4.7854],[96.8991,4.7915],[96.9051,4.7856],[96.9053,4.7829],[96.9022,4.7772]]]}},{"type":"Feature","properties":{"name":"NosarTawarJaya","name_en":"NosarTawarJaya","admin_level":"7","osm_id":""},"geometry":{"type":"Polygon","coordinates":[[[96.9109,4.7769],[96.9022,4.7772],[96.9023,4.7788],[96.9061,4.7833],[96.9158,4.7825],[96.9109,4.7769]]]}},{"type":"Feature","properties":{"name":"PakatJeroh","name_en":"PakatJeroh","admin_level":"7","osm_id":""},"geometry":{"type":"Polygon","coordinates":[[[96.9361,4.7616],[96.9428,4.7744],[96.9481,4.7745],[96.9457,4.7699],[96.9446,4.7582],[96.9415,4.7518],[96.937,4.7516],[96.939,4.758],[96.9358,4.7592],[96.9361,4.7616]]]}},{"type":"Feature","properties":{"name":"PayaBaning","name_en":"PayaBaning","admin_level":"7","osm_id":""},"geometry":{"type":"Polygon","coordinates":[[[96.9588,4.7369],[96.9638,4.7383],[96.9636,4.731],[96.9549,4.7321],[96.9482,4.7303],[96.9444,4.7325],[96.9397,4.7324],[96.9398,4.7367],[96.9414,4.7372],[96.9588,4.7369]]]}},{"type":"Feature","properties":{"name":"PetukelBlangJorong","name_en":"PetukelBlangJorong","admin_level":"7","osm_id":""},"geometry":{"type":"Polygon","coordinates":[[[96.9524,4.7442],[96.9588,4.7369],[96.9427,4.7369],[96.9408,4.7386],[96.9323,4.7386],[96.9335,4.7469],[96.9394,4.7469],[96.943,4.7438],[96.9478,4.7428],[96.9524,4.7442]]]}},{"type":"Feature","properties":{"name":"PondokBaru","name_en":"PondokBaru","admin_level":"7","osm_id":""},"geometry":{"type":"Polygon","coordinates":[[[96.9179,4.7621],[96.9185,4.7556],[96.9154,4.7552],[96.9151,4.7618],[96.9179,4.7621]]]}},{"type":"Feature","properties":{"name":"PondokGajah","name_en":"PondokGajah","admin_level":"7","osm_id":""},"geometry":{"type":"Polygon","coordinates":[[[96.8936,4.7569],[96.9028,4.7557],[96.9035,4.7524],[96.9015,4.7516],[96.9062,4.7465],[96.9037,4.7446],[96.8974,4.7438],[96.8934,4.7509],[96.8936,4.7569]]]}},{"type":"Feature","properties":{"name":"PondokUlung","name_en":"PondokUlung","admin_level":"7","osm_id":""},"geometry":{"type":"Polygon","coordinates":[[[96.9258,4.7568],[96.931,4.763],[96.934,4.7621],[96.9314,4.7524],[96.9267,4.7527],[96.9258,4.7568]]]}},{"type":"Feature","properties":{"name":"PujaMulia","name_en":"PujaMulia","admin_level":"7","osm_id":""},"geometry":{"type":"Polygon","coordinates":[[[96.9185,4.7556],[96.9258,4.7568],[96.9267,4.7526],[96.9187,4.7507],[96.9165,4.7523],[96.9124,4.7517],[96.9129,4.7535],[96.9114,4.7551],[96.9185,4.7556]]]}},{"type":"Feature","properties":{"name":"Purwosari","name_en":"Purwosari","admin_level":"7","osm_id":""},"geometry":{"type":"Polygon","coordinates":[[[96.9119,4.7475],[96.9087,4.747],[96.9098,4.7519],[96.9165,4.7523],[96.9119,4.749],[96.9119,4.7475]]]}},{"type":"Feature","properties":{"name":"RemangKetikeJaya","name_en":"RemangKetikeJaya","admin_level":"7","osm_id":""},"geometry":{"type":"Polygon","coordinates":[[[96.9242,4.7294],[96.925,4.7327],[96.9294,4.7357],[96.9332,4.732],[96.9336,4.729],[96.9322,4.7249],[96.9266,4.7261],[96.9242,4.7294]]]}},{"type":"Feature","properties":{"name":"SelamatRejo","name_en":"SelamatRejo","admin_level":"7","osm_id":""},"geometry":{"type":"Polygon","coordinates":[[[96.9483,4.7557],[96.96,4.7547],[96.9598,4.7472],[96.9478,4.7428],[96.943,4.7438],[96.9419,4.7446],[96.9431,4.7491],[96.9462,4.7504],[96.9483,4.7557]]]}},{"type":"Feature","properties":{"name":"SelisihMara","name_en":"SelisihMara","admin_level":"7","osm_id":""},"geometry":{"type":"Polygon","coordinates":[[[96.9536,4.7665],[96.9474,4.7593],[96.9487,4.7563],[96.9462,4.7504],[96.9415,4.7518],[96.9446,4.7582],[96.9465,4.7719],[96.9476,4.7731],[96.9493,4.7713],[96.95,4.773],[96.9518,4.7727],[96.9504,4.769],[96.9536,4.7665]]]}},{"type":"Feature","properties":{"name":"Sidodadi","name_en":"Sidodadi","admin_level":"7","osm_id":""},"geometry":{"type":"Polygon","coordinates":[[[96.9291,4.7472],[96.9339,4.749],[96.9314,4.7524],[96.9329,4.7532],[96.9462,4.7504],[96.9431,4.7491],[96.9419,4.7446],[96.9372,4.7473],[96.9362,4.746],[96.9291,4.7472]]]}},{"type":"Feature","properties":{"name":"SimpangUtama","name_en":"SimpangUtama","admin_level":"7","osm_id":""},"geometry":{"type":"Polygon","coordinates":[[[96.9014,4.7568],[96.9068,4.7586],[96.9097,4.7517],[96.9083,4.7493],[96.9038,4.7518],[96.9035,4.7549],[96.9014,4.7568]]]}},{"type":"Feature","properties":{"name":"SinarJayaPayaRingkel","name_en":"SinarJayaPayaRingkel","admin_level":"7","osm_id":""},"geometry":{"type":"Polygon","coordinates":[[[96.9638,4.7383],[96.9659,4.7458],[96.9795,4.7399],[96.9793,4.7385],[96.9737,4.7384],[96.9721,4.7369],[96.9676,4.7395],[96.9638,4.7383]]]}},{"type":"Feature","properties":{"name":"SukuBener","name_en":"SukuBener","admin_level":"7","osm_id":""},"geometry":{"type":"Polygon","coordinates":[[[96.9191,4.7644],[96.9189,4.7626],[96.9141,4.7617],[96.9094,4.7653],[96.908,4.769],[96.9028,4.7676],[96.9066,4.7701],[96.9074,4.7725],[96.9128,4.7723],[96.9142,4.7714],[96.914,4.7681],[96.9191,4.7644]]]}},{"type":"Feature","properties":{"name":"SukuWihIlang","name_en":"SukuWihIlang","admin_level":"7","osm_id":""},"geometry":{"type":"Polygon","coordinates":[[[96.904,4.736],[96.8975,4.7368],[96.8974,4.7438],[96.9018,4.7443],[96.9021,4.7393],[96.904,4.736]]]}},{"type":"Feature","properties":{"name":"TanjungPura","name_en":"TanjungPura","admin_level":"7","osm_id":""},"geometry":{"type":"Polygon","coordinates":[[[96.9294,4.7357],[96.931,4.7386],[96.9341,4.7391],[96.9408,4.7386],[96.9414,4.7372],[96.9398,4.7367],[96.9398,4.7284],[96.9373,4.7265],[96.9353,4.7212],[96.9321,4.7208],[96.9334,4.7312],[96.9294,4.7357]]]}},{"type":"Feature","properties":{"name":"TansaranBidin","name_en":"TansaranBidin","admin_level":"7","osm_id":""},"geometry":{"type":"Polygon","coordinates":[[[96.9458,4.6997],[96.9442,4.7123],[96.9356,4.7211],[96.9383,4.7225],[96.9504,4.7238],[96.955,4.7224],[96.9565,4.7203],[96.959,4.7222],[96.9589,4.7178],[96.9613,4.7149],[96.9714,4.7118],[96.9731,4.6987],[96.9561,4.701],[96.9458,4.6997]]]}},{"type":"Feature","properties":{"name":"TawarSedenge","name_en":"TawarSedenge","admin_level":"7","osm_id":""},"geometry":{"type":"Polygon","coordinates":[[[96.9193,4.7445],[96.9177,4.7386],[96.913,4.7395],[96.9136,4.7453],[96.9119,4.749],[96.9173,4.7519],[96.9201,4.7486],[96.9193,4.7445]]]}},{"type":"Feature","properties":{"name":"Wonosari","name_en":"Wonosari","admin_level":"7","osm_id":""},"geometry":{"type":"Polygon","coordinates":[[[96.9356,4.7211],[96.9373,4.7265],[96.9398,4.7284],[96.9402,4.7329],[96.9452,4.7323],[96.9482,4.7303],[96.9549,4.7321],[96.9636,4.731],[96.959,4.7222],[96.9565,4.7203],[96.955,4.7224],[96.9504,4.7238],[96.9425,4.7239],[96.9356,4.7211]]]}}]}