{"type":"FeatureCollection","metadata":{"parent_osm_id":"5615325","parent_name":"Sedayu","parent_name_1":"Yogyakarta","parent_gid":"IDN.33.1.15_1","parent_level":"6","child_level":"7","count":4,"source":"GADM 4.1","generated":"2026-05-09"},"features":[{"type":"Feature","properties":{"name":"Argodadi","name_en":"Argodadi","admin_level":"7","osm_id":""},"geometry":{"type":"Polygon","coordinates":[[[110.2671,-7.8364],[110.2647,-7.8406],[110.2646,-7.8462],[110.2578,-7.8545],[110.254,-7.8641],[110.2376,-7.8529],[110.2327,-7.8455],[110.2231,-7.8402],[110.2211,-7.8364],[110.2308,-7.83],[110.2334,-7.8325],[110.2356,-7.8314],[110.2423,-7.8196],[110.2439,-7.821],[110.2428,-7.8239],[110.2462,-7.8343],[110.2502,-7.8341],[110.2527,-7.8375],[110.2538,-7.8359],[110.2589,-7.8354],[110.2671,-7.8364]]]}},{"type":"Feature","properties":{"name":"Argomulyo","name_en":"Argomulyo","admin_level":"7","osm_id":""},"geometry":{"type":"Polygon","coordinates":[[[110.2883,-7.8332],[110.2851,-7.8331],[110.2842,-7.8359],[110.2773,-7.8336],[110.2759,-7.8323],[110.2757,-7.8256],[110.2725,-7.8233],[110.2712,-7.8195],[110.2681,-7.8193],[110.2689,-7.8056],[110.2636,-7.8055],[110.2636,-7.8074],[110.2612,-7.8052],[110.2589,-7.8058],[110.269,-7.7937],[110.2757,-7.7918],[110.2794,-7.785],[110.2838,-7.7862],[110.2864,-7.784],[110.2888,-7.7849],[110.2865,-7.7874],[110.2904,-7.7892],[110.2909,-7.7934],[110.29,-7.7975],[110.2868,-7.8001],[110.287,-7.8029],[110.282,-7.8063],[110.2838,-7.8081],[110.2821,-7.8171],[110.2847,-7.8169],[110.2876,-7.8219],[110.2883,-7.8332]]]}},{"type":"Feature","properties":{"name":"Argorejo","name_en":"Argorejo","admin_level":"7","osm_id":""},"geometry":{"type":"Polygon","coordinates":[[[110.2785,-7.8347],[110.2763,-7.8377],[110.2589,-7.8354],[110.2538,-7.8359],[110.2526,-7.8375],[110.2502,-7.8341],[110.2462,-7.8343],[110.2449,-7.8273],[110.2492,-7.8256],[110.2488,-7.8239],[110.2518,-7.8217],[110.2535,-7.822],[110.2541,-7.8187],[110.2499,-7.8191],[110.2498,-7.8161],[110.2521,-7.8132],[110.2547,-7.8137],[110.2574,-7.8085],[110.2623,-7.8121],[110.2624,-7.8149],[110.2638,-7.8155],[110.2662,-7.8136],[110.2652,-7.8107],[110.2665,-7.8107],[110.2669,-7.8088],[110.2635,-7.8082],[110.2636,-7.8055],[110.2689,-7.8056],[110.2681,-7.8193],[110.2712,-7.8195],[110.2725,-7.8233],[110.2757,-7.8256],[110.2759,-7.8323],[110.2785,-7.8347]]]}},{"type":"Feature","properties":{"name":"Argosari","name_en":"Argosari","admin_level":"7","osm_id":""},"geometry":{"type":"Polygon","coordinates":[[[110.2449,-7.8273],[110.2428,-7.8239],[110.2439,-7.821],[110.2423,-7.8196],[110.2356,-7.8314],[110.2334,-7.8325],[110.2308,-7.83],[110.2337,-7.8234],[110.2346,-7.8128],[110.2404,-7.8064],[110.2447,-7.8047],[110.2478,-7.8058],[110.2483,-7.8038],[110.2505,-7.8036],[110.2539,-7.7961],[110.2574,-7.7973],[110.2559,-7.8],[110.2569,-7.8003],[110.2637,-7.7941],[110.2678,-7.7957],[110.2589,-7.8058],[110.2612,-7.8052],[110.2635,-7.8082],[110.2669,-7.8088],[110.2665,-7.8107],[110.2652,-7.8107],[110.2662,-7.8136],[110.2629,-7.8153],[110.2623,-7.8121],[110.2574,-7.8085],[110.2547,-7.8137],[110.2522,-7.8131],[110.2498,-7.8161],[110.2499,-7.8191],[110.2541,-7.8187],[110.2535,-7.822],[110.2518,-7.8217],[110.2488,-7.8239],[110.2492,-7.8256],[110.2449,-7.8273]]]}}]}