{"type":"FeatureCollection","metadata":{"parent_osm_id":"gid_IDN_21_6_19_1","parent_name":"Nekamese","parent_name_1":"NusaTenggaraTimur","parent_gid":"IDN.21.6.19_1","parent_level":"6","child_level":"7","count":11,"source":"GADM 4.1","generated":"2026-05-08"},"features":[{"type":"Feature","properties":{"name":"Besmarak","name_en":"Besmarak","admin_level":"7","osm_id":""},"geometry":{"type":"Polygon","coordinates":[[[123.6848,-10.2488],[123.6708,-10.2583],[123.6628,-10.2584],[123.6614,-10.2501],[123.6638,-10.2382],[123.6758,-10.2343],[123.6813,-10.2407],[123.6848,-10.2488]]]}},{"type":"Feature","properties":{"name":"Bone","name_en":"Bone","admin_level":"7","osm_id":""},"geometry":{"type":"Polygon","coordinates":[[[123.5618,-10.3048],[123.5652,-10.3055],[123.5696,-10.3023],[123.5737,-10.3043],[123.5766,-10.2989],[123.5801,-10.2976],[123.5806,-10.3183],[123.6038,-10.3286],[123.609,-10.3282],[123.6125,-10.3258],[123.6142,-10.3333],[123.6174,-10.3386],[123.6072,-10.3482],[123.5994,-10.3532],[123.5933,-10.3486],[123.5844,-10.345],[123.5754,-10.3443],[123.5705,-10.3389],[123.5693,-10.3333],[123.5637,-10.3306],[123.5632,-10.3219],[123.5659,-10.3138],[123.5677,-10.3126],[123.5618,-10.3048]]]}},{"type":"Feature","properties":{"name":"Oben","name_en":"Oben","admin_level":"7","osm_id":""},"geometry":{"type":"Polygon","coordinates":[[[123.6982,-10.271],[123.6934,-10.2732],[123.6848,-10.2736],[123.6729,-10.2828],[123.6678,-10.2744],[123.6628,-10.2584],[123.6724,-10.2576],[123.684,-10.2485],[123.6939,-10.2516],[123.6961,-10.2505],[123.6965,-10.2522],[123.7064,-10.2486],[123.7077,-10.25],[123.7123,-10.25],[123.7124,-10.2484],[123.7153,-10.2491],[123.7159,-10.2466],[123.7185,-10.2465],[123.7218,-10.2437],[123.7202,-10.2416],[123.7238,-10.2366],[123.726,-10.2372],[123.7253,-10.239],[123.7275,-10.2402],[123.7329,-10.2411],[123.7307,-10.2428],[123.7317,-10.2445],[123.7272,-10.2518],[123.7263,-10.2562],[123.723,-10.2586],[123.7225,-10.2626],[123.7188,-10.264],[123.7079,-10.264],[123.6982,-10.271]]]}},{"type":"Feature","properties":{"name":"Oelomin","name_en":"Oelomin","admin_level":"7","osm_id":""},"geometry":{"type":"Polygon","coordinates":[[[123.6201,-10.232],[123.6335,-10.2254],[123.6362,-10.2216],[123.6388,-10.2217],[123.6395,-10.2178],[123.6525,-10.2229],[123.6469,-10.2249],[123.6433,-10.2395],[123.637,-10.2438],[123.6305,-10.2412],[123.6201,-10.232]]]}},{"type":"Feature","properties":{"name":"Oemasi","name_en":"Oemasi","admin_level":"7","osm_id":""},"geometry":{"type":"Polygon","coordinates":[[[123.6291,-10.2857],[123.6391,-10.2443],[123.6467,-10.248],[123.6506,-10.2544],[123.6555,-10.2545],[123.6582,-10.2573],[123.6628,-10.2584],[123.6678,-10.2744],[123.6729,-10.2828],[123.6634,-10.2907],[123.6641,-10.2923],[123.6617,-10.295],[123.6582,-10.2908],[123.6508,-10.2907],[123.6397,-10.2832],[123.6353,-10.2836],[123.6322,-10.286],[123.6291,-10.2857]]]}},{"type":"Feature","properties":{"name":"Oenif","name_en":"Oenif","admin_level":"7","osm_id":""},"geometry":{"type":"Polygon","coordinates":[[[123.6256,-10.2877],[123.6397,-10.2832],[123.6508,-10.2907],[123.6582,-10.2908],[123.6624,-10.2953],[123.6671,-10.3046],[123.6648,-10.3111],[123.668,-10.313],[123.6687,-10.3167],[123.6614,-10.3174],[123.6537,-10.3213],[123.6492,-10.3218],[123.6475,-10.3217],[123.6478,-10.318],[123.6455,-10.3156],[123.6376,-10.3169],[123.6371,-10.3137],[123.6393,-10.3117],[123.6285,-10.3068],[123.6293,-10.3016],[123.625,-10.2965],[123.6256,-10.2877]]]}},{"type":"Feature","properties":{"name":"Oepaha","name_en":"Oepaha","admin_level":"7","osm_id":""},"geometry":{"type":"Polygon","coordinates":[[[123.6728,-10.3211],[123.6712,-10.3294],[123.668,-10.3296],[123.6683,-10.3338],[123.6656,-10.3377],[123.6677,-10.3396],[123.6685,-10.3442],[123.6667,-10.3509],[123.6528,-10.35],[123.6398,-10.3546],[123.6353,-10.3491],[123.6353,-10.3445],[123.6297,-10.3357],[123.6305,-10.3322],[123.6345,-10.3284],[123.634,-10.3244],[123.6438,-10.3218],[123.6526,-10.3216],[123.6631,-10.3172],[123.6687,-10.3167],[123.6689,-10.3187],[123.6728,-10.3211]]]}},{"type":"Feature","properties":{"name":"Taloetan","name_en":"Taloetan","admin_level":"7","osm_id":""},"geometry":{"type":"Polygon","coordinates":[[[123.5855,-10.2888],[123.59,-10.2867],[123.6005,-10.2894],[123.6003,-10.2916],[123.6022,-10.2933],[123.6008,-10.2947],[123.6019,-10.298],[123.6056,-10.2992],[123.6065,-10.3013],[123.6053,-10.3066],[123.6115,-10.3152],[123.6125,-10.3258],[123.6106,-10.3276],[123.6038,-10.3286],[123.5997,-10.3275],[123.5806,-10.3183],[123.5801,-10.2976],[123.5842,-10.2958],[123.5836,-10.2913],[123.5855,-10.2888]]]}},{"type":"Feature","properties":{"name":"Tasikona","name_en":"Tasikona","admin_level":"7","osm_id":""},"geometry":{"type":"Polygon","coordinates":[[[123.5994,-10.3532],[123.6072,-10.3482],[123.6229,-10.3339],[123.6287,-10.3258],[123.634,-10.3244],[123.6345,-10.3284],[123.6305,-10.3322],[123.6297,-10.3357],[123.6353,-10.3445],[123.6353,-10.3491],[123.6398,-10.3546],[123.6337,-10.3577],[123.6318,-10.3544],[123.6255,-10.3564],[123.6159,-10.3639],[123.612,-10.3701],[123.6057,-10.3665],[123.5994,-10.3532]]]}},{"type":"Feature","properties":{"name":"Tunfeu","name_en":"Tunfeu","admin_level":"7","osm_id":""},"geometry":{"type":"Polygon","coordinates":[[[123.6391,-10.2443],[123.637,-10.2438],[123.6441,-10.2378],[123.6469,-10.2249],[123.6525,-10.2229],[123.6629,-10.2267],[123.6649,-10.2289],[123.6615,-10.2477],[123.6628,-10.2584],[123.6582,-10.2573],[123.6555,-10.2545],[123.6506,-10.2544],[123.6467,-10.248],[123.6391,-10.2443]]]}},{"type":"Feature","properties":{"name":"Usapisonbai","name_en":"Usapisonbai","admin_level":"7","osm_id":""},"geometry":{"type":"Polygon","coordinates":[[[123.6022,-10.2933],[123.606,-10.2914],[123.6131,-10.293],[123.622,-10.287],[123.6256,-10.2877],[123.625,-10.2965],[123.6293,-10.3016],[123.6285,-10.3068],[123.6393,-10.3117],[123.6371,-10.3137],[123.6376,-10.3169],[123.647,-10.3162],[123.6475,-10.3217],[123.6289,-10.3256],[123.6234,-10.3334],[123.6174,-10.3386],[123.6139,-10.3322],[123.6114,-10.3146],[123.6053,-10.3066],[123.6065,-10.3012],[123.6056,-10.2992],[123.6021,-10.2982],[123.6009,-10.2956],[123.6022,-10.2933]]]}}]}