{"type":"FeatureCollection","metadata":{"parent_osm_id":"9687052","parent_name":"Boyolali","parent_name_1":"JawaTengah","parent_gid":"IDN.10.5.4_1","parent_level":"6","child_level":"7","count":9,"source":"GADM 4.1","generated":"2026-05-09"},"features":[{"type":"Feature","properties":{"name":"Banaran","name_en":"Banaran","admin_level":"7","osm_id":""},"geometry":{"type":"Polygon","coordinates":[[[110.5983,-7.5194],[110.5991,-7.5215],[110.6008,-7.5201],[110.6065,-7.5205],[110.6025,-7.5321],[110.5984,-7.5277],[110.5915,-7.5242],[110.5934,-7.5173],[110.5983,-7.5194]]]}},{"type":"Feature","properties":{"name":"Karanggeneng","name_en":"Karanggeneng","admin_level":"7","osm_id":""},"geometry":{"type":"Polygon","coordinates":[[[110.6025,-7.5321],[110.6065,-7.5205],[110.5981,-7.5213],[110.6,-7.5146],[110.5978,-7.5115],[110.6043,-7.5101],[110.6059,-7.5071],[110.6115,-7.5072],[110.6113,-7.5095],[110.6155,-7.5095],[110.614,-7.5232],[110.6099,-7.5315],[110.6103,-7.5349],[110.6043,-7.5345],[110.6025,-7.5321]]]}},{"type":"Feature","properties":{"name":"Kebonbimo","name_en":"Kebonbimo","admin_level":"7","osm_id":""},"geometry":{"type":"Polygon","coordinates":[[[110.5994,-7.4983],[110.6006,-7.494],[110.606,-7.4878],[110.615,-7.4896],[110.6184,-7.4882],[110.6218,-7.4915],[110.6279,-7.4919],[110.6328,-7.49],[110.634,-7.4916],[110.6323,-7.4942],[110.6262,-7.4933],[110.624,-7.495],[110.6182,-7.4946],[110.6106,-7.4988],[110.5994,-7.4983]]]}},{"type":"Feature","properties":{"name":"Kiringan","name_en":"Kiringan","admin_level":"7","osm_id":""},"geometry":{"type":"Polygon","coordinates":[[[110.5926,-7.4968],[110.5994,-7.4983],[110.6012,-7.5031],[110.607,-7.5037],[110.6051,-7.5096],[110.6015,-7.5116],[110.5978,-7.5115],[110.5999,-7.5143],[110.5991,-7.5195],[110.5883,-7.5149],[110.5926,-7.4968]]]}},{"type":"Feature","properties":{"name":"Mudal","name_en":"Mudal","admin_level":"7","osm_id":""},"geometry":{"type":"Polygon","coordinates":[[[110.6155,-7.5095],[110.6113,-7.5095],[110.6115,-7.5072],[110.6059,-7.5071],[110.607,-7.5037],[110.6005,-7.5027],[110.5994,-7.4983],[110.6106,-7.4988],[110.6182,-7.4946],[110.624,-7.495],[110.6262,-7.4933],[110.6323,-7.4942],[110.6253,-7.5049],[110.6226,-7.5053],[110.6183,-7.5102],[110.6155,-7.5095]]]}},{"type":"Feature","properties":{"name":"Penggung","name_en":"Penggung","admin_level":"7","osm_id":""},"geometry":{"type":"Polygon","coordinates":[[[110.5652,-7.4909],[110.5612,-7.4888],[110.5687,-7.4868],[110.5752,-7.4881],[110.5798,-7.4895],[110.5791,-7.496],[110.5926,-7.4968],[110.5883,-7.5149],[110.5865,-7.5141],[110.5862,-7.5076],[110.5824,-7.507],[110.5823,-7.5084],[110.58,-7.5085],[110.5813,-7.5105],[110.5789,-7.511],[110.5784,-7.5084],[110.5703,-7.5095],[110.571,-7.506],[110.5589,-7.509],[110.5492,-7.5084],[110.5494,-7.505],[110.5598,-7.5053],[110.5664,-7.5034],[110.5657,-7.497],[110.5627,-7.4935],[110.5652,-7.4909]]]}},{"type":"Feature","properties":{"name":"Pulisen","name_en":"Pulisen","admin_level":"7","osm_id":""},"geometry":{"type":"Polygon","coordinates":[[[110.5915,-7.5242],[110.5978,-7.5277],[110.5971,-7.5331],[110.6012,-7.5338],[110.5976,-7.5453],[110.5888,-7.5415],[110.5911,-7.5345],[110.5883,-7.5351],[110.5884,-7.5303],[110.5907,-7.5301],[110.5915,-7.5242]]]}},{"type":"Feature","properties":{"name":"Siswodipuran","name_en":"Siswodipuran","admin_level":"7","osm_id":""},"geometry":{"type":"Polygon","coordinates":[[[110.5978,-7.5277],[110.6043,-7.5345],[110.6103,-7.5351],[110.6102,-7.538],[110.6117,-7.5378],[110.6084,-7.5415],[110.6055,-7.5491],[110.5976,-7.5453],[110.6012,-7.5338],[110.5971,-7.5331],[110.5978,-7.5277]]]}},{"type":"Feature","properties":{"name":"Winong","name_en":"Winong","admin_level":"7","osm_id":""},"geometry":{"type":"Polygon","coordinates":[[[110.5934,-7.5173],[110.5907,-7.5301],[110.5884,-7.5303],[110.5883,-7.5351],[110.5753,-7.5357],[110.5738,-7.5378],[110.5758,-7.5393],[110.5746,-7.5397],[110.5696,-7.538],[110.5725,-7.5261],[110.5706,-7.5257],[110.5707,-7.5224],[110.5695,-7.5224],[110.5705,-7.5155],[110.5717,-7.5137],[110.5742,-7.5142],[110.5755,-7.5085],[110.5784,-7.5084],[110.5789,-7.511],[110.5813,-7.5105],[110.58,-7.5085],[110.5823,-7.5084],[110.5824,-7.507],[110.5862,-7.5076],[110.5865,-7.5141],[110.5934,-7.5173]]]}}]}