{"type":"FeatureCollection","metadata":{"parent_osm_id":"gid_IDN_10_24_14_1","parent_name":"Mrebet","parent_name_1":"JawaTengah","parent_gid":"IDN.10.24.14_1","parent_level":"6","child_level":"7","count":19,"source":"GADM 4.1","generated":"2026-05-07"},"features":[{"type":"Feature","properties":{"name":"Binangun","name_en":"Binangun","admin_level":"7","osm_id":""},"geometry":{"type":"Polygon","coordinates":[[[109.3112,-7.3066],[109.2976,-7.2876],[109.2978,-7.2844],[109.296,-7.284],[109.2944,-7.2804],[109.2899,-7.2782],[109.288,-7.2731],[109.2883,-7.2684],[109.2832,-7.2627],[109.2844,-7.2574],[109.2959,-7.2641],[109.303,-7.2883],[109.3075,-7.2941],[109.3103,-7.2948],[109.3156,-7.3],[109.3112,-7.3066]]]}},{"type":"Feature","properties":{"name":"Bojong","name_en":"Bojong","admin_level":"7","osm_id":""},"geometry":{"type":"Polygon","coordinates":[[[109.3285,-7.3021],[109.3313,-7.2994],[109.3395,-7.3012],[109.3438,-7.2998],[109.3484,-7.3016],[109.3501,-7.3112],[109.3477,-7.3132],[109.3467,-7.3112],[109.3437,-7.3111],[109.3285,-7.3021]]]}},{"type":"Feature","properties":{"name":"Campakoah","name_en":"Campakoah","admin_level":"7","osm_id":""},"geometry":{"type":"Polygon","coordinates":[[[109.3075,-7.2752],[109.3095,-7.2725],[109.3112,-7.2731],[109.3245,-7.2853],[109.3262,-7.2898],[109.3254,-7.2917],[109.328,-7.2922],[109.33,-7.296],[109.3306,-7.2997],[109.3285,-7.3021],[109.3182,-7.2957],[109.3164,-7.29],[109.319,-7.2871],[109.3186,-7.2843],[109.3075,-7.2752]]]}},{"type":"Feature","properties":{"name":"Cipaku","name_en":"Cipaku","admin_level":"7","osm_id":""},"geometry":{"type":"Polygon","coordinates":[[[109.3203,-7.3143],[109.3112,-7.3066],[109.3156,-7.3],[109.3372,-7.3143],[109.3396,-7.3137],[109.3441,-7.3192],[109.3396,-7.3277],[109.3342,-7.3215],[109.3248,-7.3177],[109.322,-7.3139],[109.3203,-7.3143]]]}},{"type":"Feature","properties":{"name":"KarangNangka","name_en":"KarangNangka","admin_level":"7","osm_id":""},"geometry":{"type":"Polygon","coordinates":[[[109.354,-7.3362],[109.3475,-7.3336],[109.3464,-7.3312],[109.3402,-7.3277],[109.345,-7.318],[109.3544,-7.3241],[109.3549,-7.3269],[109.353,-7.3318],[109.3544,-7.3332],[109.354,-7.3362]]]}},{"type":"Feature","properties":{"name":"Karangturi","name_en":"Karangturi","admin_level":"7","osm_id":""},"geometry":{"type":"Polygon","coordinates":[[[109.3595,-7.3497],[109.3552,-7.3439],[109.3569,-7.3422],[109.3561,-7.3403],[109.3602,-7.3397],[109.3631,-7.3357],[109.3689,-7.3348],[109.3685,-7.3392],[109.3711,-7.3403],[109.3695,-7.346],[109.3654,-7.3463],[109.3624,-7.3501],[109.3595,-7.3497]]]}},{"type":"Feature","properties":{"name":"Kradenan","name_en":"Kradenan","admin_level":"7","osm_id":""},"geometry":{"type":"Polygon","coordinates":[[[109.3641,-7.3155],[109.3688,-7.317],[109.38,-7.3169],[109.3752,-7.3291],[109.3734,-7.3302],[109.373,-7.3286],[109.3712,-7.3286],[109.3731,-7.3271],[109.3648,-7.3203],[109.3641,-7.3155]]]}},{"type":"Feature","properties":{"name":"Lambur","name_en":"Lambur","admin_level":"7","osm_id":""},"geometry":{"type":"Polygon","coordinates":[[[109.3584,-7.3043],[109.3559,-7.3058],[109.3602,-7.3075],[109.3641,-7.314],[109.3642,-7.3191],[109.3551,-7.3119],[109.3505,-7.3102],[109.3493,-7.3031],[109.3461,-7.3015],[109.3499,-7.2985],[109.353,-7.3023],[109.3584,-7.3043]]]}},{"type":"Feature","properties":{"name":"Mangunegara","name_en":"Mangunegara","admin_level":"7","osm_id":""},"geometry":{"type":"Polygon","coordinates":[[[109.3581,-7.3392],[109.354,-7.3362],[109.3544,-7.3332],[109.353,-7.3318],[109.3549,-7.3269],[109.3652,-7.3334],[109.3693,-7.333],[109.3683,-7.3359],[109.3631,-7.3357],[109.3607,-7.3393],[109.3581,-7.3392]]]}},{"type":"Feature","properties":{"name":"Mrebet","name_en":"Mrebet","admin_level":"7","osm_id":""},"geometry":{"type":"Polygon","coordinates":[[[109.3437,-7.3111],[109.3467,-7.3112],[109.3477,-7.3132],[109.3505,-7.3102],[109.3546,-7.3119],[109.3531,-7.3166],[109.3573,-7.3208],[109.3533,-7.3202],[109.3539,-7.3221],[109.3524,-7.3239],[109.3503,-7.3205],[109.3436,-7.3185],[109.3417,-7.3154],[109.3437,-7.3111]]]}},{"type":"Feature","properties":{"name":"Onje","name_en":"Onje","admin_level":"7","osm_id":""},"geometry":{"type":"Polygon","coordinates":[[[109.3828,-7.3435],[109.3784,-7.3415],[109.3755,-7.3427],[109.3751,-7.346],[109.3692,-7.3457],[109.3711,-7.3403],[109.3685,-7.3392],[109.3693,-7.333],[109.3671,-7.3323],[109.3643,-7.3278],[109.3631,-7.3282],[109.3647,-7.3211],[109.371,-7.3249],[109.3732,-7.3273],[109.3712,-7.3286],[109.373,-7.3286],[109.3734,-7.3302],[109.3768,-7.3269],[109.3822,-7.3291],[109.3814,-7.3364],[109.384,-7.34],[109.3828,-7.3435]]]}},{"type":"Feature","properties":{"name":"PagerAndong","name_en":"PagerAndong","admin_level":"7","osm_id":""},"geometry":{"type":"Polygon","coordinates":[[[109.3156,-7.3],[109.3139,-7.2982],[109.3166,-7.2977],[109.3175,-7.2945],[109.3245,-7.3003],[109.3416,-7.3088],[109.3437,-7.3111],[109.3417,-7.3154],[109.3348,-7.3129],[109.3156,-7.3]]]}},{"type":"Feature","properties":{"name":"Pengalusan","name_en":"Pengalusan","admin_level":"7","osm_id":""},"geometry":{"type":"Polygon","coordinates":[[[109.2959,-7.2641],[109.2994,-7.2661],[109.303,-7.273],[109.3186,-7.2843],[109.319,-7.2871],[109.3164,-7.29],[109.3175,-7.2945],[109.3163,-7.298],[109.3128,-7.2979],[109.3103,-7.2948],[109.3075,-7.2941],[109.3033,-7.2887],[109.2959,-7.2641]]]}},{"type":"Feature","properties":{"name":"Sangkanayu","name_en":"Sangkanayu","admin_level":"7","osm_id":""},"geometry":{"type":"Polygon","coordinates":[[[109.3309,-7.2707],[109.3306,-7.2747],[109.3327,-7.2766],[109.3336,-7.2837],[109.3246,-7.2854],[109.3064,-7.2691],[109.3103,-7.2629],[109.3178,-7.2611],[109.3246,-7.2628],[109.3317,-7.267],[109.3309,-7.2707]]]}},{"type":"Feature","properties":{"name":"Selaganggeng","name_en":"Selaganggeng","admin_level":"7","osm_id":""},"geometry":{"type":"Polygon","coordinates":[[[109.3549,-7.3269],[109.3543,-7.324],[109.3524,-7.3239],[109.3539,-7.3221],[109.3533,-7.3202],[109.3573,-7.3208],[109.3531,-7.3166],[109.3549,-7.3119],[109.3652,-7.3207],[109.3632,-7.3234],[109.3631,-7.3282],[109.3643,-7.3278],[109.3669,-7.3327],[109.365,-7.3333],[109.3549,-7.3269]]]}},{"type":"Feature","properties":{"name":"SerayuKaranganyar","name_en":"SerayuKaranganyar","admin_level":"7","osm_id":""},"geometry":{"type":"Polygon","coordinates":[[[109.3437,-7.2931],[109.3499,-7.2985],[109.3461,-7.3015],[109.3438,-7.2998],[109.3395,-7.3012],[109.3306,-7.2997],[109.3297,-7.2955],[109.3364,-7.2882],[109.3399,-7.2923],[109.3437,-7.2931]]]}},{"type":"Feature","properties":{"name":"SerayuLarangan","name_en":"SerayuLarangan","admin_level":"7","osm_id":""},"geometry":{"type":"Polygon","coordinates":[[[109.3336,-7.2837],[109.3364,-7.2882],[109.3297,-7.2955],[109.328,-7.2922],[109.3254,-7.2917],[109.3262,-7.2898],[109.3246,-7.2854],[109.3336,-7.2837]]]}},{"type":"Feature","properties":{"name":"Sindang","name_en":"Sindang","admin_level":"7","osm_id":""},"geometry":{"type":"Polygon","coordinates":[[[109.388,-7.3511],[109.3836,-7.3483],[109.3851,-7.3476],[109.3828,-7.343],[109.3873,-7.336],[109.3919,-7.3387],[109.4056,-7.3413],[109.4094,-7.3492],[109.3987,-7.3508],[109.392,-7.3493],[109.388,-7.3511]]]}},{"type":"Feature","properties":{"name":"Tangkisan","name_en":"Tangkisan","admin_level":"7","osm_id":""},"geometry":{"type":"Polygon","coordinates":[[[109.3801,-7.3171],[109.3834,-7.3173],[109.3915,-7.3234],[109.3999,-7.3251],[109.4006,-7.3273],[109.3989,-7.3293],[109.4044,-7.3327],[109.405,-7.341],[109.3921,-7.3387],[109.3873,-7.336],[109.384,-7.34],[109.3814,-7.3364],[109.3822,-7.3291],[109.3756,-7.3272],[109.3801,-7.3171]]]}}]}