{"type":"FeatureCollection","metadata":{"parent_osm_id":"gid_IDN_28_11_25_1","parent_name":"TiworoSelatan","parent_name_1":"SulawesiTenggara","parent_gid":"IDN.28.11.25_1","parent_level":"6","child_level":"7","count":5,"source":"GADM 4.1","generated":"2026-05-09"},"features":[{"type":"Feature","properties":{"name":"Barakkah","name_en":"Barakkah","admin_level":"7","osm_id":""},"geometry":{"type":"Polygon","coordinates":[[[122.3707,-4.9186],[122.3656,-4.9198],[122.3674,-4.9272],[122.3614,-4.9259],[122.3599,-4.9301],[122.3564,-4.9298],[122.3495,-4.9239],[122.3498,-4.9169],[122.3473,-4.9131],[122.3672,-4.9095],[122.3707,-4.9186]]]}},{"type":"Feature","properties":{"name":"KasimpaJaya","name_en":"KasimpaJaya","admin_level":"7","osm_id":""},"geometry":{"type":"Polygon","coordinates":[[[122.3627,-4.8819],[122.3783,-4.8724],[122.3917,-4.8669],[122.3923,-4.8719],[122.4004,-4.8689],[122.4052,-4.8689],[122.4173,-4.8763],[122.385,-4.894],[122.3674,-4.9098],[122.3611,-4.8933],[122.364,-4.8899],[122.3627,-4.8819]]]}},{"type":"Feature","properties":{"name":"Katangana","name_en":"Katangana","admin_level":"7","osm_id":""},"geometry":{"type":"Polygon","coordinates":[[[122.4355,-4.8459],[122.4427,-4.8505],[122.4272,-4.881],[122.4055,-4.8691],[122.416,-4.8404],[122.4143,-4.8382],[122.425,-4.8392],[122.4355,-4.8459]]]}},{"type":"Feature","properties":{"name":"ParuraJaya","name_en":"ParuraJaya","admin_level":"7","osm_id":""},"geometry":{"type":"Polygon","coordinates":[[[122.3917,-4.8669],[122.3909,-4.8615],[122.3988,-4.8369],[122.4143,-4.8382],[122.416,-4.8404],[122.4055,-4.8691],[122.4004,-4.8689],[122.3923,-4.8719],[122.3917,-4.8669]]]}},{"type":"Feature","properties":{"name":"SangiaTiworo","name_en":"SangiaTiworo","admin_level":"7","osm_id":""},"geometry":{"type":"Polygon","coordinates":[[[122.4196,-4.8963],[122.4066,-4.8995],[122.4033,-4.9024],[122.4035,-4.9045],[122.3986,-4.911],[122.3893,-4.9124],[122.3798,-4.9211],[122.3765,-4.9218],[122.3707,-4.9186],[122.3674,-4.9098],[122.385,-4.894],[122.4171,-4.8765],[122.4272,-4.881],[122.4196,-4.8963]]]}}]}