{"type":"FeatureCollection","metadata":{"parent_osm_id":"gid_IDN_32_29_11_1","parent_name":"GunungMaligas","parent_name_1":"SumateraUtara","parent_gid":"IDN.32.29.11_1","parent_level":"6","child_level":"7","count":9,"source":"GADM 4.1","generated":"2026-05-09"},"features":[{"type":"Feature","properties":{"name":"BandarMalela","name_en":"BandarMalela","admin_level":"7","osm_id":""},"geometry":{"type":"Polygon","coordinates":[[[99.1452,3.0276],[99.1295,3.0162],[99.1263,3.0205],[99.1305,3.0227],[99.1485,3.0418],[99.1528,3.0533],[99.1559,3.0499],[99.1582,3.0417],[99.1535,3.0347],[99.1452,3.0276]]]}},{"type":"Feature","properties":{"name":"Gajing","name_en":"Gajing","admin_level":"7","osm_id":""},"geometry":{"type":"Polygon","coordinates":[[[99.1891,3.054],[99.1852,3.0489],[99.1782,3.051],[99.1701,3.0567],[99.1684,3.0634],[99.1752,3.0655],[99.1821,3.0698],[99.1934,3.081],[99.2039,3.0756],[99.1891,3.054]]]}},{"type":"Feature","properties":{"name":"HutaDipar","name_en":"HutaDipar","admin_level":"7","osm_id":""},"geometry":{"type":"Polygon","coordinates":[[[99.1691,3.0357],[99.1682,3.0336],[99.1539,3.0232],[99.1492,3.0232],[99.1452,3.0276],[99.1551,3.037],[99.163,3.0351],[99.1691,3.0357]]]}},{"type":"Feature","properties":{"name":"KarangAnyer","name_en":"KarangAnyer","admin_level":"7","osm_id":""},"geometry":{"type":"Polygon","coordinates":[[[99.1334,3.0075],[99.1356,3.0015],[99.136,2.9936],[99.128,2.9901],[99.1189,2.9821],[99.1126,2.9906],[99.1184,2.9943],[99.1192,2.9996],[99.1223,3.0041],[99.1254,3.0064],[99.1334,3.0075]]]}},{"type":"Feature","properties":{"name":"KarangRejo","name_en":"KarangRejo","admin_level":"7","osm_id":""},"geometry":{"type":"Polygon","coordinates":[[[99.1117,3.0144],[99.1234,3.0247],[99.1323,3.0125],[99.1334,3.0075],[99.1254,3.0064],[99.1192,2.9996],[99.1178,3.0052],[99.1147,3.0078],[99.1117,3.0144]]]}},{"type":"Feature","properties":{"name":"KarangSari","name_en":"KarangSari","admin_level":"7","osm_id":""},"geometry":{"type":"Polygon","coordinates":[[[99.0936,2.9974],[99.0958,3.0059],[99.1003,3.0083],[99.1036,3.0066],[99.1027,3.0089],[99.1105,3.0158],[99.1147,3.0078],[99.1178,3.0052],[99.1192,3.0008],[99.1184,2.9943],[99.1126,2.9906],[99.1054,2.9976],[99.0936,2.9974]]]}},{"type":"Feature","properties":{"name":"Rabuhit","name_en":"Rabuhit","admin_level":"7","osm_id":""},"geometry":{"type":"Polygon","coordinates":[[[99.1833,3.0934],[99.1934,3.081],[99.1821,3.0698],[99.1752,3.0655],[99.1679,3.0633],[99.1465,3.0599],[99.1425,3.0627],[99.1715,3.1113],[99.1785,3.0982],[99.1833,3.0934]]]}},{"type":"Feature","properties":{"name":"SilauBayu","name_en":"SilauBayu","admin_level":"7","osm_id":""},"geometry":{"type":"Polygon","coordinates":[[[99.1376,3.0514],[99.1425,3.0627],[99.1528,3.0533],[99.1485,3.0418],[99.1305,3.0227],[99.1263,3.0205],[99.1234,3.0247],[99.1295,3.033],[99.1376,3.0514]]]}},{"type":"Feature","properties":{"name":"Tumorang","name_en":"Tumorang","admin_level":"7","osm_id":""},"geometry":{"type":"Polygon","coordinates":[[[99.1852,3.0489],[99.1779,3.0405],[99.1696,3.0357],[99.1561,3.0363],[99.1551,3.037],[99.1582,3.0417],[99.1559,3.0499],[99.1465,3.0599],[99.1684,3.0634],[99.1701,3.0567],[99.1737,3.0533],[99.1852,3.0489]]]}}]}