{"type":"FeatureCollection","metadata":{"parent_osm_id":"17241445","parent_name":"Karanganyar","parent_name_1":"JawaTimur","parent_gid":"IDN.11.25.5_1","parent_level":"6","child_level":"7","count":8,"source":"GADM 4.1","generated":"2026-05-09"},"features":[{"type":"Feature","properties":{"name":"Bangunrejo","name_en":"Bangunrejo","admin_level":"7","osm_id":""},"geometry":{"type":"Polygon","coordinates":[[[111.2055,-7.3383],[111.2004,-7.3363],[111.196,-7.3373],[111.1963,-7.3411],[111.1943,-7.3445],[111.1894,-7.3446],[111.1819,-7.3506],[111.179,-7.3507],[111.1784,-7.3403],[111.1817,-7.3357],[111.1686,-7.334],[111.1637,-7.3293],[111.1633,-7.3264],[111.1776,-7.32],[111.1798,-7.3237],[111.1818,-7.3226],[111.1868,-7.3241],[111.1862,-7.328],[111.188,-7.3287],[111.1908,-7.3267],[111.1937,-7.3281],[111.2035,-7.3243],[111.2059,-7.3323],[111.2055,-7.3383]]]}},{"type":"Feature","properties":{"name":"Gembol","name_en":"Gembol","admin_level":"7","osm_id":""},"geometry":{"type":"Polygon","coordinates":[[[111.2937,-7.3002],[111.3005,-7.3019],[111.3035,-7.2996],[111.3033,-7.3017],[111.3044,-7.3027],[111.3051,-7.3016],[111.3051,-7.3032],[111.3065,-7.3004],[111.309,-7.3023],[111.3098,-7.3061],[111.3111,-7.305],[111.3145,-7.306],[111.3151,-7.3047],[111.3192,-7.3092],[111.3223,-7.3093],[111.3217,-7.3119],[111.3239,-7.313],[111.3205,-7.3143],[111.3162,-7.3248],[111.305,-7.3298],[111.3043,-7.3334],[111.2856,-7.3304],[111.2836,-7.3324],[111.282,-7.34],[111.2869,-7.3508],[111.2778,-7.3559],[111.2725,-7.3558],[111.2696,-7.3574],[111.269,-7.3543],[111.2661,-7.3527],[111.2655,-7.3428],[111.2625,-7.3434],[111.2624,-7.3414],[111.2601,-7.3411],[111.2595,-7.3374],[111.2574,-7.3358],[111.2592,-7.3333],[111.259,-7.33],[111.2576,-7.3296],[111.2564,-7.3233],[111.2527,-7.3199],[111.2554,-7.3123],[111.2555,-7.3067],[111.264,-7.304],[111.276,-7.3071],[111.2826,-7.303],[111.2937,-7.3002]]]}},{"type":"Feature","properties":{"name":"HutanKaranganyar","name_en":"HutanKaranganyar","admin_level":"7","osm_id":""},"geometry":{"type":"Polygon","coordinates":[[[111.1915,-7.3449],[111.1943,-7.3445],[111.1963,-7.3411],[111.196,-7.3373],[111.2004,-7.3363],[111.2055,-7.3383],[111.2071,-7.3489],[111.2014,-7.3486],[111.2015,-7.3464],[111.1998,-7.3464],[111.1927,-7.3499],[111.1888,-7.3481],[111.1915,-7.3449]]]}},{"type":"Feature","properties":{"name":"KarangAnyar","name_en":"KarangAnyar","admin_level":"7","osm_id":""},"geometry":{"type":"Polygon","coordinates":[[[111.2124,-7.2469],[111.2179,-7.2486],[111.2176,-7.25],[111.2218,-7.2526],[111.2239,-7.2568],[111.2237,-7.2618],[111.2292,-7.2687],[111.2307,-7.2676],[111.2353,-7.2703],[111.2399,-7.2756],[111.2414,-7.2823],[111.2442,-7.2855],[111.2482,-7.2863],[111.2486,-7.2839],[111.2513,-7.284],[111.2541,-7.2843],[111.2552,-7.2876],[111.2583,-7.2882],[111.264,-7.2871],[111.2669,-7.2877],[111.2681,-7.2896],[111.2755,-7.2898],[111.2792,-7.288],[111.2808,-7.2906],[111.2819,-7.2887],[111.2862,-7.2891],[111.2881,-7.2901],[111.2868,-7.2911],[111.2886,-7.2914],[111.2887,-7.2935],[111.2911,-7.2937],[111.295,-7.2992],[111.2924,-7.3014],[111.29,-7.3006],[111.2826,-7.303],[111.276,-7.3071],[111.264,-7.304],[111.2555,-7.3067],[111.2554,-7.3123],[111.2527,-7.3199],[111.2573,-7.325],[111.2576,-7.3296],[111.2592,-7.3307],[111.2574,-7.3357],[111.2595,-7.3374],[111.2601,-7.3411],[111.2624,-7.3414],[111.2625,-7.3434],[111.2565,-7.3444],[111.2566,-7.3524],[111.2476,-7.3597],[111.2458,-7.3636],[111.2466,-7.3667],[111.2296,-7.365],[111.2283,-7.3578],[111.2306,-7.3539],[111.2287,-7.3528],[111.229,-7.3484],[111.2245,-7.3438],[111.2275,-7.3384],[111.2275,-7.335],[111.2234,-7.3285],[111.2229,-7.3238],[111.2116,-7.3199],[111.2035,-7.3243],[111.2015,-7.3221],[111.2074,-7.3104],[111.2088,-7.3023],[111.2046,-7.2931],[111.2039,-7.2868],[111.2011,-7.2852],[111.2013,-7.2825],[111.1971,-7.2764],[111.1982,-7.2701],[111.196,-7.2678],[111.1963,-7.2633],[111.1984,-7.262],[111.1975,-7.2558],[111.1997,-7.2558],[111.2,-7.2534],[111.1971,-7.2467],[111.2043,-7.2446],[111.2124,-7.2469]]]}},{"type":"Feature","properties":{"name":"Mengger","name_en":"Mengger","admin_level":"7","osm_id":""},"geometry":{"type":"Polygon","coordinates":[[[111.2055,-7.3383],[111.2059,-7.3323],[111.2035,-7.3243],[111.2116,-7.3199],[111.2229,-7.3238],[111.2234,-7.3285],[111.2275,-7.335],[111.2275,-7.3384],[111.2245,-7.3438],[111.229,-7.3484],[111.2287,-7.3528],[111.2306,-7.3539],[111.2283,-7.3578],[111.2296,-7.365],[111.2222,-7.3646],[111.2144,-7.3605],[111.213,-7.3627],[111.2116,-7.3624],[111.2101,-7.3564],[111.2054,-7.3521],[111.2073,-7.3495],[111.2055,-7.3383]]]}},{"type":"Feature","properties":{"name":"Pandean","name_en":"Pandean","admin_level":"7","osm_id":""},"geometry":{"type":"Polygon","coordinates":[[[111.1487,-7.2644],[111.1502,-7.2602],[111.1557,-7.2579],[111.167,-7.2606],[111.1684,-7.2634],[111.1747,-7.2626],[111.1777,-7.2644],[111.1825,-7.2595],[111.1897,-7.2598],[111.1933,-7.2564],[111.1975,-7.2558],[111.1988,-7.26],[111.1963,-7.2633],[111.196,-7.2678],[111.1982,-7.2701],[111.1971,-7.2764],[111.2013,-7.2825],[111.2011,-7.2852],[111.2039,-7.2868],[111.2046,-7.2931],[111.2087,-7.3016],[111.2074,-7.3104],[111.2018,-7.3193],[111.2021,-7.3239],[111.2035,-7.3243],[111.1937,-7.3281],[111.1908,-7.3267],[111.1882,-7.3287],[111.1862,-7.328],[111.1868,-7.3241],[111.1915,-7.3257],[111.201,-7.3222],[111.1941,-7.3168],[111.1915,-7.312],[111.1858,-7.3111],[111.1864,-7.3087],[111.1759,-7.3101],[111.1747,-7.3091],[111.1673,-7.3111],[111.1648,-7.3133],[111.1625,-7.3104],[111.1589,-7.3103],[111.1554,-7.3134],[111.1469,-7.3082],[111.1421,-7.3074],[111.1373,-7.2999],[111.1371,-7.2971],[111.1414,-7.29],[111.1401,-7.2838],[111.1439,-7.2814],[111.1443,-7.2795],[111.1468,-7.2796],[111.1504,-7.2737],[111.1508,-7.2688],[111.1487,-7.2644]]]}},{"type":"Feature","properties":{"name":"Sekarjati","name_en":"Sekarjati","admin_level":"7","osm_id":""},"geometry":{"type":"Polygon","coordinates":[[[111.1633,-7.3264],[111.1637,-7.3293],[111.1686,-7.334],[111.1817,-7.3357],[111.1784,-7.3403],[111.179,-7.3507],[111.1746,-7.3531],[111.1748,-7.3552],[111.1729,-7.3553],[111.1732,-7.3603],[111.1687,-7.363],[111.1646,-7.356],[111.1643,-7.3498],[111.157,-7.3415],[111.1579,-7.3362],[111.1535,-7.3288],[111.1534,-7.3266],[111.1569,-7.3248],[111.1603,-7.3276],[111.1633,-7.3264]]]}},{"type":"Feature","properties":{"name":"SriWedari","name_en":"SriWedari","admin_level":"7","osm_id":""},"geometry":{"type":"Polygon","coordinates":[[[111.179,-7.3507],[111.1819,-7.3506],[111.1894,-7.3446],[111.1915,-7.3449],[111.1915,-7.3462],[111.1888,-7.3481],[111.1927,-7.3499],[111.1998,-7.3464],[111.2015,-7.3464],[111.2014,-7.3486],[111.2073,-7.3495],[111.2056,-7.352],[111.1986,-7.3535],[111.195,-7.3604],[111.1923,-7.3586],[111.192,-7.351],[111.1882,-7.3524],[111.1888,-7.3559],[111.1833,-7.3555],[111.1846,-7.3628],[111.1826,-7.3637],[111.1838,-7.3684],[111.1826,-7.3705],[111.179,-7.3705],[111.179,-7.3655],[111.1807,-7.3622],[111.1797,-7.3609],[111.1729,-7.3594],[111.1729,-7.3553],[111.1748,-7.3552],[111.1746,-7.3531],[111.179,-7.3507]]]}}]}