{"type":"FeatureCollection","metadata":{"parent_osm_id":"5474501","parent_name":"Jeumpa","parent_name_1":"Aceh","parent_gid":"IDN.1.14.3_1","parent_level":"6","child_level":"7","count":42,"source":"GADM 4.1","generated":"2026-05-09"},"features":[{"type":"Feature","properties":{"name":"AbeukTingkeum","name_en":"AbeukTingkeum","admin_level":"7","osm_id":""},"geometry":{"type":"Polygon","coordinates":[[[96.6583,5.204],[96.6643,5.203],[96.6631,5.1979],[96.6519,5.2],[96.6528,5.204],[96.6583,5.204]]]}},{"type":"Feature","properties":{"name":"AbeukUsong","name_en":"AbeukUsong","admin_level":"7","osm_id":""},"geometry":{"type":"Polygon","coordinates":[[[96.6507,5.193],[96.6518,5.1925],[96.6495,5.1794],[96.6424,5.1795],[96.6428,5.193],[96.6478,5.1941],[96.6507,5.193]]]}},{"type":"Feature","properties":{"name":"AlueLimeng","name_en":"AlueLimeng","admin_level":"7","osm_id":""},"geometry":{"type":"Polygon","coordinates":[[[96.6367,5.1365],[96.6544,5.1336],[96.6533,5.1183],[96.6498,5.1131],[96.6548,5.1106],[96.6564,5.1072],[96.6556,5.1014],[96.6283,5.1018],[96.6302,5.1324],[96.6367,5.1365]]]}},{"type":"Feature","properties":{"name":"BateeTimoh","name_en":"BateeTimoh","admin_level":"7","osm_id":""},"geometry":{"type":"Polygon","coordinates":[[[96.669,5.2239],[96.6709,5.2246],[96.6735,5.2202],[96.6729,5.2166],[96.6644,5.2155],[96.6645,5.2186],[96.6689,5.2185],[96.669,5.2239]]]}},{"type":"Feature","properties":{"name":"Beurawang","name_en":"Beurawang","admin_level":"7","osm_id":""},"geometry":{"type":"Polygon","coordinates":[[[96.6795,5.2287],[96.6845,5.2309],[96.6909,5.2329],[96.6883,5.2237],[96.6812,5.2249],[96.6795,5.2287]]]}},{"type":"Feature","properties":{"name":"BlangBladeh","name_en":"BlangBladeh","admin_level":"7","osm_id":""},"geometry":{"type":"Polygon","coordinates":[[[96.6643,5.203],[96.6583,5.204],[96.6586,5.2072],[96.6599,5.2069],[96.6601,5.2132],[96.6644,5.2155],[96.6676,5.2153],[96.6667,5.2032],[96.6643,5.203]]]}},{"type":"Feature","properties":{"name":"BlangCotBaroh","name_en":"BlangCotBaroh","admin_level":"7","osm_id":""},"geometry":{"type":"Polygon","coordinates":[[[96.6812,5.2082],[96.677,5.2087],[96.6764,5.2053],[96.6738,5.2055],[96.6747,5.2117],[96.6819,5.2112],[96.6825,5.2091],[96.6812,5.2082]]]}},{"type":"Feature","properties":{"name":"BlangCotTunong","name_en":"BlangCotTunong","admin_level":"7","osm_id":""},"geometry":{"type":"Polygon","coordinates":[[[96.6738,5.2055],[96.6764,5.2053],[96.677,5.2087],[96.6812,5.2082],[96.6792,5.2009],[96.6733,5.2025],[96.6738,5.2055]]]}},{"type":"Feature","properties":{"name":"BlangDalam","name_en":"BlangDalam","admin_level":"7","osm_id":""},"geometry":{"type":"Polygon","coordinates":[[[96.6603,5.2132],[96.6599,5.2069],[96.6564,5.2074],[96.6553,5.216],[96.6608,5.216],[96.6603,5.2132]]]}},{"type":"Feature","properties":{"name":"BlangGandai","name_en":"BlangGandai","admin_level":"7","osm_id":""},"geometry":{"type":"Polygon","coordinates":[[[96.6591,5.191],[96.6603,5.1934],[96.6626,5.1932],[96.6618,5.1858],[96.6632,5.1724],[96.6567,5.1734],[96.6565,5.1796],[96.6591,5.191]]]}},{"type":"Feature","properties":{"name":"BlangMe","name_en":"BlangMe","admin_level":"7","osm_id":""},"geometry":{"type":"Polygon","coordinates":[[[96.6519,5.2],[96.6631,5.1979],[96.6591,5.191],[96.6507,5.193],[96.6519,5.2]]]}},{"type":"Feature","properties":{"name":"BlangRheum","name_en":"BlangRheum","admin_level":"7","osm_id":""},"geometry":{"type":"Polygon","coordinates":[[[96.6778,5.183],[96.678,5.1925],[96.685,5.1921],[96.6903,5.1869],[96.6879,5.1797],[96.6778,5.183]]]}},{"type":"Feature","properties":{"name":"BlangSeunong","name_en":"BlangSeunong","admin_level":"7","osm_id":""},"geometry":{"type":"Polygon","coordinates":[[[96.678,5.1925],[96.6778,5.183],[96.671,5.1825],[96.6698,5.1915],[96.678,5.1925]]]}},{"type":"Feature","properties":{"name":"BlangSeupeng","name_en":"BlangSeupeng","admin_level":"7","osm_id":""},"geometry":{"type":"Polygon","coordinates":[[[96.6495,5.1794],[96.6518,5.1925],[96.6591,5.191],[96.6565,5.1796],[96.6567,5.1734],[96.65,5.1749],[96.6495,5.1794]]]}},{"type":"Feature","properties":{"name":"CotBada","name_en":"CotBada","admin_level":"7","osm_id":""},"geometry":{"type":"Polygon","coordinates":[[[96.6532,5.204],[96.6467,5.2043],[96.6458,5.216],[96.6497,5.2171],[96.6516,5.2076],[96.6534,5.2075],[96.6532,5.204]]]}},{"type":"Feature","properties":{"name":"CotGadong","name_en":"CotGadong","admin_level":"7","osm_id":""},"geometry":{"type":"Polygon","coordinates":[[[96.6583,5.204],[96.6533,5.204],[96.6534,5.2075],[96.6586,5.2072],[96.6583,5.204]]]}},{"type":"Feature","properties":{"name":"CotGeurundong","name_en":"CotGeurundong","admin_level":"7","osm_id":""},"geometry":{"type":"Polygon","coordinates":[[[96.6725,5.222],[96.6709,5.2246],[96.6795,5.2287],[96.6818,5.2196],[96.6725,5.222]]]}},{"type":"Feature","properties":{"name":"CotIboih","name_en":"CotIboih","admin_level":"7","osm_id":""},"geometry":{"type":"Polygon","coordinates":[[[96.6632,5.1724],[96.6618,5.1858],[96.6626,5.1932],[96.6666,5.192],[96.667,5.1723],[96.6632,5.1724]]]}},{"type":"Feature","properties":{"name":"CotIboihTimu","name_en":"CotIboihTimu","admin_level":"7","osm_id":""},"geometry":{"type":"Polygon","coordinates":[[[96.6698,5.1915],[96.6709,5.1786],[96.6698,5.1721],[96.6679,5.1721],[96.6658,5.1857],[96.6666,5.192],[96.6698,5.1915]]]}},{"type":"Feature","properties":{"name":"CotKeutapang","name_en":"CotKeutapang","admin_level":"7","osm_id":""},"geometry":{"type":"Polygon","coordinates":[[[96.6792,5.2009],[96.6805,5.2042],[96.6853,5.2035],[96.6844,5.1973],[96.6804,5.1986],[96.6792,5.2009]]]}},{"type":"Feature","properties":{"name":"CotLeusong","name_en":"CotLeusong","admin_level":"7","osm_id":""},"geometry":{"type":"Polygon","coordinates":[[[96.6714,5.1919],[96.6665,5.1921],[96.6676,5.203],[96.6723,5.2025],[96.6714,5.1919]]]}},{"type":"Feature","properties":{"name":"CotMeugoe","name_en":"CotMeugoe","admin_level":"7","osm_id":""},"geometry":{"type":"Polygon","coordinates":[[[96.6617,5.1726],[96.6733,5.1715],[96.6864,5.1668],[96.6796,5.1346],[96.6649,5.1385],[96.6572,5.1383],[96.6628,5.167],[96.6617,5.1726]]]}},{"type":"Feature","properties":{"name":"CotTaromBaroh","name_en":"CotTaromBaroh","admin_level":"7","osm_id":""},"geometry":{"type":"Polygon","coordinates":[[[96.6825,5.2091],[96.6814,5.2177],[96.6866,5.218],[96.6872,5.2106],[96.6839,5.2107],[96.6825,5.2091]]]}},{"type":"Feature","properties":{"name":"CotTaromTunong","name_en":"CotTaromTunong","admin_level":"7","osm_id":""},"geometry":{"type":"Polygon","coordinates":[[[96.6812,5.2082],[96.6839,5.2107],[96.6897,5.2106],[96.6898,5.2046],[96.6876,5.2046],[96.6874,5.2032],[96.6805,5.2042],[96.6812,5.2082]]]}},{"type":"Feature","properties":{"name":"CotUlim","name_en":"CotUlim","admin_level":"7","osm_id":""},"geometry":{"type":"Polygon","coordinates":[[[96.6631,5.1979],[96.6643,5.2031],[96.6676,5.203],[96.6665,5.1921],[96.6615,5.1938],[96.6631,5.1979]]]}},{"type":"Feature","properties":{"name":"GeudongTampu","name_en":"GeudongTampu","admin_level":"7","osm_id":""},"geometry":{"type":"Polygon","coordinates":[[[96.6872,5.2106],[96.6862,5.2164],[96.6913,5.2163],[96.6924,5.2133],[96.6905,5.2131],[96.6897,5.2106],[96.6872,5.2106]]]}},{"type":"Feature","properties":{"name":"GeulumpangPayong","name_en":"GeulumpangPayong","admin_level":"7","osm_id":""},"geometry":{"type":"Polygon","coordinates":[[[96.6676,5.2153],[96.6677,5.2165],[96.6742,5.2165],[96.6733,5.2025],[96.6667,5.2032],[96.6676,5.2153]]]}},{"type":"Feature","properties":{"name":"KualaJeumpa","name_en":"KualaJeumpa","admin_level":"7","osm_id":""},"geometry":{"type":"Polygon","coordinates":[[[96.6553,5.216],[96.6564,5.2074],[96.6516,5.2076],[96.6497,5.2171],[96.6549,5.2185],[96.6553,5.216]]]}},{"type":"Feature","properties":{"name":"KutaMeuligoe","name_en":"KutaMeuligoe","admin_level":"7","osm_id":""},"geometry":{"type":"Polygon","coordinates":[[[96.671,5.1825],[96.6765,5.1825],[96.6764,5.1769],[96.6737,5.1742],[96.6733,5.1715],[96.6698,5.1721],[96.671,5.1825]]]}},{"type":"Feature","properties":{"name":"Lhaksmana","name_en":"Lhaksmana","admin_level":"7","osm_id":""},"geometry":{"type":"Polygon","coordinates":[[[96.669,5.2239],[96.6689,5.2185],[96.6645,5.2186],[96.6643,5.2219],[96.669,5.2239]]]}},{"type":"Feature","properties":{"name":"LipahCut","name_en":"LipahCut","admin_level":"7","osm_id":""},"geometry":{"type":"Polygon","coordinates":[[[96.6812,5.2249],[96.6883,5.2237],[96.6866,5.218],[96.682,5.218],[96.6812,5.2249]]]}},{"type":"Feature","properties":{"name":"LipahRayeuk","name_en":"LipahRayeuk","admin_level":"7","osm_id":""},"geometry":{"type":"Polygon","coordinates":[[[96.6729,5.2166],[96.6725,5.222],[96.6818,5.2196],[96.6819,5.2112],[96.6742,5.2114],[96.6742,5.2165],[96.6729,5.2166]]]}},{"type":"Feature","properties":{"name":"MonJambee","name_en":"MonJambee","admin_level":"7","osm_id":""},"geometry":{"type":"Polygon","coordinates":[[[96.6645,5.2186],[96.6636,5.2143],[96.6604,5.2132],[96.6608,5.216],[96.655,5.2169],[96.6549,5.2185],[96.6643,5.2219],[96.6645,5.2186]]]}},{"type":"Feature","properties":{"name":"MonMane","name_en":"MonMane","admin_level":"7","osm_id":""},"geometry":{"type":"Polygon","coordinates":[[[96.6424,5.1795],[96.6495,5.1794],[96.65,5.1749],[96.6617,5.1726],[96.6626,5.1697],[96.6572,5.1383],[96.6544,5.1336],[96.6367,5.1365],[96.6416,5.1494],[96.6417,5.1623],[96.6379,5.1756],[96.6351,5.1789],[96.6424,5.1795]]]}},{"type":"Feature","properties":{"name":"PalohPanyang","name_en":"PalohPanyang","admin_level":"7","osm_id":""},"geometry":{"type":"Polygon","coordinates":[[[96.6821,5.1811],[96.6879,5.1797],[96.6888,5.1774],[96.6889,5.1712],[96.6864,5.1668],[96.6829,5.1722],[96.6821,5.1811]]]}},{"type":"Feature","properties":{"name":"PalohSeulimeng","name_en":"PalohSeulimeng","admin_level":"7","osm_id":""},"geometry":{"type":"Polygon","coordinates":[[[96.6428,5.1889],[96.6424,5.1795],[96.6352,5.179],[96.6391,5.1896],[96.6428,5.1889]]]}},{"type":"Feature","properties":{"name":"PuloLawang","name_en":"PuloLawang","admin_level":"7","osm_id":""},"geometry":{"type":"Polygon","coordinates":[[[96.6507,5.193],[96.6478,5.1941],[96.6428,5.193],[96.6428,5.1889],[96.6391,5.1896],[96.6396,5.1947],[96.6376,5.1998],[96.6514,5.1986],[96.6507,5.193]]]}},{"type":"Feature","properties":{"name":"SalahSirongJaya","name_en":"SalahSirongJaya","admin_level":"7","osm_id":""},"geometry":{"type":"Polygon","coordinates":[[[96.6285,5.1018],[96.6556,5.1014],[96.6611,5.0916],[96.6669,5.0909],[96.667,5.0886],[96.6605,5.0845],[96.6588,5.0734],[96.6544,5.0697],[96.6545,5.0658],[96.6583,5.0626],[96.658,5.0609],[96.6479,5.0581],[96.6194,5.063],[96.6143,5.0625],[96.6232,5.0786],[96.6285,5.1018]]]}},{"type":"Feature","properties":{"name":"Seuleumbah","name_en":"Seuleumbah","admin_level":"7","osm_id":""},"geometry":{"type":"Polygon","coordinates":[[[96.6733,5.2025],[96.6782,5.2016],[96.6804,5.1986],[96.6844,5.1973],[96.6859,5.1937],[96.685,5.1921],[96.6714,5.1919],[96.6723,5.2025],[96.6733,5.2025]]]}},{"type":"Feature","properties":{"name":"SeuneubokLhong","name_en":"SeuneubokLhong","admin_level":"7","osm_id":""},"geometry":{"type":"Polygon","coordinates":[[[96.6778,5.183],[96.6821,5.1811],[96.6816,5.1766],[96.6846,5.1678],[96.6733,5.1715],[96.6737,5.1742],[96.6764,5.1769],[96.6765,5.1825],[96.6778,5.183]]]}},{"type":"Feature","properties":{"name":"TeupokBaroh","name_en":"TeupokBaroh","admin_level":"7","osm_id":""},"geometry":{"type":"Polygon","coordinates":[[[96.6458,5.216],[96.6467,5.2044],[96.637,5.2047],[96.6371,5.2137],[96.6458,5.216]]]}},{"type":"Feature","properties":{"name":"TeupokTunong","name_en":"TeupokTunong","admin_level":"7","osm_id":""},"geometry":{"type":"Polygon","coordinates":[[[96.6528,5.204],[96.6505,5.1983],[96.6402,5.1991],[96.6356,5.2012],[96.637,5.2047],[96.6528,5.204]]]}}]}