{"type":"FeatureCollection","metadata":{"parent_osm_id":"12989882","parent_name":"Kotabaru","parent_name_1":"JawaBarat","parent_gid":"IDN.9.13.14_1","parent_level":"6","child_level":"7","count":9,"source":"GADM 4.1","generated":"2026-05-09"},"features":[{"type":"Feature","properties":{"name":"CikampekUtara","name_en":"CikampekUtara","admin_level":"7","osm_id":""},"geometry":{"type":"Polygon","coordinates":[[[107.4592,-6.4032],[107.4652,-6.3941],[107.455,-6.387],[107.456,-6.382],[107.47,-6.3788],[107.4638,-6.4077],[107.4636,-6.4052],[107.4592,-6.4032]]]}},{"type":"Feature","properties":{"name":"JominBarat","name_en":"JominBarat","admin_level":"7","osm_id":""},"geometry":{"type":"Polygon","coordinates":[[[107.4856,-6.4089],[107.4827,-6.4186],[107.4792,-6.4243],[107.4805,-6.4298],[107.4783,-6.4319],[107.4746,-6.4323],[107.4708,-6.4241],[107.4764,-6.4171],[107.476,-6.4096],[107.4856,-6.4089]]]}},{"type":"Feature","properties":{"name":"JominTimur","name_en":"JominTimur","admin_level":"7","osm_id":""},"geometry":{"type":"Polygon","coordinates":[[[107.4807,-6.4266],[107.4792,-6.4243],[107.4827,-6.4186],[107.4856,-6.4089],[107.5026,-6.4081],[107.4927,-6.4142],[107.4901,-6.4198],[107.4807,-6.4266]]]}},{"type":"Feature","properties":{"name":"PangulahBaru","name_en":"PangulahBaru","admin_level":"7","osm_id":""},"geometry":{"type":"Polygon","coordinates":[[[107.5074,-6.3791],[107.5052,-6.3825],[107.4978,-6.3825],[107.4998,-6.3833],[107.5017,-6.3907],[107.4961,-6.396],[107.4938,-6.3957],[107.4926,-6.3894],[107.4943,-6.3824],[107.4893,-6.3821],[107.4902,-6.3773],[107.4836,-6.3623],[107.4899,-6.3606],[107.4985,-6.3608],[107.4985,-6.3717],[107.5007,-6.3755],[107.5074,-6.3791]]]}},{"type":"Feature","properties":{"name":"PangulahSelatan","name_en":"PangulahSelatan","admin_level":"7","osm_id":""},"geometry":{"type":"Polygon","coordinates":[[[107.527,-6.4083],[107.522,-6.4186],[107.5192,-6.4181],[107.5137,-6.4213],[107.5028,-6.408],[107.4812,-6.4093],[107.4833,-6.4],[107.4857,-6.4015],[107.4864,-6.3985],[107.4916,-6.4013],[107.4941,-6.4004],[107.4971,-6.4047],[107.5117,-6.3966],[107.5165,-6.396],[107.5206,-6.3969],[107.5247,-6.4083],[107.527,-6.4083]]]}},{"type":"Feature","properties":{"name":"PangulahUtara","name_en":"PangulahUtara","admin_level":"7","osm_id":""},"geometry":{"type":"Polygon","coordinates":[[[107.5064,-6.381],[107.5079,-6.3847],[107.5046,-6.3881],[107.5094,-6.3911],[107.5116,-6.3966],[107.4971,-6.4047],[107.4966,-6.4025],[107.4931,-6.4001],[107.4916,-6.4013],[107.4864,-6.3985],[107.4857,-6.4015],[107.4836,-6.4006],[107.483,-6.3915],[107.4885,-6.3854],[107.4893,-6.3821],[107.4943,-6.3824],[107.4926,-6.3895],[107.4938,-6.3957],[107.4961,-6.396],[107.5017,-6.3907],[107.4998,-6.3833],[107.4977,-6.3825],[107.5047,-6.3827],[107.5064,-6.381]]]}},{"type":"Feature","properties":{"name":"Pucung","name_en":"Pucung","admin_level":"7","osm_id":""},"geometry":{"type":"Polygon","coordinates":[[[107.4709,-6.4086],[107.4638,-6.4077],[107.4663,-6.3915],[107.4713,-6.3731],[107.4735,-6.3711],[107.4723,-6.3647],[107.4836,-6.3623],[107.4893,-6.3756],[107.4841,-6.3755],[107.4831,-6.3788],[107.4748,-6.3796],[107.4722,-6.3908],[107.4744,-6.3953],[107.4729,-6.4009],[107.4742,-6.4052],[107.4709,-6.4086]]]}},{"type":"Feature","properties":{"name":"Sarimulya","name_en":"Sarimulya","admin_level":"7","osm_id":""},"geometry":{"type":"Polygon","coordinates":[[[107.4683,-6.4111],[107.4704,-6.4093],[107.476,-6.4096],[107.4764,-6.4171],[107.4708,-6.4241],[107.4746,-6.4323],[107.4625,-6.4267],[107.4621,-6.4199],[107.4596,-6.419],[107.4676,-6.4143],[107.4683,-6.4111]]]}},{"type":"Feature","properties":{"name":"Wancimekar","name_en":"Wancimekar","admin_level":"7","osm_id":""},"geometry":{"type":"Polygon","coordinates":[[[107.4709,-6.4093],[107.4742,-6.4052],[107.4729,-6.4009],[107.4744,-6.3953],[107.4722,-6.3908],[107.4748,-6.3796],[107.4831,-6.3788],[107.4841,-6.3755],[107.4893,-6.3756],[107.4903,-6.3775],[107.4887,-6.385],[107.483,-6.3915],[107.4838,-6.3989],[107.4812,-6.4093],[107.4709,-6.4093]]]}}]}