{"type":"FeatureCollection","metadata":{"parent_osm_id":"gid_IDN_9_7_32_1","parent_name":"Warungkondang","parent_name_1":"JawaBarat","parent_gid":"IDN.9.7.32_1","parent_level":"6","child_level":"7","count":11,"source":"GADM 4.1","generated":"2026-05-09"},"features":[{"type":"Feature","properties":{"name":"Bunikasih","name_en":"Bunikasih","admin_level":"7","osm_id":""},"geometry":{"type":"Polygon","coordinates":[[[106.9918,-6.7979],[106.9947,-6.7973],[107.0024,-6.7994],[107.0245,-6.8081],[107.0275,-6.8133],[107.033,-6.8166],[107.0364,-6.8223],[107.0524,-6.8323],[107.0608,-6.8412],[107.07,-6.842],[107.0766,-6.8453],[107.08,-6.8488],[107.0795,-6.8509],[107.0688,-6.85],[107.0678,-6.8517],[107.0592,-6.8475],[107.0561,-6.8415],[107.0506,-6.838],[107.0374,-6.8349],[107.0289,-6.8254],[107.0244,-6.8247],[107.0227,-6.8193],[106.9918,-6.7979]]]}},{"type":"Feature","properties":{"name":"Bunisari","name_en":"Bunisari","admin_level":"7","osm_id":""},"geometry":{"type":"Polygon","coordinates":[[[107.0678,-6.8517],[107.0688,-6.85],[107.0779,-6.8509],[107.0856,-6.8612],[107.1034,-6.8652],[107.0978,-6.8698],[107.0864,-6.8651],[107.0837,-6.8655],[107.0673,-6.8541],[107.0678,-6.8517]]]}},{"type":"Feature","properties":{"name":"Cieundeur","name_en":"Cieundeur","admin_level":"7","osm_id":""},"geometry":{"type":"Polygon","coordinates":[[[107.1153,-6.8639],[107.1151,-6.8669],[107.1186,-6.87],[107.1205,-6.875],[107.1165,-6.8805],[107.1143,-6.8806],[107.1032,-6.8707],[107.0986,-6.8696],[107.1034,-6.8652],[107.1129,-6.8656],[107.1153,-6.8639]]]}},{"type":"Feature","properties":{"name":"Cikaroya","name_en":"Cikaroya","admin_level":"7","osm_id":""},"geometry":{"type":"Polygon","coordinates":[[[107.1143,-6.8806],[107.1141,-6.8825],[107.112,-6.883],[107.1082,-6.8816],[107.1046,-6.8828],[107.1029,-6.8809],[107.1004,-6.8823],[107.0987,-6.8795],[107.0885,-6.8761],[107.091,-6.8763],[107.0922,-6.8736],[107.0986,-6.8696],[107.1032,-6.8707],[107.1047,-6.8733],[107.1095,-6.875],[107.1143,-6.8806]]]}},{"type":"Feature","properties":{"name":"Cisarandi","name_en":"Cisarandi","admin_level":"7","osm_id":""},"geometry":{"type":"Polygon","coordinates":[[[107.1003,-6.9122],[107.0913,-6.9108],[107.0921,-6.9081],[107.0901,-6.9055],[107.0911,-6.8959],[107.0896,-6.8914],[107.0917,-6.8859],[107.0921,-6.8787],[107.0906,-6.8775],[107.0933,-6.877],[107.094,-6.8789],[107.099,-6.8797],[107.1006,-6.8845],[107.1059,-6.8857],[107.1042,-6.8875],[107.1056,-6.889],[107.1034,-6.8905],[107.1055,-6.894],[107.1,-6.8946],[107.0989,-6.8961],[107.0997,-6.8999],[107.0948,-6.9006],[107.097,-6.9065],[107.098,-6.9029],[107.0987,-6.9053],[107.1013,-6.9058],[107.0987,-6.9082],[107.1003,-6.9122]]]}},{"type":"Feature","properties":{"name":"Ciwalen","name_en":"Ciwalen","admin_level":"7","osm_id":""},"geometry":{"type":"Polygon","coordinates":[[[107.1077,-6.8541],[107.1136,-6.8539],[107.1172,-6.8565],[107.1153,-6.8639],[107.1129,-6.8656],[107.1047,-6.8654],[107.086,-6.8614],[107.0789,-6.8514],[107.08,-6.8488],[107.0827,-6.8488],[107.0921,-6.8507],[107.104,-6.8556],[107.1059,-6.8559],[107.1077,-6.8541]]]}},{"type":"Feature","properties":{"name":"Jambudipa","name_en":"Jambudipa","admin_level":"7","osm_id":""},"geometry":{"type":"Polygon","coordinates":[[[107.0885,-6.8761],[107.0807,-6.8717],[107.0754,-6.865],[107.0746,-6.8591],[107.0837,-6.8655],[107.0864,-6.8651],[107.0951,-6.8695],[107.0986,-6.8696],[107.0922,-6.8736],[107.091,-6.8763],[107.0885,-6.8761]]]}},{"type":"Feature","properties":{"name":"Mekarwangi","name_en":"Mekarwangi","admin_level":"7","osm_id":""},"geometry":{"type":"Polygon","coordinates":[[[107.0568,-6.8567],[107.0493,-6.8537],[107.0237,-6.8378],[107.0183,-6.833],[107.0152,-6.8268],[107.0212,-6.8291],[107.0245,-6.8331],[107.0348,-6.8381],[107.0424,-6.8443],[107.055,-6.8472],[107.0607,-6.8531],[107.0639,-6.8547],[107.0685,-6.8542],[107.0746,-6.8591],[107.0736,-6.8614],[107.0685,-6.8614],[107.0568,-6.8567]]]}},{"type":"Feature","properties":{"name":"Sukamulya","name_en":"Sukamulya","admin_level":"7","osm_id":""},"geometry":{"type":"Polygon","coordinates":[[[107.1069,-6.9163],[107.0998,-6.9117],[107.0987,-6.9082],[107.1013,-6.9058],[107.0987,-6.9053],[107.098,-6.9029],[107.097,-6.9065],[107.0948,-6.9006],[107.0997,-6.8999],[107.0989,-6.8961],[107.1,-6.8946],[107.1055,-6.894],[107.1034,-6.8905],[107.1056,-6.889],[107.1042,-6.8875],[107.1056,-6.8849],[107.1006,-6.8845],[107.1025,-6.8809],[107.1046,-6.8828],[107.1136,-6.8819],[107.1141,-6.889],[107.1165,-6.8894],[107.1145,-6.8971],[107.1077,-6.898],[107.1112,-6.9007],[107.112,-6.9045],[107.1105,-6.9062],[107.1114,-6.9131],[107.1069,-6.9163]]]}},{"type":"Feature","properties":{"name":"Sukawangi","name_en":"Sukawangi","admin_level":"7","osm_id":""},"geometry":{"type":"Polygon","coordinates":[[[107.1014,-6.8449],[107.1051,-6.8459],[107.1077,-6.8541],[107.1059,-6.8559],[107.0921,-6.8507],[107.0807,-6.8491],[107.0795,-6.8482],[107.0801,-6.8452],[107.0755,-6.8427],[107.0772,-6.8407],[107.0763,-6.8395],[107.0782,-6.8386],[107.1014,-6.8449]]]}},{"type":"Feature","properties":{"name":"Tegallega","name_en":"Tegallega","admin_level":"7","osm_id":""},"geometry":{"type":"Polygon","coordinates":[[[106.9895,-6.799],[106.9918,-6.7979],[107.0008,-6.8048],[107.0075,-6.8078],[107.0227,-6.8193],[107.0244,-6.8247],[107.0289,-6.8254],[107.0374,-6.8349],[107.0511,-6.8383],[107.0561,-6.8415],[107.0592,-6.8475],[107.0656,-6.8496],[107.0682,-6.8528],[107.0639,-6.8547],[107.055,-6.8472],[107.0426,-6.8445],[107.0348,-6.8381],[107.0245,-6.8331],[107.0212,-6.8291],[107.0152,-6.8268],[107.007,-6.8187],[107.0025,-6.811],[106.9959,-6.8046],[106.9919,-6.8031],[106.9895,-6.799]]]}}]}