{"type":"FeatureCollection","metadata":{"parent_osm_id":"14910166","parent_name":"Buton","parent_name_1":"SulawesiTenggara","parent_gid":"IDN.28.4_1","parent_level":"5","child_level":"6","count":21,"source":"GADM 4.1","generated":"2026-05-05"},"features":[{"type":"Feature","properties":{"name":"Batauga","name_en":"Batauga","admin_level":"6","osm_id":""},"geometry":{"type":"Polygon","coordinates":[[[122.6282,-5.6855],[122.6249,-5.6801],[122.6253,-5.6751],[122.6101,-5.6548],[122.6106,-5.6531],[122.6139,-5.6519],[122.6149,-5.6471],[122.6127,-5.6431],[122.6128,-5.6331],[122.6025,-5.6197],[122.5948,-5.603],[122.5909,-5.5866],[122.5873,-5.5814],[122.588,-5.5795],[122.5848,-5.5782],[122.5811,-5.5738],[122.5794,-5.5687],[122.5777,-5.5455],[122.5736,-5.5382],[122.605,-5.5252],[122.6112,-5.5192],[122.6152,-5.5118],[122.6224,-5.5052],[122.6227,-5.5113],[122.6247,-5.5093],[122.6317,-5.5094],[122.6313,-5.5116],[122.634,-5.5134],[122.6377,-5.5121],[122.6374,-5.5144],[122.6395,-5.5125],[122.6424,-5.5135],[122.6633,-5.5467],[122.6757,-5.5641],[122.6823,-5.5707],[122.6806,-5.5948],[122.6715,-5.6279],[122.6647,-5.6459],[122.6631,-5.6637],[122.6663,-5.6821],[122.6703,-5.6859],[122.6627,-5.6935],[122.6462,-5.6994],[122.6346,-5.6936],[122.6282,-5.6855]]]}},{"type":"Feature","properties":{"name":"BatuAtas","name_en":"BatuAtas","admin_level":"6","osm_id":""},"geometry":{"type":"Polygon","coordinates":[[[122.7365,-6.2138],[122.7325,-6.2175],[122.7197,-6.2161],[122.7157,-6.2182],[122.7069,-6.2127],[122.6977,-6.2134],[122.6957,-6.21],[122.6917,-6.208],[122.691,-6.2049],[122.6864,-6.2047],[122.6783,-6.1986],[122.6753,-6.1943],[122.6757,-6.1871],[122.6723,-6.1838],[122.6725,-6.1815],[122.6794,-6.1807],[122.6841,-6.1837],[122.6965,-6.1849],[122.7092,-6.1977],[122.7209,-6.206],[122.7366,-6.2096],[122.7365,-6.2138]]]}},{"type":"Feature","properties":{"name":"Gu","name_en":"Gu","admin_level":"6","osm_id":""},"geometry":{"type":"Polygon","coordinates":[[[122.6149,-5.3478],[122.6096,-5.3525],[122.6027,-5.3546],[122.5965,-5.3611],[122.5919,-5.3564],[122.5908,-5.3531],[122.601,-5.3459],[122.6054,-5.3407],[122.609,-5.3326],[122.6099,-5.3027],[122.5991,-5.2921],[122.5794,-5.2857],[122.5562,-5.2727],[122.5354,-5.251],[122.529,-5.2332],[122.5212,-5.1937],[122.5241,-5.1934],[122.5619,-5.217],[122.5982,-5.2128],[122.6077,-5.2129],[122.6112,-5.2083],[122.6144,-5.21],[122.617,-5.2095],[122.6263,-5.2038],[122.6231,-5.2107],[122.6173,-5.2177],[122.5922,-5.2303],[122.5772,-5.2487],[122.5794,-5.2544],[122.5846,-5.2561],[122.5876,-5.2538],[122.6013,-5.25],[122.6215,-5.2494],[122.6345,-5.2591],[122.6413,-5.2677],[122.6449,-5.2791],[122.6466,-5.2954],[122.642,-5.3081],[122.6438,-5.3241],[122.6436,-5.3339],[122.6412,-5.3439],[122.6247,-5.3431],[122.6219,-5.3438],[122.6198,-5.3471],[122.6165,-5.3464],[122.6149,-5.3478]]]}},{"type":"Feature","properties":{"name":"Kadatua","name_en":"Kadatua","admin_level":"6","osm_id":""},"geometry":{"type":"Polygon","coordinates":[[[122.5115,-5.5396],[122.5083,-5.5515],[122.5089,-5.5572],[122.506,-5.5616],[122.5013,-5.5633],[122.4892,-5.5625],[122.4858,-5.5608],[122.4795,-5.5519],[122.4735,-5.5478],[122.4702,-5.536],[122.4716,-5.5307],[122.4755,-5.5292],[122.4777,-5.5224],[122.4836,-5.5136],[122.5001,-5.5084],[122.5186,-5.5002],[122.5243,-5.4997],[122.5246,-5.5021],[122.5205,-5.507],[122.5167,-5.5196],[122.5107,-5.5253],[122.5118,-5.5319],[122.5097,-5.5364],[122.5115,-5.5396]]]}},{"type":"Feature","properties":{"name":"Kapontori","name_en":"Kapontori","admin_level":"6","osm_id":""},"geometry":{"type":"Polygon","coordinates":[[[122.7084,-5.2772],[122.7071,-5.2737],[122.7123,-5.267],[122.7132,-5.263],[122.7191,-5.2597],[122.7258,-5.2484],[122.7323,-5.2421],[122.7377,-5.2408],[122.7424,-5.2435],[122.7488,-5.2382],[122.754,-5.2387],[122.7535,-5.2409],[122.7474,-5.2445],[122.7531,-5.2535],[122.7576,-5.2554],[122.7709,-5.2541],[122.7821,-5.2444],[122.7922,-5.2429],[122.7973,-5.2382],[122.8067,-5.2215],[122.8086,-5.2108],[122.8067,-5.2026],[122.7999,-5.1919],[122.7937,-5.1857],[122.7888,-5.1834],[122.7843,-5.1857],[122.7735,-5.2017],[122.7713,-5.203],[122.7609,-5.2251],[122.755,-5.229],[122.7472,-5.2199],[122.7485,-5.2072],[122.7583,-5.1876],[122.7524,-5.1733],[122.7495,-5.1733],[122.7446,-5.1782],[122.7404,-5.1795],[122.7381,-5.1756],[122.7375,-5.1704],[122.7619,-5.1335],[122.7666,-5.1221],[122.7689,-5.1203],[122.772,-5.1105],[122.784,-5.1096],[122.7891,-5.1066],[122.7892,-5.1038],[122.7857,-5.0995],[122.7881,-5.0896],[122.7895,-5.0889],[122.7878,-5.0876],[122.7872,-5.0836],[122.7888,-5.0789],[122.7932,-5.0766],[122.801,-5.079],[122.815,-5.0787],[122.8214,-5.0836],[122.8232,-5.0909],[122.839,-5.1088],[122.8425,-5.1154],[122.8513,-5.1185],[122.8609,-5.1176],[122.8686,-5.1214],[122.8796,-5.1218],[122.8764,-5.1353],[122.8826,-5.1614],[122.8952,-5.1875],[122.9053,-5.2257],[122.9111,-5.2571],[122.9074,-5.3008],[122.8612,-5.3402],[122.8098,-5.3669],[122.7503,-5.3647],[122.7483,-5.3608],[122.7465,-5.3611],[122.7427,-5.3581],[122.7393,-5.3598],[122.7366,-5.3565],[122.7298,-5.3575],[122.7269,-5.355],[122.7261,-5.3517],[122.7278,-5.337],[122.7255,-5.3291],[122.7214,-5.3286],[122.7078,-5.3318],[122.7012,-5.3281],[122.6952,-5.3282],[122.6861,-5.321],[122.697,-5.3014],[122.6999,-5.2921],[122.7055,-5.2863],[122.7046,-5.2843],[122.7084,-5.2772]]]}},{"type":"Feature","properties":{"name":"Lakudo","name_en":"Lakudo","admin_level":"6","osm_id":""},"geometry":{"type":"Polygon","coordinates":[[[122.5317,-5.3595],[122.5354,-5.3418],[122.5384,-5.337],[122.5388,-5.3252],[122.5328,-5.3206],[122.521,-5.3165],[122.5206,-5.3109],[122.5241,-5.3034],[122.5241,-5.2949],[122.527,-5.2878],[122.5305,-5.2847],[122.53,-5.2785],[122.5346,-5.2736],[122.5379,-5.2728],[122.5417,-5.2636],[122.5386,-5.2608],[122.5359,-5.2614],[122.5254,-5.2707],[122.5241,-5.2732],[122.5257,-5.2757],[122.5235,-5.2784],[122.5195,-5.2793],[122.5139,-5.2833],[122.5107,-5.2885],[122.4986,-5.2909],[122.4928,-5.2954],[122.4853,-5.2971],[122.4807,-5.302],[122.4573,-5.275],[122.445,-5.2568],[122.4368,-5.233],[122.436,-5.2248],[122.4411,-5.2272],[122.4506,-5.2279],[122.5045,-5.225],[122.5133,-5.2161],[122.5102,-5.2099],[122.5156,-5.2011],[122.5161,-5.1939],[122.5208,-5.192],[122.529,-5.2332],[122.5354,-5.251],[122.5562,-5.2727],[122.5794,-5.2857],[122.5991,-5.2921],[122.6099,-5.3027],[122.6081,-5.3353],[122.601,-5.3459],[122.5908,-5.3531],[122.5919,-5.3564],[122.5965,-5.3611],[122.5931,-5.3704],[122.5932,-5.3908],[122.5965,-5.3975],[122.6028,-5.4029],[122.6033,-5.4065],[122.5976,-5.4156],[122.5941,-5.4165],[122.5958,-5.4248],[122.6004,-5.4269],[122.5958,-5.4338],[122.5903,-5.4353],[122.5875,-5.4296],[122.5758,-5.4166],[122.5665,-5.4114],[122.5605,-5.4177],[122.5601,-5.4211],[122.5585,-5.4199],[122.5559,-5.4218],[122.5563,-5.4248],[122.5517,-5.4349],[122.5488,-5.4361],[122.546,-5.4407],[122.5274,-5.44],[122.5201,-5.4375],[122.5182,-5.4266],[122.5204,-5.4213],[122.5124,-5.4062],[122.5151,-5.4023],[122.5243,-5.3979],[122.5246,-5.3836],[122.5266,-5.3806],[122.5273,-5.3707],[122.5311,-5.3648],[122.5317,-5.3595]]]}},{"type":"Feature","properties":{"name":"Lapandewa","name_en":"Lapandewa","admin_level":"6","osm_id":""},"geometry":{"type":"Polygon","coordinates":[[[122.7535,-5.6934],[122.7581,-5.6872],[122.7721,-5.6771],[122.773,-5.664],[122.7672,-5.6615],[122.7599,-5.6555],[122.7838,-5.6369],[122.77,-5.6102],[122.7625,-5.6158],[122.7373,-5.6237],[122.7327,-5.6087],[122.7304,-5.6075],[122.7379,-5.5855],[122.7692,-5.5846],[122.8101,-5.5643],[122.8123,-5.5882],[122.8214,-5.6247],[122.8341,-5.6397],[122.8215,-5.6517],[122.8101,-5.6745],[122.803,-5.696],[122.7864,-5.7025],[122.7779,-5.7038],[122.7555,-5.6969],[122.7535,-5.6934]]]}},{"type":"Feature","properties":{"name":"Lasalimu","name_en":"Lasalimu","admin_level":"6","osm_id":""},"geometry":{"type":"Polygon","coordinates":[[[122.9106,-5.2745],[122.9111,-5.2571],[122.9053,-5.2257],[122.8952,-5.1875],[122.8826,-5.1614],[122.8764,-5.1353],[122.8796,-5.1218],[122.8884,-5.1228],[122.9006,-5.1197],[122.9283,-5.1422],[122.9489,-5.1483],[122.9428,-5.1611],[122.9376,-5.1664],[122.9284,-5.1721],[122.921,-5.1745],[122.9197,-5.1772],[122.9207,-5.1825],[122.9254,-5.1823],[122.9311,-5.1886],[122.9342,-5.205],[122.9366,-5.209],[122.9439,-5.2129],[122.9446,-5.2163],[122.9523,-5.2172],[122.9558,-5.2161],[122.9553,-5.2084],[122.9565,-5.2077],[122.9601,-5.2082],[122.9624,-5.2104],[122.9631,-5.2068],[122.9606,-5.2053],[122.9606,-5.2018],[122.9637,-5.1991],[122.9692,-5.199],[122.9676,-5.1939],[122.97,-5.1925],[122.9712,-5.1878],[122.9788,-5.1806],[122.9936,-5.16],[123.0046,-5.1476],[123.0282,-5.1358],[123.0332,-5.1355],[123.0396,-5.1381],[123.0532,-5.151],[123.0599,-5.1524],[123.0679,-5.1606],[123.0691,-5.1671],[123.0664,-5.1694],[123.0658,-5.1737],[123.0687,-5.1769],[123.0635,-5.179],[123.0585,-5.1839],[123.0588,-5.1916],[123.068,-5.1909],[123.0692,-5.1861],[123.0766,-5.1773],[123.0826,-5.173],[123.0846,-5.1736],[123.0948,-5.1836],[123.0981,-5.1836],[123.1043,-5.1889],[123.1067,-5.1938],[123.1065,-5.1997],[123.1033,-5.207],[123.1007,-5.2109],[123.0917,-5.214],[123.0918,-5.2172],[123.1024,-5.2133],[123.1072,-5.2088],[123.1064,-5.2082],[123.1094,-5.2042],[123.1169,-5.2067],[123.1286,-5.2169],[123.1324,-5.2211],[123.1328,-5.2238],[123.1375,-5.2269],[123.1413,-5.235],[123.1409,-5.2382],[123.1473,-5.2407],[123.1491,-5.2443],[123.1318,-5.2614],[123.13,-5.2686],[123.1255,-5.2686],[123.0856,-5.2271],[123.079,-5.2356],[123.0376,-5.2483],[123.0033,-5.277],[122.955,-5.3025],[122.922,-5.3287],[122.9145,-5.3176],[122.9067,-5.2992],[122.9106,-5.2745]]]}},{"type":"Feature","properties":{"name":"LasalimuSelatan","name_en":"LasalimuSelatan","admin_level":"6","osm_id":""},"geometry":{"type":"Polygon","coordinates":[[[123.1869,-5.3394],[123.1856,-5.3422],[123.177,-5.3494],[123.1727,-5.3591],[123.1686,-5.3596],[123.1673,-5.3569],[123.1657,-5.3605],[123.1575,-5.3494],[123.1449,-5.3421],[123.1155,-5.3461],[123.0869,-5.3113],[123.0735,-5.3067],[123.0615,-5.3073],[123.0455,-5.302],[123.0375,-5.2893],[123.0202,-5.286],[123.0117,-5.27],[123.0376,-5.2483],[123.079,-5.2356],[123.0856,-5.2271],[123.1255,-5.2686],[123.13,-5.2686],[123.1318,-5.2614],[123.1491,-5.2443],[123.1518,-5.248],[123.1566,-5.2475],[123.1582,-5.2489],[123.1771,-5.246],[123.1814,-5.247],[123.1848,-5.2494],[123.1893,-5.2567],[123.1941,-5.2574],[123.1981,-5.2606],[123.1997,-5.2672],[123.1979,-5.27],[123.1991,-5.2717],[123.2154,-5.2703],[123.2214,-5.2733],[123.2243,-5.2787],[123.2168,-5.3037],[123.2113,-5.3083],[123.208,-5.3084],[123.2033,-5.3113],[123.1975,-5.32],[123.1949,-5.3315],[123.1869,-5.3394]]]}},{"type":"Feature","properties":{"name":"Mawasangka","name_en":"Mawasangka","admin_level":"6","osm_id":""},"geometry":{"type":"Polygon","coordinates":[[[122.2769,-5.3922],[122.2694,-5.384],[122.2668,-5.3754],[122.2668,-5.3699],[122.2696,-5.3634],[122.2664,-5.3556],[122.2657,-5.3395],[122.2659,-5.3267],[122.2682,-5.3143],[122.2758,-5.295],[122.2849,-5.2868],[122.2873,-5.2816],[122.2889,-5.2822],[122.2919,-5.2795],[122.3072,-5.2568],[122.308,-5.2501],[122.3154,-5.2371],[122.3138,-5.225],[122.307,-5.2194],[122.305,-5.2156],[122.3057,-5.2048],[122.3031,-5.2012],[122.3045,-5.1955],[122.3087,-5.1947],[122.3156,-5.1866],[122.3151,-5.1715],[122.3102,-5.1656],[122.3117,-5.1568],[122.3106,-5.1532],[122.3069,-5.1509],[122.3067,-5.1492],[122.3105,-5.1441],[122.3165,-5.142],[122.3167,-5.1454],[122.3191,-5.1462],[122.3201,-5.145],[122.3215,-5.1467],[122.3259,-5.1457],[122.3363,-5.1475],[122.3419,-5.1458],[122.3437,-5.1474],[122.3456,-5.1465],[122.3461,-5.149],[122.3448,-5.1502],[122.3464,-5.1514],[122.3487,-5.1493],[122.3517,-5.1523],[122.3534,-5.1512],[122.3548,-5.1521],[122.3547,-5.1571],[122.3569,-5.1587],[122.356,-5.162],[122.3582,-5.1635],[122.3584,-5.1693],[122.3643,-5.1733],[122.3592,-5.1766],[122.3615,-5.1789],[122.3685,-5.18],[122.3663,-5.186],[122.3683,-5.1865],[122.3691,-5.1829],[122.3726,-5.1827],[122.3766,-5.187],[122.3764,-5.1923],[122.3792,-5.1943],[122.4043,-5.21],[122.436,-5.2248],[122.4368,-5.233],[122.444,-5.2541],[122.4288,-5.2545],[122.3587,-5.2646],[122.3492,-5.2682],[122.3589,-5.2834],[122.3423,-5.3097],[122.3296,-5.323],[122.3234,-5.3417],[122.3217,-5.3533],[122.3326,-5.3953],[122.3262,-5.3967],[122.3,-5.3966],[122.2914,-5.3942],[122.2789,-5.3946],[122.2769,-5.3922]]]}},{"type":"Feature","properties":{"name":"MawasangkaTengah","name_en":"MawasangkaTengah","admin_level":"6","osm_id":""},"geometry":{"type":"Polygon","coordinates":[[[122.3676,-5.3862],[122.3614,-5.3903],[122.3326,-5.3953],[122.3217,-5.3533],[122.3234,-5.3417],[122.3296,-5.323],[122.3423,-5.3097],[122.3589,-5.2834],[122.3492,-5.2682],[122.3587,-5.2646],[122.4288,-5.2545],[122.444,-5.2541],[122.4573,-5.275],[122.4807,-5.302],[122.4802,-5.3082],[122.4648,-5.3123],[122.4496,-5.3124],[122.4411,-5.315],[122.4376,-5.313],[122.433,-5.3135],[122.4315,-5.3155],[122.427,-5.3139],[122.4029,-5.3169],[122.3987,-5.3128],[122.3914,-5.3211],[122.3846,-5.3206],[122.3801,-5.3223],[122.3735,-5.3305],[122.3707,-5.3403],[122.3756,-5.3536],[122.3824,-5.3601],[122.382,-5.3678],[122.376,-5.3799],[122.3676,-5.3862]]]}},{"type":"Feature","properties":{"name":"MawasangkaTimur","name_en":"MawasangkaTimur","admin_level":"6","osm_id":""},"geometry":{"type":"Polygon","coordinates":[[[122.4436,-5.4049],[122.4367,-5.4017],[122.4322,-5.4019],[122.4316,-5.4035],[122.4224,-5.401],[122.4157,-5.4024],[122.4069,-5.3982],[122.3973,-5.3834],[122.3978,-5.3764],[122.3938,-5.3683],[122.391,-5.3533],[122.3838,-5.3397],[122.3824,-5.3327],[122.3849,-5.3269],[122.3916,-5.3269],[122.4051,-5.3232],[122.4187,-5.3224],[122.4258,-5.3194],[122.4348,-5.3183],[122.4355,-5.3161],[122.4391,-5.3166],[122.4496,-5.3124],[122.4648,-5.3123],[122.4802,-5.3082],[122.4799,-5.3124],[122.4853,-5.3227],[122.4948,-5.33],[122.4978,-5.3347],[122.4986,-5.3392],[122.4959,-5.3438],[122.4984,-5.3468],[122.4931,-5.3507],[122.4891,-5.3573],[122.4867,-5.3625],[122.4874,-5.3682],[122.4838,-5.3709],[122.4839,-5.3736],[122.4821,-5.3738],[122.4788,-5.3663],[122.4734,-5.3664],[122.4704,-5.361],[122.4686,-5.3611],[122.4675,-5.3661],[122.4718,-5.3726],[122.4741,-5.3856],[122.4691,-5.3945],[122.47,-5.3982],[122.4616,-5.4039],[122.4539,-5.4024],[122.4478,-5.406],[122.4436,-5.4049]]]}},{"type":"Feature","properties":{"name":"Pasarwajo","name_en":"Pasarwajo","admin_level":"6","osm_id":""},"geometry":{"type":"Polygon","coordinates":[[[122.8477,-5.5281],[122.8629,-5.5224],[122.8736,-5.5077],[122.8777,-5.5061],[122.8805,-5.5067],[122.8843,-5.5109],[122.8927,-5.514],[122.8973,-5.5178],[122.898,-5.543],[122.8715,-5.5402],[122.8678,-5.541],[122.8529,-5.55],[122.8455,-5.5504],[122.8324,-5.5476],[122.7389,-5.4911],[122.7412,-5.4889],[122.7402,-5.4838],[122.7427,-5.4818],[122.7423,-5.4755],[122.7462,-5.4723],[122.7458,-5.4669],[122.7533,-5.4595],[122.7509,-5.4559],[122.7519,-5.4545],[122.7494,-5.4519],[122.7498,-5.4492],[122.7546,-5.4499],[122.7594,-5.4326],[122.7619,-5.4321],[122.7622,-5.4281],[122.76,-5.4228],[122.7698,-5.4125],[122.7684,-5.4089],[122.7632,-5.4044],[122.7625,-5.3911],[122.7594,-5.3764],[122.7503,-5.3647],[122.8098,-5.3669],[122.8612,-5.3402],[122.9074,-5.3008],[122.9146,-5.3177],[122.9154,-5.3433],[122.9128,-5.4049],[122.9073,-5.4332],[122.903,-5.439],[122.8952,-5.4392],[122.8917,-5.4407],[122.8722,-5.455],[122.8641,-5.4642],[122.862,-5.4687],[122.8582,-5.471],[122.8487,-5.4857],[122.8443,-5.5088],[122.8451,-5.5172],[122.8439,-5.5222],[122.8419,-5.5171],[122.8434,-5.5215],[122.8447,-5.5241],[122.848,-5.5269],[122.8468,-5.5283],[122.8477,-5.5281]]]}},{"type":"Feature","properties":{"name":"Sampolawa","name_en":"Sampolawa","admin_level":"6","osm_id":""},"geometry":{"type":"Polygon","coordinates":[[[122.6644,-5.6711],[122.6631,-5.6637],[122.6647,-5.6459],[122.6715,-5.6279],[122.6806,-5.5948],[122.6823,-5.5707],[122.6757,-5.5641],[122.6633,-5.5467],[122.6413,-5.5126],[122.643,-5.5121],[122.6428,-5.5101],[122.6455,-5.5114],[122.6466,-5.5097],[122.6473,-5.5111],[122.6596,-5.5064],[122.6622,-5.509],[122.6624,-5.5057],[122.6694,-5.4965],[122.6931,-5.4942],[122.7259,-5.4952],[122.7389,-5.4911],[122.8069,-5.5319],[122.8101,-5.5643],[122.7692,-5.5846],[122.7379,-5.5855],[122.7304,-5.6075],[122.7327,-5.6087],[122.7373,-5.6237],[122.7625,-5.6158],[122.77,-5.6102],[122.7838,-5.6369],[122.7599,-5.6555],[122.7617,-5.6507],[122.76,-5.6425],[122.7568,-5.6399],[122.7505,-5.6405],[122.747,-5.6389],[122.7435,-5.6399],[122.7395,-5.6595],[122.7348,-5.6645],[122.7322,-5.6717],[122.7302,-5.6713],[122.7269,-5.6741],[122.7262,-5.6813],[122.7289,-5.6883],[122.7255,-5.6919],[122.7156,-5.6856],[122.7101,-5.6786],[122.7122,-5.6594],[122.7227,-5.6288],[122.7202,-5.6214],[122.714,-5.6193],[122.709,-5.6213],[122.7065,-5.629],[122.7015,-5.6321],[122.6961,-5.6396],[122.6871,-5.6583],[122.6703,-5.6859],[122.6663,-5.6821],[122.6644,-5.6711]]]}},{"type":"Feature","properties":{"name":"SangiaWambulu","name_en":"SangiaWambulu","admin_level":"6","osm_id":""},"geometry":{"type":"Polygon","coordinates":[[[122.6259,-5.3662],[122.621,-5.3716],[122.618,-5.3711],[122.6165,-5.3688],[122.6187,-5.3545],[122.6223,-5.3484],[122.6221,-5.3471],[122.6198,-5.3471],[122.6201,-5.3455],[122.6247,-5.3431],[122.6412,-5.3439],[122.6401,-5.3562],[122.6309,-5.3609],[122.6259,-5.3662]]]}},{"type":"Feature","properties":{"name":"Siompu","name_en":"Siompu","admin_level":"6","osm_id":""},"geometry":{"type":"Polygon","coordinates":[[[122.538,-5.6294],[122.545,-5.6277],[122.5465,-5.633],[122.5555,-5.6478],[122.5569,-5.653],[122.5562,-5.6612],[122.5544,-5.6711],[122.5436,-5.6868],[122.5356,-5.6931],[122.5277,-5.695],[122.5158,-5.6785],[122.4892,-5.665],[122.4946,-5.6551],[122.4949,-5.6509],[122.5022,-5.6495],[122.5059,-5.6463],[122.506,-5.6369],[122.5033,-5.6306],[122.5069,-5.6277],[122.5081,-5.6241],[122.5169,-5.6247],[122.5216,-5.6283],[122.5312,-5.6303],[122.538,-5.6294]]]}},{"type":"Feature","properties":{"name":"SiompuBarat","name_en":"SiompuBarat","admin_level":"6","osm_id":""},"geometry":{"type":"Polygon","coordinates":[[[122.4899,-5.6989],[122.4773,-5.6905],[122.4724,-5.6901],[122.466,-5.6926],[122.4581,-5.6932],[122.4563,-5.6866],[122.4638,-5.6797],[122.4697,-5.6804],[122.4759,-5.6736],[122.4838,-5.6713],[122.4892,-5.665],[122.5158,-5.6785],[122.5277,-5.695],[122.5205,-5.6938],[122.5047,-5.6985],[122.4899,-5.6989]]]}},{"type":"Feature","properties":{"name":"Siontapina","name_en":"Siontapina","admin_level":"6","osm_id":""},"geometry":{"type":"Polygon","coordinates":[[[123.042,-5.4323],[123.0315,-5.4387],[123.0152,-5.4437],[123.0138,-5.4382],[123.0101,-5.4342],[123.0041,-5.4217],[123.003,-5.4162],[123.0044,-5.4141],[123.0012,-5.4116],[123.0012,-5.4067],[122.9993,-5.4077],[122.9996,-5.4056],[122.9958,-5.3997],[122.9903,-5.3992],[122.9885,-5.3972],[122.9887,-5.3954],[122.9963,-5.3966],[122.9979,-5.3912],[122.9939,-5.3891],[122.9883,-5.3817],[122.982,-5.381],[122.9794,-5.3742],[122.9351,-5.3477],[122.922,-5.3287],[122.955,-5.3025],[123.0033,-5.277],[123.0117,-5.27],[123.0202,-5.286],[123.0375,-5.2893],[123.0455,-5.302],[123.0615,-5.3073],[123.0735,-5.3067],[123.0869,-5.3113],[123.1155,-5.3461],[123.1449,-5.3421],[123.1575,-5.3494],[123.1657,-5.3605],[123.1643,-5.3647],[123.1623,-5.3647],[123.1619,-5.3619],[123.1587,-5.3638],[123.1575,-5.3685],[123.1541,-5.3702],[123.1532,-5.3737],[123.1419,-5.3832],[123.1404,-5.3894],[123.1357,-5.3959],[123.1311,-5.3988],[123.1238,-5.4012],[123.1137,-5.4006],[123.0966,-5.4104],[123.0601,-5.4224],[123.042,-5.4323]]]}},{"type":"Feature","properties":{"name":"TalagaRaya","name_en":"TalagaRaya","admin_level":"6","osm_id":""},"geometry":{"type":"Polygon","coordinates":[[[122.0376,-5.468],[122.032,-5.4747],[122.0208,-5.474],[122.0147,-5.4763],[122.0107,-5.4722],[122.0111,-5.4687],[122.0093,-5.4676],[122.0054,-5.4674],[122.0031,-5.4689],[121.9969,-5.4669],[121.995,-5.4735],[121.9924,-5.4746],[121.9893,-5.4728],[121.9786,-5.4766],[121.9712,-5.4758],[121.969,-5.4774],[121.9606,-5.4774],[121.9547,-5.4806],[121.9534,-5.4837],[121.9535,-5.4909],[121.9579,-5.4938],[121.958,-5.4957],[121.9475,-5.493],[121.9516,-5.4853],[121.9457,-5.4832],[121.9451,-5.4787],[121.9462,-5.4737],[121.9501,-5.4675],[121.9527,-5.4564],[121.9528,-5.4175],[121.9549,-5.4047],[122.0446,-5.4013],[122.0484,-5.4144],[122.0437,-5.4157],[122.046,-5.422],[122.0432,-5.4247],[122.045,-5.4252],[122.0461,-5.4284],[122.0434,-5.4379],[122.0466,-5.4547],[122.0499,-5.4607],[122.0436,-5.4621],[122.0376,-5.468]]]}},{"type":"Feature","properties":{"name":"Wabula","name_en":"Wabula","admin_level":"6","osm_id":""},"geometry":{"type":"Polygon","coordinates":[[[122.8327,-5.6381],[122.8214,-5.6247],[122.8123,-5.5882],[122.8069,-5.5319],[122.8324,-5.5476],[122.8455,-5.5504],[122.8529,-5.55],[122.8678,-5.541],[122.8715,-5.5402],[122.8973,-5.543],[122.8963,-5.5459],[122.8983,-5.552],[122.8926,-5.56],[122.8937,-5.5647],[122.8968,-5.5595],[122.8985,-5.5605],[122.8966,-5.5637],[122.8893,-5.5709],[122.887,-5.5769],[122.8676,-5.5925],[122.8674,-5.5952],[122.863,-5.6012],[122.8632,-5.6054],[122.8609,-5.6106],[122.8492,-5.6206],[122.8388,-5.6321],[122.8341,-5.6397],[122.8327,-5.6381]]]}},{"type":"Feature","properties":{"name":"Wolowa","name_en":"Wolowa","admin_level":"6","osm_id":""},"geometry":{"type":"Polygon","coordinates":[[[122.9448,-5.3532],[122.9794,-5.3742],[122.982,-5.381],[122.9883,-5.3817],[122.9939,-5.3891],[122.9979,-5.3912],[122.9979,-5.3945],[122.9963,-5.3966],[122.9874,-5.3944],[122.9762,-5.3939],[122.9718,-5.3952],[122.962,-5.4079],[122.955,-5.4094],[122.9466,-5.4141],[122.9413,-5.424],[122.9231,-5.437],[122.914,-5.4398],[122.9118,-5.4385],[122.9033,-5.4398],[122.9073,-5.4332],[122.9128,-5.4049],[122.9154,-5.3523],[122.9146,-5.3177],[122.9351,-5.3477],[122.9448,-5.3532]]]}}]}