{"type":"FeatureCollection","metadata":{"parent_osm_id":"6444214","parent_name":"Sragen","parent_name_1":"JawaTengah","parent_gid":"IDN.10.29_1","parent_level":"5","child_level":"6","count":20,"source":"GADM 4.1","generated":"2026-05-05"},"features":[{"type":"Feature","properties":{"name":"Gemolong","name_en":"Gemolong","admin_level":"6","osm_id":""},"geometry":{"type":"Polygon","coordinates":[[[110.8607,-7.4194],[110.8533,-7.4291],[110.852,-7.4274],[110.8491,-7.4284],[110.8466,-7.4263],[110.8439,-7.4269],[110.8333,-7.4213],[110.8331,-7.4177],[110.8155,-7.4172],[110.8136,-7.4149],[110.8067,-7.4129],[110.7982,-7.4144],[110.7967,-7.3887],[110.8134,-7.3944],[110.8133,-7.3889],[110.8153,-7.3853],[110.8198,-7.3843],[110.8196,-7.3828],[110.8258,-7.3836],[110.8282,-7.3805],[110.8301,-7.366],[110.8356,-7.3675],[110.8446,-7.366],[110.8452,-7.3641],[110.8508,-7.3674],[110.8528,-7.3627],[110.8551,-7.3631],[110.8559,-7.36],[110.8599,-7.3656],[110.8644,-7.3687],[110.8691,-7.3681],[110.8791,-7.3715],[110.879,-7.3731],[110.8758,-7.3737],[110.8755,-7.3752],[110.8725,-7.3754],[110.8694,-7.3838],[110.8756,-7.3888],[110.8759,-7.3913],[110.874,-7.3935],[110.8804,-7.4041],[110.8753,-7.4037],[110.8721,-7.4066],[110.8709,-7.4106],[110.8666,-7.4098],[110.8639,-7.413],[110.8619,-7.4125],[110.8607,-7.4194]]]}},{"type":"Feature","properties":{"name":"Gesi","name_en":"Gesi","admin_level":"6","osm_id":""},"geometry":{"type":"Polygon","coordinates":[[[111.0157,-7.3556],[111.0088,-7.3629],[111.0117,-7.3678],[111.0114,-7.3705],[111.0047,-7.3727],[111.0061,-7.3788],[111.0032,-7.3769],[110.9995,-7.3779],[110.9899,-7.3757],[110.9888,-7.3719],[110.9872,-7.3715],[110.9889,-7.3697],[110.9948,-7.3719],[110.9954,-7.3632],[110.9979,-7.3609],[110.9983,-7.3572],[110.9893,-7.3563],[110.9863,-7.3594],[110.9776,-7.3587],[110.978,-7.3291],[110.9818,-7.3286],[110.9878,-7.3143],[110.9922,-7.3146],[110.995,-7.3123],[110.9976,-7.2982],[110.9965,-7.2955],[110.9991,-7.288],[111.0204,-7.283],[111.0215,-7.2833],[111.0212,-7.2975],[111.0245,-7.2989],[111.0333,-7.2983],[111.0376,-7.3077],[111.0361,-7.3099],[111.0374,-7.3148],[111.0341,-7.3196],[111.0341,-7.3254],[111.0311,-7.3307],[111.0294,-7.3391],[111.0245,-7.3421],[111.026,-7.345],[111.0246,-7.3476],[111.0256,-7.3499],[111.0214,-7.349],[111.0202,-7.3531],[111.0157,-7.3556]]]}},{"type":"Feature","properties":{"name":"Gondang","name_en":"Gondang","admin_level":"6","osm_id":""},"geometry":{"type":"Polygon","coordinates":[[[111.0984,-7.4012],[111.1013,-7.4008],[111.1079,-7.3957],[111.1118,-7.3957],[111.1123,-7.3987],[111.1162,-7.4004],[111.1164,-7.3982],[111.1293,-7.3996],[111.1284,-7.4007],[111.1296,-7.4015],[111.1271,-7.4046],[111.1232,-7.4058],[111.1243,-7.4091],[111.1197,-7.4097],[111.1202,-7.412],[111.1184,-7.4145],[111.1199,-7.4171],[111.1191,-7.4233],[111.1214,-7.4253],[111.1239,-7.4344],[111.1228,-7.4391],[111.1252,-7.4395],[111.1261,-7.4427],[111.1259,-7.4444],[111.1242,-7.4443],[111.1252,-7.4504],[111.1284,-7.4515],[111.131,-7.4566],[111.1287,-7.4611],[111.1322,-7.4611],[111.1318,-7.4644],[111.1347,-7.4621],[111.1372,-7.4657],[111.1345,-7.4685],[111.1351,-7.4735],[111.1332,-7.4747],[111.1332,-7.4787],[111.1319,-7.4794],[111.1241,-7.4789],[111.1231,-7.4714],[111.1093,-7.4721],[111.1005,-7.4673],[111.0979,-7.463],[111.0769,-7.4622],[111.0735,-7.4593],[111.0754,-7.4513],[111.0719,-7.433],[111.0749,-7.4271],[111.0713,-7.4211],[111.07,-7.411],[111.0736,-7.4067],[111.0719,-7.4019],[111.0742,-7.3974],[111.072,-7.3929],[111.0762,-7.3873],[111.0756,-7.3841],[111.0789,-7.3825],[111.0833,-7.3857],[111.0872,-7.3855],[111.0874,-7.3913],[111.0921,-7.3949],[111.0918,-7.3966],[111.0938,-7.3962],[111.0947,-7.3989],[111.0975,-7.3982],[111.0968,-7.3998],[111.0984,-7.4012]]]}},{"type":"Feature","properties":{"name":"Jenar","name_en":"Jenar","admin_level":"6","osm_id":""},"geometry":{"type":"Polygon","coordinates":[[[111.0958,-7.349],[111.0939,-7.3543],[111.0909,-7.356],[111.0888,-7.3531],[111.0913,-7.3479],[111.089,-7.3457],[111.0873,-7.3513],[111.0809,-7.3578],[111.0792,-7.3563],[111.0814,-7.3518],[111.0782,-7.3458],[111.0745,-7.344],[111.0691,-7.3442],[111.0706,-7.342],[111.0791,-7.3415],[111.0798,-7.3395],[111.0712,-7.3372],[111.0647,-7.342],[111.0627,-7.3411],[111.0617,-7.3393],[111.0651,-7.3308],[111.0631,-7.3258],[111.0643,-7.3171],[111.0624,-7.3156],[111.0632,-7.3113],[111.0601,-7.3105],[111.0595,-7.2983],[111.061,-7.2956],[111.0767,-7.2988],[111.0828,-7.2975],[111.0918,-7.2981],[111.1067,-7.2949],[111.1098,-7.2796],[111.1033,-7.273],[111.104,-7.2699],[111.102,-7.2675],[111.1036,-7.26],[111.1006,-7.2552],[111.1009,-7.2494],[111.1025,-7.2474],[111.1071,-7.2472],[111.1119,-7.2492],[111.1215,-7.2481],[111.1257,-7.251],[111.1271,-7.2578],[111.1341,-7.2596],[111.1361,-7.2618],[111.1438,-7.2617],[111.1496,-7.2658],[111.1504,-7.2737],[111.1468,-7.2796],[111.1443,-7.2795],[111.1399,-7.2842],[111.1414,-7.29],[111.138,-7.2938],[111.1372,-7.2995],[111.1421,-7.3074],[111.1469,-7.3082],[111.1553,-7.3134],[111.1494,-7.3208],[111.1494,-7.3237],[111.1435,-7.3289],[111.1415,-7.3416],[111.1429,-7.3477],[111.1407,-7.3521],[111.1375,-7.3517],[111.1342,-7.3583],[111.1312,-7.3586],[111.1289,-7.3567],[111.1282,-7.3464],[111.1202,-7.3477],[111.1171,-7.3459],[111.1165,-7.3426],[111.1199,-7.3427],[111.1195,-7.3409],[111.1137,-7.3412],[111.1141,-7.3441],[111.1125,-7.3458],[111.1077,-7.3433],[111.107,-7.3499],[111.1013,-7.3505],[111.0958,-7.349]]]}},{"type":"Feature","properties":{"name":"Kaliambe","name_en":"Kaliambe","admin_level":"6","osm_id":""},"geometry":{"type":"Polygon","coordinates":[[[110.8566,-7.4688],[110.8532,-7.4699],[110.8518,-7.4678],[110.8498,-7.4679],[110.8476,-7.469],[110.8475,-7.4716],[110.8452,-7.4655],[110.8427,-7.4644],[110.8416,-7.46],[110.8281,-7.4575],[110.8259,-7.4585],[110.8245,-7.4561],[110.8234,-7.4579],[110.8186,-7.4596],[110.8136,-7.4589],[110.8127,-7.4603],[110.8089,-7.4583],[110.8059,-7.4597],[110.8016,-7.4592],[110.8001,-7.4608],[110.7974,-7.4598],[110.7966,-7.4616],[110.7932,-7.4605],[110.7919,-7.4573],[110.7892,-7.4586],[110.7849,-7.4541],[110.7809,-7.4531],[110.7782,-7.4456],[110.7743,-7.4447],[110.7708,-7.4402],[110.7745,-7.4358],[110.7811,-7.4366],[110.7825,-7.4323],[110.7745,-7.4291],[110.7691,-7.418],[110.7734,-7.4189],[110.7746,-7.4175],[110.7728,-7.4133],[110.7727,-7.3936],[110.7911,-7.4018],[110.7972,-7.4019],[110.7982,-7.4144],[110.8067,-7.4129],[110.8136,-7.4149],[110.8155,-7.4172],[110.8331,-7.4177],[110.8333,-7.4213],[110.8439,-7.4269],[110.8466,-7.4263],[110.8491,-7.4284],[110.8521,-7.4274],[110.8545,-7.4302],[110.8563,-7.4295],[110.8611,-7.4328],[110.8616,-7.4346],[110.8575,-7.4381],[110.8573,-7.442],[110.8633,-7.4566],[110.8633,-7.4608],[110.8566,-7.4688]]]}},{"type":"Feature","properties":{"name":"Karangmalang","name_en":"Karangmalang","admin_level":"6","osm_id":""},"geometry":{"type":"Polygon","coordinates":[[[111.0027,-7.4434],[111.0086,-7.444],[111.003,-7.4403],[111.0052,-7.4329],[111.0068,-7.4355],[111.0075,-7.4345],[111.0224,-7.4369],[111.0226,-7.4314],[111.0303,-7.4332],[111.034,-7.4326],[111.0331,-7.4271],[111.0542,-7.4216],[111.0551,-7.4297],[111.0587,-7.4323],[111.0608,-7.4385],[111.0587,-7.4432],[111.0595,-7.4456],[111.0691,-7.4439],[111.0717,-7.4512],[111.0754,-7.4511],[111.0734,-7.4637],[111.0707,-7.4674],[111.0721,-7.47],[111.0703,-7.4723],[111.0726,-7.4741],[111.0714,-7.4781],[111.0726,-7.4793],[111.0695,-7.4806],[111.0693,-7.474],[111.0654,-7.473],[111.0643,-7.471],[111.0608,-7.4703],[111.0526,-7.4725],[111.0537,-7.4679],[111.0468,-7.4641],[111.0434,-7.4653],[111.0378,-7.4637],[111.0271,-7.4648],[111.0257,-7.4691],[111.0159,-7.4727],[111.0135,-7.4698],[111.0091,-7.4696],[111.0071,-7.4702],[111.0068,-7.4739],[111.0049,-7.4719],[111.0033,-7.4731],[111.0036,-7.4801],[111.0059,-7.4834],[111.0021,-7.4859],[111.0007,-7.4895],[110.9977,-7.4788],[110.9892,-7.4785],[110.984,-7.4837],[110.9794,-7.4923],[110.9774,-7.4923],[110.9747,-7.4848],[110.9728,-7.4849],[110.9735,-7.4778],[110.9699,-7.4781],[110.9711,-7.4769],[110.9695,-7.474],[110.9705,-7.473],[110.965,-7.4672],[110.9654,-7.4605],[110.9703,-7.4532],[110.9721,-7.4566],[110.9776,-7.4505],[110.9849,-7.448],[110.9843,-7.4461],[110.986,-7.447],[110.987,-7.4454],[110.9913,-7.4448],[110.9904,-7.4374],[110.9927,-7.4381],[110.9956,-7.4428],[111.0027,-7.4434]]]}},{"type":"Feature","properties":{"name":"Kedawung","name_en":"Kedawung","admin_level":"6","osm_id":""},"geometry":{"type":"Polygon","coordinates":[[[111.0232,-7.5288],[111.0211,-7.5319],[111.0135,-7.5282],[111.0091,-7.5291],[111.0026,-7.5247],[110.994,-7.5228],[110.9839,-7.5061],[110.9823,-7.4981],[110.9796,-7.4971],[110.9794,-7.4949],[110.9777,-7.4961],[110.984,-7.4837],[110.9892,-7.4785],[110.9977,-7.4788],[111.0007,-7.4895],[111.0021,-7.4859],[111.0059,-7.4834],[111.0036,-7.4801],[111.0033,-7.4731],[111.0049,-7.4719],[111.0068,-7.4739],[111.0071,-7.4702],[111.0091,-7.4696],[111.0135,-7.4698],[111.0159,-7.4727],[111.0257,-7.4691],[111.0271,-7.4648],[111.0378,-7.4637],[111.0434,-7.4653],[111.0465,-7.464],[111.0537,-7.4679],[111.0528,-7.4726],[111.0608,-7.4703],[111.0647,-7.4711],[111.0654,-7.473],[111.0686,-7.473],[111.0695,-7.4806],[111.0721,-7.48],[111.0724,-7.4824],[111.0741,-7.483],[111.074,-7.4864],[111.076,-7.486],[111.0752,-7.4882],[111.078,-7.4887],[111.075,-7.4899],[111.0769,-7.4913],[111.0796,-7.4997],[111.0801,-7.5037],[111.0792,-7.5068],[111.0799,-7.5035],[111.0785,-7.4985],[111.073,-7.4966],[111.072,-7.4987],[111.0639,-7.4958],[111.0622,-7.4989],[111.063,-7.5028],[111.0583,-7.5038],[111.0571,-7.5093],[111.0498,-7.508],[111.0403,-7.5113],[111.0413,-7.5207],[111.0458,-7.5271],[111.0494,-7.5373],[111.0318,-7.5341],[111.0257,-7.5285],[111.0232,-7.5288]]]}},{"type":"Feature","properties":{"name":"Masaran","name_en":"Masaran","admin_level":"6","osm_id":""},"geometry":{"type":"Polygon","coordinates":[[[110.9755,-7.5157],[110.964,-7.5075],[110.9541,-7.5035],[110.9516,-7.5002],[110.9395,-7.4949],[110.9205,-7.4909],[110.9181,-7.4961],[110.8951,-7.4935],[110.8925,-7.4897],[110.8948,-7.4877],[110.891,-7.4783],[110.8963,-7.4638],[110.9034,-7.4589],[110.9025,-7.4557],[110.8977,-7.4518],[110.8983,-7.4468],[110.9004,-7.446],[110.905,-7.4483],[110.9059,-7.4432],[110.9081,-7.4424],[110.9136,-7.448],[110.9164,-7.4456],[110.9178,-7.4416],[110.9284,-7.4467],[110.9286,-7.4484],[110.9395,-7.4493],[110.9384,-7.4537],[110.9479,-7.4562],[110.9537,-7.4597],[110.9648,-7.4534],[110.9646,-7.4546],[110.9684,-7.4557],[110.9653,-7.4607],[110.965,-7.4672],[110.9705,-7.473],[110.9695,-7.474],[110.9711,-7.4769],[110.9699,-7.4781],[110.9735,-7.4778],[110.9728,-7.485],[110.9747,-7.4848],[110.9758,-7.4907],[110.9794,-7.4923],[110.9777,-7.4961],[110.9794,-7.4949],[110.9796,-7.4971],[110.9823,-7.4981],[110.9839,-7.5061],[110.994,-7.5228],[110.9755,-7.5157]]]}},{"type":"Feature","properties":{"name":"Miri","name_en":"Miri","admin_level":"6","osm_id":""},"geometry":{"type":"Polygon","coordinates":[[[110.7727,-7.3922],[110.7764,-7.3879],[110.7784,-7.3887],[110.7784,-7.3864],[110.7815,-7.3863],[110.788,-7.38],[110.7885,-7.3774],[110.7984,-7.3712],[110.799,-7.3695],[110.8026,-7.3685],[110.7952,-7.3667],[110.7948,-7.3644],[110.7929,-7.3654],[110.7925,-7.3627],[110.7886,-7.362],[110.7903,-7.3548],[110.7967,-7.351],[110.7981,-7.3405],[110.8032,-7.3275],[110.8015,-7.3173],[110.7983,-7.3132],[110.7972,-7.3078],[110.8053,-7.3053],[110.8077,-7.3063],[110.8105,-7.303],[110.8149,-7.3025],[110.8144,-7.3077],[110.8086,-7.309],[110.8153,-7.309],[110.811,-7.313],[110.8142,-7.3118],[110.8146,-7.3142],[110.8152,-7.3113],[110.8173,-7.3103],[110.8159,-7.3081],[110.8174,-7.3077],[110.8188,-7.3031],[110.8191,-7.3076],[110.8221,-7.3038],[110.8259,-7.3056],[110.8207,-7.3074],[110.8215,-7.3084],[110.819,-7.3121],[110.8216,-7.3095],[110.8213,-7.3117],[110.8225,-7.3118],[110.8234,-7.3097],[110.8257,-7.3104],[110.8228,-7.3119],[110.827,-7.3129],[110.8284,-7.3118],[110.8294,-7.3134],[110.8301,-7.3123],[110.8312,-7.3147],[110.8345,-7.3151],[110.8374,-7.3135],[110.8351,-7.3154],[110.8374,-7.3149],[110.8367,-7.3167],[110.8392,-7.3148],[110.8377,-7.3172],[110.8403,-7.3186],[110.8373,-7.3194],[110.8365,-7.3217],[110.8358,-7.3207],[110.8346,-7.3223],[110.8302,-7.321],[110.8256,-7.3218],[110.8243,-7.3207],[110.8246,-7.3221],[110.8202,-7.3222],[110.821,-7.3241],[110.8304,-7.3216],[110.8324,-7.3227],[110.828,-7.3249],[110.8287,-7.3256],[110.8251,-7.3297],[110.8248,-7.3336],[110.8215,-7.3365],[110.8202,-7.3415],[110.823,-7.3444],[110.8478,-7.3488],[110.8505,-7.3506],[110.8505,-7.3591],[110.8525,-7.3584],[110.8538,-7.3601],[110.8559,-7.36],[110.8551,-7.3631],[110.8528,-7.3627],[110.8508,-7.3674],[110.8452,-7.3641],[110.8446,-7.366],[110.8356,-7.3675],[110.8301,-7.366],[110.8282,-7.3805],[110.8258,-7.3836],[110.8196,-7.3828],[110.8198,-7.3843],[110.8153,-7.3853],[110.8133,-7.3889],[110.8134,-7.3944],[110.7967,-7.3887],[110.7963,-7.4025],[110.7883,-7.4008],[110.7727,-7.3936],[110.7727,-7.3922]]]}},{"type":"Feature","properties":{"name":"Mondokan","name_en":"Mondokan","admin_level":"6","osm_id":""},"geometry":{"type":"Polygon","coordinates":[[[110.9456,-7.3451],[110.9468,-7.3517],[110.9525,-7.3546],[110.9531,-7.3644],[110.9512,-7.3685],[110.946,-7.3667],[110.94,-7.369],[110.9383,-7.3666],[110.933,-7.3657],[110.932,-7.363],[110.9273,-7.3633],[110.928,-7.3612],[110.922,-7.3619],[110.9224,-7.359],[110.9188,-7.3584],[110.9168,-7.3546],[110.915,-7.3554],[110.9101,-7.3509],[110.9091,-7.353],[110.9065,-7.3501],[110.9054,-7.3514],[110.9053,-7.3494],[110.9022,-7.3496],[110.8949,-7.3449],[110.8986,-7.342],[110.8994,-7.3389],[110.8972,-7.336],[110.8997,-7.3329],[110.9012,-7.3219],[110.9059,-7.3146],[110.9092,-7.3006],[110.9069,-7.2962],[110.9071,-7.291],[110.9033,-7.2878],[110.9017,-7.2834],[110.9105,-7.2811],[110.9177,-7.282],[110.9204,-7.2798],[110.9206,-7.2728],[110.9222,-7.2696],[110.9252,-7.275],[110.929,-7.2777],[110.9319,-7.2761],[110.9385,-7.2778],[110.9437,-7.277],[110.9479,-7.2813],[110.9578,-7.2819],[110.9558,-7.2887],[110.9601,-7.292],[110.9596,-7.2978],[110.9621,-7.3015],[110.9592,-7.3046],[110.9602,-7.3083],[110.9583,-7.3109],[110.9589,-7.3159],[110.954,-7.3186],[110.9538,-7.3258],[110.9445,-7.3348],[110.9437,-7.3436],[110.9456,-7.3451]]]}},{"type":"Feature","properties":{"name":"Ngampal","name_en":"Ngampal","admin_level":"6","osm_id":""},"geometry":{"type":"Polygon","coordinates":[[[111.0733,-7.4421],[111.0748,-7.4438],[111.074,-7.4468],[111.0753,-7.4509],[111.0717,-7.4512],[111.0691,-7.4439],[111.0595,-7.4456],[111.0587,-7.4432],[111.0608,-7.4385],[111.0587,-7.4323],[111.0551,-7.4297],[111.0542,-7.4216],[111.0439,-7.4243],[111.0462,-7.4202],[111.0455,-7.4118],[111.0476,-7.4071],[111.0446,-7.4052],[111.042,-7.4057],[111.0414,-7.4039],[111.036,-7.4038],[111.0333,-7.4012],[111.0275,-7.4015],[111.0239,-7.3991],[111.0226,-7.3914],[111.0281,-7.3882],[111.0226,-7.3783],[111.0317,-7.3781],[111.0337,-7.3809],[111.0379,-7.3776],[111.0283,-7.3641],[111.0175,-7.3643],[111.017,-7.3616],[111.017,-7.3538],[111.0202,-7.3531],[111.0214,-7.349],[111.027,-7.3506],[111.0304,-7.3487],[111.0348,-7.3491],[111.0337,-7.3443],[111.04,-7.3417],[111.0457,-7.3426],[111.0542,-7.3468],[111.0553,-7.3366],[111.0579,-7.3347],[111.0623,-7.3404],[111.0605,-7.3426],[111.0609,-7.3578],[111.058,-7.371],[111.0623,-7.372],[111.0621,-7.3743],[111.0596,-7.3759],[111.0711,-7.3891],[111.074,-7.3906],[111.072,-7.3929],[111.0742,-7.3974],[111.0719,-7.4019],[111.0736,-7.4067],[111.07,-7.411],[111.0713,-7.4211],[111.0749,-7.4271],[111.0719,-7.433],[111.0733,-7.4421]]]}},{"type":"Feature","properties":{"name":"Plupuh","name_en":"Plupuh","admin_level":"6","osm_id":""},"geometry":{"type":"Polygon","coordinates":[[[110.8888,-7.4917],[110.8826,-7.4919],[110.8832,-7.4876],[110.8812,-7.4863],[110.8761,-7.4883],[110.8747,-7.4862],[110.8738,-7.4886],[110.8719,-7.4888],[110.872,-7.4854],[110.8656,-7.4829],[110.8657,-7.4806],[110.8636,-7.4794],[110.8651,-7.4763],[110.864,-7.4732],[110.857,-7.4729],[110.8574,-7.4689],[110.8629,-7.4621],[110.8634,-7.4574],[110.8573,-7.442],[110.8575,-7.4381],[110.8616,-7.4336],[110.8563,-7.4295],[110.8542,-7.4299],[110.8545,-7.4274],[110.8605,-7.4201],[110.8619,-7.4125],[110.8639,-7.413],[110.8666,-7.4098],[110.8709,-7.4106],[110.8721,-7.4066],[110.8753,-7.4037],[110.8873,-7.4032],[110.8879,-7.4006],[110.9003,-7.4051],[110.9007,-7.4037],[110.9048,-7.4036],[110.9105,-7.4049],[110.9101,-7.4103],[110.9364,-7.417],[110.9384,-7.4229],[110.9311,-7.4333],[110.9233,-7.4323],[110.9227,-7.4373],[110.9185,-7.4383],[110.9144,-7.4477],[110.9123,-7.448],[110.9107,-7.4437],[110.9081,-7.4424],[110.9059,-7.4432],[110.905,-7.4483],[110.9004,-7.446],[110.8983,-7.4468],[110.8977,-7.4518],[110.9025,-7.4557],[110.9034,-7.4589],[110.8956,-7.4651],[110.891,-7.4787],[110.8948,-7.4882],[110.8888,-7.4917]]]}},{"type":"Feature","properties":{"name":"Sambirejo","name_en":"Sambirejo","admin_level":"6","osm_id":""},"geometry":{"type":"Polygon","coordinates":[[[111.1202,-7.521],[111.1194,-7.5222],[111.1167,-7.5214],[111.1177,-7.5259],[111.116,-7.5262],[111.1154,-7.5292],[111.1113,-7.5313],[111.0963,-7.5292],[111.0912,-7.5304],[111.0884,-7.5283],[111.0814,-7.5276],[111.0789,-7.5249],[111.0808,-7.5219],[111.0794,-7.5166],[111.0829,-7.5131],[111.0802,-7.5114],[111.0813,-7.5086],[111.0793,-7.508],[111.0796,-7.4997],[111.0769,-7.4913],[111.0751,-7.4902],[111.078,-7.4887],[111.0752,-7.4882],[111.076,-7.486],[111.074,-7.4864],[111.0741,-7.483],[111.0723,-7.4822],[111.0729,-7.4782],[111.0714,-7.4781],[111.0726,-7.4741],[111.0703,-7.4723],[111.0721,-7.4703],[111.0707,-7.4674],[111.0726,-7.4663],[111.0735,-7.4593],[111.0769,-7.4622],[111.0979,-7.463],[111.1005,-7.4673],[111.1093,-7.4721],[111.1231,-7.4714],[111.1245,-7.4791],[111.1319,-7.4794],[111.1332,-7.4787],[111.1332,-7.4751],[111.1368,-7.4802],[111.1352,-7.4837],[111.1394,-7.4868],[111.1414,-7.4862],[111.1448,-7.4934],[111.1481,-7.4941],[111.1518,-7.4979],[111.1534,-7.5055],[111.1521,-7.5077],[111.1536,-7.5099],[111.1503,-7.5113],[111.1481,-7.5165],[111.1507,-7.5181],[111.1502,-7.5204],[111.152,-7.5219],[111.1481,-7.5253],[111.1396,-7.5239],[111.1308,-7.5153],[111.1297,-7.511],[111.125,-7.5129],[111.1239,-7.5191],[111.1202,-7.521]]]}},{"type":"Feature","properties":{"name":"Sambungmacan","name_en":"Sambungmacan","admin_level":"6","osm_id":""},"geometry":{"type":"Polygon","coordinates":[[[111.0979,-7.4008],[111.0975,-7.3982],[111.0947,-7.3989],[111.0938,-7.3962],[111.0918,-7.3966],[111.0921,-7.3949],[111.0874,-7.3913],[111.0872,-7.3855],[111.0833,-7.3857],[111.0789,-7.3825],[111.0756,-7.3841],[111.0762,-7.3873],[111.074,-7.3906],[111.0711,-7.3891],[111.0596,-7.3759],[111.0623,-7.3736],[111.0623,-7.372],[111.058,-7.371],[111.0609,-7.3578],[111.0605,-7.3426],[111.0623,-7.3404],[111.0647,-7.342],[111.0721,-7.3371],[111.0798,-7.3395],[111.0791,-7.3415],[111.0706,-7.342],[111.0691,-7.3442],[111.0745,-7.344],[111.0782,-7.3458],[111.0815,-7.3522],[111.0792,-7.3563],[111.0814,-7.3579],[111.0873,-7.3513],[111.089,-7.3457],[111.0905,-7.3458],[111.0913,-7.349],[111.0891,-7.354],[111.0922,-7.3563],[111.0956,-7.3492],[111.107,-7.3499],[111.1077,-7.3433],[111.1125,-7.3458],[111.1143,-7.3409],[111.12,-7.3412],[111.1199,-7.3427],[111.1165,-7.3426],[111.1171,-7.3459],[111.1189,-7.3474],[111.1282,-7.3464],[111.1287,-7.356],[111.1312,-7.3586],[111.1348,-7.3579],[111.1378,-7.3515],[111.1407,-7.3521],[111.1413,-7.3569],[111.1428,-7.3577],[111.1413,-7.3611],[111.1446,-7.3597],[111.1443,-7.3619],[111.1417,-7.3636],[111.1441,-7.3648],[111.1436,-7.3673],[111.1455,-7.3683],[111.1415,-7.3732],[111.1432,-7.3743],[111.1371,-7.379],[111.1365,-7.3824],[111.1393,-7.3855],[111.1335,-7.3911],[111.131,-7.396],[111.1292,-7.3956],[111.1268,-7.3997],[111.1164,-7.3982],[111.1162,-7.4004],[111.1123,-7.3987],[111.1118,-7.3957],[111.1079,-7.3957],[111.1013,-7.4008],[111.0979,-7.4008]]]}},{"type":"Feature","properties":{"name":"Sidoharjo","name_en":"Sidoharjo","admin_level":"6","osm_id":""},"geometry":{"type":"Polygon","coordinates":[[[110.9638,-7.454],[110.9537,-7.4597],[110.9479,-7.4562],[110.9384,-7.4537],[110.9395,-7.4493],[110.9286,-7.4484],[110.9284,-7.4467],[110.9178,-7.4416],[110.9182,-7.4389],[110.9227,-7.4373],[110.9233,-7.4323],[110.9292,-7.4338],[110.9326,-7.4319],[110.9349,-7.4265],[110.9384,-7.4233],[110.9369,-7.418],[110.9428,-7.4138],[110.9423,-7.4067],[110.9458,-7.4036],[110.9455,-7.4001],[110.9519,-7.3992],[110.9611,-7.3945],[110.9623,-7.3895],[110.97,-7.3902],[110.9728,-7.3883],[110.9752,-7.3886],[110.976,-7.3836],[110.9845,-7.3898],[110.9877,-7.3859],[110.9909,-7.3868],[110.994,-7.3848],[110.9979,-7.3853],[111.0001,-7.3805],[111.0059,-7.3789],[111.0064,-7.3803],[111.0027,-7.3848],[111.0043,-7.3847],[111.0043,-7.387],[111.0064,-7.3873],[111.0065,-7.389],[111.0025,-7.3893],[111.0066,-7.3934],[111.0015,-7.3931],[111.0038,-7.395],[111.0013,-7.3964],[111.0036,-7.3978],[111.0022,-7.3991],[111.0044,-7.4009],[111.0016,-7.4025],[111.0036,-7.4031],[111.0031,-7.4055],[111.0005,-7.4065],[111.0038,-7.409],[111.0011,-7.4107],[111.0051,-7.4112],[110.9982,-7.4157],[110.9988,-7.4185],[110.996,-7.4205],[110.9986,-7.4216],[110.9999,-7.4244],[110.9985,-7.4339],[110.9904,-7.4374],[110.9913,-7.4448],[110.987,-7.4454],[110.986,-7.447],[110.9843,-7.4461],[110.9849,-7.448],[110.9776,-7.4505],[110.9721,-7.4566],[110.9708,-7.453],[110.9684,-7.4557],[110.9638,-7.454]]]}},{"type":"Feature","properties":{"name":"Sragen","name_en":"Sragen","admin_level":"6","osm_id":""},"geometry":{"type":"Polygon","coordinates":[[[111.0029,-7.4434],[110.9956,-7.4428],[110.9917,-7.438],[110.9985,-7.4339],[110.9999,-7.4244],[110.9986,-7.4216],[110.996,-7.4205],[110.9988,-7.4185],[110.9982,-7.4157],[111.0051,-7.4112],[111.0011,-7.4107],[111.0038,-7.409],[111.0005,-7.4065],[111.0031,-7.4055],[111.0036,-7.4031],[111.0016,-7.4025],[111.0044,-7.4009],[111.0022,-7.3991],[111.0036,-7.3978],[111.0013,-7.3964],[111.0038,-7.395],[111.0015,-7.3931],[111.0066,-7.3932],[111.0025,-7.3893],[111.0047,-7.3899],[111.0066,-7.3884],[111.0043,-7.387],[111.0041,-7.3845],[111.0027,-7.3848],[111.0064,-7.3802],[111.0047,-7.3727],[111.0114,-7.3705],[111.0117,-7.3678],[111.0088,-7.3629],[111.017,-7.3538],[111.0175,-7.3643],[111.0283,-7.3641],[111.0379,-7.3776],[111.0337,-7.3809],[111.0317,-7.3781],[111.0226,-7.3783],[111.0281,-7.3882],[111.0226,-7.3914],[111.0239,-7.3991],[111.0275,-7.4015],[111.0333,-7.4012],[111.036,-7.4038],[111.0414,-7.4039],[111.042,-7.4057],[111.0446,-7.4052],[111.0476,-7.4071],[111.0455,-7.4118],[111.0462,-7.42],[111.044,-7.4247],[111.0331,-7.4271],[111.0341,-7.4325],[111.0303,-7.4332],[111.0226,-7.4314],[111.0224,-7.4369],[111.0075,-7.4345],[111.0068,-7.4355],[111.0045,-7.4332],[111.003,-7.4403],[111.0086,-7.444],[111.0029,-7.4434]]]}},{"type":"Feature","properties":{"name":"Sukodono","name_en":"Sukodono","admin_level":"6","osm_id":""},"geometry":{"type":"Polygon","coordinates":[[[110.9718,-7.376],[110.9691,-7.3748],[110.9703,-7.3717],[110.9669,-7.3717],[110.9652,-7.3687],[110.9606,-7.3712],[110.9588,-7.3693],[110.9538,-7.37],[110.9526,-7.3686],[110.9525,-7.3546],[110.9468,-7.3517],[110.9456,-7.3452],[110.9437,-7.3436],[110.9448,-7.334],[110.9538,-7.3258],[110.9545,-7.3173],[110.9592,-7.3151],[110.9583,-7.3109],[110.9602,-7.3083],[110.9592,-7.3046],[110.9621,-7.3015],[110.9596,-7.2978],[110.9601,-7.292],[110.9558,-7.2887],[110.9579,-7.2813],[110.9636,-7.276],[110.9687,-7.2755],[110.971,-7.2776],[110.9773,-7.2762],[110.9816,-7.2773],[110.9854,-7.2764],[110.9864,-7.2744],[110.995,-7.2739],[110.9966,-7.2674],[111.0063,-7.2659],[111.0082,-7.2699],[111.0086,-7.2793],[111.0119,-7.2843],[110.9991,-7.288],[110.9965,-7.2955],[110.9976,-7.2982],[110.995,-7.3123],[110.9922,-7.3146],[110.9878,-7.3143],[110.9818,-7.3286],[110.9781,-7.3283],[110.9774,-7.3547],[110.9776,-7.3587],[110.9838,-7.3594],[110.9868,-7.3592],[110.9893,-7.3563],[110.9982,-7.3568],[110.9979,-7.3609],[110.9954,-7.3632],[110.9948,-7.3719],[110.9889,-7.3697],[110.9872,-7.3715],[110.9888,-7.3719],[110.9906,-7.3761],[110.9995,-7.3779],[111.0032,-7.3769],[111.0059,-7.3789],[111.0001,-7.3805],[110.9979,-7.3853],[110.994,-7.3848],[110.9909,-7.3868],[110.9877,-7.3859],[110.984,-7.3898],[110.9783,-7.3861],[110.9749,-7.3793],[110.9719,-7.3783],[110.9718,-7.376]]]}},{"type":"Feature","properties":{"name":"Sumberlawang","name_en":"Sumberlawang","admin_level":"6","osm_id":""},"geometry":{"type":"Polygon","coordinates":[[[110.8579,-7.3625],[110.8525,-7.3584],[110.8505,-7.3591],[110.8505,-7.3506],[110.8478,-7.3488],[110.823,-7.3444],[110.82,-7.3407],[110.8217,-7.3362],[110.8248,-7.3336],[110.8259,-7.3284],[110.8314,-7.324],[110.8353,-7.3241],[110.8335,-7.326],[110.8347,-7.3264],[110.8319,-7.3271],[110.8342,-7.3276],[110.8332,-7.329],[110.8353,-7.3276],[110.8345,-7.3295],[110.8364,-7.3293],[110.8363,-7.3306],[110.8378,-7.3294],[110.8379,-7.3306],[110.8361,-7.3337],[110.8347,-7.3335],[110.836,-7.3356],[110.8337,-7.3402],[110.8313,-7.3398],[110.8347,-7.3419],[110.8331,-7.3447],[110.8349,-7.3443],[110.835,-7.3396],[110.8383,-7.337],[110.8379,-7.3321],[110.8432,-7.3336],[110.8458,-7.3317],[110.8415,-7.3321],[110.8409,-7.3298],[110.8396,-7.3299],[110.8428,-7.3291],[110.8427,-7.3273],[110.8398,-7.3282],[110.8418,-7.3261],[110.8386,-7.3268],[110.8366,-7.323],[110.8384,-7.322],[110.8395,-7.3242],[110.8399,-7.3229],[110.8442,-7.3229],[110.8395,-7.3219],[110.8394,-7.3202],[110.8427,-7.3184],[110.8471,-7.3194],[110.8469,-7.3182],[110.8486,-7.3182],[110.8475,-7.3176],[110.8496,-7.3172],[110.8498,-7.3193],[110.8503,-7.318],[110.8533,-7.3185],[110.8506,-7.3174],[110.8509,-7.3165],[110.8543,-7.3182],[110.8542,-7.3172],[110.8613,-7.3162],[110.8502,-7.3153],[110.8444,-7.3164],[110.8416,-7.3148],[110.8422,-7.3129],[110.8462,-7.3116],[110.8466,-7.3123],[110.8557,-7.3121],[110.8577,-7.3114],[110.8489,-7.3106],[110.8509,-7.3085],[110.8476,-7.3107],[110.8469,-7.3085],[110.8434,-7.3115],[110.8441,-7.3099],[110.8427,-7.3085],[110.8408,-7.312],[110.841,-7.3101],[110.839,-7.3095],[110.8389,-7.3128],[110.8358,-7.3129],[110.8382,-7.3095],[110.837,-7.31],[110.8347,-7.307],[110.8333,-7.3079],[110.8294,-7.3062],[110.8366,-7.3055],[110.8385,-7.3072],[110.8374,-7.3048],[110.8415,-7.3052],[110.841,-7.3033],[110.8479,-7.304],[110.8408,-7.3012],[110.8361,-7.303],[110.8377,-7.2994],[110.8326,-7.3022],[110.8329,-7.3007],[110.8299,-7.3],[110.8324,-7.2996],[110.8309,-7.2987],[110.8317,-7.2976],[110.8305,-7.2988],[110.828,-7.2961],[110.8251,-7.297],[110.8272,-7.2951],[110.8241,-7.2939],[110.8264,-7.2929],[110.8304,-7.2941],[110.8285,-7.2956],[110.8302,-7.2968],[110.8328,-7.2948],[110.8324,-7.2973],[110.8354,-7.2983],[110.8343,-7.2966],[110.8359,-7.2968],[110.8354,-7.2951],[110.8369,-7.296],[110.8367,-7.2926],[110.8347,-7.2924],[110.8368,-7.2905],[110.8386,-7.2967],[110.8399,-7.2954],[110.8425,-7.2984],[110.845,-7.2971],[110.8404,-7.2938],[110.8418,-7.2932],[110.84,-7.293],[110.839,-7.2892],[110.8426,-7.2907],[110.8422,-7.2878],[110.8445,-7.2855],[110.8404,-7.2878],[110.8403,-7.2829],[110.839,-7.2861],[110.8334,-7.287],[110.8334,-7.2839],[110.8365,-7.2845],[110.8352,-7.2827],[110.8372,-7.2809],[110.8342,-7.2823],[110.8349,-7.2796],[110.8329,-7.2802],[110.8326,-7.2781],[110.8294,-7.2761],[110.8304,-7.2752],[110.829,-7.2725],[110.8335,-7.2766],[110.8344,-7.2769],[110.8351,-7.2765],[110.8329,-7.2746],[110.8339,-7.2736],[110.8311,-7.2713],[110.8306,-7.2683],[110.8323,-7.2688],[110.8321,-7.2655],[110.8337,-7.2639],[110.8375,-7.2653],[110.8369,-7.2678],[110.8384,-7.2666],[110.8411,-7.2675],[110.8404,-7.2694],[110.8423,-7.2686],[110.8412,-7.2713],[110.8432,-7.2757],[110.8443,-7.2756],[110.8427,-7.2745],[110.844,-7.2699],[110.8494,-7.2724],[110.8503,-7.2702],[110.8531,-7.2715],[110.852,-7.2699],[110.8554,-7.2695],[110.8578,-7.2711],[110.8672,-7.2651],[110.8712,-7.2692],[110.8697,-7.2731],[110.877,-7.2773],[110.877,-7.2751],[110.8788,-7.2742],[110.8892,-7.2727],[110.9006,-7.2758],[110.9007,-7.282],[110.9025,-7.2825],[110.9033,-7.2878],[110.9071,-7.291],[110.9069,-7.2962],[110.9091,-7.3011],[110.9059,-7.3146],[110.9012,-7.3219],[110.8997,-7.3329],[110.8972,-7.336],[110.8994,-7.3389],[110.8986,-7.342],[110.895,-7.3446],[110.8991,-7.3477],[110.8846,-7.356],[110.8838,-7.3643],[110.8735,-7.3592],[110.8706,-7.3618],[110.8694,-7.3677],[110.8659,-7.3691],[110.8604,-7.3661],[110.8579,-7.3625]]]}},{"type":"Feature","properties":{"name":"Tangen","name_en":"Tangen","admin_level":"6","osm_id":""},"geometry":{"type":"Polygon","coordinates":[[[111.0327,-7.3283],[111.0341,-7.3196],[111.0373,-7.316],[111.0361,-7.3099],[111.0376,-7.3077],[111.0333,-7.2983],[111.0245,-7.2989],[111.0212,-7.2975],[111.0215,-7.2833],[111.0119,-7.2843],[111.0101,-7.2825],[111.0082,-7.2699],[111.0057,-7.2659],[111.0072,-7.2609],[111.013,-7.2621],[111.0181,-7.2589],[111.0205,-7.2607],[111.0234,-7.2582],[111.0299,-7.2567],[111.0331,-7.2579],[111.032,-7.2645],[111.0414,-7.267],[111.0457,-7.2661],[111.0578,-7.2706],[111.0655,-7.2671],[111.0722,-7.2671],[111.0749,-7.2626],[111.0793,-7.262],[111.0788,-7.2574],[111.0802,-7.2543],[111.0852,-7.2548],[111.089,-7.2511],[111.0929,-7.253],[111.0975,-7.2511],[111.098,-7.2491],[111.1009,-7.2494],[111.1006,-7.2552],[111.1036,-7.26],[111.102,-7.2675],[111.104,-7.2699],[111.1033,-7.273],[111.1098,-7.2796],[111.1067,-7.2949],[111.0918,-7.2981],[111.0828,-7.2975],[111.0767,-7.2988],[111.061,-7.2956],[111.0594,-7.2993],[111.0601,-7.3105],[111.0632,-7.3113],[111.0624,-7.3156],[111.0643,-7.3171],[111.0631,-7.3258],[111.0651,-7.3308],[111.0617,-7.3393],[111.0593,-7.3351],[111.0556,-7.3357],[111.0542,-7.3468],[111.0457,-7.3426],[111.04,-7.3417],[111.0337,-7.3443],[111.0348,-7.3491],[111.0256,-7.3499],[111.0246,-7.3476],[111.026,-7.345],[111.0245,-7.3421],[111.029,-7.3399],[111.0327,-7.3283]]]}},{"type":"Feature","properties":{"name":"Tanon","name_en":"Tanon","admin_level":"6","osm_id":""},"geometry":{"type":"Polygon","coordinates":[[[110.9348,-7.4165],[110.9105,-7.4105],[110.9111,-7.4061],[110.9097,-7.4046],[110.9007,-7.4037],[110.9003,-7.4051],[110.8879,-7.4006],[110.8873,-7.4032],[110.8802,-7.4031],[110.879,-7.4003],[110.8762,-7.3987],[110.8762,-7.3956],[110.874,-7.3935],[110.8759,-7.3913],[110.8756,-7.3888],[110.8694,-7.3838],[110.8725,-7.3754],[110.879,-7.3731],[110.8791,-7.3715],[110.8693,-7.3685],[110.8715,-7.3604],[110.8748,-7.3594],[110.8838,-7.3643],[110.8846,-7.356],[110.8905,-7.3535],[110.8933,-7.3499],[110.9004,-7.3476],[110.9022,-7.3496],[110.9053,-7.3494],[110.9055,-7.3515],[110.9065,-7.3501],[110.9088,-7.3529],[110.9101,-7.3509],[110.915,-7.3554],[110.9168,-7.3547],[110.9188,-7.3584],[110.9224,-7.359],[110.922,-7.3619],[110.928,-7.3612],[110.9273,-7.3633],[110.932,-7.363],[110.933,-7.3657],[110.9383,-7.3666],[110.94,-7.369],[110.946,-7.3667],[110.949,-7.3686],[110.9522,-7.3676],[110.9538,-7.37],[110.9588,-7.3693],[110.9606,-7.3712],[110.9652,-7.3687],[110.9669,-7.3717],[110.9701,-7.3715],[110.9707,-7.3732],[110.9692,-7.375],[110.9713,-7.3751],[110.972,-7.3784],[110.9745,-7.3789],[110.9766,-7.3819],[110.9749,-7.3854],[110.9754,-7.3884],[110.97,-7.3902],[110.9623,-7.3895],[110.9611,-7.3945],[110.9519,-7.3992],[110.9455,-7.4001],[110.9458,-7.4036],[110.9423,-7.4067],[110.9425,-7.4145],[110.9371,-7.4177],[110.9348,-7.4165]]]}}]}