{"type":"FeatureCollection","metadata":{"parent_osm_id":"7754470","parent_name":"Jayawijaya","parent_name_1":"Papua","parent_gid":"IDN.23.8_1","parent_level":"5","child_level":"6","count":11,"source":"GADM 4.1","generated":"2026-05-05"},"features":[{"type":"Feature","properties":{"name":"Asologaima","name_en":"Asologaima","admin_level":"6","osm_id":""},"geometry":{"type":"Polygon","coordinates":[[[138.8212,-4.0453],[138.7834,-4.0446],[138.7593,-4.046],[138.7445,-4.0446],[138.648,-4.0274],[138.661,-4.0058],[138.6773,-3.9687],[138.6898,-3.9598],[138.7043,-3.9459],[138.728,-3.9118],[138.726,-3.8989],[138.7084,-3.8876],[138.7154,-3.8631],[138.7243,-3.8649],[138.7321,-3.864],[138.733,-3.8655],[138.7317,-3.8674],[138.733,-3.8684],[138.7405,-3.8686],[138.7462,-3.8724],[138.75,-3.8727],[138.7558,-3.8781],[138.7583,-3.8773],[138.7587,-3.8739],[138.7612,-3.8729],[138.7713,-3.8803],[138.7744,-3.8785],[138.7744,-3.8766],[138.779,-3.8756],[138.781,-3.8773],[138.7826,-3.8939],[138.7895,-3.9029],[138.7955,-3.9029],[138.7968,-3.8984],[138.7988,-3.8977],[138.8014,-3.9011],[138.8276,-3.9018],[138.8277,-3.9059],[138.8308,-3.9099],[138.8342,-3.909],[138.8361,-3.9114],[138.8354,-3.9133],[138.8315,-3.9141],[138.8312,-3.9171],[138.8399,-3.9168],[138.8414,-3.9129],[138.8431,-3.9125],[138.8433,-3.916],[138.8413,-3.9198],[138.8429,-3.9214],[138.8452,-3.9204],[138.8447,-3.9158],[138.8493,-3.9141],[138.8517,-3.916],[138.8512,-3.9212],[138.8615,-3.9218],[138.8613,-3.9186],[138.8635,-3.9239],[138.8582,-3.9299],[138.8582,-3.9325],[138.8613,-3.9353],[138.8666,-3.9331],[138.868,-3.9411],[138.8723,-3.9379],[138.8746,-3.9384],[138.8748,-3.9432],[138.8698,-3.9482],[138.824,-3.9577],[138.8424,-4.0015],[138.8501,-4.0157],[138.8416,-4.0327],[138.836,-4.0386],[138.8212,-4.0453]]]}},{"type":"Feature","properties":{"name":"Asolokobal","name_en":"Asolokobal","admin_level":"6","osm_id":""},"geometry":{"type":"Polygon","coordinates":[[[138.9782,-4.2196],[138.8985,-4.2525],[138.8391,-4.2666],[138.889,-4.1544],[138.8998,-4.1445],[138.906,-4.1413],[138.9095,-4.1279],[138.9148,-4.1249],[138.9189,-4.1187],[138.9178,-4.1166],[138.9601,-4.1162],[138.9709,-4.1074],[138.9913,-4.1131],[139.016,-4.1155],[139.1135,-4.1747],[139.0479,-4.1929],[138.9782,-4.2196]]]}},{"type":"Feature","properties":{"name":"Bolakme","name_en":"Bolakme","admin_level":"6","osm_id":""},"geometry":{"type":"Polygon","coordinates":[[[138.779,-3.8756],[138.7744,-3.8766],[138.7744,-3.8785],[138.7713,-3.8803],[138.7612,-3.8729],[138.7587,-3.8739],[138.7583,-3.8773],[138.7558,-3.8781],[138.75,-3.8727],[138.7462,-3.8724],[138.7405,-3.8686],[138.733,-3.8684],[138.7317,-3.8674],[138.733,-3.8655],[138.7321,-3.864],[138.7243,-3.8649],[138.7154,-3.8631],[138.7178,-3.8489],[138.6957,-3.8482],[138.6804,-3.8432],[138.6582,-3.8426],[138.6096,-3.848],[138.6018,-3.8456],[138.6076,-3.7952],[138.6113,-3.7843],[138.6241,-3.7812],[138.6422,-3.781],[138.6797,-3.7856],[138.7137,-3.7877],[138.7377,-3.7971],[138.757,-3.8106],[138.7966,-3.8294],[138.8189,-3.8465],[138.8192,-3.8499],[138.8132,-3.8549],[138.812,-3.8593],[138.8009,-3.8611],[138.7937,-3.8656],[138.7994,-3.8751],[138.7818,-3.8842],[138.781,-3.8773],[138.779,-3.8756]]]}},{"type":"Feature","properties":{"name":"Hubikosi","name_en":"Hubikosi","admin_level":"6","osm_id":""},"geometry":{"type":"Polygon","coordinates":[[[138.8613,-4.1082],[138.845,-4.1183],[138.8156,-4.0811],[138.8101,-4.0631],[138.8258,-4.0594],[138.8397,-4.052],[138.8582,-4.0205],[138.89,-4.0139],[138.8936,-4.0193],[138.8981,-4.0158],[138.8992,-4.0223],[138.8946,-4.0221],[138.896,-4.0283],[138.8941,-4.0341],[138.8971,-4.0376],[138.9012,-4.0374],[138.9005,-4.0419],[138.9032,-4.0424],[138.9082,-4.0386],[138.9064,-4.0447],[138.909,-4.0427],[138.9118,-4.0434],[138.9223,-4.0526],[138.9301,-4.0493],[138.9335,-4.0543],[138.9153,-4.0627],[138.9223,-4.0716],[138.9179,-4.0727],[138.9062,-4.0817],[138.9037,-4.0753],[138.8986,-4.069],[138.8923,-4.0724],[138.8748,-4.095],[138.8613,-4.1082]]]}},{"type":"Feature","properties":{"name":"Kurulu","name_en":"Kurulu","admin_level":"6","osm_id":""},"geometry":{"type":"Polygon","coordinates":[[[139.0063,-4.0473],[138.9816,-4.062],[138.977,-4.0685],[138.9646,-4.0663],[138.9538,-4.059],[138.9485,-4.052],[138.9359,-4.0551],[138.9335,-4.0543],[138.9301,-4.0493],[138.9223,-4.0526],[138.9118,-4.0434],[138.909,-4.0427],[138.9064,-4.0447],[138.9082,-4.0386],[138.9032,-4.0424],[138.9005,-4.0419],[138.9012,-4.0374],[138.8971,-4.0376],[138.8941,-4.0341],[138.896,-4.0283],[138.8946,-4.0221],[138.8992,-4.0223],[138.899,-4.017],[138.8964,-4.0159],[138.8936,-4.0193],[138.89,-4.0139],[138.8946,-4.012],[138.896,-4.0075],[138.8979,-4.0106],[138.9019,-4.0103],[138.9017,-4.0084],[138.8981,-4.0074],[138.9029,-4.0057],[138.9,-4.0032],[138.9043,-3.9979],[138.9036,-3.9969],[138.8986,-4.0002],[138.8968,-3.999],[138.9002,-3.9915],[138.9053,-3.9928],[138.9062,-3.9915],[138.903,-3.9871],[138.8954,-3.9922],[138.8961,-3.9838],[138.8896,-3.9871],[138.8887,-3.9862],[138.8911,-3.9833],[138.8911,-3.9802],[138.8852,-3.9798],[138.8852,-3.9753],[138.8856,-3.9699],[138.8893,-3.9689],[138.8897,-3.965],[138.8816,-3.9578],[138.8777,-3.9596],[138.879,-3.9548],[138.8818,-3.9524],[138.8804,-3.9507],[138.878,-3.9508],[138.8765,-3.9486],[138.8693,-3.9523],[138.8669,-3.9492],[138.8748,-3.9432],[138.8746,-3.9384],[138.8723,-3.9379],[138.868,-3.9411],[138.8666,-3.9331],[138.8613,-3.9353],[138.8576,-3.9316],[138.8635,-3.9239],[138.8622,-3.919],[138.8607,-3.9192],[138.8615,-3.9218],[138.8512,-3.9212],[138.8517,-3.916],[138.8493,-3.9141],[138.8447,-3.9158],[138.8452,-3.9204],[138.8429,-3.9214],[138.8413,-3.9198],[138.8433,-3.916],[138.8431,-3.9125],[138.8414,-3.9129],[138.8399,-3.9168],[138.8312,-3.9171],[138.8315,-3.9141],[138.8354,-3.9133],[138.8361,-3.9114],[138.8342,-3.909],[138.8308,-3.9099],[138.8277,-3.9059],[138.8276,-3.9018],[138.8372,-3.8983],[138.8848,-3.8633],[138.8945,-3.8596],[138.919,-3.8998],[138.9429,-3.9036],[138.9639,-3.9119],[138.9778,-3.9225],[138.9801,-3.9406],[139.0049,-3.9944],[139.0251,-4.0434],[139.0063,-4.0473]]]}},{"type":"Feature","properties":{"name":"Musatfak","name_en":"Musatfak","admin_level":"6","osm_id":""},"geometry":{"type":"Polygon","coordinates":[[[138.8854,-3.9726],[138.8852,-3.9798],[138.8911,-3.9802],[138.8911,-3.9833],[138.8887,-3.9862],[138.8896,-3.9871],[138.8961,-3.9838],[138.8954,-3.9922],[138.903,-3.9871],[138.9062,-3.9915],[138.9053,-3.9928],[138.9002,-3.9915],[138.8968,-3.999],[138.8986,-4.0002],[138.9036,-3.9969],[138.9043,-3.9979],[138.9,-4.0032],[138.9029,-4.0057],[138.8981,-4.0074],[138.9017,-4.0084],[138.9019,-4.0103],[138.8979,-4.0106],[138.896,-4.0075],[138.8946,-4.012],[138.89,-4.0139],[138.8582,-4.0205],[138.8501,-4.0157],[138.8472,-4.0103],[138.824,-3.9577],[138.8669,-3.9492],[138.8693,-3.9523],[138.8765,-3.9486],[138.8818,-3.9524],[138.879,-3.9548],[138.8777,-3.9596],[138.8816,-3.9578],[138.8897,-3.965],[138.8893,-3.9689],[138.8856,-3.9699],[138.8854,-3.9726]]]}},{"type":"Feature","properties":{"name":"Pelebaga","name_en":"Pelebaga","admin_level":"6","osm_id":""},"geometry":{"type":"Polygon","coordinates":[[[138.8359,-4.1068],[138.845,-4.1183],[138.8089,-4.1368],[138.7748,-4.1566],[138.7263,-4.1733],[138.6804,-4.149],[138.64,-4.1382],[138.5995,-4.1409],[138.6042,-4.1195],[138.6147,-4.0963],[138.6337,-4.0774],[138.648,-4.0274],[138.7445,-4.0446],[138.7593,-4.046],[138.7834,-4.0446],[138.8212,-4.0453],[138.836,-4.0386],[138.8416,-4.0327],[138.8501,-4.0157],[138.8582,-4.0205],[138.8397,-4.052],[138.8258,-4.0594],[138.8101,-4.0631],[138.8156,-4.0811],[138.8359,-4.1068]]]}},{"type":"Feature","properties":{"name":"Walelagama","name_en":"Walelagama","admin_level":"6","osm_id":""},"geometry":{"type":"Polygon","coordinates":[[[139.026,-4.121],[139.016,-4.1155],[138.9913,-4.1131],[138.9709,-4.1074],[138.973,-4.0895],[138.9709,-4.0848],[138.977,-4.0685],[138.9816,-4.062],[139.0063,-4.0473],[139.1471,-4.0184],[139.2052,-4.0098],[139.2473,-4.0124],[139.2908,-4.048],[139.3489,-4.0889],[139.3624,-4.1139],[139.3511,-4.1187],[139.2826,-4.1324],[139.1135,-4.1747],[139.026,-4.121]]]}},{"type":"Feature","properties":{"name":"Wamena","name_en":"Wamena","admin_level":"6","osm_id":""},"geometry":{"type":"Polygon","coordinates":[[[138.6166,-4.4674],[138.6007,-4.4367],[138.5927,-4.4016],[138.5939,-4.3789],[138.6086,-4.3517],[138.61,-4.3287],[138.6286,-4.2878],[138.6603,-4.2444],[138.7047,-4.1928],[138.7263,-4.1733],[138.7748,-4.1566],[138.8089,-4.1368],[138.8396,-4.1217],[138.8651,-4.1058],[138.8923,-4.0724],[138.8986,-4.069],[138.9037,-4.0753],[138.9062,-4.0817],[138.9179,-4.0727],[138.9223,-4.0716],[138.9153,-4.0627],[138.9271,-4.0564],[138.9467,-4.0518],[138.9496,-4.0529],[138.9538,-4.059],[138.9646,-4.0663],[138.977,-4.0685],[138.9709,-4.0848],[138.973,-4.0895],[138.9709,-4.1074],[138.967,-4.1116],[138.9601,-4.1162],[138.9178,-4.1166],[138.9189,-4.1187],[138.9148,-4.1249],[138.9095,-4.1279],[138.906,-4.1413],[138.8998,-4.1445],[138.889,-4.1544],[138.8391,-4.2666],[138.7092,-4.3285],[138.7147,-4.4422],[138.7202,-4.4716],[138.6234,-4.4855],[138.6166,-4.4674]]]}},{"type":"Feature","properties":{"name":"Wollo","name_en":"Wollo","admin_level":"6","osm_id":""},"geometry":{"type":"Polygon","coordinates":[[[138.8276,-3.9018],[138.8145,-3.8902],[138.8137,-3.8747],[138.8112,-3.8687],[138.812,-3.8593],[138.8132,-3.8549],[138.8192,-3.8499],[138.8189,-3.8465],[138.7966,-3.8294],[138.7843,-3.8232],[138.8049,-3.7596],[138.8334,-3.7702],[138.8603,-3.7841],[138.8713,-3.7865],[138.8905,-3.7949],[138.9068,-3.7976],[138.9017,-3.8035],[138.8999,-3.8107],[138.8981,-3.8228],[138.8999,-3.8427],[138.8945,-3.8596],[138.8848,-3.8633],[138.8372,-3.8983],[138.8276,-3.9018]]]}},{"type":"Feature","properties":{"name":"Yalengga","name_en":"Yalengga","admin_level":"6","osm_id":""},"geometry":{"type":"Polygon","coordinates":[[[138.8237,-3.9017],[138.8014,-3.9011],[138.7988,-3.8977],[138.7968,-3.8984],[138.7955,-3.9029],[138.7895,-3.9029],[138.7879,-3.9009],[138.7826,-3.8939],[138.7818,-3.8842],[138.7994,-3.8751],[138.7937,-3.8656],[138.8009,-3.8611],[138.812,-3.8593],[138.8112,-3.8687],[138.8137,-3.8747],[138.8145,-3.8902],[138.8276,-3.9018],[138.8237,-3.9017]]]}}]}