{"type":"FeatureCollection","metadata":{"parent_osm_id":"8758189","parent_name":"Sigi","parent_name_1":"SulawesiTengah","parent_gid":"IDN.27.9_1","parent_level":"5","child_level":"6","count":15,"source":"GADM 4.1","generated":"2026-05-05"},"features":[{"type":"Feature","properties":{"name":"Dolo","name_en":"Dolo","admin_level":"6","osm_id":""},"geometry":{"type":"Polygon","coordinates":[[[119.8852,-1.0485],[119.8866,-1.0469],[119.8829,-1.0428],[119.8834,-1.0331],[119.8782,-1.0288],[119.8804,-1.0253],[119.8798,-1.0234],[119.8743,-1.024],[119.8734,-1.0221],[119.8759,-1.0192],[119.8729,-1.0174],[119.8668,-1.0181],[119.87,-1.0057],[119.8658,-1.0023],[119.8692,-1.0008],[119.8714,-0.9956],[119.868,-0.9938],[119.8675,-0.9853],[119.8741,-0.983],[119.8706,-0.976],[119.8707,-0.9718],[119.8725,-0.9713],[119.8708,-0.9677],[119.8907,-0.969],[119.8945,-0.9717],[119.8937,-0.9758],[119.9033,-0.9753],[119.9033,-0.9838],[119.9145,-0.9884],[119.9145,-0.9975],[119.9178,-1.0018],[119.9166,-1.0037],[119.9193,-1.0104],[119.9199,-1.0287],[119.9152,-1.0288],[119.9121,-1.0328],[119.9051,-1.0322],[119.9042,-1.0429],[119.8979,-1.0439],[119.8999,-1.0472],[119.898,-1.0481],[119.9031,-1.0572],[119.8954,-1.0627],[119.8941,-1.0602],[119.891,-1.0622],[119.8861,-1.0625],[119.8857,-1.0608],[119.8892,-1.0559],[119.8846,-1.0501],[119.8852,-1.0485]]]}},{"type":"Feature","properties":{"name":"DoloBarat","name_en":"DoloBarat","admin_level":"6","osm_id":""},"geometry":{"type":"Polygon","coordinates":[[[119.8016,-1.0972],[119.8042,-1.0886],[119.8005,-1.0878],[119.7965,-1.084],[119.7959,-1.079],[119.7907,-1.0771],[119.7847,-1.0675],[119.784,-1.0573],[119.781,-1.0458],[119.7741,-1.0359],[119.7752,-1.0335],[119.805,-1.0329],[119.8511,-1.0346],[119.8537,-1.014],[119.8676,-1.0137],[119.8669,-1.0186],[119.8714,-1.0169],[119.8759,-1.0192],[119.8737,-1.0232],[119.875,-1.0244],[119.8789,-1.023],[119.8803,-1.0242],[119.8782,-1.0288],[119.8834,-1.0331],[119.8829,-1.0428],[119.8866,-1.0469],[119.8843,-1.0494],[119.8892,-1.0559],[119.8855,-1.062],[119.8898,-1.0616],[119.8912,-1.063],[119.8914,-1.067],[119.8878,-1.067],[119.8865,-1.0695],[119.8947,-1.0701],[119.8945,-1.0723],[119.8901,-1.0742],[119.8869,-1.0846],[119.8893,-1.0969],[119.8877,-1.102],[119.8933,-1.1125],[119.8866,-1.1133],[119.8804,-1.1102],[119.8801,-1.104],[119.8722,-1.1047],[119.8729,-1.0981],[119.8585,-1.0976],[119.8514,-1.0986],[119.8414,-1.1035],[119.7986,-1.1076],[119.799,-1.1017],[119.8016,-1.0972]]]}},{"type":"Feature","properties":{"name":"DoloSelatan","name_en":"DoloSelatan","admin_level":"6","osm_id":""},"geometry":{"type":"Polygon","coordinates":[[[119.7329,-1.3691],[119.7286,-1.3591],[119.728,-1.3475],[119.731,-1.3433],[119.7344,-1.3334],[119.7435,-1.3224],[119.7439,-1.3105],[119.7505,-1.2907],[119.7507,-1.2854],[119.7482,-1.2754],[119.7441,-1.2678],[119.7431,-1.2609],[119.7512,-1.241],[119.7557,-1.2377],[119.7676,-1.2331],[119.7694,-1.2268],[119.7665,-1.2194],[119.7747,-1.2097],[119.7696,-1.1978],[119.7774,-1.1937],[119.7797,-1.1895],[119.787,-1.1854],[119.7868,-1.1724],[119.7907,-1.1721],[119.7912,-1.1705],[119.7894,-1.1644],[119.7936,-1.1559],[119.7936,-1.1512],[119.8052,-1.1427],[119.8061,-1.1345],[119.8048,-1.1328],[119.8009,-1.1333],[119.7959,-1.1309],[119.7959,-1.1207],[119.7986,-1.1076],[119.8414,-1.1035],[119.8514,-1.0986],[119.8682,-1.0978],[119.8729,-1.0981],[119.8722,-1.1047],[119.8801,-1.104],[119.8804,-1.1102],[119.8866,-1.1133],[119.9026,-1.1104],[119.903,-1.1144],[119.8997,-1.1176],[119.9053,-1.1223],[119.9028,-1.1258],[119.9045,-1.1324],[119.9005,-1.1374],[119.9009,-1.1404],[119.897,-1.1482],[119.9016,-1.1523],[119.9044,-1.1601],[119.9072,-1.1618],[119.9082,-1.1657],[119.9124,-1.1707],[119.9108,-1.1796],[119.9153,-1.1778],[119.9172,-1.18],[119.9204,-1.1794],[119.9209,-1.1823],[119.924,-1.1825],[119.922,-1.1867],[119.9342,-1.2],[119.9338,-1.2227],[119.9354,-1.2333],[119.9446,-1.2597],[119.9442,-1.2664],[119.9393,-1.276],[119.9412,-1.2889],[119.9377,-1.3152],[119.9376,-1.3374],[119.9399,-1.3552],[119.9383,-1.363],[119.9247,-1.372],[119.9172,-1.3726],[119.9123,-1.3771],[119.9102,-1.3741],[119.9016,-1.3701],[119.8911,-1.3695],[119.8723,-1.3792],[119.8629,-1.3806],[119.819,-1.4016],[119.8029,-1.4046],[119.7965,-1.4007],[119.7936,-1.4008],[119.7879,-1.4057],[119.7784,-1.4075],[119.7753,-1.4142],[119.7636,-1.4235],[119.7545,-1.404],[119.7474,-1.3839],[119.7382,-1.3769],[119.7329,-1.3691]]]}},{"type":"Feature","properties":{"name":"Gumbasa","name_en":"Gumbasa","admin_level":"6","osm_id":""},"geometry":{"type":"Polygon","coordinates":[[[119.9398,-1.3535],[119.9376,-1.3374],[119.9377,-1.3152],[119.9412,-1.2889],[119.9393,-1.276],[119.9442,-1.2664],[119.9446,-1.2597],[119.9354,-1.2333],[119.9338,-1.2227],[119.9342,-1.2],[119.922,-1.1867],[119.9273,-1.18],[119.9265,-1.1723],[119.9276,-1.1704],[119.9298,-1.1683],[119.9378,-1.1685],[119.9374,-1.1642],[119.9418,-1.1606],[119.9498,-1.1578],[119.9541,-1.1581],[119.9635,-1.1541],[119.986,-1.1544],[119.9889,-1.1604],[119.9964,-1.1698],[120.005,-1.178],[120.0113,-1.204],[120.0146,-1.2098],[120.0203,-1.2137],[120.0228,-1.2186],[120.0244,-1.2238],[120.0238,-1.2295],[120.0205,-1.2332],[120.0155,-1.2345],[120.0155,-1.2381],[120.0233,-1.241],[120.0307,-1.2403],[120.0354,-1.2382],[120.0461,-1.2419],[120.0563,-1.236],[120.0595,-1.2372],[120.0675,-1.2481],[120.0631,-1.2569],[120.0529,-1.2683],[120.0488,-1.2709],[120.0368,-1.2684],[120.0268,-1.2788],[120.0238,-1.29],[120.0145,-1.308],[120.0167,-1.327],[120.0116,-1.3401],[120.0033,-1.3384],[119.9982,-1.344],[119.9893,-1.3477],[119.9654,-1.3478],[119.9459,-1.3606],[119.9383,-1.363],[119.9398,-1.3535]]]}},{"type":"Feature","properties":{"name":"Kinovaro","name_en":"Kinovaro","admin_level":"6","osm_id":""},"geometry":{"type":"Polygon","coordinates":[[[119.8203,-1.0156],[119.8104,-1.0081],[119.8099,-1.0098],[119.8074,-1.0104],[119.7853,-1.014],[119.7775,-1.0121],[119.7764,-1.0069],[119.7791,-0.9947],[119.7873,-0.9873],[119.7896,-0.9812],[119.7936,-0.9799],[119.8001,-0.9697],[119.822,-0.9618],[119.8265,-0.9562],[119.8241,-0.9412],[119.8205,-0.9403],[119.8158,-0.935],[119.7994,-0.9338],[119.796,-0.9358],[119.8038,-0.9016],[119.7998,-0.9035],[119.7957,-0.9024],[119.7846,-0.9041],[119.7824,-0.9033],[119.781,-0.8992],[119.7835,-0.8872],[119.7933,-0.8742],[119.8005,-0.8691],[119.806,-0.8681],[119.8117,-0.8678],[119.8171,-0.8732],[119.8223,-0.8741],[119.8247,-0.8817],[119.8272,-0.9046],[119.8325,-0.9048],[119.8327,-0.9098],[119.8278,-0.9111],[119.8307,-0.9418],[119.8477,-0.9359],[119.8475,-0.9417],[119.8425,-0.9457],[119.8444,-0.9487],[119.844,-0.9614],[119.838,-0.9623],[119.8378,-0.9703],[119.8314,-0.9787],[119.8363,-0.9858],[119.8356,-0.9912],[119.8276,-0.9977],[119.8244,-1.0149],[119.8203,-1.0156]]]}},{"type":"Feature","properties":{"name":"Kulawi","name_en":"Kulawi","admin_level":"6","osm_id":""},"geometry":{"type":"Polygon","coordinates":[[[119.7271,-1.6413],[119.7262,-1.635],[119.7288,-1.627],[119.7271,-1.6223],[119.7334,-1.6178],[119.7357,-1.6139],[119.7334,-1.605],[119.7153,-1.5922],[119.7097,-1.5824],[119.71,-1.5768],[119.7033,-1.5727],[119.7013,-1.5661],[119.692,-1.5648],[119.6897,-1.5629],[119.6889,-1.558],[119.6857,-1.5539],[119.6727,-1.5464],[119.671,-1.5431],[119.6735,-1.5356],[119.6668,-1.5316],[119.6664,-1.5256],[119.6687,-1.5211],[119.6693,-1.5142],[119.6805,-1.4945],[119.6801,-1.4903],[119.6848,-1.4853],[119.6866,-1.4774],[119.6934,-1.4727],[119.6926,-1.467],[119.7005,-1.4587],[119.697,-1.4525],[119.71,-1.434],[119.7182,-1.4322],[119.7279,-1.4203],[119.7405,-1.429],[119.7511,-1.4284],[119.7539,-1.4258],[119.765,-1.4229],[119.776,-1.4135],[119.7784,-1.4075],[119.7879,-1.4057],[119.7936,-1.4008],[119.7965,-1.4007],[119.8001,-1.4038],[119.8039,-1.4046],[119.8227,-1.4005],[119.862,-1.381],[119.8723,-1.3792],[119.892,-1.3693],[119.9016,-1.3701],[119.9133,-1.3768],[119.9172,-1.3726],[119.9256,-1.3716],[119.9339,-1.3649],[119.9459,-1.3606],[119.9654,-1.3478],[119.9903,-1.3475],[119.9982,-1.344],[120.0024,-1.3388],[120.0062,-1.3384],[120.0116,-1.3401],[120.0151,-1.3558],[120.0128,-1.362],[120.0073,-1.3684],[120.0062,-1.374],[120.0133,-1.3788],[120.0183,-1.3849],[120.0212,-1.3941],[120.0215,-1.4057],[120.025,-1.4136],[120.0615,-1.4385],[120.0931,-1.4505],[120.0993,-1.4549],[120.1111,-1.4828],[120.1306,-1.5024],[120.1272,-1.5043],[120.1203,-1.516],[120.113,-1.5178],[120.1107,-1.5199],[120.1094,-1.5239],[120.1104,-1.5296],[120.1067,-1.5355],[120.1061,-1.543],[120.0987,-1.5577],[120.0852,-1.5654],[120.0795,-1.5666],[120.0739,-1.5656],[120.0638,-1.5569],[120.0592,-1.5556],[120.046,-1.5584],[120.0363,-1.5625],[120.0377,-1.5719],[120.0195,-1.5705],[120.0015,-1.5668],[119.9827,-1.588],[119.9686,-1.5962],[119.9336,-1.6021],[119.9292,-1.6072],[119.9271,-1.6179],[119.9183,-1.6215],[119.9088,-1.6226],[119.9035,-1.6203],[119.8978,-1.6152],[119.8875,-1.6237],[119.8816,-1.6345],[119.8734,-1.6411],[119.8664,-1.6526],[119.8632,-1.6508],[119.863,-1.643],[119.8605,-1.6402],[119.847,-1.6396],[119.8321,-1.633],[119.8264,-1.6322],[119.8228,-1.6435],[119.8287,-1.6598],[119.8291,-1.6771],[119.8253,-1.6911],[119.8178,-1.7045],[119.8163,-1.7141],[119.8047,-1.7226],[119.8094,-1.7376],[119.809,-1.7413],[119.8045,-1.7437],[119.8,-1.7415],[119.7955,-1.7359],[119.7925,-1.7303],[119.7943,-1.7246],[119.792,-1.7211],[119.7788,-1.7123],[119.7765,-1.7091],[119.7765,-1.7045],[119.7794,-1.7003],[119.7789,-1.69],[119.7643,-1.6786],[119.7594,-1.6685],[119.7598,-1.6593],[119.7513,-1.6531],[119.7505,-1.6434],[119.7362,-1.6434],[119.7299,-1.645],[119.7271,-1.6413]]]}},{"type":"Feature","properties":{"name":"KulawiSelatan","name_en":"KulawiSelatan","admin_level":"6","osm_id":""},"geometry":{"type":"Polygon","coordinates":[[[120.1534,-1.7911],[120.1214,-1.7988],[120.1115,-1.7974],[120.1073,-1.8041],[120.1094,-1.8146],[120.098,-1.8055],[120.0969,-1.7997],[120.0986,-1.7953],[120.0984,-1.7866],[120.0934,-1.7762],[120.0867,-1.768],[120.0863,-1.7595],[120.0818,-1.7519],[120.0769,-1.7572],[120.0741,-1.7571],[120.0498,-1.7512],[120.0383,-1.752],[120.0255,-1.7469],[119.9904,-1.7396],[119.9928,-1.7305],[120.0111,-1.722],[120.0232,-1.7126],[120.0318,-1.7022],[120.0371,-1.6897],[120.0242,-1.6822],[120.0169,-1.672],[120.0171,-1.665],[120.0146,-1.6604],[120.0023,-1.6532],[119.9967,-1.6527],[119.9914,-1.6548],[119.9743,-1.6688],[119.962,-1.6695],[119.9552,-1.6763],[119.9418,-1.6754],[119.9375,-1.6769],[119.9313,-1.663],[119.9242,-1.6594],[119.9265,-1.6509],[119.9348,-1.6467],[119.9278,-1.6337],[119.9296,-1.6262],[119.9269,-1.6166],[119.9307,-1.6048],[119.9354,-1.6015],[119.9695,-1.5957],[119.9827,-1.588],[120.0015,-1.5668],[120.0195,-1.5705],[120.0377,-1.5719],[120.0363,-1.5625],[120.046,-1.5584],[120.0592,-1.5556],[120.0638,-1.5569],[120.0721,-1.5648],[120.0786,-1.5666],[120.0852,-1.5654],[120.1012,-1.5567],[120.1039,-1.5618],[120.1081,-1.5638],[120.1134,-1.5622],[120.1189,-1.5639],[120.1231,-1.5589],[120.1288,-1.5581],[120.1308,-1.5562],[120.1378,-1.559],[120.1439,-1.5739],[120.1423,-1.5942],[120.1403,-1.5993],[120.1408,-1.6041],[120.1446,-1.6083],[120.146,-1.617],[120.1425,-1.6237],[120.1369,-1.629],[120.1377,-1.6413],[120.1359,-1.6508],[120.1438,-1.6577],[120.1454,-1.6691],[120.1514,-1.6822],[120.1484,-1.6986],[120.1559,-1.7142],[120.1563,-1.7186],[120.1513,-1.7215],[120.1556,-1.7279],[120.1605,-1.7308],[120.1699,-1.7415],[120.1707,-1.7446],[120.1671,-1.7564],[120.1702,-1.7676],[120.177,-1.777],[120.1776,-1.7801],[120.1769,-1.7827],[120.173,-1.785],[120.1534,-1.7911]]]}},{"type":"Feature","properties":{"name":"Lindu","name_en":"Lindu","admin_level":"6","osm_id":""},"geometry":{"type":"Polygon","coordinates":[[[120.1622,-1.4685],[120.1596,-1.4725],[120.1511,-1.479],[120.1438,-1.4927],[120.1371,-1.4958],[120.1364,-1.5039],[120.1304,-1.5023],[120.1111,-1.4828],[120.0993,-1.4549],[120.0931,-1.4505],[120.0615,-1.4385],[120.0257,-1.4143],[120.0215,-1.4057],[120.0212,-1.3941],[120.0183,-1.3849],[120.0133,-1.3788],[120.0062,-1.374],[120.0073,-1.3684],[120.0149,-1.3581],[120.0116,-1.3401],[120.0167,-1.327],[120.0145,-1.308],[120.0238,-1.29],[120.0274,-1.2781],[120.0376,-1.2681],[120.0488,-1.2709],[120.0529,-1.2683],[120.0631,-1.2569],[120.0675,-1.2481],[120.0724,-1.2478],[120.0747,-1.244],[120.0862,-1.2444],[120.1081,-1.237],[120.1159,-1.2394],[120.1218,-1.2321],[120.1291,-1.2274],[120.1356,-1.2309],[120.1404,-1.2307],[120.1466,-1.233],[120.1503,-1.2392],[120.1563,-1.2446],[120.1625,-1.245],[120.1792,-1.2624],[120.1804,-1.2698],[120.189,-1.277],[120.1961,-1.2798],[120.2053,-1.2867],[120.2156,-1.2888],[120.2303,-1.2995],[120.2403,-1.311],[120.2574,-1.3219],[120.2607,-1.3356],[120.2652,-1.3392],[120.2715,-1.3414],[120.2764,-1.3461],[120.2808,-1.3557],[120.2881,-1.3655],[120.2864,-1.37],[120.288,-1.3786],[120.282,-1.3844],[120.2652,-1.3858],[120.2735,-1.3894],[120.2759,-1.3964],[120.2791,-1.3984],[120.2794,-1.4022],[120.277,-1.4078],[120.2671,-1.4159],[120.2604,-1.4158],[120.2538,-1.4118],[120.2501,-1.4129],[120.2441,-1.4239],[120.2419,-1.4355],[120.2267,-1.446],[120.2217,-1.4559],[120.2192,-1.4562],[120.2142,-1.4532],[120.203,-1.4553],[120.1955,-1.4502],[120.1871,-1.4516],[120.1804,-1.4482],[120.1793,-1.4516],[120.1748,-1.4565],[120.17,-1.4577],[120.1661,-1.4611],[120.1622,-1.4685]]]}},{"type":"Feature","properties":{"name":"Marawola","name_en":"Marawola","admin_level":"6","osm_id":""},"geometry":{"type":"Polygon","coordinates":[[[119.8496,-1.0128],[119.8351,-1.0155],[119.8244,-1.0149],[119.8276,-0.9977],[119.8356,-0.9912],[119.8363,-0.9858],[119.8314,-0.9787],[119.8378,-0.9703],[119.838,-0.9623],[119.844,-0.9614],[119.8444,-0.9487],[119.8425,-0.9457],[119.8475,-0.9417],[119.8477,-0.9359],[119.8621,-0.9331],[119.8622,-0.9253],[119.8759,-0.9226],[119.8806,-0.9266],[119.8815,-0.9319],[119.8788,-0.9326],[119.8811,-0.9425],[119.8778,-0.9551],[119.8776,-0.9639],[119.8707,-0.9649],[119.8725,-0.9713],[119.8707,-0.9718],[119.8706,-0.976],[119.8741,-0.983],[119.8675,-0.9853],[119.868,-0.9938],[119.8714,-0.9956],[119.8692,-1.0008],[119.8658,-1.0023],[119.87,-1.0057],[119.8684,-1.0134],[119.8496,-1.0128]]]}},{"type":"Feature","properties":{"name":"MarawolaBarat","name_en":"MarawolaBarat","admin_level":"6","osm_id":""},"geometry":{"type":"Polygon","coordinates":[[[119.7636,-1.0284],[119.7603,-1.0247],[119.7603,-1.0192],[119.7578,-1.0132],[119.7504,-1.0073],[119.737,-1.0095],[119.7301,-1.0171],[119.7248,-1.0112],[119.7225,-1.0061],[119.7195,-1.005],[119.7121,-1.012],[119.7124,-1.0181],[119.704,-1.0197],[119.6809,-1.0133],[119.6747,-1.0082],[119.6707,-0.997],[119.6652,-0.9947],[119.6605,-0.9884],[119.6546,-0.989],[119.6497,-0.9936],[119.6506,-0.9799],[119.6479,-0.9695],[119.6508,-0.9566],[119.653,-0.9563],[119.6543,-0.9512],[119.6609,-0.9511],[119.6725,-0.9409],[119.6894,-0.9383],[119.695,-0.9392],[119.7054,-0.9354],[119.7238,-0.9082],[119.731,-0.9005],[119.7396,-0.9145],[119.7456,-0.919],[119.7516,-0.9099],[119.7572,-0.9078],[119.7653,-0.9089],[119.7692,-0.9069],[119.7733,-0.9073],[119.7913,-0.9026],[119.7998,-0.9035],[119.8038,-0.9016],[119.796,-0.9358],[119.7994,-0.9338],[119.8158,-0.935],[119.8205,-0.9403],[119.8241,-0.9412],[119.8265,-0.9562],[119.822,-0.9618],[119.8001,-0.9697],[119.7936,-0.9799],[119.7896,-0.9812],[119.7873,-0.9873],[119.7791,-0.9947],[119.7785,-1.0009],[119.7767,-1.0026],[119.7775,-1.0121],[119.7853,-1.014],[119.776,-1.0301],[119.7722,-1.0338],[119.7741,-1.0359],[119.7636,-1.0284]]]}},{"type":"Feature","properties":{"name":"Nokilalaki","name_en":"Nokilalaki","admin_level":"6","osm_id":""},"geometry":{"type":"Polygon","coordinates":[[[120.1498,-1.2376],[120.1458,-1.2324],[120.1356,-1.2309],[120.1291,-1.2274],[120.1218,-1.2321],[120.1159,-1.2394],[120.1071,-1.2371],[120.0862,-1.2444],[120.0747,-1.244],[120.0724,-1.2478],[120.0675,-1.2481],[120.0617,-1.2396],[120.0628,-1.2331],[120.0608,-1.2275],[120.0614,-1.2238],[120.0701,-1.2053],[120.0792,-1.197],[120.0786,-1.1873],[120.0816,-1.177],[120.0861,-1.1692],[120.085,-1.1642],[120.086,-1.1601],[120.0888,-1.1606],[120.0907,-1.1575],[120.0904,-1.1593],[120.0934,-1.16],[120.0938,-1.1574],[120.0956,-1.1568],[120.094,-1.1542],[120.1,-1.1558],[120.1049,-1.1542],[120.1054,-1.1569],[120.1127,-1.1567],[120.1149,-1.1582],[120.1158,-1.1568],[120.1228,-1.1616],[120.1288,-1.1619],[120.1299,-1.165],[120.1324,-1.1633],[120.1384,-1.1671],[120.1452,-1.1815],[120.1485,-1.1818],[120.154,-1.1864],[120.1539,-1.1995],[120.1563,-1.2008],[120.1578,-1.2042],[120.1576,-1.2248],[120.1503,-1.2392],[120.1498,-1.2376]]]}},{"type":"Feature","properties":{"name":"Palolo","name_en":"Palolo","admin_level":"6","osm_id":""},"geometry":{"type":"Polygon","coordinates":[[[120.2225,-1.2338],[120.2198,-1.2435],[120.2249,-1.2511],[120.2163,-1.2545],[120.209,-1.2636],[120.1932,-1.2694],[120.1872,-1.2732],[120.1819,-1.2711],[120.1794,-1.2682],[120.1792,-1.2624],[120.1625,-1.245],[120.1563,-1.2446],[120.1503,-1.2392],[120.1576,-1.2248],[120.1578,-1.2042],[120.1563,-1.2008],[120.1539,-1.1995],[120.154,-1.1864],[120.1485,-1.1818],[120.1452,-1.1815],[120.1384,-1.1671],[120.1324,-1.1633],[120.1299,-1.165],[120.1288,-1.1619],[120.1228,-1.1616],[120.1158,-1.1568],[120.1149,-1.1582],[120.1113,-1.1565],[120.109,-1.1577],[120.1075,-1.1563],[120.1054,-1.1569],[120.1049,-1.1542],[120.1,-1.1558],[120.0953,-1.1539],[120.094,-1.1542],[120.0956,-1.1568],[120.0938,-1.1574],[120.0934,-1.16],[120.0904,-1.1593],[120.0907,-1.1575],[120.0888,-1.1606],[120.086,-1.1601],[120.085,-1.1642],[120.0861,-1.1692],[120.0816,-1.177],[120.0786,-1.1873],[120.0792,-1.197],[120.0701,-1.2053],[120.0614,-1.2238],[120.0608,-1.2275],[120.0628,-1.2331],[120.0617,-1.2396],[120.0563,-1.236],[120.0461,-1.2419],[120.0354,-1.2382],[120.0307,-1.2403],[120.0233,-1.241],[120.0148,-1.2372],[120.0155,-1.2345],[120.0205,-1.2332],[120.0238,-1.2295],[120.0244,-1.2238],[120.0228,-1.2186],[120.0203,-1.2137],[120.0146,-1.2098],[120.0113,-1.204],[120.005,-1.178],[119.9964,-1.1698],[119.9889,-1.1604],[119.986,-1.1544],[119.9929,-1.1417],[119.9849,-1.1329],[119.9809,-1.1181],[119.9752,-1.1107],[119.9727,-1.0985],[119.9593,-1.083],[119.9635,-1.0741],[119.974,-1.0674],[119.9814,-1.0599],[119.9909,-1.0543],[119.9983,-1.0542],[120.0091,-1.0456],[120.0167,-1.0441],[120.019,-1.0422],[120.0256,-1.0331],[120.0308,-1.0195],[120.036,-0.9965],[120.0395,-0.9904],[120.0423,-0.9888],[120.054,-0.9679],[120.0584,-0.9674],[120.0662,-0.9699],[120.0691,-0.9747],[120.0733,-0.9773],[120.0744,-0.9851],[120.0784,-0.9877],[120.0788,-0.9903],[120.0761,-0.9975],[120.0777,-0.9996],[120.0736,-1.0083],[120.0803,-1.011],[120.0762,-1.0173],[120.0808,-1.0158],[120.0941,-1.0196],[120.0988,-1.0271],[120.1057,-1.0176],[120.1128,-1.0161],[120.1153,-1.0228],[120.1182,-1.0231],[120.1194,-1.0322],[120.1252,-1.0379],[120.1256,-1.0411],[120.1289,-1.0444],[120.1473,-1.0428],[120.1514,-1.045],[120.1513,-1.0493],[120.1588,-1.0538],[120.1603,-1.0499],[120.1663,-1.0477],[120.1838,-1.0639],[120.1922,-1.0646],[120.1953,-1.0634],[120.1984,-1.0546],[120.201,-1.056],[120.2027,-1.0543],[120.2098,-1.0618],[120.2189,-1.0654],[120.2186,-1.0731],[120.2266,-1.0814],[120.2307,-1.0921],[120.2245,-1.1046],[120.2272,-1.1119],[120.2249,-1.1171],[120.2283,-1.1256],[120.2326,-1.1298],[120.2394,-1.1332],[120.2478,-1.1324],[120.2561,-1.1353],[120.2672,-1.1518],[120.272,-1.1513],[120.2779,-1.1431],[120.2831,-1.1421],[120.2849,-1.1376],[120.2931,-1.133],[120.3062,-1.1356],[120.3124,-1.1343],[120.3269,-1.137],[120.3357,-1.1465],[120.3375,-1.1531],[120.34,-1.1551],[120.3422,-1.1539],[120.3462,-1.1461],[120.349,-1.1445],[120.3573,-1.1465],[120.3535,-1.1552],[120.3487,-1.1593],[120.3433,-1.168],[120.3408,-1.1784],[120.3421,-1.1869],[120.3332,-1.189],[120.3282,-1.1868],[120.3236,-1.1939],[120.3133,-1.1901],[120.2898,-1.2017],[120.284,-1.2115],[120.2787,-1.2166],[120.2726,-1.2305],[120.2703,-1.2316],[120.26,-1.2302],[120.2483,-1.2308],[120.232,-1.2245],[120.2225,-1.2338]]]}},{"type":"Feature","properties":{"name":"Pipikoro","name_en":"Pipikoro","admin_level":"6","osm_id":""},"geometry":{"type":"Polygon","coordinates":[[[119.8694,-1.9429],[119.8707,-1.9378],[119.8633,-1.935],[119.8605,-1.928],[119.8631,-1.92],[119.8605,-1.9158],[119.8657,-1.9118],[119.8691,-1.8904],[119.8658,-1.8813],[119.8593,-1.8803],[119.8569,-1.8765],[119.8736,-1.8652],[119.8754,-1.8624],[119.8672,-1.8499],[119.8689,-1.8423],[119.8624,-1.8362],[119.8579,-1.8221],[119.8627,-1.8165],[119.859,-1.8088],[119.8606,-1.8008],[119.8651,-1.7949],[119.8655,-1.7887],[119.8704,-1.7828],[119.8714,-1.7786],[119.8661,-1.7709],[119.8614,-1.7724],[119.8548,-1.7699],[119.8438,-1.7755],[119.8357,-1.7698],[119.8269,-1.7674],[119.8224,-1.763],[119.8201,-1.7581],[119.8146,-1.755],[119.8146,-1.7493],[119.809,-1.7413],[119.8072,-1.7275],[119.8047,-1.7226],[119.8163,-1.7141],[119.8181,-1.7036],[119.8249,-1.692],[119.8285,-1.6799],[119.8297,-1.6713],[119.8289,-1.6607],[119.8228,-1.6435],[119.8264,-1.6322],[119.8321,-1.633],[119.847,-1.6396],[119.8605,-1.6402],[119.863,-1.643],[119.8632,-1.6508],[119.8664,-1.6526],[119.8734,-1.6411],[119.8816,-1.6345],[119.8875,-1.6237],[119.8978,-1.6152],[119.9035,-1.6203],[119.9088,-1.6226],[119.9183,-1.6215],[119.9271,-1.6179],[119.9296,-1.6262],[119.9278,-1.6337],[119.9348,-1.6467],[119.9265,-1.6509],[119.9242,-1.6594],[119.9313,-1.663],[119.9375,-1.6769],[119.9418,-1.6754],[119.9543,-1.6766],[119.962,-1.6695],[119.9735,-1.6693],[119.9872,-1.6573],[119.9967,-1.6527],[120.0059,-1.6544],[120.0146,-1.6604],[120.0171,-1.665],[120.0165,-1.6711],[120.0196,-1.6771],[120.0249,-1.6828],[120.0303,-1.6849],[120.0371,-1.6908],[120.0318,-1.7022],[120.0226,-1.7133],[120.0111,-1.722],[119.9928,-1.7305],[119.9904,-1.7396],[120.0255,-1.7469],[120.0383,-1.752],[120.0498,-1.7512],[120.0741,-1.7571],[120.0769,-1.7572],[120.0818,-1.7519],[120.0863,-1.7595],[120.0867,-1.768],[120.0934,-1.7762],[120.0984,-1.7866],[120.0986,-1.7953],[120.0969,-1.7997],[120.098,-1.8055],[120.1094,-1.8146],[120.1006,-1.8236],[120.1103,-1.8339],[120.1144,-1.8316],[120.116,-1.8356],[120.1208,-1.837],[120.1192,-1.844],[120.1237,-1.8458],[120.1271,-1.8505],[120.1265,-1.855],[120.1328,-1.8585],[120.1331,-1.8609],[120.1312,-1.8618],[120.1356,-1.8645],[120.1356,-1.8714],[120.138,-1.8727],[120.1448,-1.8862],[120.1319,-1.8957],[120.1245,-1.9056],[120.1207,-1.9042],[120.112,-1.8959],[120.1054,-1.897],[120.103,-1.8994],[120.1032,-1.9166],[120.0976,-1.9349],[120.1014,-1.9425],[120.1001,-1.9511],[120.1009,-1.9588],[120.1065,-1.965],[120.099,-1.9857],[120.0853,-1.9797],[120.0613,-1.9809],[120.0535,-1.9822],[120.0509,-1.9848],[120.0408,-1.9805],[120.0339,-1.9726],[120.0216,-1.9677],[120.0157,-1.97],[120.01,-1.9644],[119.9913,-1.966],[119.9838,-1.9736],[119.972,-1.975],[119.9684,-1.9773],[119.9645,-1.9896],[119.9638,-2.0003],[119.9555,-2.0038],[119.9523,-2.0094],[119.9445,-2.0155],[119.9452,-2.0202],[119.9438,-2.0224],[119.9452,-2.0273],[119.944,-2.0293],[119.9393,-2.0308],[119.9366,-2.0352],[119.9304,-2.0375],[119.9244,-2.0339],[119.9207,-2.0337],[119.9091,-2.0534],[119.901,-2.0554],[119.8968,-2.054],[119.8938,-2.0489],[119.8911,-2.0497],[119.8839,-2.0462],[119.8793,-2.038],[119.8716,-2.0345],[119.8684,-2.0284],[119.8734,-2.0211],[119.8661,-2.0114],[119.8704,-1.9998],[119.8676,-1.9844],[119.8677,-1.9678],[119.8638,-1.9612],[119.8676,-1.9528],[119.8656,-1.9497],[119.8694,-1.9429]]]}},{"type":"Feature","properties":{"name":"SigiBiromaru","name_en":"SigiBiromaru","admin_level":"6","osm_id":""},"geometry":{"type":"Polygon","coordinates":[[[119.9003,-1.1104],[119.8933,-1.1125],[119.8877,-1.102],[119.8893,-1.0969],[119.8869,-1.0868],[119.8876,-1.0808],[119.8901,-1.0742],[119.8948,-1.0715],[119.8935,-1.0695],[119.8884,-1.0701],[119.8863,-1.0688],[119.8878,-1.067],[119.8914,-1.067],[119.8907,-1.0621],[119.8932,-1.0603],[119.8948,-1.0604],[119.8954,-1.0627],[119.9031,-1.0572],[119.898,-1.0481],[119.8999,-1.0472],[119.8979,-1.0439],[119.9042,-1.0429],[119.9051,-1.0322],[119.9121,-1.0328],[119.9152,-1.0288],[119.9199,-1.0287],[119.9193,-1.0104],[119.9166,-1.0037],[119.9178,-1.0018],[119.916,-1.0007],[119.9172,-0.9997],[119.9145,-0.9975],[119.9145,-0.9884],[119.9033,-0.9838],[119.9033,-0.9753],[119.8937,-0.9758],[119.8945,-0.9717],[119.8907,-0.969],[119.885,-0.9695],[119.8831,-0.968],[119.8721,-0.9678],[119.8712,-0.9665],[119.8713,-0.9643],[119.8776,-0.9639],[119.8778,-0.9551],[119.8811,-0.9425],[119.8788,-0.9326],[119.8859,-0.932],[119.905,-0.9429],[119.9333,-0.9444],[119.9372,-0.9409],[119.9293,-0.9208],[119.948,-0.9131],[119.9548,-0.9144],[119.9583,-0.917],[119.964,-0.9129],[119.9765,-0.9132],[119.9959,-0.9042],[120.0034,-0.9026],[120.0057,-0.8996],[120.0098,-0.8983],[120.0094,-0.8953],[120.0182,-0.8957],[120.0169,-0.893],[120.0174,-0.8885],[120.0234,-0.8829],[120.0314,-0.8927],[120.0361,-0.8928],[120.0469,-0.8973],[120.0511,-0.9018],[120.0653,-0.9097],[120.0665,-0.9121],[120.0697,-0.9105],[120.0721,-0.9148],[120.0681,-0.9199],[120.0697,-0.923],[120.068,-0.9322],[120.0691,-0.9387],[120.0666,-0.943],[120.0653,-0.954],[120.0586,-0.9632],[120.0573,-0.9675],[120.0529,-0.969],[120.053,-0.9718],[120.036,-0.9965],[120.0308,-1.0195],[120.0256,-1.0331],[120.0167,-1.0441],[120.0106,-1.0449],[119.9983,-1.0542],[119.9909,-1.0543],[119.9814,-1.0599],[119.974,-1.0674],[119.9635,-1.0741],[119.9605,-1.0798],[119.9593,-1.083],[119.9685,-1.0923],[119.9729,-1.0991],[119.9689,-1.1008],[119.9611,-1.095],[119.959,-1.0952],[119.9429,-1.1045],[119.9403,-1.1076],[119.9247,-1.1114],[119.9146,-1.1106],[119.903,-1.1144],[119.9026,-1.1104],[119.9003,-1.1104]]]}},{"type":"Feature","properties":{"name":"Tanambulava","name_en":"Tanambulava","admin_level":"6","osm_id":""},"geometry":{"type":"Polygon","coordinates":[[[119.9207,-1.1815],[119.9204,-1.1794],[119.9172,-1.18],[119.9153,-1.1778],[119.9108,-1.1796],[119.9124,-1.1707],[119.9082,-1.1657],[119.9072,-1.1618],[119.9044,-1.1601],[119.9016,-1.1523],[119.897,-1.1482],[119.9009,-1.1404],[119.9005,-1.1374],[119.9045,-1.1324],[119.9028,-1.1258],[119.9053,-1.1223],[119.9039,-1.1201],[119.9001,-1.1187],[119.8999,-1.1161],[119.9146,-1.1106],[119.9247,-1.1114],[119.9403,-1.1076],[119.9429,-1.1045],[119.959,-1.0952],[119.9611,-1.095],[119.9689,-1.1008],[119.9729,-1.0991],[119.9752,-1.1107],[119.9809,-1.1181],[119.9849,-1.1329],[119.9929,-1.1417],[119.986,-1.1544],[119.9635,-1.1541],[119.9541,-1.1581],[119.9498,-1.1578],[119.9418,-1.1606],[119.9374,-1.1642],[119.9378,-1.1685],[119.9298,-1.1683],[119.9276,-1.1704],[119.9265,-1.1723],[119.9278,-1.1776],[119.926,-1.1821],[119.9242,-1.1837],[119.9207,-1.1815]]]}}]}