{"type":"FeatureCollection","metadata":{"parent_osm_id":"14509733","parent_name":"Bekasi","parent_name_1":"JawaBarat","parent_gid":"IDN.9.4_1","parent_level":"5","child_level":"6","count":23,"source":"GADM 4.1","generated":"2026-05-09"},"features":[{"type":"Feature","properties":{"name":"Babelan","name_en":"Babelan","admin_level":"6","osm_id":""},"geometry":{"type":"Polygon","coordinates":[[[107.0278,-6.1972],[107.0199,-6.1964],[107.018,-6.1998],[107.0149,-6.1951],[107.0113,-6.1965],[107.006,-6.1956],[107.007,-6.1777],[107.0083,-6.1777],[107.0083,-6.1746],[107.0108,-6.1748],[107.0114,-6.1687],[107.0087,-6.1677],[107.0095,-6.1515],[107.0114,-6.1487],[107.0095,-6.1434],[107.0106,-6.1405],[107.0086,-6.1388],[107.0123,-6.1388],[107.0167,-6.1335],[107.0197,-6.134],[107.0211,-6.124],[107.0253,-6.1218],[107.0309,-6.1142],[107.0306,-6.0994],[107.028,-6.0945],[107.0295,-6.094],[107.0291,-6.0838],[107.0316,-6.082],[107.0296,-6.0796],[107.0247,-6.0781],[107.0229,-6.0734],[107.0164,-6.0692],[107.0125,-6.0707],[107.0102,-6.0744],[107.0028,-6.0698],[106.9999,-6.0666],[106.9985,-6.059],[106.9915,-6.0537],[106.9946,-6.0516],[106.9894,-6.0496],[106.9967,-6.0501],[106.9994,-6.0481],[107.0056,-6.0499],[107.0064,-6.0547],[107.0091,-6.0583],[107.0184,-6.0604],[107.0269,-6.0596],[107.0388,-6.0632],[107.0436,-6.063],[107.047,-6.061],[107.0537,-6.0544],[107.0549,-6.0479],[107.0584,-6.047],[107.0599,-6.0488],[107.0568,-6.0526],[107.0593,-6.0537],[107.058,-6.0559],[107.0605,-6.0576],[107.0588,-6.0587],[107.058,-6.0652],[107.0597,-6.066],[107.0598,-6.068],[107.0625,-6.0685],[107.0607,-6.0701],[107.0621,-6.0738],[107.0608,-6.0769],[107.0574,-6.079],[107.0583,-6.082],[107.0552,-6.0852],[107.0561,-6.0866],[107.0539,-6.091],[107.056,-6.0984],[107.059,-6.1022],[107.0649,-6.1036],[107.067,-6.1088],[107.0697,-6.1102],[107.0699,-6.1129],[107.0688,-6.1181],[107.0621,-6.1279],[107.0614,-6.1244],[107.0592,-6.1246],[107.0594,-6.1272],[107.0567,-6.1304],[107.0572,-6.1346],[107.0544,-6.1394],[107.0499,-6.1397],[107.0485,-6.1413],[107.0474,-6.1518],[107.0453,-6.1525],[107.0442,-6.1568],[107.0495,-6.1651],[107.0491,-6.1691],[107.0464,-6.1699],[107.048,-6.174],[107.0445,-6.1762],[107.0424,-6.1798],[107.043,-6.1821],[107.0404,-6.1838],[107.0411,-6.1862],[107.0435,-6.1852],[107.0445,-6.1863],[107.0415,-6.1958],[107.0434,-6.1996],[107.0406,-6.2006],[107.0406,-6.2028],[107.0371,-6.2066],[107.0328,-6.2033],[107.0325,-6.1984],[107.0278,-6.1972]]]}},{"type":"Feature","properties":{"name":"Bojongmangu","name_en":"Bojongmangu","admin_level":"6","osm_id":""},"geometry":{"type":"Polygon","coordinates":[[[107.1972,-6.4612],[107.1953,-6.4612],[107.1953,-6.4639],[107.1896,-6.4639],[107.1892,-6.4697],[107.1861,-6.4714],[107.1836,-6.471],[107.1857,-6.4691],[107.1853,-6.4671],[107.1818,-6.4678],[107.1828,-6.4735],[107.1784,-6.4739],[107.181,-6.4748],[107.1808,-6.4781],[107.1783,-6.4797],[107.1723,-6.4798],[107.1717,-6.482],[107.1708,-6.4807],[107.1597,-6.4783],[107.1561,-6.4746],[107.1466,-6.4716],[107.1456,-6.4733],[107.1408,-6.4716],[107.1348,-6.4661],[107.1227,-6.4674],[107.1264,-6.4564],[107.1322,-6.4551],[107.1347,-6.4565],[107.1375,-6.4559],[107.1387,-6.4584],[107.1471,-6.458],[107.1525,-6.4538],[107.1573,-6.4533],[107.16,-6.4495],[107.1653,-6.4462],[107.1667,-6.4431],[107.1654,-6.4423],[107.1534,-6.4403],[107.1487,-6.4335],[107.1497,-6.4279],[107.148,-6.4275],[107.1494,-6.425],[107.1535,-6.4246],[107.1533,-6.4213],[107.1551,-6.4211],[107.1553,-6.4187],[107.1576,-6.4184],[107.1577,-6.4155],[107.1599,-6.4151],[107.1614,-6.412],[107.1632,-6.4123],[107.1643,-6.4066],[107.1663,-6.4071],[107.1662,-6.405],[107.1685,-6.4057],[107.171,-6.4028],[107.1723,-6.4053],[107.1722,-6.4014],[107.1756,-6.4022],[107.1749,-6.4003],[107.1809,-6.3962],[107.1816,-6.3927],[107.1885,-6.3984],[107.1916,-6.395],[107.1968,-6.3953],[107.1981,-6.3977],[107.2011,-6.3983],[107.2045,-6.3953],[107.2112,-6.3981],[107.2163,-6.3952],[107.2199,-6.3962],[107.2221,-6.4004],[107.2212,-6.4084],[107.2173,-6.4077],[107.2126,-6.4096],[107.2126,-6.4169],[107.2023,-6.4138],[107.2054,-6.4217],[107.2035,-6.4235],[107.2001,-6.422],[107.1962,-6.423],[107.1977,-6.4249],[107.2037,-6.4261],[107.2067,-6.4349],[107.202,-6.4361],[107.207,-6.4411],[107.2117,-6.4493],[107.2111,-6.4525],[107.2079,-6.4493],[107.2054,-6.4519],[107.2127,-6.455],[107.2169,-6.4614],[107.215,-6.4645],[107.2132,-6.4645],[107.2089,-6.4686],[107.2015,-6.4614],[107.1972,-6.4612]]]}},{"type":"Feature","properties":{"name":"Cabangbungin","name_en":"Cabangbungin","admin_level":"6","osm_id":""},"geometry":{"type":"Polygon","coordinates":[[[107.1724,-6.1153],[107.1639,-6.1054],[107.1074,-6.0885],[107.1049,-6.0971],[107.0921,-6.0936],[107.0889,-6.0668],[107.1072,-6.066],[107.1034,-6.0612],[107.0862,-6.0485],[107.0881,-6.0416],[107.1065,-6.0408],[107.113,-6.038],[107.1148,-6.0397],[107.1186,-6.0393],[107.1217,-6.0471],[107.1265,-6.0461],[107.1278,-6.0474],[107.1244,-6.0509],[107.1266,-6.0543],[107.1285,-6.0546],[107.1362,-6.0496],[107.1368,-6.0556],[107.1327,-6.0557],[107.1303,-6.0615],[107.1344,-6.0635],[107.1389,-6.0573],[107.1405,-6.0572],[107.1404,-6.0636],[107.1436,-6.0713],[107.1516,-6.0728],[107.1586,-6.0675],[107.1719,-6.0759],[107.1761,-6.0815],[107.1789,-6.0812],[107.184,-6.0764],[107.1868,-6.0775],[107.1884,-6.0803],[107.187,-6.0853],[107.1881,-6.0883],[107.1965,-6.0916],[107.1914,-6.1056],[107.1882,-6.1132],[107.1821,-6.1153],[107.1724,-6.1153]]]}},{"type":"Feature","properties":{"name":"Cibarusah","name_en":"Cibarusah","admin_level":"6","osm_id":""},"geometry":{"type":"Polygon","coordinates":[[[107.0781,-6.4224],[107.0794,-6.4217],[107.0781,-6.4136],[107.079,-6.4113],[107.0822,-6.4119],[107.0834,-6.4085],[107.0883,-6.4045],[107.0927,-6.4028],[107.1003,-6.4058],[107.1059,-6.4052],[107.1058,-6.4084],[107.112,-6.4086],[107.1149,-6.4111],[107.1159,-6.4148],[107.1123,-6.4182],[107.1132,-6.4217],[107.1249,-6.4249],[107.1247,-6.4282],[107.1286,-6.4279],[107.1345,-6.4308],[107.1423,-6.4252],[107.1497,-6.4249],[107.1479,-6.4277],[107.1497,-6.4279],[107.1487,-6.4335],[107.1534,-6.4403],[107.1667,-6.4431],[107.1653,-6.4462],[107.16,-6.4495],[107.1573,-6.4533],[107.1525,-6.4538],[107.1471,-6.458],[107.1387,-6.4584],[107.1375,-6.4559],[107.1315,-6.4551],[107.1264,-6.4564],[107.126,-6.4592],[107.1204,-6.459],[107.117,-6.4621],[107.1092,-6.4628],[107.0997,-6.4537],[107.08,-6.4489],[107.0808,-6.4441],[107.0681,-6.4378],[107.0667,-6.4357],[107.0627,-6.4338],[107.0576,-6.4367],[107.0553,-6.4356],[107.0594,-6.4336],[107.0578,-6.4296],[107.0546,-6.4293],[107.0589,-6.4267],[107.0572,-6.4242],[107.0584,-6.4231],[107.0781,-6.4224]]]}},{"type":"Feature","properties":{"name":"Cibitung","name_en":"Cibitung","admin_level":"6","osm_id":""},"geometry":{"type":"Polygon","coordinates":[[[107.0823,-6.2687],[107.0807,-6.2721],[107.0831,-6.2738],[107.0812,-6.2758],[107.0794,-6.2845],[107.0743,-6.2829],[107.0729,-6.2836],[107.0732,-6.2875],[107.0704,-6.2871],[107.0692,-6.2942],[107.0704,-6.297],[107.068,-6.3004],[107.0703,-6.3026],[107.0685,-6.3037],[107.0696,-6.3063],[107.0566,-6.3063],[107.0569,-6.2992],[107.059,-6.2969],[107.058,-6.2917],[107.061,-6.2891],[107.0618,-6.283],[107.0606,-6.2801],[107.0659,-6.2779],[107.068,-6.272],[107.0762,-6.2719],[107.0792,-6.2697],[107.0797,-6.2673],[107.0752,-6.2664],[107.0751,-6.263],[107.0732,-6.2629],[107.0733,-6.2613],[107.0762,-6.2593],[107.0763,-6.2566],[107.0813,-6.2492],[107.0821,-6.2369],[107.0884,-6.2378],[107.0853,-6.2312],[107.0867,-6.2299],[107.0907,-6.23],[107.0906,-6.2258],[107.0878,-6.2237],[107.0779,-6.1933],[107.081,-6.1936],[107.0811,-6.1875],[107.0861,-6.1878],[107.0879,-6.1813],[107.1022,-6.1824],[107.106,-6.187],[107.1037,-6.1987],[107.1051,-6.2005],[107.1109,-6.2007],[107.1159,-6.2042],[107.1169,-6.2078],[107.1242,-6.2133],[107.1264,-6.2179],[107.1252,-6.2224],[107.1413,-6.228],[107.1475,-6.2331],[107.1507,-6.2339],[107.1484,-6.2439],[107.1505,-6.2471],[107.1488,-6.2486],[107.1475,-6.247],[107.1455,-6.2498],[107.1298,-6.2428],[107.1291,-6.2474],[107.1184,-6.2471],[107.117,-6.2529],[107.1078,-6.2501],[107.1058,-6.2533],[107.1056,-6.2583],[107.0852,-6.2616],[107.0856,-6.2661],[107.0823,-6.2687]]]}},{"type":"Feature","properties":{"name":"CikarangBarat","name_en":"CikarangBarat","admin_level":"6","osm_id":""},"geometry":{"type":"Polygon","coordinates":[[[107.1029,-6.3305],[107.1024,-6.3329],[107.1003,-6.3322],[107.0973,-6.3354],[107.0957,-6.3341],[107.0952,-6.3356],[107.0921,-6.3363],[107.0929,-6.3387],[107.0911,-6.3383],[107.0907,-6.3409],[107.089,-6.3406],[107.0899,-6.3422],[107.0857,-6.3414],[107.0855,-6.3449],[107.0839,-6.342],[107.0789,-6.3469],[107.0764,-6.3471],[107.0765,-6.3395],[107.0696,-6.3389],[107.0676,-6.3329],[107.0644,-6.335],[107.0604,-6.3422],[107.0524,-6.3406],[107.0518,-6.3429],[107.0461,-6.3419],[107.0419,-6.3403],[107.0406,-6.3375],[107.0451,-6.3359],[107.0602,-6.3186],[107.0614,-6.315],[107.0563,-6.3135],[107.0584,-6.3062],[107.0696,-6.3063],[107.0685,-6.3037],[107.0703,-6.3026],[107.068,-6.3004],[107.0704,-6.297],[107.0692,-6.2942],[107.0704,-6.2871],[107.0732,-6.2875],[107.0729,-6.2836],[107.0743,-6.2829],[107.0794,-6.2845],[107.0812,-6.2758],[107.0831,-6.2738],[107.0808,-6.2723],[107.081,-6.2703],[107.0856,-6.2661],[107.0852,-6.2616],[107.1056,-6.2583],[107.1058,-6.2533],[107.1078,-6.2501],[107.117,-6.2529],[107.1184,-6.2471],[107.1291,-6.2474],[107.1298,-6.2428],[107.1457,-6.2498],[107.1433,-6.2519],[107.1418,-6.2512],[107.1426,-6.2536],[107.1409,-6.2566],[107.1426,-6.2568],[107.1421,-6.2593],[107.1371,-6.2653],[107.137,-6.268],[107.1329,-6.268],[107.1329,-6.2693],[107.1299,-6.2697],[107.1282,-6.2732],[107.1248,-6.2731],[107.1229,-6.276],[107.1195,-6.2746],[107.1164,-6.2777],[107.119,-6.2776],[107.1178,-6.2797],[107.1197,-6.2849],[107.1193,-6.2901],[107.1162,-6.2934],[107.117,-6.2969],[107.1143,-6.2983],[107.1151,-6.3006],[107.1112,-6.3036],[107.117,-6.306],[107.1161,-6.307],[107.118,-6.3096],[107.1153,-6.3111],[107.1119,-6.3103],[107.1114,-6.3127],[107.1152,-6.3139],[107.1161,-6.3171],[107.1099,-6.3184],[107.1126,-6.3188],[107.1115,-6.3204],[107.1077,-6.3195],[107.11,-6.3242],[107.1055,-6.3231],[107.1073,-6.326],[107.1055,-6.325],[107.103,-6.3271],[107.1029,-6.3305]]]}},{"type":"Feature","properties":{"name":"CikarangPusat","name_en":"CikarangPusat","admin_level":"6","osm_id":""},"geometry":{"type":"Polygon","coordinates":[[[107.2185,-6.3959],[107.2147,-6.3952],[107.2103,-6.3981],[107.2045,-6.3953],[107.2011,-6.3983],[107.1981,-6.3977],[107.1968,-6.3953],[107.1922,-6.3949],[107.1896,-6.396],[107.1885,-6.3984],[107.1816,-6.3927],[107.1841,-6.3902],[107.1754,-6.3906],[107.168,-6.3871],[107.1638,-6.3827],[107.1647,-6.3783],[107.1602,-6.3801],[107.158,-6.3835],[107.1517,-6.3806],[107.1488,-6.3838],[107.1432,-6.3791],[107.1378,-6.3799],[107.1279,-6.3759],[107.1292,-6.3697],[107.1345,-6.3668],[107.1346,-6.3597],[107.1376,-6.358],[107.1372,-6.3564],[107.1394,-6.3554],[107.1432,-6.3491],[107.1445,-6.3515],[107.148,-6.353],[107.1497,-6.3518],[107.1501,-6.3551],[107.1629,-6.3559],[107.1792,-6.3531],[107.1754,-6.3476],[107.1752,-6.3431],[107.1715,-6.3331],[107.1722,-6.3305],[107.174,-6.33],[107.1721,-6.3262],[107.1567,-6.3166],[107.1607,-6.3108],[107.1654,-6.309],[107.1654,-6.304],[107.1696,-6.3068],[107.1674,-6.309],[107.1671,-6.313],[107.1691,-6.3122],[107.1717,-6.3139],[107.1717,-6.3156],[107.1766,-6.3183],[107.1852,-6.3197],[107.1845,-6.3239],[107.1956,-6.3274],[107.1966,-6.3295],[107.209,-6.3284],[107.2094,-6.3222],[107.2139,-6.3228],[107.2135,-6.3249],[107.2153,-6.3257],[107.2168,-6.3209],[107.2189,-6.3212],[107.2191,-6.326],[107.216,-6.3277],[107.2148,-6.3304],[107.2187,-6.3311],[107.2206,-6.3345],[107.2236,-6.3354],[107.2266,-6.3492],[107.223,-6.3519],[107.215,-6.3499],[107.2131,-6.3567],[107.2153,-6.3618],[107.2132,-6.3638],[107.2107,-6.3613],[107.2075,-6.3615],[107.2104,-6.3659],[107.2055,-6.3692],[107.2048,-6.3754],[107.2105,-6.3796],[107.2128,-6.3745],[107.2144,-6.3796],[107.2193,-6.3808],[107.2186,-6.3833],[107.2212,-6.3842],[107.2216,-6.3877],[107.2199,-6.3962],[107.2185,-6.3959]]]}},{"type":"Feature","properties":{"name":"CikarangSelatan","name_en":"CikarangSelatan","admin_level":"6","osm_id":""},"geometry":{"type":"Polygon","coordinates":[[[107.1344,-6.3638],[107.1345,-6.3668],[107.1327,-6.3681],[107.1287,-6.3694],[107.127,-6.3678],[107.1233,-6.3679],[107.1215,-6.3704],[107.1141,-6.3738],[107.1019,-6.3715],[107.0968,-6.374],[107.0939,-6.3736],[107.0974,-6.3646],[107.0823,-6.3617],[107.0781,-6.3637],[107.0703,-6.3591],[107.0729,-6.3582],[107.0728,-6.3549],[107.0753,-6.354],[107.0731,-6.3513],[107.0752,-6.3506],[107.0763,-6.3472],[107.079,-6.3468],[107.0839,-6.342],[107.0855,-6.3449],[107.0857,-6.3414],[107.0898,-6.3423],[107.089,-6.3406],[107.0907,-6.3409],[107.0911,-6.3383],[107.0927,-6.339],[107.0921,-6.3363],[107.0952,-6.3356],[107.0957,-6.3341],[107.0973,-6.3354],[107.1003,-6.3322],[107.1024,-6.3329],[107.103,-6.3271],[107.1055,-6.325],[107.1073,-6.3258],[107.1055,-6.3231],[107.11,-6.3242],[107.1077,-6.3195],[107.1115,-6.3204],[107.1126,-6.3188],[107.1099,-6.3184],[107.1161,-6.3171],[107.1152,-6.3139],[107.1114,-6.3127],[107.1119,-6.3103],[107.1153,-6.3111],[107.118,-6.3096],[107.1162,-6.3067],[107.125,-6.3062],[107.1303,-6.3088],[107.1414,-6.3071],[107.1428,-6.303],[107.1405,-6.2979],[107.142,-6.2969],[107.1407,-6.2958],[107.1429,-6.2916],[107.1468,-6.297],[107.1489,-6.2975],[107.1492,-6.3002],[107.1607,-6.3],[107.1608,-6.304],[107.1654,-6.304],[107.1654,-6.309],[107.1607,-6.3108],[107.1567,-6.3166],[107.1721,-6.3262],[107.174,-6.33],[107.1722,-6.3305],[107.1715,-6.3331],[107.1752,-6.3431],[107.1754,-6.3476],[107.1792,-6.3531],[107.1629,-6.3559],[107.1501,-6.3551],[107.1497,-6.3518],[107.148,-6.353],[107.1445,-6.3515],[107.1432,-6.3491],[107.1394,-6.3554],[107.1372,-6.3564],[107.1376,-6.358],[107.1346,-6.3597],[107.1344,-6.3638]]]}},{"type":"Feature","properties":{"name":"CikarangTimur","name_en":"CikarangTimur","admin_level":"6","osm_id":""},"geometry":{"type":"Polygon","coordinates":[[[107.2168,-6.3209],[107.2153,-6.3257],[107.2135,-6.3249],[107.2139,-6.3228],[107.2094,-6.3222],[107.209,-6.3284],[107.1966,-6.3295],[107.1956,-6.3274],[107.1845,-6.3239],[107.1852,-6.3197],[107.1766,-6.3183],[107.1717,-6.3156],[107.1693,-6.3124],[107.1668,-6.312],[107.1706,-6.3046],[107.1676,-6.3002],[107.1711,-6.2954],[107.1724,-6.288],[107.1776,-6.289],[107.1789,-6.2849],[107.1823,-6.2821],[107.1847,-6.2767],[107.1836,-6.2754],[107.1853,-6.274],[107.1856,-6.2689],[107.1963,-6.2654],[107.2017,-6.2317],[107.2104,-6.235],[107.2132,-6.2339],[107.2121,-6.2352],[107.2148,-6.2423],[107.2214,-6.2441],[107.2148,-6.2589],[107.2142,-6.2659],[107.2256,-6.2658],[107.2352,-6.2695],[107.2436,-6.2659],[107.2462,-6.2667],[107.2454,-6.2697],[107.2419,-6.2698],[107.2411,-6.2723],[107.2363,-6.2745],[107.2354,-6.2795],[107.2433,-6.2797],[107.2503,-6.2766],[107.2585,-6.2784],[107.2591,-6.2762],[107.2667,-6.2738],[107.2654,-6.2788],[107.268,-6.2807],[107.2666,-6.2849],[107.2633,-6.2801],[107.2619,-6.2819],[107.264,-6.2864],[107.2611,-6.2861],[107.2555,-6.2902],[107.2546,-6.295],[107.2509,-6.2929],[107.2487,-6.2933],[107.2467,-6.2993],[107.2443,-6.2993],[107.242,-6.2967],[107.2365,-6.2967],[107.2394,-6.3043],[107.2372,-6.3072],[107.2353,-6.3066],[107.2354,-6.3019],[107.2337,-6.299],[107.2323,-6.2999],[107.233,-6.3037],[107.2294,-6.3022],[107.2278,-6.3045],[107.2241,-6.3057],[107.2242,-6.3078],[107.2276,-6.3093],[107.2246,-6.3102],[107.2239,-6.3163],[107.2218,-6.3166],[107.2199,-6.3131],[107.2173,-6.3162],[107.2186,-6.3183],[107.2231,-6.3184],[107.2247,-6.3206],[107.2168,-6.3209]]]}},{"type":"Feature","properties":{"name":"CikarangUtara","name_en":"CikarangUtara","admin_level":"6","osm_id":""},"geometry":{"type":"Polygon","coordinates":[[[107.1169,-6.3056],[107.1112,-6.3036],[107.1151,-6.3006],[107.1143,-6.2983],[107.117,-6.2969],[107.1162,-6.2934],[107.1193,-6.2901],[107.1197,-6.2849],[107.1178,-6.2797],[107.119,-6.2776],[107.1164,-6.2777],[107.1195,-6.2746],[107.1229,-6.276],[107.1248,-6.2731],[107.1282,-6.2732],[107.1299,-6.2697],[107.1329,-6.2693],[107.1329,-6.268],[107.137,-6.268],[107.1371,-6.2653],[107.1421,-6.2593],[107.1426,-6.2568],[107.1409,-6.2566],[107.1426,-6.2536],[107.1418,-6.2512],[107.1433,-6.2519],[107.1475,-6.247],[107.149,-6.2485],[107.1538,-6.2446],[107.1568,-6.2467],[107.1586,-6.2447],[107.1647,-6.2451],[107.1755,-6.2492],[107.1773,-6.2434],[107.1982,-6.2489],[107.1963,-6.2654],[107.1856,-6.2689],[107.1853,-6.274],[107.1836,-6.2754],[107.1847,-6.2767],[107.1823,-6.2821],[107.1789,-6.2849],[107.1776,-6.289],[107.1724,-6.288],[107.1711,-6.2954],[107.1677,-6.2995],[107.1682,-6.3027],[107.1706,-6.3046],[107.1696,-6.3068],[107.1654,-6.304],[107.1608,-6.304],[107.1607,-6.3],[107.149,-6.3001],[107.1489,-6.2975],[107.1468,-6.297],[107.1429,-6.2916],[107.1407,-6.2958],[107.142,-6.2969],[107.1405,-6.2979],[107.1428,-6.303],[107.1414,-6.3071],[107.1303,-6.3088],[107.125,-6.3062],[107.1204,-6.3071],[107.1169,-6.3056]]]}},{"type":"Feature","properties":{"name":"Karangbahagia","name_en":"Karangbahagia","admin_level":"6","osm_id":""},"geometry":{"type":"Polygon","coordinates":[[[107.2202,-6.2439],[107.2148,-6.2423],[107.2121,-6.2352],[107.2132,-6.2339],[107.2104,-6.235],[107.2017,-6.2317],[107.1982,-6.2489],[107.1773,-6.2434],[107.1755,-6.2492],[107.1648,-6.2451],[107.1606,-6.2456],[107.1578,-6.2435],[107.159,-6.2414],[107.1571,-6.2392],[107.1585,-6.2337],[107.1564,-6.2318],[107.1557,-6.2248],[107.1597,-6.2173],[107.165,-6.2174],[107.1727,-6.205],[107.1775,-6.1748],[107.1793,-6.1733],[107.1914,-6.1814],[107.2052,-6.1945],[107.2299,-6.2027],[107.2457,-6.215],[107.2376,-6.2257],[107.2404,-6.227],[107.2402,-6.231],[107.243,-6.2331],[107.2406,-6.24],[107.2361,-6.2383],[107.2338,-6.233],[107.2291,-6.2317],[107.2268,-6.2325],[107.2214,-6.2441],[107.2202,-6.2439]]]}},{"type":"Feature","properties":{"name":"Kedungwaringin","name_en":"Kedungwaringin","admin_level":"6","osm_id":""},"geometry":{"type":"Polygon","coordinates":[[[107.2663,-6.2741],[107.2591,-6.2762],[107.2585,-6.2784],[107.2503,-6.2766],[107.2433,-6.2797],[107.2354,-6.2795],[107.2363,-6.2745],[107.2411,-6.2723],[107.2419,-6.2698],[107.2454,-6.2697],[107.2462,-6.2667],[107.2426,-6.266],[107.2348,-6.2695],[107.2256,-6.2658],[107.2142,-6.2659],[107.2148,-6.2589],[107.2268,-6.2325],[107.2306,-6.2316],[107.2338,-6.233],[107.2361,-6.2383],[107.2406,-6.24],[107.243,-6.2331],[107.2402,-6.231],[107.2404,-6.227],[107.2376,-6.2257],[107.2457,-6.215],[107.2694,-6.233],[107.2745,-6.2413],[107.2778,-6.2536],[107.2734,-6.2584],[107.276,-6.2631],[107.2762,-6.2669],[107.2663,-6.2741]]]}},{"type":"Feature","properties":{"name":"MuaraGembong","name_en":"MuaraGembong","admin_level":"6","osm_id":""},"geometry":{"type":"Polygon","coordinates":[[[107.0472,-6.0608],[107.0436,-6.063],[107.0384,-6.0632],[107.0269,-6.0596],[107.0184,-6.0604],[107.0089,-6.0582],[107.0056,-6.0499],[107.0086,-6.0427],[107.0047,-6.0415],[107.0055,-6.038],[107.008,-6.0359],[107.0121,-6.0332],[107.0151,-6.0345],[107.0151,-6.0293],[107.0126,-6.025],[107.01,-6.0238],[107.0012,-6.0247],[106.9931,-6.0281],[106.9931,-6.0261],[106.992,-6.0262],[106.9938,-6.0201],[106.9928,-6.0145],[106.989,-6.0108],[106.9845,-6.0109],[106.9894,-6.0032],[107.001,-6.0025],[107.0078,-5.9982],[107.0122,-5.9806],[107.0145,-5.9807],[107.0135,-5.977],[107.0167,-5.9709],[107.0162,-5.9585],[107.0094,-5.9428],[107.006,-5.9402],[106.9932,-5.9395],[106.9986,-5.9356],[106.9928,-5.9381],[106.9908,-5.9368],[106.9998,-5.9329],[107.0157,-5.918],[107.0244,-5.9144],[107.0314,-5.9138],[107.0386,-5.9162],[107.0434,-5.9212],[107.07,-5.9327],[107.092,-5.9367],[107.0994,-5.9348],[107.1004,-5.9362],[107.0936,-5.9575],[107.0971,-5.9613],[107.0896,-5.9684],[107.091,-5.9727],[107.0885,-5.9756],[107.09,-5.9764],[107.0856,-5.9793],[107.0886,-5.9801],[107.0876,-5.9823],[107.0899,-5.9835],[107.0878,-5.9853],[107.0848,-5.985],[107.0872,-5.9872],[107.0844,-5.9908],[107.0875,-5.9928],[107.0883,-5.9954],[107.0845,-6.0018],[107.0925,-6.0064],[107.0936,-6.0143],[107.0997,-6.0145],[107.1016,-6.0162],[107.095,-6.0221],[107.0939,-6.0274],[107.0961,-6.0279],[107.0993,-6.025],[107.1051,-6.0288],[107.1113,-6.0289],[107.113,-6.038],[107.1065,-6.0408],[107.0881,-6.0416],[107.0859,-6.0479],[107.1034,-6.0612],[107.1072,-6.066],[107.0913,-6.0659],[107.0762,-6.0738],[107.0689,-6.075],[107.0626,-6.074],[107.0607,-6.0701],[107.0625,-6.0685],[107.0598,-6.068],[107.0597,-6.066],[107.058,-6.0652],[107.0588,-6.0587],[107.0605,-6.0576],[107.058,-6.0559],[107.0593,-6.0537],[107.0568,-6.0526],[107.0599,-6.0488],[107.0582,-6.047],[107.0549,-6.0479],[107.0537,-6.0544],[107.0472,-6.0608]]]}},{"type":"Feature","properties":{"name":"Pebayuran","name_en":"Pebayuran","admin_level":"6","osm_id":""},"geometry":{"type":"Polygon","coordinates":[[[107.2671,-6.2313],[107.2289,-6.2026],[107.2246,-6.1708],[107.2056,-6.1332],[107.2054,-6.1221],[107.1882,-6.1132],[107.1965,-6.0916],[107.2216,-6.1039],[107.2301,-6.1026],[107.2375,-6.1044],[107.2433,-6.101],[107.2468,-6.1011],[107.2482,-6.1037],[107.2485,-6.1161],[107.2515,-6.1162],[107.2625,-6.111],[107.2653,-6.1113],[107.2694,-6.1156],[107.2706,-6.1297],[107.2728,-6.1305],[107.2779,-6.127],[107.2812,-6.1276],[107.2795,-6.1334],[107.2834,-6.1354],[107.2839,-6.1373],[107.281,-6.1448],[107.2824,-6.148],[107.2858,-6.1487],[107.289,-6.1419],[107.2925,-6.1409],[107.2892,-6.1493],[107.2885,-6.1563],[107.2812,-6.1573],[107.2786,-6.162],[107.2794,-6.1711],[107.286,-6.1753],[107.2862,-6.1839],[107.2921,-6.1901],[107.2908,-6.2006],[107.296,-6.2013],[107.2965,-6.2035],[107.294,-6.2066],[107.2931,-6.2141],[107.291,-6.217],[107.2786,-6.2154],[107.2725,-6.2163],[107.2723,-6.219],[107.2749,-6.2225],[107.2836,-6.2255],[107.2828,-6.2283],[107.2744,-6.2336],[107.2671,-6.2313]]]}},{"type":"Feature","properties":{"name":"SerangBaru","name_en":"SerangBaru","admin_level":"6","osm_id":""},"geometry":{"type":"Polygon","coordinates":[[[107.1548,-6.4201],[107.1528,-6.4252],[107.1423,-6.4252],[107.1346,-6.4308],[107.1286,-6.4279],[107.1263,-6.4287],[107.1247,-6.4282],[107.1254,-6.4251],[107.1122,-6.4208],[107.1126,-6.4176],[107.1159,-6.4148],[107.1128,-6.4089],[107.1058,-6.4084],[107.1059,-6.4052],[107.1003,-6.4058],[107.0927,-6.4028],[107.0834,-6.4085],[107.0822,-6.4119],[107.079,-6.4113],[107.0788,-6.4222],[107.0584,-6.4231],[107.0567,-6.4223],[107.0564,-6.4176],[107.0546,-6.4194],[107.0552,-6.4207],[107.0512,-6.4174],[107.0522,-6.4154],[107.0555,-6.4166],[107.0578,-6.4153],[107.0544,-6.4127],[107.0583,-6.4105],[107.0568,-6.4071],[107.0544,-6.4068],[107.0545,-6.405],[107.059,-6.4031],[107.0588,-6.4008],[107.0611,-6.4016],[107.0629,-6.3987],[107.0653,-6.3989],[107.0661,-6.3944],[107.067,-6.3971],[107.0696,-6.3976],[107.0712,-6.396],[107.0688,-6.3908],[107.0674,-6.3911],[107.0675,-6.3871],[107.0659,-6.3868],[107.0677,-6.3848],[107.0654,-6.3838],[107.0686,-6.3804],[107.0663,-6.3807],[107.067,-6.3766],[107.0694,-6.3761],[107.0697,-6.3738],[107.0727,-6.374],[107.0725,-6.3725],[107.0751,-6.3709],[107.0744,-6.3697],[107.0728,-6.3706],[107.0722,-6.3688],[107.0759,-6.3656],[107.0751,-6.3639],[107.0736,-6.3633],[107.0715,-6.367],[107.07,-6.3661],[107.0729,-6.3641],[107.0724,-6.3628],[107.0695,-6.3632],[107.0711,-6.3601],[107.0781,-6.3637],[107.0823,-6.3617],[107.0974,-6.3646],[107.0944,-6.3737],[107.1008,-6.3731],[107.1019,-6.3715],[107.1141,-6.3738],[107.1215,-6.3704],[107.1233,-6.3679],[107.127,-6.3678],[107.1286,-6.3693],[107.1303,-6.3687],[107.1279,-6.3759],[107.1336,-6.3785],[107.1383,-6.38],[107.1432,-6.3791],[107.1488,-6.3838],[107.1517,-6.3806],[107.158,-6.3835],[107.1602,-6.3801],[107.1647,-6.3783],[107.164,-6.3829],[107.1718,-6.3896],[107.1841,-6.3902],[107.1816,-6.3927],[107.1809,-6.3962],[107.1749,-6.4003],[107.1756,-6.4022],[107.1722,-6.4014],[107.1723,-6.4053],[107.171,-6.4028],[107.1685,-6.4057],[107.1662,-6.405],[107.1663,-6.4071],[107.1643,-6.4066],[107.1632,-6.4123],[107.1614,-6.412],[107.1599,-6.4151],[107.1578,-6.4153],[107.1576,-6.4184],[107.1553,-6.4187],[107.1548,-6.4201]]]}},{"type":"Feature","properties":{"name":"Setu","name_en":"Setu","admin_level":"6","osm_id":""},"geometry":{"type":"Polygon","coordinates":[[[107.0511,-6.3947],[107.0483,-6.3964],[107.0461,-6.4028],[107.0417,-6.4068],[107.0354,-6.4057],[107.0307,-6.4115],[107.0296,-6.41],[107.0269,-6.4103],[107.0268,-6.409],[107.0232,-6.4097],[107.0231,-6.4042],[107.0202,-6.404],[107.0199,-6.4004],[107.0107,-6.4028],[107.0085,-6.3964],[107.0111,-6.3919],[107.0048,-6.3879],[107.0065,-6.3837],[107.0056,-6.3778],[106.9985,-6.3791],[106.9957,-6.3786],[106.9949,-6.3769],[106.993,-6.3705],[106.9947,-6.3664],[106.9927,-6.3648],[106.9929,-6.359],[106.9943,-6.3553],[106.9984,-6.3563],[107.0016,-6.3539],[107.0046,-6.3554],[107.0039,-6.3597],[107.0069,-6.3626],[107.0172,-6.3536],[107.0181,-6.3484],[107.0161,-6.3436],[107.0164,-6.3304],[107.021,-6.328],[107.0289,-6.3304],[107.0304,-6.3254],[107.0371,-6.3215],[107.0367,-6.3178],[107.0383,-6.3168],[107.0371,-6.3141],[107.0419,-6.3065],[107.0584,-6.3062],[107.0563,-6.3135],[107.0614,-6.315],[107.0602,-6.3186],[107.0451,-6.3359],[107.0406,-6.3375],[107.0419,-6.3403],[107.0461,-6.3419],[107.0518,-6.3429],[107.0524,-6.3406],[107.0604,-6.3422],[107.0644,-6.335],[107.0676,-6.3329],[107.0696,-6.3389],[107.0761,-6.3392],[107.0762,-6.3481],[107.0731,-6.3517],[107.0753,-6.354],[107.0728,-6.3549],[107.0733,-6.3576],[107.0704,-6.3588],[107.0691,-6.362],[107.0696,-6.3634],[107.0728,-6.3636],[107.0702,-6.3665],[107.0716,-6.3669],[107.0737,-6.3632],[107.076,-6.3655],[107.0722,-6.3688],[107.0728,-6.3706],[107.075,-6.3705],[107.0729,-6.3738],[107.0697,-6.3738],[107.0694,-6.3761],[107.067,-6.3766],[107.0663,-6.3807],[107.0686,-6.3804],[107.0655,-6.3834],[107.0677,-6.3848],[107.0659,-6.3868],[107.0675,-6.3871],[107.0674,-6.3911],[107.0688,-6.3908],[107.0711,-6.3962],[107.0696,-6.3976],[107.067,-6.3971],[107.0661,-6.3944],[107.0653,-6.3989],[107.0622,-6.3997],[107.0511,-6.3947]]]}},{"type":"Feature","properties":{"name":"Sukakarya","name_en":"Sukakarya","admin_level":"6","osm_id":""},"geometry":{"type":"Polygon","coordinates":[[[107.2261,-6.2014],[107.2063,-6.1952],[107.1914,-6.1814],[107.1838,-6.1765],[107.1862,-6.1737],[107.1866,-6.1641],[107.1939,-6.161],[107.1881,-6.1478],[107.1761,-6.1532],[107.1691,-6.1537],[107.1706,-6.1482],[107.1665,-6.1434],[107.1616,-6.1413],[107.1591,-6.1366],[107.1508,-6.1364],[107.1386,-6.1331],[107.1362,-6.134],[107.1362,-6.1247],[107.1338,-6.1244],[107.1331,-6.1221],[107.1355,-6.115],[107.1377,-6.1138],[107.1427,-6.0992],[107.1639,-6.1054],[107.1726,-6.1155],[107.184,-6.115],[107.1871,-6.1127],[107.2048,-6.1207],[107.2056,-6.1332],[107.2246,-6.1708],[107.2287,-6.2023],[107.2261,-6.2014]]]}},{"type":"Feature","properties":{"name":"Sukatani","name_en":"Sukatani","admin_level":"6","osm_id":""},"geometry":{"type":"Polygon","coordinates":[[[107.1493,-6.2455],[107.1484,-6.2439],[107.1507,-6.2339],[107.1475,-6.2331],[107.1413,-6.228],[107.1252,-6.2224],[107.1284,-6.2103],[107.1286,-6.2014],[107.1266,-6.1994],[107.1298,-6.1884],[107.1323,-6.1877],[107.1349,-6.1807],[107.1347,-6.1675],[107.1601,-6.1695],[107.1609,-6.1602],[107.1641,-6.1535],[107.1761,-6.1532],[107.1881,-6.1478],[107.1939,-6.161],[107.1866,-6.1641],[107.1862,-6.1737],[107.1838,-6.1765],[107.1793,-6.1733],[107.1775,-6.1748],[107.1727,-6.205],[107.165,-6.2174],[107.1597,-6.2173],[107.1557,-6.2248],[107.1564,-6.2318],[107.1585,-6.2337],[107.1571,-6.2392],[107.159,-6.2413],[107.1577,-6.2433],[107.1589,-6.2442],[107.1568,-6.2467],[107.1541,-6.2446],[107.1505,-6.2471],[107.1493,-6.2455]]]}},{"type":"Feature","properties":{"name":"Sukawangi","name_en":"Sukawangi","admin_level":"6","osm_id":""},"geometry":{"type":"Polygon","coordinates":[[[107.1337,-6.1212],[107.1337,-6.1243],[107.1362,-6.1247],[107.1362,-6.134],[107.1392,-6.1332],[107.139,-6.1349],[107.1364,-6.135],[107.1335,-6.1423],[107.1261,-6.1483],[107.1143,-6.1428],[107.1146,-6.1538],[107.1173,-6.1602],[107.1025,-6.1583],[107.0665,-6.1575],[107.048,-6.1598],[107.0443,-6.1572],[107.0453,-6.1525],[107.0474,-6.1518],[107.0487,-6.1408],[107.0544,-6.1394],[107.0572,-6.1346],[107.0567,-6.1304],[107.0594,-6.1272],[107.0592,-6.1246],[107.0614,-6.1244],[107.0621,-6.1279],[107.0688,-6.1181],[107.0697,-6.1102],[107.067,-6.1088],[107.0645,-6.1032],[107.059,-6.1022],[107.0555,-6.0977],[107.0539,-6.091],[107.0561,-6.0866],[107.0552,-6.0852],[107.0583,-6.082],[107.0574,-6.079],[107.0608,-6.0769],[107.0621,-6.0738],[107.0689,-6.075],[107.0762,-6.0738],[107.0889,-6.0668],[107.0921,-6.0936],[107.1049,-6.0971],[107.1074,-6.0885],[107.1427,-6.0992],[107.1337,-6.1212]]]}},{"type":"Feature","properties":{"name":"Tambelang","name_en":"Tambelang","admin_level":"6","osm_id":""},"geometry":{"type":"Polygon","coordinates":[[[107.1248,-6.2164],[107.124,-6.2131],[107.1163,-6.2072],[107.1159,-6.2042],[107.1109,-6.2007],[107.1051,-6.2005],[107.1037,-6.1987],[107.106,-6.187],[107.1037,-6.1829],[107.0879,-6.1813],[107.0927,-6.1727],[107.0919,-6.1649],[107.0941,-6.1584],[107.1173,-6.1602],[107.1146,-6.1538],[107.1143,-6.1428],[107.1261,-6.1483],[107.1335,-6.1423],[107.1364,-6.135],[107.1392,-6.1338],[107.1591,-6.1366],[107.1616,-6.1413],[107.1665,-6.1434],[107.1706,-6.1482],[107.1691,-6.1537],[107.1647,-6.1533],[107.1628,-6.1554],[107.1601,-6.1695],[107.1349,-6.167],[107.1349,-6.1807],[107.1323,-6.1877],[107.1298,-6.1884],[107.1266,-6.1994],[107.1286,-6.2014],[107.1283,-6.211],[107.1264,-6.2179],[107.1248,-6.2164]]]}},{"type":"Feature","properties":{"name":"TambunSelatan","name_en":"TambunSelatan","admin_level":"6","osm_id":""},"geometry":{"type":"Polygon","coordinates":[[[107.0658,-6.278],[107.0606,-6.2801],[107.0618,-6.283],[107.061,-6.2891],[107.058,-6.2917],[107.059,-6.2969],[107.0569,-6.2992],[107.0566,-6.3063],[107.04,-6.3074],[107.0383,-6.3063],[107.0409,-6.2961],[107.0401,-6.2877],[107.0375,-6.2837],[107.0314,-6.2821],[107.0281,-6.2779],[107.0225,-6.2804],[107.0212,-6.2776],[107.0166,-6.2761],[107.0178,-6.2713],[107.0164,-6.2702],[107.0164,-6.2656],[107.0178,-6.2628],[107.02,-6.2636],[107.0244,-6.255],[107.0296,-6.253],[107.0306,-6.2499],[107.0351,-6.2467],[107.0415,-6.2462],[107.0423,-6.2339],[107.0452,-6.2339],[107.0458,-6.2367],[107.049,-6.2368],[107.0505,-6.2399],[107.0522,-6.2385],[107.0503,-6.2246],[107.0543,-6.2215],[107.0563,-6.2221],[107.0626,-6.2185],[107.0636,-6.2215],[107.0624,-6.2256],[107.0657,-6.2283],[107.0614,-6.241],[107.0639,-6.2418],[107.0644,-6.2366],[107.0679,-6.2306],[107.0671,-6.2218],[107.0708,-6.2194],[107.0694,-6.2148],[107.0712,-6.2096],[107.0759,-6.2068],[107.0771,-6.1989],[107.079,-6.1968],[107.0878,-6.2237],[107.0906,-6.2258],[107.0907,-6.23],[107.0867,-6.2299],[107.0853,-6.2312],[107.0884,-6.2378],[107.0821,-6.2369],[107.0813,-6.2492],[107.0763,-6.2566],[107.0762,-6.2593],[107.0733,-6.2613],[107.0732,-6.2629],[107.0751,-6.263],[107.0752,-6.2664],[107.0797,-6.2673],[107.0792,-6.2697],[107.0762,-6.2719],[107.068,-6.272],[107.0658,-6.278]]]}},{"type":"Feature","properties":{"name":"TambunUtara","name_en":"TambunUtara","admin_level":"6","osm_id":""},"geometry":{"type":"Polygon","coordinates":[[[107.0783,-6.1946],[107.079,-6.1968],[107.0771,-6.1989],[107.076,-6.2066],[107.0712,-6.2096],[107.0694,-6.2148],[107.0705,-6.2205],[107.0671,-6.2218],[107.0679,-6.2306],[107.0644,-6.2366],[107.0639,-6.2418],[107.0614,-6.241],[107.0657,-6.2283],[107.0624,-6.2256],[107.0636,-6.2215],[107.0626,-6.2185],[107.0563,-6.2221],[107.0543,-6.2215],[107.0503,-6.2246],[107.0506,-6.232],[107.0524,-6.2342],[107.0523,-6.2383],[107.0505,-6.2399],[107.049,-6.2368],[107.0458,-6.2367],[107.0452,-6.2339],[107.0387,-6.2323],[107.0352,-6.2266],[107.0304,-6.2267],[107.033,-6.2201],[107.0309,-6.2151],[107.0338,-6.2124],[107.0322,-6.2084],[107.0343,-6.2052],[107.0384,-6.2062],[107.0406,-6.2006],[107.0434,-6.1996],[107.0415,-6.1958],[107.0445,-6.1863],[107.0435,-6.1852],[107.0411,-6.1862],[107.0404,-6.1838],[107.043,-6.1821],[107.0424,-6.1798],[107.0445,-6.1762],[107.048,-6.174],[107.0464,-6.1699],[107.049,-6.1695],[107.0495,-6.1654],[107.0465,-6.1597],[107.0659,-6.1576],[107.0941,-6.1584],[107.0919,-6.1649],[107.0927,-6.1727],[107.0893,-6.1775],[107.0864,-6.1874],[107.0811,-6.1875],[107.0811,-6.1934],[107.0779,-6.1933],[107.0783,-6.1946]]]}},{"type":"Feature","properties":{"name":"Tarumajaya","name_en":"Tarumajaya","admin_level":"6","osm_id":""},"geometry":{"type":"Polygon","coordinates":[[[106.9711,-6.1663],[106.9717,-6.1461],[106.9728,-6.1462],[106.9707,-6.1399],[106.969,-6.0907],[106.9904,-6.0876],[106.9971,-6.0815],[106.996,-6.0777],[106.9979,-6.0768],[107.0072,-6.0821],[107.0077,-6.0807],[107.0156,-6.0796],[107.0162,-6.0776],[107.011,-6.0738],[107.0125,-6.0707],[107.0164,-6.0692],[107.0229,-6.0734],[107.0247,-6.0781],[107.0296,-6.0796],[107.0316,-6.082],[107.0291,-6.0838],[107.0295,-6.094],[107.028,-6.0945],[107.0306,-6.0994],[107.0316,-6.1114],[107.0253,-6.1218],[107.0211,-6.124],[107.0197,-6.134],[107.0167,-6.1335],[107.0123,-6.1388],[107.0086,-6.1388],[107.0106,-6.1405],[107.0095,-6.1434],[107.0114,-6.1487],[107.0095,-6.1515],[107.0086,-6.1629],[107.0087,-6.1677],[107.0114,-6.1683],[107.0107,-6.1724],[106.9716,-6.1722],[106.9711,-6.1663]]]}}]}