{"type":"FeatureCollection","metadata":{"parent_osm_id":"13219266","parent_name":"Sinjai","parent_name_1":"SulawesiSelatan","parent_gid":"IDN.26.19_1","parent_level":"5","child_level":"6","count":9,"source":"GADM 4.1","generated":"2026-05-09"},"features":[{"type":"Feature","properties":{"name":"Bulupoddo","name_en":"Bulupoddo","admin_level":"6","osm_id":""},"geometry":{"type":"Polygon","coordinates":[[[120.1479,-5.1272],[120.1417,-5.1302],[120.1284,-5.1311],[120.1184,-5.1369],[120.0987,-5.1369],[120.0926,-5.1412],[120.0843,-5.1549],[120.0734,-5.146],[120.069,-5.1368],[120.0658,-5.136],[120.0617,-5.13],[120.0605,-5.1131],[120.0651,-5.1049],[120.064,-5.0997],[120.072,-5.0987],[120.0727,-5.0926],[120.0765,-5.0905],[120.0768,-5.0844],[120.0796,-5.0831],[120.0814,-5.0781],[120.0854,-5.0752],[120.0966,-5.076],[120.1061,-5.0713],[120.1093,-5.0671],[120.1094,-5.0628],[120.1159,-5.0585],[120.1196,-5.0588],[120.1251,-5.0481],[120.1247,-5.0454],[120.1315,-5.0443],[120.1333,-5.0461],[120.1328,-5.0484],[120.1385,-5.0541],[120.1373,-5.0571],[120.1468,-5.0606],[120.1509,-5.0579],[120.1518,-5.0605],[120.1502,-5.065],[120.1513,-5.0656],[120.1591,-5.063],[120.1615,-5.0656],[120.162,-5.07],[120.1598,-5.0734],[120.164,-5.0784],[120.1685,-5.0743],[120.1746,-5.0762],[120.1809,-5.0692],[120.1841,-5.0713],[120.1859,-5.069],[120.1884,-5.0693],[120.1879,-5.0746],[120.1906,-5.0738],[120.1909,-5.0756],[120.1883,-5.0779],[120.1883,-5.0801],[120.1894,-5.0807],[120.1919,-5.0786],[120.1952,-5.0801],[120.1938,-5.0821],[120.1955,-5.0849],[120.1954,-5.0903],[120.1977,-5.0899],[120.2015,-5.0963],[120.2068,-5.1],[120.2103,-5.0986],[120.2076,-5.1047],[120.2078,-5.1096],[120.2045,-5.1114],[120.1997,-5.1184],[120.1947,-5.1122],[120.1918,-5.116],[120.1892,-5.1143],[120.1883,-5.1166],[120.1816,-5.1166],[120.1809,-5.1193],[120.1826,-5.1197],[120.1813,-5.1219],[120.1785,-5.1205],[120.1766,-5.1225],[120.1735,-5.1196],[120.1716,-5.1219],[120.1673,-5.1209],[120.1586,-5.1246],[120.1528,-5.1238],[120.1479,-5.1272]]]}},{"type":"Feature","properties":{"name":"PulauSembilan","name_en":"PulauSembilan","admin_level":"6","osm_id":""},"geometry":{"type":"Polygon","coordinates":[[[120.4251,-5.0539],[120.4278,-5.0586],[120.4254,-5.0591],[120.4197,-5.0547],[120.4133,-5.0537],[120.4126,-5.0496],[120.4166,-5.0491],[120.4187,-5.0442],[120.4218,-5.0428],[120.4251,-5.0539]]]}},{"type":"Feature","properties":{"name":"SinjaiBarat","name_en":"SinjaiBarat","admin_level":"6","osm_id":""},"geometry":{"type":"Polygon","coordinates":[[[119.9532,-5.356],[119.9412,-5.3548],[119.9368,-5.3563],[119.9332,-5.353],[119.9291,-5.3382],[119.9378,-5.3248],[119.941,-5.3168],[119.9449,-5.3132],[119.9453,-5.3071],[119.9543,-5.2904],[119.9633,-5.2818],[119.966,-5.2822],[119.9741,-5.277],[119.9731,-5.2705],[119.9765,-5.2661],[119.976,-5.257],[119.9807,-5.2476],[119.9862,-5.2439],[119.9876,-5.2391],[119.9916,-5.2371],[119.9977,-5.2307],[119.9963,-5.2249],[119.9972,-5.2189],[119.9963,-5.2179],[119.9946,-5.219],[119.9932,-5.2165],[119.9919,-5.2059],[119.9948,-5.2063],[119.9948,-5.2039],[119.9972,-5.203],[119.9954,-5.2016],[119.9972,-5.1994],[119.9998,-5.2],[120.0014,-5.1986],[120.0041,-5.2004],[120.0029,-5.1978],[120.0039,-5.1967],[120.0065,-5.1986],[120.0105,-5.1976],[120.0147,-5.1999],[120.0231,-5.1977],[120.026,-5.2004],[120.0268,-5.1973],[120.025,-5.1935],[120.0289,-5.1929],[120.0327,-5.1846],[120.0293,-5.1857],[120.027,-5.1838],[120.0225,-5.1833],[120.0203,-5.1766],[120.0093,-5.1708],[120.0035,-5.1654],[119.986,-5.1675],[119.9768,-5.1636],[119.9722,-5.1577],[119.9749,-5.1505],[119.9727,-5.142],[119.9691,-5.1366],[119.9693,-5.1337],[119.9827,-5.123],[119.987,-5.13],[119.9946,-5.1302],[120.0,-5.1327],[120.0111,-5.1226],[120.0147,-5.1243],[120.0188,-5.1317],[120.0215,-5.13],[120.0237,-5.1309],[120.0272,-5.1275],[120.0318,-5.1291],[120.0408,-5.1261],[120.0537,-5.1267],[120.0609,-5.1226],[120.0613,-5.1291],[120.0658,-5.136],[120.069,-5.1368],[120.0734,-5.146],[120.0843,-5.1549],[120.0639,-5.1788],[120.0581,-5.1811],[120.0561,-5.1927],[120.0522,-5.197],[120.0478,-5.2081],[120.0353,-5.2187],[120.0349,-5.2241],[120.037,-5.2257],[120.0407,-5.2343],[120.0393,-5.2414],[120.0449,-5.2472],[120.051,-5.2506],[120.0456,-5.2539],[120.0273,-5.2734],[120.0208,-5.2768],[120.0203,-5.2802],[120.0174,-5.2841],[120.0147,-5.2851],[120.0047,-5.3043],[119.9978,-5.3055],[119.9955,-5.3129],[119.996,-5.3225],[119.9929,-5.3264],[119.9682,-5.342],[119.9623,-5.3416],[119.9583,-5.3435],[119.955,-5.3517],[119.9551,-5.3552],[119.9532,-5.356]]]}},{"type":"Feature","properties":{"name":"SinjaiBorong","name_en":"SinjaiBorong","admin_level":"6","osm_id":""},"geometry":{"type":"Polygon","coordinates":[[[120.0509,-5.3411],[120.0397,-5.347],[120.0374,-5.3459],[120.037,-5.3423],[120.0335,-5.3415],[120.0329,-5.3394],[120.02,-5.3381],[120.0138,-5.3309],[120.0121,-5.3253],[120.0079,-5.3247],[120.0054,-5.3225],[119.996,-5.3225],[119.9964,-5.309],[119.9978,-5.3055],[120.0047,-5.3043],[120.0147,-5.2851],[120.0174,-5.2841],[120.0203,-5.2802],[120.0208,-5.2768],[120.0273,-5.2734],[120.0477,-5.2521],[120.0519,-5.2513],[120.0567,-5.2605],[120.0648,-5.2586],[120.0699,-5.2516],[120.0742,-5.2652],[120.0838,-5.2687],[120.0902,-5.2734],[120.0873,-5.2782],[120.084,-5.2799],[120.0842,-5.2837],[120.0898,-5.2913],[120.0906,-5.2962],[120.0889,-5.2996],[120.0842,-5.3],[120.0854,-5.3042],[120.0841,-5.3076],[120.0915,-5.3102],[120.0934,-5.3077],[120.0952,-5.3103],[120.1008,-5.3121],[120.1029,-5.3162],[120.098,-5.3168],[120.0972,-5.3223],[120.0895,-5.3211],[120.0816,-5.324],[120.0767,-5.3328],[120.0743,-5.3332],[120.0734,-5.3355],[120.0615,-5.3331],[120.0509,-5.3411]]]}},{"type":"Feature","properties":{"name":"SinjaiSelatan","name_en":"SinjaiSelatan","admin_level":"6","osm_id":""},"geometry":{"type":"Polygon","coordinates":[[[120.1296,-5.308],[120.1254,-5.3066],[120.1249,-5.3119],[120.1216,-5.3107],[120.1156,-5.3146],[120.1143,-5.3135],[120.1077,-5.3162],[120.1061,-5.3137],[120.1032,-5.3165],[120.1008,-5.3121],[120.0952,-5.3103],[120.0934,-5.3077],[120.0918,-5.3102],[120.0846,-5.3083],[120.0854,-5.3038],[120.0842,-5.3],[120.0889,-5.2996],[120.0906,-5.2962],[120.0898,-5.2913],[120.0842,-5.2837],[120.084,-5.2799],[120.0873,-5.2782],[120.0902,-5.2734],[120.0838,-5.2687],[120.0742,-5.2652],[120.0701,-5.2508],[120.0776,-5.246],[120.089,-5.2435],[120.1025,-5.2336],[120.1157,-5.2307],[120.1357,-5.2207],[120.14,-5.2142],[120.1435,-5.2041],[120.1439,-5.2004],[120.141,-5.195],[120.1426,-5.1898],[120.1402,-5.1796],[120.1451,-5.1758],[120.1435,-5.1738],[120.1442,-5.1722],[120.1489,-5.1716],[120.1511,-5.1731],[120.1541,-5.171],[120.1602,-5.1712],[120.1633,-5.1689],[120.1655,-5.1707],[120.1669,-5.168],[120.1716,-5.1665],[120.1747,-5.1633],[120.1808,-5.1654],[120.1844,-5.1635],[120.1849,-5.1675],[120.1873,-5.1634],[120.1897,-5.1667],[120.1916,-5.1619],[120.1902,-5.157],[120.1926,-5.1591],[120.1972,-5.1597],[120.1984,-5.1576],[120.2002,-5.1603],[120.2036,-5.1593],[120.2046,-5.1628],[120.2078,-5.1658],[120.2089,-5.1707],[120.2127,-5.1709],[120.2111,-5.1734],[120.2067,-5.1737],[120.2086,-5.1754],[120.2154,-5.1742],[120.217,-5.1702],[120.2201,-5.1713],[120.2211,-5.1742],[120.2288,-5.1766],[120.2312,-5.1792],[120.2324,-5.176],[120.2351,-5.1772],[120.2367,-5.181],[120.2399,-5.1824],[120.2405,-5.1874],[120.2448,-5.1933],[120.2446,-5.1972],[120.2424,-5.1984],[120.2408,-5.1969],[120.2355,-5.1992],[120.2329,-5.207],[120.2229,-5.2176],[120.2222,-5.2234],[120.2185,-5.2317],[120.2172,-5.2318],[120.2169,-5.2288],[120.2099,-5.228],[120.2079,-5.2262],[120.2046,-5.2278],[120.2022,-5.2268],[120.2008,-5.2283],[120.1959,-5.225],[120.1915,-5.2274],[120.1931,-5.2281],[120.1924,-5.2291],[120.1891,-5.2288],[120.1889,-5.2301],[120.1855,-5.2283],[120.1833,-5.231],[120.1797,-5.2308],[120.1797,-5.2339],[120.1776,-5.232],[120.1743,-5.2388],[120.1756,-5.2398],[120.1749,-5.2418],[120.1718,-5.2428],[120.1752,-5.2449],[120.1698,-5.2509],[120.1696,-5.2531],[120.1671,-5.2533],[120.1609,-5.2599],[120.1625,-5.2617],[120.1621,-5.2666],[120.1582,-5.2718],[120.1595,-5.2766],[120.1574,-5.2771],[120.1579,-5.2789],[120.1561,-5.2788],[120.1566,-5.2808],[120.1544,-5.2808],[120.1495,-5.2857],[120.1401,-5.2885],[120.1405,-5.2899],[120.1361,-5.2945],[120.1349,-5.3004],[120.1301,-5.3049],[120.131,-5.3061],[120.1296,-5.308]]]}},{"type":"Feature","properties":{"name":"SinjaiTengah","name_en":"SinjaiTengah","admin_level":"6","osm_id":""},"geometry":{"type":"Polygon","coordinates":[[[120.0479,-5.2487],[120.0393,-5.2414],[120.0407,-5.2343],[120.037,-5.2257],[120.0349,-5.2241],[120.0353,-5.2187],[120.0478,-5.2081],[120.0522,-5.197],[120.0561,-5.1927],[120.0581,-5.1811],[120.0639,-5.1788],[120.0802,-5.1611],[120.0944,-5.1394],[120.1025,-5.1363],[120.1184,-5.1369],[120.1284,-5.1311],[120.1417,-5.1302],[120.147,-5.1287],[120.1528,-5.1238],[120.1586,-5.1246],[120.1673,-5.1209],[120.1716,-5.1219],[120.1735,-5.1196],[120.1766,-5.1225],[120.1785,-5.1205],[120.1813,-5.1219],[120.1826,-5.1197],[120.1809,-5.1193],[120.1816,-5.1166],[120.1883,-5.1166],[120.1892,-5.1143],[120.1918,-5.116],[120.1947,-5.1122],[120.1973,-5.1166],[120.1992,-5.1168],[120.1989,-5.1183],[120.2015,-5.1182],[120.2036,-5.1211],[120.2083,-5.1207],[120.209,-5.1249],[120.214,-5.1295],[120.212,-5.134],[120.2091,-5.1314],[120.2071,-5.1316],[120.2063,-5.1342],[120.2043,-5.1345],[120.2026,-5.1425],[120.1978,-5.143],[120.1908,-5.1496],[120.19,-5.1577],[120.1916,-5.1619],[120.1902,-5.1664],[120.1873,-5.1634],[120.1849,-5.1675],[120.1844,-5.1635],[120.1808,-5.1654],[120.1747,-5.1633],[120.1716,-5.1665],[120.1669,-5.168],[120.1655,-5.1707],[120.1628,-5.1689],[120.1596,-5.1714],[120.1571,-5.1704],[120.1511,-5.1731],[120.1483,-5.1715],[120.1436,-5.1729],[120.1451,-5.1758],[120.1402,-5.1796],[120.1426,-5.1898],[120.141,-5.195],[120.1439,-5.2004],[120.1435,-5.2041],[120.14,-5.2142],[120.1351,-5.2214],[120.1157,-5.2307],[120.1025,-5.2336],[120.089,-5.2435],[120.0721,-5.2487],[120.064,-5.259],[120.0562,-5.2604],[120.0526,-5.252],[120.0479,-5.2487]]]}},{"type":"Feature","properties":{"name":"SinjaiTimur","name_en":"SinjaiTimur","admin_level":"6","osm_id":""},"geometry":{"type":"Polygon","coordinates":[[[120.2762,-5.1585],[120.2778,-5.1715],[120.2815,-5.1761],[120.2845,-5.1851],[120.2962,-5.2034],[120.3076,-5.2119],[120.3112,-5.217],[120.3131,-5.2259],[120.3011,-5.228],[120.2983,-5.2252],[120.2932,-5.2236],[120.2893,-5.2178],[120.2865,-5.2197],[120.2799,-5.2139],[120.2783,-5.2151],[120.279,-5.2203],[120.2743,-5.2206],[120.2762,-5.2253],[120.2737,-5.2248],[120.271,-5.2284],[120.2669,-5.2283],[120.2663,-5.2233],[120.2625,-5.2228],[120.2619,-5.2263],[120.2646,-5.2298],[120.2606,-5.2344],[120.2596,-5.228],[120.2559,-5.2245],[120.254,-5.2255],[120.2531,-5.2295],[120.2493,-5.2321],[120.2445,-5.229],[120.2417,-5.2319],[120.2387,-5.2255],[120.2324,-5.2311],[120.2288,-5.2289],[120.2259,-5.2301],[120.2221,-5.2272],[120.2196,-5.2299],[120.2229,-5.2176],[120.2329,-5.207],[120.2355,-5.1992],[120.2411,-5.1969],[120.2436,-5.198],[120.2448,-5.1933],[120.2405,-5.1874],[120.2396,-5.1818],[120.2367,-5.181],[120.2336,-5.1761],[120.2321,-5.1762],[120.2312,-5.1792],[120.2288,-5.1766],[120.2211,-5.1742],[120.2201,-5.1713],[120.217,-5.1702],[120.2151,-5.1743],[120.2102,-5.1756],[120.207,-5.1744],[120.2118,-5.1731],[120.2127,-5.1709],[120.2089,-5.1707],[120.2078,-5.1658],[120.2046,-5.1628],[120.2033,-5.1591],[120.2002,-5.1603],[120.1984,-5.1576],[120.1972,-5.1597],[120.1926,-5.1591],[120.1902,-5.157],[120.1908,-5.1496],[120.1978,-5.143],[120.2026,-5.1425],[120.2043,-5.1345],[120.2063,-5.1342],[120.2075,-5.1312],[120.2142,-5.1361],[120.217,-5.133],[120.2203,-5.1371],[120.2222,-5.1354],[120.2208,-5.1336],[120.2222,-5.1308],[120.2275,-5.1326],[120.2289,-5.1298],[120.2351,-5.1328],[120.2399,-5.1328],[120.2412,-5.1346],[120.2394,-5.1385],[120.2451,-5.1377],[120.2448,-5.1419],[120.2476,-5.1404],[120.25,-5.1348],[120.254,-5.1319],[120.2563,-5.1276],[120.2583,-5.1272],[120.2645,-5.1305],[120.2696,-5.1301],[120.2736,-5.1353],[120.2743,-5.1395],[120.2707,-5.143],[120.273,-5.1478],[120.2765,-5.15],[120.2754,-5.1527],[120.2762,-5.1585]]]}},{"type":"Feature","properties":{"name":"SinjaiUtara","name_en":"SinjaiUtara","admin_level":"6","osm_id":""},"geometry":{"type":"Polygon","coordinates":[[[120.2193,-5.1356],[120.2168,-5.133],[120.2136,-5.1358],[120.212,-5.134],[120.2141,-5.1289],[120.2116,-5.1283],[120.209,-5.1249],[120.2083,-5.1207],[120.2036,-5.1211],[120.202,-5.1185],[120.1997,-5.118],[120.2027,-5.1157],[120.2045,-5.1114],[120.2078,-5.1096],[120.2076,-5.1047],[120.2103,-5.0986],[120.2121,-5.0998],[120.214,-5.0983],[120.2167,-5.0999],[120.2211,-5.0973],[120.2207,-5.0939],[120.2253,-5.0926],[120.2281,-5.0963],[120.232,-5.0921],[120.2317,-5.0875],[120.241,-5.0927],[120.248,-5.0932],[120.2502,-5.0951],[120.2497,-5.0969],[120.257,-5.1088],[120.2595,-5.1159],[120.2624,-5.1166],[120.2655,-5.1141],[120.2634,-5.105],[120.2651,-5.1013],[120.2735,-5.1079],[120.2862,-5.1122],[120.2897,-5.1151],[120.2866,-5.1221],[120.2835,-5.124],[120.2752,-5.1355],[120.2696,-5.1301],[120.2645,-5.1305],[120.2576,-5.1272],[120.2503,-5.1344],[120.2476,-5.1404],[120.2448,-5.1419],[120.2451,-5.1377],[120.2402,-5.139],[120.2392,-5.1381],[120.2408,-5.1332],[120.2351,-5.1328],[120.2289,-5.1298],[120.2275,-5.1326],[120.2218,-5.131],[120.2208,-5.1336],[120.222,-5.1356],[120.2203,-5.1371],[120.2193,-5.1356]]]}},{"type":"Feature","properties":{"name":"TelluLimpoe","name_en":"TelluLimpoe","admin_level":"6","osm_id":""},"geometry":{"type":"Polygon","coordinates":[[[120.1656,-5.3079],[120.1601,-5.3032],[120.1501,-5.2997],[120.1412,-5.2885],[120.1495,-5.2857],[120.1544,-5.2808],[120.1566,-5.2808],[120.1561,-5.2788],[120.1579,-5.2789],[120.1574,-5.2771],[120.1595,-5.2766],[120.1582,-5.2718],[120.1621,-5.2666],[120.1625,-5.2617],[120.1609,-5.2599],[120.1671,-5.2533],[120.1696,-5.2531],[120.1698,-5.2509],[120.1752,-5.2449],[120.1718,-5.2428],[120.1749,-5.2418],[120.1756,-5.2398],[120.1743,-5.2388],[120.1776,-5.232],[120.1797,-5.2339],[120.1797,-5.2308],[120.1833,-5.231],[120.1855,-5.2283],[120.1889,-5.2301],[120.1891,-5.2288],[120.1924,-5.2291],[120.1931,-5.2281],[120.1915,-5.2274],[120.1959,-5.225],[120.2008,-5.2283],[120.2022,-5.2268],[120.2046,-5.2278],[120.2079,-5.2262],[120.2099,-5.228],[120.2169,-5.2288],[120.2175,-5.232],[120.2221,-5.2272],[120.2259,-5.2301],[120.2288,-5.2289],[120.2324,-5.2311],[120.239,-5.2255],[120.2417,-5.2319],[120.2445,-5.229],[120.2493,-5.2321],[120.2531,-5.2295],[120.2555,-5.2244],[120.2595,-5.2277],[120.2606,-5.2344],[120.2646,-5.2298],[120.2619,-5.2263],[120.2625,-5.2228],[120.2663,-5.2233],[120.2669,-5.2283],[120.271,-5.2284],[120.2737,-5.2248],[120.2762,-5.2253],[120.2743,-5.2206],[120.279,-5.2203],[120.2783,-5.2151],[120.2797,-5.2139],[120.2865,-5.2197],[120.2893,-5.2178],[120.2932,-5.2236],[120.2983,-5.2252],[120.3011,-5.228],[120.3043,-5.2265],[120.3151,-5.2272],[120.314,-5.2329],[120.3178,-5.2369],[120.3244,-5.2511],[120.3278,-5.2654],[120.3273,-5.2701],[120.3346,-5.2868],[120.3324,-5.29],[120.3286,-5.2886],[120.3256,-5.2908],[120.3209,-5.2902],[120.3186,-5.2949],[120.3132,-5.2975],[120.3116,-5.2953],[120.3067,-5.2941],[120.3082,-5.2974],[120.305,-5.3015],[120.3022,-5.3009],[120.3012,-5.2989],[120.3029,-5.2963],[120.3015,-5.2952],[120.3017,-5.2915],[120.2979,-5.2906],[120.2989,-5.2881],[120.2946,-5.2899],[120.2918,-5.2867],[120.2911,-5.2891],[120.2888,-5.2866],[120.2857,-5.2874],[120.2849,-5.2903],[120.2815,-5.2901],[120.2832,-5.2928],[120.2805,-5.2941],[120.2813,-5.2969],[120.2794,-5.2952],[120.2772,-5.2967],[120.2785,-5.2976],[120.2773,-5.3012],[120.2756,-5.2988],[120.2722,-5.2995],[120.2703,-5.2972],[120.2668,-5.2983],[120.258,-5.2972],[120.2581,-5.2989],[120.2549,-5.3003],[120.2544,-5.3022],[120.2458,-5.3011],[120.2465,-5.2994],[120.2419,-5.2971],[120.2391,-5.2984],[120.2373,-5.2968],[120.231,-5.2977],[120.2302,-5.2966],[120.2228,-5.3001],[120.2238,-5.3011],[120.2217,-5.3033],[120.2024,-5.3006],[120.1964,-5.3056],[120.1897,-5.3065],[120.1771,-5.3128],[120.1741,-5.311],[120.1692,-5.3113],[120.1656,-5.3079]]]}}]}