{"type":"FeatureCollection","metadata":{"parent_osm_id":"13757970","parent_name":"Sarolangun","parent_name_1":"Jambi","parent_gid":"IDN.8.7_1","parent_level":"5","child_level":"6","count":10,"source":"GADM 4.1","generated":"2026-05-09"},"features":[{"type":"Feature","properties":{"name":"AirHitam","name_en":"AirHitam","admin_level":"6","osm_id":""},"geometry":{"type":"Polygon","coordinates":[[[102.8209,-2.0575],[102.8209,-2.0794],[102.806,-2.0733],[102.7929,-2.0733],[102.7921,-2.0812],[102.7973,-2.0856],[102.7938,-2.0952],[102.7746,-2.1172],[102.7606,-2.1206],[102.744,-2.1153],[102.7195,-2.1136],[102.6726,-2.1033],[102.6589,-2.1036],[102.6471,-2.0985],[102.6323,-2.0967],[102.6151,-2.103],[102.6142,-2.102],[102.5892,-2.1027],[102.5778,-2.0995],[102.5574,-2.0818],[102.5286,-2.0471],[102.509,-2.0337],[102.4998,-2.0216],[102.4941,-2.0182],[102.4877,-2.0112],[102.4949,-2.0085],[102.4914,-2.006],[102.4864,-1.9976],[102.4882,-1.9834],[102.4831,-1.9776],[102.4748,-1.9739],[102.4702,-1.9525],[102.4658,-1.9452],[102.4619,-1.9259],[102.4597,-1.915],[102.4595,-1.8973],[102.465,-1.8945],[102.497,-1.9045],[102.5174,-1.9156],[102.5229,-1.9149],[102.5357,-1.9086],[102.5403,-1.9087],[102.5569,-1.9162],[102.5627,-1.9173],[102.5903,-1.9102],[102.5996,-1.9109],[102.6404,-1.9249],[102.6461,-1.9233],[102.6523,-1.9246],[102.6741,-1.9344],[102.6796,-1.9395],[102.6967,-1.9451],[102.7052,-1.9518],[102.7064,-1.9564],[102.7117,-1.9596],[102.7153,-1.9598],[102.7208,-1.9571],[102.7326,-1.9492],[102.7446,-1.9509],[102.7504,-1.9543],[102.761,-1.9501],[102.7773,-1.9473],[102.7966,-1.955],[102.8146,-1.949],[102.8166,-1.9496],[102.8206,-1.9691],[102.8195,-1.9739],[102.8153,-1.9777],[102.8114,-1.9925],[102.8227,-2.0015],[102.8227,-2.0408],[102.8209,-2.0575]]]}},{"type":"Feature","properties":{"name":"Batangasai","name_en":"Batangasai","admin_level":"6","osm_id":""},"geometry":{"type":"Polygon","coordinates":[[[102.0739,-2.7622],[102.0759,-2.7584],[102.0768,-2.742],[102.0824,-2.7261],[102.0776,-2.7038],[102.0879,-2.6901],[102.0848,-2.6847],[102.0834,-2.6756],[102.0832,-2.655],[102.0694,-2.6368],[102.0631,-2.6243],[102.0635,-2.622],[102.0693,-2.6172],[102.0856,-2.6094],[102.0976,-2.6058],[102.1037,-2.6017],[102.1037,-2.5965],[102.0956,-2.5812],[102.0939,-2.5649],[102.1408,-2.5203],[102.1565,-2.5086],[102.1528,-2.496],[102.1529,-2.4883],[102.1485,-2.4763],[102.1427,-2.4684],[102.1306,-2.4418],[102.1222,-2.4274],[102.1232,-2.4162],[102.1295,-2.4113],[102.1829,-2.4102],[102.192,-2.4081],[102.2129,-2.397],[102.2221,-2.3974],[102.2572,-2.3646],[102.2641,-2.3654],[102.2651,-2.3622],[102.2722,-2.3567],[102.2922,-2.351],[102.2953,-2.3522],[102.2946,-2.3611],[102.2967,-2.3672],[102.2953,-2.3721],[102.3008,-2.3821],[102.3011,-2.3862],[102.3035,-2.3871],[102.3255,-2.3843],[102.3293,-2.3834],[102.3303,-2.3816],[102.335,-2.3829],[102.3522,-2.3794],[102.3617,-2.3719],[102.3666,-2.3664],[102.3655,-2.3621],[102.3701,-2.3602],[102.3732,-2.3565],[102.3789,-2.3625],[102.3961,-2.3737],[102.4137,-2.3829],[102.4112,-2.3922],[102.4069,-2.3985],[102.4124,-2.4104],[102.4083,-2.4186],[102.4052,-2.4199],[102.4011,-2.4253],[102.4034,-2.4322],[102.3978,-2.4382],[102.3998,-2.4416],[102.3972,-2.4462],[102.4006,-2.4495],[102.4156,-2.4515],[102.4151,-2.4662],[102.4079,-2.4792],[102.3902,-2.499],[102.3755,-2.5057],[102.3699,-2.5136],[102.3734,-2.5237],[102.382,-2.5329],[102.3862,-2.5342],[102.39,-2.5377],[102.3997,-2.5522],[102.3969,-2.5557],[102.3987,-2.5683],[102.3961,-2.5771],[102.3771,-2.5864],[102.3729,-2.5917],[102.3711,-2.5973],[102.3616,-2.6041],[102.3596,-2.6121],[102.3556,-2.6174],[102.3465,-2.6181],[102.3359,-2.6265],[102.3232,-2.629],[102.3086,-2.6365],[102.3024,-2.6372],[102.2963,-2.6325],[102.2807,-2.6144],[102.2765,-2.6139],[102.2592,-2.6211],[102.251,-2.6312],[102.2497,-2.6396],[102.2507,-2.6419],[102.247,-2.6397],[102.2455,-2.6426],[102.2477,-2.6476],[102.2452,-2.6497],[102.2416,-2.6615],[102.2434,-2.6674],[102.2425,-2.6698],[102.2367,-2.6742],[102.2363,-2.6884],[102.2345,-2.6914],[102.2219,-2.698],[102.2119,-2.6987],[102.205,-2.703],[102.1903,-2.7077],[102.1856,-2.7082],[102.1803,-2.7062],[102.1729,-2.7076],[102.1656,-2.7141],[102.1448,-2.7214],[102.1338,-2.7279],[102.1257,-2.7293],[102.1229,-2.7338],[102.1162,-2.7358],[102.1109,-2.7414],[102.1097,-2.7462],[102.106,-2.748],[102.1035,-2.755],[102.1001,-2.7577],[102.0985,-2.765],[102.0938,-2.768],[102.0922,-2.7712],[102.0725,-2.7649],[102.0739,-2.7622]]]}},{"type":"Feature","properties":{"name":"BatinViii","name_en":"BatinViii","admin_level":"6","osm_id":""},"geometry":{"type":"Polygon","coordinates":[[[102.6383,-2.2168],[102.6341,-2.2218],[102.6165,-2.3316],[102.605,-2.3376],[102.5907,-2.3377],[102.5851,-2.3327],[102.5851,-2.3301],[102.5813,-2.3301],[102.5716,-2.3262],[102.571,-2.3223],[102.555,-2.3236],[102.5492,-2.3145],[102.546,-2.3126],[102.5421,-2.3126],[102.5363,-2.3081],[102.5312,-2.3074],[102.5235,-2.3106],[102.5209,-2.308],[102.501,-2.3183],[102.4939,-2.3164],[102.4914,-2.319],[102.4914,-2.3222],[102.483,-2.3222],[102.4824,-2.3254],[102.4766,-2.326],[102.474,-2.3338],[102.4721,-2.3325],[102.4624,-2.3415],[102.461,-2.3456],[102.4351,-2.3278],[102.4295,-2.3219],[102.4218,-2.319],[102.4054,-2.3083],[102.4241,-2.247],[102.4369,-2.2445],[102.4502,-2.2239],[102.461,-2.1958],[102.4739,-2.1988],[102.4893,-2.1998],[102.5009,-2.2002],[102.5096,-2.1972],[102.5169,-2.1998],[102.5574,-2.2065],[102.5746,-2.2023],[102.589,-2.1955],[102.6076,-2.176],[102.6149,-2.1604],[102.6178,-2.1578],[102.6485,-2.1652],[102.6617,-2.1646],[102.6834,-2.1763],[102.6726,-2.1865],[102.6548,-2.1974],[102.6383,-2.2168]]]}},{"type":"Feature","properties":{"name":"CerminNanGedan","name_en":"CerminNanGedan","admin_level":"6","osm_id":""},"geometry":{"type":"Polygon","coordinates":[[[102.3737,-2.3491],[102.3927,-2.3311],[102.3952,-2.3222],[102.4038,-2.3137],[102.4054,-2.3083],[102.4218,-2.319],[102.4295,-2.3219],[102.4351,-2.3278],[102.461,-2.3456],[102.4624,-2.3415],[102.4721,-2.3325],[102.474,-2.3338],[102.4766,-2.326],[102.4824,-2.3254],[102.483,-2.3222],[102.4914,-2.3222],[102.4914,-2.319],[102.4939,-2.3164],[102.501,-2.3183],[102.5209,-2.308],[102.5235,-2.3106],[102.5312,-2.3074],[102.5363,-2.3081],[102.5421,-2.3126],[102.546,-2.3126],[102.5492,-2.3145],[102.555,-2.3236],[102.571,-2.3223],[102.5716,-2.3262],[102.5813,-2.3301],[102.5851,-2.3301],[102.5851,-2.3327],[102.5907,-2.3377],[102.605,-2.3376],[102.6189,-2.3305],[102.6224,-2.3319],[102.6283,-2.3393],[102.6295,-2.3446],[102.6344,-2.3512],[102.6389,-2.3635],[102.6539,-2.3767],[102.6323,-2.4041],[102.5921,-2.4367],[102.4693,-2.485],[102.4138,-2.5044],[102.37,-2.5138],[102.3755,-2.5057],[102.3902,-2.499],[102.4079,-2.4792],[102.4151,-2.4662],[102.4163,-2.4572],[102.4151,-2.4509],[102.4006,-2.4495],[102.3972,-2.4462],[102.3998,-2.4416],[102.3978,-2.4382],[102.4034,-2.4322],[102.4011,-2.4253],[102.4052,-2.4199],[102.4083,-2.4186],[102.4124,-2.4104],[102.4069,-2.3985],[102.4112,-2.3922],[102.4137,-2.3829],[102.3789,-2.3625],[102.3732,-2.3565],[102.3716,-2.3494],[102.3737,-2.3491]]]}},{"type":"Feature","properties":{"name":"Limun","name_en":"Limun","admin_level":"6","osm_id":""},"geometry":{"type":"Polygon","coordinates":[[[102.602,-2.6754],[102.5905,-2.6796],[102.5723,-2.6741],[102.5651,-2.6767],[102.548,-2.6774],[102.5379,-2.6795],[102.5256,-2.6793],[102.5187,-2.6765],[102.5148,-2.6845],[102.5052,-2.6961],[102.4968,-2.6983],[102.4888,-2.7047],[102.4782,-2.6973],[102.4782,-2.7016],[102.4714,-2.7041],[102.4612,-2.7002],[102.4495,-2.6989],[102.4386,-2.691],[102.4207,-2.6921],[102.4118,-2.6877],[102.4063,-2.6891],[102.3897,-2.6759],[102.3887,-2.6692],[102.3923,-2.6534],[102.3872,-2.647],[102.3694,-2.6513],[102.3602,-2.6506],[102.3531,-2.6462],[102.3432,-2.6501],[102.3372,-2.6544],[102.3299,-2.6555],[102.3247,-2.654],[102.3024,-2.6372],[102.3086,-2.6365],[102.3232,-2.629],[102.3359,-2.6265],[102.3465,-2.6181],[102.3556,-2.6174],[102.3596,-2.6121],[102.3616,-2.6041],[102.3711,-2.5973],[102.3729,-2.5917],[102.3771,-2.5864],[102.3961,-2.5771],[102.3987,-2.5683],[102.3969,-2.5557],[102.3997,-2.5522],[102.39,-2.5377],[102.3862,-2.5342],[102.382,-2.5329],[102.3734,-2.5237],[102.37,-2.5138],[102.4138,-2.5044],[102.4693,-2.485],[102.5921,-2.4367],[102.6323,-2.4041],[102.6539,-2.3767],[102.6693,-2.3927],[102.6708,-2.3965],[102.6708,-2.4054],[102.6631,-2.4231],[102.6521,-2.4423],[102.651,-2.4538],[102.6547,-2.4674],[102.6546,-2.4728],[102.6365,-2.5135],[102.6369,-2.5611],[102.6407,-2.5669],[102.6416,-2.5724],[102.6398,-2.5942],[102.6406,-2.611],[102.6244,-2.6383],[102.6165,-2.6606],[102.6125,-2.6663],[102.602,-2.6754]]]}},{"type":"Feature","properties":{"name":"Mandiangin","name_en":"Mandiangin","admin_level":"6","osm_id":""},"geometry":{"type":"Polygon","coordinates":[[[103.2018,-2.1461],[103.1899,-2.1582],[103.1823,-2.1757],[103.1816,-2.1924],[103.1787,-2.2103],[103.1829,-2.2218],[103.1806,-2.2305],[103.1795,-2.2477],[103.1815,-2.2506],[103.1915,-2.2531],[103.195,-2.2561],[103.2062,-2.2766],[103.2066,-2.2871],[103.2049,-2.2965],[103.2077,-2.3086],[103.2119,-2.3117],[103.2125,-2.3171],[103.2099,-2.3181],[103.2046,-2.3168],[103.2009,-2.3196],[103.1974,-2.3195],[103.1908,-2.3232],[103.185,-2.3282],[103.1697,-2.3332],[103.1505,-2.3474],[103.1436,-2.3608],[103.1369,-2.3561],[103.1244,-2.3577],[103.1197,-2.3544],[103.1137,-2.3449],[103.0925,-2.3445],[103.0884,-2.3393],[103.0864,-2.3321],[103.0791,-2.3329],[103.0767,-2.3315],[103.0739,-2.2889],[103.0626,-2.2256],[103.0617,-2.2116],[103.06,-2.2054],[103.0399,-2.1825],[102.9945,-2.179],[102.9911,-2.1746],[102.9884,-2.1552],[102.9797,-2.1508],[102.9754,-2.1464],[102.9701,-2.1473],[102.9605,-2.1534],[102.9544,-2.1605],[102.9465,-2.1596],[102.9212,-2.149],[102.909,-2.1411],[102.8968,-2.1358],[102.8828,-2.1226],[102.8767,-2.1191],[102.8601,-2.1182],[102.8401,-2.1067],[102.827,-2.1067],[102.8217,-2.1093],[102.8209,-2.0575],[102.8227,-2.0408],[102.8227,-2.0015],[102.8429,-2.0024],[102.8582,-2.0094],[102.871,-2.0063],[102.8772,-2.0073],[102.8856,-2.005],[102.9048,-2.005],[102.9097,-2.0013],[102.9118,-1.9848],[102.9144,-1.9822],[102.9194,-1.9836],[102.9285,-1.9822],[102.9306,-1.9854],[102.9399,-1.9858],[102.9463,-1.9825],[102.9612,-1.9645],[102.9649,-1.9552],[102.9794,-1.9434],[103.0019,-1.9498],[103.0145,-1.9462],[103.0155,-1.9431],[103.0195,-1.9413],[103.0258,-1.9426],[103.0418,-1.9376],[103.0514,-1.9375],[103.0639,-1.9406],[103.0742,-1.9508],[103.0835,-1.9553],[103.1233,-1.9577],[103.1565,-1.9558],[103.1642,-1.9535],[103.1786,-1.9449],[103.1954,-1.9376],[103.1956,-1.9438],[103.1935,-1.9475],[103.1637,-1.9762],[103.1607,-1.9814],[103.1596,-2.0091],[103.1605,-2.0172],[103.1635,-2.0248],[103.1755,-2.04],[103.2011,-2.0614],[103.2151,-2.091],[103.216,-2.1028],[103.2203,-2.1158],[103.2195,-2.122],[103.2222,-2.1314],[103.2221,-2.1418],[103.2092,-2.1415],[103.2018,-2.1461]]]}},{"type":"Feature","properties":{"name":"Pauh","name_en":"Pauh","admin_level":"6","osm_id":""},"geometry":{"type":"Polygon","coordinates":[[[103.0335,-2.32],[103.0323,-2.3239],[103.0368,-2.3342],[103.0364,-2.3372],[103.0342,-2.3393],[103.0256,-2.3403],[103.0185,-2.3363],[103.0045,-2.3352],[103.0001,-2.3404],[102.9909,-2.3404],[102.9846,-2.3388],[102.9681,-2.3295],[102.9604,-2.3297],[102.9515,-2.3264],[102.944,-2.3266],[102.9348,-2.322],[102.923,-2.3235],[102.917,-2.3166],[102.9124,-2.3156],[102.9089,-2.3117],[102.8974,-2.3151],[102.892,-2.3142],[102.8854,-2.308],[102.8769,-2.3045],[102.8743,-2.3134],[102.8667,-2.318],[102.8643,-2.3248],[102.8605,-2.3279],[102.8593,-2.3312],[102.8519,-2.3355],[102.8431,-2.3355],[102.8339,-2.3271],[102.8284,-2.3248],[102.8152,-2.3148],[102.8111,-2.3082],[102.8122,-2.2926],[102.8084,-2.2801],[102.7935,-2.2638],[102.7935,-2.2621],[102.7974,-2.2607],[102.7974,-2.2542],[102.7885,-2.2437],[102.7839,-2.2442],[102.7802,-2.2427],[102.7788,-2.2386],[102.7742,-2.2334],[102.7728,-2.2239],[102.7668,-2.2213],[102.7625,-2.2252],[102.7604,-2.2247],[102.7589,-2.2204],[102.7597,-2.2153],[102.7571,-2.2142],[102.7433,-2.2153],[102.6943,-2.1846],[102.6872,-2.1833],[102.684,-2.1766],[102.6642,-2.1654],[102.6485,-2.1652],[102.6178,-2.1578],[102.6308,-2.1478],[102.6243,-2.1163],[102.615,-2.1031],[102.6323,-2.0967],[102.6471,-2.0985],[102.6589,-2.1036],[102.6726,-2.1033],[102.7195,-2.1136],[102.744,-2.1153],[102.7606,-2.1206],[102.7746,-2.1172],[102.7938,-2.0952],[102.7973,-2.0856],[102.7921,-2.0812],[102.7929,-2.0733],[102.8008,-2.0724],[102.8139,-2.0759],[102.8209,-2.0794],[102.8217,-2.1093],[102.827,-2.1067],[102.8401,-2.1067],[102.8601,-2.1182],[102.8767,-2.1191],[102.8828,-2.1226],[102.8968,-2.1358],[102.909,-2.1411],[102.9212,-2.149],[102.9465,-2.1596],[102.9544,-2.1605],[102.9605,-2.1534],[102.9701,-2.1473],[102.9754,-2.1464],[102.9797,-2.1508],[102.9884,-2.1552],[102.9911,-2.1746],[102.9945,-2.179],[103.0399,-2.1825],[103.06,-2.2054],[103.0739,-2.2889],[103.0767,-2.3315],[103.0681,-2.3308],[103.0643,-2.3238],[103.0583,-2.3183],[103.0548,-2.3122],[103.0502,-2.3139],[103.0426,-2.3122],[103.0335,-2.32]]]}},{"type":"Feature","properties":{"name":"Pelawan","name_en":"Pelawan","admin_level":"6","osm_id":""},"geometry":{"type":"Polygon","coordinates":[[[102.7236,-2.4693],[102.6546,-2.4671],[102.6512,-2.4565],[102.6521,-2.4423],[102.6702,-2.4088],[102.6708,-2.3965],[102.6693,-2.3927],[102.6574,-2.3797],[102.6389,-2.3635],[102.6344,-2.3512],[102.6295,-2.3446],[102.6283,-2.3393],[102.625,-2.3347],[102.6775,-2.331],[102.7262,-2.3305],[102.7778,-2.3347],[102.7969,-2.3391],[102.8415,-2.3422],[102.845,-2.3476],[102.8411,-2.3533],[102.8396,-2.3588],[102.8419,-2.3693],[102.8471,-2.3744],[102.8478,-2.3842],[102.8508,-2.3866],[102.8641,-2.3873],[102.8719,-2.3851],[102.8695,-2.3952],[102.8725,-2.404],[102.8755,-2.4066],[102.8754,-2.4098],[102.8683,-2.4141],[102.8621,-2.4233],[102.8521,-2.4332],[102.8451,-2.4377],[102.8445,-2.4448],[102.8412,-2.4502],[102.8329,-2.4566],[102.826,-2.459],[102.8252,-2.4654],[102.8155,-2.474],[102.8103,-2.4839],[102.7935,-2.5047],[102.7943,-2.5084],[102.7688,-2.4953],[102.7298,-2.47],[102.7236,-2.4693]]]}},{"type":"Feature","properties":{"name":"Sarolangun","name_en":"Sarolangun","admin_level":"6","osm_id":""},"geometry":{"type":"Polygon","coordinates":[[[102.8431,-2.3355],[102.8406,-2.3379],[102.8415,-2.3422],[102.7969,-2.3391],[102.7778,-2.3347],[102.7262,-2.3305],[102.6775,-2.331],[102.625,-2.3347],[102.6189,-2.3305],[102.6165,-2.3316],[102.6341,-2.2218],[102.6548,-2.1974],[102.6726,-2.1865],[102.6834,-2.1763],[102.6872,-2.1833],[102.6943,-2.1846],[102.7433,-2.2153],[102.7571,-2.2142],[102.7597,-2.2153],[102.7589,-2.2204],[102.7604,-2.2247],[102.7625,-2.2252],[102.7668,-2.2213],[102.7728,-2.2239],[102.7742,-2.2334],[102.7788,-2.2386],[102.7802,-2.2427],[102.7839,-2.2442],[102.7885,-2.2437],[102.7949,-2.2498],[102.7974,-2.2542],[102.7977,-2.2585],[102.7974,-2.2607],[102.7935,-2.2621],[102.7935,-2.2638],[102.8084,-2.2801],[102.8122,-2.2926],[102.8103,-2.305],[102.8152,-2.3148],[102.8284,-2.3248],[102.8339,-2.3271],[102.8431,-2.3355]]]}},{"type":"Feature","properties":{"name":"Singkut","name_en":"Singkut","admin_level":"6","osm_id":""},"geometry":{"type":"Polygon","coordinates":[[[102.6402,-2.6067],[102.6416,-2.5724],[102.6407,-2.5669],[102.6369,-2.5611],[102.6361,-2.5165],[102.6426,-2.498],[102.6546,-2.4728],[102.6546,-2.4671],[102.7112,-2.468],[102.7298,-2.47],[102.7688,-2.4953],[102.7917,-2.5071],[102.7894,-2.5129],[102.7821,-2.5224],[102.7883,-2.5354],[102.7837,-2.5368],[102.7806,-2.541],[102.7599,-2.5499],[102.7555,-2.5575],[102.75,-2.5615],[102.7449,-2.5626],[102.7402,-2.5701],[102.7387,-2.5792],[102.7283,-2.5861],[102.7224,-2.5846],[102.7154,-2.5713],[102.7122,-2.5733],[102.7125,-2.5774],[102.7065,-2.5866],[102.704,-2.5878],[102.7014,-2.5835],[102.6957,-2.584],[102.6914,-2.5894],[102.6896,-2.5891],[102.688,-2.5919],[102.6846,-2.5927],[102.6776,-2.6037],[102.6692,-2.605],[102.6666,-2.6096],[102.6489,-2.6114],[102.6442,-2.6095],[102.6406,-2.611],[102.6402,-2.6067]]]}}]}