{"type":"FeatureCollection","metadata":{"parent_osm_id":"9686814","parent_name":"Magelang","parent_name_1":"JawaTengah","parent_gid":"IDN.10.20_1","parent_level":"5","child_level":"6","count":21,"source":"GADM 4.1","generated":"2026-05-09"},"features":[{"type":"Feature","properties":{"name":"Bandongan","name_en":"Bandongan","admin_level":"6","osm_id":""},"geometry":{"type":"Polygon","coordinates":[[[110.1948,-7.5003],[110.1894,-7.5046],[110.1881,-7.5087],[110.19,-7.5139],[110.1889,-7.5173],[110.1861,-7.5194],[110.1869,-7.5166],[110.1837,-7.514],[110.1842,-7.5108],[110.1801,-7.5099],[110.1795,-7.5083],[110.1764,-7.5086],[110.1725,-7.5049],[110.167,-7.5031],[110.1497,-7.4899],[110.1561,-7.49],[110.1679,-7.496],[110.1676,-7.4902],[110.1747,-7.4842],[110.1641,-7.4722],[110.1603,-7.4721],[110.1566,-7.4688],[110.1521,-7.4678],[110.1513,-7.4652],[110.1527,-7.4629],[110.1445,-7.4579],[110.1417,-7.4501],[110.1396,-7.4497],[110.1367,-7.4455],[110.1405,-7.4407],[110.1436,-7.4408],[110.1477,-7.4422],[110.1479,-7.4437],[110.1511,-7.4436],[110.1534,-7.445],[110.1531,-7.4466],[110.1576,-7.4486],[110.1549,-7.4429],[110.149,-7.439],[110.1535,-7.432],[110.1553,-7.4235],[110.1611,-7.4153],[110.1632,-7.4245],[110.1702,-7.4264],[110.1755,-7.4331],[110.1869,-7.4381],[110.1911,-7.4361],[110.1978,-7.4224],[110.2156,-7.4339],[110.2122,-7.4414],[110.2123,-7.4432],[110.2144,-7.4442],[110.2118,-7.4468],[110.2139,-7.4514],[110.2117,-7.4532],[110.21,-7.4598],[110.2119,-7.4623],[110.2088,-7.4714],[110.2099,-7.4741],[110.2083,-7.4766],[110.2063,-7.4768],[110.2076,-7.4818],[110.2042,-7.4886],[110.1999,-7.4896],[110.1948,-7.5003]]]}},{"type":"Feature","properties":{"name":"Borobudur","name_en":"Borobudur","admin_level":"6","osm_id":""},"geometry":{"type":"Polygon","coordinates":[[[110.2504,-7.6414],[110.2517,-7.6423],[110.2503,-7.6461],[110.2473,-7.6465],[110.245,-7.6512],[110.2405,-7.6543],[110.2333,-7.6507],[110.213,-7.648],[110.2137,-7.6463],[110.2053,-7.6518],[110.1967,-7.6486],[110.1925,-7.6448],[110.1749,-7.6485],[110.1656,-7.6489],[110.1628,-7.647],[110.1615,-7.6482],[110.1604,-7.6459],[110.1569,-7.6462],[110.1654,-7.6284],[110.1604,-7.6278],[110.157,-7.6248],[110.155,-7.6121],[110.1554,-7.6056],[110.157,-7.6046],[110.156,-7.6022],[110.1472,-7.5989],[110.1564,-7.5949],[110.158,-7.5933],[110.1575,-7.5881],[110.1639,-7.5847],[110.1652,-7.5863],[110.1658,-7.5852],[110.1749,-7.5885],[110.1759,-7.5924],[110.1799,-7.5925],[110.1825,-7.5845],[110.1846,-7.5837],[110.1847,-7.5795],[110.1878,-7.5787],[110.1903,-7.5726],[110.1937,-7.5735],[110.1947,-7.5721],[110.1962,-7.5767],[110.202,-7.5831],[110.2052,-7.5831],[110.2055,-7.5876],[110.2086,-7.5905],[110.2093,-7.5945],[110.2162,-7.6007],[110.2221,-7.603],[110.221,-7.6071],[110.223,-7.6083],[110.2247,-7.6075],[110.2258,-7.6123],[110.2282,-7.6122],[110.2314,-7.6146],[110.2308,-7.62],[110.2348,-7.6211],[110.236,-7.624],[110.2325,-7.6264],[110.2327,-7.6281],[110.2377,-7.6287],[110.2407,-7.6336],[110.2447,-7.6329],[110.2475,-7.6342],[110.2449,-7.6394],[110.2504,-7.6414]]]}},{"type":"Feature","properties":{"name":"Candimulyo","name_en":"Candimulyo","admin_level":"6","osm_id":""},"geometry":{"type":"Polygon","coordinates":[[[110.2574,-7.5305],[110.2517,-7.5325],[110.2489,-7.5387],[110.2457,-7.5387],[110.241,-7.5417],[110.2417,-7.539],[110.2397,-7.5378],[110.2409,-7.5313],[110.2438,-7.5285],[110.2409,-7.526],[110.2403,-7.5215],[110.2421,-7.5154],[110.24,-7.5103],[110.2371,-7.5092],[110.238,-7.5049],[110.2336,-7.4995],[110.2369,-7.4958],[110.2356,-7.4893],[110.2376,-7.4871],[110.2451,-7.4849],[110.2481,-7.4876],[110.2573,-7.4842],[110.2618,-7.4843],[110.2704,-7.4782],[110.2782,-7.4755],[110.2781,-7.4723],[110.2812,-7.4699],[110.2879,-7.4722],[110.3038,-7.4638],[110.3202,-7.4616],[110.3268,-7.4581],[110.3282,-7.4604],[110.3235,-7.4641],[110.318,-7.4728],[110.3126,-7.4746],[110.3096,-7.4778],[110.3125,-7.4791],[110.3164,-7.4778],[110.3175,-7.4791],[110.3176,-7.4779],[110.3214,-7.4782],[110.323,-7.4756],[110.3258,-7.4755],[110.3261,-7.4798],[110.3167,-7.481],[110.3152,-7.4819],[110.3152,-7.4851],[110.3213,-7.4892],[110.3271,-7.4858],[110.328,-7.4934],[110.3331,-7.491],[110.334,-7.4951],[110.3266,-7.4984],[110.32,-7.5046],[110.3074,-7.5115],[110.2941,-7.5165],[110.2912,-7.5198],[110.2884,-7.5186],[110.2805,-7.5249],[110.2707,-7.5257],[110.2652,-7.5296],[110.2617,-7.5293],[110.2596,-7.5315],[110.2574,-7.5305]]]}},{"type":"Feature","properties":{"name":"Dukun","name_en":"Dukun","admin_level":"6","osm_id":""},"geometry":{"type":"Polygon","coordinates":[[[110.4287,-7.5317],[110.4378,-7.5357],[110.4461,-7.5418],[110.4398,-7.5433],[110.4293,-7.5428],[110.424,-7.5449],[110.4223,-7.5438],[110.4117,-7.5478],[110.4072,-7.5549],[110.3987,-7.5594],[110.3947,-7.5599],[110.3783,-7.5723],[110.3755,-7.5725],[110.3676,-7.5668],[110.3606,-7.5648],[110.3457,-7.5647],[110.3368,-7.5668],[110.3291,-7.5658],[110.315,-7.5719],[110.3063,-7.5799],[110.3021,-7.577],[110.3009,-7.575],[110.3022,-7.574],[110.299,-7.5716],[110.3008,-7.5692],[110.2974,-7.5659],[110.2987,-7.562],[110.3068,-7.5552],[110.3051,-7.5496],[110.3082,-7.5468],[110.3334,-7.5383],[110.3398,-7.5346],[110.3427,-7.531],[110.3482,-7.5297],[110.3553,-7.5216],[110.3705,-7.5178],[110.3779,-7.5136],[110.3872,-7.5134],[110.4008,-7.5171],[110.4044,-7.5168],[110.4267,-7.5293],[110.4287,-7.5317]]]}},{"type":"Feature","properties":{"name":"Grabag","name_en":"Grabag","admin_level":"6","osm_id":""},"geometry":{"type":"Polygon","coordinates":[[[110.3074,-7.4349],[110.3009,-7.4358],[110.287,-7.4342],[110.284,-7.4328],[110.282,-7.429],[110.2836,-7.422],[110.2863,-7.4206],[110.2872,-7.4218],[110.2905,-7.4142],[110.2919,-7.4085],[110.2902,-7.4057],[110.2908,-7.4001],[110.2966,-7.397],[110.2964,-7.3953],[110.3053,-7.3887],[110.2973,-7.3891],[110.2914,-7.3863],[110.2881,-7.3823],[110.2858,-7.3823],[110.2801,-7.3859],[110.278,-7.39],[110.2748,-7.3867],[110.2687,-7.385],[110.2715,-7.375],[110.2906,-7.362],[110.2981,-7.3588],[110.3003,-7.3598],[110.3001,-7.3587],[110.3053,-7.3559],[110.3167,-7.3526],[110.316,-7.3515],[110.3176,-7.3512],[110.3249,-7.3413],[110.3221,-7.3378],[110.3192,-7.337],[110.3195,-7.3311],[110.3263,-7.3274],[110.3279,-7.3203],[110.3322,-7.3205],[110.3432,-7.3259],[110.3551,-7.3262],[110.3626,-7.3311],[110.3682,-7.3308],[110.3716,-7.3334],[110.3791,-7.3346],[110.3801,-7.3361],[110.3804,-7.3377],[110.3786,-7.3366],[110.3776,-7.3384],[110.3768,-7.3453],[110.3793,-7.3466],[110.3815,-7.3541],[110.3741,-7.354],[110.365,-7.3632],[110.364,-7.366],[110.3609,-7.3661],[110.3602,-7.3709],[110.3556,-7.3741],[110.3564,-7.3758],[110.3643,-7.3791],[110.3638,-7.3857],[110.3473,-7.3923],[110.3441,-7.3917],[110.3437,-7.3947],[110.3408,-7.3948],[110.3408,-7.3973],[110.3425,-7.398],[110.3405,-7.4077],[110.3416,-7.4113],[110.3437,-7.4126],[110.3457,-7.4181],[110.3507,-7.421],[110.3515,-7.4233],[110.3344,-7.4271],[110.3304,-7.4312],[110.3204,-7.4309],[110.3074,-7.4349]]]}},{"type":"Feature","properties":{"name":"Kajoran","name_en":"Kajoran","admin_level":"6","osm_id":""},"geometry":{"type":"Polygon","coordinates":[[[110.0788,-7.5517],[110.0817,-7.5544],[110.0818,-7.5571],[110.0793,-7.5581],[110.061,-7.5589],[110.0555,-7.5566],[110.0535,-7.5527],[110.051,-7.5517],[110.0525,-7.5483],[110.0497,-7.5434],[110.044,-7.5377],[110.0458,-7.5323],[110.0435,-7.5275],[110.0445,-7.5201],[110.0477,-7.5167],[110.0468,-7.5141],[110.0492,-7.5127],[110.047,-7.5097],[110.0506,-7.5056],[110.0486,-7.5028],[110.0495,-7.4992],[110.0538,-7.4919],[110.052,-7.482],[110.0552,-7.4741],[110.0596,-7.4702],[110.0594,-7.4666],[110.065,-7.4595],[110.0575,-7.4531],[110.0561,-7.4424],[110.0531,-7.4354],[110.0596,-7.434],[110.0587,-7.4282],[110.0627,-7.4138],[110.0627,-7.4083],[110.0742,-7.3857],[110.0749,-7.3966],[110.0732,-7.4073],[110.0756,-7.4142],[110.076,-7.428],[110.0818,-7.4482],[110.087,-7.453],[110.0979,-7.4733],[110.0999,-7.4746],[110.1003,-7.4704],[110.102,-7.4703],[110.1024,-7.4749],[110.106,-7.4826],[110.11,-7.4734],[110.1142,-7.4699],[110.1166,-7.47],[110.117,-7.4735],[110.1207,-7.4773],[110.1198,-7.4826],[110.125,-7.4882],[110.1293,-7.489],[110.1294,-7.4917],[110.1346,-7.5],[110.1341,-7.5028],[110.1323,-7.5039],[110.1343,-7.5138],[110.1336,-7.5239],[110.1259,-7.5218],[110.1265,-7.5196],[110.1225,-7.5168],[110.1217,-7.5195],[110.1202,-7.5187],[110.1184,-7.5201],[110.1158,-7.5272],[110.1176,-7.534],[110.1155,-7.5346],[110.1118,-7.5286],[110.111,-7.5236],[110.1066,-7.5243],[110.1075,-7.5263],[110.1061,-7.5281],[110.1091,-7.5302],[110.1107,-7.5347],[110.1116,-7.5463],[110.1085,-7.5455],[110.1032,-7.5403],[110.1008,-7.5411],[110.1002,-7.5436],[110.1023,-7.55],[110.0982,-7.5479],[110.0981,-7.5492],[110.0924,-7.543],[110.0935,-7.5421],[110.0905,-7.5357],[110.0882,-7.5348],[110.0845,-7.5359],[110.0848,-7.5417],[110.0792,-7.5424],[110.0789,-7.5485],[110.0802,-7.5499],[110.0788,-7.5517]]]}},{"type":"Feature","properties":{"name":"Kaliangkrik","name_en":"Kaliangkrik","admin_level":"6","osm_id":""},"geometry":{"type":"Polygon","coordinates":[[[110.1682,-7.4938],[110.1674,-7.496],[110.1659,-7.4939],[110.1561,-7.49],[110.149,-7.4895],[110.1438,-7.4914],[110.125,-7.4882],[110.1197,-7.4824],[110.1207,-7.4773],[110.117,-7.4735],[110.1163,-7.4698],[110.11,-7.4734],[110.1058,-7.4825],[110.1024,-7.4749],[110.102,-7.4703],[110.1003,-7.4704],[110.0999,-7.4746],[110.0979,-7.4733],[110.0919,-7.4606],[110.0872,-7.4553],[110.087,-7.453],[110.0831,-7.4503],[110.0805,-7.4446],[110.076,-7.428],[110.0756,-7.4142],[110.0732,-7.4073],[110.0749,-7.3966],[110.0746,-7.3858],[110.0771,-7.3851],[110.0824,-7.3881],[110.0978,-7.4071],[110.1031,-7.4064],[110.1037,-7.4081],[110.1219,-7.4193],[110.1252,-7.4221],[110.127,-7.4301],[110.1372,-7.4356],[110.1371,-7.4397],[110.1405,-7.4407],[110.1367,-7.4455],[110.1372,-7.447],[110.1417,-7.4501],[110.1445,-7.4579],[110.1527,-7.4629],[110.1513,-7.4652],[110.1521,-7.4678],[110.1566,-7.4688],[110.1603,-7.4721],[110.1641,-7.4722],[110.1747,-7.4838],[110.1688,-7.4883],[110.1674,-7.491],[110.1682,-7.4938]]]}},{"type":"Feature","properties":{"name":"Mertoyudan","name_en":"Mertoyudan","admin_level":"6","osm_id":""},"geometry":{"type":"Polygon","coordinates":[[[110.2144,-7.5983],[110.209,-7.5942],[110.2086,-7.5905],[110.2055,-7.5876],[110.2052,-7.5831],[110.202,-7.5831],[110.1962,-7.5767],[110.1952,-7.5725],[110.1926,-7.573],[110.1927,-7.5696],[110.1888,-7.5691],[110.1879,-7.563],[110.1839,-7.5616],[110.1848,-7.5582],[110.1802,-7.5457],[110.1803,-7.538],[110.1778,-7.5346],[110.181,-7.5325],[110.1802,-7.5273],[110.1836,-7.5251],[110.183,-7.5212],[110.1857,-7.5226],[110.1862,-7.5191],[110.1892,-7.5169],[110.19,-7.5134],[110.1881,-7.5087],[110.1894,-7.5046],[110.1956,-7.4994],[110.2001,-7.4893],[110.2029,-7.4925],[110.2061,-7.4922],[110.2019,-7.4987],[110.2042,-7.5027],[110.2066,-7.504],[110.2102,-7.5007],[110.2143,-7.5047],[110.2128,-7.5069],[110.2154,-7.5075],[110.2182,-7.5014],[110.2203,-7.5014],[110.2196,-7.5027],[110.2218,-7.5037],[110.2207,-7.5054],[110.2237,-7.5031],[110.2361,-7.5044],[110.2378,-7.5056],[110.2371,-7.5092],[110.24,-7.5103],[110.2421,-7.5154],[110.2403,-7.5215],[110.2409,-7.526],[110.2438,-7.5285],[110.2412,-7.5301],[110.2407,-7.5337],[110.2375,-7.5344],[110.2326,-7.5392],[110.2294,-7.5385],[110.2243,-7.541],[110.2247,-7.5447],[110.2225,-7.5503],[110.2239,-7.5567],[110.2276,-7.5621],[110.2284,-7.5681],[110.2261,-7.5695],[110.226,-7.5729],[110.2218,-7.5748],[110.2232,-7.5786],[110.2216,-7.5833],[110.2158,-7.5849],[110.2179,-7.5975],[110.2158,-7.6003],[110.2144,-7.5983]]]}},{"type":"Feature","properties":{"name":"Mungkid","name_en":"Mungkid","admin_level":"6","osm_id":""},"geometry":{"type":"Polygon","coordinates":[[[110.2347,-7.6285],[110.2324,-7.6267],[110.2356,-7.625],[110.2358,-7.6227],[110.2308,-7.62],[110.2314,-7.6146],[110.2282,-7.6122],[110.2258,-7.6123],[110.2247,-7.6075],[110.223,-7.6083],[110.221,-7.6071],[110.2221,-7.603],[110.2158,-7.6003],[110.2179,-7.5975],[110.2158,-7.5849],[110.2216,-7.5833],[110.2232,-7.5786],[110.2218,-7.5748],[110.226,-7.5729],[110.2261,-7.5695],[110.2284,-7.5681],[110.2276,-7.5621],[110.2239,-7.5567],[110.2225,-7.5503],[110.2247,-7.5447],[110.2243,-7.541],[110.2294,-7.5385],[110.2326,-7.5392],[110.2375,-7.5344],[110.2407,-7.5337],[110.2397,-7.538],[110.2417,-7.539],[110.241,-7.5417],[110.2427,-7.5416],[110.2457,-7.5387],[110.2489,-7.5387],[110.2529,-7.5318],[110.2576,-7.5305],[110.2596,-7.5315],[110.2617,-7.5293],[110.2652,-7.5296],[110.2688,-7.527],[110.2722,-7.5345],[110.2768,-7.5341],[110.2803,-7.5368],[110.2792,-7.5427],[110.2812,-7.5449],[110.2799,-7.5458],[110.2815,-7.5459],[110.2837,-7.5495],[110.2799,-7.5502],[110.2819,-7.5561],[110.2789,-7.5594],[110.2806,-7.5631],[110.2792,-7.5645],[110.2779,-7.563],[110.2691,-7.5746],[110.2568,-7.5826],[110.2543,-7.5874],[110.2489,-7.5917],[110.2494,-7.5935],[110.2468,-7.5958],[110.2458,-7.5999],[110.2365,-7.6103],[110.2398,-7.6194],[110.2398,-7.6252],[110.2374,-7.6288],[110.2347,-7.6285]]]}},{"type":"Feature","properties":{"name":"Muntilan","name_en":"Muntilan","admin_level":"6","osm_id":""},"geometry":{"type":"Polygon","coordinates":[[[110.2392,-7.6323],[110.2377,-7.6287],[110.2396,-7.6263],[110.2399,-7.6199],[110.2365,-7.6103],[110.2458,-7.5999],[110.2491,-7.5914],[110.2543,-7.5874],[110.2568,-7.5826],[110.2691,-7.5746],[110.2779,-7.563],[110.2795,-7.5644],[110.2808,-7.5619],[110.2851,-7.5619],[110.2862,-7.5584],[110.2888,-7.5566],[110.3002,-7.5509],[110.3049,-7.5468],[110.3082,-7.5468],[110.3051,-7.5496],[110.3068,-7.5552],[110.2973,-7.5642],[110.2977,-7.5666],[110.3009,-7.5697],[110.299,-7.5716],[110.3022,-7.574],[110.3009,-7.575],[110.3063,-7.5799],[110.3011,-7.5872],[110.2853,-7.5994],[110.2797,-7.5982],[110.276,-7.608],[110.2667,-7.6135],[110.2605,-7.6234],[110.257,-7.6251],[110.2538,-7.6313],[110.2518,-7.6312],[110.2481,-7.6351],[110.2452,-7.633],[110.2411,-7.6337],[110.2392,-7.6323]]]}},{"type":"Feature","properties":{"name":"Ngablak","name_en":"Ngablak","admin_level":"6","osm_id":""},"geometry":{"type":"Polygon","coordinates":[[[110.4207,-7.4256],[110.4242,-7.4297],[110.4245,-7.4335],[110.4189,-7.43],[110.4089,-7.4313],[110.4029,-7.4303],[110.3932,-7.423],[110.3911,-7.4241],[110.3826,-7.4235],[110.3859,-7.4205],[110.3823,-7.4178],[110.3796,-7.4216],[110.3739,-7.4238],[110.3618,-7.4201],[110.3515,-7.4233],[110.3507,-7.421],[110.3457,-7.4181],[110.3437,-7.4126],[110.3416,-7.4113],[110.3405,-7.4077],[110.3425,-7.398],[110.3408,-7.3973],[110.3408,-7.3948],[110.3437,-7.3947],[110.3441,-7.3917],[110.3473,-7.3923],[110.3638,-7.3857],[110.3643,-7.3791],[110.3564,-7.3758],[110.3557,-7.3738],[110.3602,-7.3709],[110.3609,-7.3661],[110.364,-7.366],[110.365,-7.3632],[110.3741,-7.354],[110.3907,-7.353],[110.3975,-7.3575],[110.4036,-7.3655],[110.4042,-7.375],[110.4066,-7.377],[110.4052,-7.3787],[110.4061,-7.3928],[110.4132,-7.4079],[110.4143,-7.4166],[110.4194,-7.4221],[110.4207,-7.4256]]]}},{"type":"Feature","properties":{"name":"Ngluwar","name_en":"Ngluwar","admin_level":"6","osm_id":""},"geometry":{"type":"Polygon","coordinates":[[[110.2869,-7.6799],[110.2847,-7.6871],[110.2737,-7.7013],[110.2727,-7.7067],[110.2709,-7.7065],[110.2658,-7.691],[110.2608,-7.6861],[110.2643,-7.6819],[110.263,-7.679],[110.2659,-7.6736],[110.2652,-7.6681],[110.2671,-7.6631],[110.263,-7.6609],[110.2646,-7.6555],[110.2638,-7.6527],[110.2661,-7.6495],[110.2634,-7.6458],[110.2449,-7.6394],[110.2508,-7.6319],[110.2545,-7.6307],[110.257,-7.6251],[110.2615,-7.6215],[110.2712,-7.629],[110.2701,-7.6302],[110.2722,-7.6321],[110.2766,-7.6335],[110.2801,-7.6326],[110.2769,-7.6427],[110.2887,-7.6413],[110.291,-7.6439],[110.2927,-7.6425],[110.2944,-7.6441],[110.2928,-7.6469],[110.3041,-7.6549],[110.2997,-7.6647],[110.2914,-7.6723],[110.2869,-7.6799]]]}},{"type":"Feature","properties":{"name":"Pakis","name_en":"Pakis","admin_level":"6","osm_id":""},"geometry":{"type":"Polygon","coordinates":[[[110.3282,-7.4933],[110.3271,-7.4858],[110.3213,-7.4892],[110.3152,-7.4851],[110.3152,-7.4819],[110.3167,-7.481],[110.3261,-7.4798],[110.3258,-7.4755],[110.323,-7.4756],[110.3214,-7.4782],[110.3176,-7.4779],[110.3175,-7.4791],[110.3164,-7.4778],[110.3125,-7.4791],[110.3099,-7.478],[110.3096,-7.4776],[110.3126,-7.4746],[110.318,-7.4728],[110.3235,-7.4641],[110.3282,-7.4604],[110.3268,-7.4581],[110.3202,-7.4616],[110.3038,-7.4638],[110.294,-7.4693],[110.2988,-7.4622],[110.2976,-7.4559],[110.3012,-7.4567],[110.3055,-7.4508],[110.3115,-7.4466],[110.3154,-7.4462],[110.3175,-7.4319],[110.3304,-7.4312],[110.3344,-7.4271],[110.355,-7.423],[110.3595,-7.4203],[110.3707,-7.4219],[110.3739,-7.4238],[110.3796,-7.4216],[110.3823,-7.4178],[110.3859,-7.4205],[110.3826,-7.4235],[110.3911,-7.4241],[110.3932,-7.423],[110.4029,-7.4303],[110.4089,-7.4313],[110.4189,-7.43],[110.4245,-7.4335],[110.4352,-7.4504],[110.411,-7.4564],[110.4052,-7.4606],[110.3968,-7.4623],[110.3851,-7.47],[110.3765,-7.4714],[110.3703,-7.4763],[110.3599,-7.4778],[110.3472,-7.492],[110.335,-7.495],[110.3331,-7.491],[110.3282,-7.4933]]]}},{"type":"Feature","properties":{"name":"Salam","name_en":"Salam","admin_level":"6","osm_id":""},"geometry":{"type":"Polygon","coordinates":[[[110.2929,-7.6451],[110.2944,-7.6441],[110.2927,-7.6425],[110.291,-7.6439],[110.2887,-7.6413],[110.2769,-7.6427],[110.2801,-7.6326],[110.2766,-7.6335],[110.2708,-7.631],[110.2699,-7.6296],[110.2712,-7.629],[110.2615,-7.6215],[110.2626,-7.6186],[110.2684,-7.6117],[110.276,-7.608],[110.2797,-7.5982],[110.2842,-7.5999],[110.29,-7.5967],[110.302,-7.5852],[110.3055,-7.588],[110.3074,-7.5927],[110.3095,-7.5938],[110.3126,-7.5925],[110.3132,-7.598],[110.3204,-7.5961],[110.3247,-7.5931],[110.3265,-7.5965],[110.3201,-7.6005],[110.3232,-7.6053],[110.3155,-7.6091],[110.3136,-7.6129],[110.3169,-7.6156],[110.3199,-7.6153],[110.3223,-7.6179],[110.3256,-7.6177],[110.3231,-7.6203],[110.326,-7.6228],[110.3382,-7.6074],[110.3408,-7.6085],[110.3364,-7.6164],[110.3296,-7.6231],[110.3328,-7.625],[110.3304,-7.6303],[110.3327,-7.6323],[110.3281,-7.6371],[110.3309,-7.6385],[110.3142,-7.6506],[110.3044,-7.6548],[110.2928,-7.6469],[110.2929,-7.6451]]]}},{"type":"Feature","properties":{"name":"Salaman","name_en":"Salaman","admin_level":"6","osm_id":""},"geometry":{"type":"Polygon","coordinates":[[[110.1637,-7.6312],[110.1569,-7.6462],[110.1498,-7.6465],[110.1448,-7.6499],[110.1435,-7.6452],[110.1398,-7.6446],[110.1331,-7.6357],[110.1258,-7.631],[110.1214,-7.6236],[110.1224,-7.6203],[110.1202,-7.6084],[110.1116,-7.6003],[110.1072,-7.5939],[110.1031,-7.578],[110.1016,-7.5795],[110.0979,-7.5746],[110.099,-7.5712],[110.1012,-7.5704],[110.1004,-7.5692],[110.0898,-7.569],[110.0871,-7.5729],[110.0806,-7.577],[110.0775,-7.5768],[110.0756,-7.5743],[110.0678,-7.571],[110.0654,-7.5712],[110.0643,-7.5734],[110.0624,-7.5721],[110.0598,-7.5756],[110.0559,-7.5703],[110.0577,-7.566],[110.057,-7.5637],[110.0592,-7.5611],[110.0579,-7.5583],[110.0657,-7.5578],[110.0671,-7.559],[110.0818,-7.5571],[110.0817,-7.5543],[110.0787,-7.5515],[110.0802,-7.5499],[110.0789,-7.5485],[110.0788,-7.5434],[110.0796,-7.542],[110.0814,-7.5431],[110.0848,-7.5417],[110.0852,-7.5353],[110.0905,-7.5357],[110.0935,-7.5421],[110.0924,-7.543],[110.0981,-7.5492],[110.0982,-7.5479],[110.1023,-7.55],[110.1002,-7.5436],[110.1008,-7.5411],[110.1032,-7.5403],[110.1085,-7.5455],[110.1116,-7.5463],[110.1107,-7.5347],[110.1091,-7.5302],[110.1061,-7.5281],[110.1075,-7.5263],[110.1066,-7.5243],[110.111,-7.5236],[110.1141,-7.5336],[110.1167,-7.5344],[110.1159,-7.5269],[110.1184,-7.5201],[110.1202,-7.5187],[110.1217,-7.5195],[110.1225,-7.5168],[110.1265,-7.5196],[110.125,-7.5222],[110.1254,-7.5285],[110.1283,-7.5295],[110.13,-7.5278],[110.1337,-7.528],[110.1364,-7.5297],[110.1337,-7.5326],[110.134,-7.5382],[110.1357,-7.5403],[110.1334,-7.5435],[110.1334,-7.548],[110.137,-7.5575],[110.1434,-7.5593],[110.1442,-7.5616],[110.146,-7.5614],[110.1457,-7.5632],[110.1557,-7.5649],[110.1553,-7.5632],[110.1566,-7.5627],[110.1623,-7.5642],[110.1639,-7.5695],[110.167,-7.5706],[110.1658,-7.573],[110.1666,-7.5773],[110.1632,-7.5828],[110.1639,-7.5847],[110.1575,-7.5881],[110.158,-7.5933],[110.1472,-7.5989],[110.1543,-7.6024],[110.1557,-7.6018],[110.1566,-7.6034],[110.155,-7.6121],[110.1566,-7.6236],[110.1604,-7.6278],[110.1654,-7.6284],[110.1637,-7.6312]]]}},{"type":"Feature","properties":{"name":"Sawangan","name_en":"Sawangan","admin_level":"6","osm_id":""},"geometry":{"type":"Polygon","coordinates":[[[110.3124,-7.5452],[110.3049,-7.5468],[110.3002,-7.5509],[110.2888,-7.5566],[110.2862,-7.5584],[110.2851,-7.5619],[110.2799,-7.5618],[110.2791,-7.5586],[110.2819,-7.5561],[110.2799,-7.5502],[110.2837,-7.5495],[110.2815,-7.5459],[110.2799,-7.5458],[110.2812,-7.5449],[110.2792,-7.5427],[110.2803,-7.5368],[110.2768,-7.5341],[110.2722,-7.5345],[110.2688,-7.527],[110.2802,-7.525],[110.2885,-7.5186],[110.2912,-7.5198],[110.2941,-7.5165],[110.3074,-7.5115],[110.32,-7.5046],[110.3266,-7.4984],[110.3339,-7.4944],[110.3472,-7.492],[110.3599,-7.4778],[110.3703,-7.4763],[110.3765,-7.4714],[110.3851,-7.47],[110.3968,-7.4623],[110.4052,-7.4606],[110.4059,-7.4589],[110.4113,-7.4563],[110.4352,-7.4504],[110.4393,-7.4536],[110.4342,-7.4652],[110.4353,-7.4694],[110.4328,-7.4785],[110.4158,-7.496],[110.411,-7.4968],[110.4082,-7.4991],[110.4063,-7.4974],[110.4022,-7.499],[110.3957,-7.4984],[110.3953,-7.5007],[110.394,-7.5003],[110.3894,-7.5068],[110.3801,-7.5117],[110.3803,-7.5138],[110.3779,-7.5136],[110.3705,-7.5178],[110.3592,-7.5198],[110.3531,-7.5233],[110.3482,-7.5297],[110.3427,-7.531],[110.3398,-7.5346],[110.3334,-7.5383],[110.3199,-7.5439],[110.3149,-7.5437],[110.3124,-7.5452]]]}},{"type":"Feature","properties":{"name":"Secang","name_en":"Secang","admin_level":"6","osm_id":""},"geometry":{"type":"Polygon","coordinates":[[[110.2296,-7.4581],[110.2278,-7.4493],[110.2309,-7.4456],[110.2274,-7.4426],[110.2281,-7.4384],[110.2193,-7.4387],[110.2177,-7.4415],[110.2187,-7.4443],[110.2121,-7.4427],[110.2169,-7.4309],[110.2132,-7.4295],[110.2144,-7.4222],[110.2126,-7.4193],[110.2164,-7.4064],[110.2151,-7.4022],[110.2164,-7.3952],[110.2224,-7.3916],[110.225,-7.3866],[110.2234,-7.379],[110.2263,-7.3834],[110.2318,-7.3821],[110.2348,-7.379],[110.2364,-7.3727],[110.2499,-7.3691],[110.2546,-7.3703],[110.2571,-7.3772],[110.2629,-7.3809],[110.2673,-7.3812],[110.27034624277456,-7.379431213872833],[110.2704,-7.3797],[110.2687,-7.385],[110.2748,-7.3867],[110.278,-7.39],[110.2801,-7.3859],[110.2858,-7.3823],[110.2881,-7.3823],[110.2914,-7.3863],[110.2973,-7.3891],[110.3053,-7.3887],[110.2964,-7.3953],[110.2966,-7.397],[110.2908,-7.4001],[110.2902,-7.4057],[110.2919,-7.4085],[110.2905,-7.4142],[110.2872,-7.4218],[110.2863,-7.4206],[110.2836,-7.422],[110.2826,-7.4287],[110.2711,-7.4285],[110.2621,-7.4348],[110.2614,-7.4329],[110.2577,-7.432],[110.2579,-7.4372],[110.2565,-7.4382],[110.252,-7.4359],[110.2489,-7.4434],[110.2426,-7.4448],[110.2404,-7.4476],[110.2344,-7.4502],[110.2355,-7.4523],[110.2308,-7.4584],[110.2323,-7.4625],[110.2301,-7.4639],[110.2303,-7.4683],[110.2322,-7.4698],[110.2313,-7.4753],[110.2273,-7.4664],[110.2289,-7.4659],[110.2274,-7.4653],[110.2288,-7.4642],[110.2286,-7.461],[110.2301,-7.4611],[110.2289,-7.4601],[110.2296,-7.4581]]]}},{"type":"Feature","properties":{"name":"Srumbung","name_en":"Srumbung","admin_level":"6","osm_id":""},"geometry":{"type":"Polygon","coordinates":[[[110.3148,-7.6136],[110.3136,-7.6128],[110.3155,-7.6091],[110.3232,-7.6053],[110.3201,-7.6005],[110.3263,-7.5956],[110.3247,-7.5931],[110.3204,-7.5961],[110.3132,-7.598],[110.3126,-7.5925],[110.3095,-7.5938],[110.3074,-7.5927],[110.3055,-7.588],[110.302,-7.5852],[110.3052,-7.5804],[110.308,-7.5794],[110.316,-7.5713],[110.3291,-7.5658],[110.3368,-7.5668],[110.3457,-7.5647],[110.3593,-7.5647],[110.3676,-7.5668],[110.3755,-7.5725],[110.3783,-7.5723],[110.3947,-7.5599],[110.3987,-7.5594],[110.4072,-7.5549],[110.4117,-7.5478],[110.4223,-7.5438],[110.424,-7.5449],[110.4293,-7.5428],[110.4398,-7.5433],[110.4461,-7.5418],[110.416,-7.5612],[110.4015,-7.5795],[110.4002,-7.5847],[110.3964,-7.5892],[110.39,-7.5924],[110.391,-7.5949],[110.3882,-7.5975],[110.3795,-7.6011],[110.376,-7.6066],[110.3671,-7.6122],[110.355,-7.6226],[110.3449,-7.6261],[110.338,-7.6305],[110.3309,-7.6384],[110.3281,-7.6371],[110.3327,-7.6323],[110.3304,-7.6303],[110.3328,-7.625],[110.3296,-7.6231],[110.3364,-7.6164],[110.3408,-7.6085],[110.3382,-7.6074],[110.326,-7.6228],[110.3231,-7.6203],[110.3256,-7.6177],[110.3223,-7.6179],[110.3199,-7.6153],[110.3169,-7.6156],[110.3148,-7.6136]]]}},{"type":"Feature","properties":{"name":"Tegalrejo","name_en":"Tegalrejo","admin_level":"6","osm_id":""},"geometry":{"type":"Polygon","coordinates":[[[110.2626,-7.4832],[110.2481,-7.4876],[110.2451,-7.4849],[110.2372,-7.4879],[110.2356,-7.4862],[110.2364,-7.4841],[110.2345,-7.4832],[110.2347,-7.4802],[110.2315,-7.4768],[110.2322,-7.4698],[110.23,-7.4666],[110.2301,-7.4639],[110.2323,-7.4625],[110.2308,-7.4584],[110.2355,-7.4523],[110.2344,-7.4502],[110.2404,-7.4476],[110.2426,-7.4448],[110.2489,-7.4434],[110.252,-7.4359],[110.2565,-7.4382],[110.2579,-7.4372],[110.2577,-7.432],[110.2614,-7.4329],[110.2621,-7.4348],[110.2711,-7.4285],[110.2758,-7.4292],[110.2789,-7.4278],[110.287,-7.4342],[110.3009,-7.4358],[110.307,-7.4355],[110.3175,-7.4319],[110.3154,-7.4462],[110.3115,-7.4466],[110.3055,-7.4508],[110.3012,-7.4567],[110.2976,-7.4559],[110.2988,-7.4622],[110.294,-7.4694],[110.2879,-7.4722],[110.2812,-7.4699],[110.2781,-7.4723],[110.2782,-7.4755],[110.2704,-7.4782],[110.2626,-7.4832]]]}},{"type":"Feature","properties":{"name":"Tempuran","name_en":"Tempuran","admin_level":"6","osm_id":""},"geometry":{"type":"Polygon","coordinates":[[[110.1818,-7.5877],[110.1799,-7.5925],[110.1764,-7.5925],[110.1749,-7.5885],[110.1658,-7.5852],[110.165,-7.5862],[110.1632,-7.5828],[110.1666,-7.5773],[110.1658,-7.573],[110.167,-7.5706],[110.1639,-7.5695],[110.1623,-7.5642],[110.1566,-7.5627],[110.1553,-7.5632],[110.1557,-7.5649],[110.1457,-7.5632],[110.146,-7.5614],[110.1442,-7.5616],[110.1434,-7.5593],[110.137,-7.5575],[110.1334,-7.548],[110.1334,-7.5435],[110.1357,-7.5403],[110.134,-7.5382],[110.1337,-7.5326],[110.1363,-7.5295],[110.1302,-7.5278],[110.1282,-7.5295],[110.1249,-7.5275],[110.1252,-7.5219],[110.1309,-7.524],[110.1343,-7.5229],[110.1323,-7.5039],[110.1341,-7.5028],[110.1346,-7.5],[110.1294,-7.4917],[110.1293,-7.489],[110.1438,-7.4914],[110.149,-7.4895],[110.167,-7.5031],[110.1725,-7.5049],[110.1759,-7.5084],[110.1795,-7.5083],[110.1801,-7.5099],[110.1845,-7.5111],[110.1837,-7.5139],[110.187,-7.517],[110.1858,-7.5176],[110.1863,-7.5215],[110.1856,-7.5226],[110.183,-7.5212],[110.1836,-7.5251],[110.1802,-7.5273],[110.181,-7.5325],[110.1778,-7.5346],[110.1803,-7.538],[110.1802,-7.5457],[110.1848,-7.5582],[110.1838,-7.5613],[110.188,-7.5632],[110.189,-7.5694],[110.1928,-7.57],[110.1926,-7.573],[110.1896,-7.5733],[110.1878,-7.5787],[110.1847,-7.5795],[110.1846,-7.5837],[110.1825,-7.5845],[110.1818,-7.5877]]]}},{"type":"Feature","properties":{"name":"Windusari","name_en":"Windusari","admin_level":"6","osm_id":""},"geometry":{"type":"Polygon","coordinates":[[[110.1569,-7.4486],[110.1499,-7.443],[110.1479,-7.4437],[110.1459,-7.4415],[110.1372,-7.4398],[110.1372,-7.4356],[110.1262,-7.429],[110.1268,-7.4263],[110.125,-7.4218],[110.1037,-7.4081],[110.1031,-7.4064],[110.0978,-7.4071],[110.0832,-7.3889],[110.0771,-7.3851],[110.0786,-7.3834],[110.0935,-7.3878],[110.1207,-7.3903],[110.1277,-7.3871],[110.1392,-7.3885],[110.1424,-7.3849],[110.1468,-7.3836],[110.1599,-7.3861],[110.1752,-7.381],[110.1785,-7.3814],[110.1813,-7.3837],[110.1892,-7.3838],[110.1895,-7.3817],[110.1928,-7.38],[110.2004,-7.3824],[110.2052,-7.3871],[110.2119,-7.3855],[110.2163,-7.3881],[110.2133,-7.3972],[110.2164,-7.4064],[110.2126,-7.4193],[110.2144,-7.4222],[110.2132,-7.4295],[110.2169,-7.4309],[110.2156,-7.4339],[110.1978,-7.4224],[110.1911,-7.4361],[110.1869,-7.4381],[110.1755,-7.4331],[110.1702,-7.4264],[110.1632,-7.4245],[110.1611,-7.4153],[110.1553,-7.4235],[110.1535,-7.432],[110.149,-7.439],[110.1549,-7.4429],[110.1578,-7.4474],[110.1569,-7.4486]]]}}]}