{"type":"FeatureCollection","metadata":{"parent_osm_id":"gid_IDN_29_11_1","parent_name":"MinahasaTenggara","parent_name_1":"SulawesiUtara","parent_gid":"IDN.29.11_1","parent_level":"5","child_level":"6","count":12,"source":"GADM 4.1","generated":"2026-05-05"},"features":[{"type":"Feature","properties":{"name":"Belang","name_en":"Belang","admin_level":"6","osm_id":""},"geometry":{"type":"Polygon","coordinates":[[[124.7863,0.9376],[124.7875,0.9358],[124.7863,0.9327],[124.7832,0.9326],[124.7837,0.9305],[124.7819,0.9278],[124.7861,0.929],[124.7846,0.9257],[124.7867,0.9251],[124.7868,0.9233],[124.7878,0.924],[124.7875,0.9222],[124.7858,0.922],[124.7854,0.92],[124.7817,0.9209],[124.7824,0.9193],[124.7778,0.913],[124.7741,0.9166],[124.7718,0.9164],[124.7696,0.9119],[124.7683,0.9119],[124.7696,0.9091],[124.7685,0.907],[124.7494,0.961],[124.7425,0.9725],[124.7332,0.9716],[124.7301,0.9739],[124.7331,0.9765],[124.7449,0.977],[124.7852,0.9908],[124.8054,1.0005],[124.807,1.0017],[124.8059,1.0098],[124.8082,1.0142],[124.8294,1.0186],[124.8319,1.0167],[124.835,1.0169],[124.8342,0.9911],[124.8394,0.9641],[124.7941,0.9478],[124.7877,0.9428],[124.7863,0.9376]]]}},{"type":"Feature","properties":{"name":"Pasan","name_en":"Pasan","admin_level":"6","osm_id":""},"geometry":{"type":"Polygon","coordinates":[[[124.7311,0.9747],[124.7251,0.9742],[124.7192,0.971],[124.7115,0.971],[124.7165,0.981],[124.7195,0.9938],[124.7238,0.9989],[124.7257,1.0045],[124.7329,1.0118],[124.7367,1.0216],[124.7365,1.037],[124.7329,1.0482],[124.7244,1.0658],[124.7221,1.0798],[124.7255,1.0868],[124.7331,1.0897],[124.7372,1.0975],[124.7467,1.1073],[124.7585,1.0983],[124.768,1.0973],[124.7681,1.0599],[124.7639,1.0399],[124.7644,1.0324],[124.7616,1.0247],[124.7619,1.0114],[124.7817,1.0014],[124.7821,0.9962],[124.7887,0.9923],[124.7449,0.977],[124.7331,0.9765],[124.7311,0.9747]]]}},{"type":"Feature","properties":{"name":"Pusomaen","name_en":"Pusomaen","admin_level":"6","osm_id":""},"geometry":{"type":"Polygon","coordinates":[[[124.884,0.9743],[124.8865,0.9749],[124.8864,0.9764],[124.8879,0.9739],[124.884,0.9709],[124.8623,0.9697],[124.8394,0.9641],[124.8347,0.9868],[124.8338,0.998],[124.835,1.0169],[124.8459,1.0252],[124.8614,1.0423],[124.8679,1.0578],[124.8775,1.0654],[124.8849,1.0669],[124.8884,1.0467],[124.892,1.039],[124.8989,1.0308],[124.9129,1.0199],[124.907,1.017],[124.9029,1.0122],[124.9006,1.0119],[124.8975,1.0069],[124.8922,1.004],[124.8915,0.9984],[124.8945,0.9927],[124.8932,0.9905],[124.8944,0.9809],[124.8885,0.9844],[124.8873,0.9904],[124.8845,0.9895],[124.8866,0.9877],[124.8864,0.9849],[124.885,0.9846],[124.8844,0.9866],[124.8837,0.9848],[124.8853,0.9783],[124.8812,0.979],[124.8803,0.9808],[124.8805,0.9779],[124.8841,0.977],[124.8826,0.975],[124.884,0.9743]]]}},{"type":"Feature","properties":{"name":"Ratahan","name_en":"Ratahan","admin_level":"6","osm_id":""},"geometry":{"type":"Polygon","coordinates":[[[124.7864,0.9941],[124.7821,0.9962],[124.7817,1.0014],[124.7615,1.0126],[124.7616,1.0247],[124.7644,1.0324],[124.7639,1.0399],[124.7681,1.0599],[124.7688,1.0771],[124.7671,1.0836],[124.7674,1.094],[124.768,1.0973],[124.7716,1.0966],[124.7764,1.1008],[124.7828,1.1031],[124.7872,1.1104],[124.8009,1.1156],[124.8029,1.1148],[124.8015,1.0999],[124.8115,1.0891],[124.8171,1.0855],[124.8248,1.0837],[124.8354,1.0838],[124.8403,1.0645],[124.8216,1.0595],[124.8174,1.0558],[124.8248,1.0353],[124.8298,1.0308],[124.8326,1.0257],[124.8316,1.0169],[124.8294,1.0186],[124.8077,1.014],[124.8059,1.0098],[124.8069,1.0013],[124.7887,0.9923],[124.7864,0.9941]]]}},{"type":"Feature","properties":{"name":"RatahanTimur","name_en":"RatahanTimur","admin_level":"6","osm_id":""},"geometry":{"type":"Polygon","coordinates":[[[124.8574,1.0381],[124.8374,1.0179],[124.8316,1.0169],[124.8326,1.0257],[124.8298,1.0308],[124.8248,1.0353],[124.8174,1.0558],[124.8216,1.0595],[124.8403,1.0645],[124.8354,1.0838],[124.8248,1.0837],[124.8171,1.0855],[124.8115,1.0891],[124.8015,1.0999],[124.8029,1.1148],[124.8107,1.1142],[124.8162,1.1163],[124.8218,1.1126],[124.8293,1.1164],[124.8336,1.1207],[124.8382,1.1206],[124.8417,1.1145],[124.8472,1.11],[124.8674,1.0799],[124.8849,1.0669],[124.8775,1.0654],[124.8679,1.0578],[124.8614,1.0423],[124.8574,1.0381]]]}},{"type":"Feature","properties":{"name":"Ratatotok","name_en":"Ratatotok","admin_level":"6","osm_id":""},"geometry":{"type":"Polygon","coordinates":[[[124.7103,0.8705],[124.7072,0.8624],[124.7074,0.857],[124.7061,0.8575],[124.7093,0.8471],[124.7206,0.8517],[124.7217,0.8486],[124.7183,0.8484],[124.7078,0.8419],[124.7072,0.8463],[124.7022,0.8464],[124.699,0.844],[124.7,0.8469],[124.6974,0.8468],[124.6985,0.848],[124.697,0.8502],[124.6973,0.8551],[124.6948,0.858],[124.696,0.8589],[124.6946,0.8603],[124.6922,0.8591],[124.6868,0.8604],[124.6864,0.8631],[124.6881,0.8655],[124.6855,0.8673],[124.6851,0.8713],[124.6837,0.8708],[124.6825,0.8728],[124.674,0.8694],[124.6709,0.8715],[124.6698,0.8736],[124.6708,0.8786],[124.6671,0.8812],[124.6646,0.8886],[124.6604,0.8909],[124.6604,0.8997],[124.6566,0.9026],[124.6586,0.9083],[124.6538,0.9132],[124.6523,0.9237],[124.648,0.928],[124.647,0.9393],[124.6498,0.949],[124.6551,0.9523],[124.6604,0.9464],[124.6723,0.9429],[124.6858,0.9423],[124.6918,0.9462],[124.6973,0.9536],[124.6986,0.9594],[124.7045,0.9643],[124.7059,0.9683],[124.7094,0.969],[124.7121,0.9717],[124.7192,0.971],[124.7251,0.9742],[124.7301,0.9739],[124.7332,0.9716],[124.7412,0.9729],[124.7494,0.961],[124.7582,0.9339],[124.7651,0.9184],[124.7685,0.907],[124.7681,0.9023],[124.7707,0.8984],[124.7674,0.896],[124.7681,0.8918],[124.7609,0.8878],[124.7603,0.8927],[124.7582,0.8942],[124.7531,0.8929],[124.752,0.8964],[124.7502,0.8968],[124.7464,0.8958],[124.7475,0.8952],[124.7419,0.8896],[124.7327,0.8845],[124.7335,0.8901],[124.7292,0.8902],[124.7282,0.8916],[124.7283,0.8948],[124.7304,0.896],[124.7269,0.8967],[124.7209,0.8946],[124.7165,0.8963],[124.716,0.8937],[124.7182,0.8925],[124.7147,0.8853],[124.712,0.8744],[124.7128,0.8721],[124.7103,0.8705]]]}},{"type":"Feature","properties":{"name":"SilianRaya","name_en":"SilianRaya","admin_level":"6","osm_id":""},"geometry":{"type":"Polygon","coordinates":[[[124.6393,1.0979],[124.6492,1.101],[124.6655,1.102],[124.6752,1.0865],[124.6774,1.0797],[124.6774,1.0602],[124.6731,1.0507],[124.665,1.0498],[124.6593,1.0551],[124.6482,1.0709],[124.6417,1.0857],[124.634,1.0913],[124.6295,1.0979],[124.6393,1.0979]]]}},{"type":"Feature","properties":{"name":"Tombatu","name_en":"Tombatu","admin_level":"6","osm_id":""},"geometry":{"type":"Polygon","coordinates":[[[124.7228,0.9976],[124.7179,0.9903],[124.7165,0.981],[124.7115,0.971],[124.7052,0.9678],[124.7045,0.9643],[124.6986,0.9594],[124.6973,0.9536],[124.6918,0.9462],[124.6858,0.9423],[124.6723,0.9429],[124.6596,0.9467],[124.6551,0.9523],[124.6524,0.9515],[124.6516,0.9556],[124.6492,0.9569],[124.645,0.9565],[124.6348,0.9488],[124.63,0.9471],[124.6221,0.9489],[124.6191,0.9467],[124.613,0.9479],[124.6106,0.9463],[124.6085,0.951],[124.6074,0.958],[124.6105,0.9625],[124.624,0.9696],[124.6291,0.9748],[124.6276,0.9848],[124.6375,0.9748],[124.6445,0.9718],[124.6435,0.978],[124.6412,0.9829],[124.638,0.9858],[124.6355,0.9924],[124.64,1.0026],[124.64,1.0166],[124.6478,1.0217],[124.6498,1.0415],[124.6539,1.0477],[124.6562,1.0488],[124.6729,1.0506],[124.6777,1.0454],[124.6853,1.0427],[124.6872,1.0405],[124.6902,1.0425],[124.6942,1.041],[124.6919,1.0382],[124.6876,1.0378],[124.6879,1.0281],[124.6853,1.0256],[124.6851,1.0201],[124.6799,1.0096],[124.6806,1.0022],[124.6882,0.9922],[124.6893,0.9916],[124.699,0.9997],[124.7079,1.0022],[124.7247,1.0013],[124.7228,0.9976]]]}},{"type":"Feature","properties":{"name":"TombatuTimur","name_en":"TombatuTimur","admin_level":"6","osm_id":""},"geometry":{"type":"Polygon","coordinates":[[[124.7366,1.0208],[124.7329,1.0118],[124.7257,1.0045],[124.7247,1.0013],[124.7079,1.0022],[124.699,0.9997],[124.6941,0.9967],[124.6985,1.007],[124.7002,1.0156],[124.7066,1.0255],[124.7123,1.0305],[124.7138,1.0376],[124.7271,1.0333],[124.7317,1.0355],[124.7356,1.04],[124.737,1.0331],[124.7366,1.0208]]]}},{"type":"Feature","properties":{"name":"TombatuUtara","name_en":"TombatuUtara","admin_level":"6","osm_id":""},"geometry":{"type":"Polygon","coordinates":[[[124.6859,0.9953],[124.6806,1.0022],[124.6799,1.0096],[124.6851,1.0201],[124.6853,1.0256],[124.6879,1.0281],[124.6876,1.0378],[124.6919,1.0382],[124.6942,1.041],[124.6902,1.0425],[124.6872,1.0405],[124.6853,1.0427],[124.6777,1.0454],[124.6729,1.0506],[124.6774,1.0602],[124.6774,1.0797],[124.6752,1.0865],[124.6655,1.102],[124.6792,1.1],[124.7024,1.11],[124.7292,1.1103],[124.7335,1.1116],[124.7366,1.115],[124.7467,1.1073],[124.7372,1.0975],[124.7331,1.0897],[124.7255,1.0868],[124.722,1.0775],[124.7244,1.0658],[124.7356,1.04],[124.7317,1.0355],[124.7271,1.0333],[124.7138,1.0376],[124.7123,1.0305],[124.7066,1.0255],[124.7002,1.0156],[124.6985,1.007],[124.6941,0.9967],[124.6893,0.9916],[124.6859,0.9953]]]}},{"type":"Feature","properties":{"name":"Touluaan","name_en":"Touluaan","admin_level":"6","osm_id":""},"geometry":{"type":"Polygon","coordinates":[[[124.665,1.0498],[124.6562,1.0488],[124.6521,1.0457],[124.6492,1.0392],[124.6478,1.0217],[124.646,1.021],[124.612,1.0333],[124.6095,1.0384],[124.6048,1.0418],[124.5968,1.0521],[124.596,1.0583],[124.5938,1.0607],[124.5953,1.0631],[124.593,1.0651],[124.5907,1.0731],[124.5871,1.0762],[124.5837,1.0751],[124.5784,1.0804],[124.5726,1.0966],[124.5742,1.106],[124.5798,1.1085],[124.5785,1.1007],[124.5812,1.0935],[124.5801,1.0891],[124.5871,1.0837],[124.5979,1.0882],[124.6029,1.094],[124.6136,1.0946],[124.6206,1.0991],[124.6265,1.1008],[124.634,1.0913],[124.6417,1.0857],[124.6519,1.065],[124.665,1.0498]]]}},{"type":"Feature","properties":{"name":"TouluaanSelatan","name_en":"TouluaanSelatan","admin_level":"6","osm_id":""},"geometry":{"type":"Polygon","coordinates":[[[124.5941,0.9412],[124.5917,0.9398],[124.5871,0.9321],[124.5807,0.9342],[124.5808,0.9393],[124.5734,0.958],[124.5727,0.966],[124.5742,0.9729],[124.5714,0.9768],[124.5731,0.9832],[124.5758,0.9851],[124.5731,0.9901],[124.5729,0.9958],[124.5792,1.0064],[124.5751,1.0098],[124.5667,1.0111],[124.5641,1.0174],[124.56,1.0186],[124.5598,1.0233],[124.5552,1.0306],[124.5559,1.0338],[124.5539,1.0364],[124.5543,1.0395],[124.5618,1.0443],[124.5664,1.0438],[124.5636,1.0483],[124.5589,1.0517],[124.5579,1.0553],[124.5559,1.0556],[124.5579,1.0595],[124.5497,1.0717],[124.5538,1.0726],[124.5544,1.0767],[124.5512,1.0793],[124.5522,1.0847],[124.5496,1.0879],[124.5534,1.088],[124.5579,1.0916],[124.5599,1.0915],[124.5619,1.0952],[124.5638,1.0938],[124.5695,1.0956],[124.5732,1.0936],[124.5803,1.0775],[124.5837,1.0751],[124.5871,1.0762],[124.5907,1.0731],[124.593,1.0651],[124.5953,1.0631],[124.5938,1.0607],[124.596,1.0583],[124.5968,1.0521],[124.6048,1.0418],[124.6095,1.0384],[124.612,1.0333],[124.646,1.021],[124.64,1.0166],[124.64,1.0026],[124.6355,0.9924],[124.638,0.9858],[124.6412,0.9829],[124.6435,0.978],[124.6445,0.9718],[124.6375,0.9748],[124.6276,0.9848],[124.6294,0.9778],[124.6276,0.9723],[124.6105,0.9625],[124.6074,0.958],[124.6106,0.9463],[124.5941,0.9412]]]}}]}