{"type":"FeatureCollection","metadata":{"parent_osm_id":"8484716","parent_name":"Gunungsitoli","parent_name_1":"SumateraUtara","parent_gid":"IDN.32.5_1","parent_level":"5","child_level":"6","count":6,"source":"GADM 4.1","generated":"2026-05-09"},"features":[{"type":"Feature","properties":{"name":"GunungSitoli","name_en":"GunungSitoli","admin_level":"6","osm_id":""},"geometry":{"type":"Polygon","coordinates":[[[97.6014,1.3248],[97.6021,1.3195],[97.6093,1.3123],[97.6114,1.3074],[97.609,1.304],[97.6106,1.2941],[97.614,1.2915],[97.6224,1.2894],[97.6254,1.2863],[97.6357,1.2709],[97.6401,1.2607],[97.6399,1.2573],[97.6357,1.2517],[97.6389,1.2437],[97.6386,1.236],[97.6321,1.2372],[97.6284,1.2438],[97.6216,1.2385],[97.6197,1.229],[97.607,1.2377],[97.5987,1.2405],[97.5983,1.2442],[97.602,1.2453],[97.6041,1.2508],[97.5868,1.2434],[97.5825,1.244],[97.5707,1.2377],[97.5671,1.2384],[97.5645,1.2461],[97.5653,1.2582],[97.5697,1.2613],[97.5819,1.2605],[97.5832,1.2625],[97.5799,1.2688],[97.5766,1.2701],[97.5673,1.306],[97.5665,1.3121],[97.5706,1.3219],[97.5834,1.3433],[97.5879,1.3384],[97.5931,1.3363],[97.6014,1.3248]]]}},{"type":"Feature","properties":{"name":"GunungSitoliAloOa","name_en":"GunungSitoliAloOa","admin_level":"6","osm_id":""},"geometry":{"type":"Polygon","coordinates":[[[97.5412,1.2849],[97.5275,1.2792],[97.5102,1.2745],[97.4982,1.292],[97.4947,1.3049],[97.4982,1.3069],[97.5033,1.3148],[97.511,1.3159],[97.5176,1.3298],[97.5142,1.3451],[97.5347,1.3456],[97.5618,1.3295],[97.5706,1.3217],[97.5665,1.3121],[97.5766,1.2701],[97.5711,1.2713],[97.5658,1.277],[97.5594,1.2808],[97.5412,1.2849]]]}},{"type":"Feature","properties":{"name":"GunungSitoliBarat","name_en":"GunungSitoliBarat","admin_level":"6","osm_id":""},"geometry":{"type":"Polygon","coordinates":[[[97.5948,1.201],[97.5923,1.1979],[97.5864,1.199],[97.5831,1.2063],[97.5776,1.208],[97.5783,1.2151],[97.5603,1.2212],[97.5679,1.228],[97.569,1.233],[97.5671,1.2384],[97.574,1.2385],[97.5825,1.244],[97.5868,1.2434],[97.6041,1.2508],[97.602,1.2453],[97.5983,1.2442],[97.5982,1.2414],[97.607,1.2377],[97.6125,1.2333],[97.6017,1.2125],[97.5978,1.2104],[97.5949,1.2115],[97.5948,1.201]]]}},{"type":"Feature","properties":{"name":"GunungSitoliIdanoi","name_en":"GunungSitoliIdanoi","admin_level":"6","osm_id":""},"geometry":{"type":"Polygon","coordinates":[[[97.6364,1.103],[97.6328,1.1049],[97.6302,1.1166],[97.6264,1.1121],[97.6198,1.108],[97.6137,1.1098],[97.5932,1.1101],[97.5862,1.1204],[97.606,1.1301],[97.6224,1.1675],[97.6409,1.2012],[97.6501,1.2131],[97.6667,1.2267],[97.6737,1.2223],[97.6776,1.2169],[97.6795,1.2107],[97.6805,1.1931],[97.6902,1.1785],[97.6688,1.1525],[97.6634,1.139],[97.6436,1.1202],[97.6456,1.1192],[97.6468,1.1125],[97.6553,1.1183],[97.6625,1.1189],[97.6705,1.1232],[97.6734,1.1211],[97.6807,1.1218],[97.6851,1.1173],[97.6711,1.1086],[97.6508,1.1013],[97.646,1.1001],[97.6364,1.103]]]}},{"type":"Feature","properties":{"name":"GunungSitoliSelatan","name_en":"GunungSitoliSelatan","admin_level":"6","osm_id":""},"geometry":{"type":"Polygon","coordinates":[[[97.6263,1.1739],[97.6227,1.1806],[97.621,1.195],[97.6156,1.1999],[97.6014,1.1956],[97.5923,1.1979],[97.5948,1.201],[97.5949,1.2115],[97.5978,1.2104],[97.6017,1.2125],[97.6125,1.2333],[97.6197,1.229],[97.6216,1.2385],[97.6284,1.2438],[97.6321,1.2372],[97.6386,1.236],[97.6389,1.2437],[97.6357,1.2517],[97.6396,1.2569],[97.6427,1.2515],[97.6515,1.2434],[97.6524,1.2369],[97.6667,1.2267],[97.6501,1.2131],[97.6453,1.2074],[97.6263,1.1739]]]}},{"type":"Feature","properties":{"name":"GunungSitoliUtara","name_en":"GunungSitoliUtara","admin_level":"6","osm_id":""},"geometry":{"type":"Polygon","coordinates":[[[97.5618,1.3295],[97.5347,1.3456],[97.5142,1.3451],[97.5176,1.3298],[97.513,1.3181],[97.511,1.3159],[97.5033,1.3148],[97.4982,1.3069],[97.4948,1.305],[97.4878,1.313],[97.4839,1.3266],[97.479,1.3371],[97.4707,1.3467],[97.4781,1.3715],[97.489,1.3781],[97.4864,1.3867],[97.4904,1.3898],[97.5041,1.41],[97.5213,1.4234],[97.526,1.4219],[97.5376,1.4217],[97.54,1.4199],[97.5419,1.408],[97.5414,1.3883],[97.5455,1.386],[97.5494,1.3781],[97.5587,1.3762],[97.5636,1.365],[97.5695,1.3602],[97.5784,1.3461],[97.5834,1.3433],[97.5706,1.3217],[97.5618,1.3295]]]}}]}