{"type":"FeatureCollection","metadata":{"parent_osm_id":"16196026","parent_name":"Seluma","parent_name_1":"Bengkulu","parent_gid":"IDN.5.10_1","parent_level":"5","child_level":"6","count":14,"source":"GADM 4.1","generated":"2026-05-09"},"features":[{"type":"Feature","properties":{"name":"AirPeriukan","name_en":"AirPeriukan","admin_level":"6","osm_id":""},"geometry":{"type":"Polygon","coordinates":[[[102.4111,-4.0679],[102.4013,-4.0614],[102.4006,-4.0583],[102.3994,-4.0574],[102.3983,-4.0586],[102.3474,-4.0213],[102.3489,-4.0192],[102.3471,-4.0176],[102.345,-4.0192],[102.3321,-4.0098],[102.3131,-3.9937],[102.3135,-3.9922],[102.3149,-3.9913],[102.3166,-3.9933],[102.3196,-3.9935],[102.32,-3.9914],[102.324,-3.9929],[102.3215,-3.9905],[102.321,-3.9863],[102.3259,-3.9817],[102.3378,-3.9853],[102.3397,-3.9839],[102.3425,-3.9851],[102.3446,-3.9821],[102.349,-3.985],[102.3537,-3.9829],[102.3605,-3.9838],[102.3715,-3.9792],[102.3804,-3.9733],[102.3995,-3.9681],[102.4046,-3.9602],[102.4144,-3.9632],[102.4215,-3.9748],[102.4346,-3.9661],[102.4386,-3.9658],[102.4381,-3.9637],[102.4407,-3.9579],[102.4432,-3.96],[102.4444,-3.956],[102.4484,-3.956],[102.4553,-3.9418],[102.4669,-3.9285],[102.4704,-3.921],[102.4726,-3.9201],[102.4749,-3.9213],[102.4758,-3.9166],[102.4826,-3.9184],[102.4831,-3.9164],[102.4873,-3.9149],[102.4982,-3.9063],[102.5068,-3.9066],[102.5045,-3.9132],[102.5048,-3.9207],[102.4937,-3.951],[102.4914,-3.9551],[102.4821,-3.9563],[102.4795,-3.9591],[102.4802,-3.9627],[102.4779,-3.9638],[102.4795,-3.9652],[102.4771,-3.9664],[102.4796,-3.9747],[102.4749,-3.9778],[102.4751,-3.9861],[102.4732,-3.9906],[102.4703,-3.9961],[102.4637,-4.003],[102.465,-4.0064],[102.4698,-4.0087],[102.4765,-4.0152],[102.4777,-4.0259],[102.469,-4.0309],[102.4638,-4.0287],[102.4591,-4.0234],[102.4556,-4.0221],[102.4517,-4.0244],[102.4477,-4.031],[102.4461,-4.037],[102.4471,-4.0419],[102.4546,-4.0534],[102.4553,-4.0597],[102.4472,-4.0717],[102.4385,-4.0745],[102.4355,-4.0805],[102.4355,-4.0854],[102.4111,-4.0679]]]}},{"type":"Feature","properties":{"name":"IlirTalo","name_en":"IlirTalo","admin_level":"6","osm_id":""},"geometry":{"type":"Polygon","coordinates":[[[102.7044,-4.2503],[102.7121,-4.2586],[102.7127,-4.2629],[102.7033,-4.2818],[102.6778,-4.2637],[102.6558,-4.2454],[102.6198,-4.2203],[102.5307,-4.1519],[102.5451,-4.1491],[102.554,-4.1493],[102.6031,-4.1553],[102.602,-4.1569],[102.6056,-4.1669],[102.6152,-4.1771],[102.6171,-4.1869],[102.6211,-4.1865],[102.6271,-4.1794],[102.63,-4.1807],[102.6324,-4.1795],[102.6355,-4.1848],[102.6373,-4.1855],[102.6401,-4.1837],[102.6404,-4.1854],[102.6514,-4.1901],[102.6626,-4.1916],[102.6743,-4.1993],[102.6831,-4.1994],[102.6855,-4.2021],[102.6859,-4.2089],[102.69,-4.2106],[102.6906,-4.2132],[102.696,-4.2169],[102.698,-4.2218],[102.7045,-4.2274],[102.7052,-4.23],[102.7018,-4.2343],[102.7054,-4.2337],[102.7062,-4.2405],[102.7084,-4.2415],[102.7077,-4.2432],[102.6989,-4.2392],[102.702,-4.2488],[102.7044,-4.2503]]]}},{"type":"Feature","properties":{"name":"LubukSandi","name_en":"LubukSandi","admin_level":"6","osm_id":""},"geometry":{"type":"Polygon","coordinates":[[[102.475,-4.0127],[102.465,-4.0064],[102.4637,-4.003],[102.4703,-3.9961],[102.4732,-3.9906],[102.4751,-3.9861],[102.4749,-3.9778],[102.4796,-3.9747],[102.4771,-3.9664],[102.4795,-3.9652],[102.4779,-3.9638],[102.4802,-3.9627],[102.4795,-3.9591],[102.4821,-3.9563],[102.4914,-3.9551],[102.4998,-3.9367],[102.5048,-3.9207],[102.5045,-3.9132],[102.5157,-3.8792],[102.5148,-3.8506],[102.5125,-3.8379],[102.5329,-3.8296],[102.5522,-3.8355],[102.5542,-3.8337],[102.556,-3.8212],[102.5592,-3.8176],[102.5613,-3.8091],[102.5635,-3.8068],[102.5735,-3.8029],[102.5767,-3.8059],[102.5856,-3.8049],[102.6007,-3.8086],[102.6003,-3.8169],[102.6066,-3.8302],[102.6017,-3.8526],[102.6049,-3.8729],[102.603,-3.8832],[102.5933,-3.894],[102.5765,-3.9067],[102.5716,-3.9131],[102.5682,-3.9411],[102.5721,-3.9554],[102.5708,-3.9643],[102.5562,-3.9841],[102.5472,-3.9944],[102.5436,-3.9964],[102.5305,-3.9943],[102.5173,-3.9957],[102.5127,-3.9984],[102.51,-4.0047],[102.5056,-4.0074],[102.503,-4.0128],[102.4909,-4.0177],[102.4777,-4.0255],[102.4765,-4.0152],[102.475,-4.0127]]]}},{"type":"Feature","properties":{"name":"Seluma","name_en":"Seluma","admin_level":"6","osm_id":""},"geometry":{"type":"Polygon","coordinates":[[[102.5715,-4.091],[102.5651,-4.0923],[102.5541,-4.0897],[102.5513,-4.0814],[102.5425,-4.0798],[102.5313,-4.0724],[102.5319,-4.0701],[102.5407,-4.0671],[102.546,-4.0622],[102.5425,-4.0573],[102.5471,-4.0544],[102.5509,-4.0551],[102.5515,-4.0525],[102.5499,-4.0529],[102.5487,-4.0502],[102.5529,-4.0521],[102.552,-4.0495],[102.5545,-4.0484],[102.5518,-4.0454],[102.5753,-4.0458],[102.5869,-4.0509],[102.5936,-4.0509],[102.594,-4.0562],[102.5863,-4.0655],[102.5844,-4.0644],[102.5831,-4.0654],[102.5852,-4.0701],[102.5828,-4.0755],[102.5842,-4.0817],[102.5767,-4.0895],[102.5715,-4.091]]]}},{"type":"Feature","properties":{"name":"SelumaBarat","name_en":"SelumaBarat","admin_level":"6","osm_id":""},"geometry":{"type":"Polygon","coordinates":[[[102.4385,-4.0745],[102.4472,-4.0717],[102.4553,-4.0597],[102.4546,-4.0534],[102.4471,-4.0419],[102.4461,-4.037],[102.4477,-4.031],[102.4517,-4.0244],[102.4556,-4.0221],[102.4591,-4.0234],[102.4638,-4.0287],[102.469,-4.0309],[102.4909,-4.0177],[102.503,-4.0128],[102.5056,-4.0074],[102.51,-4.0047],[102.5109,-4.0009],[102.5146,-3.9971],[102.5232,-3.9942],[102.5436,-3.9964],[102.5508,-3.9901],[102.5534,-3.9941],[102.5557,-4.0045],[102.5555,-4.0236],[102.5587,-4.0278],[102.5574,-4.0296],[102.5583,-4.0317],[102.5557,-4.0323],[102.5564,-4.0336],[102.5522,-4.0341],[102.5482,-4.0376],[102.5483,-4.039],[102.5524,-4.0375],[102.5551,-4.0418],[102.554,-4.0436],[102.5514,-4.0437],[102.5519,-4.0471],[102.5545,-4.0479],[102.552,-4.0495],[102.5531,-4.0519],[102.5487,-4.0502],[102.5499,-4.0529],[102.5515,-4.0525],[102.5509,-4.0551],[102.5471,-4.0544],[102.5425,-4.0573],[102.546,-4.0622],[102.5426,-4.0659],[102.5321,-4.07],[102.5314,-4.0718],[102.5302,-4.0698],[102.5277,-4.0701],[102.5171,-4.0794],[102.5137,-4.0787],[102.5101,-4.0846],[102.5046,-4.0877],[102.502,-4.0911],[102.495,-4.0932],[102.4939,-4.0998],[102.4879,-4.1052],[102.4845,-4.1191],[102.4512,-4.0946],[102.4355,-4.0854],[102.4355,-4.0805],[102.4385,-4.0745]]]}},{"type":"Feature","properties":{"name":"SelumaSelatan","name_en":"SelumaSelatan","admin_level":"6","osm_id":""},"geometry":{"type":"Polygon","coordinates":[[[102.5773,-4.1087],[102.5837,-4.121],[102.5842,-4.1271],[102.5819,-4.1286],[102.5694,-4.1277],[102.5668,-4.129],[102.5597,-4.1418],[102.5644,-4.1505],[102.5456,-4.149],[102.53,-4.1523],[102.4845,-4.1191],[102.4879,-4.1052],[102.4939,-4.0998],[102.495,-4.0932],[102.502,-4.0911],[102.5046,-4.0877],[102.5101,-4.0846],[102.5137,-4.0787],[102.5171,-4.0794],[102.528,-4.0699],[102.5302,-4.0698],[102.5301,-4.0716],[102.5337,-4.0749],[102.5425,-4.0798],[102.5513,-4.0814],[102.5541,-4.0897],[102.5651,-4.0923],[102.5743,-4.09],[102.572,-4.0965],[102.5698,-4.0981],[102.5773,-4.1087]]]}},{"type":"Feature","properties":{"name":"SelumaTimur","name_en":"SelumaTimur","admin_level":"6","osm_id":""},"geometry":{"type":"Polygon","coordinates":[[[102.5998,-4.1555],[102.5798,-4.1515],[102.5769,-4.1523],[102.5752,-4.151],[102.5647,-4.1504],[102.5597,-4.1418],[102.5668,-4.129],[102.5694,-4.1277],[102.5819,-4.1286],[102.5842,-4.1271],[102.5837,-4.121],[102.5801,-4.113],[102.5698,-4.0981],[102.572,-4.0965],[102.5743,-4.09],[102.5809,-4.0864],[102.5842,-4.0817],[102.5828,-4.0755],[102.5852,-4.0701],[102.5831,-4.0654],[102.5844,-4.0644],[102.5863,-4.0655],[102.594,-4.0562],[102.5927,-4.047],[102.6001,-4.0527],[102.615,-4.0599],[102.6161,-4.0637],[102.6126,-4.0729],[102.6157,-4.076],[102.6244,-4.0791],[102.6338,-4.0871],[102.6454,-4.0817],[102.6499,-4.0874],[102.6481,-4.0894],[102.6489,-4.0926],[102.6554,-4.098],[102.6604,-4.0988],[102.669,-4.0966],[102.6609,-4.1032],[102.6539,-4.105],[102.6469,-4.1123],[102.6272,-4.1371],[102.622,-4.147],[102.61,-4.1547],[102.5998,-4.1555]]]}},{"type":"Feature","properties":{"name":"SelumaUtara","name_en":"SelumaUtara","admin_level":"6","osm_id":""},"geometry":{"type":"Polygon","coordinates":[[[102.5514,-4.0437],[102.554,-4.0436],[102.5551,-4.0418],[102.5524,-4.0375],[102.5483,-4.039],[102.5482,-4.0376],[102.5522,-4.0341],[102.5564,-4.0336],[102.5557,-4.0323],[102.5583,-4.0317],[102.5574,-4.0296],[102.5587,-4.0278],[102.5555,-4.0236],[102.5557,-4.0045],[102.5534,-3.9941],[102.5508,-3.9901],[102.5708,-3.9643],[102.5721,-3.9554],[102.5682,-3.9411],[102.5716,-3.9131],[102.5765,-3.9067],[102.5933,-3.894],[102.603,-3.8832],[102.6049,-3.8729],[102.6017,-3.8526],[102.6066,-3.8302],[102.6003,-3.8169],[102.6006,-3.8087],[102.6068,-3.8102],[102.6113,-3.801],[102.6165,-3.8006],[102.6244,-3.8033],[102.6325,-3.8109],[102.6397,-3.813],[102.6516,-3.8117],[102.6713,-3.8259],[102.6854,-3.8448],[102.6859,-3.8572],[102.69,-3.8616],[102.7035,-3.8625],[102.7071,-3.869],[102.7122,-3.8697],[102.7162,-3.8747],[102.7276,-3.8789],[102.7315,-3.8826],[102.734,-3.8889],[102.7446,-3.8914],[102.7542,-3.9123],[102.7603,-3.9154],[102.7757,-3.9158],[102.7774,-3.9175],[102.7748,-3.9285],[102.7804,-3.9343],[102.7818,-3.9412],[102.7843,-3.9448],[102.7716,-3.9459],[102.7573,-3.9492],[102.7494,-3.9536],[102.7406,-3.9515],[102.7337,-3.9527],[102.7178,-3.9649],[102.7115,-3.9667],[102.696,-3.976],[102.6892,-3.9832],[102.6847,-4.0076],[102.6797,-4.0229],[102.6899,-4.058],[102.6873,-4.0663],[102.6876,-4.0754],[102.6848,-4.0876],[102.6767,-4.093],[102.6685,-4.0969],[102.6604,-4.0988],[102.6554,-4.098],[102.6489,-4.0926],[102.6481,-4.0894],[102.6499,-4.0874],[102.6454,-4.0817],[102.6338,-4.0871],[102.6258,-4.0799],[102.6137,-4.0744],[102.6126,-4.0729],[102.6161,-4.0637],[102.615,-4.0599],[102.6001,-4.0527],[102.5943,-4.0478],[102.5921,-4.0476],[102.5936,-4.0509],[102.5869,-4.0509],[102.5753,-4.0458],[102.5521,-4.0455],[102.5514,-4.0437]]]}},{"type":"Feature","properties":{"name":"SemidangAlas","name_en":"SemidangAlas","admin_level":"6","osm_id":""},"geometry":{"type":"Polygon","coordinates":[[[102.8073,-4.2829],[102.7977,-4.2801],[102.7922,-4.2758],[102.7941,-4.2686],[102.7921,-4.2664],[102.788,-4.2657],[102.7934,-4.2588],[102.7828,-4.2511],[102.7874,-4.2452],[102.7908,-4.2444],[102.7951,-4.2474],[102.7977,-4.2439],[102.795,-4.2337],[102.79,-4.232],[102.7856,-4.2268],[102.7839,-4.2196],[102.7841,-4.2089],[102.7748,-4.1993],[102.7705,-4.1978],[102.7675,-4.1693],[102.7677,-4.1606],[102.7736,-4.1528],[102.7825,-4.1337],[102.8003,-4.133],[102.8023,-4.1319],[102.8021,-4.1274],[102.8033,-4.1266],[102.806,-4.1276],[102.8065,-4.1295],[102.808,-4.1287],[102.8078,-4.1268],[102.8051,-4.1262],[102.8071,-4.1242],[102.8061,-4.1214],[102.8028,-4.1202],[102.8042,-4.1144],[102.8059,-4.113],[102.8079,-4.115],[102.8083,-4.1134],[102.8048,-4.1054],[102.7971,-4.0948],[102.8056,-4.0878],[102.8051,-4.0852],[102.8084,-4.0826],[102.8049,-4.0504],[102.8076,-4.0474],[102.8222,-4.0417],[102.829,-4.0353],[102.8309,-4.0305],[102.8324,-4.0168],[102.8408,-3.9943],[102.8525,-3.9828],[102.86,-3.9927],[102.864,-3.9919],[102.8686,-3.9864],[102.8853,-3.9897],[102.8878,-3.9884],[102.8988,-3.9732],[102.9091,-3.9706],[102.9141,-3.9719],[102.9206,-3.98],[102.9342,-3.9855],[102.9351,-3.9927],[102.9402,-4.0013],[102.9519,-4.0076],[102.9572,-4.0168],[102.9628,-4.0207],[102.9834,-4.018],[102.9975,-4.0191],[102.9846,-4.0311],[102.981,-4.0416],[102.9678,-4.0447],[102.9627,-4.0482],[102.9602,-4.0531],[102.9567,-4.056],[102.9464,-4.0539],[102.9305,-4.0474],[102.9271,-4.0508],[102.916,-4.0568],[102.9139,-4.063],[102.9142,-4.0656],[102.922,-4.0763],[102.9223,-4.0798],[102.9187,-4.0854],[102.9178,-4.0928],[102.9196,-4.0966],[102.9411,-4.1107],[102.9527,-4.1124],[102.9584,-4.1195],[102.9705,-4.124],[102.9811,-4.1362],[102.9866,-4.1459],[102.9965,-4.1491],[102.9999,-4.1587],[102.9879,-4.1697],[102.9661,-4.1668],[102.9569,-4.1683],[102.9517,-4.1718],[102.9465,-4.1803],[102.935,-4.1854],[102.9224,-4.1818],[102.9171,-4.1818],[102.9094,-4.1753],[102.905,-4.1762],[102.9014,-4.179],[102.8998,-4.182],[102.9006,-4.1979],[102.8988,-4.2004],[102.8912,-4.2034],[102.8876,-4.2225],[102.8807,-4.2371],[102.8825,-4.2559],[102.8853,-4.2632],[102.875,-4.2733],[102.8623,-4.2824],[102.859,-4.3015],[102.8479,-4.2992],[102.8374,-4.2937],[102.834,-4.2901],[102.8278,-4.2891],[102.8243,-4.2867],[102.8212,-4.2862],[102.8138,-4.2912],[102.8073,-4.2829]]]}},{"type":"Feature","properties":{"name":"SemidangAlasMaras","name_en":"SemidangAlasMaras","admin_level":"6","osm_id":""},"geometry":{"type":"Polygon","coordinates":[[[102.802,-4.3594],[102.8004,-4.3603],[102.7948,-4.3537],[102.767,-4.3354],[102.7464,-4.3248],[102.7254,-4.3053],[102.7223,-4.3001],[102.7317,-4.2906],[102.7431,-4.2833],[102.7646,-4.2558],[102.7688,-4.2384],[102.7661,-4.2286],[102.768,-4.2265],[102.7672,-4.2242],[102.7695,-4.2186],[102.7684,-4.2121],[102.7701,-4.2112],[102.771,-4.206],[102.7705,-4.1978],[102.7748,-4.1993],[102.7841,-4.2089],[102.7839,-4.2196],[102.7856,-4.2268],[102.79,-4.232],[102.7952,-4.2339],[102.7977,-4.2439],[102.7969,-4.2462],[102.7951,-4.2474],[102.7895,-4.2443],[102.7854,-4.2465],[102.7827,-4.2506],[102.7934,-4.2588],[102.788,-4.2657],[102.7921,-4.2664],[102.7941,-4.2686],[102.7922,-4.2758],[102.7977,-4.2801],[102.8082,-4.2832],[102.8138,-4.2912],[102.8212,-4.2862],[102.8243,-4.2867],[102.8278,-4.2891],[102.834,-4.2901],[102.8374,-4.2937],[102.8479,-4.2992],[102.859,-4.3015],[102.8553,-4.3179],[102.8502,-4.3254],[102.8476,-4.3371],[102.8435,-4.3442],[102.8369,-4.3443],[102.802,-4.3594]]]}},{"type":"Feature","properties":{"name":"Sukaraja","name_en":"Sukaraja","admin_level":"6","osm_id":""},"geometry":{"type":"Polygon","coordinates":[[[102.3227,-3.9103],[102.333,-3.9099],[102.3478,-3.9006],[102.3444,-3.8912],[102.3472,-3.8867],[102.3532,-3.8834],[102.36,-3.8866],[102.3632,-3.8797],[102.3706,-3.8828],[102.3775,-3.8828],[102.3981,-3.8626],[102.4139,-3.8605],[102.4273,-3.855],[102.4297,-3.8518],[102.438,-3.847],[102.46,-3.8479],[102.4725,-3.8464],[102.4916,-3.8374],[102.4954,-3.8369],[102.498,-3.8389],[102.5125,-3.8379],[102.5148,-3.8506],[102.5157,-3.8792],[102.5068,-3.9066],[102.4982,-3.9063],[102.4873,-3.9149],[102.4831,-3.9164],[102.4826,-3.9184],[102.4758,-3.9166],[102.4749,-3.9213],[102.4726,-3.9201],[102.4704,-3.921],[102.4669,-3.9285],[102.4553,-3.9418],[102.4484,-3.956],[102.4444,-3.956],[102.4432,-3.96],[102.4407,-3.9579],[102.4381,-3.9637],[102.4386,-3.9658],[102.4346,-3.9661],[102.4215,-3.9748],[102.4144,-3.9632],[102.4046,-3.9602],[102.3995,-3.9681],[102.3804,-3.9733],[102.3715,-3.9792],[102.3605,-3.9838],[102.3537,-3.9829],[102.349,-3.985],[102.3446,-3.9821],[102.3425,-3.9851],[102.3397,-3.9839],[102.3378,-3.9853],[102.3259,-3.9817],[102.321,-3.9863],[102.3215,-3.9905],[102.324,-3.9929],[102.32,-3.9914],[102.3196,-3.9935],[102.3166,-3.9933],[102.3149,-3.9913],[102.3131,-3.9937],[102.2972,-3.9803],[102.285,-3.9662],[102.2807,-3.9642],[102.2768,-3.955],[102.2788,-3.94],[102.2691,-3.9237],[102.277,-3.9331],[102.2875,-3.9396],[102.2994,-3.9411],[102.3033,-3.9448],[102.3039,-3.9417],[102.3102,-3.937],[102.3107,-3.9298],[102.3154,-3.9304],[102.3136,-3.9254],[102.3162,-3.9215],[102.3134,-3.9155],[102.3156,-3.9119],[102.3227,-3.9103]]]}},{"type":"Feature","properties":{"name":"Talo","name_en":"Talo","admin_level":"6","osm_id":""},"geometry":{"type":"Polygon","coordinates":[[[102.698,-4.2112],[102.6934,-4.2141],[102.6906,-4.2132],[102.69,-4.2106],[102.6859,-4.2089],[102.6855,-4.2021],[102.6831,-4.1994],[102.6743,-4.1993],[102.6626,-4.1916],[102.6514,-4.1901],[102.6404,-4.1854],[102.6401,-4.1837],[102.6373,-4.1855],[102.6355,-4.1848],[102.6324,-4.1795],[102.63,-4.1807],[102.6271,-4.1794],[102.6211,-4.1865],[102.6171,-4.1869],[102.6152,-4.1771],[102.6056,-4.1669],[102.602,-4.1569],[102.6031,-4.1553],[102.6132,-4.1533],[102.622,-4.147],[102.6272,-4.1371],[102.6524,-4.1065],[102.6555,-4.104],[102.6609,-4.1032],[102.6749,-4.0936],[102.6817,-4.1003],[102.6823,-4.1066],[102.6947,-4.1123],[102.7034,-4.1193],[102.711,-4.1167],[102.7198,-4.124],[102.7275,-4.125],[102.7369,-4.1317],[102.7328,-4.138],[102.7308,-4.1555],[102.7314,-4.1649],[102.7163,-4.18],[102.714,-4.1878],[102.7096,-4.1886],[102.7094,-4.1935],[102.7069,-4.1955],[102.7077,-4.2011],[102.6995,-4.2064],[102.698,-4.2112]]]}},{"type":"Feature","properties":{"name":"TaloKecil","name_en":"TaloKecil","admin_level":"6","osm_id":""},"geometry":{"type":"Polygon","coordinates":[[[102.7474,-4.2776],[102.7431,-4.2833],[102.7317,-4.2906],[102.7268,-4.2969],[102.7224,-4.2999],[102.7128,-4.2893],[102.7033,-4.2818],[102.7127,-4.2629],[102.7121,-4.2586],[102.702,-4.2488],[102.6991,-4.2399],[102.6997,-4.2386],[102.7077,-4.2432],[102.7084,-4.2415],[102.7062,-4.2405],[102.7054,-4.2337],[102.7018,-4.2343],[102.7052,-4.23],[102.7045,-4.2274],[102.698,-4.2218],[102.6934,-4.2141],[102.698,-4.2112],[102.6995,-4.2064],[102.7077,-4.2011],[102.7069,-4.1955],[102.7094,-4.1935],[102.7096,-4.1886],[102.714,-4.1878],[102.7163,-4.18],[102.7314,-4.1649],[102.7321,-4.1432],[102.733,-4.1368],[102.7354,-4.133],[102.7529,-4.1319],[102.7825,-4.1337],[102.7736,-4.1528],[102.7677,-4.1606],[102.769,-4.1912],[102.7711,-4.2045],[102.7701,-4.2112],[102.7684,-4.2121],[102.7695,-4.2186],[102.7672,-4.2242],[102.768,-4.2265],[102.7661,-4.2286],[102.7688,-4.2384],[102.7682,-4.2432],[102.7646,-4.2558],[102.7474,-4.2776]]]}},{"type":"Feature","properties":{"name":"UluTalo","name_en":"UluTalo","admin_level":"6","osm_id":""},"geometry":{"type":"Polygon","coordinates":[[[102.7492,-4.1322],[102.7354,-4.133],[102.7369,-4.1317],[102.7275,-4.125],[102.7198,-4.124],[102.711,-4.1167],[102.7034,-4.1193],[102.6947,-4.1123],[102.6823,-4.1066],[102.6817,-4.1003],[102.6749,-4.0936],[102.6848,-4.0876],[102.6876,-4.0754],[102.6873,-4.0663],[102.6899,-4.058],[102.6797,-4.0229],[102.6847,-4.0076],[102.6892,-3.9832],[102.696,-3.976],[102.7115,-3.9667],[102.7178,-3.9649],[102.7337,-3.9527],[102.7406,-3.9515],[102.7494,-3.9536],[102.7573,-3.9492],[102.783,-3.9449],[102.7917,-3.9533],[102.8063,-3.9592],[102.8168,-3.9668],[102.8177,-3.9723],[102.8153,-3.9791],[102.8164,-3.9815],[102.8214,-3.9809],[102.8263,-3.9782],[102.845,-3.9769],[102.8525,-3.9828],[102.8408,-3.9943],[102.8324,-4.0168],[102.8309,-4.0305],[102.829,-4.0353],[102.8222,-4.0417],[102.8076,-4.0474],[102.8049,-4.0504],[102.8084,-4.0826],[102.8051,-4.0852],[102.8056,-4.0878],[102.7971,-4.0948],[102.8048,-4.1054],[102.8083,-4.1134],[102.8079,-4.115],[102.8059,-4.113],[102.8042,-4.1144],[102.8028,-4.1202],[102.8062,-4.1215],[102.8071,-4.1242],[102.8051,-4.1262],[102.8078,-4.1268],[102.8077,-4.1292],[102.8026,-4.1268],[102.8023,-4.1319],[102.8003,-4.133],[102.7817,-4.1337],[102.7492,-4.1322]]]}}]}