{"type":"FeatureCollection","metadata":{"parent_osm_id":"14954676","parent_name":"Payakumbuh","parent_name_1":"SumateraBarat","parent_gid":"IDN.30.14_1","parent_level":"5","child_level":"6","count":5,"source":"GADM 4.1","generated":"2026-05-09"},"features":[{"type":"Feature","properties":{"name":"PayakumbuhBarat","name_en":"PayakumbuhBarat","admin_level":"6","osm_id":""},"geometry":{"type":"Polygon","coordinates":[[[100.6281,-0.2221],[100.6329,-0.2257],[100.6352,-0.2242],[100.6382,-0.2271],[100.6366,-0.2288],[100.6412,-0.2336],[100.639,-0.2343],[100.6335,-0.2416],[100.6319,-0.2411],[100.6278,-0.2477],[100.6199,-0.2502],[100.6171,-0.2487],[100.6151,-0.2594],[100.6044,-0.2561],[100.5972,-0.2605],[100.5907,-0.2473],[100.5796,-0.243],[100.5861,-0.2374],[100.5974,-0.2206],[100.602,-0.2196],[100.6093,-0.2114],[100.6118,-0.2134],[100.6151,-0.2107],[100.6194,-0.2162],[100.6244,-0.2147],[100.6281,-0.2221]]]}},{"type":"Feature","properties":{"name":"PayakumbuhLamposiTigoN","name_en":"PayakumbuhLamposiTigoN","admin_level":"6","osm_id":""},"geometry":{"type":"Polygon","coordinates":[[[100.5991,-0.2192],[100.5831,-0.21],[100.5836,-0.2014],[100.5857,-0.1984],[100.5889,-0.1982],[100.5926,-0.1933],[100.5984,-0.1914],[100.6029,-0.1935],[100.6065,-0.1932],[100.6061,-0.1967],[100.6119,-0.195],[100.6174,-0.1957],[100.6195,-0.1941],[100.6301,-0.194],[100.624,-0.2005],[100.6229,-0.2046],[100.6185,-0.2063],[100.6136,-0.2124],[100.6118,-0.2134],[100.6093,-0.2114],[100.602,-0.2196],[100.5991,-0.2192]]]}},{"type":"Feature","properties":{"name":"PayakumbuhSelatan","name_en":"PayakumbuhSelatan","admin_level":"6","osm_id":""},"geometry":{"type":"Polygon","coordinates":[[[100.614,-0.274],[100.6058,-0.2705],[100.6035,-0.2675],[100.5984,-0.265],[100.5972,-0.2605],[100.6044,-0.2561],[100.6151,-0.2594],[100.6171,-0.2487],[100.6199,-0.2502],[100.6278,-0.2477],[100.6326,-0.2408],[100.6336,-0.2441],[100.6357,-0.2444],[100.6365,-0.243],[100.6406,-0.2484],[100.6414,-0.2562],[100.6466,-0.2553],[100.6491,-0.2661],[100.6473,-0.2706],[100.6494,-0.2739],[100.6461,-0.2742],[100.6343,-0.268],[100.6226,-0.2718],[100.6187,-0.2749],[100.614,-0.274]]]}},{"type":"Feature","properties":{"name":"PayakumbuhTimur","name_en":"PayakumbuhTimur","admin_level":"6","osm_id":""},"geometry":{"type":"Polygon","coordinates":[[[100.6462,-0.25],[100.6466,-0.2553],[100.6414,-0.2562],[100.6404,-0.2482],[100.6365,-0.243],[100.6347,-0.2445],[100.6326,-0.2429],[100.639,-0.2343],[100.6451,-0.2301],[100.6438,-0.2293],[100.6442,-0.227],[100.6497,-0.2173],[100.6478,-0.2144],[100.6519,-0.2133],[100.6525,-0.2105],[100.6579,-0.209],[100.6572,-0.2079],[100.6622,-0.2008],[100.6612,-0.1944],[100.6628,-0.1944],[100.6639,-0.1903],[100.6718,-0.1893],[100.6776,-0.1923],[100.6772,-0.1985],[100.6803,-0.2047],[100.685,-0.2084],[100.6853,-0.2161],[100.6772,-0.2145],[100.6753,-0.2203],[100.6774,-0.2314],[100.6674,-0.2382],[100.6675,-0.2433],[100.6606,-0.241],[100.6462,-0.25]]]}},{"type":"Feature","properties":{"name":"PayakumbuhUtara","name_en":"PayakumbuhUtara","admin_level":"6","osm_id":""},"geometry":{"type":"Polygon","coordinates":[[[100.6374,-0.2283],[100.6382,-0.2271],[100.6352,-0.2242],[100.6329,-0.2257],[100.6283,-0.2226],[100.6244,-0.2147],[100.6194,-0.2162],[100.6151,-0.2107],[100.6193,-0.2056],[100.6229,-0.2046],[100.624,-0.2005],[100.6281,-0.195],[100.6318,-0.1942],[100.6324,-0.1871],[100.6364,-0.1841],[100.656,-0.1882],[100.6611,-0.1862],[100.6639,-0.1919],[100.6628,-0.1944],[100.6612,-0.1944],[100.6622,-0.2008],[100.6572,-0.2079],[100.6579,-0.209],[100.6525,-0.2105],[100.6519,-0.2133],[100.6478,-0.2144],[100.6497,-0.2173],[100.6442,-0.227],[100.6438,-0.2293],[100.6451,-0.2301],[100.6411,-0.2329],[100.6374,-0.2283]]]}}]}