{"type":"FeatureCollection","metadata":{"parent_osm_id":"gid_IDN_20_4_1","parent_name":"LombokBarat","parent_name_1":"NusaTenggaraBarat","parent_gid":"IDN.20.4_1","parent_level":"5","child_level":"6","count":10,"source":"GADM 4.1","generated":"2026-05-05"},"features":[{"type":"Feature","properties":{"name":"BatuLayar","name_en":"BatuLayar","admin_level":"6","osm_id":""},"geometry":{"type":"Polygon","coordinates":[[[116.0692,-8.55],[116.0677,-8.5313],[116.064,-8.5209],[116.0602,-8.5171],[116.0605,-8.5143],[116.0516,-8.5027],[116.047,-8.5012],[116.0444,-8.5032],[116.0455,-8.4982],[116.0425,-8.4951],[116.0397,-8.4966],[116.0386,-8.4919],[116.0339,-8.485],[116.0377,-8.4812],[116.037,-8.4702],[116.0448,-8.4705],[116.0683,-8.4618],[116.0724,-8.464],[116.0746,-8.4725],[116.0796,-8.467],[116.0834,-8.4661],[116.0947,-8.4889],[116.0967,-8.4983],[116.1013,-8.5087],[116.0986,-8.514],[116.101,-8.5269],[116.0998,-8.5288],[116.1009,-8.5314],[116.0969,-8.5365],[116.098,-8.5437],[116.0946,-8.5442],[116.0932,-8.546],[116.0942,-8.5474],[116.0911,-8.5495],[116.088,-8.545],[116.0828,-8.5453],[116.0796,-8.5508],[116.0758,-8.5533],[116.0692,-8.55]]]}},{"type":"Feature","properties":{"name":"Gerung","name_en":"Gerung","admin_level":"6","osm_id":""},"geometry":{"type":"Polygon","coordinates":[[[116.1436,-8.6665],[116.1482,-8.6715],[116.1534,-8.6673],[116.1546,-8.6696],[116.1524,-8.6754],[116.1545,-8.6814],[116.1488,-8.6946],[116.1502,-8.6979],[116.1537,-8.6975],[116.154,-8.7017],[116.1569,-8.707],[116.1608,-8.7083],[116.1587,-8.7138],[116.1589,-8.7166],[116.1599,-8.7147],[116.1608,-8.7168],[116.1582,-8.7199],[116.1621,-8.723],[116.1619,-8.7254],[116.1661,-8.7257],[116.1673,-8.7298],[116.1658,-8.7333],[116.1525,-8.7381],[116.1398,-8.729],[116.1382,-8.7335],[116.1316,-8.7408],[116.1312,-8.746],[116.1279,-8.7443],[116.1222,-8.7365],[116.1171,-8.7359],[116.1131,-8.7378],[116.1098,-8.7363],[116.1077,-8.726],[116.119,-8.7132],[116.1064,-8.7104],[116.1096,-8.7058],[116.1119,-8.6947],[116.1087,-8.6928],[116.1049,-8.6965],[116.0916,-8.6954],[116.0873,-8.6878],[116.0872,-8.6782],[116.0782,-8.6768],[116.0731,-8.6797],[116.0693,-8.6766],[116.0721,-8.6683],[116.0694,-8.6596],[116.0689,-8.6513],[116.0832,-8.6488],[116.0877,-8.6468],[116.0903,-8.6426],[116.0949,-8.6466],[116.0968,-8.6465],[116.1017,-8.6546],[116.1046,-8.6548],[116.1037,-8.6596],[116.1048,-8.6641],[116.1125,-8.6634],[116.1212,-8.6663],[116.1242,-8.6626],[116.125,-8.6558],[116.1272,-8.654],[116.1273,-8.6555],[116.1357,-8.6581],[116.1463,-8.655],[116.1475,-8.6571],[116.1466,-8.6595],[116.1483,-8.6595],[116.1483,-8.6642],[116.1436,-8.6665]]]}},{"type":"Feature","properties":{"name":"GunungSari","name_en":"GunungSari","admin_level":"6","osm_id":""},"geometry":{"type":"Polygon","coordinates":[[[116.1192,-8.5616],[116.1194,-8.56],[116.1158,-8.5572],[116.1085,-8.555],[116.0971,-8.5551],[116.09,-8.5596],[116.0849,-8.56],[116.0743,-8.5539],[116.0786,-8.5519],[116.0828,-8.5453],[116.088,-8.545],[116.0909,-8.5495],[116.0942,-8.5474],[116.0932,-8.546],[116.0946,-8.5442],[116.0981,-8.5435],[116.0969,-8.5365],[116.1009,-8.5314],[116.0986,-8.514],[116.1012,-8.5095],[116.1007,-8.5054],[116.0967,-8.4983],[116.0947,-8.4889],[116.0834,-8.4661],[116.0912,-8.4646],[116.1014,-8.4679],[116.1295,-8.4706],[116.1336,-8.4693],[116.1349,-8.4608],[116.1374,-8.457],[116.1421,-8.4544],[116.1462,-8.4583],[116.1549,-8.4599],[116.161,-8.4562],[116.1635,-8.4628],[116.1675,-8.4656],[116.1721,-8.4661],[116.1767,-8.4634],[116.1823,-8.4627],[116.192,-8.4677],[116.1927,-8.4737],[116.1998,-8.4785],[116.1947,-8.4857],[116.189,-8.4878],[116.1847,-8.4942],[116.1764,-8.4973],[116.1747,-8.5003],[116.1669,-8.5016],[116.1628,-8.5057],[116.1629,-8.5111],[116.1598,-8.5115],[116.1556,-8.5148],[116.1552,-8.5179],[116.1528,-8.518],[116.1534,-8.5258],[116.1457,-8.5497],[116.1378,-8.5543],[116.1336,-8.5547],[116.1307,-8.5651],[116.1235,-8.5645],[116.1192,-8.5616]]]}},{"type":"Feature","properties":{"name":"Kediri","name_en":"Kediri","admin_level":"6","osm_id":""},"geometry":{"type":"Polygon","coordinates":[[[116.1248,-8.6574],[116.1242,-8.6626],[116.1212,-8.6663],[116.1125,-8.6634],[116.1069,-8.6647],[116.1048,-8.6641],[116.1038,-8.6603],[116.1046,-8.6548],[116.1017,-8.6546],[116.1,-8.6505],[116.1058,-8.6461],[116.1056,-8.6425],[116.1269,-8.6409],[116.1314,-8.6361],[116.1369,-8.6356],[116.1406,-8.6279],[116.1473,-8.6273],[116.1514,-8.6306],[116.1581,-8.6328],[116.1647,-8.63],[116.1641,-8.6276],[116.167,-8.6273],[116.168,-8.6255],[116.1786,-8.6203],[116.1804,-8.6253],[116.1782,-8.6263],[116.1814,-8.6396],[116.1727,-8.6443],[116.1719,-8.6488],[116.1684,-8.6482],[116.1627,-8.6532],[116.1624,-8.6555],[116.1468,-8.6599],[116.1475,-8.6571],[116.1445,-8.6547],[116.1357,-8.6581],[116.1273,-8.6555],[116.1272,-8.654],[116.1248,-8.6574]]]}},{"type":"Feature","properties":{"name":"Kuripan","name_en":"Kuripan","admin_level":"6","osm_id":""},"geometry":{"type":"Polygon","coordinates":[[[116.1664,-8.7264],[116.1619,-8.7254],[116.1621,-8.723],[116.1582,-8.7199],[116.1608,-8.7168],[116.1599,-8.7147],[116.1589,-8.7166],[116.1587,-8.7138],[116.1608,-8.7083],[116.1569,-8.707],[116.154,-8.7017],[116.1537,-8.6975],[116.1502,-8.6979],[116.1488,-8.6946],[116.1545,-8.6814],[116.1524,-8.6754],[116.1546,-8.6696],[116.1534,-8.6673],[116.1482,-8.6715],[116.1432,-8.666],[116.1483,-8.6642],[116.1483,-8.6595],[116.162,-8.6558],[116.1627,-8.6532],[116.1684,-8.6482],[116.1719,-8.6488],[116.1727,-8.6443],[116.1818,-8.6397],[116.1887,-8.6419],[116.1881,-8.6453],[116.1961,-8.6735],[116.1919,-8.6755],[116.1845,-8.6762],[116.1842,-8.6785],[116.1814,-8.6799],[116.1795,-8.6779],[116.1768,-8.6783],[116.1731,-8.6729],[116.1707,-8.6727],[116.1706,-8.674],[116.1669,-8.6729],[116.1683,-8.674],[116.1672,-8.6758],[116.1687,-8.6818],[116.174,-8.6912],[116.1767,-8.7119],[116.1704,-8.716],[116.1718,-8.7186],[116.1714,-8.7228],[116.1733,-8.7237],[116.1745,-8.727],[116.1726,-8.7282],[116.1664,-8.7264]]]}},{"type":"Feature","properties":{"name":"LabuApi","name_en":"LabuApi","admin_level":"6","osm_id":""},"geometry":{"type":"Polygon","coordinates":[[[116.0937,-8.6444],[116.0899,-8.6427],[116.0879,-8.6467],[116.0832,-8.6488],[116.0691,-8.6513],[116.0747,-8.623],[116.0778,-8.6228],[116.0859,-8.6264],[116.1013,-8.6252],[116.1052,-8.6209],[116.1092,-8.6192],[116.1088,-8.6172],[116.1117,-8.6167],[116.1103,-8.6212],[116.1137,-8.6221],[116.1181,-8.6183],[116.123,-8.6187],[116.1271,-8.617],[116.1309,-8.6189],[116.1335,-8.6154],[116.1367,-8.6166],[116.1362,-8.612],[116.1419,-8.614],[116.1507,-8.6122],[116.1543,-8.6075],[116.1571,-8.6103],[116.1576,-8.6149],[116.1614,-8.6168],[116.1637,-8.6228],[116.166,-8.6229],[116.1683,-8.6253],[116.167,-8.6273],[116.164,-8.6277],[116.1647,-8.63],[116.1581,-8.6328],[116.1514,-8.6306],[116.1473,-8.6273],[116.1406,-8.6279],[116.1369,-8.6356],[116.1314,-8.6361],[116.1269,-8.6409],[116.1056,-8.6425],[116.1058,-8.6461],[116.1,-8.6505],[116.0937,-8.6444]]]}},{"type":"Feature","properties":{"name":"Lembar","name_en":"Lembar","admin_level":"6","osm_id":""},"geometry":{"type":"Polygon","coordinates":[[[116.1305,-8.7752],[116.1287,-8.7793],[116.1262,-8.7796],[116.126,-8.7823],[116.1242,-8.7831],[116.1264,-8.7877],[116.1234,-8.789],[116.1134,-8.8027],[116.1148,-8.8082],[116.1067,-8.8173],[116.1038,-8.8155],[116.0999,-8.819],[116.0975,-8.8189],[116.0989,-8.8171],[116.0985,-8.8119],[116.092,-8.8055],[116.0902,-8.799],[116.0916,-8.7955],[116.0906,-8.7879],[116.0863,-8.7802],[116.0837,-8.7783],[116.0715,-8.7761],[116.0716,-8.7748],[116.0661,-8.7748],[116.0644,-8.7658],[116.0611,-8.763],[116.0617,-8.7573],[116.0589,-8.754],[116.0598,-8.7507],[116.0666,-8.7464],[116.0672,-8.7443],[116.0657,-8.7419],[116.0696,-8.7363],[116.0707,-8.7357],[116.0729,-8.7384],[116.084,-8.7282],[116.0827,-8.7272],[116.0787,-8.7287],[116.0774,-8.731],[116.0769,-8.7295],[116.0735,-8.7317],[116.072,-8.7311],[116.0721,-8.7291],[116.0696,-8.7285],[116.0632,-8.7313],[116.0594,-8.7267],[116.0596,-8.7303],[116.0566,-8.7366],[116.0596,-8.7369],[116.0557,-8.7378],[116.0567,-8.7245],[116.0686,-8.6767],[116.0731,-8.6797],[116.0782,-8.6768],[116.0872,-8.6782],[116.0873,-8.6878],[116.0916,-8.6954],[116.1049,-8.6965],[116.1087,-8.6928],[116.1121,-8.6949],[116.1096,-8.7058],[116.1064,-8.7104],[116.119,-8.7132],[116.1077,-8.726],[116.1098,-8.7363],[116.1131,-8.7378],[116.1171,-8.7359],[116.1222,-8.7365],[116.1279,-8.7443],[116.1333,-8.7484],[116.1351,-8.7555],[116.1411,-8.7632],[116.1416,-8.7662],[116.1335,-8.7683],[116.1305,-8.7752]]]}},{"type":"Feature","properties":{"name":"Lingsar","name_en":"Lingsar","admin_level":"6","osm_id":""},"geometry":{"type":"Polygon","coordinates":[[[116.1551,-8.5831],[116.1499,-8.5839],[116.1478,-8.5824],[116.1475,-8.5794],[116.1502,-8.5757],[116.1484,-8.5726],[116.1503,-8.5715],[116.148,-8.5718],[116.1477,-8.5698],[116.1445,-8.5696],[116.1428,-8.5656],[116.1355,-8.566],[116.1314,-8.5628],[116.1336,-8.5547],[116.1378,-8.5543],[116.146,-8.5493],[116.1534,-8.5258],[116.1528,-8.518],[116.1552,-8.5179],[116.1561,-8.5143],[116.1631,-8.5108],[116.1638,-8.5044],[116.1684,-8.5008],[116.1747,-8.5003],[116.1764,-8.4973],[116.1847,-8.4942],[116.189,-8.4878],[116.1947,-8.4857],[116.1998,-8.4785],[116.2053,-8.4802],[116.2145,-8.4802],[116.2229,-8.4564],[116.2299,-8.4557],[116.2359,-8.4525],[116.2448,-8.4537],[116.248,-8.4518],[116.256,-8.4527],[116.2648,-8.4513],[116.278,-8.4434],[116.2813,-8.4504],[116.2813,-8.4539],[116.2742,-8.4589],[116.2728,-8.4628],[116.2701,-8.4633],[116.264,-8.4725],[116.2604,-8.4719],[116.2565,-8.4795],[116.2503,-8.4836],[116.2448,-8.4897],[116.2429,-8.4951],[116.247,-8.4991],[116.2479,-8.5044],[116.2455,-8.5088],[116.2457,-8.5173],[116.2432,-8.5183],[116.244,-8.5208],[116.241,-8.5234],[116.2393,-8.5316],[116.2305,-8.5373],[116.2287,-8.5423],[116.2213,-8.5475],[116.226,-8.5623],[116.2211,-8.5688],[116.2113,-8.5719],[116.2094,-8.5755],[116.1995,-8.5803],[116.1998,-8.5845],[116.1865,-8.5883],[116.1859,-8.5896],[116.185,-8.5881],[116.1786,-8.5905],[116.1603,-8.5888],[116.16,-8.5849],[116.1551,-8.5831]]]}},{"type":"Feature","properties":{"name":"Narmada","name_en":"Narmada","admin_level":"6","osm_id":""},"geometry":{"type":"Polygon","coordinates":[[[116.1735,-8.623],[116.1683,-8.6253],[116.166,-8.6229],[116.1638,-8.6228],[116.1614,-8.6168],[116.1576,-8.6149],[116.1571,-8.6103],[116.1543,-8.6075],[116.1558,-8.6077],[116.1621,-8.5999],[116.171,-8.5933],[116.1701,-8.5915],[116.1643,-8.5914],[116.1603,-8.5888],[116.1786,-8.5905],[116.1829,-8.5883],[116.1859,-8.5896],[116.1903,-8.587],[116.1936,-8.5871],[116.1998,-8.5845],[116.1995,-8.5803],[116.2094,-8.5755],[116.2113,-8.5719],[116.2211,-8.5688],[116.226,-8.5623],[116.2213,-8.5475],[116.2287,-8.5423],[116.2305,-8.5373],[116.2393,-8.5316],[116.241,-8.5234],[116.244,-8.5208],[116.2432,-8.5183],[116.2457,-8.5173],[116.2455,-8.5088],[116.2479,-8.5044],[116.247,-8.4991],[116.2429,-8.4951],[116.2448,-8.4897],[116.2503,-8.4836],[116.2565,-8.4795],[116.2604,-8.4719],[116.264,-8.4725],[116.2701,-8.4633],[116.2728,-8.4628],[116.2742,-8.4589],[116.2813,-8.4539],[116.2813,-8.4504],[116.278,-8.4434],[116.2784,-8.44],[116.2863,-8.4378],[116.2891,-8.435],[116.3008,-8.4329],[116.3044,-8.4298],[116.311,-8.4293],[116.3202,-8.4235],[116.3278,-8.4137],[116.3329,-8.4107],[116.339,-8.4105],[116.337,-8.4175],[116.3305,-8.424],[116.327,-8.431],[116.3203,-8.433],[116.3186,-8.4402],[116.3152,-8.4429],[116.3132,-8.4497],[116.3059,-8.4571],[116.3057,-8.4606],[116.3035,-8.4616],[116.3068,-8.4742],[116.3155,-8.4875],[116.3206,-8.4983],[116.3207,-8.5046],[116.3165,-8.5118],[116.3161,-8.5169],[116.3094,-8.5236],[116.304,-8.5374],[116.2976,-8.5449],[116.2954,-8.5506],[116.2927,-8.5507],[116.2878,-8.5567],[116.2801,-8.559],[116.2783,-8.558],[116.276,-8.5617],[116.271,-8.5616],[116.2669,-8.5641],[116.2655,-8.5784],[116.2587,-8.581],[116.2578,-8.5853],[116.2555,-8.5854],[116.2546,-8.5888],[116.2495,-8.5927],[116.2445,-8.5937],[116.2423,-8.5961],[116.2315,-8.5954],[116.2275,-8.5988],[116.221,-8.5994],[116.2188,-8.602],[116.2015,-8.6098],[116.1943,-8.6178],[116.1899,-8.6171],[116.1886,-8.6187],[116.181,-8.6194],[116.1735,-8.623]]]}},{"type":"Feature","properties":{"name":"SekotongTengah","name_en":"SekotongTengah","admin_level":"6","osm_id":""},"geometry":{"type":"Polygon","coordinates":[[[116.1068,-8.8174],[116.0957,-8.8335],[116.0917,-8.8443],[116.1003,-8.856],[116.0991,-8.8597],[116.1014,-8.8698],[116.0826,-8.8739],[116.0796,-8.8785],[116.0794,-8.8832],[116.077,-8.8852],[116.0784,-8.895],[116.0741,-8.8928],[116.072,-8.8849],[116.0572,-8.8829],[116.0512,-8.8858],[116.0493,-8.8846],[116.0447,-8.87],[116.0508,-8.8676],[116.0519,-8.8649],[116.0586,-8.8632],[116.0694,-8.864],[116.0698,-8.8617],[116.0727,-8.8627],[116.0736,-8.8598],[116.0732,-8.8565],[116.0684,-8.8543],[116.066,-8.8539],[116.0642,-8.8555],[116.06,-8.8518],[116.0543,-8.8513],[116.0533,-8.8534],[116.0476,-8.854],[116.0435,-8.8614],[116.0383,-8.8626],[116.0371,-8.8645],[116.0349,-8.8634],[116.0342,-8.8585],[116.0288,-8.8571],[116.0213,-8.8605],[116.0186,-8.8596],[116.0127,-8.8634],[116.01,-8.8676],[116.01,-8.8738],[116.0173,-8.8741],[116.0216,-8.8762],[116.0279,-8.884],[116.0272,-8.8875],[116.0241,-8.8894],[116.0244,-8.8914],[116.0193,-8.8899],[116.0157,-8.8947],[116.0165,-8.898],[116.0218,-8.8994],[116.0234,-8.9032],[116.0205,-8.9014],[116.0203,-8.902],[116.019,-8.9012],[116.0184,-8.9019],[116.0172,-8.8994],[116.0081,-8.9043],[116.0059,-8.9023],[116.0043,-8.903],[116.0027,-8.8977],[115.9961,-8.8969],[115.9982,-8.893],[115.9967,-8.8881],[115.9936,-8.8877],[115.991,-8.8903],[115.9894,-8.8898],[115.9878,-8.8881],[115.9896,-8.8858],[115.9881,-8.8848],[115.9887,-8.8833],[115.9864,-8.883],[115.9846,-8.8805],[115.9833,-8.8821],[115.9812,-8.8816],[115.9805,-8.877],[115.9764,-8.8768],[115.9761,-8.8782],[115.975,-8.8773],[115.972,-8.879],[115.9721,-8.8745],[115.9708,-8.8738],[115.9726,-8.872],[115.9718,-8.8694],[115.9701,-8.8685],[115.9667,-8.8701],[115.9662,-8.8684],[115.9633,-8.8695],[115.9614,-8.8682],[115.9636,-8.8619],[115.9614,-8.8601],[115.9601,-8.8607],[115.9557,-8.8562],[115.9522,-8.856],[115.9528,-8.8546],[115.9514,-8.8549],[115.9507,-8.8524],[115.9459,-8.8512],[115.9474,-8.8505],[115.9472,-8.849],[115.9463,-8.8496],[115.9483,-8.8465],[115.9472,-8.8438],[115.9334,-8.8334],[115.925,-8.8344],[115.921,-8.8379],[115.9206,-8.8439],[115.92,-8.8435],[115.9184,-8.8455],[115.9154,-8.8439],[115.9139,-8.8452],[115.9141,-8.8418],[115.9134,-8.8407],[115.9056,-8.8387],[115.9061,-8.8358],[115.9027,-8.833],[115.9022,-8.8305],[115.8965,-8.8301],[115.8927,-8.8319],[115.8913,-8.8309],[115.8895,-8.8328],[115.8907,-8.8308],[115.8866,-8.8256],[115.8842,-8.826],[115.8827,-8.8299],[115.8807,-8.8302],[115.8761,-8.8246],[115.8734,-8.8261],[115.8738,-8.8228],[115.8718,-8.8226],[115.872,-8.8199],[115.8693,-8.8182],[115.8663,-8.8185],[115.864,-8.8232],[115.8622,-8.822],[115.859,-8.825],[115.8588,-8.8237],[115.8571,-8.8246],[115.8532,-8.8229],[115.8463,-8.8255],[115.8447,-8.8202],[115.8485,-8.8164],[115.8482,-8.8131],[115.8433,-8.8119],[115.8415,-8.8137],[115.834,-8.8135],[115.8313,-8.8152],[115.833,-8.8125],[115.8319,-8.812],[115.8352,-8.809],[115.8312,-8.8042],[115.8332,-8.8029],[115.8324,-8.7996],[115.8268,-8.8008],[115.8298,-8.7951],[115.826,-8.795],[115.8288,-8.7923],[115.8277,-8.7907],[115.8294,-8.7898],[115.8303,-8.7843],[115.8325,-8.7815],[115.8325,-8.7802],[115.8318,-8.7789],[115.8294,-8.7794],[115.8251,-8.7707],[115.8235,-8.7631],[115.8244,-8.7575],[115.821,-8.7522],[115.8258,-8.7504],[115.8299,-8.7446],[115.8367,-8.7414],[115.8384,-8.7292],[115.843,-8.7252],[115.8527,-8.7202],[115.8576,-8.7259],[115.86,-8.7266],[115.866,-8.7208],[115.869,-8.7296],[115.8649,-8.7388],[115.8649,-8.7427],[115.8669,-8.7462],[115.8802,-8.7521],[115.8828,-8.7574],[115.8814,-8.7595],[115.882,-8.7635],[115.8854,-8.7647],[115.8879,-8.7638],[115.8952,-8.7509],[115.895,-8.747],[115.8976,-8.7456],[115.8994,-8.7467],[115.9002,-8.7502],[115.8944,-8.7607],[115.8983,-8.7623],[115.9044,-8.7679],[115.9044,-8.7709],[115.9074,-8.7731],[115.917,-8.7755],[115.9198,-8.7723],[115.9198,-8.7689],[115.9267,-8.7681],[115.9355,-8.7698],[115.9353,-8.7677],[115.9392,-8.7651],[115.9426,-8.7585],[115.9419,-8.7539],[115.9454,-8.7506],[115.9454,-8.7489],[115.9493,-8.7454],[115.9565,-8.7442],[115.9662,-8.7364],[115.9674,-8.7346],[115.9657,-8.7288],[115.9691,-8.7335],[115.975,-8.7322],[115.9815,-8.7357],[115.9844,-8.7341],[115.985,-8.7304],[115.9898,-8.7305],[115.9968,-8.7387],[116.0034,-8.7431],[116.0085,-8.7512],[116.0105,-8.7517],[116.0148,-8.7506],[116.0232,-8.7416],[116.0295,-8.7394],[116.0285,-8.7284],[116.0342,-8.7197],[116.035,-8.7248],[116.0413,-8.7255],[116.0455,-8.7236],[116.0469,-8.7268],[116.0464,-8.7293],[116.0417,-8.734],[116.0429,-8.7363],[116.0417,-8.7398],[116.0462,-8.7457],[116.0419,-8.7491],[116.0392,-8.7488],[116.0364,-8.7508],[116.0404,-8.7561],[116.039,-8.7637],[116.044,-8.766],[116.0498,-8.7609],[116.057,-8.7679],[116.0626,-8.7665],[116.0664,-8.775],[116.0716,-8.7748],[116.0718,-8.7762],[116.0847,-8.7788],[116.0906,-8.7879],[116.0916,-8.7955],[116.0902,-8.799],[116.092,-8.8055],[116.0985,-8.8119],[116.0989,-8.8171],[116.0975,-8.8189],[116.0999,-8.819],[116.1038,-8.8155],[116.1068,-8.8174]]]}}]}