{"type":"FeatureCollection","metadata":{"parent_osm_id":"gid_IDN_18_2_1","parent_name":"HalmaheraSelatan","parent_name_1":"MalukuUtara","parent_gid":"IDN.18.2_1","parent_level":"5","child_level":"6","count":30,"source":"GADM 4.1","generated":"2026-05-05"},"features":[{"type":"Feature","properties":{"name":"Bacan","name_en":"Bacan","admin_level":"6","osm_id":""},"geometry":{"type":"Polygon","coordinates":[[[127.487,-0.6461],[127.4786,-0.6425],[127.4805,-0.6307],[127.4791,-0.6294],[127.4709,-0.6266],[127.465,-0.6295],[127.4605,-0.6254],[127.4591,-0.626],[127.4592,-0.6301],[127.4576,-0.632],[127.4514,-0.6302],[127.449,-0.6275],[127.4444,-0.6284],[127.4422,-0.6258],[127.4309,-0.621],[127.43,-0.6151],[127.4306,-0.614],[127.431,-0.6163],[127.4314,-0.614],[127.4297,-0.6106],[127.4211,-0.6074],[127.4156,-0.608],[127.4144,-0.6117],[127.4159,-0.6152],[127.4203,-0.6192],[127.4198,-0.6216],[127.4146,-0.6203],[127.4127,-0.6214],[127.412,-0.6186],[127.4097,-0.6214],[127.4078,-0.6209],[127.4095,-0.6162],[127.4083,-0.614],[127.4063,-0.6137],[127.4064,-0.611],[127.4023,-0.6083],[127.4026,-0.6059],[127.3995,-0.6015],[127.4008,-0.5983],[127.3973,-0.5955],[127.3942,-0.5954],[127.3897,-0.5882],[127.3835,-0.584],[127.3837,-0.5856],[127.3825,-0.5853],[127.3849,-0.5885],[127.3821,-0.5884],[127.3791,-0.5915],[127.3756,-0.592],[127.3687,-0.584],[127.3592,-0.5795],[127.3602,-0.5721],[127.359,-0.5671],[127.3606,-0.5639],[127.3596,-0.5623],[127.3624,-0.5581],[127.3614,-0.5568],[127.3536,-0.56],[127.3503,-0.5579],[127.3482,-0.5509],[127.3424,-0.5469],[127.3451,-0.5446],[127.3454,-0.5423],[127.3484,-0.5415],[127.3464,-0.5408],[127.3464,-0.5392],[127.3403,-0.5403],[127.3355,-0.5376],[127.3357,-0.5342],[127.3332,-0.5311],[127.3254,-0.5293],[127.322,-0.5241],[127.3157,-0.5204],[127.3175,-0.5194],[127.316,-0.5167],[127.31,-0.5167],[127.3083,-0.5133],[127.4053,-0.4858],[127.4266,-0.4782],[127.4316,-0.4793],[127.4378,-0.4879],[127.443,-0.4906],[127.4533,-0.4935],[127.4724,-0.4933],[127.4879,-0.501],[127.4993,-0.5003],[127.5,-0.4983],[127.5027,-0.4983],[127.506,-0.4942],[127.5199,-0.4926],[127.5251,-0.4885],[127.5251,-0.5432],[127.5316,-0.6376],[127.5358,-0.659],[127.5231,-0.6597],[127.5128,-0.6423],[127.5018,-0.6444],[127.4984,-0.6417],[127.4939,-0.6434],[127.4909,-0.6474],[127.487,-0.6461]]]}},{"type":"Feature","properties":{"name":"BacanBarat","name_en":"BacanBarat","admin_level":"6","osm_id":""},"geometry":{"type":"Polygon","coordinates":[[[127.3083,-0.5132],[127.3062,-0.5138],[127.3052,-0.5095],[127.3064,-0.5076],[127.3048,-0.5054],[127.3082,-0.5021],[127.3069,-0.499],[127.3085,-0.4958],[127.3053,-0.4925],[127.3044,-0.4892],[127.3,-0.4861],[127.3003,-0.4843],[127.2956,-0.4825],[127.2952,-0.4766],[127.2912,-0.4708],[127.2924,-0.4684],[127.2914,-0.456],[127.2931,-0.454],[127.2933,-0.4487],[127.2951,-0.4473],[127.2941,-0.4455],[127.2961,-0.4453],[127.2952,-0.4376],[127.301,-0.4328],[127.306,-0.4323],[127.3121,-0.434],[127.3131,-0.4315],[127.316,-0.4315],[127.3187,-0.4286],[127.3187,-0.4238],[127.3246,-0.4181],[127.3315,-0.4062],[127.3324,-0.3991],[127.3307,-0.3965],[127.3337,-0.3918],[127.3329,-0.3894],[127.3357,-0.3889],[127.3365,-0.3854],[127.3383,-0.3842],[127.3365,-0.378],[127.3377,-0.3763],[127.3356,-0.3741],[127.3369,-0.3718],[127.3353,-0.37],[127.3351,-0.3624],[127.3332,-0.3604],[127.3332,-0.3572],[127.3314,-0.3572],[127.3299,-0.3539],[127.3313,-0.3506],[127.327,-0.35],[127.3259,-0.3483],[127.3271,-0.3455],[127.3246,-0.3454],[127.3204,-0.3416],[127.3208,-0.3303],[127.3242,-0.3323],[127.324,-0.3282],[127.3261,-0.3315],[127.3385,-0.3386],[127.341,-0.3347],[127.3479,-0.3356],[127.3497,-0.331],[127.3534,-0.3332],[127.3563,-0.3312],[127.3605,-0.3219],[127.3698,-0.3158],[127.3725,-0.3169],[127.3744,-0.3237],[127.3803,-0.3255],[127.3862,-0.3321],[127.3863,-0.3358],[127.3893,-0.3386],[127.371,-0.3572],[127.3922,-0.3979],[127.4053,-0.4858],[127.3083,-0.5132]]]}},{"type":"Feature","properties":{"name":"BacanBaratUtara","name_en":"BacanBaratUtara","admin_level":"6","osm_id":""},"geometry":{"type":"Polygon","coordinates":[[[127.4143,-0.3782],[127.4138,-0.3814],[127.4167,-0.3811],[127.4149,-0.3839],[127.418,-0.3877],[127.4176,-0.3934],[127.4201,-0.3957],[127.423,-0.3956],[127.4221,-0.3988],[127.4248,-0.401],[127.4263,-0.406],[127.4318,-0.4074],[127.4413,-0.4151],[127.4507,-0.4189],[127.4536,-0.4186],[127.4573,-0.4163],[127.4587,-0.4119],[127.4577,-0.4088],[127.4525,-0.4057],[127.4525,-0.4035],[127.4567,-0.4023],[127.4603,-0.4038],[127.463,-0.4013],[127.4656,-0.4033],[127.4675,-0.4029],[127.4707,-0.3998],[127.4743,-0.392],[127.4792,-0.3874],[127.4791,-0.3838],[127.4761,-0.3806],[127.4749,-0.3764],[127.4786,-0.3711],[127.475,-0.3657],[127.482,-0.3609],[127.4828,-0.3544],[127.4888,-0.3525],[127.4886,-0.3509],[127.484,-0.3478],[127.4848,-0.34],[127.4928,-0.3415],[127.4977,-0.3383],[127.5015,-0.3334],[127.5141,-0.326],[127.5187,-0.3205],[127.5182,-0.3182],[127.5147,-0.3176],[127.5142,-0.3143],[127.5161,-0.3082],[127.5172,-0.3061],[127.5188,-0.3062],[127.5184,-0.3044],[127.5206,-0.3017],[127.531,-0.3032],[127.5376,-0.3093],[127.5394,-0.313],[127.5447,-0.3147],[127.5682,-0.3153],[127.5509,-0.3461],[127.5258,-0.4741],[127.5253,-0.4884],[127.5199,-0.4926],[127.508,-0.4933],[127.5027,-0.4983],[127.5,-0.4983],[127.4993,-0.5003],[127.4879,-0.501],[127.4724,-0.4933],[127.4533,-0.4935],[127.443,-0.4906],[127.4378,-0.4879],[127.4293,-0.4782],[127.4192,-0.48],[127.4053,-0.4858],[127.3922,-0.3979],[127.371,-0.3572],[127.3893,-0.3386],[127.3935,-0.3455],[127.3975,-0.3437],[127.4025,-0.3448],[127.4032,-0.3469],[127.4013,-0.3477],[127.4024,-0.3503],[127.4051,-0.3524],[127.4075,-0.3521],[127.4089,-0.3562],[127.4126,-0.3586],[127.4119,-0.3636],[127.4149,-0.3683],[127.4123,-0.3712],[127.4118,-0.3774],[127.4143,-0.3782]]]}},{"type":"Feature","properties":{"name":"BacanSelatan","name_en":"BacanSelatan","admin_level":"6","osm_id":""},"geometry":{"type":"Polygon","coordinates":[[[127.4984,-0.8031],[127.4942,-0.8106],[127.4749,-0.8237],[127.4721,-0.8175],[127.4676,-0.8145],[127.4633,-0.8143],[127.4596,-0.793],[127.4603,-0.7884],[127.4531,-0.7797],[127.4481,-0.7704],[127.4482,-0.7606],[127.4435,-0.7507],[127.4427,-0.7339],[127.4531,-0.697],[127.4552,-0.692],[127.4587,-0.6918],[127.4609,-0.6893],[127.466,-0.6781],[127.474,-0.6701],[127.4784,-0.6597],[127.4786,-0.6425],[127.4909,-0.6474],[127.4939,-0.6434],[127.4984,-0.6417],[127.5018,-0.6444],[127.5128,-0.6423],[127.5231,-0.6597],[127.5358,-0.659],[127.5441,-0.7016],[127.4984,-0.8031]]]}},{"type":"Feature","properties":{"name":"BacanTimur","name_en":"BacanTimur","admin_level":"6","osm_id":""},"geometry":{"type":"Polygon","coordinates":[[[127.5388,-0.6713],[127.5316,-0.6376],[127.5251,-0.5432],[127.5258,-0.4741],[127.5509,-0.3461],[127.5682,-0.3153],[127.5705,-0.319],[127.5697,-0.3225],[127.5744,-0.3257],[127.5742,-0.3288],[127.5771,-0.3283],[127.5814,-0.3336],[127.5812,-0.3377],[127.5765,-0.3417],[127.5787,-0.3435],[127.5788,-0.3474],[127.5872,-0.3506],[127.5887,-0.3527],[127.5888,-0.3576],[127.5932,-0.359],[127.5915,-0.3638],[127.5953,-0.3665],[127.5957,-0.3703],[127.5943,-0.3711],[127.5953,-0.3727],[127.5926,-0.3797],[127.5977,-0.3774],[127.6034,-0.3703],[127.6082,-0.3724],[127.6131,-0.3799],[127.6157,-0.386],[127.6145,-0.391],[127.6153,-0.3954],[127.6141,-0.3966],[127.6163,-0.3976],[127.6149,-0.402],[127.6176,-0.404],[127.6197,-0.4027],[127.6208,-0.4055],[127.619,-0.4112],[127.6171,-0.4106],[127.6151,-0.4127],[127.6211,-0.4162],[127.6243,-0.4141],[127.6275,-0.417],[127.6268,-0.4128],[127.6281,-0.4104],[127.6359,-0.4116],[127.6395,-0.4104],[127.6481,-0.4139],[127.6525,-0.4182],[127.6503,-0.4235],[127.6577,-0.4265],[127.659,-0.4326],[127.6574,-0.436],[127.6582,-0.4385],[127.6625,-0.4414],[127.6798,-0.4461],[127.6828,-0.4483],[127.6795,-0.4508],[127.681,-0.4529],[127.6846,-0.4553],[127.6925,-0.4563],[127.6927,-0.4589],[127.6897,-0.4704],[127.6865,-0.4711],[127.6841,-0.4755],[127.6777,-0.4808],[127.6744,-0.4871],[127.6743,-0.494],[127.676,-0.4985],[127.6722,-0.5007],[127.6645,-0.5108],[127.6637,-0.5175],[127.6603,-0.5207],[127.6543,-0.522],[127.6488,-0.5292],[127.6448,-0.5307],[127.6375,-0.537],[127.6354,-0.5424],[127.6294,-0.5487],[127.6215,-0.5628],[127.6139,-0.5693],[127.6113,-0.5741],[127.6056,-0.5745],[127.6002,-0.5772],[127.6012,-0.5796],[127.6001,-0.5845],[127.6011,-0.584],[127.6037,-0.5876],[127.6014,-0.5887],[127.5988,-0.5866],[127.5999,-0.5901],[127.5961,-0.5978],[127.5987,-0.6001],[127.6005,-0.6095],[127.5976,-0.6195],[127.6017,-0.6212],[127.6053,-0.6283],[127.612,-0.6312],[127.6231,-0.6303],[127.6292,-0.6282],[127.6344,-0.6294],[127.6431,-0.6266],[127.643,-0.6295],[127.6471,-0.6291],[127.6465,-0.6381],[127.5441,-0.7016],[127.5388,-0.6713]]]}},{"type":"Feature","properties":{"name":"BacanTimurSelatan","name_en":"BacanTimurSelatan","admin_level":"6","osm_id":""},"geometry":{"type":"Polygon","coordinates":[[[127.8167,-0.8533],[127.8089,-0.8567],[127.8054,-0.856],[127.7969,-0.858],[127.7913,-0.8645],[127.7809,-0.859],[127.773,-0.8615],[127.7702,-0.8637],[127.7695,-0.8697],[127.7597,-0.8657],[127.7553,-0.867],[127.7524,-0.8699],[127.7323,-0.8713],[127.7258,-0.8689],[127.7252,-0.867],[127.7298,-0.8655],[127.7316,-0.8633],[127.7347,-0.8645],[127.7381,-0.8614],[127.7426,-0.8611],[127.7437,-0.8648],[127.7472,-0.8638],[127.7481,-0.8652],[127.749,-0.8628],[127.7533,-0.8619],[127.7498,-0.8608],[127.748,-0.8574],[127.74,-0.8555],[127.7302,-0.8495],[127.7178,-0.8546],[127.7132,-0.8505],[127.7077,-0.8491],[127.7017,-0.8452],[127.695,-0.8456],[127.6818,-0.8386],[127.686,-0.8327],[127.6849,-0.8261],[127.6822,-0.8219],[127.679,-0.8198],[127.6762,-0.8199],[127.6683,-0.8245],[127.6653,-0.8194],[127.6706,-0.8144],[127.6624,-0.8163],[127.6579,-0.8115],[127.6575,-0.8076],[127.6594,-0.8066],[127.66,-0.8084],[127.6625,-0.8063],[127.6596,-0.806],[127.6608,-0.8035],[127.659,-0.8018],[127.659,-0.8036],[127.6578,-0.8009],[127.6596,-0.7963],[127.6552,-0.7919],[127.6595,-0.7901],[127.6591,-0.7878],[127.6646,-0.7813],[127.6651,-0.7758],[127.6596,-0.7683],[127.6545,-0.7574],[127.6541,-0.7522],[127.6516,-0.7482],[127.6498,-0.7486],[127.6347,-0.7415],[127.6299,-0.7411],[127.6246,-0.7442],[127.6217,-0.7509],[127.611,-0.7629],[127.5937,-0.7688],[127.5721,-0.7704],[127.5623,-0.777],[127.5525,-0.7791],[127.5451,-0.7866],[127.5364,-0.7876],[127.5215,-0.7959],[127.5058,-0.7987],[127.4987,-0.8028],[127.5441,-0.7016],[127.5808,-0.6789],[127.6061,-0.7061],[127.6209,-0.7162],[127.6371,-0.706],[127.6761,-0.7242],[127.6751,-0.7336],[127.6721,-0.742],[127.7036,-0.7569],[127.7089,-0.7659],[127.7611,-0.7818],[127.7773,-0.7808],[127.7902,-0.7779],[127.841,-0.7749],[127.8582,-0.7716],[127.8781,-0.7707],[127.887,-0.7733],[127.9028,-0.7712],[127.9024,-0.7763],[127.9058,-0.7816],[127.9055,-0.7854],[127.9021,-0.7824],[127.8919,-0.7805],[127.8809,-0.7747],[127.8792,-0.776],[127.8823,-0.781],[127.8806,-0.7823],[127.884,-0.786],[127.8838,-0.7877],[127.8892,-0.789],[127.8916,-0.7915],[127.8946,-0.79],[127.8969,-0.7936],[127.8991,-0.7928],[127.8992,-0.7961],[127.8962,-0.8],[127.8912,-0.8005],[127.8846,-0.7973],[127.8848,-0.794],[127.8796,-0.7957],[127.8762,-0.8051],[127.8803,-0.8117],[127.8718,-0.8208],[127.8704,-0.8269],[127.8665,-0.8272],[127.8633,-0.8256],[127.8607,-0.8276],[127.8581,-0.825],[127.8551,-0.8271],[127.852,-0.827],[127.8511,-0.8315],[127.8472,-0.8318],[127.8447,-0.8351],[127.8445,-0.8379],[127.8472,-0.8404],[127.845,-0.8401],[127.8412,-0.8444],[127.8335,-0.8434],[127.8306,-0.8468],[127.8317,-0.8481],[127.8309,-0.8513],[127.8278,-0.8524],[127.8275,-0.8548],[127.8208,-0.8533],[127.8189,-0.8511],[127.8167,-0.8533]]]}},{"type":"Feature","properties":{"name":"BacanTimurTengah","name_en":"BacanTimurTengah","admin_level":"6","osm_id":""},"geometry":{"type":"Polygon","coordinates":[[[127.8499,-0.7732],[127.7902,-0.7779],[127.7773,-0.7808],[127.7611,-0.7818],[127.7089,-0.7659],[127.7036,-0.7569],[127.6721,-0.742],[127.6751,-0.7336],[127.6761,-0.7242],[127.6371,-0.706],[127.6209,-0.7162],[127.6061,-0.7061],[127.5808,-0.6789],[127.6465,-0.6381],[127.6554,-0.6469],[127.6521,-0.66],[127.6466,-0.6649],[127.6516,-0.6709],[127.6483,-0.6827],[127.651,-0.6829],[127.6531,-0.6799],[127.6526,-0.6852],[127.6558,-0.6903],[127.6557,-0.6936],[127.6635,-0.7009],[127.664,-0.7039],[127.6689,-0.7056],[127.6715,-0.7099],[127.6757,-0.7087],[127.6776,-0.7114],[127.6842,-0.7116],[127.6912,-0.7101],[127.6973,-0.7051],[127.699,-0.7012],[127.7038,-0.7002],[127.7084,-0.6949],[127.716,-0.6901],[127.722,-0.6922],[127.7298,-0.692],[127.738,-0.6864],[127.7421,-0.6858],[127.7523,-0.6894],[127.7563,-0.6928],[127.7617,-0.6933],[127.7648,-0.6921],[127.767,-0.6869],[127.7747,-0.6821],[127.7848,-0.6796],[127.7898,-0.683],[127.7956,-0.6792],[127.7993,-0.6789],[127.8178,-0.69],[127.826,-0.6988],[127.8376,-0.7008],[127.8439,-0.7055],[127.8454,-0.7099],[127.8512,-0.7091],[127.8517,-0.7155],[127.854,-0.7144],[127.8549,-0.716],[127.86,-0.7161],[127.8592,-0.713],[127.8605,-0.7112],[127.856,-0.7134],[127.8551,-0.7115],[127.8583,-0.7077],[127.8634,-0.7094],[127.869,-0.7163],[127.8732,-0.7176],[127.8735,-0.7196],[127.8687,-0.728],[127.8701,-0.73],[127.8712,-0.7283],[127.8725,-0.7306],[127.8765,-0.7317],[127.876,-0.7397],[127.8723,-0.7512],[127.8774,-0.7599],[127.8791,-0.7594],[127.8805,-0.7559],[127.8793,-0.7551],[127.8775,-0.7577],[127.8779,-0.7547],[127.88,-0.7532],[127.8781,-0.7518],[127.8794,-0.75],[127.8847,-0.7531],[127.8907,-0.7597],[127.8935,-0.7581],[127.8934,-0.7614],[127.8914,-0.7619],[127.891,-0.764],[127.8964,-0.7694],[127.9006,-0.7689],[127.9028,-0.7712],[127.887,-0.7733],[127.8781,-0.7707],[127.8499,-0.7732]]]}},{"type":"Feature","properties":{"name":"BatangLomang","name_en":"BatangLomang","admin_level":"6","osm_id":""},"geometry":{"type":"Polygon","coordinates":[[[127.3608,-0.6609],[127.3576,-0.6616],[127.3488,-0.6588],[127.3432,-0.6531],[127.3421,-0.6485],[127.3451,-0.6425],[127.3443,-0.6405],[127.3407,-0.6458],[127.3372,-0.6457],[127.3357,-0.6438],[127.3372,-0.6318],[127.3345,-0.6185],[127.3312,-0.6118],[127.3243,-0.6068],[127.3326,-0.6001],[127.3361,-0.6006],[127.3389,-0.6055],[127.3366,-0.6118],[127.3421,-0.6119],[127.3461,-0.6142],[127.3494,-0.6127],[127.3516,-0.6147],[127.3553,-0.6139],[127.3593,-0.6171],[127.3669,-0.617],[127.3701,-0.6127],[127.3749,-0.6144],[127.3745,-0.6104],[127.3764,-0.6088],[127.3804,-0.6092],[127.3864,-0.6121],[127.3899,-0.6175],[127.4004,-0.6232],[127.4006,-0.6249],[127.402,-0.625],[127.4017,-0.629],[127.405,-0.6313],[127.4077,-0.6367],[127.4148,-0.6369],[127.4158,-0.6437],[127.4128,-0.652],[127.4149,-0.6561],[127.4116,-0.6606],[127.3988,-0.6555],[127.3912,-0.6554],[127.39,-0.6574],[127.3844,-0.6566],[127.3831,-0.658],[127.3859,-0.6627],[127.3801,-0.6677],[127.3775,-0.6678],[127.3764,-0.6658],[127.3789,-0.6588],[127.3768,-0.6532],[127.3727,-0.6493],[127.3686,-0.6508],[127.3685,-0.6521],[127.3745,-0.6556],[127.3744,-0.6639],[127.3709,-0.6626],[127.3724,-0.6601],[127.3702,-0.6576],[127.368,-0.6613],[127.3689,-0.6653],[127.3656,-0.6653],[127.3634,-0.6618],[127.3608,-0.6609]]]}},{"type":"Feature","properties":{"name":"GaneBarat","name_en":"GaneBarat","admin_level":"6","osm_id":""},"geometry":{"type":"Polygon","coordinates":[[[128.0357,-0.6991],[128.0303,-0.6928],[128.0195,-0.6864],[128.0183,-0.6827],[128.012,-0.6786],[128.0089,-0.672],[128.0024,-0.6676],[128.001,-0.6598],[127.9969,-0.6586],[127.9982,-0.6515],[127.9942,-0.648],[127.9929,-0.6441],[127.9958,-0.6297],[127.9908,-0.6228],[127.9888,-0.6125],[127.9848,-0.6063],[127.9812,-0.6039],[127.9804,-0.6006],[127.9752,-0.5959],[127.9761,-0.5909],[127.9747,-0.5868],[127.9712,-0.5855],[127.969,-0.5802],[127.9648,-0.5782],[127.9588,-0.5676],[127.9546,-0.5561],[127.9537,-0.5413],[127.9507,-0.5391],[127.9508,-0.5334],[127.9466,-0.5305],[127.9459,-0.5233],[127.9414,-0.5166],[127.9412,-0.511],[127.9384,-0.5036],[127.9339,-0.5011],[127.9322,-0.4955],[127.9248,-0.4943],[127.9192,-0.4841],[127.9135,-0.4816],[127.9095,-0.4759],[127.9064,-0.4742],[127.9052,-0.4461],[127.9001,-0.442],[127.9003,-0.4344],[127.8957,-0.4304],[127.8946,-0.4233],[127.8903,-0.4218],[127.8836,-0.4104],[127.8806,-0.399],[127.8812,-0.3896],[127.8772,-0.3874],[127.8768,-0.3836],[127.8744,-0.3808],[127.8687,-0.3803],[127.8644,-0.366],[127.8593,-0.3639],[127.8505,-0.3641],[127.8457,-0.3605],[127.8445,-0.3552],[127.8377,-0.3517],[127.8333,-0.3521],[127.8296,-0.3503],[127.8265,-0.3474],[127.8256,-0.3433],[127.8208,-0.3412],[127.8184,-0.3378],[127.8112,-0.3368],[127.8017,-0.3401],[127.7976,-0.3382],[127.7926,-0.3381],[127.7884,-0.3356],[127.7848,-0.3283],[127.7713,-0.3274],[127.7556,-0.32],[127.7506,-0.3202],[127.7517,-0.315],[127.7447,-0.3123],[127.7466,-0.3101],[127.7456,-0.3074],[127.8548,-0.2147],[127.8883,-0.2778],[127.9319,-0.3504],[127.936,-0.3546],[127.9384,-0.3618],[128.0547,-0.5694],[128.1046,-0.6428],[128.0357,-0.6991]]]}},{"type":"Feature","properties":{"name":"GaneBaratSelatan","name_en":"GaneBaratSelatan","admin_level":"6","osm_id":""},"geometry":{"type":"Polygon","coordinates":[[[128.3261,-0.8707],[128.3152,-0.864],[128.3128,-0.8669],[128.3119,-0.8742],[128.3079,-0.879],[128.2995,-0.8816],[128.2905,-0.8811],[128.2812,-0.876],[128.2753,-0.8684],[128.2694,-0.8672],[128.2653,-0.8687],[128.262,-0.8667],[128.2604,-0.8633],[128.2449,-0.8571],[128.2285,-0.8452],[128.2257,-0.8393],[128.2255,-0.8327],[128.232,-0.827],[128.2409,-0.8268],[128.2419,-0.8223],[128.2406,-0.8211],[128.2482,-0.8203],[128.2538,-0.8216],[128.2712,-0.8315],[128.2791,-0.8386],[128.2822,-0.8383],[128.2836,-0.8326],[128.2799,-0.826],[128.2739,-0.8271],[128.271,-0.8245],[128.2704,-0.8204],[128.2681,-0.8219],[128.2654,-0.8114],[128.2632,-0.811],[128.2632,-0.8085],[128.2618,-0.8088],[128.2601,-0.8064],[128.2606,-0.8047],[128.2578,-0.8035],[128.256,-0.7963],[128.2533,-0.7965],[128.2547,-0.7981],[128.2533,-0.7986],[128.2483,-0.7935],[128.2492,-0.7925],[128.2459,-0.7881],[128.2388,-0.7869],[128.2298,-0.7795],[128.227,-0.7732],[128.2303,-0.7709],[128.2331,-0.7735],[128.2355,-0.7723],[128.2349,-0.778],[128.2375,-0.7742],[128.2378,-0.778],[128.2399,-0.7794],[128.2389,-0.7726],[128.2417,-0.7708],[128.245,-0.772],[128.2472,-0.7699],[128.2445,-0.7673],[128.2474,-0.7641],[128.2433,-0.7642],[128.2433,-0.76],[128.24,-0.7699],[128.232,-0.7687],[128.2247,-0.7698],[128.2242,-0.7669],[128.2276,-0.7588],[128.2344,-0.7528],[128.2338,-0.7502],[128.2321,-0.7524],[128.23,-0.7523],[128.2308,-0.7538],[128.2272,-0.7568],[128.2251,-0.7561],[128.223,-0.7638],[128.2194,-0.7657],[128.2206,-0.7701],[128.2169,-0.7724],[128.2019,-0.7631],[128.187,-0.7608],[128.1672,-0.7504],[128.1623,-0.7509],[128.1553,-0.7479],[128.1512,-0.7491],[128.1476,-0.745],[128.1324,-0.7381],[128.1289,-0.7393],[128.1257,-0.7367],[128.1181,-0.7366],[128.1153,-0.7334],[128.1119,-0.7343],[128.086,-0.7229],[128.0656,-0.718],[128.0608,-0.7124],[128.0525,-0.7066],[128.0362,-0.6993],[128.1046,-0.6428],[128.1267,-0.6741],[128.145,-0.6902],[128.2381,-0.7504],[128.2486,-0.7593],[128.3212,-0.8349],[128.3435,-0.8489],[128.3287,-0.8745],[128.3261,-0.8707]]]}},{"type":"Feature","properties":{"name":"GaneBaratUtara","name_en":"GaneBaratUtara","admin_level":"6","osm_id":""},"geometry":{"type":"Polygon","coordinates":[[[127.7445,-0.3069],[127.7421,-0.3062],[127.7402,-0.3088],[127.7396,-0.3053],[127.736,-0.3041],[127.7397,-0.3019],[127.7384,-0.2988],[127.7358,-0.3037],[127.7288,-0.3018],[127.7138,-0.291],[127.7105,-0.2837],[127.7048,-0.2769],[127.7025,-0.2776],[127.6869,-0.27],[127.6893,-0.2476],[127.6801,-0.2429],[127.6792,-0.2384],[127.6711,-0.2293],[127.671,-0.2228],[127.6684,-0.2223],[127.667,-0.2239],[127.6632,-0.2212],[127.661,-0.2088],[127.6672,-0.2022],[127.667,-0.1985],[127.6691,-0.1941],[127.6679,-0.1878],[127.6758,-0.1741],[127.6765,-0.1629],[127.6814,-0.1583],[127.6804,-0.153],[127.6871,-0.1374],[127.6875,-0.1313],[127.6859,-0.1262],[127.6872,-0.1207],[127.69,-0.1167],[127.6893,-0.109],[127.6953,-0.1054],[127.6999,-0.0999],[127.6966,-0.0888],[127.6984,-0.0767],[127.6967,-0.0603],[127.6982,-0.0472],[127.6943,-0.0286],[127.7008,-0.0187],[127.6997,-0.01],[127.7058,-0.0073],[127.7102,-0.008],[127.7109,0.0],[127.7129,0.0032],[127.7178,0.0013],[127.723,0.0017],[127.7256,0.0073],[127.7274,0.0032],[127.7328,0.0048],[127.7357,0.0097],[127.7375,0.0182],[127.7402,0.021],[127.7481,0.0235],[127.751,0.023],[127.7539,0.02],[127.7681,0.0255],[127.7677,0.0166],[127.7701,0.0041],[127.7862,0.0056],[127.7882,0.0091],[127.792,0.012],[127.7957,0.0126],[127.7967,0.0148],[127.8001,-0.0522],[127.8028,-0.0631],[127.7704,-0.0658],[127.7693,-0.0978],[127.7752,-0.1348],[127.8212,-0.1302],[127.8395,-0.1859],[127.8548,-0.2147],[127.7455,-0.3075],[127.7445,-0.3069]]]}},{"type":"Feature","properties":{"name":"GaneTimur","name_en":"GaneTimur","admin_level":"6","osm_id":""},"geometry":{"type":"Polygon","coordinates":[[[127.879,-0.2603],[127.8395,-0.1859],[127.8212,-0.1302],[127.7752,-0.1348],[127.7693,-0.0978],[127.7704,-0.0658],[127.8028,-0.0631],[127.8001,-0.0522],[127.7967,0.0148],[127.8024,0.0215],[127.8102,0.0181],[127.8173,0.0314],[127.8145,0.0382],[127.8074,0.0424],[127.806,0.048],[127.8019,0.0491],[127.7966,0.0537],[127.7975,0.0562],[127.7951,0.0613],[127.7986,0.07],[127.7953,0.0706],[127.7942,0.0745],[127.7969,0.0817],[127.7926,0.0839],[127.79,0.0875],[127.7898,0.0932],[127.7921,0.0993],[127.7905,0.1087],[127.7924,0.1167],[127.7888,0.1256],[127.791,0.1351],[127.7891,0.1407],[127.7887,0.1522],[127.7986,0.1475],[127.8005,0.1508],[127.8087,0.15],[127.8148,0.1448],[127.8179,0.1376],[127.8174,0.1359],[127.824,0.1254],[127.8268,0.1266],[127.8345,0.1209],[127.8355,0.1289],[127.8396,0.1283],[127.8442,0.1344],[127.8478,0.1341],[127.8497,0.136],[127.852,0.1361],[127.854,0.1334],[127.8583,0.1342],[127.8633,0.1322],[127.8696,0.1324],[127.8724,0.1305],[127.877,0.1314],[127.8875,0.1442],[127.8944,0.1473],[127.8946,0.1667],[127.8967,0.1758],[127.9216,0.1768],[127.9218,0.16],[127.9244,0.1537],[127.9228,0.1496],[127.9251,0.1411],[127.9238,0.1344],[127.9263,0.1177],[127.9239,0.1106],[127.9253,0.1081],[127.9288,0.1098],[127.9299,0.1081],[127.91,0.1042],[127.9087,0.106],[127.9038,0.1049],[127.8936,0.0928],[127.888,0.0832],[127.8881,0.0743],[127.8911,0.0685],[127.8951,0.0665],[127.8942,0.0629],[127.8901,0.0583],[127.8929,0.0561],[127.8942,0.0493],[127.8898,0.0424],[127.8876,0.0313],[127.8899,-0.0011],[127.8942,-0.0181],[127.9029,-0.0257],[127.9111,-0.0569],[127.9269,-0.0799],[127.9333,-0.0864],[127.9462,-0.111],[127.9488,-0.1263],[127.9526,-0.1375],[127.9655,-0.1636],[127.97,-0.1972],[127.9716,-0.2003],[127.9719,-0.2119],[127.9775,-0.2315],[127.9788,-0.2477],[127.9805,-0.2514],[127.8875,-0.2761],[127.879,-0.2603]]]}},{"type":"Feature","properties":{"name":"GaneTimurSelatan","name_en":"GaneTimurSelatan","admin_level":"6","osm_id":""},"geometry":{"type":"Polygon","coordinates":[[[128.1267,-0.6741],[128.0547,-0.5694],[128.0463,-0.5543],[128.1137,-0.5242],[128.1206,-0.5356],[128.1257,-0.5383],[128.1292,-0.5432],[128.1494,-0.5746],[128.1545,-0.5863],[128.1647,-0.6024],[128.18,-0.6236],[128.1854,-0.6285],[128.1868,-0.643],[128.1891,-0.6505],[128.1931,-0.6556],[128.1964,-0.6678],[128.1993,-0.6722],[128.2099,-0.6813],[128.2097,-0.6918],[128.2219,-0.7073],[128.2266,-0.7095],[128.227,-0.7128],[128.2292,-0.7123],[128.2297,-0.7142],[128.2328,-0.7149],[128.2344,-0.721],[128.2385,-0.7215],[128.2534,-0.7331],[128.2554,-0.7324],[128.2656,-0.7422],[128.2862,-0.754],[128.295,-0.7635],[128.299,-0.7648],[128.3073,-0.7772],[128.3092,-0.7901],[128.3197,-0.795],[128.3244,-0.8017],[128.3311,-0.8075],[128.3485,-0.8163],[128.3543,-0.8238],[128.3539,-0.8259],[128.3563,-0.8262],[128.3635,-0.8361],[128.3815,-0.853],[128.4187,-0.8757],[128.4297,-0.8783],[128.4355,-0.8821],[128.4405,-0.8889],[128.4506,-0.8962],[128.4559,-0.9022],[128.4577,-0.9063],[128.4562,-0.9112],[128.3945,-0.8719],[128.3776,-0.8676],[128.3543,-0.8557],[128.3212,-0.8349],[128.2486,-0.7593],[128.2381,-0.7504],[128.145,-0.6902],[128.1267,-0.6741]]]}},{"type":"Feature","properties":{"name":"GaneTimurTengah","name_en":"GaneTimurTengah","admin_level":"6","osm_id":""},"geometry":{"type":"Polygon","coordinates":[[[128.0189,-0.5051],[127.9384,-0.3618],[127.936,-0.3546],[127.9319,-0.3504],[127.8875,-0.2761],[127.9805,-0.2514],[127.9818,-0.264],[127.9914,-0.2853],[128.0027,-0.2996],[128.0034,-0.3067],[128.0082,-0.3163],[128.0124,-0.3218],[128.0158,-0.3222],[128.0187,-0.3288],[128.0273,-0.3552],[128.0408,-0.3864],[128.0495,-0.4174],[128.0526,-0.4194],[128.0564,-0.4176],[128.0601,-0.4245],[128.0647,-0.4268],[128.0646,-0.4373],[128.0794,-0.4577],[128.0833,-0.4673],[128.0845,-0.4767],[128.0915,-0.4907],[128.0909,-0.4925],[128.102,-0.5113],[128.1053,-0.512],[128.1137,-0.5242],[128.0463,-0.5543],[128.0189,-0.5051]]]}},{"type":"Feature","properties":{"name":"KasirutaBarat","name_en":"KasirutaBarat","admin_level":"6","osm_id":""},"geometry":{"type":"Polygon","coordinates":[[[127.2032,-0.5174],[127.2014,-0.5194],[127.198,-0.5189],[127.1928,-0.5218],[127.1887,-0.5218],[127.1868,-0.5183],[127.185,-0.5206],[127.1855,-0.5228],[127.1798,-0.5243],[127.1758,-0.5234],[127.1711,-0.5256],[127.1712,-0.5276],[127.1738,-0.5272],[127.1712,-0.5309],[127.1638,-0.531],[127.1635,-0.5289],[127.1608,-0.5287],[127.1603,-0.5268],[127.1552,-0.5266],[127.1519,-0.5242],[127.1485,-0.5266],[127.1383,-0.5229],[127.1362,-0.5198],[127.1363,-0.5165],[127.1339,-0.5146],[127.1303,-0.5155],[127.1291,-0.5189],[127.1278,-0.5186],[127.1228,-0.5096],[127.1228,-0.508],[127.1244,-0.5091],[127.1251,-0.5067],[127.1283,-0.5053],[127.1366,-0.5036],[127.1367,-0.4994],[127.1316,-0.5],[127.1281,-0.4973],[127.1189,-0.4996],[127.1182,-0.4976],[127.1206,-0.4926],[127.1187,-0.4883],[127.1167,-0.4866],[127.1113,-0.487],[127.1118,-0.4851],[127.1177,-0.4831],[127.12,-0.4804],[127.1196,-0.4772],[127.1182,-0.476],[127.1209,-0.4732],[127.1467,-0.4767],[127.1548,-0.4735],[127.1524,-0.4681],[127.148,-0.4679],[127.1504,-0.4618],[127.1333,-0.4501],[127.1287,-0.449],[127.1236,-0.4443],[127.1225,-0.4416],[127.126,-0.4371],[127.1254,-0.4351],[127.1212,-0.4334],[127.1237,-0.4309],[127.1227,-0.428],[127.1061,-0.4239],[127.1033,-0.4256],[127.1045,-0.4235],[127.1032,-0.4214],[127.1034,-0.415],[127.1069,-0.4174],[127.1157,-0.4195],[127.1164,-0.4184],[127.1139,-0.4152],[127.1201,-0.4135],[127.1225,-0.4096],[127.1202,-0.4074],[127.1167,-0.4073],[127.1196,-0.4031],[127.1154,-0.3999],[127.1172,-0.3973],[127.1164,-0.3948],[127.1209,-0.3926],[127.1176,-0.3894],[127.1132,-0.3905],[127.1125,-0.3889],[127.1093,-0.3884],[127.1158,-0.3874],[127.1181,-0.384],[127.1168,-0.3823],[127.1202,-0.3781],[127.1189,-0.3737],[127.1217,-0.3704],[127.1287,-0.3703],[127.1313,-0.368],[127.1312,-0.3645],[127.1337,-0.3641],[127.1355,-0.3609],[127.1333,-0.3579],[127.1359,-0.3416],[127.1339,-0.3391],[127.131,-0.3396],[127.1293,-0.3369],[127.1319,-0.3331],[127.1305,-0.3324],[127.133,-0.3285],[127.1334,-0.3234],[127.1382,-0.324],[127.1393,-0.3229],[127.1388,-0.318],[127.1367,-0.315],[127.1399,-0.3134],[127.1384,-0.31],[127.1362,-0.3099],[127.1359,-0.3076],[127.13,-0.3057],[127.1236,-0.3078],[127.115,-0.3031],[127.1152,-0.3005],[127.1133,-0.2995],[127.1145,-0.2981],[127.1165,-0.2997],[127.1195,-0.2992],[127.1193,-0.2974],[127.1219,-0.2964],[127.1218,-0.2931],[127.1168,-0.2878],[127.1136,-0.2897],[127.1122,-0.2886],[127.1105,-0.2923],[127.1085,-0.2874],[127.1105,-0.2807],[127.1125,-0.2867],[127.1135,-0.2844],[127.1185,-0.286],[127.121,-0.2831],[127.1234,-0.2842],[127.1225,-0.2802],[127.1295,-0.2777],[127.1318,-0.2749],[127.1362,-0.2751],[127.139,-0.2722],[127.1495,-0.2819],[127.1685,-0.2955],[127.1907,-0.2973],[127.1974,-0.3065],[127.2006,-0.3138],[127.2006,-0.3178],[127.2253,-0.3239],[127.2268,-0.3264],[127.2282,-0.3352],[127.2253,-0.3506],[127.2158,-0.3686],[127.2126,-0.3857],[127.2119,-0.4053],[127.1956,-0.4786],[127.1954,-0.5023],[127.2032,-0.5174]]]}},{"type":"Feature","properties":{"name":"KasirutaTimur","name_en":"KasirutaTimur","admin_level":"6","osm_id":""},"geometry":{"type":"Polygon","coordinates":[[[127.1961,-0.4772],[127.2119,-0.4053],[127.2126,-0.3857],[127.2158,-0.3686],[127.2253,-0.3506],[127.2282,-0.3352],[127.2268,-0.3264],[127.2253,-0.3239],[127.2006,-0.3178],[127.2006,-0.3138],[127.1974,-0.3065],[127.1907,-0.2973],[127.1685,-0.2955],[127.1495,-0.2819],[127.139,-0.2722],[127.139,-0.2706],[127.1419,-0.2704],[127.1411,-0.2678],[127.1504,-0.2566],[127.1521,-0.2588],[127.151,-0.2623],[127.1552,-0.2645],[127.1577,-0.2642],[127.1594,-0.2607],[127.1625,-0.26],[127.1615,-0.2573],[127.1638,-0.2562],[127.166,-0.2581],[127.1661,-0.2605],[127.1752,-0.2643],[127.1823,-0.2623],[127.1839,-0.2609],[127.1838,-0.2578],[127.1872,-0.2575],[127.1892,-0.2552],[127.1935,-0.2575],[127.1952,-0.2521],[127.1995,-0.2572],[127.2062,-0.2548],[127.2082,-0.2564],[127.2194,-0.2583],[127.2238,-0.2562],[127.2241,-0.2541],[127.226,-0.2552],[127.2308,-0.2507],[127.2386,-0.2476],[127.2399,-0.2453],[127.2459,-0.2477],[127.241,-0.2527],[127.2404,-0.2549],[127.2421,-0.2539],[127.2461,-0.2566],[127.2499,-0.2554],[127.2481,-0.2566],[127.25,-0.257],[127.2517,-0.2641],[127.253,-0.2639],[127.2547,-0.2677],[127.2592,-0.2699],[127.2579,-0.2708],[127.2595,-0.2721],[127.2576,-0.2744],[127.2628,-0.2757],[127.2612,-0.2765],[127.2621,-0.2803],[127.2647,-0.2786],[127.2648,-0.2763],[127.2661,-0.2789],[127.2686,-0.2772],[127.2717,-0.2783],[127.2684,-0.2796],[127.2687,-0.2815],[127.2722,-0.28],[127.273,-0.2821],[127.2751,-0.2826],[127.2758,-0.2801],[127.2812,-0.2812],[127.2823,-0.2791],[127.2892,-0.2765],[127.2929,-0.2704],[127.3005,-0.2686],[127.3054,-0.2707],[127.3059,-0.2799],[127.3029,-0.2814],[127.3029,-0.2876],[127.3016,-0.2853],[127.2986,-0.2891],[127.2967,-0.2887],[127.2891,-0.2925],[127.2846,-0.2913],[127.2855,-0.2935],[127.283,-0.2934],[127.2839,-0.2949],[127.2814,-0.2961],[127.2812,-0.2929],[127.2797,-0.2927],[127.2831,-0.2913],[127.2797,-0.2902],[127.2651,-0.2888],[127.2682,-0.2921],[127.2676,-0.2946],[127.2655,-0.2937],[127.2642,-0.2903],[127.2627,-0.2918],[127.262,-0.2906],[127.2572,-0.2919],[127.2552,-0.2948],[127.2572,-0.2955],[127.2617,-0.3025],[127.2607,-0.3051],[127.2537,-0.3112],[127.2539,-0.3129],[127.2525,-0.3123],[127.2539,-0.3187],[127.2505,-0.3209],[127.2542,-0.3256],[127.253,-0.3267],[127.2539,-0.338],[127.2603,-0.3373],[127.2636,-0.3336],[127.268,-0.3361],[127.2703,-0.3413],[127.268,-0.3453],[127.2655,-0.3463],[127.2661,-0.3502],[127.2691,-0.3538],[127.2728,-0.355],[127.2762,-0.3592],[127.2747,-0.362],[127.2793,-0.3634],[127.2881,-0.3741],[127.2871,-0.3788],[127.284,-0.383],[127.2841,-0.3882],[127.2875,-0.3911],[127.2869,-0.3995],[127.2829,-0.3997],[127.28,-0.3955],[127.2794,-0.399],[127.2736,-0.3992],[127.2637,-0.4058],[127.2625,-0.4124],[127.2672,-0.4179],[127.2658,-0.4216],[127.2674,-0.4314],[127.2761,-0.4438],[127.2754,-0.4469],[127.2736,-0.4482],[127.2718,-0.4473],[127.27,-0.4503],[127.2761,-0.4498],[127.2788,-0.4516],[127.2782,-0.4545],[127.2757,-0.4552],[127.2778,-0.4559],[127.277,-0.4574],[127.2725,-0.4588],[127.2693,-0.4618],[127.2671,-0.4616],[127.2657,-0.4669],[127.2632,-0.4667],[127.2569,-0.4733],[127.2586,-0.4758],[127.2611,-0.4749],[127.2589,-0.4833],[127.2648,-0.4876],[127.2651,-0.4906],[127.2632,-0.4903],[127.2641,-0.4921],[127.2479,-0.496],[127.2358,-0.4922],[127.2332,-0.4922],[127.2316,-0.4943],[127.2277,-0.4934],[127.2259,-0.4966],[127.2288,-0.5009],[127.2278,-0.5026],[127.2316,-0.5054],[127.2317,-0.5081],[127.2279,-0.508],[127.2288,-0.5122],[127.2223,-0.5119],[127.2211,-0.515],[127.217,-0.5181],[127.2083,-0.5147],[127.2032,-0.5174],[127.2009,-0.5141],[127.1954,-0.5023],[127.1961,-0.4772]]]}},{"type":"Feature","properties":{"name":"Kayoa","name_en":"Kayoa","admin_level":"6","osm_id":""},"geometry":{"type":"Polygon","coordinates":[[[127.2241,-0.1357],[127.2213,-0.1377],[127.2193,-0.1372],[127.2144,-0.1324],[127.2137,-0.1294],[127.2106,-0.129],[127.2046,-0.1229],[127.1983,-0.1203],[127.1982,-0.1168],[127.2011,-0.1138],[127.2049,-0.1165],[127.2117,-0.1153],[127.2113,-0.1141],[127.214,-0.1128],[127.215,-0.1081],[127.2181,-0.1123],[127.218,-0.1096],[127.2207,-0.1055],[127.2246,-0.103],[127.2276,-0.1049],[127.2272,-0.1105],[127.2305,-0.11],[127.2321,-0.1069],[127.2293,-0.1009],[127.2328,-0.1018],[127.2288,-0.0982],[127.2292,-0.0929],[127.2318,-0.0907],[127.2402,-0.0891],[127.2388,-0.0825],[127.2387,-0.0869],[127.2345,-0.0891],[127.2355,-0.0846],[127.2403,-0.0781],[127.2429,-0.081],[127.2464,-0.0817],[127.2483,-0.0852],[127.2499,-0.0777],[127.2553,-0.0771],[127.2566,-0.0784],[127.2552,-0.081],[127.2581,-0.0808],[127.26,-0.076],[127.2672,-0.0719],[127.2711,-0.0726],[127.2718,-0.0746],[127.2702,-0.0774],[127.2724,-0.0791],[127.2742,-0.0853],[127.268,-0.0935],[127.2666,-0.1144],[127.2614,-0.126],[127.2576,-0.1264],[127.2562,-0.1243],[127.2452,-0.1276],[127.2439,-0.1316],[127.2405,-0.1343],[127.2354,-0.1349],[127.235,-0.138],[127.2328,-0.1398],[127.2312,-0.1388],[127.2314,-0.1368],[127.2345,-0.134],[127.228,-0.1395],[127.2253,-0.1388],[127.2241,-0.1357]]]}},{"type":"Feature","properties":{"name":"KayoaBarat","name_en":"KayoaBarat","admin_level":"6","osm_id":""},"geometry":{"type":"Polygon","coordinates":[[[127.1308,-0.2276],[127.1225,-0.2401],[127.1141,-0.243],[127.1092,-0.2521],[127.098,-0.254],[127.0949,-0.256],[127.0922,-0.2544],[127.0912,-0.2512],[127.0926,-0.2462],[127.0943,-0.2466],[127.0948,-0.2446],[127.0925,-0.2402],[127.0963,-0.2391],[127.0981,-0.2334],[127.0968,-0.2321],[127.0974,-0.2287],[127.0946,-0.2275],[127.0907,-0.2294],[127.0916,-0.2316],[127.088,-0.231],[127.089,-0.2237],[127.0918,-0.2188],[127.0915,-0.2145],[127.0932,-0.2142],[127.094,-0.2116],[127.1045,-0.2165],[127.1092,-0.2134],[127.1127,-0.2075],[127.1132,-0.2009],[127.1218,-0.1871],[127.1249,-0.1858],[127.1274,-0.1812],[127.1275,-0.1829],[127.1295,-0.1844],[127.1281,-0.1773],[127.1302,-0.1785],[127.134,-0.1765],[127.1375,-0.1774],[127.1384,-0.1791],[127.1399,-0.1786],[127.1383,-0.1808],[127.1365,-0.1798],[127.1371,-0.1827],[127.1408,-0.1799],[127.1434,-0.183],[127.1446,-0.1802],[127.1494,-0.1835],[127.1523,-0.1833],[127.1524,-0.1845],[127.1448,-0.1922],[127.1427,-0.1926],[127.1413,-0.1977],[127.1358,-0.2029],[127.1274,-0.2051],[127.1317,-0.2112],[127.1307,-0.2148],[127.1325,-0.2235],[127.1308,-0.2276]]]}},{"type":"Feature","properties":{"name":"KayoaSelatan","name_en":"KayoaSelatan","admin_level":"6","osm_id":""},"geometry":{"type":"Polygon","coordinates":[[[127.4159,-0.0792],[127.4162,-0.0822],[127.4122,-0.0867],[127.4104,-0.0921],[127.4107,-0.096],[127.4136,-0.0999],[127.4105,-0.1043],[127.4031,-0.0886],[127.4042,-0.0778],[127.4027,-0.0722],[127.4088,-0.0368],[127.4128,-0.0275],[127.4124,-0.0195],[127.4161,-0.0162],[127.4177,-0.0175],[127.422,-0.0172],[127.4243,-0.0221],[127.4231,-0.0238],[127.4233,-0.0281],[127.4251,-0.0301],[127.4245,-0.0336],[127.4264,-0.0398],[127.4275,-0.0378],[127.4295,-0.0433],[127.4282,-0.043],[127.4289,-0.0475],[127.423,-0.0515],[127.4215,-0.0575],[127.4199,-0.0573],[127.4181,-0.0525],[127.4166,-0.0558],[127.4159,-0.0792]]]}},{"type":"Feature","properties":{"name":"KayoaUtara","name_en":"KayoaUtara","admin_level":"6","osm_id":""},"geometry":{"type":"Polygon","coordinates":[[[127.4457,0.0806],[127.4462,0.0758],[127.4485,0.0728],[127.4481,0.0685],[127.4498,0.0701],[127.4546,0.0692],[127.461,0.0735],[127.4668,0.0725],[127.4647,0.058],[127.4599,0.056],[127.4586,0.053],[127.461,0.05],[127.4604,0.0456],[127.4628,0.0446],[127.4634,0.0418],[127.4697,0.0347],[127.4686,0.0317],[127.4504,0.034],[127.4382,0.0546],[127.4345,0.0779],[127.4303,0.0836],[127.4253,0.0832],[127.4221,0.0789],[127.4131,0.078],[127.4151,0.0842],[127.4151,0.0955],[127.4223,0.105],[127.4246,0.1107],[127.4243,0.1313],[127.4261,0.1389],[127.4287,0.1377],[127.4319,0.1326],[127.4365,0.1304],[127.4565,0.1331],[127.4591,0.1313],[127.4454,0.1198],[127.4418,0.1146],[127.4407,0.1023],[127.4431,0.0977],[127.4428,0.0891],[127.4457,0.0806]]]}},{"type":"Feature","properties":{"name":"KepulauanJoronga","name_en":"KepulauanJoronga","admin_level":"6","osm_id":""},"geometry":{"type":"Polygon","coordinates":[[[128.3249,-0.9395],[128.33,-0.9431],[128.325,-0.946],[128.3227,-0.9496],[128.333,-0.9432],[128.3379,-0.948],[128.3362,-0.9511],[128.3287,-0.9539],[128.333,-0.9529],[128.3355,-0.954],[128.3391,-0.9501],[128.3411,-0.9509],[128.3395,-0.9556],[128.3376,-0.9557],[128.3386,-0.9565],[128.3337,-0.9611],[128.3324,-0.9646],[128.3337,-0.9652],[128.3372,-0.9611],[128.3391,-0.9652],[128.346,-0.9655],[128.3473,-0.9688],[128.3528,-0.9704],[128.3528,-0.9741],[128.3504,-0.9756],[128.3507,-0.9772],[128.353,-0.9755],[128.3546,-0.9772],[128.3576,-0.973],[128.3552,-0.9802],[128.3606,-0.9811],[128.3597,-0.9836],[128.361,-0.986],[128.3649,-0.9856],[128.3642,-0.9872],[128.368,-0.9896],[128.3663,-0.9907],[128.367,-0.9919],[128.3692,-0.9907],[128.3733,-0.9919],[128.3737,-0.9955],[128.3855,-0.9987],[128.3881,-0.9972],[128.3858,-0.9944],[128.3902,-0.9919],[128.3962,-0.9898],[128.4053,-0.9902],[128.409,-0.9957],[128.4166,-1.0018],[128.4193,-1.0106],[128.4198,-1.0207],[128.414,-1.0288],[128.4048,-1.0363],[128.3991,-1.0389],[128.3874,-1.0391],[128.3781,-1.0373],[128.3633,-1.0413],[128.3602,-1.0375],[128.3562,-1.037],[128.3551,-1.0349],[128.346,-1.0302],[128.3432,-1.0247],[128.3389,-1.0224],[128.3345,-1.0226],[128.3331,-1.0215],[128.3329,-1.0179],[128.331,-1.018],[128.3316,-1.0197],[128.3291,-1.0176],[128.3296,-1.0142],[128.3354,-1.0121],[128.3352,-1.0075],[128.3317,-1.0035],[128.3362,-0.9993],[128.3338,-0.9938],[128.3372,-0.984],[128.3397,-0.9814],[128.339,-0.9737],[128.3302,-0.9731],[128.3289,-0.9703],[128.3266,-0.9696],[128.3223,-0.9706],[128.3086,-0.9664],[128.3073,-0.9634],[128.3096,-0.9612],[128.3093,-0.9582],[128.3058,-0.9555],[128.3079,-0.945],[128.3125,-0.9453],[128.3104,-0.943],[128.3139,-0.9453],[128.3128,-0.9428],[128.3148,-0.9381],[128.3249,-0.9395]]]}},{"type":"Feature","properties":{"name":"MakianBarat","name_en":"MakianBarat","admin_level":"6","osm_id":""},"geometry":{"type":"Polygon","coordinates":[[[127.3921,0.2935],[127.3843,0.2871],[127.38,0.281],[127.3501,0.3089],[127.3433,0.328],[127.3458,0.3357],[127.3645,0.356],[127.3707,0.3586],[127.3736,0.3623],[127.3827,0.3532],[127.3859,0.3455],[127.3963,0.3351],[127.3958,0.3035],[127.3921,0.2935]]]}},{"type":"Feature","properties":{"name":"MandioliSelatan","name_en":"MandioliSelatan","admin_level":"6","osm_id":""},"geometry":{"type":"Polygon","coordinates":[[[127.3213,-0.7657],[127.3269,-0.7722],[127.3279,-0.7772],[127.3345,-0.7865],[127.312,-0.7965],[127.3004,-0.7992],[127.2938,-0.7985],[127.2868,-0.7939],[127.2808,-0.7878],[127.2772,-0.7799],[127.2664,-0.7768],[127.2585,-0.7711],[127.2491,-0.7681],[127.2459,-0.7656],[127.2346,-0.7679],[127.2312,-0.7704],[127.2265,-0.7803],[127.2096,-0.7806],[127.2002,-0.7789],[127.1995,-0.7776],[127.2025,-0.7772],[127.181,-0.7673],[127.17,-0.7513],[127.1673,-0.7523],[127.1653,-0.7504],[127.1644,-0.7474],[127.1675,-0.7386],[127.1688,-0.7361],[127.1703,-0.7375],[127.1719,-0.7362],[127.1718,-0.7345],[127.169,-0.734],[127.1683,-0.725],[127.1699,-0.723],[127.1678,-0.7213],[127.1674,-0.7179],[127.1688,-0.7175],[127.1682,-0.7164],[127.1744,-0.7165],[127.1753,-0.7139],[127.1751,-0.712],[127.1733,-0.7114],[127.1691,-0.7127],[127.1674,-0.7087],[127.1686,-0.7074],[127.1736,-0.7078],[127.1731,-0.7058],[127.1775,-0.7022],[127.1784,-0.6989],[127.1865,-0.6964],[127.191,-0.6925],[127.1936,-0.6806],[127.1869,-0.6789],[127.193,-0.6766],[127.1966,-0.6775],[127.1976,-0.6767],[127.1952,-0.6751],[127.1961,-0.6739],[127.2022,-0.6731],[127.2132,-0.6824],[127.2451,-0.6893],[127.2532,-0.7042],[127.2604,-0.7289],[127.2616,-0.7385],[127.2753,-0.7394],[127.2944,-0.7312],[127.3022,-0.7417],[127.3039,-0.7472],[127.3121,-0.7536],[127.3213,-0.7657]]]}},{"type":"Feature","properties":{"name":"MandioliUtara","name_en":"MandioliUtara","admin_level":"6","osm_id":""},"geometry":{"type":"Polygon","coordinates":[[[127.2608,-0.737],[127.2604,-0.7289],[127.2532,-0.7042],[127.2451,-0.6893],[127.2132,-0.6824],[127.2069,-0.6759],[127.2127,-0.6719],[127.2126,-0.6694],[127.207,-0.6652],[127.2091,-0.6523],[127.2161,-0.6484],[127.2169,-0.6372],[127.2103,-0.6337],[127.2059,-0.6348],[127.2033,-0.6334],[127.1927,-0.6165],[127.1963,-0.6142],[127.2069,-0.619],[127.2173,-0.6058],[127.2209,-0.6033],[127.2361,-0.6053],[127.2443,-0.6026],[127.2453,-0.6055],[127.2499,-0.603],[127.2583,-0.6057],[127.2595,-0.6095],[127.2704,-0.6179],[127.2713,-0.6218],[127.2655,-0.6276],[127.2547,-0.6293],[127.2494,-0.6268],[127.2463,-0.629],[127.2484,-0.6342],[127.2473,-0.6357],[127.2507,-0.6392],[127.2505,-0.6445],[127.2527,-0.6445],[127.2526,-0.6482],[127.2612,-0.6497],[127.2612,-0.6525],[127.2643,-0.6549],[127.2642,-0.6623],[127.2695,-0.6645],[127.274,-0.6627],[127.289,-0.6692],[127.2894,-0.6742],[127.2955,-0.6786],[127.302,-0.681],[127.3042,-0.684],[127.3034,-0.689],[127.2948,-0.6869],[127.2916,-0.6886],[127.2931,-0.6922],[127.2957,-0.6933],[127.2997,-0.6922],[127.3006,-0.6942],[127.3002,-0.697],[127.2978,-0.6989],[127.2974,-0.7042],[127.2896,-0.705],[127.2912,-0.7107],[127.2949,-0.7102],[127.2956,-0.7123],[127.2906,-0.7134],[127.2927,-0.7164],[127.2957,-0.7158],[127.2944,-0.7312],[127.2753,-0.7394],[127.2629,-0.7389],[127.2608,-0.737]]]}},{"type":"Feature","properties":{"name":"Obi","name_en":"Obi","admin_level":"6","osm_id":""},"geometry":{"type":"Polygon","coordinates":[[[127.4929,-1.5968],[127.4572,-1.6182],[127.4065,-1.6557],[127.4039,-1.6528],[127.4035,-1.6433],[127.4011,-1.6354],[127.3956,-1.6224],[127.3915,-1.6175],[127.4001,-1.6061],[127.4097,-1.5788],[127.4122,-1.5664],[127.4099,-1.5573],[127.411,-1.546],[127.4091,-1.5426],[127.4028,-1.538],[127.4053,-1.5315],[127.4087,-1.5288],[127.4086,-1.5266],[127.4064,-1.5257],[127.4073,-1.5226],[127.4105,-1.5213],[127.4122,-1.5166],[127.4175,-1.51],[127.4179,-1.5067],[127.4247,-1.5025],[127.4287,-1.502],[127.4315,-1.4988],[127.432,-1.4948],[127.4276,-1.4985],[127.4282,-1.4968],[127.4249,-1.4952],[127.4204,-1.496],[127.4188,-1.4949],[127.419,-1.4915],[127.4164,-1.4882],[127.4188,-1.4815],[127.4163,-1.4816],[127.416,-1.4797],[127.4196,-1.4718],[127.424,-1.4722],[127.4241,-1.4704],[127.4326,-1.4686],[127.4323,-1.4669],[127.4279,-1.4646],[127.4281,-1.4578],[127.4339,-1.4564],[127.4345,-1.4549],[127.4327,-1.4532],[127.4349,-1.451],[127.4396,-1.4512],[127.4399,-1.4501],[127.4365,-1.4475],[127.4394,-1.4458],[127.439,-1.4431],[127.4444,-1.4339],[127.4409,-1.4342],[127.4367,-1.4375],[127.433,-1.4371],[127.4296,-1.4338],[127.4318,-1.4319],[127.4317,-1.4267],[127.4294,-1.4247],[127.424,-1.4243],[127.4229,-1.425],[127.4238,-1.4271],[127.4196,-1.4274],[127.4127,-1.4184],[127.4135,-1.4168],[127.4182,-1.4189],[127.4216,-1.4172],[127.4237,-1.4178],[127.4264,-1.4162],[127.4262,-1.4141],[127.4331,-1.4113],[127.4357,-1.4117],[127.4364,-1.4155],[127.4408,-1.4091],[127.4439,-1.4135],[127.4473,-1.4136],[127.4479,-1.416],[127.4358,-1.4184],[127.4347,-1.4219],[127.4366,-1.4231],[127.4372,-1.4262],[127.4457,-1.4266],[127.4483,-1.4289],[127.4476,-1.4318],[127.4559,-1.4331],[127.4543,-1.4348],[127.4583,-1.4385],[127.4635,-1.4371],[127.4654,-1.4393],[127.4694,-1.4379],[127.4718,-1.4408],[127.4737,-1.4382],[127.4816,-1.4403],[127.4846,-1.4438],[127.4839,-1.4463],[127.488,-1.4455],[127.4883,-1.4406],[127.4928,-1.4383],[127.4942,-1.4412],[127.4918,-1.4441],[127.4939,-1.4501],[127.4977,-1.4509],[127.4993,-1.453],[127.5045,-1.453],[127.5084,-1.4484],[127.5059,-1.446],[127.505,-1.4402],[127.5074,-1.434],[127.5171,-1.4358],[127.5164,-1.4292],[127.5134,-1.4258],[127.5134,-1.4171],[127.5213,-1.4168],[127.5222,-1.412],[127.5294,-1.407],[127.5342,-1.4087],[127.5399,-1.4049],[127.5402,-1.4027],[127.5479,-1.3975],[127.5504,-1.3929],[127.5546,-1.3923],[127.5591,-1.389],[127.559,-1.3843],[127.5615,-1.3813],[127.561,-1.3793],[127.5699,-1.375],[127.574,-1.3759],[127.5769,-1.3747],[127.5813,-1.3635],[127.6082,-1.3538],[127.6118,-1.3546],[127.6147,-1.3522],[127.6202,-1.3517],[127.6262,-1.3468],[127.6286,-1.3406],[127.6318,-1.3374],[127.6374,-1.3347],[127.6414,-1.3302],[127.6513,-1.331],[127.6554,-1.3373],[127.6541,-1.3413],[127.6606,-1.3462],[127.6657,-1.3462],[127.6706,-1.3504],[127.6691,-1.3469],[127.6701,-1.3455],[127.6658,-1.3401],[127.6657,-1.3363],[127.6692,-1.332],[127.6736,-1.3313],[127.6775,-1.3371],[127.6788,-1.3361],[127.6801,-1.3377],[127.6818,-1.341],[127.6803,-1.3437],[127.6829,-1.3465],[127.6852,-1.3441],[127.6865,-1.3477],[127.6905,-1.3471],[127.6912,-1.3498],[127.6968,-1.3497],[127.7009,-1.3529],[127.7024,-1.3523],[127.7025,-1.3486],[127.7043,-1.3485],[127.7023,-1.3474],[127.702,-1.344],[127.6996,-1.3445],[127.6982,-1.3411],[127.7067,-1.3354],[127.7236,-1.3431],[127.7321,-1.3434],[127.7376,-1.3503],[127.7452,-1.3529],[127.7505,-1.3571],[127.7578,-1.3519],[127.7603,-1.3525],[127.7623,-1.3587],[127.7659,-1.3632],[127.7692,-1.3623],[127.7801,-1.3726],[127.7779,-1.3791],[127.7857,-1.373],[127.7859,-1.3706],[127.7931,-1.3731],[127.794,-1.3808],[127.7893,-1.3888],[127.7932,-1.3893],[127.7984,-1.4094],[127.8012,-1.4134],[127.8096,-1.4167],[127.8165,-1.414],[127.8208,-1.4175],[127.8244,-1.4171],[127.8317,-1.4236],[127.8397,-1.4254],[127.8395,-1.4295],[127.8359,-1.4302],[127.8348,-1.432],[127.8365,-1.4335],[127.8353,-1.4349],[127.8426,-1.435],[127.8459,-1.4381],[127.8492,-1.4385],[127.843,-1.5446],[127.7262,-1.5334],[127.6997,-1.5289],[127.584,-1.5424],[127.5539,-1.5617],[127.4929,-1.5968]]]}},{"type":"Feature","properties":{"name":"ObiBarat","name_en":"ObiBarat","admin_level":"6","osm_id":""},"geometry":{"type":"Polygon","coordinates":[[[127.363,-1.4258],[127.3552,-1.428],[127.3509,-1.4336],[127.3438,-1.433],[127.3407,-1.4349],[127.3378,-1.4411],[127.3352,-1.442],[127.3294,-1.4489],[127.3316,-1.4533],[127.3275,-1.4543],[127.3245,-1.451],[127.3239,-1.4451],[127.3196,-1.4421],[127.317,-1.4369],[127.3139,-1.4353],[127.3032,-1.4351],[127.2937,-1.4325],[127.2941,-1.4303],[127.2905,-1.4238],[127.2855,-1.4183],[127.2832,-1.4191],[127.2808,-1.4146],[127.2845,-1.4114],[127.2845,-1.4062],[127.2932,-1.4041],[127.2991,-1.4044],[127.3003,-1.4003],[127.3054,-1.3964],[127.3149,-1.3965],[127.3194,-1.3921],[127.3208,-1.3891],[127.3152,-1.3798],[127.3225,-1.3642],[127.3268,-1.3651],[127.3271,-1.3675],[127.324,-1.3703],[127.3276,-1.3736],[127.3255,-1.3753],[127.3274,-1.3821],[127.3304,-1.3802],[127.3339,-1.384],[127.3341,-1.3875],[127.336,-1.388],[127.341,-1.3855],[127.337,-1.3783],[127.3381,-1.3749],[127.3418,-1.3735],[127.3403,-1.3681],[127.3426,-1.3646],[127.3473,-1.3654],[127.3511,-1.3713],[127.3467,-1.3811],[127.3487,-1.3839],[127.353,-1.3769],[127.357,-1.3781],[127.3572,-1.3794],[127.3602,-1.378],[127.3574,-1.3732],[127.3592,-1.3707],[127.3577,-1.3688],[127.3604,-1.3641],[127.3641,-1.37],[127.3641,-1.3751],[127.3675,-1.3776],[127.3744,-1.37],[127.3812,-1.3675],[127.3842,-1.3731],[127.3828,-1.3801],[127.3754,-1.3785],[127.3715,-1.3799],[127.3711,-1.3823],[127.3801,-1.3889],[127.393,-1.3879],[127.3926,-1.3926],[127.3996,-1.4007],[127.3994,-1.4054],[127.3936,-1.4089],[127.3951,-1.4127],[127.3778,-1.4225],[127.3754,-1.4259],[127.363,-1.4258]]]}},{"type":"Feature","properties":{"name":"ObiSelatan","name_en":"ObiSelatan","admin_level":"6","osm_id":""},"geometry":{"type":"Polygon","coordinates":[[[127.5289,-1.7255],[127.5052,-1.7259],[127.4974,-1.7238],[127.4959,-1.7168],[127.4827,-1.7033],[127.4339,-1.6795],[127.4247,-1.6687],[127.4233,-1.6647],[127.4245,-1.6622],[127.4228,-1.6589],[127.42,-1.659],[127.4171,-1.6636],[127.4123,-1.6642],[127.4084,-1.6617],[127.4065,-1.6557],[127.4572,-1.6182],[127.5539,-1.5617],[127.584,-1.5424],[127.6997,-1.5289],[127.7262,-1.5334],[127.8766,-1.5482],[127.9125,-1.5572],[127.9881,-1.5842],[127.9831,-1.6138],[127.9779,-1.6206],[127.9781,-1.6249],[127.9695,-1.6293],[127.9701,-1.6335],[127.9659,-1.634],[127.9719,-1.6404],[127.9663,-1.6491],[127.9729,-1.6507],[127.9761,-1.6497],[127.9812,-1.6566],[127.9802,-1.6584],[127.9746,-1.6574],[127.972,-1.6603],[127.9724,-1.6646],[127.9757,-1.6675],[127.9696,-1.6712],[127.9715,-1.6749],[127.9711,-1.6778],[127.9696,-1.6784],[127.9702,-1.6749],[127.9691,-1.675],[127.9668,-1.676],[127.9645,-1.6803],[127.9639,-1.683],[127.9682,-1.6865],[127.9698,-1.6913],[127.9677,-1.6977],[127.9614,-1.6955],[127.9526,-1.6964],[127.9244,-1.6883],[127.9156,-1.6866],[127.9132,-1.6876],[127.9057,-1.6844],[127.9026,-1.6855],[127.8923,-1.6831],[127.8864,-1.6835],[127.8732,-1.692],[127.865,-1.6935],[127.8552,-1.6979],[127.8491,-1.6982],[127.8438,-1.6941],[127.8372,-1.6935],[127.8291,-1.6984],[127.817,-1.7009],[127.8111,-1.6981],[127.7984,-1.6958],[127.7912,-1.6961],[127.7743,-1.6892],[127.7638,-1.6898],[127.7546,-1.6868],[127.7473,-1.6877],[127.7415,-1.6948],[127.7357,-1.6956],[127.7318,-1.6925],[127.7291,-1.6877],[127.7199,-1.6865],[127.7057,-1.6901],[127.6978,-1.696],[127.6919,-1.7036],[127.6849,-1.7054],[127.6795,-1.7036],[127.6751,-1.7057],[127.6706,-1.7102],[127.6703,-1.7189],[127.6678,-1.7242],[127.6531,-1.7306],[127.6452,-1.7299],[127.6315,-1.7209],[127.6263,-1.719],[127.6214,-1.7209],[127.6175,-1.7176],[127.6106,-1.722],[127.6066,-1.7333],[127.5968,-1.7381],[127.5827,-1.7331],[127.5664,-1.7357],[127.5546,-1.7339],[127.5289,-1.7255]]]}},{"type":"Feature","properties":{"name":"ObiTimur","name_en":"ObiTimur","admin_level":"6","osm_id":""},"geometry":{"type":"Polygon","coordinates":[[[127.9686,-1.6904],[127.9682,-1.6865],[127.9639,-1.683],[127.9668,-1.676],[127.9702,-1.6749],[127.9696,-1.6784],[127.9715,-1.6772],[127.9698,-1.6708],[127.9757,-1.6675],[127.9724,-1.6646],[127.9717,-1.6608],[127.9746,-1.6574],[127.9802,-1.6584],[127.9812,-1.6566],[127.9761,-1.6497],[127.9729,-1.6507],[127.9663,-1.6491],[127.9719,-1.6404],[127.9659,-1.634],[127.9701,-1.6335],[127.9695,-1.6293],[127.9781,-1.6249],[127.9779,-1.6206],[127.9831,-1.6138],[127.9881,-1.5842],[127.9125,-1.5572],[127.8766,-1.5482],[127.843,-1.5446],[127.85,-1.4375],[127.8578,-1.4377],[127.86,-1.4351],[127.8696,-1.4354],[127.8782,-1.4393],[127.8835,-1.4325],[127.8855,-1.4269],[127.8918,-1.4255],[127.8988,-1.432],[127.9164,-1.4412],[127.9338,-1.4478],[127.9492,-1.4623],[127.9567,-1.4739],[127.9673,-1.4773],[127.9783,-1.484],[127.9824,-1.4918],[127.9814,-1.4943],[127.9903,-1.5047],[127.9896,-1.5085],[127.9915,-1.5122],[127.9954,-1.5125],[127.9985,-1.5165],[127.997,-1.5139],[127.9976,-1.5104],[128.0011,-1.5095],[128.0039,-1.5146],[128.002,-1.5103],[128.0032,-1.5093],[128.0079,-1.5142],[128.0109,-1.5145],[128.0172,-1.5244],[128.0134,-1.5302],[128.0202,-1.5263],[128.03,-1.5353],[128.0381,-1.5401],[128.0411,-1.544],[128.0457,-1.5458],[128.0455,-1.5504],[128.0516,-1.5533],[128.0515,-1.5575],[128.0533,-1.5597],[128.056,-1.5598],[128.0597,-1.5664],[128.0707,-1.5643],[128.0787,-1.5669],[128.0813,-1.5713],[128.0813,-1.5743],[128.0771,-1.576],[128.0746,-1.5752],[128.0724,-1.5793],[128.0779,-1.5815],[128.0812,-1.5769],[128.0837,-1.579],[128.0839,-1.5817],[128.0897,-1.584],[128.096,-1.5785],[128.1012,-1.5784],[128.1005,-1.5765],[128.1042,-1.5734],[128.1098,-1.5617],[128.1132,-1.561],[128.1212,-1.5657],[128.1405,-1.5881],[128.1495,-1.5941],[128.1649,-1.6145],[128.1684,-1.6374],[128.1632,-1.6633],[128.1565,-1.6839],[128.1479,-1.6882],[128.1328,-1.6917],[128.1239,-1.6976],[128.1109,-1.7018],[128.1058,-1.7059],[128.1017,-1.7142],[128.0886,-1.722],[128.0855,-1.7219],[128.0809,-1.7166],[128.0755,-1.7157],[128.0646,-1.7193],[128.0392,-1.7179],[128.0287,-1.7225],[128.0242,-1.7273],[128.0123,-1.7202],[128.0087,-1.7205],[128.0039,-1.7128],[127.989,-1.7026],[127.9765,-1.698],[127.9702,-1.6979],[127.9689,-1.6968],[127.9698,-1.6913],[127.9686,-1.6904]]]}},{"type":"Feature","properties":{"name":"ObiUtara","name_en":"ObiUtara","admin_level":"6","osm_id":""},"geometry":{"type":"Polygon","coordinates":[[[127.6549,-1.2241],[127.6611,-1.2246],[127.6598,-1.2264],[127.6609,-1.2275],[127.6639,-1.2268],[127.6642,-1.2255],[127.6621,-1.2246],[127.6705,-1.223],[127.6883,-1.2264],[127.6943,-1.226],[127.6963,-1.2281],[127.6956,-1.2372],[127.6941,-1.2376],[127.6971,-1.2471],[127.6974,-1.2569],[127.6911,-1.2769],[127.6937,-1.2827],[127.6909,-1.2796],[127.6887,-1.2823],[127.693,-1.2851],[127.6891,-1.2849],[127.6867,-1.2822],[127.6843,-1.2842],[127.6766,-1.2814],[127.6734,-1.2829],[127.6757,-1.2846],[127.6743,-1.2858],[127.6665,-1.2848],[127.6761,-1.2878],[127.6788,-1.2913],[127.6771,-1.2928],[127.6709,-1.2919],[127.6612,-1.2851],[127.6568,-1.284],[127.6572,-1.2626],[127.5529,-1.2206],[127.5068,-1.2415],[127.5128,-1.2691],[127.499,-1.2696],[127.4926,-1.2716],[127.4892,-1.2707],[127.4844,-1.26],[127.4699,-1.2553],[127.4652,-1.2503],[127.4655,-1.2398],[127.4703,-1.2344],[127.4796,-1.2174],[127.4852,-1.2134],[127.4945,-1.212],[127.5039,-1.2084],[127.5094,-1.2028],[127.5104,-1.1992],[127.509,-1.1835],[127.5104,-1.1779],[127.5191,-1.1784],[127.5265,-1.1763],[127.5397,-1.1792],[127.5476,-1.171],[127.5626,-1.1822],[127.5653,-1.1889],[127.5818,-1.1983],[127.5859,-1.2023],[127.5932,-1.2018],[127.5989,-1.2104],[127.6102,-1.2075],[127.6256,-1.2122],[127.6415,-1.2214],[127.6473,-1.2206],[127.6549,-1.2241]]]}},{"type":"Feature","properties":{"name":"PulauMakian","name_en":"PulauMakian","admin_level":"6","osm_id":""},"geometry":{"type":"Polygon","coordinates":[[[127.43,0.3015],[127.4299,0.2916],[127.4274,0.2883],[127.4244,0.2874],[127.4221,0.2827],[127.4172,0.2824],[127.4137,0.2792],[127.4066,0.2786],[127.402,0.2764],[127.3964,0.2767],[127.3946,0.2751],[127.3847,0.2775],[127.3808,0.2807],[127.3843,0.2871],[127.3921,0.2935],[127.3958,0.3035],[127.3963,0.3351],[127.3859,0.3455],[127.3827,0.3532],[127.3736,0.3623],[127.3879,0.3681],[127.3982,0.3697],[127.4034,0.3731],[127.415,0.375],[127.42,0.373],[127.4223,0.3665],[127.4371,0.3509],[127.4429,0.3366],[127.4386,0.3318],[127.4435,0.3243],[127.4408,0.3156],[127.43,0.3015]]]}}]}