{"type":"FeatureCollection","metadata":{"parent_osm_id":"gid_IDN_32_12_1","parent_name":"LabuhanbatuUtara","parent_name_1":"SumateraUtara","parent_gid":"IDN.32.12_1","parent_level":"5","child_level":"6","count":8,"source":"GADM 4.1","generated":"2026-05-05"},"features":[{"type":"Feature","properties":{"name":"AekKuo","name_en":"AekKuo","admin_level":"6","osm_id":""},"geometry":{"type":"Polygon","coordinates":[[[99.923,2.3168],[99.8772,2.3132],[99.8645,2.31],[99.8552,2.3099],[99.845,2.3048],[99.8114,2.3051],[99.8101,2.3185],[99.8008,2.3167],[99.7937,2.3121],[99.7851,2.3157],[99.7824,2.3153],[99.7813,2.3128],[99.7779,2.3135],[99.7735,2.3111],[99.767,2.3113],[99.7594,2.3058],[99.7518,2.3052],[99.7459,2.3089],[99.743,2.309],[99.7405,2.3108],[99.7544,2.322],[99.7791,2.3286],[99.7872,2.3322],[99.786,2.3339],[99.7721,2.3341],[99.7709,2.3481],[99.7601,2.3543],[99.7582,2.3645],[99.7596,2.3671],[99.7528,2.3773],[99.7561,2.3993],[99.7625,2.4057],[99.7698,2.4169],[99.7879,2.4285],[99.7995,2.4484],[99.8275,2.4642],[99.8357,2.4724],[99.8407,2.4533],[99.8442,2.4477],[99.852,2.4454],[99.8716,2.4344],[99.9309,2.4091],[99.9362,2.4047],[99.9474,2.4017],[99.9875,2.3751],[99.9546,2.3199],[99.923,2.3168]]]}},{"type":"Feature","properties":{"name":"Aeknatas","name_en":"Aeknatas","admin_level":"6","osm_id":""},"geometry":{"type":"Polygon","coordinates":[[[99.5349,2.1612],[99.5348,2.1533],[99.538,2.1483],[99.5497,2.1379],[99.5521,2.1271],[99.551,2.108],[99.5471,2.1002],[99.5431,2.0973],[99.5419,2.0871],[99.5365,2.092],[99.5226,2.0913],[99.5169,2.1022],[99.5133,2.1212],[99.5116,2.1233],[99.482,2.119],[99.472,2.1195],[99.4605,2.1264],[99.4357,2.1238],[99.4192,2.1364],[99.4071,2.1501],[99.3983,2.1563],[99.3939,2.1661],[99.4043,2.176],[99.415,2.1933],[99.4173,2.1994],[99.4156,2.2109],[99.4171,2.2134],[99.4229,2.2157],[99.4358,2.2174],[99.4649,2.2291],[99.4741,2.2337],[99.4762,2.2393],[99.482,2.2427],[99.4969,2.2433],[99.501,2.247],[99.5224,2.2417],[99.53,2.2467],[99.537,2.2481],[99.5381,2.25],[99.5363,2.2555],[99.5346,2.2563],[99.5402,2.2594],[99.5425,2.2658],[99.5469,2.2684],[99.5456,2.2718],[99.5466,2.2838],[99.5448,2.293],[99.5489,2.3069],[99.5557,2.3096],[99.5611,2.3023],[99.5644,2.3066],[99.5695,2.3059],[99.5779,2.3075],[99.5851,2.3139],[99.5834,2.318],[99.5828,2.3281],[99.5671,2.3318],[99.5704,2.3422],[99.5714,2.359],[99.5744,2.3712],[99.5705,2.3804],[99.5732,2.3887],[99.5968,2.401],[99.6181,2.4044],[99.6363,2.4112],[99.6979,2.4282],[99.7026,2.4302],[99.7083,2.4356],[99.7118,2.4411],[99.7134,2.4503],[99.717,2.4486],[99.7239,2.4387],[99.7314,2.437],[99.7367,2.4448],[99.761,2.4707],[99.7624,2.4867],[99.7754,2.4863],[99.7847,2.4828],[99.7936,2.4819],[99.7995,2.4791],[99.802,2.4739],[99.8151,2.4825],[99.8225,2.4808],[99.8346,2.4833],[99.8357,2.4724],[99.8275,2.4642],[99.7995,2.4484],[99.7879,2.4285],[99.7698,2.4169],[99.7625,2.4057],[99.7561,2.3993],[99.7528,2.3773],[99.7596,2.3671],[99.7582,2.3645],[99.7601,2.3543],[99.7709,2.3481],[99.7721,2.3341],[99.786,2.3339],[99.7872,2.3322],[99.7791,2.3286],[99.7544,2.322],[99.7405,2.3108],[99.7327,2.3271],[99.7223,2.3277],[99.7044,2.3134],[99.6955,2.3105],[99.6899,2.3048],[99.6858,2.296],[99.6682,2.2879],[99.6385,2.2826],[99.6305,2.2756],[99.622,2.2609],[99.6203,2.25],[99.6164,2.2388],[99.606,2.228],[99.5939,2.2234],[99.5916,2.2141],[99.5812,2.2003],[99.5744,2.201],[99.569,2.2074],[99.5602,2.2063],[99.5558,2.2014],[99.554,2.1951],[99.539,2.1839],[99.5315,2.1814],[99.5315,2.1718],[99.5349,2.1612]]]}},{"type":"Feature","properties":{"name":"KualuhHilir","name_en":"KualuhHilir","admin_level":"6","osm_id":""},"geometry":{"type":"Polygon","coordinates":[[[99.9687,2.3866],[99.9474,2.4017],[99.9362,2.4047],[99.9309,2.4091],[99.8716,2.4344],[99.852,2.4454],[99.8442,2.4477],[99.8407,2.4533],[99.8355,2.4736],[99.8338,2.4878],[99.8349,2.5041],[99.8452,2.5102],[99.8497,2.5187],[99.8604,2.5188],[99.8636,2.5213],[99.8666,2.5262],[99.8675,2.5313],[99.8717,2.5343],[99.8807,2.5563],[99.878,2.5663],[99.878,2.574],[99.8299,2.5749],[99.8307,2.5999],[99.9333,2.6029],[99.9758,2.6153],[99.9815,2.6331],[99.9824,2.6452],[99.9879,2.6681],[99.9905,2.6965],[99.9973,2.7092],[100.0061,2.7223],[100.0192,2.7334],[100.0344,2.7392],[100.0452,2.7377],[100.0492,2.7357],[100.0501,2.7178],[100.0538,2.711],[100.0581,2.6784],[100.0636,2.6589],[100.0677,2.6322],[100.0727,2.5836],[100.0727,2.5623],[100.0745,2.5447],[100.0661,2.5327],[100.0585,2.5257],[100.0525,2.5049],[100.0475,2.4967],[100.0401,2.4908],[100.0229,2.4615],[100.0149,2.4342],[100.0101,2.4216],[100.0059,2.4162],[100.001,2.3959],[99.9875,2.3751],[99.9687,2.3866]]]}},{"type":"Feature","properties":{"name":"KualuhHulu","name_en":"KualuhHulu","admin_level":"6","osm_id":""},"geometry":{"type":"Polygon","coordinates":[[[99.5315,2.5245],[99.5311,2.5105],[99.5243,2.5017],[99.5222,2.4946],[99.5176,2.4929],[99.5147,2.4896],[99.5144,2.4731],[99.5229,2.4671],[99.5234,2.4613],[99.5171,2.4515],[99.512,2.4397],[99.514,2.431],[99.5176,2.4248],[99.5174,2.4193],[99.5157,2.4164],[99.511,2.4163],[99.5098,2.4134],[99.5171,2.406],[99.517,2.4026],[99.5196,2.3994],[99.5166,2.3982],[99.5156,2.3956],[99.5099,2.3968],[99.5012,2.3956],[99.5,2.3984],[99.4192,2.46],[99.4398,2.489],[99.4462,2.4939],[99.45,2.5],[99.4507,2.5029],[99.4493,2.505],[99.453,2.5412],[99.4612,2.5508],[99.4725,2.556],[99.4896,2.5774],[99.5,2.5852],[99.5137,2.5886],[99.5172,2.5921],[99.5221,2.5906],[99.5284,2.5926],[99.5384,2.5922],[99.543,2.603],[99.5558,2.6062],[99.5596,2.6047],[99.5629,2.5945],[99.5696,2.585],[99.5781,2.5864],[99.5832,2.5913],[99.5868,2.5909],[99.5917,2.5857],[99.6068,2.5792],[99.6088,2.5752],[99.6434,2.5762],[99.6438,2.5802],[99.6544,2.5815],[99.6676,2.5872],[99.6971,2.587],[99.7122,2.5966],[99.7193,2.6045],[99.7255,2.6065],[99.7425,2.6262],[99.7467,2.6271],[99.7507,2.6253],[99.8222,2.6885],[99.8271,2.6965],[99.8289,2.6839],[99.8261,2.6721],[99.8308,2.6461],[99.8285,2.6318],[99.8308,2.5985],[99.8299,2.5749],[99.878,2.574],[99.878,2.5663],[99.8807,2.5563],[99.8737,2.5407],[99.8531,2.539],[99.8423,2.5344],[99.8216,2.5296],[99.8157,2.5362],[99.8171,2.5382],[99.805,2.5429],[99.7927,2.5539],[99.7773,2.5514],[99.767,2.5454],[99.7486,2.5495],[99.7453,2.547],[99.7334,2.5264],[99.7293,2.5253],[99.714,2.5275],[99.7031,2.5354],[99.6941,2.5262],[99.6885,2.5244],[99.6764,2.5275],[99.6647,2.5333],[99.6575,2.534],[99.6506,2.532],[99.6419,2.5349],[99.6382,2.5333],[99.6324,2.5337],[99.6257,2.5304],[99.6162,2.537],[99.6116,2.5382],[99.6114,2.541],[99.6091,2.5401],[99.5976,2.5441],[99.5919,2.5392],[99.5856,2.542],[99.5585,2.5382],[99.5527,2.5434],[99.548,2.5425],[99.5475,2.5333],[99.5446,2.5303],[99.5397,2.5334],[99.5309,2.5327],[99.5315,2.5245]]]}},{"type":"Feature","properties":{"name":"KualuhLeidong","name_en":"KualuhLeidong","admin_level":"6","osm_id":""},"geometry":{"type":"Polygon","coordinates":[[[99.9552,2.6086],[99.9482,2.608],[99.9333,2.6029],[99.8307,2.5999],[99.8285,2.6318],[99.8307,2.64],[99.8305,2.6525],[99.8261,2.6721],[99.8289,2.6839],[99.8271,2.6965],[99.8672,2.73],[99.8676,2.739],[99.884,2.7487],[99.9257,2.794],[99.9626,2.829],[99.9847,2.8527],[99.9893,2.8509],[99.989,2.8431],[99.991,2.8367],[99.9924,2.8363],[99.9921,2.8339],[99.9948,2.8317],[99.9949,2.8237],[99.9933,2.8185],[99.996,2.8178],[99.9938,2.8166],[99.9953,2.8151],[99.9941,2.8123],[99.9954,2.8094],[99.9939,2.8081],[99.9939,2.7884],[99.9916,2.7798],[99.9909,2.7546],[99.9863,2.7473],[99.9824,2.7468],[99.9774,2.7521],[99.9779,2.7441],[99.9764,2.7409],[99.9602,2.7227],[99.956,2.714],[99.9512,2.6974],[99.9532,2.6912],[99.9632,2.6783],[99.9688,2.674],[99.975,2.6715],[99.989,2.675],[99.9824,2.6452],[99.9815,2.6331],[99.9758,2.6153],[99.9552,2.6086]]]}},{"type":"Feature","properties":{"name":"KualuhSelatan","name_en":"KualuhSelatan","admin_level":"6","osm_id":""},"geometry":{"type":"Polygon","coordinates":[[[99.5968,2.401],[99.5767,2.3911],[99.5719,2.3866],[99.5707,2.3793],[99.5744,2.3712],[99.5714,2.359],[99.5704,2.3422],[99.5671,2.3318],[99.5331,2.3435],[99.5198,2.3513],[99.5211,2.3549],[99.5196,2.3595],[99.5204,2.3634],[99.5176,2.3665],[99.5173,2.3714],[99.5187,2.376],[99.523,2.3785],[99.5211,2.3871],[99.5241,2.3885],[99.5232,2.3948],[99.5264,2.4037],[99.527,2.4136],[99.5256,2.4174],[99.5276,2.4322],[99.5231,2.4349],[99.5197,2.4409],[99.5224,2.446],[99.528,2.4503],[99.5237,2.457],[99.5229,2.4671],[99.5144,2.4731],[99.5147,2.4896],[99.5176,2.4929],[99.5222,2.4946],[99.5243,2.5017],[99.5311,2.5105],[99.5309,2.5327],[99.5397,2.5334],[99.5446,2.5303],[99.5475,2.5333],[99.548,2.5425],[99.5527,2.5434],[99.5585,2.5382],[99.5856,2.542],[99.5919,2.5392],[99.5976,2.5441],[99.6091,2.5401],[99.6114,2.541],[99.6116,2.5382],[99.6162,2.537],[99.6257,2.5304],[99.6324,2.5337],[99.6382,2.5333],[99.6419,2.5349],[99.6506,2.532],[99.6575,2.534],[99.6647,2.5333],[99.6764,2.5275],[99.6885,2.5244],[99.6941,2.5262],[99.7031,2.5354],[99.714,2.5275],[99.7293,2.5253],[99.7334,2.5264],[99.7453,2.547],[99.7486,2.5495],[99.767,2.5454],[99.7773,2.5514],[99.7927,2.5539],[99.805,2.5429],[99.8171,2.5382],[99.8157,2.5362],[99.8216,2.5296],[99.8423,2.5344],[99.8531,2.539],[99.8737,2.5407],[99.8717,2.5343],[99.8675,2.5313],[99.8666,2.5262],[99.8636,2.5213],[99.8604,2.5188],[99.8497,2.5187],[99.8452,2.5102],[99.8349,2.5041],[99.8337,2.4973],[99.8346,2.4833],[99.8225,2.4808],[99.8151,2.4825],[99.802,2.4739],[99.7995,2.4791],[99.7936,2.4819],[99.7847,2.4828],[99.7754,2.4863],[99.7624,2.4867],[99.761,2.4707],[99.7367,2.4448],[99.7314,2.437],[99.7239,2.4387],[99.717,2.4486],[99.7134,2.4503],[99.7118,2.4411],[99.7083,2.4356],[99.7026,2.4302],[99.6979,2.4282],[99.6363,2.4112],[99.6181,2.4044],[99.5968,2.401]]]}},{"type":"Feature","properties":{"name":"Marbau","name_en":"Marbau","admin_level":"6","osm_id":""},"geometry":{"type":"Polygon","coordinates":[[[99.8095,2.1813],[99.785,2.1831],[99.7738,2.1818],[99.7766,2.2286],[99.776,2.2403],[99.772,2.2599],[99.7795,2.2775],[99.7891,2.2864],[99.7893,2.3134],[99.7937,2.3121],[99.8008,2.3167],[99.8101,2.3185],[99.8114,2.3051],[99.845,2.3048],[99.8552,2.3099],[99.8645,2.31],[99.8772,2.3132],[99.9546,2.3199],[99.9444,2.285],[99.9333,2.262],[99.9339,2.2572],[99.9372,2.2529],[99.9441,2.2498],[99.9636,2.2029],[99.9302,2.1905],[99.8987,2.1813],[99.8095,2.1813]]]}},{"type":"Feature","properties":{"name":"NaIx-X","name_en":"NaIx-X","admin_level":"6","osm_id":""},"geometry":{"type":"Polygon","coordinates":[[[99.6758,2.0714],[99.6715,2.069],[99.6701,2.0548],[99.6631,2.0462],[99.6615,2.0367],[99.6555,2.0293],[99.6403,2.0366],[99.6366,2.0421],[99.6194,2.0418],[99.6165,2.0405],[99.6172,2.0227],[99.6239,2.0143],[99.6264,2.006],[99.6271,2.0004],[99.6252,1.9975],[99.6183,1.9957],[99.6089,1.9967],[99.5982,2.0032],[99.5969,2.0091],[99.5931,2.011],[99.5911,2.0149],[99.5803,2.0219],[99.5734,2.029],[99.5678,2.0282],[99.5651,2.0302],[99.556,2.0418],[99.5519,2.0543],[99.5464,2.0616],[99.5465,2.0658],[99.5509,2.0781],[99.5419,2.0871],[99.5431,2.0973],[99.5471,2.1002],[99.551,2.108],[99.5523,2.1218],[99.5515,2.133],[99.5462,2.1422],[99.538,2.1483],[99.5348,2.1533],[99.5357,2.1569],[99.5315,2.1718],[99.5315,2.1814],[99.539,2.1839],[99.554,2.1951],[99.5558,2.2014],[99.5602,2.2063],[99.569,2.2074],[99.5744,2.201],[99.5803,2.1995],[99.5916,2.2141],[99.5939,2.2234],[99.606,2.228],[99.6164,2.2388],[99.6203,2.25],[99.622,2.2609],[99.632,2.2772],[99.6405,2.2838],[99.6682,2.2879],[99.6858,2.296],[99.6899,2.3048],[99.6955,2.3105],[99.7044,2.3134],[99.7223,2.3277],[99.7327,2.3271],[99.7405,2.3108],[99.7518,2.3052],[99.7594,2.3058],[99.767,2.3113],[99.7735,2.3111],[99.7779,2.3135],[99.7813,2.3128],[99.7814,2.3146],[99.7851,2.3157],[99.7893,2.3134],[99.7897,2.2894],[99.7891,2.2864],[99.7795,2.2775],[99.772,2.2599],[99.776,2.2403],[99.7764,2.2176],[99.7739,2.1818],[99.7716,2.177],[99.7712,2.1599],[99.7663,2.1379],[99.7608,2.1357],[99.7479,2.1342],[99.7445,2.1251],[99.7352,2.1201],[99.7303,2.1155],[99.727,2.1034],[99.7178,2.0861],[99.7102,2.0825],[99.6911,2.0788],[99.6758,2.0714]]]}}]}