{"type":"FeatureCollection","metadata":{"parent_osm_id":"8483358","parent_name":"Labuhanbatu","parent_name_1":"SumateraUtara","parent_gid":"IDN.32.13_1","parent_level":"5","child_level":"6","count":9,"source":"GADM 4.1","generated":"2026-05-09"},"features":[{"type":"Feature","properties":{"name":"BilahBarat","name_en":"BilahBarat","admin_level":"6","osm_id":""},"geometry":{"type":"Polygon","coordinates":[[[99.7373,1.9769],[99.7323,1.9766],[99.714,1.9631],[99.7047,1.9299],[99.6775,1.9373],[99.6906,1.9696],[99.6875,1.9952],[99.6902,2.0017],[99.6879,2.0157],[99.6813,2.0271],[99.6835,2.0365],[99.6683,2.036],[99.6619,2.038],[99.6613,2.0403],[99.6631,2.0462],[99.6701,2.0548],[99.6715,2.069],[99.6911,2.0788],[99.7102,2.0825],[99.7178,2.0861],[99.727,2.1034],[99.7303,2.1155],[99.7352,2.1201],[99.7445,2.1251],[99.7479,2.1342],[99.7608,2.1357],[99.7663,2.1379],[99.7712,2.1599],[99.7716,2.177],[99.7739,2.1818],[99.785,2.1831],[99.8165,2.1806],[99.8987,2.1813],[99.9302,2.1905],[99.9636,2.2029],[99.9505,2.1633],[99.9447,2.1385],[99.9399,2.1349],[99.9416,2.1136],[99.9394,2.1116],[99.9255,2.1103],[99.9249,2.109],[99.9266,2.0957],[99.9251,2.0767],[99.892,2.0512],[99.8818,2.0477],[99.8816,2.0736],[99.8844,2.0813],[99.8854,2.0962],[99.8808,2.1173],[99.8807,2.1461],[99.8824,2.1519],[99.8801,2.1585],[99.8498,2.1582],[99.7954,2.1255],[99.7903,2.1199],[99.7779,2.0916],[99.7777,2.0834],[99.7751,2.0748],[99.7823,2.0512],[99.7854,2.0287],[99.7895,2.0238],[99.7812,2.0171],[99.7697,2.0127],[99.7668,2.0073],[99.7636,2.0057],[99.7468,2.0037],[99.7401,1.9797],[99.7373,1.9769]]]}},{"type":"Feature","properties":{"name":"BilahHilir","name_en":"BilahHilir","admin_level":"6","osm_id":""},"geometry":{"type":"Polygon","coordinates":[[[100.1101,2.1614],[100.0951,2.1628],[100.0927,2.1689],[100.0927,2.1869],[100.0903,2.2118],[100.0869,2.2218],[100.08,2.2583],[100.0682,2.2881],[100.0621,2.2964],[100.0445,2.3005],[100.023,2.2992],[99.9452,2.2889],[99.9546,2.3199],[99.9707,2.3459],[99.9803,2.3647],[100.001,2.3959],[100.0059,2.4162],[100.0101,2.4216],[100.0149,2.4342],[100.0229,2.4615],[100.0692,2.4588],[100.0748,2.471],[100.0897,2.4767],[100.0931,2.4857],[100.0962,2.4892],[100.1075,2.4918],[100.1136,2.4918],[100.1189,2.4898],[100.1244,2.4758],[100.1286,2.4723],[100.1274,2.4648],[100.1296,2.4547],[100.1301,2.4135],[100.1345,2.4085],[100.1456,2.4084],[100.1378,2.3556],[100.1417,2.3467],[100.1472,2.3467],[100.1499,2.3428],[100.151,2.2496],[100.1352,2.191],[100.1291,2.1769],[100.1202,2.1586],[100.1101,2.1614]]]}},{"type":"Feature","properties":{"name":"BilahHulu","name_en":"BilahHulu","admin_level":"6","osm_id":""},"geometry":{"type":"Polygon","coordinates":[[[99.8564,1.8808],[99.8578,1.8422],[99.8554,1.8333],[99.86,1.8159],[99.8557,1.8061],[99.85,1.805],[99.8394,1.7994],[99.8397,1.8021],[99.8366,1.8104],[99.8285,1.8257],[99.8234,1.8318],[99.8168,1.8611],[99.812,1.8672],[99.816,1.8746],[99.8174,1.8838],[99.814,1.8954],[99.8086,1.9036],[99.8242,1.9107],[99.8322,1.9115],[99.8347,1.9148],[99.8315,1.9329],[99.841,1.9708],[99.8418,1.9792],[99.8284,1.9936],[99.8383,2.0],[99.8435,2.0136],[99.863,2.0308],[99.8753,2.0443],[99.892,2.0512],[99.9016,2.0595],[99.9062,2.0612],[99.9168,2.0692],[99.9251,2.0767],[99.926,2.0795],[99.9505,2.0809],[99.9613,2.0792],[100.0012,2.0811],[100.0066,2.0832],[100.0091,2.0885],[100.0432,2.0876],[100.0445,2.0855],[100.0465,2.0534],[100.0442,2.0426],[100.0449,2.0304],[100.0326,2.0187],[100.0294,2.0115],[100.0147,1.9997],[100.018,1.9941],[100.0264,1.9942],[100.0483,1.987],[100.0551,1.9885],[100.0587,1.9853],[100.0398,1.9445],[100.033,1.9365],[100.0296,1.9351],[100.0021,1.9355],[100.0007,1.9826],[99.9966,1.979],[99.9965,1.9747],[99.9928,1.9747],[99.9895,1.9722],[99.9872,1.9654],[99.979,1.9614],[99.9509,1.97],[99.9402,1.9712],[99.9328,1.97],[99.9233,1.9645],[99.9178,1.958],[99.9056,1.9587],[99.8872,1.9468],[99.8772,1.9221],[99.8685,1.9137],[99.8564,1.9058],[99.8564,1.8808]]]}},{"type":"Feature","properties":{"name":"PanaiHilir","name_en":"PanaiHilir","admin_level":"6","osm_id":""},"geometry":{"type":"Polygon","coordinates":[[[100.1357,2.5481],[100.1319,2.5728],[100.1215,2.6147],[100.1236,2.6618],[100.1354,2.6836],[100.1511,2.6984],[100.1597,2.7043],[100.1709,2.7095],[100.1947,2.712],[100.2118,2.7087],[100.2201,2.7052],[100.2217,2.6982],[100.2206,2.6948],[100.2241,2.6859],[100.2224,2.6779],[100.2258,2.6728],[100.227,2.667],[100.2295,2.6646],[100.2298,2.6596],[100.2306,2.6585],[100.2318,2.6599],[100.2334,2.6576],[100.2307,2.6553],[100.2308,2.6529],[100.2352,2.6425],[100.2404,2.6384],[100.2408,2.636],[100.2489,2.6274],[100.2583,2.6204],[100.2629,2.6192],[100.2673,2.6137],[100.2699,2.6139],[100.2733,2.5942],[100.2856,2.5764],[100.2888,2.5765],[100.2897,2.5742],[100.2918,2.5745],[100.2912,2.573],[100.2932,2.5733],[100.2965,2.5704],[100.2958,2.5679],[100.3006,2.567],[100.3007,2.5647],[100.3045,2.5639],[100.3087,2.559],[100.3102,2.5593],[100.3202,2.5524],[100.3229,2.5454],[100.321,2.5386],[100.3159,2.5385],[100.25,2.5433],[100.1366,2.5433],[100.1357,2.5481]]]}},{"type":"Feature","properties":{"name":"PanaiHulu","name_en":"PanaiHulu","admin_level":"6","osm_id":""},"geometry":{"type":"Polygon","coordinates":[[[100.1501,2.3273],[100.1499,2.3428],[100.1472,2.3467],[100.1417,2.3467],[100.1378,2.3556],[100.1456,2.4084],[100.1345,2.4085],[100.1301,2.4135],[100.1296,2.4547],[100.1274,2.4648],[100.1286,2.4723],[100.1244,2.4758],[100.1189,2.4898],[100.1136,2.4918],[100.1075,2.4918],[100.0962,2.4892],[100.0931,2.4857],[100.0897,2.4767],[100.0748,2.471],[100.0692,2.4588],[100.0229,2.4615],[100.0401,2.4908],[100.0475,2.4967],[100.0525,2.5049],[100.0585,2.5257],[100.0661,2.5327],[100.0745,2.5447],[100.0889,2.5455],[100.097,2.5436],[100.1053,2.5462],[100.1129,2.5462],[100.1491,2.5429],[100.1491,2.5288],[100.1588,2.5238],[100.1653,2.5143],[100.1653,2.4918],[100.1471,2.4804],[100.1471,2.4693],[100.1551,2.466],[100.1774,2.467],[100.1878,2.4624],[100.1945,2.4456],[100.1932,2.4401],[100.1959,2.4357],[100.1932,2.4234],[100.1931,2.4151],[100.1821,2.3889],[100.1806,2.3785],[100.1919,2.3757],[100.1934,2.3689],[100.1962,2.3657],[100.2022,2.3646],[100.2034,2.3613],[100.2025,2.3539],[100.1915,2.3314],[100.1953,2.3033],[100.188,2.2914],[100.1876,2.2518],[100.1613,2.2496],[100.154,2.2517],[100.151,2.2496],[100.1501,2.3273]]]}},{"type":"Feature","properties":{"name":"PanaiTengah","name_en":"PanaiTengah","admin_level":"6","osm_id":""},"geometry":{"type":"Polygon","coordinates":[[[100.3651,2.2108],[100.3313,2.2122],[100.2131,2.2096],[100.2104,2.1932],[100.1352,2.191],[100.151,2.2496],[100.154,2.2517],[100.1613,2.2496],[100.1876,2.2518],[100.188,2.2914],[100.1953,2.3033],[100.1915,2.3314],[100.2025,2.3539],[100.2034,2.3613],[100.2022,2.3646],[100.1962,2.3657],[100.1934,2.3689],[100.1919,2.3757],[100.1806,2.3785],[100.1821,2.3889],[100.1931,2.4151],[100.1932,2.4234],[100.1959,2.4357],[100.1932,2.4401],[100.1945,2.4456],[100.1878,2.4624],[100.1774,2.467],[100.1551,2.466],[100.1471,2.4693],[100.1471,2.4804],[100.1653,2.4918],[100.1653,2.5143],[100.1588,2.5238],[100.1491,2.5288],[100.1491,2.5429],[100.25,2.5433],[100.321,2.5386],[100.3196,2.5289],[100.3071,2.4913],[100.3072,2.48],[100.3001,2.4608],[100.2996,2.4462],[100.2955,2.4282],[100.2994,2.3565],[100.3019,2.3499],[100.3008,2.3401],[100.3131,2.31],[100.3174,2.2897],[100.3278,2.2759],[100.3336,2.2639],[100.3354,2.2534],[100.3499,2.2306],[100.3594,2.2117],[100.3651,2.2108]]]}},{"type":"Feature","properties":{"name":"Pangkatan","name_en":"Pangkatan","admin_level":"6","osm_id":""},"geometry":{"type":"Polygon","coordinates":[[[99.926,2.1017],[99.9255,2.1103],[99.9394,2.1116],[99.9416,2.1136],[99.9399,2.1349],[99.9447,2.1385],[99.9505,2.1633],[99.9636,2.2029],[99.9441,2.2498],[99.9372,2.2529],[99.9339,2.2572],[99.9333,2.262],[99.9398,2.274],[99.9452,2.2889],[100.023,2.2992],[100.0445,2.3005],[100.0621,2.2964],[100.0682,2.2881],[100.08,2.2583],[100.0869,2.2218],[100.0903,2.2118],[100.0927,2.1869],[100.0927,2.1689],[100.0951,2.1628],[100.1136,2.1611],[100.1202,2.1586],[100.0951,2.1082],[100.088,2.1047],[100.0735,2.1051],[100.0445,2.0855],[100.0432,2.0876],[100.0382,2.0884],[100.0091,2.0885],[100.0048,2.0818],[99.9616,2.0792],[99.9505,2.0809],[99.926,2.0795],[99.926,2.1017]]]}},{"type":"Feature","properties":{"name":"RantauSelatan","name_en":"RantauSelatan","admin_level":"6","osm_id":""},"geometry":{"type":"Polygon","coordinates":[[[99.7829,2.043],[99.7961,2.0402],[99.8088,2.0519],[99.8223,2.0546],[99.8392,2.0872],[99.834,2.0927],[99.8379,2.0952],[99.8379,2.098],[99.8347,2.1008],[99.8354,2.1026],[99.8395,2.1045],[99.8462,2.1044],[99.8592,2.117],[99.8808,2.1173],[99.8854,2.0962],[99.8844,2.0813],[99.8816,2.0736],[99.8818,2.0477],[99.8753,2.0443],[99.863,2.0308],[99.8476,2.0172],[99.8464,2.0164],[99.8421,2.0191],[99.8371,2.0193],[99.8242,2.0161],[99.8229,2.0202],[99.8242,2.0247],[99.816,2.0257],[99.8067,2.0215],[99.8025,2.016],[99.8004,2.0164],[99.7943,2.0235],[99.7914,2.0247],[99.7895,2.0238],[99.7854,2.0287],[99.7829,2.043]]]}},{"type":"Feature","properties":{"name":"RantauUtara","name_en":"RantauUtara","admin_level":"6","osm_id":""},"geometry":{"type":"Polygon","coordinates":[[[99.8077,2.051],[99.7961,2.0402],[99.7829,2.043],[99.7823,2.0512],[99.7751,2.0748],[99.7777,2.0834],[99.7779,2.0916],[99.7903,2.1199],[99.7954,2.1255],[99.8033,2.1295],[99.8087,2.1344],[99.8498,2.1582],[99.8801,2.1585],[99.8824,2.1519],[99.8807,2.1461],[99.8808,2.1173],[99.8592,2.117],[99.8462,2.1044],[99.8395,2.1045],[99.8354,2.1026],[99.8347,2.1008],[99.8379,2.098],[99.8379,2.0952],[99.834,2.0927],[99.8392,2.0872],[99.8223,2.0546],[99.8077,2.051]]]}}]}