{"type":"FeatureCollection","metadata":{"parent_osm_id":"13262347","parent_name":"Buru","parent_name_1":"Maluku","parent_gid":"IDN.19.3_1","parent_level":"5","child_level":"6","count":5,"source":"GADM 4.1","generated":"2026-05-09"},"features":[{"type":"Feature","properties":{"name":"AirBuaya","name_en":"AirBuaya","admin_level":"6","osm_id":""},"geometry":{"type":"Polygon","coordinates":[[[126.18,-3.3196],[126.1331,-3.302],[126.1242,-3.2952],[126.1326,-3.2647],[126.13,-3.2261],[126.1229,-3.2029],[126.1126,-3.1572],[126.1215,-3.1564],[126.1256,-3.1522],[126.1281,-3.1528],[126.133,-3.1602],[126.1442,-3.1671],[126.1588,-3.1715],[126.1631,-3.1759],[126.1893,-3.1853],[126.2034,-3.1859],[126.2153,-3.1826],[126.2223,-3.1835],[126.2257,-3.1821],[126.2281,-3.1781],[126.2224,-3.1675],[126.221,-3.1587],[126.2216,-3.1531],[126.2275,-3.1378],[126.2341,-3.1325],[126.2492,-3.1312],[126.2607,-3.1324],[126.2728,-3.1151],[126.2845,-3.1078],[126.2925,-3.098],[126.2996,-3.0934],[126.3256,-3.1001],[126.3459,-3.1009],[126.3641,-3.094],[126.379,-3.0952],[126.3891,-3.0933],[126.3927,-3.0881],[126.406,-3.0806],[126.4164,-3.0816],[126.4234,-3.0792],[126.4272,-3.0816],[126.4371,-3.0838],[126.4544,-3.0828],[126.4638,-3.0846],[126.4736,-3.0831],[126.4829,-3.0785],[126.5021,-3.0772],[126.5161,-3.0711],[126.5683,-3.072],[126.5892,-3.0681],[126.598,-3.0639],[126.6104,-3.0679],[126.6453,-3.0711],[126.6444,-3.4632],[126.5098,-3.4355],[126.4622,-3.4118],[126.381,-3.3846],[126.3256,-3.3612],[126.2331,-3.3381],[126.18,-3.3196]]]}},{"type":"Feature","properties":{"name":"BataBual","name_en":"BataBual","admin_level":"6","osm_id":""},"geometry":{"type":"Polygon","coordinates":[[[127.1218,-3.5858],[127.0673,-3.5691],[127.1053,-3.4649],[127.1249,-3.4299],[127.1315,-3.4234],[127.1611,-3.38],[127.1603,-3.3368],[127.1638,-3.3354],[127.1688,-3.3412],[127.177,-3.344],[127.1795,-3.347],[127.1791,-3.3531],[127.1822,-3.3559],[127.204,-3.3584],[127.2181,-3.3566],[127.2239,-3.3618],[127.2436,-3.3668],[127.2482,-3.3721],[127.2569,-3.372],[127.2689,-3.3894],[127.2684,-3.3964],[127.2553,-3.4117],[127.2537,-3.4156],[127.2526,-3.4272],[127.2543,-3.4308],[127.2504,-3.4369],[127.2508,-3.4467],[127.2485,-3.4501],[127.2504,-3.4672],[127.2489,-3.492],[127.2502,-3.4948],[127.2495,-3.5254],[127.2517,-3.5294],[127.2508,-3.5444],[127.2464,-3.5501],[127.2487,-3.5561],[127.2448,-3.5691],[127.2459,-3.5755],[127.25,-3.5828],[127.2515,-3.5923],[127.2474,-3.6019],[127.2441,-3.6054],[127.243,-3.6138],[127.2398,-3.6159],[127.2406,-3.6227],[127.2387,-3.6336],[127.1959,-3.6093],[127.1218,-3.5858]]]}},{"type":"Feature","properties":{"name":"Namlea","name_en":"Namlea","admin_level":"6","osm_id":""},"geometry":{"type":"Polygon","coordinates":[[[127.0402,-3.294],[127.0413,-3.3022],[127.0265,-3.2974],[126.9988,-3.3021],[126.9946,-3.2892],[126.9954,-3.2783],[126.9985,-3.2699],[126.9887,-3.2664],[126.9807,-3.2525],[126.98,-3.2426],[126.929,-3.2644],[126.9051,-3.2714],[126.8862,-3.2714],[126.8759,-3.269],[126.87,-3.2283],[126.8709,-3.2153],[126.8745,-3.1997],[126.8963,-3.1525],[126.9043,-3.1404],[126.9152,-3.1289],[126.9238,-3.1397],[126.9327,-3.1432],[126.9502,-3.1409],[126.9576,-3.1378],[126.9783,-3.1391],[126.9837,-3.1379],[126.9879,-3.1398],[126.9906,-3.1427],[127.0184,-3.1576],[127.0269,-3.1668],[127.0266,-3.169],[127.0296,-3.1726],[127.0375,-3.1708],[127.0555,-3.1804],[127.0726,-3.1957],[127.0795,-3.2039],[127.0835,-3.2053],[127.0906,-3.211],[127.1019,-3.2233],[127.1063,-3.225],[127.1113,-3.2336],[127.1121,-3.2572],[127.1135,-3.2607],[127.1197,-3.2646],[127.1196,-3.2718],[127.1221,-3.2745],[127.1205,-3.277],[127.1168,-3.2804],[127.1118,-3.2796],[127.0991,-3.2847],[127.0949,-3.2831],[127.0954,-3.2773],[127.0886,-3.2696],[127.0823,-3.2643],[127.0789,-3.2647],[127.0805,-3.2623],[127.0722,-3.2599],[127.0687,-3.2625],[127.0659,-3.2624],[127.0649,-3.2607],[127.0644,-3.2655],[127.062,-3.2663],[127.0561,-3.2618],[127.0439,-3.2653],[127.0349,-3.2638],[127.0307,-3.265],[127.0347,-3.2654],[127.035,-3.2672],[127.0346,-3.2722],[127.0307,-3.2731],[127.0306,-3.2745],[127.0336,-3.2753],[127.0358,-3.2787],[127.0402,-3.294]]]}},{"type":"Feature","properties":{"name":"Waeapo","name_en":"Waeapo","admin_level":"6","osm_id":""},"geometry":{"type":"Polygon","coordinates":[[[126.9512,-3.2549],[126.98,-3.2426],[126.9807,-3.2525],[126.9887,-3.2664],[126.9985,-3.2699],[126.9954,-3.2783],[126.9946,-3.2892],[126.9988,-3.3021],[127.0265,-3.2974],[127.0413,-3.3022],[127.0437,-3.3129],[127.0416,-3.3158],[127.0442,-3.3201],[127.0429,-3.3288],[127.0493,-3.3354],[127.0528,-3.3366],[127.0553,-3.329],[127.0732,-3.3219],[127.072,-3.3331],[127.0687,-3.3378],[127.0722,-3.3413],[127.0687,-3.346],[127.0717,-3.3496],[127.0694,-3.352],[127.0707,-3.3584],[127.0725,-3.3581],[127.072,-3.3643],[127.0758,-3.3738],[127.0923,-3.3721],[127.0974,-3.3763],[127.1072,-3.3806],[127.1203,-3.3832],[127.1246,-3.3827],[127.1314,-3.3788],[127.1348,-3.379],[127.1397,-3.3736],[127.139,-3.3695],[127.141,-3.3621],[127.1402,-3.3594],[127.1385,-3.3601],[127.1381,-3.3587],[127.1399,-3.3534],[127.1531,-3.341],[127.1603,-3.3368],[127.1611,-3.38],[127.1315,-3.4234],[127.1249,-3.4299],[127.1053,-3.4649],[127.0673,-3.5691],[126.9019,-3.5188],[126.6444,-3.4632],[126.6441,-3.2582],[126.792,-3.2542],[126.8178,-3.2555],[126.8421,-3.2611],[126.8521,-3.2654],[126.8604,-3.2654],[126.8862,-3.2714],[126.9051,-3.2714],[126.929,-3.2644],[126.9512,-3.2549]]]}},{"type":"Feature","properties":{"name":"Waplau","name_en":"Waplau","admin_level":"6","osm_id":""},"geometry":{"type":"Polygon","coordinates":[[[126.8963,-3.1525],[126.8745,-3.1997],[126.8709,-3.2153],[126.8709,-3.239],[126.8759,-3.269],[126.8604,-3.2654],[126.8521,-3.2654],[126.8421,-3.2611],[126.8178,-3.2555],[126.792,-3.2542],[126.6441,-3.2582],[126.6454,-3.0714],[126.6783,-3.0691],[126.6805,-3.0661],[126.6807,-3.0616],[126.6827,-3.0614],[126.6951,-3.0673],[126.6974,-3.0666],[126.7,-3.0602],[126.7082,-3.0563],[126.7345,-3.0578],[126.7406,-3.0598],[126.7543,-3.0607],[126.761,-3.0597],[126.7693,-3.0609],[126.7757,-3.0571],[126.7909,-3.0589],[126.8197,-3.0712],[126.838,-3.0853],[126.85,-3.0895],[126.8578,-3.0902],[126.8674,-3.0957],[126.8719,-3.1011],[126.8818,-3.1076],[126.885,-3.1218],[126.889,-3.1265],[126.8981,-3.1275],[126.9073,-3.1223],[126.9118,-3.1244],[126.9152,-3.1289],[126.9043,-3.1404],[126.8963,-3.1525]]]}}]}