{"type":"FeatureCollection","metadata":{"parent_osm_id":"14907635","parent_name":"Bitung","parent_name_1":"SulawesiUtara","parent_gid":"IDN.29.1_1","parent_level":"5","child_level":"6","count":8,"source":"GADM 4.1","generated":"2026-05-05"},"features":[{"type":"Feature","properties":{"name":"Aertembaga","name_en":"Aertembaga","admin_level":"6","osm_id":"","gid":"IDN.29.1.1_1"},"geometry":{"type":"Polygon","coordinates":[[[125.1928,1.4484],[125.1938,1.4688],[125.1969,1.4697],[125.1966,1.477],[125.1862,1.4798],[125.1765,1.4865],[125.1608,1.4856],[125.1599,1.4873],[125.1576,1.4875],[125.171,1.5039],[125.1715,1.5195],[125.1678,1.5368],[125.1688,1.5492],[125.1723,1.5567],[125.1826,1.5515],[125.2054,1.5446],[125.2097,1.5393],[125.2147,1.5364],[125.2151,1.5343],[125.2294,1.5266],[125.2352,1.5159],[125.2385,1.5138],[125.2383,1.5117],[125.2414,1.5113],[125.241,1.5077],[125.2436,1.5057],[125.2418,1.5049],[125.2413,1.5057],[125.2388,1.5065],[125.2426,1.5038],[125.2404,1.5051],[125.2383,1.5034],[125.2379,1.4944],[125.2342,1.4934],[125.2326,1.4912],[125.2331,1.4878],[125.2361,1.4871],[125.2374,1.4843],[125.2309,1.4778],[125.23,1.4727],[125.2318,1.4689],[125.2298,1.4657],[125.2274,1.4656],[125.2226,1.4607],[125.221,1.4614],[125.2151,1.4588],[125.2123,1.46],[125.2086,1.4519],[125.2059,1.4505],[125.2069,1.4479],[125.2032,1.4453],[125.2015,1.446],[125.2009,1.4446],[125.1968,1.4438],[125.1931,1.4399],[125.1928,1.4484]]]}},{"type":"Feature","properties":{"name":"Girian","name_en":"Girian","admin_level":"6","osm_id":"","gid":"IDN.29.1.2_1"},"geometry":{"type":"Polygon","coordinates":[[[125.1084,1.4247],[125.0984,1.4288],[125.1021,1.4317],[125.1003,1.444],[125.1032,1.4467],[125.1212,1.4522],[125.1254,1.4628],[125.1321,1.4314],[125.1256,1.4281],[125.1225,1.4147],[125.1084,1.4247]]]}},{"type":"Feature","properties":{"name":"LembehSelatan","name_en":"LembehSelatan","admin_level":"6","osm_id":"","gid":"IDN.29.1.3_1"},"geometry":{"type":"Polygon","coordinates":[[[125.2056,1.4346],[125.2073,1.4375],[125.2113,1.4363],[125.2102,1.439],[125.2119,1.4407],[125.2153,1.4372],[125.2162,1.4406],[125.2226,1.4418],[125.2389,1.4309],[125.2441,1.4341],[125.2498,1.4493],[125.258,1.4405],[125.2555,1.4392],[125.257,1.4352],[125.2589,1.4359],[125.2577,1.4333],[125.2591,1.433],[125.258,1.4298],[125.2548,1.4292],[125.2552,1.4257],[125.2516,1.4257],[125.252,1.4229],[125.2542,1.4215],[125.2525,1.4186],[125.2557,1.417],[125.251,1.415],[125.25,1.4112],[125.2476,1.4126],[125.246,1.4177],[125.2413,1.4188],[125.2396,1.4177],[125.2372,1.4107],[125.2354,1.412],[125.2352,1.4148],[125.2316,1.4135],[125.2306,1.4054],[125.2267,1.4027],[125.2186,1.403],[125.2176,1.4019],[125.216,1.4036],[125.2129,1.4024],[125.1993,1.4058],[125.1935,1.4019],[125.1902,1.4019],[125.1875,1.404],[125.1782,1.3989],[125.1763,1.4027],[125.1734,1.4025],[125.176,1.4005],[125.1763,1.3977],[125.1738,1.3923],[125.1724,1.3923],[125.1714,1.3943],[125.1737,1.3967],[125.171,1.3996],[125.1681,1.3988],[125.1677,1.4022],[125.1703,1.4059],[125.1755,1.4064],[125.1776,1.4088],[125.174,1.4101],[125.1706,1.4073],[125.1694,1.4095],[125.1672,1.4045],[125.166,1.4092],[125.1798,1.4201],[125.1809,1.4227],[125.1795,1.4238],[125.1839,1.4309],[125.1837,1.4339],[125.1873,1.4336],[125.1853,1.4318],[125.1861,1.4304],[125.2003,1.4361],[125.2056,1.4346]]]}},{"type":"Feature","properties":{"name":"LembehUtara","name_en":"LembehUtara","admin_level":"6","osm_id":"","gid":"IDN.29.1.4_1"},"geometry":{"type":"Polygon","coordinates":[[[125.2341,1.4334],[125.2261,1.4402],[125.2296,1.4424],[125.2264,1.4447],[125.2379,1.4457],[125.2378,1.4485],[125.2336,1.4538],[125.2362,1.4529],[125.2385,1.4558],[125.2403,1.4539],[125.2384,1.4567],[125.2405,1.4604],[125.2387,1.4612],[125.2391,1.4638],[125.2359,1.4606],[125.2335,1.4623],[125.2366,1.4638],[125.2414,1.47],[125.2448,1.4709],[125.2469,1.4755],[125.246,1.479],[125.2508,1.481],[125.2524,1.4845],[125.2517,1.4868],[125.253,1.4865],[125.2573,1.4928],[125.2594,1.4932],[125.257,1.4972],[125.2615,1.499],[125.2643,1.5026],[125.2646,1.5047],[125.2629,1.5061],[125.265,1.5071],[125.267,1.5111],[125.272,1.5126],[125.2744,1.5159],[125.2725,1.5198],[125.2721,1.5267],[125.2791,1.5342],[125.2826,1.5422],[125.2857,1.5425],[125.2867,1.5441],[125.2877,1.5404],[125.2856,1.5367],[125.288,1.5363],[125.2867,1.5352],[125.286,1.5328],[125.2871,1.5287],[125.2849,1.5292],[125.2854,1.5271],[125.2827,1.5266],[125.2817,1.5212],[125.2792,1.5195],[125.2787,1.5157],[125.2743,1.5121],[125.2725,1.5093],[125.2729,1.5042],[125.2698,1.5016],[125.2712,1.4963],[125.2698,1.4954],[125.2704,1.4932],[125.2764,1.4929],[125.2764,1.4853],[125.2777,1.4855],[125.2739,1.4785],[125.2695,1.4778],[125.2665,1.4752],[125.2682,1.4726],[125.2706,1.4719],[125.2684,1.4692],[125.2688,1.4652],[125.2652,1.4641],[125.2655,1.4588],[125.2632,1.4589],[125.2617,1.4546],[125.2596,1.4531],[125.2576,1.4461],[125.259,1.4406],[125.2498,1.4493],[125.2441,1.4341],[125.2389,1.4309],[125.2341,1.4334]]]}},{"type":"Feature","properties":{"name":"Madidir","name_en":"Madidir","admin_level":"6","osm_id":"","gid":"IDN.29.1.5_1"},"geometry":{"type":"Polygon","coordinates":[[[125.1357,1.4334],[125.1321,1.4314],[125.1254,1.4628],[125.1346,1.4682],[125.1576,1.4875],[125.1599,1.4873],[125.1608,1.4856],[125.1658,1.4859],[125.1717,1.4619],[125.1711,1.4396],[125.1519,1.4398],[125.145,1.4385],[125.1357,1.4334]]]}},{"type":"Feature","properties":{"name":"Maesa","name_en":"Maesa","admin_level":"6","osm_id":"","gid":"IDN.29.1.6_1"},"geometry":{"type":"Polygon","coordinates":[[[125.193,1.4434],[125.1931,1.4399],[125.1915,1.4384],[125.1796,1.4404],[125.1711,1.4396],[125.1717,1.4619],[125.1658,1.4859],[125.1765,1.4865],[125.1862,1.4798],[125.1966,1.477],[125.1969,1.4697],[125.1938,1.4688],[125.193,1.4619],[125.193,1.4434]]]}},{"type":"Feature","properties":{"name":"Matuari","name_en":"Matuari","admin_level":"6","osm_id":"","gid":"IDN.29.1.7_1"},"geometry":{"type":"Polygon","coordinates":[[[125.1121,1.4225],[125.1226,1.4146],[125.1212,1.4125],[125.123,1.4106],[125.1213,1.4104],[125.1211,1.4073],[125.1182,1.4044],[125.1047,1.3958],[125.1025,1.3905],[125.095,1.3861],[125.0902,1.3811],[125.0811,1.3877],[125.0637,1.4079],[125.0762,1.4188],[125.0797,1.4157],[125.0812,1.4114],[125.088,1.4104],[125.0904,1.4175],[125.0853,1.4271],[125.0882,1.4284],[125.0984,1.4288],[125.1121,1.4225]]]}},{"type":"Feature","properties":{"name":"Ranowulu","name_en":"Ranowulu","admin_level":"6","osm_id":"","gid":"IDN.29.1.8_1"},"geometry":{"type":"Polygon","coordinates":[[[125.0974,1.4286],[125.0882,1.4284],[125.0803,1.424],[125.0767,1.432],[125.0759,1.4476],[125.0729,1.4531],[125.0673,1.4522],[125.055,1.4543],[125.0483,1.4533],[125.0301,1.4545],[125.049,1.4896],[125.0541,1.4937],[125.0627,1.4967],[125.0652,1.5008],[125.0699,1.4967],[125.0758,1.4968],[125.0754,1.5055],[125.0724,1.5104],[125.072,1.5232],[125.0772,1.5372],[125.0769,1.5623],[125.079,1.5657],[125.0949,1.5603],[125.1271,1.5657],[125.13,1.5643],[125.1474,1.5676],[125.1565,1.5712],[125.1723,1.5567],[125.1688,1.5492],[125.1678,1.5368],[125.1715,1.5195],[125.171,1.5039],[125.1529,1.483],[125.1346,1.4682],[125.1245,1.4623],[125.1212,1.4522],[125.1014,1.4458],[125.1001,1.4412],[125.1021,1.4317],[125.1005,1.4293],[125.0974,1.4286]]]}}]}