{"type":"FeatureCollection","metadata":{"parent_osm_id":"14921090","parent_name":"Berau","parent_name_1":"KalimantanTimur","parent_gid":"IDN.34.2_1","parent_level":"5","child_level":"6","count":13,"source":"GADM 4.1","generated":"2026-05-05"},"features":[{"type":"Feature","properties":{"name":"BatuPutih","name_en":"BatuPutih","admin_level":"6","osm_id":"","gid":"IDN.34.2.1_1"},"geometry":{"type":"Polygon","coordinates":[[[118.4606,1.2777],[118.4442,1.2727],[118.4327,1.2547],[118.4212,1.253],[118.4114,1.2596],[118.4109,1.2685],[118.4032,1.2809],[118.3917,1.2809],[118.3802,1.2744],[118.3704,1.253],[118.3572,1.1923],[118.3507,1.1858],[118.3327,1.1897],[118.322,1.1981],[118.3081,1.2056],[118.2859,1.2047],[118.2284,1.2542],[118.2117,1.2606],[118.2023,1.2593],[118.2,1.3807],[118.2049,1.3906],[118.2049,1.3981],[118.1975,1.4055],[118.1962,1.4105],[118.2024,1.4217],[118.2099,1.4266],[118.2397,1.4266],[118.267,1.4403],[118.2683,1.4453],[118.2658,1.4527],[118.2683,1.4577],[118.2732,1.4602],[118.2795,1.4602],[118.2832,1.4713],[118.2832,1.4825],[118.2856,1.4875],[118.2919,1.4924],[118.2968,1.5049],[118.3092,1.521],[118.3184,1.5276],[118.3419,1.5132],[118.353,1.509],[118.3571,1.5053],[118.3672,1.506],[118.3687,1.5049],[118.3675,1.5027],[118.3685,1.5007],[118.3756,1.5013],[118.3754,1.499],[118.3788,1.4942],[118.3841,1.4968],[118.3872,1.4955],[118.3879,1.4928],[118.3802,1.4896],[118.3777,1.4903],[118.3739,1.4867],[118.3761,1.483],[118.3823,1.4807],[118.3826,1.4837],[118.387,1.4873],[118.3866,1.4809],[118.3947,1.4873],[118.3977,1.4857],[118.3978,1.4838],[118.4002,1.4846],[118.3993,1.4813],[118.4013,1.4805],[118.4023,1.4835],[118.406,1.4831],[118.4087,1.4872],[118.4107,1.4852],[118.4144,1.4724],[118.4125,1.4643],[118.4104,1.4636],[118.411,1.4611],[118.4083,1.4562],[118.4104,1.4589],[118.4173,1.4607],[118.4207,1.4528],[118.4201,1.4477],[118.4139,1.4385],[118.4058,1.4372],[118.4052,1.4385],[118.3977,1.4354],[118.3829,1.4336],[118.3822,1.4324],[118.3846,1.4319],[118.3769,1.4268],[118.3755,1.4235],[118.379,1.4262],[118.3791,1.4232],[118.3801,1.426],[118.3865,1.4299],[118.3882,1.4298],[118.3889,1.4257],[118.3866,1.4243],[118.3841,1.4256],[118.3858,1.4235],[118.3896,1.4227],[118.3979,1.4249],[118.4018,1.4239],[118.4224,1.4342],[118.4241,1.4316],[118.4173,1.4289],[118.4162,1.4271],[118.4252,1.4285],[118.4293,1.4256],[118.4303,1.4229],[118.4284,1.4161],[118.4291,1.413],[118.4199,1.4078],[118.4153,1.4092],[118.4154,1.4073],[118.42,1.4061],[118.419,1.4024],[118.4134,1.4014],[118.4066,1.4051],[118.4017,1.4042],[118.4064,1.4043],[118.4081,1.4015],[118.4069,1.3994],[118.4099,1.4002],[118.4085,1.397],[118.4108,1.3992],[118.4181,1.3934],[118.4299,1.3995],[118.433,1.3989],[118.4352,1.389],[118.4337,1.3842],[118.4315,1.3826],[118.4353,1.3794],[118.4406,1.3786],[118.4417,1.3759],[118.4449,1.3742],[118.4446,1.3718],[118.4452,1.3751],[118.4433,1.3766],[118.4464,1.3795],[118.4477,1.3785],[118.4464,1.3766],[118.4468,1.3747],[118.4484,1.3784],[118.4496,1.3765],[118.4503,1.3819],[118.4553,1.387],[118.46,1.3994],[118.4647,1.3967],[118.465,1.3939],[118.4682,1.3953],[118.4703,1.3943],[118.4688,1.3925],[118.468,1.3846],[118.4607,1.3764],[118.4605,1.3702],[118.4583,1.3687],[118.4548,1.3697],[118.4614,1.3649],[118.462,1.3586],[118.4627,1.3626],[118.4659,1.3607],[118.4634,1.3678],[118.4678,1.3779],[118.4702,1.3794],[118.4715,1.3772],[118.4743,1.3827],[118.4754,1.3836],[118.4784,1.3818],[118.4804,1.3849],[118.4803,1.3827],[118.4852,1.3822],[118.489,1.3792],[118.4896,1.3753],[118.4885,1.3729],[118.4844,1.3706],[118.4815,1.3654],[118.4764,1.3648],[118.4842,1.3649],[118.4871,1.3608],[118.4887,1.3611],[118.4872,1.3618],[118.4873,1.364],[118.4898,1.362],[118.491,1.3632],[118.4887,1.3658],[118.49,1.3697],[118.4948,1.3687],[118.4967,1.3655],[118.4976,1.367],[118.4965,1.371],[118.4984,1.3729],[118.5123,1.3761],[118.5175,1.3738],[118.5133,1.3694],[118.5173,1.3699],[118.5168,1.3656],[118.5067,1.3621],[118.5125,1.3615],[118.5159,1.3628],[118.5171,1.3601],[118.5155,1.3573],[118.5149,1.353],[118.5162,1.3567],[118.521,1.3606],[118.5251,1.361],[118.5259,1.3574],[118.5269,1.3616],[118.529,1.3609],[118.5298,1.3629],[118.5333,1.3625],[118.531,1.3588],[118.531,1.3559],[118.5315,1.3585],[118.5354,1.3594],[118.5365,1.3615],[118.5402,1.3617],[118.5467,1.3583],[118.5452,1.3605],[118.5484,1.3603],[118.5493,1.3508],[118.5496,1.3566],[118.5539,1.3618],[118.5631,1.3633],[118.5689,1.3583],[118.5276,1.2957],[118.5167,1.2738],[118.5117,1.2282],[118.5057,1.2342],[118.4856,1.2633],[118.4606,1.2777]]]}},{"type":"Feature","properties":{"name":"Biatan","name_en":"Biatan","admin_level":"6","osm_id":"","gid":"IDN.34.2.2_1"},"geometry":{"type":"Polygon","coordinates":[[[118.0916,1.6836],[118.1073,1.66],[118.1187,1.6476],[118.1102,1.6337],[118.0764,1.5634],[118.0642,1.5309],[117.9974,1.2432],[117.9594,1.2801],[117.9494,1.2869],[117.925,1.2916],[117.882,1.3207],[117.8546,1.345],[117.8569,1.3588],[117.8594,1.3638],[117.8944,1.3833],[117.9037,1.4048],[117.9086,1.4261],[117.9136,1.4654],[117.9135,1.4935],[117.9053,1.5098],[117.8934,1.52],[117.9114,1.539],[117.9492,1.5728],[117.9695,1.5958],[117.9844,1.6013],[118.002,1.6121],[118.025,1.6229],[118.0331,1.6418],[118.025,1.6865],[118.0358,1.7013],[118.0291,1.7149],[118.0318,1.7297],[118.0439,1.7392],[118.0578,1.7382],[118.053,1.737],[118.0529,1.7296],[118.062,1.7171],[118.0727,1.709],[118.079,1.6995],[118.0813,1.6911],[118.0872,1.6886],[118.0916,1.6836]]]}},{"type":"Feature","properties":{"name":"BidukBiduk","name_en":"BidukBiduk","admin_level":"6","osm_id":"","gid":"IDN.34.2.3_1"},"geometry":{"type":"Polygon","coordinates":[[[118.8355,1.0594],[118.8363,1.0522],[118.8455,1.0469],[118.8541,1.0483],[118.8599,1.0529],[118.8688,1.0659],[118.8715,1.0675],[118.9179,1.0649],[118.9327,1.0588],[118.9454,1.059],[118.9489,1.0536],[118.9539,1.051],[118.9585,1.0442],[118.9657,1.0376],[118.9724,1.0358],[118.9798,1.0385],[118.9847,1.0301],[118.9774,1.0169],[118.9658,1.0104],[118.9412,1.0087],[118.9207,1.0165],[118.9068,1.0251],[118.892,1.0283],[118.8701,1.0156],[118.8544,1.0105],[118.828,1.0103],[118.8056,1.0039],[118.797,1.0085],[118.7917,1.0209],[118.7805,1.0824],[118.769,1.1038],[118.7591,1.107],[118.7427,1.107],[118.7099,1.1021],[118.6684,1.1017],[118.6527,1.0956],[118.6329,1.0907],[118.6067,1.0962],[118.5846,1.1132],[118.5803,1.1366],[118.5902,1.212],[118.5853,1.2317],[118.5787,1.2448],[118.5607,1.2498],[118.5557,1.2416],[118.5541,1.2268],[118.5459,1.2186],[118.5331,1.2138],[118.5208,1.2203],[118.5117,1.2282],[118.5167,1.2738],[118.5276,1.2957],[118.5689,1.3583],[118.5715,1.3582],[118.5729,1.3551],[118.5776,1.3542],[118.5817,1.3489],[118.5864,1.347],[118.6061,1.3238],[118.6107,1.3233],[118.6171,1.3161],[118.6446,1.2996],[118.6584,1.2823],[118.6656,1.2776],[118.672,1.2775],[118.6824,1.2678],[118.6872,1.2659],[118.6884,1.2638],[118.6869,1.2598],[118.6849,1.2602],[118.6826,1.2551],[118.6885,1.2526],[118.6866,1.2574],[118.689,1.2626],[118.691,1.2636],[118.6969,1.2624],[118.7043,1.2545],[118.7115,1.2519],[118.7177,1.242],[118.7258,1.2337],[118.7547,1.212],[118.7676,1.1951],[118.7695,1.1837],[118.7691,1.1663],[118.7651,1.1656],[118.7649,1.1621],[118.762,1.16],[118.758,1.1605],[118.7571,1.1627],[118.7476,1.1577],[118.7447,1.1597],[118.7404,1.159],[118.7381,1.1613],[118.7369,1.1578],[118.7334,1.1567],[118.7334,1.1589],[118.7311,1.1575],[118.7276,1.159],[118.7213,1.1544],[118.7277,1.1555],[118.7313,1.1534],[118.7348,1.1553],[118.7347,1.1517],[118.7364,1.1526],[118.7379,1.1503],[118.7407,1.1535],[118.7407,1.1509],[118.7426,1.1503],[118.7444,1.1467],[118.7458,1.147],[118.7446,1.1491],[118.7464,1.1504],[118.7495,1.1493],[118.75,1.1517],[118.7518,1.1501],[118.7544,1.1522],[118.7557,1.1482],[118.7584,1.1464],[118.7572,1.1512],[118.7629,1.1525],[118.7682,1.1503],[118.7716,1.151],[118.7754,1.1474],[118.773,1.154],[118.7751,1.1556],[118.788,1.1363],[118.7906,1.1372],[118.795,1.1313],[118.7917,1.1317],[118.7946,1.1272],[118.7865,1.1312],[118.7886,1.1345],[118.7853,1.1348],[118.78,1.1406],[118.7798,1.1372],[118.7774,1.1375],[118.7771,1.1336],[118.7875,1.1261],[118.7911,1.1256],[118.7932,1.1223],[118.7973,1.1237],[118.7957,1.1169],[118.7977,1.1148],[118.8044,1.1116],[118.8065,1.1126],[118.8063,1.1158],[118.8305,1.0984],[118.8279,1.0939],[118.8279,1.0881],[118.8324,1.0769],[118.8372,1.0713],[118.8326,1.0656],[118.8328,1.0617],[118.8355,1.0594]]]}},{"type":"Feature","properties":{"name":"GunungTabur","name_en":"GunungTabur","admin_level":"6","osm_id":"","gid":"IDN.34.2.4_1"},"geometry":{"type":"Polygon","coordinates":[[[117.7057,2.3969],[117.7086,2.3916],[117.7125,2.371],[117.7152,2.3695],[117.7167,2.3619],[117.7151,2.3574],[117.7189,2.3559],[117.718,2.3547],[117.7212,2.3463],[117.7391,2.3382],[117.7443,2.334],[117.7469,2.3268],[117.7561,2.328],[117.759,2.3339],[117.7645,2.3325],[117.769,2.3336],[117.7711,2.3301],[117.7854,2.3301],[117.7916,2.3251],[117.8065,2.326],[117.8199,2.3055],[117.8308,2.273],[117.8226,2.2541],[117.8254,2.2338],[117.8402,2.2162],[117.8327,2.1993],[117.8186,2.2014],[117.8068,2.1993],[117.8023,2.1978],[117.7904,2.189],[117.7413,2.1918],[117.7201,2.188],[117.7024,2.1816],[117.6874,2.1803],[117.6829,2.1781],[117.6823,2.1753],[117.6538,2.1863],[117.6376,2.2036],[117.6149,2.2123],[117.5997,2.2101],[117.5781,2.1852],[117.5543,2.1668],[117.5283,2.1722],[117.5078,2.1809],[117.4991,2.1787],[117.4937,2.169],[117.4937,2.1625],[117.4905,2.156],[117.484,2.156],[117.4742,2.1506],[117.4721,2.1517],[117.4677,2.1593],[117.4667,2.1712],[117.4591,2.1744],[117.4515,2.1744],[117.4428,2.1701],[117.4342,2.1625],[117.4212,2.1625],[117.4028,2.1582],[117.3909,2.1593],[117.3823,2.1549],[117.3693,2.1419],[117.3704,2.1354],[117.3768,2.1257],[117.3768,2.1214],[117.3585,2.0987],[117.3487,2.1073],[117.339,2.1062],[117.3195,2.0943],[117.3098,2.0857],[117.2969,2.0867],[117.2924,2.0954],[117.2968,2.1019],[117.3163,2.1062],[117.3163,2.1084],[117.3022,2.1279],[117.2892,2.1333],[117.2784,2.13],[117.273,2.1214],[117.2719,2.1084],[117.2762,2.0965],[117.273,2.0932],[117.2673,2.0993],[117.2654,2.1214],[117.2741,2.1495],[117.2849,2.1701],[117.2946,2.1982],[117.2924,2.2339],[117.287,2.2599],[117.2805,2.2739],[117.2816,2.2859],[117.287,2.2999],[117.3011,2.3183],[117.3033,2.3345],[117.3163,2.3735],[117.3108,2.4016],[117.3108,2.433],[117.3195,2.4492],[117.3303,2.4536],[117.3346,2.4752],[117.3357,2.4947],[117.3444,2.5088],[117.3617,2.5228],[117.3714,2.5369],[117.3877,2.5455],[117.4017,2.551],[117.4212,2.5553],[117.4434,2.5643],[117.4601,2.5473],[117.4794,2.5413],[117.4949,2.5324],[117.4986,2.523],[117.5396,2.5214],[117.547,2.5169],[117.5573,2.5147],[117.5607,2.5093],[117.5696,2.5021],[117.5735,2.5023],[117.588,2.5175],[117.6088,2.5227],[117.6276,2.5044],[117.6389,2.4799],[117.6542,2.462],[117.6697,2.4481],[117.6765,2.4258],[117.6879,2.4063],[117.6962,2.4051],[117.7057,2.3969]]]}},{"type":"Feature","properties":{"name":"Kelay","name_en":"Kelay","admin_level":"6","osm_id":"","gid":"IDN.34.2.5_1"},"geometry":{"type":"Polygon","coordinates":[[[117.334,1.4288],[117.3188,1.3876],[117.2959,1.3679],[117.2828,1.3613],[117.2581,1.3629],[117.1931,1.3166],[117.163,1.3055],[117.1485,1.3242],[117.1286,1.3444],[117.1209,1.3644],[117.1119,1.3726],[117.1,1.351],[117.0819,1.3502],[117.0343,1.3542],[117.006,1.3469],[116.9902,1.3531],[116.9925,1.3723],[116.9981,1.3899],[116.9891,1.4092],[116.9631,1.4177],[116.9713,1.4421],[116.9908,1.4761],[116.9862,1.4965],[116.9891,1.5336],[116.9352,1.561],[116.9239,1.5797],[116.8601,1.5943],[116.797,1.58],[116.7565,1.6218],[116.7234,1.617],[116.6031,1.6114],[116.5757,1.592],[116.556,1.5862],[116.5442,1.5887],[116.5341,1.5994],[116.5341,1.6121],[116.5421,1.6287],[116.5313,1.6632],[116.5042,1.6757],[116.4765,1.7247],[116.4537,1.7222],[116.4437,1.7244],[116.4349,1.72],[116.4261,1.7076],[116.3986,1.7208],[116.3957,1.7285],[116.3973,1.7359],[116.3968,1.7494],[116.3925,1.7554],[116.3833,1.7621],[116.3734,1.7608],[116.365,1.7566],[116.3589,1.7584],[116.3547,1.762],[116.3557,1.772],[116.35,1.7802],[116.3494,1.8032],[116.3447,1.8102],[116.3391,1.8138],[116.3271,1.8178],[116.3157,1.8291],[116.3089,1.8316],[116.2996,1.8267],[116.2591,1.8288],[116.2407,1.8334],[116.2291,1.8438],[116.2173,1.8451],[116.2082,1.8392],[116.1845,1.8406],[116.1857,1.8448],[116.1767,1.8662],[116.1772,1.8825],[116.1749,1.8973],[116.1893,1.9366],[116.1964,1.9519],[116.1942,1.9728],[116.1954,1.9858],[116.201,1.992],[116.2194,2.0024],[116.2298,2.0134],[116.2309,2.0446],[116.2259,2.0551],[116.2178,2.0633],[116.2216,2.0796],[116.2216,2.0951],[116.259,2.1086],[116.2767,2.1046],[116.2925,2.1054],[116.2925,2.1243],[116.3107,2.122],[116.3217,2.1338],[116.3328,2.1488],[116.3502,2.1662],[116.3407,2.1828],[116.3202,2.1947],[116.3004,2.2128],[116.2896,2.2352],[116.2952,2.2388],[116.3034,2.2602],[116.311,2.2668],[116.3192,2.2776],[116.3304,2.2847],[116.3345,2.2893],[116.3437,2.2888],[116.3513,2.2918],[116.3912,2.2975],[116.4009,2.2965],[116.4091,2.3016],[116.417,2.3039],[116.4201,2.3016],[116.428,2.2891],[116.445,2.2866],[116.4546,2.2831],[116.4573,2.2793],[116.4613,2.2795],[116.4656,2.2833],[116.4714,2.2846],[116.4759,2.2887],[116.4781,2.2936],[116.477,2.2994],[116.4747,2.3019],[116.476,2.3166],[116.4852,2.3223],[116.4883,2.328],[116.4974,2.3354],[116.4996,2.3424],[116.5058,2.3479],[116.4983,2.3572],[116.5029,2.3742],[116.5021,2.3789],[116.5006,2.3819],[116.4964,2.3833],[116.4903,2.3896],[116.4882,2.3974],[116.4901,2.4013],[116.4955,2.4029],[116.4964,2.4068],[116.4928,2.4307],[116.4935,2.4387],[116.4911,2.4445],[116.4962,2.4558],[116.5002,2.4568],[116.5062,2.4551],[116.5246,2.4472],[116.5349,2.4479],[116.5448,2.4544],[116.5507,2.4551],[116.5646,2.4527],[116.5679,2.4513],[116.5683,2.4495],[116.5644,2.4184],[116.5473,2.3656],[116.5473,2.3424],[116.5504,2.3253],[116.5473,2.3051],[116.5395,2.2911],[116.5287,2.2818],[116.5131,2.2368],[116.5085,2.2275],[116.5193,2.2011],[116.5162,2.1856],[116.51,2.1763],[116.5085,2.1204],[116.5116,2.0956],[116.5193,2.0692],[116.5271,2.0537],[116.5504,2.049],[116.583,2.049],[116.6078,2.0537],[116.6606,2.0521],[116.6792,2.0552],[116.6947,2.0444],[116.718,2.0444],[116.732,2.049],[116.7615,2.0381],[116.7848,2.0242],[116.7894,2.004],[116.8096,1.9854],[116.8127,1.9714],[116.8065,1.9528],[116.8065,1.9435],[116.8205,1.9404],[116.8375,1.9497],[116.8686,1.9512],[116.9012,1.9636],[116.9276,1.9512],[116.9539,1.9233],[116.9803,1.9031],[116.9881,1.8953],[117.016,1.8814],[117.0486,1.869],[117.0719,1.8659],[117.0828,1.8674],[117.103,1.841],[117.1262,1.8193],[117.1402,1.8208],[117.148,1.8317],[117.1883,1.8069],[117.2023,1.782],[117.2085,1.7758],[117.224,1.7712],[117.2349,1.7743],[117.2473,1.7867],[117.2597,1.7945],[117.2799,1.796],[117.3311,1.7914],[117.3466,1.8395],[117.3482,1.8705],[117.373,1.8534],[117.3948,1.8162],[117.3963,1.7945],[117.3994,1.7789],[117.4258,1.7665],[117.446,1.7417],[117.46,1.7044],[117.4646,1.6749],[117.4646,1.6501],[117.4568,1.6299],[117.4413,1.6144],[117.4243,1.6082],[117.4064,1.5993],[117.3956,1.6075],[117.3846,1.6046],[117.3715,1.575],[117.3615,1.5631],[117.3484,1.5598],[117.3355,1.5489],[117.3287,1.5286],[117.3281,1.5144],[117.338,1.4979],[117.3435,1.4761],[117.3369,1.4371],[117.334,1.4288]]]}},{"type":"Feature","properties":{"name":"Maratua","name_en":"Maratua","admin_level":"6","osm_id":"","gid":"IDN.34.2.6_1"},"geometry":{"type":"Polygon","coordinates":[[[118.579,2.2356],[118.5894,2.2162],[118.5983,2.2095],[118.6056,2.2076],[118.6097,2.2006],[118.623,2.1865],[118.635,2.1804],[118.6489,2.1702],[118.6518,2.1655],[118.6518,2.161],[118.6493,2.1626],[118.6467,2.168],[118.642,2.1715],[118.6331,2.1744],[118.6265,2.1798],[118.6182,2.1802],[118.6132,2.1849],[118.611,2.1907],[118.6056,2.1932],[118.6037,2.1961],[118.603,2.1936],[118.6081,2.1875],[118.6046,2.1878],[118.597,2.1936],[118.5904,2.205],[118.5834,2.2114],[118.5768,2.2245],[118.566,2.2347],[118.5613,2.2478],[118.5629,2.2685],[118.5597,2.2736],[118.5588,2.2787],[118.5616,2.2886],[118.5623,2.3026],[118.5699,2.3102],[118.5721,2.3099],[118.5829,2.2991],[118.5962,2.2802],[118.6034,2.2748],[118.6076,2.2691],[118.6224,2.2595],[118.6338,2.2547],[118.6367,2.2499],[118.6357,2.2458],[118.6322,2.2483],[118.6208,2.2519],[118.6161,2.2601],[118.6098,2.2621],[118.6003,2.2697],[118.5939,2.2726],[118.5895,2.2806],[118.5844,2.2857],[118.5772,2.2997],[118.5724,2.3032],[118.5689,2.3032],[118.567,2.3007],[118.567,2.2924],[118.5648,2.2886],[118.5654,2.2809],[118.5638,2.2733],[118.567,2.2663],[118.5667,2.2599],[118.5695,2.2525],[118.5749,2.2398],[118.579,2.2356]]]}},{"type":"Feature","properties":{"name":"PulauDerawan","name_en":"PulauDerawan","admin_level":"6","osm_id":"","gid":"IDN.34.2.7_1"},"geometry":{"type":"Polygon","coordinates":[[[118.0511,2.2253],[118.0189,2.196],[117.9909,2.1948],[117.9807,2.1892],[117.9629,2.1876],[117.9438,2.1802],[117.9329,2.1803],[117.9201,2.1975],[117.9062,2.2098],[117.9026,2.2094],[117.8984,2.2067],[117.8956,2.1958],[117.8934,2.1947],[117.8689,2.1989],[117.8327,2.1993],[117.8402,2.2162],[117.8254,2.2338],[117.8226,2.2541],[117.8308,2.273],[117.8199,2.3055],[117.8065,2.326],[117.8116,2.3264],[117.8149,2.3307],[117.8215,2.3407],[117.8214,2.3451],[117.8244,2.3482],[117.8223,2.3519],[117.84,2.3742],[117.8638,2.3929],[117.8928,2.3984],[117.9067,2.3979],[117.9197,2.3929],[117.9327,2.3841],[117.9356,2.3902],[117.933,2.3978],[117.9346,2.4036],[117.9558,2.4156],[117.9587,2.4269],[117.9646,2.4273],[117.9708,2.4246],[117.9793,2.4265],[117.988,2.4341],[117.9983,2.4327],[118.0003,2.4213],[117.9939,2.4207],[117.9918,2.4191],[117.9956,2.4192],[117.9962,2.4142],[118.0081,2.4039],[118.0198,2.3895],[118.0184,2.385],[118.013,2.3808],[118.0155,2.3803],[118.0155,2.3772],[118.0115,2.3776],[118.0177,2.3718],[118.0095,2.3703],[118.003,2.3754],[118.001,2.3757],[117.9977,2.375],[117.9948,2.3706],[117.9908,2.3723],[117.9857,2.3713],[117.9861,2.3734],[117.9844,2.3747],[117.9851,2.3711],[117.9913,2.3717],[117.9956,2.3699],[117.999,2.3748],[118.0025,2.3748],[118.0086,2.37],[118.0166,2.3693],[118.0132,2.364],[118.0079,2.3645],[118.0009,2.3681],[118.0015,2.3666],[118.0085,2.3628],[118.0128,2.3628],[118.0219,2.3676],[118.023,2.3652],[118.0214,2.3609],[118.0221,2.3586],[118.0304,2.3561],[118.0349,2.3579],[118.0383,2.3623],[118.0411,2.3628],[118.038,2.3711],[118.0414,2.3755],[118.0452,2.3767],[118.0546,2.3642],[118.0662,2.3544],[118.0668,2.3507],[118.0646,2.3478],[118.0699,2.3338],[118.0718,2.3372],[118.0744,2.3366],[118.0779,2.3253],[118.0852,2.3242],[118.094,2.3077],[118.0934,2.299],[118.0889,2.297],[118.0832,2.2833],[118.0813,2.2827],[118.0843,2.2825],[118.0868,2.2879],[118.0901,2.2839],[118.0906,2.2897],[118.0933,2.2903],[118.0962,2.2889],[118.0975,2.2862],[118.096,2.2787],[118.0858,2.2654],[118.0776,2.2602],[118.0763,2.2566],[118.0742,2.2563],[118.0779,2.2534],[118.0782,2.2495],[118.0734,2.2455],[118.0648,2.2431],[118.0634,2.2379],[118.0598,2.2361],[118.0592,2.2337],[118.0511,2.2253]]]}},{"type":"Feature","properties":{"name":"Sambaliung","name_en":"Sambaliung","admin_level":"6","osm_id":"","gid":"IDN.34.2.8_1"},"geometry":{"type":"Polygon","coordinates":[[[117.2473,1.7867],[117.2349,1.7743],[117.224,1.7712],[117.2085,1.7758],[117.2023,1.782],[117.1883,1.8069],[117.152,1.8293],[117.1529,1.8379],[117.1475,1.8498],[117.1594,1.8682],[117.1626,1.8887],[117.1616,1.8917],[117.1856,1.8727],[117.2032,1.8727],[117.2167,1.8781],[117.2235,1.893],[117.2289,1.9105],[117.2343,1.9376],[117.2451,1.9646],[117.2613,1.9741],[117.2803,1.9768],[117.2979,1.9755],[117.329,1.9592],[117.3587,1.9511],[117.3655,1.9755],[117.3641,2.0066],[117.3722,2.0336],[117.3871,2.062],[117.402,2.1121],[117.4172,2.1193],[117.4277,2.1026],[117.4277,2.0958],[117.4304,2.0904],[117.4385,2.0931],[117.4412,2.0918],[117.4534,2.1013],[117.4548,2.1188],[117.471,2.1229],[117.4832,2.1188],[117.494,2.1202],[117.5075,2.1351],[117.5116,2.1513],[117.5048,2.1621],[117.4937,2.1654],[117.4937,2.169],[117.4991,2.1787],[117.5078,2.1809],[117.5283,2.1722],[117.5543,2.1668],[117.5781,2.1852],[117.5997,2.2101],[117.6149,2.2123],[117.6376,2.2036],[117.6538,2.1863],[117.6823,2.1753],[117.6817,2.1717],[117.7038,2.1655],[117.7175,2.1513],[117.7216,2.1444],[117.7234,2.137],[117.7229,2.12],[117.7194,2.1045],[117.7263,2.0839],[117.7246,2.0821],[117.713,2.0822],[117.71,2.0789],[117.7111,2.0736],[117.7187,2.0653],[117.7189,2.0598],[117.7055,2.0597],[117.6988,2.0578],[117.696,2.0545],[117.6956,2.0504],[117.7006,2.0424],[117.7013,2.036],[117.7084,2.0274],[117.7163,2.026],[117.7248,2.0301],[117.7397,2.045],[117.7416,2.0432],[117.744,2.0301],[117.7669,2.013],[117.7841,2.0116],[117.7853,2.0132],[117.7897,2.0137],[117.8242,2.0099],[117.8234,2.0023],[117.8192,1.9959],[117.8202,1.9871],[117.809,1.9885],[117.8064,1.9862],[117.8076,1.9832],[117.8136,1.9803],[117.8157,1.9745],[117.815,1.9705],[117.8203,1.9656],[117.8208,1.9612],[117.8183,1.9605],[117.8166,1.9551],[117.8184,1.9526],[117.8157,1.9488],[117.8177,1.9472],[117.8222,1.9494],[117.8261,1.9486],[117.8269,1.9402],[117.825,1.9397],[117.8246,1.9371],[117.8281,1.9248],[117.8321,1.9212],[117.8331,1.91],[117.839,1.9055],[117.8455,1.8955],[117.844,1.891],[117.8475,1.8928],[117.8519,1.8914],[117.8609,1.8817],[117.8167,1.8609],[117.7924,1.8582],[117.7734,1.8596],[117.7612,1.8569],[117.7585,1.865],[117.7558,1.8893],[117.7518,1.8988],[117.7423,1.8948],[117.7261,1.8799],[117.699,1.8407],[117.6814,1.8312],[117.6733,1.8109],[117.653,1.8014],[117.6341,1.796],[117.6152,1.7838],[117.6016,1.7703],[117.5949,1.7581],[117.5881,1.75],[117.58,1.7473],[117.5543,1.7581],[117.5367,1.7622],[117.5164,1.7622],[117.5056,1.7568],[117.4853,1.7352],[117.4745,1.7324],[117.4623,1.7352],[117.4522,1.725],[117.446,1.7417],[117.4258,1.7665],[117.3994,1.7789],[117.3963,1.7945],[117.3948,1.8162],[117.373,1.8534],[117.3482,1.8705],[117.3466,1.8395],[117.3311,1.7914],[117.2799,1.796],[117.2597,1.7945],[117.2473,1.7867]]]}},{"type":"Feature","properties":{"name":"Segah","name_en":"Segah","admin_level":"6","osm_id":"","gid":"IDN.34.2.9_1"},"geometry":{"type":"Polygon","coordinates":[[[117.2665,2.0889],[117.2611,2.0705],[117.2546,2.0565],[117.2438,2.0478],[117.2243,2.0391],[117.2102,2.0348],[117.1972,2.0218],[117.1788,1.9969],[117.1648,1.9688],[117.1594,1.9309],[117.1529,1.918],[117.1626,1.8887],[117.1594,1.8682],[117.1475,1.8498],[117.1529,1.8379],[117.152,1.8293],[117.148,1.8317],[117.1402,1.8208],[117.1262,1.8193],[117.103,1.841],[117.0828,1.8674],[117.0719,1.8659],[117.0486,1.869],[117.016,1.8814],[116.9881,1.8953],[116.9803,1.9031],[116.9539,1.9233],[116.9276,1.9512],[116.9012,1.9636],[116.8686,1.9512],[116.8375,1.9497],[116.8205,1.9404],[116.8065,1.9435],[116.8065,1.9528],[116.8127,1.9714],[116.8096,1.9854],[116.7894,2.004],[116.7848,2.0242],[116.7615,2.0381],[116.732,2.049],[116.718,2.0444],[116.6947,2.0444],[116.6792,2.0552],[116.6606,2.0521],[116.6078,2.0537],[116.583,2.049],[116.5504,2.049],[116.5271,2.0537],[116.5193,2.0692],[116.5116,2.0956],[116.5085,2.1204],[116.51,2.1763],[116.5162,2.1856],[116.5193,2.2011],[116.5085,2.2275],[116.5131,2.2368],[116.5287,2.2818],[116.5395,2.2911],[116.5473,2.3051],[116.5504,2.3253],[116.5473,2.3424],[116.5473,2.3656],[116.5644,2.4184],[116.5683,2.4495],[116.57,2.4432],[116.5763,2.4362],[116.6071,2.4177],[116.6181,2.4171],[116.6285,2.4287],[116.6331,2.4484],[116.7125,2.5174],[116.7282,2.529],[116.7328,2.5295],[116.7398,2.5272],[116.7751,2.4391],[116.7855,2.387],[116.796,2.3789],[116.8081,2.3829],[116.8226,2.3986],[116.8325,2.4281],[116.8458,2.4606],[116.8643,2.4716],[116.8939,2.4785],[116.9159,2.4901],[116.9418,2.5074],[116.994,2.5176],[117.0237,2.5212],[117.0338,2.5277],[117.0396,2.5415],[117.0613,2.5813],[117.07,2.5907],[117.0939,2.598],[117.1122,2.5993],[117.1465,2.5953],[117.1651,2.5878],[117.2006,2.5841],[117.2435,2.5766],[117.2584,2.5822],[117.2789,2.5972],[117.3032,2.6046],[117.3368,2.6046],[117.3629,2.599],[117.3863,2.5981],[117.4008,2.6066],[117.4141,2.5981],[117.4335,2.5787],[117.4434,2.5643],[117.4212,2.5553],[117.4017,2.551],[117.3877,2.5455],[117.3714,2.5369],[117.3617,2.5228],[117.3444,2.5088],[117.3357,2.4947],[117.3346,2.4752],[117.3303,2.4536],[117.3195,2.4492],[117.3108,2.433],[117.3108,2.4016],[117.3163,2.3735],[117.3033,2.3345],[117.3011,2.3183],[117.287,2.2999],[117.2816,2.2859],[117.2805,2.2739],[117.287,2.2599],[117.2924,2.2339],[117.2946,2.1982],[117.2849,2.1701],[117.2741,2.1495],[117.2654,2.1214],[117.2676,2.103],[117.2665,2.0889]]]}},{"type":"Feature","properties":{"name":"Tabalar","name_en":"Tabalar","admin_level":"6","osm_id":"","gid":"IDN.34.2.10_1"},"geometry":{"type":"Polygon","coordinates":[[[118.0309,1.6544],[118.0331,1.6418],[118.025,1.6229],[118.002,1.6121],[117.9844,1.6013],[117.9695,1.5958],[117.9492,1.5728],[117.9114,1.539],[117.8934,1.52],[117.8556,1.5533],[117.8413,1.5688],[117.8365,1.5874],[117.8364,1.6066],[117.8299,1.6247],[117.8153,1.6266],[117.8052,1.6148],[117.7955,1.5991],[117.7954,1.5787],[117.7878,1.5742],[117.7744,1.5785],[117.7673,1.5881],[117.7493,1.6002],[117.7138,1.6081],[117.7183,1.6525],[117.7183,1.6804],[117.7064,1.6856],[117.6973,1.6797],[117.6937,1.6658],[117.683,1.6493],[117.6712,1.6207],[117.647,1.5984],[117.6375,1.598],[117.624,1.6025],[117.6125,1.6139],[117.5944,1.6205],[117.5745,1.6255],[117.5528,1.6123],[117.5404,1.5951],[117.5403,1.5729],[117.5354,1.527],[117.5224,1.5155],[117.5033,1.5111],[117.4911,1.5139],[117.4845,1.5237],[117.4599,1.5434],[117.4494,1.5614],[117.4407,1.5815],[117.432,1.5893],[117.4173,1.5934],[117.4064,1.5993],[117.4243,1.6082],[117.4413,1.6144],[117.4568,1.6299],[117.4646,1.6501],[117.4646,1.6749],[117.46,1.7044],[117.4522,1.725],[117.4623,1.7352],[117.4745,1.7324],[117.4853,1.7352],[117.5056,1.7568],[117.5164,1.7622],[117.5367,1.7622],[117.5543,1.7581],[117.58,1.7473],[117.5881,1.75],[117.5949,1.7581],[117.6016,1.7703],[117.6152,1.7838],[117.6341,1.796],[117.653,1.8014],[117.6733,1.8109],[117.6814,1.8312],[117.699,1.8407],[117.7261,1.8799],[117.7423,1.8948],[117.7518,1.8988],[117.7558,1.8893],[117.7585,1.865],[117.7612,1.8569],[117.7734,1.8596],[117.7924,1.8582],[117.8167,1.8609],[117.8609,1.8817],[117.8709,1.881],[117.8898,1.8728],[117.8904,1.8655],[117.8876,1.8562],[117.8904,1.854],[117.8979,1.8372],[117.9019,1.836],[117.9061,1.8275],[117.9177,1.8125],[117.9211,1.8126],[117.9292,1.8048],[117.934,1.8036],[117.9376,1.8005],[117.9655,1.792],[117.9667,1.7894],[117.9734,1.7923],[117.986,1.7888],[117.9884,1.7896],[118.0103,1.7829],[118.0233,1.7821],[118.0252,1.7806],[118.0381,1.7872],[118.0481,1.7834],[118.062,1.7692],[118.0646,1.7643],[118.0655,1.7543],[118.0636,1.7462],[118.0578,1.7382],[118.0439,1.7392],[118.0318,1.7297],[118.0291,1.7149],[118.0358,1.7013],[118.025,1.6865],[118.0309,1.6544]]]}},{"type":"Feature","properties":{"name":"Talisayan","name_en":"Talisayan","admin_level":"6","osm_id":"","gid":"IDN.34.2.11_1"},"geometry":{"type":"Polygon","coordinates":[[[118.0489,1.1822],[118.0333,1.1882],[118.0136,1.2276],[117.9974,1.2432],[118.0642,1.5309],[118.0764,1.5634],[118.1102,1.6337],[118.1187,1.6476],[118.137,1.6327],[118.147,1.632],[118.1652,1.625],[118.1715,1.6194],[118.1754,1.6105],[118.1799,1.6061],[118.2033,1.5931],[118.2058,1.5898],[118.2103,1.589],[118.2288,1.5727],[118.2463,1.5616],[118.2467,1.5583],[118.2581,1.5564],[118.2616,1.5537],[118.2739,1.5498],[118.2761,1.5434],[118.284,1.5456],[118.2876,1.5428],[118.2965,1.5402],[118.3032,1.5341],[118.2992,1.5295],[118.3098,1.5308],[118.3184,1.5276],[118.3092,1.521],[118.2968,1.5049],[118.2919,1.4924],[118.2856,1.4875],[118.2832,1.4825],[118.2832,1.4713],[118.2795,1.4602],[118.2732,1.4602],[118.2683,1.4577],[118.2658,1.4527],[118.2683,1.4453],[118.267,1.4403],[118.2397,1.4266],[118.2099,1.4266],[118.2024,1.4217],[118.1962,1.4105],[118.1975,1.4055],[118.2049,1.3981],[118.2049,1.3906],[118.2,1.3807],[118.2023,1.2593],[118.1997,1.259],[118.1957,1.2446],[118.1973,1.226],[118.2069,1.2127],[118.2069,1.2016],[118.176,1.1817],[118.1588,1.1685],[118.1251,1.1653],[118.0489,1.1822]]]}},{"type":"Feature","properties":{"name":"TanjungRedeb","name_en":"TanjungRedeb","admin_level":"6","osm_id":"","gid":"IDN.34.2.12_1"},"geometry":{"type":"Polygon","coordinates":[[[117.4329,2.0908],[117.4304,2.0904],[117.4277,2.0958],[117.4277,2.1026],[117.4172,2.1193],[117.4209,2.1242],[117.4629,2.1324],[117.4728,2.1513],[117.4742,2.1506],[117.484,2.156],[117.4905,2.156],[117.4937,2.1654],[117.5048,2.1621],[117.5116,2.1513],[117.5075,2.1351],[117.494,2.1202],[117.4832,2.1188],[117.471,2.1229],[117.4548,2.1188],[117.4534,2.1013],[117.4412,2.0918],[117.4385,2.0931],[117.4329,2.0908]]]}},{"type":"Feature","properties":{"name":"TelukBayur","name_en":"TelukBayur","admin_level":"6","osm_id":"","gid":"IDN.34.2.13_1"},"geometry":{"type":"Polygon","coordinates":[[[117.3503,1.9534],[117.329,1.9592],[117.2979,1.9755],[117.2803,1.9768],[117.2613,1.9741],[117.2451,1.9646],[117.2343,1.9376],[117.2289,1.9105],[117.2235,1.893],[117.2167,1.8781],[117.2032,1.8727],[117.1856,1.8727],[117.1616,1.8917],[117.1529,1.918],[117.1594,1.9309],[117.1648,1.9688],[117.1788,1.9969],[117.1972,2.0218],[117.2102,2.0348],[117.2243,2.0391],[117.2438,2.0478],[117.2546,2.0565],[117.2611,2.0705],[117.2665,2.0889],[117.2673,2.0993],[117.273,2.0932],[117.2762,2.0965],[117.2719,2.1084],[117.273,2.1214],[117.2784,2.13],[117.2892,2.1333],[117.3022,2.1279],[117.3163,2.1084],[117.3163,2.1062],[117.2968,2.1019],[117.2924,2.0954],[117.2969,2.0867],[117.3098,2.0857],[117.3195,2.0943],[117.339,2.1062],[117.3487,2.1073],[117.3585,2.0987],[117.3768,2.1214],[117.3768,2.1257],[117.3704,2.1354],[117.3693,2.1419],[117.3823,2.1549],[117.3909,2.1593],[117.4028,2.1582],[117.4212,2.1625],[117.4342,2.1625],[117.4428,2.1701],[117.4515,2.1744],[117.4651,2.1726],[117.4667,2.1712],[117.4677,2.1593],[117.4728,2.1513],[117.4629,2.1324],[117.4209,2.1242],[117.4169,2.1188],[117.402,2.1121],[117.3871,2.062],[117.3722,2.0336],[117.3641,2.0066],[117.3655,1.9755],[117.3587,1.9511],[117.3503,1.9534]]]}}]}