{"type":"FeatureCollection","metadata":{"parent_osm_id":"7754450","parent_name":"Keerom","parent_name_1":"Papua","parent_level":"5","child_level":"6","count":7,"source":"GADM 4.1 / geodata.ucdavis.edu","generated":"2026-05-05"},"features":[{"type":"Feature","properties":{"name":"Arso","name_1":"Papua","name_2":"Keerom","name_3":"Arso","gid_2":"IDN.23.9_1","gid_3":"IDN.23.9.2_1","admin_level":"6"},"geometry":{"type":"Polygon","coordinates":[[[140.3577,-3.1281],[140.3568,-3.1257],[140.3638,-3.0011],[140.6721,-2.8873],[140.6788,-2.8698],[140.682,-2.8661],[140.6815,-2.8558],[140.6757,-2.8445],[140.6708,-2.838],[140.6664,-2.8351],[140.6625,-2.8264],[140.6636,-2.8224],[140.6621,-2.8202],[140.6655,-2.8205],[140.6663,-2.8223],[140.6655,-2.8172],[140.6714,-2.817],[140.6698,-2.8129],[140.6736,-2.8134],[140.6774,-2.8069],[140.679,-2.8096],[140.6772,-2.8046],[140.6799,-2.8044],[140.6815,-2.8079],[140.6817,-2.8046],[140.6844,-2.8043],[140.685,-2.8075],[140.6876,-2.8086],[140.6914,-2.805],[140.6924,-2.8078],[140.6945,-2.8055],[140.6986,-2.8061],[140.6968,-2.8028],[140.703,-2.8027],[140.706,-2.7975],[140.7023,-2.7949],[140.7051,-2.7938],[140.708,-2.7894],[140.7099,-2.7899],[140.7105,-2.788],[140.7155,-2.7898],[140.7206,-2.7836],[140.7179,-2.7815],[140.7213,-2.7814],[140.723,-2.7781],[140.721,-2.7773],[140.7228,-2.776],[140.7227,-2.7736],[140.7253,-2.7749],[140.7246,-2.7688],[140.7291,-2.766],[140.7289,-2.7647],[140.7258,-2.7651],[140.7257,-2.7626],[140.7276,-2.7631],[140.7305,-2.7608],[140.7446,-2.7139],[140.7584,-2.7189],[140.8245,-2.7342],[140.8809,-2.7669],[140.9379,-2.7907],[140.9685,-2.8084],[140.8505,-2.9221],[140.8038,-2.9189],[140.7971,-2.9638],[140.8085,-2.9683],[140.8054,-3.0013],[140.8069,-3.0061],[140.8134,-3.0107],[140.8146,-3.0149],[140.793,-3.0206],[140.7888,-3.0281],[140.6618,-3.1891],[140.4424,-3.1443],[140.3599,-3.1313],[140.3577,-3.1281]]]}},{"type":"Feature","properties":{"name":"ArsoTimur","name_1":"Papua","name_2":"Keerom","name_3":"ArsoTimur","gid_2":"IDN.23.9_1","gid_3":"IDN.23.9.1_1","admin_level":"6"},"geometry":{"type":"Polygon","coordinates":[[[140.8961,-3.0576],[140.8219,-3.0483],[140.793,-3.0206],[140.8146,-3.0149],[140.8134,-3.0107],[140.8069,-3.0061],[140.8054,-3.0013],[140.8085,-2.9683],[140.7971,-2.9638],[140.8038,-2.9189],[140.8505,-2.9221],[140.9685,-2.8084],[141.0,-2.8289],[141.0,-3.0772],[140.9593,-3.0724],[140.911,-3.0594],[140.8961,-3.0576]]]}},{"type":"Feature","properties":{"name":"Senggi","name_1":"Papua","name_2":"Keerom","name_3":"Senggi","gid_2":"IDN.23.9_1","gid_3":"IDN.23.9.3_1","admin_level":"6"},"geometry":{"type":"Polygon","coordinates":[[[140.3803,-3.6452],[140.3886,-3.6394],[140.3902,-3.6309],[140.397,-3.631],[140.3945,-3.6239],[140.389,-3.621],[140.3867,-3.614],[140.3813,-3.6054],[140.3842,-3.6009],[140.3894,-3.5989],[140.3847,-3.5911],[140.3775,-3.5859],[140.3759,-3.5819],[140.3771,-3.5784],[140.379,-3.5821],[140.381,-3.5818],[140.3823,-3.572],[140.38,-3.5712],[140.3762,-3.5729],[140.3741,-3.5696],[140.3802,-3.5684],[140.3776,-3.5641],[140.3855,-3.558],[140.3862,-3.5552],[140.3851,-3.5536],[140.3788,-3.5525],[140.38,-3.5449],[140.3726,-3.5475],[140.3721,-3.5455],[140.374,-3.5434],[140.3721,-3.5394],[140.3694,-3.5418],[140.3681,-3.5412],[140.365,-3.5324],[140.3622,-3.5289],[140.3646,-3.5245],[140.369,-3.5327],[140.3745,-3.5333],[140.3689,-3.5231],[140.3724,-3.5222],[140.3754,-3.5234],[140.3795,-3.515],[140.3773,-3.5123],[140.3748,-3.5123],[140.376,-3.5198],[140.3743,-3.5212],[140.3711,-3.5144],[140.3641,-3.5155],[140.3633,-3.5075],[140.3657,-3.5074],[140.3698,-3.5109],[140.3713,-3.5096],[140.3708,-3.5024],[140.3672,-3.4978],[140.3662,-3.4939],[140.3554,-3.4971],[140.3507,-3.5012],[140.3534,-3.4911],[140.351,-3.4911],[140.3471,-3.4947],[140.3444,-3.4945],[140.3436,-3.4933],[140.3452,-3.4905],[140.3372,-3.4868],[140.3385,-3.4821],[140.3442,-3.4827],[140.3464,-3.4779],[140.3547,-3.4734],[140.3547,-3.468],[140.3614,-3.4652],[140.3632,-3.4559],[140.3664,-3.4535],[140.3676,-3.4432],[140.3623,-3.4323],[140.3616,-3.418],[140.359,-3.4168],[140.3544,-3.4208],[140.3494,-3.4186],[140.3504,-3.4147],[140.3562,-3.4165],[140.357,-3.4101],[140.3557,-3.4065],[140.3484,-3.4017],[140.3494,-3.4005],[140.3565,-3.4009],[140.3566,-3.3983],[140.3526,-3.3977],[140.3528,-3.3959],[140.3601,-3.3921],[140.359,-3.3848],[140.3535,-3.3883],[140.3503,-3.3813],[140.3543,-3.3786],[140.36,-3.3806],[140.3616,-3.3846],[140.3631,-3.385],[140.3706,-3.3741],[140.3707,-3.3683],[140.3678,-3.3674],[140.3636,-3.3706],[140.3613,-3.3662],[140.3616,-3.3626],[140.3677,-3.362],[140.3647,-3.3592],[140.3643,-3.3528],[140.3593,-3.3549],[140.3581,-3.3606],[140.3554,-3.3584],[140.3438,-3.3596],[140.3469,-3.3552],[140.3424,-3.3509],[140.3507,-3.3482],[140.352,-3.3436],[140.351,-3.3379],[140.3488,-3.3383],[140.3463,-3.3427],[140.3418,-3.3421],[140.3426,-3.3378],[140.3461,-3.3362],[140.3441,-3.3309],[140.3388,-3.3363],[140.3315,-3.3362],[140.328,-3.3307],[140.3243,-3.3287],[140.3234,-3.3243],[140.3249,-3.3202],[140.3189,-3.3236],[140.3101,-3.3226],[140.3143,-3.3168],[140.309,-3.3142],[140.306,-3.3081],[140.3074,-3.3046],[140.3134,-3.3032],[140.317,-3.2989],[140.3166,-3.2926],[140.3242,-3.2742],[140.3203,-3.2603],[140.3223,-3.2539],[140.3281,-3.2496],[140.3318,-3.2435],[140.3339,-3.2344],[140.3329,-3.2213],[140.3358,-3.217],[140.3351,-3.2129],[140.3375,-3.2091],[140.3336,-3.2021],[140.3296,-3.2042],[140.3256,-3.203],[140.3219,-3.1952],[140.3186,-3.1933],[140.3206,-3.1877],[140.3235,-3.1866],[140.3229,-3.1846],[140.3257,-3.177],[140.3312,-3.1771],[140.3359,-3.1746],[140.3378,-3.1779],[140.342,-3.1767],[140.3547,-3.1663],[140.3571,-3.1665],[140.3631,-3.163],[140.3677,-3.1574],[140.3663,-3.1537],[140.3675,-3.1512],[140.3613,-3.1421],[140.3599,-3.1313],[140.4424,-3.1443],[140.6632,-3.1894],[140.7625,-3.2396],[140.9055,-3.3845],[140.9482,-3.4123],[141.0,-3.4276],[141.0,-3.4982],[140.803,-3.5043],[140.7476,-3.5182],[140.6993,-3.5349],[140.6844,-3.559],[140.6826,-3.598],[140.6528,-3.6337],[140.6535,-3.6396],[140.6505,-3.6394],[140.6534,-3.6432],[140.6487,-3.6465],[140.649,-3.6487],[140.661,-3.6539],[140.6619,-3.6625],[140.6641,-3.6631],[140.6591,-3.6719],[140.6592,-3.6773],[140.6613,-3.6777],[140.6611,-3.6819],[140.663,-3.6834],[140.6644,-3.6811],[140.6659,-3.6878],[140.6679,-3.6893],[140.6669,-3.6908],[140.6686,-3.6948],[140.6658,-3.6957],[140.6703,-3.6966],[140.6694,-3.6989],[140.6669,-3.6987],[140.6677,-3.7018],[140.6645,-3.7037],[140.6664,-3.7054],[140.6643,-3.7064],[140.6647,-3.7116],[140.667,-3.7114],[140.6674,-3.7144],[140.6702,-3.7143],[140.6693,-3.7164],[140.6659,-3.7178],[140.6692,-3.7202],[140.6676,-3.7207],[140.6683,-3.7239],[140.6721,-3.7237],[140.6749,-3.726],[140.6685,-3.7266],[140.6759,-3.7288],[140.6759,-3.726],[140.6788,-3.7276],[140.6824,-3.7254],[140.6833,-3.7268],[140.6799,-3.7302],[140.6833,-3.7318],[140.6804,-3.7348],[140.6863,-3.7374],[140.6843,-3.7369],[140.6808,-3.7399],[140.6791,-3.7439],[140.6802,-3.7452],[140.6769,-3.7461],[140.676,-3.7484],[140.6738,-3.7469],[140.6738,-3.7487],[140.6706,-3.7503],[140.6671,-3.7494],[140.6664,-3.7522],[140.6659,-3.7503],[140.6635,-3.75],[140.6548,-3.7575],[140.6529,-3.7577],[140.6505,-3.7551],[140.6482,-3.7571],[140.6499,-3.761],[140.6499,-3.7747],[140.676,-3.7848],[140.7002,-3.7906],[140.7102,-3.8144],[140.7238,-3.8395],[140.725,-3.8588],[140.7342,-3.8639],[140.7352,-3.8746],[140.8035,-3.9141],[140.8074,-3.9404],[140.7887,-3.9404],[140.7788,-3.9384],[140.7753,-3.9337],[140.7733,-3.9345],[140.7685,-3.9315],[140.7704,-3.9286],[140.7689,-3.9258],[140.7639,-3.9256],[140.7653,-3.9275],[140.7606,-3.927],[140.7591,-3.9327],[140.7557,-3.936],[140.7516,-3.9314],[140.7524,-3.9284],[140.7486,-3.9285],[140.7395,-3.9245],[140.7425,-3.9205],[140.7414,-3.9178],[140.7331,-3.9163],[140.7306,-3.912],[140.7152,-3.9163],[140.7022,-3.9101],[140.7006,-3.9126],[140.6969,-3.9124],[140.6942,-3.91],[140.6788,-3.9068],[140.6512,-3.9156],[140.6458,-3.9212],[140.6399,-3.9236],[140.6398,-3.9315],[140.6369,-3.9335],[140.6288,-3.9334],[140.6203,-3.9359],[140.6178,-3.9384],[140.6151,-3.9377],[140.6128,-3.9407],[140.6135,-3.9447],[140.6109,-3.9473],[140.6089,-3.9447],[140.5965,-3.9419],[140.5946,-3.9389],[140.5872,-3.9373],[140.5853,-3.9331],[140.5902,-3.933],[140.5899,-3.9302],[140.5951,-3.9306],[140.5962,-3.9278],[140.5935,-3.9256],[140.581,-3.9291],[140.57,-3.9247],[140.568,-3.9262],[140.5603,-3.9214],[140.5578,-3.9169],[140.5522,-3.9169],[140.5516,-3.9144],[140.5467,-3.9217],[140.5445,-3.9197],[140.5442,-3.9146],[140.542,-3.9127],[140.5349,-3.9177],[140.5254,-3.918],[140.526,-3.9158],[140.5239,-3.9138],[140.5169,-3.9149],[140.5147,-3.9127],[140.5194,-3.9066],[140.517,-3.905],[140.5144,-3.9072],[140.5089,-3.9077],[140.5063,-3.9047],[140.5034,-3.9076],[140.4976,-3.9049],[140.4975,-3.9084],[140.4949,-3.9097],[140.4941,-3.912],[140.4961,-3.9139],[140.4986,-3.9121],[140.5003,-3.914],[140.5001,-3.9192],[140.5068,-3.925],[140.508,-3.9281],[140.5022,-3.9258],[140.5,-3.9224],[140.4946,-3.9256],[140.494,-3.9287],[140.49,-3.9272],[140.4884,-3.9294],[140.4856,-3.9282],[140.4879,-3.9214],[140.4844,-3.9187],[140.479,-3.9178],[140.4786,-3.9106],[140.4646,-3.9105],[140.4589,-3.9071],[140.4661,-3.9054],[140.4695,-3.9025],[140.4596,-3.9026],[140.4555,-3.9049],[140.4553,-3.893],[140.4483,-3.9032],[140.4466,-3.9103],[140.4425,-3.9078],[140.4418,-3.912],[140.4382,-3.9091],[140.4353,-3.9102],[140.4254,-3.9071],[140.4198,-3.9097],[140.417,-3.9176],[140.411,-3.9179],[140.4057,-3.9158],[140.4057,-3.9117],[140.4116,-3.9137],[140.4138,-3.9109],[140.4045,-3.9032],[140.4047,-3.8962],[140.4064,-3.893],[140.4133,-3.9004],[140.4181,-3.899],[140.4178,-3.893],[140.414,-3.8859],[140.4143,-3.8816],[140.4209,-3.8719],[140.421,-3.8682],[140.4237,-3.8638],[140.4277,-3.8618],[140.431,-3.856],[140.4308,-3.8505],[140.4265,-3.851],[140.4167,-3.8467],[140.4157,-3.8404],[140.4202,-3.8354],[140.4191,-3.8215],[140.4222,-3.8216],[140.4205,-3.8181],[140.4133,-3.8165],[140.4139,-3.8194],[140.4107,-3.8223],[140.405,-3.8148],[140.3996,-3.8146],[140.3999,-3.8111],[140.4113,-3.8071],[140.4133,-3.8042],[140.4176,-3.8027],[140.4174,-3.7988],[140.4033,-3.7884],[140.405,-3.784],[140.4089,-3.7849],[140.4124,-3.7807],[140.4078,-3.7747],[140.3978,-3.7703],[140.3987,-3.7665],[140.4021,-3.7662],[140.4086,-3.7564],[140.4017,-3.7497],[140.3985,-3.7489],[140.3975,-3.7463],[140.4034,-3.7435],[140.4042,-3.7387],[140.3998,-3.7347],[140.3984,-3.739],[140.3943,-3.7394],[140.3837,-3.7362],[140.3875,-3.7296],[140.3866,-3.7221],[140.385,-3.7198],[140.3742,-3.716],[140.3759,-3.7128],[140.3724,-3.7087],[140.3704,-3.7106],[140.3619,-3.7086],[140.3582,-3.7113],[140.3612,-3.7055],[140.3636,-3.704],[140.3589,-3.6977],[140.3604,-3.6949],[140.3656,-3.6927],[140.3654,-3.6833],[140.3562,-3.684],[140.3548,-3.6896],[140.3488,-3.6936],[140.3421,-3.6886],[140.3517,-3.6842],[140.351,-3.6789],[140.347,-3.6729],[140.3469,-3.6697],[140.3562,-3.6716],[140.3605,-3.6682],[140.366,-3.6669],[140.3636,-3.662],[140.3667,-3.6595],[140.3695,-3.663],[140.3731,-3.6633],[140.3775,-3.6599],[140.3743,-3.6554],[140.3752,-3.6495],[140.3803,-3.6452]]]}},{"type":"Feature","properties":{"name":"Skanto","name_1":"Papua","name_2":"Keerom","name_3":"Skanto","gid_2":"IDN.23.9_1","gid_3":"IDN.23.9.4_1","admin_level":"6"},"geometry":{"type":"Polygon","coordinates":[[[140.3696,-2.7929],[140.3886,-2.7701],[140.4378,-2.7759],[140.4467,-2.7796],[140.4482,-2.7748],[140.4448,-2.7746],[140.4465,-2.77],[140.4512,-2.7698],[140.4607,-2.7613],[140.4649,-2.7609],[140.4649,-2.7592],[140.4627,-2.7587],[140.4633,-2.7572],[140.4686,-2.759],[140.4693,-2.7553],[140.4665,-2.7543],[140.4687,-2.7521],[140.4762,-2.754],[140.4766,-2.7509],[140.4886,-2.7522],[140.4903,-2.7548],[140.4929,-2.7555],[140.4928,-2.7584],[140.4973,-2.7573],[140.4944,-2.7619],[140.4979,-2.7619],[140.4977,-2.7645],[140.5011,-2.7651],[140.5014,-2.7668],[140.4983,-2.7678],[140.5022,-2.7733],[140.5057,-2.7715],[140.507,-2.7762],[140.5092,-2.7749],[140.5108,-2.7759],[140.5117,-2.7727],[140.5133,-2.773],[140.5136,-2.7756],[140.5187,-2.7714],[140.5203,-2.7722],[140.5199,-2.7743],[140.5221,-2.7727],[140.5241,-2.7738],[140.5241,-2.7756],[140.5274,-2.7738],[140.5265,-2.7769],[140.5249,-2.7766],[140.5245,-2.7797],[140.5275,-2.7796],[140.5269,-2.7777],[140.5285,-2.7762],[140.5309,-2.7791],[140.5323,-2.776],[140.5341,-2.7763],[140.5339,-2.7779],[140.5363,-2.7773],[140.5348,-2.7754],[140.5364,-2.7743],[140.5357,-2.7719],[140.5376,-2.773],[140.5391,-2.7717],[140.5392,-2.7737],[140.5417,-2.7736],[140.5453,-2.7712],[140.5465,-2.7732],[140.5487,-2.7722],[140.5506,-2.7745],[140.551,-2.7714],[140.5488,-2.77],[140.5528,-2.7698],[140.5497,-2.7685],[140.5507,-2.7673],[140.5551,-2.768],[140.5563,-2.7656],[140.5587,-2.766],[140.5587,-2.7688],[140.561,-2.7689],[140.5616,-2.7714],[140.5634,-2.7698],[140.5627,-2.7677],[140.5653,-2.7673],[140.5651,-2.7662],[140.5617,-2.7669],[140.5625,-2.763],[140.5637,-2.7625],[140.5659,-2.7649],[140.5669,-2.7631],[140.5653,-2.7626],[140.5669,-2.7606],[140.5685,-2.7633],[140.5712,-2.7639],[140.5685,-2.7619],[140.5711,-2.7604],[140.5726,-2.7616],[140.5741,-2.7586],[140.575,-2.7638],[140.5766,-2.7627],[140.5754,-2.7614],[140.5764,-2.7603],[140.5794,-2.7621],[140.5834,-2.7585],[140.5864,-2.7602],[140.5867,-2.7636],[140.5883,-2.7632],[140.5887,-2.7649],[140.5907,-2.7639],[140.5913,-2.7611],[140.5933,-2.7614],[140.5913,-2.7635],[140.5942,-2.7653],[140.5945,-2.7706],[140.6018,-2.7701],[140.6063,-2.7723],[140.6064,-2.7739],[140.6095,-2.7738],[140.6133,-2.776],[140.6143,-2.7744],[140.6163,-2.775],[140.6154,-2.7728],[140.6196,-2.7738],[140.6249,-2.7695],[140.6212,-2.7684],[140.6191,-2.7644],[140.6213,-2.7611],[140.6231,-2.7611],[140.6254,-2.7579],[140.6279,-2.7588],[140.6278,-2.7572],[140.6294,-2.7593],[140.6327,-2.7592],[140.6269,-2.7505],[140.6228,-2.7512],[140.6217,-2.7467],[140.6229,-2.744],[140.6203,-2.7442],[140.6206,-2.7383],[140.6231,-2.737],[140.6228,-2.7311],[140.6257,-2.7287],[140.6287,-2.7302],[140.6295,-2.7277],[140.6296,-2.7245],[140.6273,-2.7211],[140.6236,-2.7206],[140.6241,-2.7169],[140.6259,-2.7156],[140.6322,-2.7161],[140.6334,-2.7225],[140.664,-2.7256],[140.6895,-2.7205],[140.7073,-2.707],[140.7169,-2.7061],[140.7299,-2.7072],[140.7446,-2.7139],[140.7305,-2.7608],[140.7276,-2.7631],[140.7257,-2.7626],[140.7258,-2.7651],[140.7289,-2.7647],[140.7291,-2.766],[140.7246,-2.7688],[140.7253,-2.7749],[140.7227,-2.7736],[140.7228,-2.776],[140.721,-2.7773],[140.723,-2.7781],[140.7213,-2.7814],[140.7179,-2.7815],[140.7206,-2.7836],[140.7155,-2.7898],[140.7105,-2.788],[140.7099,-2.7899],[140.708,-2.7894],[140.7051,-2.7938],[140.7023,-2.7949],[140.706,-2.7975],[140.703,-2.8027],[140.6968,-2.8028],[140.6986,-2.8061],[140.6945,-2.8055],[140.6924,-2.8078],[140.6914,-2.805],[140.6876,-2.8086],[140.685,-2.8075],[140.6844,-2.8043],[140.6817,-2.8046],[140.6815,-2.8079],[140.6799,-2.8044],[140.6772,-2.8046],[140.679,-2.8096],[140.6774,-2.8069],[140.6736,-2.8134],[140.6698,-2.8129],[140.6714,-2.817],[140.6655,-2.8172],[140.6663,-2.8223],[140.6655,-2.8205],[140.6621,-2.8202],[140.6636,-2.8224],[140.6625,-2.8264],[140.6664,-2.8351],[140.6708,-2.838],[140.6757,-2.8445],[140.6815,-2.8558],[140.682,-2.8661],[140.6788,-2.8698],[140.6721,-2.8873],[140.3638,-3.0011],[140.3603,-2.8049],[140.3696,-2.7929]]]}},{"type":"Feature","properties":{"name":"ToweHitam","name_1":"Papua","name_2":"Keerom","name_3":"ToweHitam","gid_2":"IDN.23.9_1","gid_3":"IDN.23.9.5_1","admin_level":"6"},"geometry":{"type":"Polygon","coordinates":[[[140.9964,-3.9292],[140.9979,-3.9247],[140.9962,-3.9217],[140.9894,-3.9258],[140.9861,-3.9228],[140.9829,-3.9153],[140.9801,-3.9154],[140.9755,-3.9194],[140.973,-3.9189],[140.9712,-3.9232],[140.9671,-3.9244],[140.9634,-3.9196],[140.9639,-3.9171],[140.9617,-3.9139],[140.9579,-3.9141],[140.958,-3.9154],[140.9523,-3.9176],[140.943,-3.914],[140.9361,-3.917],[140.9381,-3.9223],[140.936,-3.9203],[140.9319,-3.9277],[140.928,-3.9282],[140.925,-3.925],[140.9174,-3.9221],[140.9158,-3.927],[140.9169,-3.9335],[140.9141,-3.9366],[140.9177,-3.9387],[140.9195,-3.9444],[140.9163,-3.9464],[140.9119,-3.9463],[140.9087,-3.9381],[140.9058,-3.9383],[140.9036,-3.9359],[140.8986,-3.9403],[140.8994,-3.9366],[140.8972,-3.9353],[140.8957,-3.9388],[140.8868,-3.9412],[140.8851,-3.9387],[140.8861,-3.9305],[140.8812,-3.9319],[140.8801,-3.938],[140.8759,-3.9385],[140.8731,-3.9353],[140.8681,-3.9362],[140.8649,-3.9334],[140.8346,-3.9404],[140.8074,-3.9404],[140.8035,-3.9141],[140.7352,-3.8746],[140.7342,-3.8639],[140.725,-3.8588],[140.7238,-3.8395],[140.7102,-3.8144],[140.7002,-3.7906],[140.676,-3.7848],[140.6499,-3.7747],[140.6499,-3.761],[140.6482,-3.7571],[140.6505,-3.7551],[140.6529,-3.7577],[140.6548,-3.7575],[140.6635,-3.75],[140.6659,-3.7503],[140.6664,-3.7522],[140.6671,-3.7494],[140.6706,-3.7503],[140.6738,-3.7487],[140.6738,-3.7469],[140.676,-3.7484],[140.6769,-3.7461],[140.6802,-3.7452],[140.6791,-3.7439],[140.6808,-3.7399],[140.6843,-3.7369],[140.698,-3.7405],[140.74,-3.7265],[140.7751,-3.7289],[140.8337,-3.7523],[140.9508,-3.7827],[140.9859,-3.7757],[141.0,-3.7673],[141.0,-3.9314],[140.9964,-3.9292]]]}},{"type":"Feature","properties":{"name":"Waris","name_1":"Papua","name_2":"Keerom","name_3":"Waris","gid_2":"IDN.23.9_1","gid_3":"IDN.23.9.6_1","admin_level":"6"},"geometry":{"type":"Polygon","coordinates":[[[140.9382,-3.4058],[140.9055,-3.3845],[140.7625,-3.2396],[140.6618,-3.1891],[140.7888,-3.0281],[140.793,-3.0206],[140.8219,-3.0483],[140.911,-3.0594],[140.9593,-3.0724],[141.0,-3.0772],[141.0,-3.4276],[140.9482,-3.4123],[140.9382,-3.4058]]]}},{"type":"Feature","properties":{"name":"Web","name_1":"Papua","name_2":"Keerom","name_3":"Web","gid_2":"IDN.23.9_1","gid_3":"IDN.23.9.7_1","admin_level":"6"},"geometry":{"type":"Polygon","coordinates":[[[140.7619,-3.728],[140.74,-3.7265],[140.698,-3.7405],[140.6804,-3.7348],[140.6833,-3.7318],[140.6799,-3.7302],[140.6833,-3.7268],[140.6824,-3.7254],[140.6788,-3.7276],[140.6759,-3.726],[140.6759,-3.7288],[140.6685,-3.7266],[140.6749,-3.726],[140.6721,-3.7237],[140.6683,-3.7239],[140.6676,-3.7207],[140.6692,-3.7202],[140.6659,-3.7178],[140.6693,-3.7164],[140.6702,-3.7143],[140.6674,-3.7144],[140.667,-3.7114],[140.6647,-3.7116],[140.6643,-3.7064],[140.6664,-3.7054],[140.6645,-3.7037],[140.6677,-3.7018],[140.6669,-3.6987],[140.6694,-3.6989],[140.6703,-3.6966],[140.6658,-3.6957],[140.6686,-3.6948],[140.6669,-3.6908],[140.6679,-3.6893],[140.6659,-3.6878],[140.6644,-3.6811],[140.663,-3.6834],[140.6611,-3.6819],[140.6613,-3.6777],[140.6592,-3.6773],[140.6591,-3.6719],[140.6641,-3.6631],[140.6619,-3.6625],[140.661,-3.6539],[140.6494,-3.6493],[140.6487,-3.6465],[140.6534,-3.6432],[140.6505,-3.6403],[140.6535,-3.6396],[140.6528,-3.6337],[140.6826,-3.598],[140.6844,-3.559],[140.6993,-3.5349],[140.7476,-3.5182],[140.803,-3.5043],[141.0,-3.4982],[141.0,-3.7673],[140.9859,-3.7757],[140.9508,-3.7827],[140.8337,-3.7523],[140.7751,-3.7289],[140.7619,-3.728]]]}}]}