{"type":"FeatureCollection","metadata":{"parent_osm_id":"8483347","parent_name":"Samosir","parent_name_1":"SumateraUtara","parent_gid":"IDN.32.26_1","parent_level":"5","child_level":"6","count":9,"source":"GADM 4.1","generated":"2026-05-05"},"features":[{"type":"Feature","properties":{"name":"Harian","name_en":"Harian","admin_level":"6","osm_id":"","gid":"IDN.32.26.1_1"},"geometry":{"type":"Polygon","coordinates":[[[98.5269,2.5699],[98.5509,2.5801],[98.5541,2.5837],[98.5549,2.5879],[98.5637,2.5861],[98.5868,2.5856],[98.6078,2.5803],[98.6382,2.5627],[98.6409,2.5583],[98.65,2.5578],[98.6517,2.5658],[98.6536,2.5661],[98.656,2.5695],[98.6736,2.5693],[98.674,2.5674],[98.6696,2.565],[98.6587,2.5628],[98.6562,2.5607],[98.6626,2.5573],[98.67,2.5469],[98.671,2.5477],[98.6699,2.5504],[98.6773,2.5531],[98.6738,2.5475],[98.6771,2.5453],[98.6854,2.5425],[98.6897,2.5451],[98.6869,2.538],[98.6877,2.5363],[98.6918,2.5358],[98.6936,2.5331],[98.6961,2.5335],[98.6995,2.538],[98.7011,2.5434],[98.705,2.5434],[98.7054,2.5476],[98.707,2.5488],[98.7102,2.5512],[98.7154,2.5505],[98.716,2.5429],[98.721,2.5398],[98.7203,2.5377],[98.7178,2.5375],[98.7209,2.5327],[98.7206,2.5235],[98.7241,2.5202],[98.7283,2.5198],[98.7353,2.5223],[98.7356,2.5191],[98.7375,2.5172],[98.7283,2.5103],[98.7213,2.5025],[98.7158,2.5011],[98.7119,2.4902],[98.7063,2.481],[98.7011,2.4802],[98.7,2.4785],[98.7093,2.4702],[98.7153,2.4591],[98.7235,2.4536],[98.7297,2.4575],[98.7337,2.4549],[98.7375,2.456],[98.7458,2.4619],[98.7474,2.4617],[98.7504,2.4523],[98.749,2.4395],[98.7066,2.4346],[98.6808,2.4287],[98.6674,2.428],[98.6595,2.4258],[98.6499,2.4194],[98.6295,2.4093],[98.6151,2.3984],[98.6137,2.4377],[98.6109,2.4534],[98.6039,2.4655],[98.5941,2.4764],[98.5818,2.4866],[98.5106,2.4871],[98.5017,2.4787],[98.4834,2.4674],[98.4737,2.4646],[98.4458,2.4871],[98.431,2.4871],[98.4228,2.4813],[98.4151,2.4803],[98.4055,2.5],[98.4059,2.5081],[98.3996,2.5184],[98.4016,2.5222],[98.4096,2.5272],[98.4154,2.5289],[98.423,2.5282],[98.437,2.5225],[98.4491,2.5258],[98.4591,2.536],[98.4647,2.5475],[98.4675,2.5492],[98.4669,2.5528],[98.4753,2.5523],[98.4865,2.5469],[98.4905,2.5469],[98.5269,2.5699]]]}},{"type":"Feature","properties":{"name":"Nainggolan","name_en":"Nainggolan","admin_level":"6","osm_id":"","gid":"IDN.32.26.2_1"},"geometry":{"type":"Polygon","coordinates":[[[98.8828,2.4331],[98.8778,2.4325],[98.877,2.4303],[98.8646,2.4343],[98.861,2.4385],[98.8597,2.4437],[98.8495,2.4478],[98.8458,2.4542],[98.8618,2.4676],[98.8697,2.479],[98.8728,2.5011],[98.8753,2.509],[98.8883,2.5362],[98.8925,2.543],[98.8968,2.5451],[98.9003,2.5338],[98.9081,2.5295],[98.9099,2.5164],[98.9124,2.5109],[98.9191,2.5059],[98.9235,2.4809],[98.9226,2.4799],[98.9269,2.474],[98.9371,2.4668],[98.9403,2.445],[98.9347,2.4377],[98.9238,2.4333],[98.9159,2.4368],[98.9089,2.4351],[98.9006,2.4361],[98.8979,2.4305],[98.8919,2.4272],[98.8885,2.4278],[98.8877,2.432],[98.8846,2.4339],[98.8828,2.4331]]]}},{"type":"Feature","properties":{"name":"Onanrunggu","name_en":"Onanrunggu","admin_level":"6","osm_id":"","gid":"IDN.32.26.3_1"},"geometry":{"type":"Polygon","coordinates":[[[98.9756,2.4532],[98.9636,2.448],[98.9609,2.4451],[98.955,2.4462],[98.9495,2.4434],[98.9465,2.4445],[98.9453,2.4429],[98.9403,2.445],[98.9371,2.4668],[98.9269,2.474],[98.9226,2.4799],[98.9235,2.4809],[98.9191,2.5059],[98.9124,2.5109],[98.9099,2.5164],[98.9081,2.5295],[98.9003,2.5338],[98.8965,2.5451],[98.8991,2.5524],[98.8992,2.5582],[98.9071,2.5692],[98.9077,2.5654],[98.9109,2.5611],[98.9258,2.5448],[98.9396,2.5337],[98.9437,2.5324],[98.9546,2.5243],[98.9557,2.5222],[98.9603,2.5207],[98.9741,2.5083],[98.9816,2.4915],[98.9839,2.4903],[98.9839,2.4862],[98.9893,2.4813],[98.9934,2.4741],[98.9921,2.4721],[98.994,2.467],[98.9915,2.462],[98.9841,2.4588],[98.9773,2.4527],[98.9756,2.4532]]]}},{"type":"Feature","properties":{"name":"Palipi","name_en":"Palipi","admin_level":"6","osm_id":"","gid":"IDN.32.26.4_1"},"geometry":{"type":"Polygon","coordinates":[[[98.8375,2.4597],[98.8353,2.4585],[98.8329,2.4599],[98.8319,2.463],[98.8271,2.4634],[98.8199,2.4725],[98.8154,2.4744],[98.8093,2.471],[98.8072,2.4653],[98.8026,2.4642],[98.8001,2.4679],[98.7992,2.4761],[98.801,2.4826],[98.7998,2.4833],[98.7992,2.4901],[98.7961,2.4916],[98.796,2.4963],[98.7843,2.5029],[98.7798,2.509],[98.7719,2.5075],[98.7646,2.5093],[98.7612,2.5071],[98.7585,2.5021],[98.757,2.5021],[98.7524,2.5095],[98.7456,2.5135],[98.7445,2.5178],[98.7433,2.5167],[98.7435,2.5224],[98.7405,2.5216],[98.7363,2.5243],[98.7336,2.5294],[98.7354,2.5302],[98.739,2.5409],[98.7483,2.5491],[98.7527,2.5588],[98.7571,2.5636],[98.761,2.5655],[98.774,2.5652],[98.7886,2.5711],[98.8079,2.584],[98.8179,2.5979],[98.8311,2.6055],[98.8371,2.5868],[98.8453,2.5773],[98.8575,2.5668],[98.8737,2.5569],[98.8863,2.5451],[98.8929,2.5432],[98.8845,2.5295],[98.8742,2.506],[98.8711,2.4835],[98.8684,2.4769],[98.8618,2.4676],[98.8471,2.4549],[98.8425,2.4544],[98.8396,2.4601],[98.8375,2.4597]]]}},{"type":"Feature","properties":{"name":"Pangururan","name_en":"Pangururan","admin_level":"6","osm_id":"","gid":"IDN.32.26.5_1"},"geometry":{"type":"Polygon","coordinates":[[[98.732,2.5308],[98.7236,2.5387],[98.7198,2.5524],[98.7207,2.5581],[98.712,2.5704],[98.7121,2.5818],[98.7089,2.5856],[98.7061,2.5963],[98.6982,2.6061],[98.694,2.607],[98.6919,2.6127],[98.6891,2.615],[98.6927,2.621],[98.6918,2.6318],[98.6902,2.635],[98.6854,2.637],[98.683,2.6405],[98.6878,2.6536],[98.692,2.7126],[98.7011,2.711],[98.7099,2.7072],[98.7295,2.6933],[98.7445,2.691],[98.7548,2.6914],[98.7579,2.6849],[98.7572,2.6791],[98.7655,2.6693],[98.7709,2.6522],[98.7667,2.6446],[98.7617,2.6427],[98.744,2.6406],[98.7418,2.6426],[98.744,2.6324],[98.7424,2.6269],[98.7457,2.6188],[98.743,2.6168],[98.7491,2.6091],[98.7428,2.6014],[98.743,2.5987],[98.748,2.5892],[98.7664,2.5649],[98.7595,2.5652],[98.7562,2.5628],[98.7527,2.5588],[98.7483,2.5491],[98.739,2.5409],[98.7354,2.5302],[98.7336,2.5294],[98.732,2.5308]]]}},{"type":"Feature","properties":{"name":"RonggurNihuta","name_en":"RonggurNihuta","admin_level":"6","osm_id":"","gid":"IDN.32.26.6_1"},"geometry":{"type":"Polygon","coordinates":[[[98.7664,2.5649],[98.748,2.5892],[98.743,2.5987],[98.7428,2.6014],[98.7491,2.6091],[98.743,2.6168],[98.7457,2.6188],[98.7424,2.6269],[98.744,2.6324],[98.7418,2.6426],[98.744,2.6406],[98.7617,2.6427],[98.7667,2.6446],[98.7704,2.6496],[98.7815,2.6545],[98.7987,2.6574],[98.8036,2.6611],[98.8184,2.6628],[98.8246,2.6676],[98.828,2.6677],[98.8366,2.6586],[98.8451,2.6447],[98.8509,2.6306],[98.8584,2.6226],[98.8582,2.6196],[98.8453,2.6179],[98.8368,2.6083],[98.8179,2.5979],[98.8079,2.584],[98.7886,2.5711],[98.774,2.5652],[98.7664,2.5649]]]}},{"type":"Feature","properties":{"name":"SianjurMulamula","name_en":"SianjurMulamula","admin_level":"6","osm_id":"","gid":"IDN.32.26.7_1"},"geometry":{"type":"Polygon","coordinates":[[[98.6771,2.5788],[98.673,2.5769],[98.6745,2.5702],[98.6774,2.5708],[98.6772,2.5732],[98.686,2.5715],[98.6889,2.57],[98.6896,2.5656],[98.6762,2.5645],[98.6736,2.5693],[98.656,2.5695],[98.6536,2.5661],[98.6517,2.5658],[98.6508,2.559],[98.648,2.5574],[98.6399,2.5586],[98.6382,2.5627],[98.6078,2.5803],[98.6008,2.5826],[98.5868,2.5856],[98.5637,2.5861],[98.5549,2.5879],[98.5663,2.6821],[98.5725,2.7091],[98.5743,2.7339],[98.5789,2.7354],[98.584,2.7325],[98.587,2.7336],[98.5885,2.7316],[98.5908,2.7315],[98.5945,2.7331],[98.5949,2.7294],[98.5965,2.7286],[98.5963,2.7239],[98.5987,2.7207],[98.5981,2.7173],[98.6035,2.7136],[98.6051,2.7065],[98.6073,2.7036],[98.614,2.7026],[98.6172,2.6936],[98.6223,2.6907],[98.6227,2.6862],[98.6268,2.6845],[98.6244,2.677],[98.6273,2.6759],[98.6264,2.6705],[98.6278,2.6658],[98.6242,2.6639],[98.6232,2.6621],[98.6246,2.6613],[98.6201,2.6545],[98.6148,2.6497],[98.6144,2.6452],[98.6157,2.643],[98.6237,2.6422],[98.629,2.6469],[98.6316,2.6467],[98.6327,2.6453],[98.6322,2.6376],[98.634,2.6343],[98.6387,2.633],[98.6423,2.6383],[98.645,2.6346],[98.6464,2.6286],[98.6493,2.6273],[98.654,2.6284],[98.654,2.6338],[98.6578,2.6348],[98.6597,2.6277],[98.6711,2.6268],[98.6732,2.6286],[98.6728,2.6247],[98.6689,2.6226],[98.6579,2.607],[98.6536,2.6048],[98.6543,2.5978],[98.6615,2.5937],[98.6662,2.593],[98.6686,2.5897],[98.6684,2.5867],[98.6709,2.5845],[98.6734,2.5856],[98.6791,2.5822],[98.6771,2.5788]]]}},{"type":"Feature","properties":{"name":"Simanindo","name_en":"Simanindo","admin_level":"6","osm_id":"","gid":"IDN.32.26.8_1"},"geometry":{"type":"Polygon","coordinates":[[[98.9073,2.5771],[98.9085,2.5749],[98.907,2.5679],[98.9027,2.5647],[98.8992,2.5582],[98.8991,2.5524],[98.8965,2.5451],[98.8929,2.5432],[98.8863,2.5451],[98.8737,2.5569],[98.8554,2.5684],[98.8371,2.5868],[98.831,2.6056],[98.8393,2.6104],[98.8453,2.6179],[98.8503,2.6196],[98.8572,2.6189],[98.8589,2.6212],[98.8517,2.6294],[98.8441,2.6465],[98.8359,2.6596],[98.8329,2.6613],[98.8295,2.6667],[98.8246,2.6676],[98.8184,2.6628],[98.8036,2.6611],[98.7987,2.6574],[98.7815,2.6545],[98.7704,2.6496],[98.7709,2.6522],[98.7655,2.6693],[98.7572,2.6791],[98.7579,2.6849],[98.7548,2.6914],[98.7445,2.691],[98.7295,2.6933],[98.7099,2.7072],[98.7011,2.711],[98.6922,2.7125],[98.6978,2.733],[98.7112,2.7422],[98.7162,2.7507],[98.7207,2.7513],[98.7263,2.7588],[98.7349,2.7594],[98.7374,2.7549],[98.7483,2.7527],[98.7581,2.7405],[98.7632,2.7429],[98.7662,2.7399],[98.7706,2.7428],[98.7814,2.7419],[98.7896,2.7353],[98.7969,2.7324],[98.8139,2.7116],[98.813,2.704],[98.8258,2.69],[98.8315,2.6873],[98.8304,2.6845],[98.8398,2.6794],[98.843,2.6809],[98.8432,2.6796],[98.8495,2.6768],[98.8493,2.6747],[98.8515,2.6737],[98.8534,2.6744],[98.8522,2.6775],[98.8548,2.6781],[98.8636,2.6725],[98.8641,2.6684],[98.8623,2.6674],[98.8573,2.6693],[98.8517,2.664],[98.8685,2.6497],[98.8701,2.6454],[98.8846,2.6278],[98.8887,2.6203],[98.889,2.6145],[98.8916,2.6097],[98.8913,2.6034],[98.8963,2.5977],[98.9029,2.5804],[98.9073,2.5771]]]}},{"type":"Feature","properties":{"name":"Sitio-Tio","name_en":"Sitio-Tio","admin_level":"6","osm_id":"","gid":"IDN.32.26.9_1"},"geometry":{"type":"Polygon","coordinates":[[[98.8347,2.3562],[98.834,2.3606],[98.8321,2.3622],[98.8271,2.3631],[98.8153,2.3714],[98.8071,2.3745],[98.7988,2.3906],[98.7908,2.3996],[98.7889,2.4094],[98.7777,2.4201],[98.749,2.4395],[98.7504,2.4523],[98.7474,2.4617],[98.7458,2.4619],[98.7375,2.456],[98.7337,2.4549],[98.7297,2.4575],[98.7235,2.4536],[98.7153,2.4591],[98.7093,2.4702],[98.7,2.4785],[98.7011,2.4802],[98.7063,2.481],[98.7119,2.4902],[98.7158,2.5011],[98.7213,2.5025],[98.7283,2.5103],[98.7375,2.5172],[98.7397,2.512],[98.742,2.5116],[98.7423,2.5094],[98.7476,2.5074],[98.7505,2.5041],[98.7493,2.4911],[98.7531,2.4878],[98.7575,2.4881],[98.762,2.486],[98.7646,2.4804],[98.7669,2.4802],[98.7686,2.478],[98.7698,2.4695],[98.775,2.467],[98.7751,2.4564],[98.7758,2.4543],[98.7777,2.4553],[98.777,2.4502],[98.7815,2.4424],[98.7793,2.4379],[98.7886,2.435],[98.7907,2.4384],[98.7911,2.4433],[98.7961,2.4405],[98.798,2.437],[98.7974,2.4342],[98.7996,2.4322],[98.8075,2.4286],[98.8068,2.4215],[98.808,2.4187],[98.8107,2.4185],[98.8141,2.4153],[98.8154,2.4092],[98.8152,2.4017],[98.8106,2.4026],[98.8092,2.4013],[98.8088,2.3952],[98.8127,2.3947],[98.816,2.392],[98.8178,2.3812],[98.8213,2.3808],[98.8234,2.3763],[98.8304,2.3734],[98.8304,2.3709],[98.8341,2.3663],[98.8417,2.3633],[98.8392,2.3556],[98.8397,2.3519],[98.8383,2.3509],[98.8347,2.3562]]]}}]}