{"type":"FeatureCollection","metadata":{"parent_osm_id":"9674154","parent_name":"KotaPasuruan","parent_name_1":"JawaTimur","parent_gid":"IDN.11.16_1","parent_level":"5","child_level":"6","count":3,"source":"GADM 4.1","generated":"2026-05-05"},"features":[{"type":"Feature","properties":{"name":"Bugulkidul","name_en":"Bugulkidul","admin_level":"6","osm_id":"","gid":"IDN.11.16.1_1"},"geometry":{"type":"Polygon","coordinates":[[[112.9102,-7.6797],[112.908,-7.6792],[112.9012,-7.6864],[112.8969,-7.6857],[112.8983,-7.6816],[112.9002,-7.6818],[112.9028,-7.6774],[112.901,-7.6761],[112.9013,-7.6737],[112.9077,-7.6606],[112.9055,-7.6601],[112.9061,-7.6583],[112.9024,-7.6561],[112.9088,-7.6451],[112.909,-7.6418],[112.912,-7.6407],[112.9194,-7.6269],[112.9275,-7.6312],[112.9349,-7.6315],[112.9368,-7.6303],[112.9372,-7.6254],[112.9466,-7.6244],[112.9482,-7.6207],[112.952,-7.6239],[112.9522,-7.6319],[112.9467,-7.6389],[112.9464,-7.644],[112.9439,-7.6485],[112.9454,-7.6516],[112.937,-7.6543],[112.938,-7.6604],[112.932,-7.6687],[112.9286,-7.6672],[112.9227,-7.676],[112.9185,-7.674],[112.9171,-7.6787],[112.9108,-7.6785],[112.9102,-7.6797]]]}},{"type":"Feature","properties":{"name":"Gadingrejo","name_en":"Gadingrejo","admin_level":"6","osm_id":"","gid":"IDN.11.16.2_1"},"geometry":{"type":"Polygon","coordinates":[[[112.8891,-7.6525],[112.8913,-7.6583],[112.8874,-7.6565],[112.886,-7.6581],[112.8869,-7.6599],[112.8785,-7.6551],[112.8729,-7.6609],[112.8721,-7.6571],[112.8738,-7.6524],[112.8715,-7.6512],[112.8761,-7.6387],[112.8724,-7.634],[112.8749,-7.6263],[112.8778,-7.627],[112.8789,-7.6303],[112.8843,-7.6318],[112.8854,-7.6292],[112.8841,-7.6286],[112.8864,-7.6235],[112.8919,-7.6269],[112.8942,-7.6252],[112.9009,-7.6289],[112.9028,-7.6258],[112.9096,-7.6289],[112.9086,-7.6306],[112.9109,-7.632],[112.91,-7.6338],[112.9118,-7.6342],[112.9111,-7.6358],[112.9123,-7.6365],[112.9111,-7.6384],[112.9048,-7.6377],[112.901,-7.6458],[112.8962,-7.6439],[112.894,-7.6481],[112.8902,-7.647],[112.8891,-7.6525]]]}},{"type":"Feature","properties":{"name":"Purworejo","name_en":"Purworejo","admin_level":"6","osm_id":"","gid":"IDN.11.16.3_1"},"geometry":{"type":"Polygon","coordinates":[[[112.9052,-7.6666],[112.9013,-7.6737],[112.9025,-7.6781],[112.9002,-7.6818],[112.8983,-7.6816],[112.8969,-7.6857],[112.8952,-7.6855],[112.8964,-7.6827],[112.8945,-7.6762],[112.8907,-7.6755],[112.8915,-7.6741],[112.889,-7.6725],[112.8849,-7.6736],[112.8813,-7.6719],[112.884,-7.6711],[112.8861,-7.667],[112.8815,-7.6645],[112.8826,-7.6613],[112.8869,-7.6624],[112.886,-7.6581],[112.8874,-7.6565],[112.8913,-7.6583],[112.8905,-7.6537],[112.8888,-7.6522],[112.8899,-7.6472],[112.894,-7.6481],[112.8962,-7.6439],[112.901,-7.6458],[112.9048,-7.6377],[112.9094,-7.639],[112.9123,-7.6365],[112.9111,-7.6358],[112.9118,-7.6342],[112.91,-7.6338],[112.9109,-7.632],[112.9086,-7.6306],[112.9096,-7.6289],[112.9194,-7.6269],[112.912,-7.6407],[112.9089,-7.6418],[112.9088,-7.6451],[112.9031,-7.6539],[112.9027,-7.6568],[112.9077,-7.6606],[112.9052,-7.6666]]]}}]}