{"type":"FeatureCollection","metadata":{"parent_osm_id":"9687050","parent_name":"Blora","parent_name_1":"JawaTengah","parent_gid":"IDN.10.4_1","parent_level":"5","child_level":"6","count":16,"source":"GADM 4.1","generated":"2026-05-05"},"features":[{"type":"Feature","properties":{"name":"Banjarejo","name_en":"Banjarejo","admin_level":"6","osm_id":"","gid":"IDN.10.4.1_1"},"geometry":{"type":"Polygon","coordinates":[[[111.4027,-7.0977],[111.4012,-7.1006],[111.4023,-7.1074],[111.4003,-7.1125],[111.3937,-7.1143],[111.3926,-7.1159],[111.3915,-7.1128],[111.3925,-7.1113],[111.3872,-7.1031],[111.3835,-7.1028],[111.3787,-7.1065],[111.3754,-7.1069],[111.3686,-7.1052],[111.3641,-7.1152],[111.3604,-7.1195],[111.3567,-7.1189],[111.3577,-7.116],[111.3553,-7.114],[111.3395,-7.1107],[111.3347,-7.0982],[111.3273,-7.0932],[111.3307,-7.086],[111.3308,-7.0819],[111.3288,-7.0805],[111.3287,-7.0783],[111.3361,-7.0717],[111.3351,-7.0653],[111.3366,-7.0585],[111.3362,-7.0488],[111.3349,-7.0465],[111.3368,-7.0289],[111.3352,-7.0258],[111.3383,-7.0037],[111.3442,-7.0],[111.3479,-6.9912],[111.3524,-6.9925],[111.3582,-6.9914],[111.3616,-6.9931],[111.3658,-6.9915],[111.3691,-6.9851],[111.3768,-6.9841],[111.3809,-6.9845],[111.3808,-6.9895],[111.383,-6.9901],[111.3878,-6.9873],[111.3888,-6.9845],[111.3936,-6.9824],[111.3946,-6.9835],[111.3961,-6.9817],[111.3995,-6.9826],[111.4006,-6.9797],[111.4069,-6.9819],[111.4041,-6.9868],[111.4051,-6.9881],[111.4081,-6.9874],[111.4081,-6.9917],[111.4067,-6.9905],[111.4053,-6.9925],[111.4016,-6.9916],[111.4003,-6.9928],[111.4031,-6.9953],[111.4035,-7.0001],[111.4103,-7.0022],[111.4132,-7.0111],[111.4121,-7.0194],[111.4162,-7.0371],[111.422,-7.0459],[111.4135,-7.0555],[111.41,-7.0629],[111.4043,-7.0665],[111.3993,-7.0735],[111.4038,-7.0799],[111.4031,-7.0825],[111.4057,-7.0881],[111.4061,-7.0944],[111.4075,-7.0953],[111.4027,-7.0977]]]}},{"type":"Feature","properties":{"name":"Blora","name_en":"Blora","admin_level":"6","osm_id":"","gid":"IDN.10.4.2_1"},"geometry":{"type":"Polygon","coordinates":[[[111.418,-7.0414],[111.4122,-7.0199],[111.4132,-7.0111],[111.4103,-7.0022],[111.4035,-7.0001],[111.4031,-6.9953],[111.4003,-6.9928],[111.4016,-6.9916],[111.4053,-6.9925],[111.4067,-6.9905],[111.4081,-6.9917],[111.4081,-6.9874],[111.4051,-6.9881],[111.4041,-6.9868],[111.4069,-6.9819],[111.3986,-6.9783],[111.3975,-6.9794],[111.3958,-6.9775],[111.3972,-6.9707],[111.3946,-6.958],[111.3967,-6.956],[111.3943,-6.9535],[111.3987,-6.9532],[111.4016,-6.9401],[111.3979,-6.939],[111.398,-6.9359],[111.3994,-6.9344],[111.408,-6.9375],[111.409,-6.941],[111.4073,-6.9433],[111.4075,-6.9483],[111.4085,-6.9514],[111.4109,-6.9515],[111.4105,-6.955],[111.412,-6.9522],[111.4143,-6.952],[111.415,-6.945],[111.4082,-6.936],[111.4096,-6.9228],[111.4137,-6.9225],[111.4304,-6.9314],[111.4348,-6.9278],[111.4368,-6.9284],[111.4385,-6.9238],[111.4401,-6.9235],[111.4398,-6.917],[111.4375,-6.9163],[111.436,-6.9046],[111.434,-6.9023],[111.4348,-6.8989],[111.4306,-6.8946],[111.4304,-6.8917],[111.4322,-6.8921],[111.4351,-6.89],[111.4371,-6.8863],[111.436,-6.8846],[111.4393,-6.8866],[111.4412,-6.8845],[111.4398,-6.8827],[111.4433,-6.8799],[111.4475,-6.8803],[111.4544,-6.8763],[111.459,-6.878],[111.4582,-6.8791],[111.4603,-6.8788],[111.4604,-6.8824],[111.4659,-6.8811],[111.4758,-6.8856],[111.4785,-6.8886],[111.4796,-6.8935],[111.4762,-6.8969],[111.4777,-6.9051],[111.4752,-6.9092],[111.4703,-6.9105],[111.4701,-6.9121],[111.4671,-6.913],[111.4675,-6.915],[111.4611,-6.9145],[111.4577,-6.9199],[111.4562,-6.9289],[111.4581,-6.9306],[111.4568,-6.9339],[111.4583,-6.9371],[111.4561,-6.9406],[111.4521,-6.9428],[111.4532,-6.9479],[111.4504,-6.9525],[111.4531,-6.9537],[111.4487,-6.9591],[111.4457,-6.9589],[111.4441,-6.9628],[111.4453,-6.965],[111.4423,-6.9677],[111.4487,-6.9679],[111.4487,-6.9717],[111.4459,-6.9721],[111.4512,-6.9738],[111.4523,-6.9758],[111.4508,-6.9788],[111.4494,-6.9795],[111.4478,-6.9781],[111.4481,-6.9797],[111.444,-6.9827],[111.444,-6.9798],[111.4418,-6.9766],[111.4374,-6.9807],[111.4373,-6.982],[111.448,-6.9895],[111.449,-6.9937],[111.4581,-6.9995],[111.456,-7.0094],[111.46,-7.0187],[111.4622,-7.02],[111.4605,-7.0229],[111.4542,-7.0264],[111.4502,-7.0248],[111.4501,-7.0192],[111.444,-7.0171],[111.4401,-7.0129],[111.4375,-7.0132],[111.4338,-7.0073],[111.4318,-7.0078],[111.4287,-7.0056],[111.425,-7.0067],[111.4262,-7.0107],[111.4286,-7.0124],[111.4281,-7.0193],[111.4311,-7.0234],[111.4291,-7.0247],[111.4311,-7.0273],[111.4305,-7.0304],[111.4328,-7.0318],[111.433,-7.035],[111.4312,-7.0417],[111.4297,-7.0408],[111.422,-7.0459],[111.418,-7.0414]]]}},{"type":"Feature","properties":{"name":"Bogorejo","name_en":"Bogorejo","admin_level":"6","osm_id":"","gid":"IDN.10.4.3_1"},"geometry":{"type":"Polygon","coordinates":[[[111.5071,-6.9667],[111.5025,-6.964],[111.4956,-6.9638],[111.4906,-6.9575],[111.4855,-6.9561],[111.4859,-6.9536],[111.4834,-6.9522],[111.4835,-6.9476],[111.4814,-6.9456],[111.4832,-6.9381],[111.4806,-6.9349],[111.4758,-6.9345],[111.4744,-6.933],[111.4782,-6.9241],[111.4805,-6.9237],[111.482,-6.9179],[111.4906,-6.9097],[111.4916,-6.9045],[111.4943,-6.8998],[111.4969,-6.8986],[111.4979,-6.8941],[111.5027,-6.893],[111.505,-6.8908],[111.5095,-6.892],[111.5144,-6.8893],[111.5166,-6.8924],[111.5167,-6.8964],[111.5186,-6.8977],[111.5386,-6.9004],[111.5405,-6.9039],[111.5433,-6.903],[111.5453,-6.9041],[111.542,-6.9076],[111.5441,-6.9093],[111.5486,-6.9107],[111.5533,-6.9098],[111.5557,-6.9119],[111.5555,-6.9143],[111.5611,-6.9122],[111.564,-6.9133],[111.5685,-6.919],[111.5682,-6.9147],[111.5769,-6.9196],[111.5763,-6.9237],[111.5731,-6.9253],[111.5736,-6.9287],[111.5763,-6.9313],[111.575,-6.9379],[111.577,-6.9418],[111.5742,-6.9455],[111.5683,-6.9451],[111.5595,-6.9476],[111.5579,-6.95],[111.5485,-6.9514],[111.5482,-6.9536],[111.5425,-6.954],[111.54,-6.9536],[111.5387,-6.951],[111.536,-6.9525],[111.532,-6.9453],[111.5219,-6.9469],[111.5208,-6.9474],[111.5193,-6.9616],[111.5071,-6.9667]]]}},{"type":"Feature","properties":{"name":"Cepu","name_en":"Cepu","admin_level":"6","osm_id":"","gid":"IDN.10.4.4_1"},"geometry":{"type":"Polygon","coordinates":[[[111.5465,-7.21],[111.5433,-7.2136],[111.5392,-7.2147],[111.539,-7.2128],[111.5371,-7.2123],[111.5386,-7.2088],[111.5319,-7.208],[111.5316,-7.2043],[111.5344,-7.2039],[111.536,-7.1977],[111.5268,-7.191],[111.5296,-7.1805],[111.5385,-7.1779],[111.5414,-7.1749],[111.5435,-7.1761],[111.5493,-7.1713],[111.547,-7.1671],[111.5484,-7.1634],[111.5443,-7.1614],[111.5419,-7.1574],[111.5431,-7.1498],[111.5417,-7.1416],[111.5434,-7.1389],[111.5413,-7.1385],[111.5437,-7.1316],[111.5603,-7.1314],[111.5643,-7.1339],[111.5652,-7.1364],[111.568,-7.1372],[111.5704,-7.1309],[111.5757,-7.1296],[111.5778,-7.1311],[111.5779,-7.1278],[111.59,-7.1281],[111.5959,-7.1207],[111.6018,-7.1196],[111.6113,-7.1212],[111.6116,-7.1255],[111.6061,-7.1282],[111.6072,-7.1313],[111.6092,-7.1322],[111.6077,-7.1371],[111.6111,-7.1355],[111.6098,-7.1382],[111.6121,-7.1384],[111.6118,-7.1407],[111.6089,-7.1395],[111.6106,-7.1433],[111.6082,-7.1421],[111.6058,-7.1433],[111.607,-7.1468],[111.6013,-7.1446],[111.5985,-7.1454],[111.5986,-7.1552],[111.5881,-7.1638],[111.5844,-7.1708],[111.5837,-7.1754],[111.5873,-7.1855],[111.5758,-7.1883],[111.5667,-7.1866],[111.5639,-7.1906],[111.5692,-7.1989],[111.5668,-7.2066],[111.564,-7.2077],[111.5589,-7.2062],[111.555,-7.2017],[111.549,-7.2053],[111.5465,-7.21]]]}},{"type":"Feature","properties":{"name":"Japah","name_en":"Japah","admin_level":"6","osm_id":"","gid":"IDN.10.4.5_1"},"geometry":{"type":"Polygon","coordinates":[[[111.3073,-6.971],[111.3078,-6.9763],[111.3093,-6.9765],[111.3111,-6.983],[111.3087,-6.9833],[111.3066,-6.98],[111.3058,-6.9822],[111.3,-6.9827],[111.2996,-6.9843],[111.3015,-6.9855],[111.3002,-6.9879],[111.296,-6.9895],[111.2943,-6.9866],[111.2876,-6.9846],[111.2851,-6.9822],[111.2757,-6.9834],[111.2733,-6.9818],[111.2645,-6.9811],[111.2676,-6.9785],[111.2688,-6.9743],[111.2673,-6.9711],[111.265,-6.9709],[111.2645,-6.9654],[111.2698,-6.961],[111.2678,-6.9585],[111.2607,-6.9582],[111.2571,-6.9601],[111.2572,-6.9627],[111.2536,-6.9629],[111.25,-6.9596],[111.2343,-6.9544],[111.2341,-6.9464],[111.2324,-6.9437],[111.2359,-6.9342],[111.2371,-6.9348],[111.2364,-6.9323],[111.2382,-6.9279],[111.2399,-6.9257],[111.246,-6.9262],[111.2502,-6.9225],[111.2543,-6.9222],[111.2574,-6.913],[111.2537,-6.9049],[111.2562,-6.8985],[111.2504,-6.8943],[111.2431,-6.8821],[111.2437,-6.8792],[111.2421,-6.8778],[111.244,-6.8757],[111.2429,-6.8734],[111.2438,-6.8697],[111.2422,-6.8616],[111.2454,-6.8628],[111.2492,-6.8613],[111.2593,-6.8535],[111.2652,-6.8571],[111.2726,-6.8583],[111.2848,-6.8651],[111.3136,-6.8648],[111.3301,-6.8687],[111.3339,-6.8719],[111.3384,-6.8732],[111.3386,-6.8755],[111.3424,-6.8776],[111.3411,-6.8804],[111.3413,-6.8912],[111.3466,-6.8969],[111.3422,-6.9035],[111.3465,-6.9069],[111.3441,-6.9092],[111.3428,-6.9187],[111.3447,-6.9226],[111.3428,-6.9281],[111.3444,-6.9339],[111.3432,-6.9371],[111.3448,-6.9384],[111.343,-6.9421],[111.3437,-6.9462],[111.3392,-6.9514],[111.3391,-6.957],[111.3423,-6.9611],[111.3421,-6.9659],[111.3371,-6.9681],[111.3354,-6.9665],[111.3316,-6.9664],[111.3309,-6.9701],[111.3293,-6.9694],[111.3279,-6.9718],[111.3244,-6.9711],[111.3228,-6.9684],[111.3193,-6.9685],[111.318,-6.9653],[111.3138,-6.9648],[111.3116,-6.9688],[111.3073,-6.971]]]}},{"type":"Feature","properties":{"name":"Jati","name_en":"Jati","admin_level":"6","osm_id":"","gid":"IDN.10.4.6_1"},"geometry":{"type":"Polygon","coordinates":[[[111.3281,-7.1695],[111.33,-7.1744],[111.3315,-7.1743],[111.3319,-7.1775],[111.3357,-7.1807],[111.3404,-7.1827],[111.3434,-7.1822],[111.3413,-7.1869],[111.3416,-7.1947],[111.3369,-7.2033],[111.3365,-7.2099],[111.3376,-7.2138],[111.3424,-7.2162],[111.3441,-7.2231],[111.3508,-7.2273],[111.3586,-7.2434],[111.356,-7.2451],[111.3554,-7.2513],[111.3532,-7.2511],[111.3543,-7.2627],[111.3517,-7.2652],[111.353,-7.2709],[111.3555,-7.2736],[111.3573,-7.2825],[111.3426,-7.2853],[111.3404,-7.2885],[111.343,-7.2889],[111.3497,-7.2986],[111.3528,-7.3136],[111.3632,-7.3178],[111.3628,-7.3314],[111.3595,-7.3307],[111.345,-7.3353],[111.346,-7.332],[111.3482,-7.3306],[111.3454,-7.3281],[111.3471,-7.3229],[111.3447,-7.3191],[111.3401,-7.3183],[111.3333,-7.3208],[111.3332,-7.3174],[111.3316,-7.3176],[111.33,-7.315],[111.3262,-7.3166],[111.3267,-7.3152],[111.3217,-7.3119],[111.3223,-7.3093],[111.3192,-7.3092],[111.3153,-7.3048],[111.3102,-7.3062],[111.3089,-7.3022],[111.3064,-7.3004],[111.3051,-7.3032],[111.3033,-7.2996],[111.3005,-7.3019],[111.297,-7.3001],[111.2958,-7.3017],[111.2957,-7.3002],[111.2937,-7.3002],[111.295,-7.2992],[111.2929,-7.2954],[111.2888,-7.2936],[111.2886,-7.2914],[111.2868,-7.2911],[111.2881,-7.2901],[111.2862,-7.2891],[111.2819,-7.2887],[111.2808,-7.2906],[111.2792,-7.288],[111.2755,-7.2898],[111.2681,-7.2896],[111.2669,-7.2877],[111.264,-7.2871],[111.2583,-7.2882],[111.2552,-7.2876],[111.2541,-7.2843],[111.2513,-7.284],[111.2486,-7.2839],[111.2482,-7.2863],[111.2442,-7.2855],[111.2414,-7.2823],[111.2399,-7.2756],[111.2353,-7.2703],[111.2307,-7.2676],[111.2292,-7.2687],[111.2237,-7.2618],[111.2239,-7.2568],[111.2218,-7.2526],[111.2176,-7.25],[111.2179,-7.2486],[111.212,-7.2473],[111.2272,-7.2439],[111.2344,-7.244],[111.2379,-7.241],[111.2366,-7.2308],[111.2394,-7.2268],[111.2424,-7.2097],[111.2443,-7.2075],[111.2434,-7.2021],[111.2467,-7.1815],[111.2451,-7.1776],[111.2468,-7.1718],[111.2429,-7.1693],[111.2414,-7.1659],[111.2407,-7.1528],[111.2484,-7.1553],[111.2545,-7.1503],[111.2606,-7.1519],[111.2715,-7.1494],[111.2756,-7.1502],[111.2764,-7.1462],[111.2802,-7.1427],[111.278,-7.1383],[111.2836,-7.133],[111.2908,-7.1304],[111.2881,-7.1222],[111.2906,-7.1151],[111.298,-7.1164],[111.3041,-7.1123],[111.3152,-7.1108],[111.3222,-7.1122],[111.3232,-7.1198],[111.3344,-7.1202],[111.3318,-7.1276],[111.3326,-7.1347],[111.3293,-7.1417],[111.3326,-7.1624],[111.3281,-7.1695]]]}},{"type":"Feature","properties":{"name":"Jepon","name_en":"Jepon","admin_level":"6","osm_id":"","gid":"IDN.10.4.7_1"},"geometry":{"type":"Polygon","coordinates":[[[111.4686,-7.0765],[111.4731,-7.0828],[111.4761,-7.084],[111.4758,-7.0869],[111.4829,-7.0984],[111.4844,-7.1037],[111.4722,-7.1084],[111.471,-7.1122],[111.4655,-7.1145],[111.4582,-7.1123],[111.4539,-7.105],[111.4468,-7.1038],[111.4389,-7.0994],[111.4361,-7.0994],[111.4286,-7.0914],[111.4066,-7.0952],[111.4031,-7.0825],[111.4038,-7.0799],[111.3993,-7.0735],[111.4043,-7.0665],[111.41,-7.0629],[111.4131,-7.056],[111.4207,-7.0471],[111.4297,-7.0408],[111.4314,-7.0415],[111.4328,-7.0318],[111.4305,-7.0304],[111.4311,-7.0273],[111.429,-7.0245],[111.4311,-7.0234],[111.4281,-7.0193],[111.4286,-7.0124],[111.4262,-7.0107],[111.425,-7.0067],[111.4287,-7.0056],[111.4318,-7.0078],[111.4338,-7.0073],[111.4375,-7.0132],[111.4401,-7.0129],[111.444,-7.0171],[111.4501,-7.0192],[111.4502,-7.0248],[111.4542,-7.0264],[111.462,-7.0206],[111.456,-7.0094],[111.4581,-6.9995],[111.449,-6.9937],[111.448,-6.9895],[111.4373,-6.982],[111.4376,-6.9798],[111.4418,-6.9766],[111.444,-6.9798],[111.444,-6.9827],[111.4481,-6.9797],[111.4478,-6.9781],[111.4494,-6.9795],[111.4508,-6.9788],[111.4524,-6.9747],[111.4459,-6.9721],[111.4487,-6.9717],[111.4487,-6.9679],[111.4423,-6.9677],[111.4453,-6.965],[111.4441,-6.9628],[111.4457,-6.9589],[111.4487,-6.9591],[111.4531,-6.9537],[111.4504,-6.9525],[111.4532,-6.9479],[111.4521,-6.9428],[111.4561,-6.9406],[111.4583,-6.9371],[111.4568,-6.9339],[111.4581,-6.9306],[111.4562,-6.9289],[111.4577,-6.9199],[111.4611,-6.9145],[111.4675,-6.915],[111.4671,-6.913],[111.4701,-6.9121],[111.4703,-6.9105],[111.4752,-6.9092],[111.4777,-6.9051],[111.4762,-6.8969],[111.4796,-6.8935],[111.4785,-6.8886],[111.4765,-6.8871],[111.4881,-6.8812],[111.4948,-6.8889],[111.4961,-6.8935],[111.4979,-6.8941],[111.4973,-6.8973],[111.4935,-6.9008],[111.4914,-6.9082],[111.4882,-6.9132],[111.482,-6.9179],[111.4805,-6.9237],[111.4782,-6.9241],[111.4744,-6.933],[111.4758,-6.9345],[111.4806,-6.9349],[111.4832,-6.9381],[111.4814,-6.9456],[111.4835,-6.9476],[111.4834,-6.9522],[111.4859,-6.9536],[111.4855,-6.9561],[111.4906,-6.9575],[111.4956,-6.9638],[111.5025,-6.964],[111.5069,-6.9667],[111.5028,-6.9714],[111.5024,-6.9766],[111.504,-6.9782],[111.503,-6.9808],[111.5044,-6.9818],[111.5046,-6.9901],[111.5087,-6.9928],[111.5046,-6.9946],[111.4995,-6.9858],[111.496,-6.9854],[111.4898,-6.993],[111.4916,-6.9974],[111.4893,-7.0009],[111.4927,-7.0124],[111.4916,-7.0175],[111.4844,-7.0224],[111.4851,-7.0251],[111.4821,-7.0269],[111.4825,-7.0347],[111.4613,-7.0398],[111.4608,-7.0427],[111.4545,-7.0505],[111.456,-7.0528],[111.4616,-7.0547],[111.4649,-7.0576],[111.4676,-7.0581],[111.4701,-7.0565],[111.4757,-7.0591],[111.4763,-7.0615],[111.4742,-7.0655],[111.4751,-7.0696],[111.4684,-7.0739],[111.4686,-7.0765]]]}},{"type":"Feature","properties":{"name":"Jiken","name_en":"Jiken","admin_level":"6","osm_id":"","gid":"IDN.10.4.8_1"},"geometry":{"type":"Polygon","coordinates":[[[111.4609,-7.0424],[111.4613,-7.0398],[111.4825,-7.0347],[111.4821,-7.0269],[111.4851,-7.0251],[111.4844,-7.0224],[111.4908,-7.0186],[111.4925,-7.0132],[111.4893,-7.001],[111.4916,-6.9976],[111.4898,-6.993],[111.4975,-6.9848],[111.4998,-6.9862],[111.5046,-6.9946],[111.5085,-6.993],[111.5046,-6.9901],[111.5028,-6.9714],[111.5069,-6.9667],[111.5193,-6.9616],[111.5208,-6.9474],[111.5219,-6.9469],[111.532,-6.9453],[111.536,-6.9525],[111.5387,-6.951],[111.54,-6.9536],[111.5425,-6.954],[111.5482,-6.9536],[111.5485,-6.9514],[111.5512,-6.9516],[111.5523,-6.9499],[111.5577,-6.9501],[111.5595,-6.9476],[111.5716,-6.9454],[111.5701,-6.9467],[111.5706,-6.949],[111.5749,-6.9552],[111.5867,-6.9616],[111.5897,-6.9649],[111.5902,-6.9635],[111.5938,-6.9643],[111.5943,-6.9659],[111.6047,-6.967],[111.6095,-6.9716],[111.6108,-6.975],[111.6224,-6.983],[111.6234,-6.9875],[111.6217,-6.9865],[111.6221,-6.9892],[111.6177,-6.9932],[111.615,-7.0024],[111.6154,-7.0072],[111.613,-7.0107],[111.6152,-7.0169],[111.6133,-7.0246],[111.616,-7.0322],[111.6134,-7.0352],[111.6141,-7.0375],[111.6163,-7.0375],[111.6165,-7.0408],[111.6186,-7.0401],[111.6173,-7.0431],[111.6194,-7.0468],[111.6173,-7.0472],[111.618,-7.0501],[111.6223,-7.0507],[111.6193,-7.0521],[111.6082,-7.0468],[111.5957,-7.049],[111.5889,-7.0527],[111.5835,-7.0504],[111.5797,-7.0541],[111.5744,-7.0557],[111.5701,-7.0557],[111.5623,-7.0527],[111.5476,-7.0605],[111.5328,-7.0634],[111.5301,-7.0661],[111.5243,-7.0682],[111.5116,-7.0645],[111.5102,-7.0667],[111.5053,-7.067],[111.5014,-7.0634],[111.4784,-7.0656],[111.4746,-7.0652],[111.4763,-7.0615],[111.4755,-7.059],[111.4701,-7.0565],[111.4676,-7.0581],[111.4649,-7.0576],[111.4545,-7.0515],[111.4609,-7.0424]]]}},{"type":"Feature","properties":{"name":"Kedungtuban","name_en":"Kedungtuban","admin_level":"6","osm_id":"","gid":"IDN.10.4.9_1"},"geometry":{"type":"Polygon","coordinates":[[[111.5274,-7.192],[111.536,-7.1977],[111.5344,-7.2039],[111.5316,-7.2043],[111.5315,-7.2073],[111.5386,-7.2088],[111.5371,-7.2123],[111.539,-7.2128],[111.5392,-7.2147],[111.5367,-7.2158],[111.5368,-7.2183],[111.5432,-7.2242],[111.5423,-7.2272],[111.5281,-7.2273],[111.5224,-7.2372],[111.5125,-7.2397],[111.5013,-7.2339],[111.4933,-7.2366],[111.4708,-7.2324],[111.4724,-7.2292],[111.4751,-7.2302],[111.4823,-7.2256],[111.4866,-7.2125],[111.4706,-7.2088],[111.4702,-7.1978],[111.4661,-7.1823],[111.4666,-7.1772],[111.4701,-7.1745],[111.4702,-7.1711],[111.4671,-7.1662],[111.4671,-7.1617],[111.454,-7.1449],[111.4548,-7.1418],[111.4626,-7.135],[111.4639,-7.1308],[111.4634,-7.1298],[111.4582,-7.1324],[111.4531,-7.1322],[111.4509,-7.1289],[111.4514,-7.1269],[111.4573,-7.1225],[111.4608,-7.1141],[111.467,-7.1143],[111.471,-7.1122],[111.4722,-7.1084],[111.4819,-7.1054],[111.4882,-7.1006],[111.5002,-7.0995],[111.5004,-7.1022],[111.5041,-7.1049],[111.5145,-7.1044],[111.5149,-7.1063],[111.5135,-7.1065],[111.5165,-7.1119],[111.5154,-7.1192],[111.5183,-7.1236],[111.5271,-7.1221],[111.5322,-7.1265],[111.5359,-7.1262],[111.5369,-7.1279],[111.5425,-7.1291],[111.5437,-7.1316],[111.5413,-7.1385],[111.5434,-7.1389],[111.5417,-7.1416],[111.5431,-7.1498],[111.5419,-7.1574],[111.5443,-7.1614],[111.5484,-7.1634],[111.547,-7.1671],[111.5493,-7.1713],[111.5435,-7.1761],[111.5414,-7.1749],[111.5385,-7.1779],[111.5296,-7.1805],[111.5274,-7.192]]]}},{"type":"Feature","properties":{"name":"Kradenan","name_en":"Kradenan","admin_level":"6","osm_id":"","gid":"IDN.10.4.10_1"},"geometry":{"type":"Polygon","coordinates":[[[111.4253,-7.3122],[111.4401,-7.3155],[111.4474,-7.3135],[111.4573,-7.3212],[111.4574,-7.3245],[111.45,-7.3299],[111.4462,-7.3374],[111.4508,-7.3405],[111.4602,-7.3409],[111.4625,-7.3431],[111.4625,-7.3458],[111.4593,-7.3466],[111.4536,-7.3433],[111.4498,-7.3432],[111.4431,-7.3477],[111.4419,-7.3518],[111.445,-7.3612],[111.4469,-7.3607],[111.4501,-7.3552],[111.4555,-7.3521],[111.46,-7.3536],[111.4622,-7.3571],[111.4623,-7.3614],[111.4566,-7.3691],[111.4637,-7.3715],[111.4631,-7.3745],[111.4525,-7.3748],[111.4505,-7.3712],[111.4473,-7.372],[111.4395,-7.3697],[111.4361,-7.3662],[111.4314,-7.3643],[111.4264,-7.3561],[111.4173,-7.3523],[111.4163,-7.3488],[111.4121,-7.3477],[111.4089,-7.3495],[111.4036,-7.3478],[111.4004,-7.3494],[111.3949,-7.3463],[111.3861,-7.3447],[111.3824,-7.3466],[111.3728,-7.3438],[111.3687,-7.3407],[111.3675,-7.3348],[111.3628,-7.3314],[111.362,-7.3243],[111.3635,-7.317],[111.3673,-7.3158],[111.3687,-7.3096],[111.3772,-7.3014],[111.3834,-7.3001],[111.3867,-7.2957],[111.388,-7.29],[111.3914,-7.2892],[111.4016,-7.2954],[111.4049,-7.2947],[111.4086,-7.2834],[111.4104,-7.2802],[111.412,-7.2803],[111.4118,-7.277],[111.4146,-7.2772],[111.4154,-7.273],[111.41,-7.2587],[111.4139,-7.2565],[111.4175,-7.2565],[111.4205,-7.253],[111.4188,-7.25],[111.4179,-7.2366],[111.4227,-7.2318],[111.4275,-7.2212],[111.4262,-7.2189],[111.4289,-7.2136],[111.4323,-7.2125],[111.4324,-7.2101],[111.436,-7.2099],[111.4362,-7.2087],[111.4421,-7.2108],[111.444,-7.2054],[111.4406,-7.2035],[111.4407,-7.2014],[111.4501,-7.19],[111.4693,-7.1933],[111.4706,-7.2088],[111.4866,-7.2125],[111.4823,-7.2256],[111.4751,-7.2302],[111.4724,-7.2292],[111.4708,-7.2324],[111.4933,-7.2366],[111.5013,-7.2339],[111.5125,-7.2397],[111.5012,-7.2486],[111.4878,-7.2431],[111.4859,-7.2464],[111.4857,-7.252],[111.491,-7.2582],[111.4884,-7.2611],[111.4772,-7.252],[111.474,-7.2541],[111.4691,-7.2623],[111.4655,-7.2633],[111.4601,-7.2618],[111.4556,-7.2581],[111.4564,-7.2497],[111.4517,-7.2482],[111.4514,-7.2742],[111.4474,-7.2756],[111.4425,-7.2674],[111.4385,-7.269],[111.4391,-7.2738],[111.4444,-7.2786],[111.4423,-7.2835],[111.4422,-7.2888],[111.4376,-7.293],[111.4301,-7.3044],[111.4241,-7.3079],[111.4253,-7.3122]]]}},{"type":"Feature","properties":{"name":"Kunduran","name_en":"Kunduran","admin_level":"6","osm_id":"","gid":"IDN.10.4.11_1"},"geometry":{"type":"Polygon","coordinates":[[[111.2765,-7.1464],[111.2756,-7.1502],[111.2715,-7.1494],[111.2606,-7.1519],[111.2545,-7.1503],[111.249,-7.1552],[111.2407,-7.1528],[111.2405,-7.1385],[111.2379,-7.1379],[111.2347,-7.1314],[111.232,-7.1198],[111.2234,-7.1036],[111.2211,-7.0853],[111.2138,-7.0771],[111.2156,-7.0763],[111.2174,-7.0702],[111.2153,-7.0639],[111.2157,-7.0571],[111.2177,-7.0554],[111.2188,-7.0502],[111.2167,-7.0462],[111.218,-7.0305],[111.2132,-7.0209],[111.2099,-7.0196],[111.2068,-7.0213],[111.2002,-7.0156],[111.1991,-7.0123],[111.2012,-7.0089],[111.1988,-7.0019],[111.2006,-6.9957],[111.2138,-6.9962],[111.216,-6.9949],[111.2197,-6.9961],[111.2268,-6.9916],[111.2292,-6.9871],[111.233,-6.9872],[111.2424,-6.9938],[111.247,-6.9933],[111.2605,-6.9994],[111.2637,-6.9996],[111.2666,-6.9963],[111.2741,-6.9986],[111.2766,-7.0002],[111.2751,-7.0044],[111.2764,-7.007],[111.2864,-7.0099],[111.2888,-7.0124],[111.2887,-7.0178],[111.2858,-7.0211],[111.2871,-7.0266],[111.2923,-7.0298],[111.2928,-7.0343],[111.2901,-7.0338],[111.2889,-7.0368],[111.2856,-7.0386],[111.2855,-7.0407],[111.2815,-7.0427],[111.2801,-7.0482],[111.2767,-7.0485],[111.2764,-7.0514],[111.2786,-7.0514],[111.2796,-7.0567],[111.2823,-7.0586],[111.2803,-7.063],[111.2832,-7.0667],[111.2808,-7.0704],[111.2783,-7.0705],[111.2788,-7.0743],[111.2759,-7.0728],[111.2733,-7.0743],[111.2779,-7.0767],[111.2788,-7.0811],[111.2775,-7.0866],[111.2848,-7.0885],[111.2844,-7.0925],[111.2894,-7.0964],[111.2888,-7.0998],[111.2903,-7.0953],[111.2919,-7.0946],[111.294,-7.098],[111.2957,-7.0978],[111.2944,-7.1034],[111.2963,-7.1029],[111.2955,-7.1015],[111.2971,-7.0991],[111.2989,-7.1021],[111.3008,-7.1019],[111.3049,-7.1055],[111.3125,-7.106],[111.3152,-7.1108],[111.3041,-7.1123],[111.298,-7.1164],[111.2906,-7.1151],[111.2881,-7.1222],[111.2908,-7.1304],[111.2836,-7.133],[111.2787,-7.1374],[111.2802,-7.1427],[111.2765,-7.1464]]]}},{"type":"Feature","properties":{"name":"Ngawen","name_en":"Ngawen","admin_level":"6","osm_id":"","gid":"IDN.10.4.12_1"},"geometry":{"type":"Polygon","coordinates":[[[111.3348,-7.0985],[111.3395,-7.1107],[111.3329,-7.1089],[111.3187,-7.1124],[111.3139,-7.1099],[111.3125,-7.106],[111.3049,-7.1055],[111.3008,-7.1019],[111.2989,-7.1021],[111.2971,-7.0991],[111.2955,-7.1015],[111.2963,-7.1029],[111.2944,-7.1034],[111.2957,-7.0978],[111.294,-7.098],[111.2913,-7.0946],[111.2888,-7.0998],[111.2894,-7.0964],[111.2844,-7.0925],[111.2848,-7.0885],[111.2775,-7.0866],[111.2788,-7.0811],[111.2779,-7.0767],[111.2733,-7.074],[111.2759,-7.0728],[111.2788,-7.0743],[111.2783,-7.0705],[111.2808,-7.0704],[111.2832,-7.0667],[111.2803,-7.063],[111.2823,-7.0586],[111.2796,-7.0567],[111.2786,-7.0514],[111.2764,-7.0514],[111.2767,-7.0485],[111.2801,-7.0482],[111.2815,-7.0427],[111.2855,-7.0407],[111.2856,-7.0386],[111.2889,-7.0368],[111.2901,-7.0338],[111.2928,-7.0343],[111.2923,-7.0298],[111.2871,-7.0266],[111.2858,-7.0211],[111.2887,-7.0178],[111.2888,-7.0124],[111.2864,-7.0099],[111.2764,-7.007],[111.2751,-7.0044],[111.2766,-7.0002],[111.2741,-6.9986],[111.2666,-6.9963],[111.2637,-6.9996],[111.2605,-6.9994],[111.247,-6.9933],[111.2429,-6.994],[111.2333,-6.9873],[111.2281,-6.9864],[111.2268,-6.9796],[111.2295,-6.97],[111.2328,-6.965],[111.2324,-6.9557],[111.2359,-6.9542],[111.25,-6.9596],[111.2536,-6.9629],[111.2572,-6.9627],[111.2571,-6.9601],[111.2607,-6.9582],[111.2678,-6.9585],[111.2698,-6.961],[111.2645,-6.9654],[111.265,-6.9709],[111.2673,-6.9711],[111.2688,-6.9743],[111.2676,-6.9785],[111.2645,-6.9811],[111.2733,-6.9818],[111.2757,-6.9834],[111.2851,-6.9822],[111.2876,-6.9846],[111.2943,-6.9866],[111.296,-6.9895],[111.3002,-6.9879],[111.3015,-6.9855],[111.2996,-6.9843],[111.3,-6.9827],[111.3058,-6.9822],[111.3066,-6.98],[111.3087,-6.9833],[111.3111,-6.983],[111.3093,-6.9765],[111.3078,-6.9763],[111.3072,-6.9706],[111.3116,-6.9688],[111.3138,-6.9648],[111.318,-6.9653],[111.3193,-6.9685],[111.3228,-6.9684],[111.3244,-6.9711],[111.3279,-6.9718],[111.3293,-6.9694],[111.3309,-6.9701],[111.3316,-6.9664],[111.3354,-6.9665],[111.3371,-6.9681],[111.3404,-6.9752],[111.3369,-6.993],[111.3392,-6.9944],[111.343,-6.9934],[111.3472,-6.9946],[111.3442,-7.0],[111.3383,-7.0037],[111.3352,-7.0258],[111.3368,-7.0289],[111.3349,-7.0465],[111.3362,-7.0488],[111.3366,-7.0585],[111.3351,-7.0653],[111.3361,-7.0717],[111.3286,-7.0786],[111.3308,-7.0819],[111.3307,-7.086],[111.3273,-7.0932],[111.3348,-7.0985]]]}},{"type":"Feature","properties":{"name":"Randublatung","name_en":"Randublatung","admin_level":"6","osm_id":"","gid":"IDN.10.4.13_1"},"geometry":{"type":"Polygon","coordinates":[[[111.3573,-7.2814],[111.3517,-7.2652],[111.3543,-7.2627],[111.3532,-7.2511],[111.3554,-7.2513],[111.356,-7.2451],[111.3586,-7.2434],[111.3508,-7.2273],[111.3441,-7.2231],[111.3424,-7.2162],[111.3376,-7.2138],[111.3362,-7.2081],[111.3374,-7.2018],[111.3416,-7.1947],[111.3413,-7.1869],[111.3434,-7.1822],[111.3404,-7.1827],[111.3357,-7.1807],[111.3319,-7.1775],[111.3315,-7.1743],[111.33,-7.1744],[111.3281,-7.1698],[111.3326,-7.1624],[111.3293,-7.1417],[111.3326,-7.1347],[111.3318,-7.1276],[111.3344,-7.1202],[111.3229,-7.1196],[111.3222,-7.1122],[111.3329,-7.1089],[111.3553,-7.114],[111.3577,-7.116],[111.3567,-7.1189],[111.3604,-7.1195],[111.3641,-7.1152],[111.3686,-7.1052],[111.3787,-7.1065],[111.3835,-7.1028],[111.3892,-7.1046],[111.3933,-7.1161],[111.3937,-7.1143],[111.4013,-7.1111],[111.4025,-7.105],[111.4012,-7.1006],[111.4031,-7.0972],[111.4111,-7.0937],[111.4286,-7.0914],[111.4361,-7.0994],[111.4552,-7.1058],[111.4577,-7.1117],[111.4608,-7.1141],[111.4573,-7.1225],[111.4514,-7.1269],[111.4509,-7.1289],[111.4531,-7.1322],[111.4582,-7.1324],[111.4634,-7.1298],[111.4639,-7.1308],[111.4626,-7.135],[111.4548,-7.1418],[111.454,-7.1449],[111.4671,-7.1617],[111.4671,-7.1662],[111.4702,-7.1711],[111.4701,-7.1745],[111.4666,-7.1772],[111.4661,-7.1811],[111.4688,-7.1933],[111.4501,-7.19],[111.4407,-7.2014],[111.4406,-7.2035],[111.444,-7.2054],[111.4423,-7.2106],[111.4362,-7.2087],[111.436,-7.2099],[111.4324,-7.2101],[111.4323,-7.2125],[111.4299,-7.2127],[111.4273,-7.2159],[111.4268,-7.2231],[111.4224,-7.2322],[111.4179,-7.2366],[111.4188,-7.25],[111.4205,-7.253],[111.4175,-7.2565],[111.4139,-7.2565],[111.41,-7.2587],[111.41,-7.2609],[111.4125,-7.2629],[111.4144,-7.2681],[111.4146,-7.2772],[111.4118,-7.2771],[111.4121,-7.2802],[111.4104,-7.2802],[111.4086,-7.2834],[111.4042,-7.2953],[111.4014,-7.2953],[111.3914,-7.2892],[111.388,-7.29],[111.3867,-7.2957],[111.3834,-7.3001],[111.3776,-7.3011],[111.3736,-7.3046],[111.3686,-7.3099],[111.3668,-7.3164],[111.364,-7.3164],[111.3632,-7.3178],[111.3559,-7.3158],[111.3519,-7.3118],[111.3497,-7.2986],[111.3473,-7.2937],[111.343,-7.2889],[111.3404,-7.2885],[111.3426,-7.2853],[111.3568,-7.2826],[111.3573,-7.2814]]]}},{"type":"Feature","properties":{"name":"Sambong","name_en":"Sambong","admin_level":"6","osm_id":"","gid":"IDN.10.4.14_1"},"geometry":{"type":"Polygon","coordinates":[[[111.5968,-7.1214],[111.5959,-7.1207],[111.59,-7.1281],[111.5779,-7.1278],[111.5778,-7.1311],[111.5757,-7.1296],[111.5704,-7.1309],[111.568,-7.1372],[111.5652,-7.1364],[111.5643,-7.1339],[111.5603,-7.1314],[111.5437,-7.1316],[111.5422,-7.1288],[111.5369,-7.1279],[111.5359,-7.1262],[111.5322,-7.1265],[111.5271,-7.1221],[111.5183,-7.1236],[111.5154,-7.1192],[111.5165,-7.1119],[111.5135,-7.1065],[111.5149,-7.1063],[111.5145,-7.1044],[111.5041,-7.1049],[111.5004,-7.1022],[111.5004,-7.0996],[111.4977,-7.0991],[111.4882,-7.1006],[111.4844,-7.1037],[111.4829,-7.0984],[111.4758,-7.0869],[111.4761,-7.084],[111.4731,-7.0828],[111.4679,-7.075],[111.4751,-7.0696],[111.4746,-7.0652],[111.4823,-7.0658],[111.4872,-7.0638],[111.5014,-7.0634],[111.5053,-7.067],[111.5102,-7.0667],[111.5116,-7.0645],[111.5243,-7.0682],[111.5301,-7.0661],[111.5328,-7.0634],[111.5476,-7.0605],[111.5623,-7.0527],[111.5701,-7.0557],[111.5744,-7.0557],[111.5797,-7.0541],[111.5835,-7.0504],[111.5889,-7.0527],[111.5957,-7.049],[111.6082,-7.0468],[111.6189,-7.0521],[111.6223,-7.0507],[111.6217,-7.0534],[111.6253,-7.0529],[111.6259,-7.0548],[111.6275,-7.0539],[111.6275,-7.0554],[111.6249,-7.0561],[111.625,-7.0593],[111.6299,-7.0594],[111.628,-7.0621],[111.6284,-7.0669],[111.6256,-7.0709],[111.6282,-7.0754],[111.6258,-7.0728],[111.6246,-7.0755],[111.624,-7.0739],[111.6216,-7.0755],[111.6213,-7.074],[111.6187,-7.0736],[111.6144,-7.0786],[111.6163,-7.0823],[111.613,-7.0819],[111.6125,-7.0836],[111.6143,-7.085],[111.6129,-7.0873],[111.615,-7.0908],[111.6148,-7.0961],[111.6168,-7.0976],[111.6138,-7.0989],[111.618,-7.1068],[111.6218,-7.1086],[111.6203,-7.1103],[111.6133,-7.1107],[111.6124,-7.1147],[111.6153,-7.1167],[111.6128,-7.1203],[111.613,-7.1232],[111.611,-7.1211],[111.6018,-7.1196],[111.5968,-7.1214]]]}},{"type":"Feature","properties":{"name":"Todanan","name_en":"Todanan","admin_level":"6","osm_id":"","gid":"IDN.10.4.15_1"},"geometry":{"type":"Polygon","coordinates":[[[111.1586,-6.9818],[111.1548,-6.9836],[111.1472,-6.9807],[111.141,-6.9814],[111.1322,-6.9772],[111.1211,-6.9766],[111.1139,-6.979],[111.1113,-6.978],[111.1065,-6.9621],[111.1099,-6.9536],[111.1106,-6.9449],[111.1131,-6.9403],[111.113,-6.9235],[111.1154,-6.9159],[111.1203,-6.913],[111.125,-6.9135],[111.1325,-6.9204],[111.1381,-6.9208],[111.142,-6.9164],[111.1438,-6.9108],[111.1403,-6.9034],[111.1418,-6.9011],[111.1499,-6.9059],[111.1525,-6.9101],[111.1767,-6.9054],[111.1833,-6.8986],[111.1869,-6.8988],[111.1869,-6.8967],[111.1902,-6.8985],[111.1983,-6.8983],[111.2012,-6.894],[111.2008,-6.8892],[111.2033,-6.88],[111.2087,-6.8749],[111.2082,-6.8721],[111.2112,-6.8713],[111.212,-6.8693],[111.2151,-6.8705],[111.2167,-6.8731],[111.2219,-6.8715],[111.2238,-6.8635],[111.2222,-6.8562],[111.224,-6.855],[111.223,-6.8475],[111.2256,-6.8463],[111.2293,-6.8494],[111.2388,-6.8506],[111.2399,-6.8584],[111.242,-6.8596],[111.2435,-6.8649],[111.244,-6.8757],[111.2421,-6.8778],[111.2437,-6.8792],[111.2431,-6.8821],[111.2504,-6.8943],[111.2562,-6.8985],[111.2537,-6.9049],[111.2574,-6.913],[111.2543,-6.9222],[111.2502,-6.9225],[111.246,-6.9262],[111.2399,-6.9257],[111.2372,-6.9298],[111.2371,-6.9348],[111.2359,-6.9342],[111.2324,-6.9437],[111.2341,-6.9464],[111.2345,-6.954],[111.2321,-6.9563],[111.2328,-6.965],[111.2295,-6.97],[111.2268,-6.9796],[111.2292,-6.9871],[111.2271,-6.9913],[111.2197,-6.9961],[111.216,-6.9949],[111.2138,-6.9962],[111.2005,-6.9958],[111.1988,-7.0019],[111.2012,-7.0089],[111.1991,-7.0123],[111.1968,-7.0067],[111.1918,-7.0043],[111.188,-6.9979],[111.1737,-6.9911],[111.1714,-6.9855],[111.1681,-6.9829],[111.1611,-6.9808],[111.1586,-6.9818]]]}},{"type":"Feature","properties":{"name":"Tunjungan","name_en":"Tunjungan","admin_level":"6","osm_id":"","gid":"IDN.10.4.16_1"},"geometry":{"type":"Polygon","coordinates":[[[111.3664,-6.99],[111.3616,-6.9931],[111.3582,-6.9914],[111.3524,-6.9925],[111.3486,-6.991],[111.3472,-6.9946],[111.343,-6.9934],[111.3392,-6.9944],[111.3369,-6.993],[111.3404,-6.9752],[111.3369,-6.9686],[111.3392,-6.9662],[111.3421,-6.9659],[111.3423,-6.9611],[111.3391,-6.957],[111.3392,-6.9514],[111.3437,-6.9462],[111.343,-6.9421],[111.3448,-6.9384],[111.3432,-6.9371],[111.3444,-6.9339],[111.3428,-6.9281],[111.3447,-6.9226],[111.3428,-6.9187],[111.3441,-6.9092],[111.3465,-6.9069],[111.3422,-6.9035],[111.3466,-6.8969],[111.3414,-6.8914],[111.3412,-6.8807],[111.3459,-6.883],[111.3479,-6.886],[111.3565,-6.8847],[111.3599,-6.8864],[111.3639,-6.8846],[111.3769,-6.8913],[111.3824,-6.8902],[111.3851,-6.8922],[111.3897,-6.8927],[111.3997,-6.8912],[111.4023,-6.8877],[111.4052,-6.8873],[111.4052,-6.8848],[111.4083,-6.8859],[111.4129,-6.8824],[111.4142,-6.8844],[111.4137,-6.8901],[111.417,-6.8903],[111.4232,-6.8941],[111.4304,-6.8917],[111.4306,-6.8946],[111.4348,-6.8989],[111.434,-6.9023],[111.436,-6.9046],[111.4375,-6.9163],[111.4398,-6.917],[111.4401,-6.9235],[111.4385,-6.9238],[111.4368,-6.9284],[111.4348,-6.9278],[111.4307,-6.9315],[111.4137,-6.9225],[111.4096,-6.9228],[111.4082,-6.936],[111.415,-6.945],[111.4143,-6.952],[111.412,-6.9522],[111.4101,-6.9549],[111.411,-6.9518],[111.4085,-6.9514],[111.4075,-6.9483],[111.4073,-6.9433],[111.409,-6.941],[111.408,-6.9375],[111.3994,-6.9344],[111.3979,-6.939],[111.4016,-6.9401],[111.4009,-6.9458],[111.3987,-6.9532],[111.3943,-6.9535],[111.3967,-6.956],[111.3946,-6.958],[111.3972,-6.9707],[111.3958,-6.9775],[111.3975,-6.9794],[111.3986,-6.9783],[111.4006,-6.9797],[111.4004,-6.9818],[111.389,-6.9844],[111.3878,-6.9873],[111.383,-6.9901],[111.3808,-6.9895],[111.3809,-6.9845],[111.3699,-6.9848],[111.3664,-6.99]]]}}]}