{"type":"FeatureCollection","metadata":{"parent_osm_id":"gid_IDN.18.3_1","parent_name":"HalmaheraTengah","parent_name_1":"MalukuUtara","parent_gid":"IDN.18.3_1","parent_level":"5","child_level":"6","count":8,"source":"GADM 4.1","generated":"2026-05-05"},"features":[{"type":"Feature","properties":{"name":"Patani","name_en":"Patani","admin_level":"6","osm_id":""},"geometry":{"type":"Polygon","coordinates":[[[128.7846,0.2932],[128.8,0.2908],[128.8018,0.2938],[128.82,0.298],[128.836,0.2926],[128.8484,0.2839],[128.8587,0.275],[128.8654,0.2651],[128.869,0.2495],[128.8683,0.2408],[128.8757,0.2278],[128.8941,0.2166],[128.9034,0.2074],[128.8931,0.2114],[128.8867,0.2108],[128.8771,0.2199],[128.8653,0.2235],[128.8529,0.2387],[128.8522,0.2436],[128.8494,0.2466],[128.8511,0.2512],[128.8457,0.26],[128.8432,0.2613],[128.842,0.261],[128.8427,0.2593],[128.8289,0.2589],[128.8245,0.2619],[128.8152,0.2639],[128.8072,0.268],[128.8013,0.2679],[128.7891,0.2728],[128.7846,0.2726],[128.7755,0.2769],[128.7697,0.2767],[128.7548,0.282],[128.7452,0.2812],[128.7307,0.2827],[128.7199,0.2864],[128.7134,0.2918],[128.6967,0.2971],[128.6752,0.2952],[128.6632,0.3014],[128.6567,0.3008],[128.6538,0.3035],[128.6523,0.3031],[128.6563,0.3225],[128.6672,0.3217],[128.6783,0.3161],[128.6888,0.3167],[128.7096,0.3099],[128.7281,0.3068],[128.7379,0.3013],[128.7508,0.2982],[128.76,0.2988],[128.7846,0.2932]]]}},{"type":"Feature","properties":{"name":"PataniBarat","name_en":"PataniBarat","admin_level":"6","osm_id":""},"geometry":{"type":"Polygon","coordinates":[[[128.6513,0.3248],[128.6563,0.3225],[128.652,0.3026],[128.6478,0.3074],[128.6397,0.3108],[128.6288,0.3136],[128.6235,0.3131],[128.6191,0.3157],[128.6113,0.3171],[128.6039,0.3172],[128.5985,0.3196],[128.5841,0.3183],[128.5683,0.3197],[128.5591,0.3178],[128.5529,0.327],[128.5443,0.3296],[128.5341,0.3403],[128.5302,0.3392],[128.5275,0.3419],[128.5158,0.3435],[128.5126,0.3479],[128.5075,0.3503],[128.5067,0.354],[128.5011,0.3544],[128.4998,0.3574],[128.5007,0.3627],[128.4986,0.3617],[128.4982,0.363],[128.5012,0.3646],[128.4987,0.3644],[128.4982,0.3662],[128.5005,0.369],[128.4963,0.3685],[128.4928,0.3731],[128.4937,0.3759],[128.4916,0.3753],[128.4918,0.3774],[128.4869,0.3788],[128.4852,0.3833],[128.4867,0.3867],[128.4847,0.3906],[128.4818,0.3908],[128.4784,0.3943],[128.4732,0.3913],[128.4709,0.3931],[128.4682,0.392],[128.4659,0.3953],[128.463,0.3953],[128.4632,0.3981],[128.458,0.4004],[128.4606,0.4019],[128.4595,0.4025],[128.4809,0.4903],[128.4837,0.4898],[128.485,0.4864],[128.4893,0.4842],[128.4877,0.479],[128.4888,0.4723],[128.4959,0.4781],[128.4966,0.4815],[128.5009,0.4802],[128.5043,0.4771],[128.5015,0.4691],[128.5031,0.4623],[128.5023,0.4552],[128.5046,0.4517],[128.5085,0.4503],[128.5097,0.4429],[128.514,0.4426],[128.5199,0.4396],[128.5236,0.4404],[128.524,0.4378],[128.5332,0.432],[128.5391,0.4316],[128.5444,0.4218],[128.5482,0.4235],[128.5534,0.4208],[128.5589,0.4222],[128.562,0.4159],[128.5665,0.4185],[128.572,0.4186],[128.5789,0.424],[128.5787,0.4274],[128.5807,0.4301],[128.5798,0.4331],[128.5812,0.4345],[128.5848,0.4338],[128.5924,0.4381],[128.596,0.4389],[128.5974,0.4368],[128.6071,0.4398],[128.6076,0.438],[128.5959,0.4232],[128.5959,0.3792],[128.6027,0.365],[128.6174,0.3495],[128.6359,0.3415],[128.6427,0.3254],[128.6513,0.3248]]]}},{"type":"Feature","properties":{"name":"PataniUtara","name_en":"PataniUtara","admin_level":"6","osm_id":""},"geometry":{"type":"Polygon","coordinates":[[[128.7343,0.3033],[128.7281,0.3068],[128.7096,0.3099],[128.6888,0.3167],[128.6783,0.3161],[128.6672,0.3217],[128.658,0.3217],[128.6513,0.3248],[128.6427,0.3254],[128.6359,0.3415],[128.6174,0.3495],[128.6027,0.365],[128.5959,0.3792],[128.5959,0.4232],[128.6076,0.438],[128.6071,0.4398],[128.6184,0.4416],[128.6233,0.4469],[128.6236,0.4494],[128.6212,0.451],[128.619,0.457],[128.6184,0.4685],[128.6242,0.4764],[128.6284,0.4787],[128.6261,0.4855],[128.6337,0.4864],[128.6337,0.4895],[128.6388,0.4925],[128.6413,0.5081],[128.6477,0.5141],[128.6507,0.5142],[128.6571,0.51],[128.668,0.506],[128.672,0.5071],[128.6756,0.5112],[128.6775,0.5099],[128.6792,0.506],[128.6773,0.5012],[128.6711,0.4955],[128.6689,0.4962],[128.6702,0.4922],[128.6684,0.4907],[128.6805,0.4767],[128.6879,0.4563],[128.6884,0.4427],[128.6876,0.44],[128.6853,0.4397],[128.6821,0.4311],[128.6857,0.4185],[128.6865,0.4128],[128.6849,0.4109],[128.6868,0.4036],[128.6798,0.3928],[128.6797,0.3874],[128.6765,0.3769],[128.6699,0.365],[128.6661,0.3611],[128.6689,0.3475],[128.6727,0.3416],[128.6783,0.3363],[128.6834,0.3343],[128.6846,0.3318],[128.6885,0.3323],[128.6936,0.3296],[128.7036,0.3294],[128.7059,0.3276],[128.7139,0.3329],[128.7294,0.3259],[128.7412,0.3238],[128.7474,0.3188],[128.7506,0.3193],[128.7572,0.3167],[128.7599,0.3178],[128.763,0.316],[128.7682,0.3188],[128.7792,0.3184],[128.7894,0.3141],[128.7942,0.3142],[128.802,0.3108],[128.805,0.3072],[128.8113,0.3049],[128.8118,0.3026],[128.8161,0.3013],[128.82,0.298],[128.8018,0.2938],[128.8,0.2908],[128.76,0.2988],[128.7508,0.2982],[128.7343,0.3033]]]}},{"type":"Feature","properties":{"name":"PulauGebe","name_en":"PulauGebe","admin_level":"6","osm_id":""},"geometry":{"type":"Polygon","coordinates":[[[129.5599,-0.1523],[129.5733,-0.1794],[129.5754,-0.199],[129.5729,-0.2002],[129.5643,-0.1972],[129.5617,-0.1981],[129.5598,-0.202],[129.5606,-0.206],[129.5637,-0.2097],[129.5634,-0.2125],[129.5577,-0.2091],[129.5475,-0.1992],[129.5508,-0.2101],[129.5468,-0.2144],[129.5369,-0.2135],[129.5311,-0.2068],[129.521,-0.1996],[129.5195,-0.1859],[129.513,-0.1843],[129.5077,-0.1763],[129.5091,-0.172],[129.5128,-0.1692],[129.512,-0.1659],[129.516,-0.1623],[129.5078,-0.1609],[129.5027,-0.158],[129.4989,-0.1549],[129.4998,-0.1539],[129.4973,-0.1502],[129.4933,-0.1499],[129.4881,-0.1471],[129.4856,-0.1419],[129.4805,-0.1404],[129.4763,-0.1432],[129.4695,-0.1395],[129.4739,-0.1279],[129.4779,-0.1241],[129.4794,-0.1256],[129.4798,-0.1245],[129.4734,-0.1101],[129.4616,-0.0979],[129.4603,-0.0937],[129.4613,-0.0923],[129.4567,-0.0891],[129.4546,-0.0922],[129.4407,-0.0883],[129.4397,-0.0863],[129.4385,-0.0873],[129.4328,-0.0836],[129.4264,-0.0758],[129.4145,-0.0713],[129.4022,-0.0707],[129.4016,-0.0721],[129.398,-0.0719],[129.3924,-0.0746],[129.3831,-0.0729],[129.3818,-0.0715],[129.3822,-0.0662],[129.3879,-0.0606],[129.382,-0.0524],[129.3849,-0.0419],[129.3811,-0.0363],[129.3818,-0.0306],[129.3747,-0.0202],[129.3727,-0.0196],[129.3627,-0.0032],[129.3598,-0.0024],[129.36,-0.0037],[129.3541,0.0025],[129.3475,0.0055],[129.3415,0.0143],[129.3298,0.0228],[129.3111,0.0259],[129.297,0.0312],[129.2903,0.0284],[129.2878,0.0298],[129.2793,0.0429],[129.28,0.0482],[129.2867,0.051],[129.3139,0.0355],[129.3379,0.0256],[129.3552,0.0122],[129.4014,-0.0132],[129.4128,-0.0249],[129.434,-0.0537],[129.4601,-0.0672],[129.4661,-0.0743],[129.4696,-0.0827],[129.4729,-0.0867],[129.5054,-0.101],[129.512,-0.1079],[129.5325,-0.1189],[129.5352,-0.1229],[129.5466,-0.1296],[129.5599,-0.1523]]]}},{"type":"Feature","properties":{"name":"Weda","name_en":"Weda","admin_level":"6","osm_id":""},"geometry":{"type":"Polygon","coordinates":[[[127.8878,0.2705],[127.8705,0.2677],[127.8116,0.2696],[127.8154,0.2723],[127.8195,0.2726],[127.8173,0.2796],[127.8121,0.2843],[127.8036,0.2969],[127.802,0.301],[127.8024,0.3072],[127.7995,0.3109],[127.7986,0.3174],[127.8019,0.331],[127.8072,0.34],[127.8007,0.3619],[127.8014,0.3681],[127.8065,0.3737],[127.8034,0.3807],[127.7997,0.3816],[127.7987,0.3855],[127.7922,0.3886],[127.7902,0.3879],[127.7889,0.3905],[127.791,0.3938],[127.7901,0.3974],[127.7789,0.4081],[127.825,0.4082],[127.8917,0.4025],[127.9058,0.393],[127.9046,0.3888],[127.9034,0.3894],[127.9036,0.3856],[127.901,0.3872],[127.9018,0.3845],[127.8972,0.3868],[127.9015,0.3828],[127.8975,0.3826],[127.8961,0.3857],[127.8952,0.3845],[127.8961,0.3821],[127.9003,0.3819],[127.9021,0.3805],[127.9006,0.3795],[127.8999,0.3812],[127.8981,0.3807],[127.8994,0.3791],[127.8973,0.3772],[127.9011,0.3775],[127.9009,0.3756],[127.9021,0.3766],[127.9025,0.3747],[127.905,0.3738],[127.9053,0.3715],[127.9026,0.3708],[127.9051,0.3698],[127.9054,0.3626],[127.9034,0.3646],[127.9026,0.3617],[127.9012,0.3627],[127.9027,0.3668],[127.9004,0.3668],[127.901,0.3655],[127.8991,0.3643],[127.8982,0.3643],[127.8978,0.3657],[127.8971,0.366],[127.8966,0.3643],[127.8924,0.3684],[127.8944,0.3641],[127.892,0.3663],[127.8915,0.3651],[127.8903,0.3662],[127.8902,0.3646],[127.8925,0.3641],[127.8933,0.3617],[127.8915,0.3629],[127.8915,0.3613],[127.8903,0.3615],[127.8881,0.3634],[127.8889,0.3676],[127.8872,0.3641],[127.886,0.3653],[127.8897,0.3595],[127.8934,0.3579],[127.8924,0.3563],[127.8872,0.3585],[127.884,0.3575],[127.8823,0.3552],[127.8835,0.3489],[127.8806,0.3543],[127.8793,0.3535],[127.8814,0.3493],[127.8786,0.348],[127.8795,0.3451],[127.8825,0.3444],[127.8804,0.3411],[127.8805,0.3367],[127.8821,0.336],[127.8728,0.3175],[127.8744,0.3131],[127.8721,0.31],[127.869,0.309],[127.8721,0.3055],[127.8693,0.3041],[127.8694,0.3027],[127.8726,0.3026],[127.8746,0.299],[127.8739,0.2978],[127.871,0.3002],[127.8718,0.2977],[127.8674,0.2969],[127.8655,0.2978],[127.8647,0.3012],[127.8632,0.3005],[127.8644,0.2969],[127.8627,0.2961],[127.8726,0.2954],[127.8752,0.2887],[127.8751,0.2916],[127.8792,0.2932],[127.8758,0.2949],[127.8777,0.2998],[127.8758,0.3017],[127.8791,0.3019],[127.8805,0.3004],[127.8805,0.2945],[127.888,0.2856],[127.8967,0.2851],[127.9071,0.2814],[127.9212,0.273],[127.92,0.272],[127.9167,0.2739],[127.9168,0.2722],[127.9149,0.2715],[127.8878,0.2705]]]}},{"type":"Feature","properties":{"name":"WedaSelatan","name_en":"WedaSelatan","admin_level":"6","osm_id":""},"geometry":{"type":"Polygon","coordinates":[[[127.8741,0.1305],[127.8583,0.1342],[127.854,0.1334],[127.852,0.1361],[127.8502,0.1361],[127.8478,0.1341],[127.8442,0.1344],[127.8396,0.1283],[127.8355,0.1289],[127.8345,0.1209],[127.8268,0.1266],[127.824,0.1254],[127.8174,0.1359],[127.8179,0.1376],[127.8148,0.1448],[127.8087,0.15],[127.8005,0.1508],[127.7986,0.1475],[127.7967,0.1493],[127.7914,0.1499],[127.788,0.1532],[127.7956,0.1739],[127.7982,0.1747],[127.7986,0.1788],[127.8025,0.1832],[127.8048,0.1904],[127.8095,0.1959],[127.8219,0.2013],[127.8229,0.2049],[127.8216,0.2077],[127.8235,0.2096],[127.8169,0.2159],[127.8118,0.2238],[127.8128,0.2297],[127.8144,0.2305],[127.8013,0.2368],[127.7973,0.2485],[127.8048,0.2564],[127.8073,0.2568],[127.8116,0.2696],[127.8705,0.2677],[127.8878,0.2705],[127.9149,0.2715],[127.9165,0.2684],[127.9171,0.2598],[127.9138,0.2538],[127.9128,0.2461],[127.9142,0.2456],[127.9146,0.2481],[127.9179,0.2465],[127.9193,0.2435],[127.918,0.2418],[127.9185,0.2358],[127.924,0.2155],[127.9209,0.203],[127.9186,0.202],[127.9213,0.2006],[127.9199,0.1942],[127.9219,0.1869],[127.9186,0.1858],[127.9217,0.177],[127.9097,0.1754],[127.8967,0.1758],[127.8946,0.1667],[127.8944,0.1473],[127.8875,0.1442],[127.878,0.1322],[127.8741,0.1305]]]}},{"type":"Feature","properties":{"name":"WedaTengah","name_en":"WedaTengah","admin_level":"6","osm_id":""},"geometry":{"type":"Polygon","coordinates":[[[127.7782,0.4088],[127.7751,0.4129],[127.7724,0.4276],[127.7723,0.4328],[127.7747,0.4368],[127.7743,0.4443],[127.7722,0.4466],[127.7736,0.4482],[127.7696,0.4501],[127.7686,0.4541],[127.7727,0.4586],[127.776,0.4667],[127.7796,0.4679],[127.7767,0.4705],[127.7771,0.4742],[127.7754,0.4762],[127.7775,0.4793],[127.7777,0.4835],[127.7849,0.4883],[127.7868,0.4865],[127.7937,0.4865],[127.7963,0.4817],[127.8011,0.4815],[127.8014,0.4849],[127.8061,0.4904],[127.805,0.4965],[127.8064,0.5026],[127.8036,0.5081],[127.8061,0.5128],[127.8116,0.5154],[127.8128,0.5182],[127.8123,0.5217],[127.8067,0.5265],[127.8105,0.529],[127.8159,0.5372],[127.8197,0.5376],[127.8259,0.5424],[127.8253,0.5507],[127.8214,0.5565],[127.8212,0.5605],[127.8232,0.5625],[127.8228,0.5673],[127.8297,0.5697],[127.8316,0.5727],[127.8314,0.5761],[127.829,0.5772],[127.8284,0.5807],[127.8249,0.5828],[127.8207,0.5921],[127.8102,0.5979],[127.8111,0.6042],[127.8089,0.61],[127.81,0.6145],[127.8068,0.6186],[127.7978,0.6232],[127.7966,0.6265],[127.793,0.6294],[127.7909,0.6383],[127.7921,0.6426],[127.7972,0.6409],[127.8026,0.6413],[127.808,0.646],[127.8167,0.6438],[127.8189,0.6407],[127.8266,0.6385],[127.8272,0.6351],[127.8255,0.6304],[127.829,0.6227],[127.8433,0.6182],[127.847,0.62],[127.8537,0.6177],[127.8571,0.623],[127.8636,0.6257],[127.8634,0.6306],[127.8672,0.6327],[127.8694,0.6313],[127.8725,0.6328],[127.8724,0.6315],[127.8751,0.6322],[127.88,0.6297],[127.8837,0.6311],[127.9054,0.6274],[127.9227,0.6279],[127.928,0.6253],[127.936,0.6352],[127.94,0.634],[127.9401,0.6308],[127.9479,0.6283],[127.9486,0.63],[127.9521,0.6302],[127.953,0.6328],[127.9515,0.6343],[127.9526,0.6352],[127.9562,0.6325],[127.9607,0.6362],[127.9642,0.6332],[127.9709,0.6389],[127.978,0.6377],[127.9864,0.6453],[127.9829,0.6512],[127.9851,0.6511],[127.9949,0.6276],[127.9942,0.5986],[127.9985,0.5863],[127.9963,0.5776],[127.9963,0.5674],[127.9913,0.5507],[128.0007,0.542],[128.0007,0.529],[128.0035,0.521],[128.0172,0.5094],[128.0266,0.4883],[128.0236,0.4756],[128.0217,0.4761],[128.0181,0.4726],[128.0137,0.4715],[128.0111,0.4745],[128.0095,0.4734],[128.0072,0.4754],[127.9983,0.4736],[127.9915,0.4751],[127.9859,0.4792],[127.9821,0.4768],[127.978,0.4711],[127.9786,0.4738],[127.9765,0.4782],[127.9772,0.4832],[127.9716,0.4799],[127.9684,0.4818],[127.9562,0.4679],[127.9503,0.4667],[127.9389,0.4684],[127.9353,0.4637],[127.9317,0.4656],[127.9293,0.4651],[127.9264,0.4593],[127.9217,0.4591],[127.9168,0.4552],[127.9007,0.4307],[127.9008,0.4271],[127.9031,0.4259],[127.9085,0.4158],[127.9066,0.4106],[127.9122,0.4006],[127.9089,0.4008],[127.9098,0.3949],[127.9065,0.3947],[127.9058,0.393],[127.8917,0.4025],[127.825,0.4082],[127.7782,0.4088]]]}},{"type":"Feature","properties":{"name":"WedaUtara","name_en":"WedaUtara","admin_level":"6","osm_id":""},"geometry":{"type":"Polygon","coordinates":[[[128.4592,0.4024],[128.4579,0.4036],[128.4556,0.4005],[128.4509,0.4015],[128.4498,0.4033],[128.4412,0.4033],[128.4333,0.3974],[128.4237,0.3948],[128.4222,0.3929],[128.4053,0.3936],[128.3983,0.3966],[128.3926,0.4033],[128.3887,0.4053],[128.3797,0.4064],[128.3561,0.3992],[128.3474,0.4034],[128.3388,0.4049],[128.3158,0.3966],[128.298,0.4002],[128.295,0.3979],[128.291,0.3993],[128.2882,0.3969],[128.2842,0.3961],[128.2796,0.3981],[128.2816,0.4015],[128.2783,0.3996],[128.2731,0.4031],[128.2681,0.4034],[128.269,0.4064],[128.2674,0.409],[128.264,0.4043],[128.2492,0.4081],[128.2428,0.4126],[128.2403,0.4246],[128.2387,0.422],[128.2362,0.4222],[128.2363,0.414],[128.2318,0.4111],[128.2225,0.4131],[128.2175,0.4186],[128.2176,0.4211],[128.2068,0.4228],[128.2014,0.4274],[128.203,0.4273],[128.2016,0.4297],[128.1987,0.4314],[128.1791,0.4288],[128.1781,0.4324],[128.1824,0.4334],[128.1795,0.4366],[128.1823,0.4365],[128.1818,0.4377],[128.1844,0.4396],[128.1817,0.4402],[128.1818,0.4415],[128.1755,0.4405],[128.1726,0.4459],[128.1757,0.4471],[128.1724,0.4485],[128.1722,0.4515],[128.174,0.4543],[128.1682,0.4571],[128.1624,0.457],[128.162,0.4545],[128.1578,0.4519],[128.1564,0.4571],[128.1405,0.4639],[128.1259,0.4579],[128.1214,0.4539],[128.1111,0.4551],[128.1076,0.4588],[128.1008,0.4617],[128.089,0.461],[128.0845,0.4713],[128.0789,0.4773],[128.0728,0.4759],[128.069,0.4707],[128.0646,0.469],[128.0518,0.4717],[128.0397,0.4786],[128.0251,0.4731],[128.0236,0.4756],[128.0266,0.4883],[128.0172,0.5094],[128.0035,0.521],[128.0007,0.529],[128.0007,0.542],[127.9913,0.5507],[127.9963,0.5674],[127.9963,0.5776],[127.9985,0.5863],[127.9942,0.5986],[127.9949,0.6276],[127.9851,0.6511],[127.9887,0.6504],[127.9922,0.6538],[127.9952,0.6529],[127.9956,0.6568],[128.0014,0.6567],[128.0092,0.6499],[128.0184,0.6504],[128.0244,0.6435],[128.0266,0.6452],[128.0271,0.6433],[128.0332,0.6443],[128.035,0.642],[128.0386,0.6449],[128.0446,0.638],[128.0496,0.6381],[128.056,0.6425],[128.0591,0.6425],[128.0645,0.6395],[128.0659,0.6357],[128.0653,0.6227],[128.0637,0.6204],[128.066,0.616],[128.0843,0.6147],[128.0912,0.6089],[128.0952,0.6027],[128.0988,0.6041],[128.1,0.6066],[128.1052,0.6051],[128.1067,0.6003],[128.117,0.5911],[128.1206,0.5943],[128.135,0.5891],[128.1415,0.5912],[128.1448,0.5947],[128.152,0.5953],[128.1612,0.5899],[128.1683,0.5892],[128.1723,0.5927],[128.1786,0.59],[128.1824,0.5965],[128.1853,0.5939],[128.1891,0.5966],[128.2021,0.598],[128.2056,0.6014],[128.2114,0.6007],[128.2182,0.595],[128.2269,0.5936],[128.237,0.5866],[128.2408,0.5824],[128.2422,0.5771],[128.2511,0.5698],[128.2621,0.571],[128.2641,0.57],[128.2668,0.5666],[128.2706,0.5502],[128.273,0.5489],[128.2788,0.5482],[128.2857,0.5539],[128.3168,0.5545],[128.3163,0.552],[128.3184,0.5473],[128.3263,0.5425],[128.3283,0.5393],[128.3373,0.5372],[128.3382,0.5297],[128.3417,0.5232],[128.3501,0.5175],[128.3528,0.5134],[128.3585,0.5106],[128.3702,0.5131],[128.3753,0.5122],[128.3823,0.5074],[128.3888,0.5084],[128.3927,0.5068],[128.3994,0.509],[128.4027,0.5023],[128.4069,0.5053],[128.4098,0.503],[128.4221,0.5041],[128.4273,0.5021],[128.4379,0.5048],[128.4416,0.5013],[128.447,0.5019],[128.4514,0.4989],[128.4554,0.4985],[128.4583,0.496],[128.457,0.4925],[128.4595,0.4911],[128.4674,0.4954],[128.4809,0.4903],[128.4592,0.4024]]]}}]}