{"type":"FeatureCollection","metadata":{"parent_osm_id":"gid_IDN.8.10_1","parent_name":"TanjungJabungT","parent_name_1":"Jambi","parent_gid":"IDN.8.10_1","parent_level":"5","child_level":"6","count":12,"source":"GADM 4.1","generated":"2026-05-05"},"features":[{"type":"Feature","properties":{"name":"Berbak","name_en":"Berbak","admin_level":"6","osm_id":""},"geometry":{"type":"Polygon","coordinates":[[[104.0687,-1.3083],[104.0227,-1.3141],[104.0232,-1.2035],[104.0291,-1.2028],[104.0328,-1.1997],[104.0351,-1.1995],[104.036,-1.2009],[104.0288,-1.2093],[104.0267,-1.2177],[104.0286,-1.2223],[104.0351,-1.223],[104.0446,-1.2185],[104.0481,-1.2205],[104.054,-1.2283],[104.0605,-1.2263],[104.0693,-1.2167],[104.0733,-1.2188],[104.0756,-1.217],[104.079,-1.2223],[104.0869,-1.217],[104.0883,-1.2178],[104.1038,-1.2048],[104.1158,-1.2206],[104.1316,-1.2081],[104.1372,-1.2115],[104.1394,-1.209],[104.1293,-1.2008],[104.1256,-1.1942],[104.1265,-1.1901],[104.1313,-1.1868],[104.1377,-1.1881],[104.1473,-1.1956],[104.1624,-1.1949],[104.1683,-1.1917],[104.1769,-1.1744],[104.1898,-1.1632],[104.2076,-1.156],[104.2058,-1.151],[104.1875,-1.1363],[104.1942,-1.1322],[104.1986,-1.1333],[104.2109,-1.1302],[104.2258,-1.1327],[104.2327,-1.148],[104.2419,-1.1477],[104.2507,-1.1419],[104.3155,-1.143],[104.3298,-1.1519],[104.3263,-1.1695],[104.327,-1.1804],[104.3214,-1.1803],[104.3085,-1.1901],[104.2692,-1.1773],[104.2589,-1.1816],[104.2484,-1.1897],[104.2409,-1.2074],[104.2342,-1.2092],[104.2147,-1.2082],[104.2037,-1.2104],[104.1889,-1.2359],[104.1868,-1.2437],[104.1784,-1.2526],[104.1652,-1.262],[104.1482,-1.2874],[104.1211,-1.3155],[104.1176,-1.3079],[104.1155,-1.3091],[104.1083,-1.3064],[104.104,-1.3001],[104.0957,-1.2985],[104.086,-1.2924],[104.0786,-1.2947],[104.0687,-1.3083]]]}},{"type":"Feature","properties":{"name":"Dendang","name_en":"Dendang","admin_level":"6","osm_id":""},"geometry":{"type":"Polygon","coordinates":[[[103.9783,-1.319],[103.8427,-1.334],[103.8419,-1.3041],[103.8456,-1.2953],[103.8424,-1.284],[103.8473,-1.2714],[103.8449,-1.2678],[103.8447,-1.2646],[103.8475,-1.2612],[103.8526,-1.2596],[103.853,-1.2568],[103.8482,-1.2524],[103.8569,-1.2474],[103.8585,-1.2428],[103.8598,-1.2431],[103.8598,-1.2287],[103.8568,-1.2173],[103.8577,-1.2133],[103.8606,-1.2105],[103.8671,-1.2088],[103.8732,-1.1973],[103.8744,-1.1924],[103.8712,-1.1882],[103.8717,-1.1861],[103.8758,-1.1819],[103.8767,-1.1731],[103.8825,-1.1685],[103.8832,-1.1567],[103.8864,-1.1547],[103.8893,-1.1494],[103.899,-1.148],[103.9109,-1.1424],[103.9204,-1.1439],[103.9255,-1.1475],[103.931,-1.1653],[103.9376,-1.1679],[103.9697,-1.1541],[103.974,-1.1597],[103.9834,-1.16],[103.9864,-1.1654],[103.9922,-1.1705],[104.0255,-1.1954],[104.0228,-1.205],[104.0227,-1.3141],[103.9783,-1.319]]]}},{"type":"Feature","properties":{"name":"Geragai","name_en":"Geragai","admin_level":"6","osm_id":""},"geometry":{"type":"Polygon","coordinates":[[[103.5848,-1.3732],[103.5848,-1.3447],[103.5831,-1.3446],[103.5832,-1.3375],[103.5786,-1.3303],[103.5835,-1.3128],[103.5853,-1.2994],[103.5808,-1.2799],[103.5737,-1.2702],[103.5904,-1.2683],[103.6024,-1.2714],[103.6187,-1.2669],[103.622,-1.2633],[103.6261,-1.2633],[103.6466,-1.2523],[103.6456,-1.239],[103.6468,-1.1241],[103.6537,-1.1225],[103.6624,-1.1086],[103.6693,-1.0929],[103.6705,-1.0812],[103.6739,-1.0699],[103.7348,-1.0594],[103.7405,-1.053],[103.7524,-1.0534],[103.7565,-1.0606],[103.7537,-1.0661],[103.7485,-1.0677],[103.7453,-1.0749],[103.7516,-1.0812],[103.7577,-1.0931],[103.7522,-1.1005],[103.7501,-1.1069],[103.7531,-1.1106],[103.7536,-1.1237],[103.7562,-1.1307],[103.7618,-1.1284],[103.7669,-1.1301],[103.7707,-1.1365],[103.7709,-1.1435],[103.7681,-1.1474],[103.7707,-1.1575],[103.7696,-1.163],[103.766,-1.1687],[103.7658,-1.1745],[103.7594,-1.185],[103.765,-1.1939],[103.7635,-1.1986],[103.7533,-1.2064],[103.7511,-1.2119],[103.7546,-1.2195],[103.7666,-1.2246],[103.7666,-1.2388],[103.7531,-1.2392],[103.7527,-1.2569],[103.7484,-1.2738],[103.7543,-1.2762],[103.7612,-1.2762],[103.7653,-1.2833],[103.7644,-1.2889],[103.767,-1.2976],[103.7663,-1.3484],[103.5846,-1.3825],[103.5848,-1.3732]]]}},{"type":"Feature","properties":{"name":"Hutan","name_en":"Hutan","admin_level":"6","osm_id":""},"geometry":{"type":"Polygon","coordinates":[[[104.3585,-1.6429],[104.3324,-1.6262],[104.3121,-1.6073],[104.2973,-1.571],[104.2841,-1.5613],[104.2604,-1.5543],[104.2538,-1.549],[104.206,-1.4898],[104.1971,-1.4749],[104.1709,-1.4463],[104.1623,-1.4303],[104.1471,-1.4076],[104.1111,-1.3416],[104.0949,-1.3231],[104.0728,-1.3027],[104.0786,-1.2947],[104.086,-1.2924],[104.0957,-1.2985],[104.104,-1.3001],[104.1083,-1.3064],[104.1155,-1.3091],[104.1176,-1.3079],[104.1211,-1.3155],[104.1482,-1.2874],[104.1652,-1.262],[104.1784,-1.2526],[104.1868,-1.2437],[104.1889,-1.2359],[104.2037,-1.2104],[104.2147,-1.2082],[104.2342,-1.2092],[104.2409,-1.2074],[104.2484,-1.1897],[104.2589,-1.1816],[104.2692,-1.1773],[104.3085,-1.1901],[104.3214,-1.1803],[104.327,-1.1804],[104.3292,-1.1906],[104.3547,-1.3402],[104.3661,-1.3864],[104.3675,-1.4033],[104.3604,-1.4071],[104.3579,-1.4167],[104.3508,-1.4248],[104.3577,-1.5232],[104.3665,-1.5821],[104.3689,-1.6354],[104.3616,-1.6389],[104.3585,-1.6429]]]}},{"type":"Feature","properties":{"name":"KualaJambi","name_en":"KualaJambi","admin_level":"6","osm_id":""},"geometry":{"type":"Polygon","coordinates":[[[103.7531,-1.1121],[103.7501,-1.1069],[103.7522,-1.1005],[103.7577,-1.0931],[103.7516,-1.0812],[103.7453,-1.0749],[103.7485,-1.0677],[103.7537,-1.0661],[103.7565,-1.0606],[103.7524,-1.0534],[103.7397,-1.054],[103.7389,-1.0452],[103.7361,-1.0403],[103.7316,-1.0375],[103.7287,-1.029],[103.7339,-1.028],[103.741,-1.016],[103.7426,-1.0164],[103.745,-1.0222],[103.7485,-1.0237],[103.7535,-1.0198],[103.7533,-1.0157],[103.7484,-1.0111],[103.7491,-0.9923],[103.7546,-0.9908],[103.7919,-0.9914],[103.8022,-0.9939],[103.8055,-0.9969],[103.8073,-1.0018],[103.8086,-1.0143],[103.8429,-1.0086],[103.8489,-1.0287],[103.8468,-1.0496],[103.8277,-1.0448],[103.8177,-1.0447],[103.8109,-1.0633],[103.8216,-1.0735],[103.8311,-1.0776],[103.8409,-1.0864],[103.8423,-1.0918],[103.8086,-1.0949],[103.8096,-1.1004],[103.8063,-1.1003],[103.8035,-1.0953],[103.796,-1.1016],[103.7906,-1.1035],[103.7813,-1.1119],[103.7531,-1.1193],[103.7542,-1.1155],[103.7531,-1.1121]]]}},{"type":"Feature","properties":{"name":"Mendahara","name_en":"Mendahara","admin_level":"6","osm_id":""},"geometry":{"type":"Polygon","coordinates":[[[103.6693,-1.0923],[103.6624,-1.1086],[103.6537,-1.1225],[103.6466,-1.1242],[103.6017,-1.1248],[103.5898,-1.1232],[103.5617,-1.1153],[103.5356,-1.094],[103.5343,-1.0936],[103.531,-1.1034],[103.4747,-1.0747],[103.4404,-1.0723],[103.4435,-1.0661],[103.4529,-1.059],[103.4587,-1.0458],[103.4657,-1.0405],[103.4758,-1.0276],[103.4928,-1.0191],[103.4958,-1.0151],[103.5063,-1.0085],[103.5125,-1.0068],[103.5147,-1.005],[103.5142,-1.0015],[103.5205,-1.0004],[103.5239,-1.0026],[103.5268,-1.0001],[103.5261,-0.9966],[103.53,-0.9966],[103.5312,-0.9929],[103.5351,-0.9932],[103.5371,-0.9883],[103.5348,-0.9849],[103.5392,-0.9818],[103.539,-0.9802],[103.5406,-0.9788],[103.5479,-0.9792],[103.5491,-0.9781],[103.5481,-0.9757],[103.5432,-0.9741],[103.5431,-0.9708],[103.5458,-0.969],[103.5436,-0.9665],[103.5485,-0.9654],[103.5488,-0.9599],[103.5506,-0.9604],[103.5517,-0.9639],[103.5551,-0.9633],[103.5587,-0.9572],[103.5559,-0.9565],[103.5541,-0.9582],[103.5509,-0.9567],[103.5512,-0.9534],[103.5556,-0.9542],[103.5564,-0.9528],[103.5534,-0.9478],[103.5577,-0.9467],[103.5572,-0.942],[103.5641,-0.9429],[103.566,-0.9416],[103.5647,-0.939],[103.5599,-0.9387],[103.5606,-0.9341],[103.5592,-0.928],[103.5632,-0.9299],[103.5679,-0.9282],[103.5665,-0.9251],[103.5632,-0.926],[103.5613,-0.9224],[103.5603,-0.9159],[103.5645,-0.9161],[103.5672,-0.9134],[103.5625,-0.9113],[103.5605,-0.9067],[103.5633,-0.8966],[103.5693,-0.8932],[103.5675,-0.8877],[103.5682,-0.8818],[103.5741,-0.8752],[103.5795,-0.8741],[103.5827,-0.8778],[103.5855,-0.874],[103.5884,-0.8729],[103.593,-0.876],[103.6041,-0.8899],[103.6266,-0.9092],[103.6269,-0.9158],[103.63,-0.9138],[103.634,-0.9147],[103.6428,-0.9217],[103.6582,-0.9279],[103.6692,-0.9376],[103.6741,-0.9513],[103.6865,-0.9471],[103.6891,-0.9508],[103.7001,-0.9493],[103.7117,-0.9511],[103.7293,-0.9598],[103.7504,-0.9848],[103.747,-0.9933],[103.7473,-1.0066],[103.7477,-1.0113],[103.7531,-1.0162],[103.7524,-1.0209],[103.7475,-1.0225],[103.7454,-1.0207],[103.7448,-1.0177],[103.7406,-1.0149],[103.7362,-1.0239],[103.7287,-1.029],[103.7316,-1.0375],[103.7361,-1.0403],[103.7389,-1.0452],[103.7397,-1.054],[103.7348,-1.0594],[103.6739,-1.0699],[103.6705,-1.0812],[103.6693,-1.0923]]]}},{"type":"Feature","properties":{"name":"MendaharaUlu","name_en":"MendaharaUlu","admin_level":"6","osm_id":""},"geometry":{"type":"Polygon","coordinates":[[[103.5596,-1.3309],[103.5557,-1.3249],[103.5568,-1.3121],[103.5522,-1.3122],[103.5522,-1.307],[103.5361,-1.3066],[103.5362,-1.3149],[103.5113,-1.3153],[103.5113,-1.3211],[103.4567,-1.319],[103.4339,-1.2975],[103.393,-1.2663],[103.3463,-1.2657],[103.3469,-1.2288],[103.4018,-1.2282],[103.4357,-1.1954],[103.4362,-1.1705],[103.4318,-1.1045],[103.4349,-1.0884],[103.4394,-1.0795],[103.4404,-1.0723],[103.4747,-1.0747],[103.531,-1.1034],[103.5343,-1.0936],[103.5356,-1.094],[103.5617,-1.1153],[103.5898,-1.1232],[103.6017,-1.1248],[103.6468,-1.1241],[103.6456,-1.239],[103.6466,-1.2523],[103.6261,-1.2633],[103.622,-1.2633],[103.6187,-1.2669],[103.6024,-1.2714],[103.5904,-1.2683],[103.5737,-1.2702],[103.5808,-1.2799],[103.5853,-1.2994],[103.5814,-1.3221],[103.5789,-1.3309],[103.5596,-1.3309]]]}},{"type":"Feature","properties":{"name":"NipahPanjang","name_en":"NipahPanjang","admin_level":"6","osm_id":""},"geometry":{"type":"Polygon","coordinates":[[[104.2419,-1.1477],[104.2327,-1.148],[104.2258,-1.1327],[104.2109,-1.1302],[104.1986,-1.1333],[104.1942,-1.1322],[104.1624,-1.1474],[104.1597,-1.1451],[104.1625,-1.1344],[104.1523,-1.1163],[104.1303,-1.0975],[104.0998,-1.101],[104.0622,-1.1229],[104.0641,-1.1172],[104.0603,-1.1099],[104.0609,-1.1056],[104.038,-1.1042],[104.0616,-1.0169],[104.0852,-1.028],[104.0997,-1.029],[104.1086,-1.0316],[104.1143,-1.0377],[104.1301,-1.0431],[104.1273,-1.0469],[104.1279,-1.0485],[104.1346,-1.0505],[104.148,-1.0504],[104.1502,-1.0488],[104.1597,-1.0481],[104.1728,-1.0501],[104.1803,-1.0363],[104.1927,-1.0356],[104.2051,-1.0315],[104.2142,-1.0337],[104.25,-1.0331],[104.266,-1.0425],[104.2801,-1.043],[104.2684,-1.0623],[104.2803,-1.0428],[104.2876,-1.0478],[104.2992,-1.0482],[104.3043,-1.0457],[104.3194,-1.0438],[104.3224,-1.0413],[104.3258,-1.0411],[104.3356,-1.0507],[104.326,-1.0543],[104.3233,-1.0576],[104.3211,-1.0655],[104.3153,-1.0646],[104.3146,-1.0697],[104.3113,-1.0737],[104.3058,-1.0756],[104.3035,-1.0797],[104.2912,-1.0917],[104.2919,-1.0966],[104.2979,-1.105],[104.3019,-1.108],[104.3069,-1.1075],[104.3076,-1.1137],[104.3094,-1.1156],[104.3192,-1.1138],[104.3281,-1.121],[104.332,-1.1292],[104.33,-1.152],[104.3155,-1.143],[104.2507,-1.1419],[104.2419,-1.1477]]]}},{"type":"Feature","properties":{"name":"RantauRasau","name_en":"RantauRasau","admin_level":"6","osm_id":""},"geometry":{"type":"Polygon","coordinates":[[[104.0605,-1.2263],[104.054,-1.2283],[104.0481,-1.2205],[104.0433,-1.2183],[104.0351,-1.223],[104.0286,-1.2223],[104.0267,-1.2177],[104.0274,-1.2135],[104.0288,-1.2093],[104.0358,-1.2022],[104.0351,-1.1995],[104.0291,-1.2028],[104.0239,-1.2033],[104.0255,-1.1954],[103.9922,-1.1705],[103.9864,-1.1654],[103.9834,-1.16],[103.974,-1.1597],[103.9697,-1.1541],[103.987,-1.1417],[104.0105,-1.1588],[104.0121,-1.1481],[104.0198,-1.1413],[104.0305,-1.1463],[104.0334,-1.1513],[104.0375,-1.1486],[104.0367,-1.1404],[104.0494,-1.1371],[104.0519,-1.1333],[104.0478,-1.1307],[104.0405,-1.1302],[104.0395,-1.1278],[104.0407,-1.1253],[104.0489,-1.1239],[104.0494,-1.1149],[104.0526,-1.1139],[104.0556,-1.1165],[104.0568,-1.114],[104.0547,-1.1108],[104.0572,-1.105],[104.0609,-1.1056],[104.0603,-1.1099],[104.0641,-1.1172],[104.0622,-1.1229],[104.0998,-1.101],[104.1303,-1.0975],[104.1523,-1.1163],[104.1625,-1.1344],[104.1597,-1.1451],[104.1624,-1.1474],[104.1875,-1.1363],[104.2058,-1.151],[104.2076,-1.156],[104.1898,-1.1632],[104.1769,-1.1744],[104.1683,-1.1917],[104.1624,-1.1949],[104.1473,-1.1956],[104.1377,-1.1881],[104.1313,-1.1868],[104.1265,-1.1901],[104.1256,-1.1942],[104.1293,-1.2008],[104.1394,-1.209],[104.1372,-1.2115],[104.1316,-1.2081],[104.1158,-1.2206],[104.1038,-1.2048],[104.0883,-1.2178],[104.0869,-1.217],[104.079,-1.2223],[104.0756,-1.217],[104.0733,-1.2188],[104.0693,-1.2167],[104.0605,-1.2263]]]}},{"type":"Feature","properties":{"name":"SabakBarat","name_en":"SabakBarat","admin_level":"6","osm_id":""},"geometry":{"type":"Polygon","coordinates":[[[103.8035,-1.3409],[103.7663,-1.3484],[103.767,-1.2976],[103.7644,-1.2889],[103.7653,-1.2833],[103.7612,-1.2762],[103.7543,-1.2762],[103.7484,-1.2738],[103.7527,-1.2569],[103.7531,-1.2392],[103.7666,-1.2388],[103.7666,-1.2246],[103.7546,-1.2195],[103.7511,-1.2119],[103.7533,-1.2064],[103.7635,-1.1986],[103.765,-1.1939],[103.7594,-1.185],[103.7658,-1.1745],[103.766,-1.1687],[103.7696,-1.163],[103.7707,-1.1575],[103.7681,-1.1474],[103.7709,-1.1435],[103.7697,-1.1341],[103.7643,-1.1284],[103.7598,-1.1287],[103.7563,-1.1308],[103.7529,-1.1194],[103.7813,-1.1119],[103.7906,-1.1035],[103.796,-1.1016],[103.8035,-1.0953],[103.8063,-1.1003],[103.8096,-1.1004],[103.8086,-1.0949],[103.8423,-1.0918],[103.8466,-1.1018],[103.8454,-1.1027],[103.8448,-1.1197],[103.8551,-1.1435],[103.8576,-1.146],[103.8615,-1.1464],[103.8697,-1.1421],[103.8744,-1.1442],[103.8771,-1.1548],[103.8811,-1.158],[103.8832,-1.1567],[103.8825,-1.1685],[103.8767,-1.1731],[103.8758,-1.1819],[103.8712,-1.1882],[103.8744,-1.1924],[103.8732,-1.1973],[103.8671,-1.2088],[103.8606,-1.2105],[103.8577,-1.2133],[103.8568,-1.2173],[103.8598,-1.2287],[103.8598,-1.2431],[103.8585,-1.2428],[103.8569,-1.2474],[103.8482,-1.2524],[103.853,-1.2568],[103.8526,-1.2596],[103.8475,-1.2612],[103.8447,-1.2646],[103.8449,-1.2678],[103.8473,-1.2714],[103.8424,-1.284],[103.8456,-1.2953],[103.8419,-1.3041],[103.8427,-1.334],[103.8035,-1.3409]]]}},{"type":"Feature","properties":{"name":"SabakTimur","name_en":"SabakTimur","admin_level":"6","osm_id":""},"geometry":{"type":"Polygon","coordinates":[[[103.894,-1.149],[103.8893,-1.1494],[103.8864,-1.1547],[103.8811,-1.158],[103.8771,-1.1548],[103.8744,-1.1442],[103.8718,-1.1422],[103.8615,-1.1464],[103.8576,-1.146],[103.8551,-1.1435],[103.8448,-1.1197],[103.8454,-1.1027],[103.8466,-1.1018],[103.8409,-1.0864],[103.8311,-1.0776],[103.8216,-1.0735],[103.8109,-1.0633],[103.8177,-1.0447],[103.8277,-1.0448],[103.8468,-1.0496],[103.8489,-1.0287],[103.8442,-1.0079],[103.8573,-1.0035],[103.8693,-0.9963],[103.8725,-0.9991],[103.8807,-0.9966],[103.8941,-0.9903],[103.9008,-0.9845],[103.9085,-0.9819],[103.9192,-0.9835],[103.9311,-0.9885],[103.952,-0.9925],[103.9563,-0.9962],[103.966,-0.9914],[104.0214,-0.9991],[104.0309,-1.0017],[104.0397,-1.0093],[104.0463,-1.0087],[104.0618,-1.0166],[104.038,-1.1042],[104.0572,-1.105],[104.0547,-1.1108],[104.0568,-1.114],[104.0556,-1.1165],[104.0526,-1.1139],[104.0494,-1.1149],[104.0489,-1.1239],[104.0407,-1.1253],[104.0395,-1.1278],[104.0405,-1.1302],[104.0478,-1.1307],[104.0519,-1.1333],[104.0494,-1.1371],[104.0367,-1.1404],[104.0375,-1.1486],[104.0334,-1.1513],[104.0305,-1.1463],[104.0198,-1.1413],[104.0121,-1.1481],[104.0105,-1.1588],[103.987,-1.1417],[103.9697,-1.1541],[103.9376,-1.1679],[103.931,-1.1653],[103.9255,-1.1475],[103.9204,-1.1439],[103.9109,-1.1424],[103.894,-1.149]]]}},{"type":"Feature","properties":{"name":"Sadu","name_en":"Sadu","admin_level":"6","osm_id":""},"geometry":{"type":"Polygon","coordinates":[[[104.3565,-1.5039],[104.3508,-1.4248],[104.3579,-1.4167],[104.3604,-1.4071],[104.3675,-1.4033],[104.3661,-1.3864],[104.3547,-1.3402],[104.3282,-1.1905],[104.3263,-1.1695],[104.33,-1.152],[104.332,-1.1292],[104.3281,-1.121],[104.3192,-1.1138],[104.3094,-1.1156],[104.3076,-1.1137],[104.3069,-1.1075],[104.3019,-1.108],[104.2979,-1.105],[104.2919,-1.0966],[104.2912,-1.0917],[104.3035,-1.0797],[104.3058,-1.0756],[104.3113,-1.0737],[104.3146,-1.0697],[104.3153,-1.0646],[104.3211,-1.0655],[104.3233,-1.0576],[104.326,-1.0543],[104.3356,-1.0507],[104.3331,-1.0473],[104.3331,-1.0436],[104.3377,-1.043],[104.3435,-1.0378],[104.3495,-1.0354],[104.35,-1.0332],[104.3561,-1.0273],[104.3596,-1.0179],[104.3641,-1.0188],[104.3701,-1.0267],[104.3843,-1.051],[104.3914,-1.0663],[104.399,-1.0898],[104.4061,-1.1265],[104.4055,-1.1402],[104.4088,-1.159],[104.4046,-1.1667],[104.4036,-1.1798],[104.3926,-1.179],[104.3897,-1.1983],[104.3928,-1.2166],[104.4009,-1.2381],[104.4222,-1.2783],[104.4394,-1.3034],[104.443,-1.3128],[104.4394,-1.3128],[104.4561,-1.3333],[104.4552,-1.3629],[104.4503,-1.3875],[104.4574,-1.403],[104.458,-1.4258],[104.4499,-1.4338],[104.4433,-1.458],[104.4384,-1.4848],[104.44,-1.5158],[104.4523,-1.551],[104.4534,-1.5726],[104.4699,-1.6271],[104.488,-1.6574],[104.4944,-1.6628],[104.4974,-1.6729],[104.486,-1.6574],[104.4841,-1.656],[104.4792,-1.6577],[104.4744,-1.6564],[104.471,-1.6453],[104.4604,-1.642],[104.4527,-1.6332],[104.4369,-1.6363],[104.4221,-1.6264],[104.4159,-1.6283],[104.4076,-1.6254],[104.3965,-1.6318],[104.3754,-1.6334],[104.3689,-1.6354],[104.3665,-1.5821],[104.3577,-1.5232],[104.3565,-1.5039]]]}}]}