{"type":"FeatureCollection","metadata":{"parent_osm_id":"gid_IDN.23.13_1","parent_name":"MamberamoRaya","parent_name_1":"Papua","parent_gid":"IDN.23.13_1","parent_level":"5","child_level":"6","count":8,"source":"GADM 4.1","generated":"2026-05-05"},"features":[{"type":"Feature","properties":{"name":"Benuki","name_en":"Benuki","admin_level":"6","osm_id":""},"geometry":{"type":"Polygon","coordinates":[[[137.9063,-2.2006],[137.913,-2.2152],[137.9159,-2.2182],[137.9279,-2.2199],[137.9315,-2.2225],[137.936,-2.2361],[137.937,-2.2626],[137.9425,-2.2742],[137.9458,-2.2878],[137.9537,-2.298],[137.9612,-2.302],[137.9554,-2.3172],[137.9347,-2.3415],[137.9292,-2.3506],[137.9301,-2.3704],[137.9238,-2.3803],[137.9103,-2.383],[137.8959,-2.3821],[137.8833,-2.3866],[137.8724,-2.3975],[137.8661,-2.4101],[137.8643,-2.438],[137.8535,-2.4615],[137.8481,-2.4696],[137.8481,-2.4804],[137.8544,-2.503],[137.8553,-2.5147],[137.8481,-2.5264],[137.8409,-2.5327],[137.8391,-2.5427],[137.8409,-2.6013],[137.8436,-2.6166],[137.8436,-2.6265],[137.8499,-2.6572],[137.8506,-2.672],[137.8477,-2.6738],[137.8467,-2.6673],[137.8429,-2.6625],[137.8362,-2.6605],[137.8315,-2.661],[137.8208,-2.65],[137.8152,-2.6405],[137.8127,-2.6403],[137.8132,-2.6442],[137.8116,-2.6451],[137.8066,-2.6343],[137.7996,-2.6292],[137.7976,-2.6254],[137.7958,-2.6252],[137.796,-2.6201],[137.7923,-2.6186],[137.7917,-2.6231],[137.7868,-2.6229],[137.7862,-2.6199],[137.787,-2.6185],[137.7894,-2.6191],[137.7899,-2.6172],[137.781,-2.6104],[137.7749,-2.6126],[137.7736,-2.6147],[137.7708,-2.6111],[137.7693,-2.6115],[137.7665,-2.6151],[137.7635,-2.6048],[137.7603,-2.6028],[137.7601,-2.5995],[137.7564,-2.5979],[137.7535,-2.5916],[137.7506,-2.5924],[137.7472,-2.5903],[137.7448,-2.5936],[137.7422,-2.5937],[137.7263,-2.5833],[137.7098,-2.5813],[137.7064,-2.5758],[137.7012,-2.5775],[137.6898,-2.5879],[137.6774,-2.5883],[137.6729,-2.5917],[137.6701,-2.5918],[137.67,-2.5903],[137.6644,-2.5881],[137.6621,-2.5903],[137.6579,-2.5889],[137.6567,-2.5919],[137.65,-2.5829],[137.6456,-2.5818],[137.6414,-2.5779],[137.6384,-2.5812],[137.6363,-2.5764],[137.6366,-2.5796],[137.6317,-2.5827],[137.6315,-2.5803],[137.6291,-2.582],[137.623,-2.5771],[137.6153,-2.575],[137.6095,-2.5713],[137.6069,-2.5671],[137.6096,-2.5601],[137.6088,-2.5541],[137.6121,-2.5483],[137.6091,-2.5452],[137.6094,-2.5388],[137.6019,-2.5306],[137.6002,-2.5264],[137.5803,-2.5312],[137.5745,-2.5358],[137.5779,-2.5394],[137.5805,-2.5458],[137.5841,-2.5465],[137.5742,-2.572],[137.574,-2.5765],[137.5625,-2.5891],[137.5596,-2.5955],[137.5554,-2.5999],[137.555,-2.6049],[137.5511,-2.6031],[137.55,-2.6115],[137.5569,-2.6158],[137.5596,-2.6215],[137.5586,-2.6223],[137.5546,-2.6205],[137.5494,-2.6223],[137.5402,-2.6155],[137.534,-2.6145],[137.5294,-2.6159],[137.5264,-2.6193],[137.5195,-2.6185],[137.4974,-2.6214],[137.4932,-2.62],[137.492,-2.6211],[137.4873,-2.6198],[137.4791,-2.6203],[137.474,-2.6133],[137.4695,-2.6102],[137.4695,-2.6086],[137.4647,-2.6122],[137.4625,-2.6109],[137.4619,-2.6125],[137.4587,-2.6108],[137.4558,-2.6059],[137.4514,-2.6048],[137.4482,-2.5907],[137.449,-2.5891],[137.4466,-2.585],[137.4419,-2.5827],[137.4358,-2.583],[137.4265,-2.5785],[137.4294,-2.5732],[137.4363,-2.5663],[137.4363,-2.5629],[137.4254,-2.5545],[137.414,-2.5504],[137.409,-2.5447],[137.4068,-2.538],[137.4039,-2.5373],[137.3965,-2.5241],[137.3885,-2.5215],[137.3876,-2.5194],[137.3854,-2.5198],[137.3832,-2.516],[137.3753,-2.5147],[137.3728,-2.5126],[137.3717,-2.5139],[137.3692,-2.5127],[137.3684,-2.5137],[137.3689,-2.5109],[137.3666,-2.5117],[137.3664,-2.5099],[137.3634,-2.51],[137.3635,-2.5064],[137.3598,-2.5076],[137.3615,-2.5048],[137.3596,-2.5034],[137.36,-2.5018],[137.358,-2.5024],[137.3559,-2.4997],[137.358,-2.4955],[137.3559,-2.4949],[137.3542,-2.4911],[137.352,-2.49],[137.3529,-2.4857],[137.3484,-2.4849],[137.3496,-2.4813],[137.3435,-2.4841],[137.3459,-2.4818],[137.3434,-2.4808],[137.3448,-2.4788],[137.3428,-2.4761],[137.3408,-2.4764],[137.3394,-2.4791],[137.3333,-2.4727],[137.3303,-2.4742],[137.3308,-2.4719],[137.328,-2.4712],[137.3274,-2.473],[137.3197,-2.4627],[137.3204,-2.4591],[137.319,-2.4568],[137.3209,-2.4548],[137.3164,-2.4568],[137.3179,-2.4491],[137.3194,-2.4504],[137.3212,-2.4489],[137.321,-2.4387],[137.3232,-2.4369],[137.3205,-2.4252],[137.3239,-2.4236],[137.3279,-2.4242],[137.33,-2.4171],[137.3335,-2.417],[137.3315,-2.4191],[137.3325,-2.4198],[137.34,-2.4183],[137.3471,-2.4195],[137.3487,-2.4205],[137.3483,-2.4238],[137.3534,-2.4246],[137.357,-2.4208],[137.3642,-2.42],[137.3668,-2.4147],[137.3704,-2.4187],[137.3723,-2.4141],[137.375,-2.4153],[137.3777,-2.4095],[137.3818,-2.4133],[137.3819,-2.4103],[137.3873,-2.4089],[137.3891,-2.4089],[137.3928,-2.4128],[137.3974,-2.4094],[137.4023,-2.4099],[137.403,-2.406],[137.4056,-2.4045],[137.4094,-2.3973],[137.4122,-2.3982],[137.4179,-2.3969],[137.4197,-2.3861],[137.4219,-2.3851],[137.4242,-2.3881],[137.4247,-2.3862],[137.4208,-2.3774],[137.4149,-2.3763],[137.4118,-2.3777],[137.4018,-2.3711],[137.4008,-2.3765],[137.3978,-2.3788],[137.3954,-2.3774],[137.381,-2.3797],[137.3789,-2.377],[137.3823,-2.3766],[137.3834,-2.3736],[137.378,-2.3636],[137.3744,-2.3666],[137.373,-2.3707],[137.3649,-2.3699],[137.3665,-2.3748],[137.3634,-2.3761],[137.3602,-2.3697],[137.3559,-2.3743],[137.3453,-2.3706],[137.3446,-2.3673],[137.3399,-2.3715],[137.3349,-2.3664],[137.325,-2.3629],[137.3225,-2.36],[137.3269,-2.3576],[137.325,-2.3535],[137.3254,-2.3477],[137.3282,-2.3443],[137.3275,-2.3382],[137.3342,-2.3377],[137.332,-2.335],[137.3277,-2.3357],[137.3256,-2.3342],[137.3268,-2.3329],[137.3256,-2.3214],[137.3328,-2.3179],[137.3343,-2.321],[137.3384,-2.3205],[137.3332,-2.3156],[137.3274,-2.3184],[137.3255,-2.3175],[137.3262,-2.3139],[137.3303,-2.3108],[137.3331,-2.3111],[137.333,-2.3096],[137.3298,-2.3087],[137.3266,-2.3097],[137.3301,-2.3061],[137.3234,-2.3001],[137.3291,-2.29],[137.3307,-2.2896],[137.3325,-2.2923],[137.3318,-2.2878],[137.3272,-2.2878],[137.3247,-2.2848],[137.3256,-2.2814],[137.3312,-2.2802],[137.3312,-2.2784],[137.3236,-2.2759],[137.3226,-2.2703],[137.3145,-2.2678],[137.3148,-2.2665],[137.3213,-2.2657],[137.3207,-2.2468],[137.3235,-2.2435],[137.322,-2.2359],[137.327,-2.2404],[137.3288,-2.239],[137.3234,-2.2329],[137.3192,-2.2235],[137.3165,-2.2239],[137.3147,-2.2307],[137.3116,-2.2294],[137.3104,-2.2223],[137.3084,-2.2219],[137.3021,-2.227],[137.3002,-2.2252],[137.3002,-2.2229],[137.3062,-2.2183],[137.3062,-2.2162],[137.3043,-2.2146],[137.2976,-2.2154],[137.2962,-2.214],[137.2982,-2.2113],[137.3084,-2.2111],[137.3127,-2.2069],[137.3106,-2.202],[137.3192,-2.1965],[137.3165,-2.1922],[137.3192,-2.1877],[137.3183,-2.1827],[137.3194,-2.1808],[137.3222,-2.1802],[137.3324,-2.1829],[137.3403,-2.1764],[137.3409,-2.1717],[137.3517,-2.1703],[137.3576,-2.1639],[137.3708,-2.1666],[137.3741,-2.1666],[137.379,-2.1627],[137.3879,-2.1644],[137.3932,-2.1597],[137.3873,-2.152],[137.3936,-2.1522],[137.3977,-2.1487],[137.3997,-2.1491],[137.3997,-2.1546],[137.4078,-2.1548],[137.4048,-2.1519],[137.4054,-2.1479],[137.4113,-2.1477],[137.4154,-2.1428],[137.4227,-2.1442],[137.4243,-2.1426],[137.4143,-2.1371],[137.4145,-2.1312],[137.407,-2.1239],[137.4056,-2.1273],[137.4017,-2.1247],[137.3991,-2.1178],[137.3934,-2.1153],[137.3885,-2.1094],[137.3869,-2.109],[137.3861,-2.1111],[137.3875,-2.1133],[137.3855,-2.1172],[137.3842,-2.1184],[137.3822,-2.1162],[137.38,-2.1131],[137.3812,-2.108],[137.394,-2.0987],[137.3938,-2.096],[137.3924,-2.0936],[137.3846,-2.0932],[137.3812,-2.0915],[137.3812,-2.0889],[137.3891,-2.0857],[137.3871,-2.0822],[137.3751,-2.0804],[137.3722,-2.0814],[137.3678,-2.0863],[137.3653,-2.0867],[137.3594,-2.0826],[137.3629,-2.0726],[137.3478,-2.0549],[137.3485,-2.0529],[137.3613,-2.0497],[137.3611,-2.046],[137.3556,-2.0407],[137.3517,-2.0391],[137.3495,-2.0395],[137.3489,-2.0423],[137.347,-2.0429],[137.3415,-2.0234],[137.3454,-2.0193],[137.3489,-2.0218],[137.3529,-2.0165],[137.3541,-2.012],[137.3592,-2.0108],[137.359,-2.0039],[137.3568,-1.9986],[137.3468,-1.9945],[137.346,-1.9927],[137.348,-1.9854],[137.3507,-1.9852],[137.355,-1.9795],[137.3602,-1.9862],[137.3631,-1.986],[137.3665,-1.9834],[137.37,-1.9748],[137.3716,-1.9577],[137.3816,-1.9494],[137.3893,-1.9547],[137.3914,-1.9545],[137.3914,-1.9437],[137.3928,-1.9411],[137.4048,-1.9325],[137.4091,-1.9445],[137.4203,-1.9555],[137.4192,-1.96],[137.4141,-1.9634],[137.4034,-1.9669],[137.404,-1.9709],[137.4066,-1.974],[137.4145,-1.9781],[137.4117,-1.9895],[137.4131,-1.9941],[137.418,-2.0031],[137.4227,-2.0043],[137.4316,-2.0017],[137.4357,-2.0057],[137.4363,-2.0094],[137.4396,-2.0116],[137.443,-2.0104],[137.4451,-2.0051],[137.4501,-1.9996],[137.4489,-1.9974],[137.441,-1.9931],[137.4412,-1.9905],[137.4489,-1.9882],[137.4522,-1.9797],[137.4644,-1.984],[137.4758,-1.9817],[137.4827,-1.9913],[137.4857,-1.9927],[137.4955,-1.9882],[137.4981,-1.9884],[137.5032,-1.9939],[137.5053,-1.9899],[137.5195,-1.9779],[137.5288,-1.9807],[137.5319,-1.9797],[137.5354,-1.976],[137.5374,-1.9785],[137.5356,-1.9864],[137.5376,-1.9937],[137.54,-1.9958],[137.5457,-1.9968],[137.5476,-1.9956],[137.548,-1.9834],[137.5514,-1.9772],[137.5549,-1.974],[137.5553,-1.9634],[137.5663,-1.9705],[137.5736,-1.9691],[137.5823,-1.9718],[137.585,-1.9705],[137.586,-1.9638],[137.5835,-1.9594],[137.5856,-1.9506],[137.5848,-1.9408],[137.5868,-1.9404],[137.5955,-1.9476],[137.6027,-1.9492],[137.6065,-1.9563],[137.61,-1.9583],[137.6139,-1.9591],[137.6267,-1.9543],[137.6356,-1.9596],[137.6438,-1.9602],[137.6515,-1.9732],[137.6537,-1.985],[137.6553,-1.9864],[137.6606,-1.9864],[137.6647,-1.9899],[137.669,-1.9895],[137.6706,-1.9872],[137.6747,-1.9732],[137.6824,-1.9598],[137.6842,-1.9614],[137.6871,-1.9724],[137.6922,-1.9766],[137.7054,-1.9789],[137.7151,-1.9777],[137.7503,-1.9917],[137.7725,-2.0073],[137.7721,-2.0326],[137.7755,-2.0537],[137.7778,-2.0619],[137.7877,-2.0787],[137.7898,-2.0917],[137.7951,-2.1037],[137.8002,-2.1088],[137.8069,-2.1113],[137.8246,-2.1149],[137.8325,-2.1194],[137.8425,-2.1284],[137.8461,-2.1326],[137.8467,-2.1365],[137.8451,-2.1406],[137.839,-2.1475],[137.841,-2.1507],[137.8465,-2.1515],[137.8526,-2.1497],[137.8693,-2.1379],[137.8786,-2.1345],[137.8831,-2.1357],[137.8965,-2.1678],[137.9063,-2.1753],[137.9073,-2.178],[137.9047,-2.1869],[137.9063,-2.2006]]]}},{"type":"Feature","properties":{"name":"MamberamoIlir","name_en":"MamberamoIlir","admin_level":"6","osm_id":""},"geometry":{"type":"Polygon","coordinates":[[[137.887,-1.7045],[137.8796,-1.7036],[137.8736,-1.7062],[137.8456,-1.723],[137.8171,-1.7368],[137.8072,-1.7377],[137.802,-1.7351],[137.8003,-1.7286],[137.8012,-1.7226],[137.8094,-1.6928],[137.8167,-1.6773],[137.8413,-1.6381],[137.8469,-1.6359],[137.8521,-1.6359],[137.8624,-1.6433],[137.868,-1.6398],[137.8676,-1.6334],[137.8581,-1.6234],[137.8568,-1.617],[137.8577,-1.6062],[137.8633,-1.6006],[137.8645,-1.5941],[137.8719,-1.5791],[137.8736,-1.5687],[137.8701,-1.5523],[137.8633,-1.5329],[137.8658,-1.5269],[137.8719,-1.5252],[137.8766,-1.5217],[137.8813,-1.5148],[137.8844,-1.5071],[137.8831,-1.4898],[137.8857,-1.4834],[137.8964,-1.4709],[137.9018,-1.4719],[137.9091,-1.4693],[137.9211,-1.4609],[137.9319,-1.458],[137.9375,-1.47],[137.95,-1.4893],[137.9545,-1.5011],[137.9528,-1.5042],[137.9539,-1.5078],[137.966,-1.5155],[137.9691,-1.5307],[137.9765,-1.5323],[137.9803,-1.5291],[137.9826,-1.5291],[137.9905,-1.5319],[138.0119,-1.5606],[138.033,-1.5782],[138.0676,-1.601],[138.0992,-1.6154],[138.1334,-1.6256],[138.1704,-1.6309],[138.1681,-1.6346],[138.1685,-1.6511],[138.1749,-1.6738],[138.1794,-1.6807],[138.1785,-1.6819],[138.1733,-1.6788],[138.1713,-1.6839],[138.1671,-1.6811],[138.1636,-1.6819],[138.1646,-1.6857],[138.1701,-1.6898],[138.1705,-1.6926],[138.168,-1.6935],[138.1649,-1.6899],[138.1616,-1.6904],[138.1624,-1.6953],[138.1609,-1.6978],[138.1642,-1.6999],[138.1603,-1.7019],[138.1666,-1.7107],[138.1747,-1.7145],[138.1733,-1.7175],[138.165,-1.7214],[138.1692,-1.7245],[138.1657,-1.7311],[138.171,-1.733],[138.1714,-1.739],[138.1742,-1.7416],[138.1744,-1.7445],[138.1696,-1.748],[138.1681,-1.7575],[138.1656,-1.7621],[138.1585,-1.7645],[138.1582,-1.7694],[138.1551,-1.7727],[138.1588,-1.7756],[138.1562,-1.7808],[138.1568,-1.7829],[138.1651,-1.7837],[138.1662,-1.7856],[138.1647,-1.7889],[138.1581,-1.787],[138.1561,-1.7893],[138.1592,-1.7935],[138.1604,-1.8015],[138.1589,-1.8065],[138.1572,-1.809],[138.1512,-1.8046],[138.1476,-1.8065],[138.1508,-1.8127],[138.1452,-1.8139],[138.1442,-1.8157],[138.1444,-1.8268],[138.1311,-1.8537],[138.1286,-1.8881],[138.1353,-1.9074],[138.137,-1.9401],[138.1504,-1.9543],[138.1797,-1.9652],[138.2322,-1.9799],[138.2361,-1.9823],[138.2394,-1.9938],[138.2321,-1.9926],[138.2281,-1.9966],[138.2256,-1.9966],[138.2241,-1.9938],[138.2209,-1.9951],[138.2189,-1.9993],[138.2216,-2.0042],[138.2163,-2.0102],[138.214,-2.0107],[138.2129,-2.0151],[138.2096,-2.0193],[138.2027,-2.0211],[138.1931,-2.0283],[138.1674,-2.0417],[138.1579,-2.054],[138.1058,-2.0759],[138.0579,-2.1033],[138.0197,-2.1168],[138.0147,-2.1161],[137.9924,-2.1217],[137.9786,-2.1219],[137.9698,-2.1276],[137.9584,-2.1295],[137.9533,-2.1263],[137.9499,-2.1274],[137.9476,-2.1331],[137.9444,-2.1338],[137.9432,-2.1368],[137.9393,-2.1366],[137.929,-2.1414],[137.9221,-2.1421],[137.92,-2.1396],[137.9085,-2.14],[137.9053,-2.1435],[137.8975,-2.1439],[137.8968,-2.1467],[137.894,-2.1467],[137.8947,-2.1488],[137.897,-2.1495],[137.8954,-2.1536],[137.8931,-2.1515],[137.8911,-2.1532],[137.8831,-2.1357],[137.8786,-2.1345],[137.8693,-2.1379],[137.8526,-2.1497],[137.8465,-2.1515],[137.841,-2.1507],[137.839,-2.1475],[137.8451,-2.1406],[137.8467,-2.1365],[137.8461,-2.1326],[137.8425,-2.1284],[137.8325,-2.1194],[137.8246,-2.1149],[137.8002,-2.1088],[137.7951,-2.1037],[137.7922,-2.0979],[137.7877,-2.0787],[137.7778,-2.0619],[137.7755,-2.0537],[137.7721,-2.0326],[137.7725,-2.0073],[137.7737,-1.9967],[137.8046,-1.8843],[137.8082,-1.878],[137.8273,-1.8789],[137.831,-1.8766],[137.8292,-1.8584],[137.8169,-1.8438],[137.8155,-1.8379],[137.8163,-1.8273],[137.8214,-1.8131],[137.8434,-1.7898],[137.8628,-1.7739],[137.8667,-1.7678],[137.8671,-1.7614],[137.8615,-1.7601],[137.8555,-1.7618],[137.8473,-1.767],[137.8309,-1.7833],[137.8219,-1.7864],[137.8133,-1.7838],[137.7999,-1.77],[137.7973,-1.7605],[137.7999,-1.7553],[137.8223,-1.7532],[137.837,-1.7536],[137.8525,-1.7476],[137.8572,-1.7415],[137.8788,-1.7321],[137.8861,-1.7256],[137.8913,-1.7174],[137.8926,-1.7105],[137.887,-1.7045]]]}},{"type":"Feature","properties":{"name":"MamberamoTengah","name_en":"MamberamoTengah","admin_level":"6","osm_id":""},"geometry":{"type":"Polygon","coordinates":[[[138.3159,-2.5855],[138.3027,-2.5656],[138.2966,-2.5601],[138.2929,-2.5514],[138.2807,-2.5373],[138.261,-2.5266],[138.2518,-2.5162],[138.2333,-2.5159],[138.1985,-2.5229],[138.1763,-2.5326],[138.1331,-2.5312],[138.0969,-2.5243],[138.0399,-2.5215],[137.955,-2.5103],[137.9229,-2.5076],[137.9007,-2.4992],[137.8812,-2.4825],[137.8571,-2.4516],[137.8643,-2.438],[137.8661,-2.4101],[137.8724,-2.3975],[137.8833,-2.3866],[137.8959,-2.3821],[137.9103,-2.383],[137.9238,-2.3803],[137.9301,-2.3704],[137.9292,-2.3506],[137.9347,-2.3415],[137.9554,-2.3172],[137.9612,-2.302],[137.9537,-2.298],[137.9458,-2.2878],[137.9425,-2.2742],[137.937,-2.2626],[137.936,-2.2361],[137.9315,-2.2225],[137.9279,-2.2199],[137.9159,-2.2182],[137.913,-2.2152],[137.9063,-2.2006],[137.9047,-2.1869],[137.9073,-2.178],[137.9063,-2.1753],[137.8965,-2.1678],[137.8911,-2.1532],[137.8931,-2.1515],[137.8954,-2.1536],[137.897,-2.1515],[137.897,-2.1495],[137.8947,-2.1488],[137.894,-2.1467],[137.8968,-2.1467],[137.8975,-2.1439],[137.9053,-2.1435],[137.9085,-2.14],[137.92,-2.1396],[137.9221,-2.1421],[137.925,-2.1423],[137.9393,-2.1366],[137.9432,-2.1368],[137.9444,-2.1338],[137.9476,-2.1331],[137.9499,-2.1274],[137.9533,-2.1263],[137.9584,-2.1295],[137.9698,-2.1276],[137.9786,-2.1219],[137.9924,-2.1217],[138.0147,-2.1161],[138.0197,-2.1168],[138.0579,-2.1033],[138.1058,-2.0759],[138.1579,-2.054],[138.1674,-2.0417],[138.1931,-2.0283],[138.2027,-2.0211],[138.2096,-2.0193],[138.2129,-2.0151],[138.214,-2.0107],[138.2163,-2.0102],[138.2216,-2.0042],[138.2189,-1.9993],[138.2209,-1.9951],[138.2241,-1.9938],[138.2256,-1.9966],[138.2281,-1.9966],[138.2321,-1.9926],[138.2394,-1.9938],[138.2464,-1.9842],[138.2509,-1.9835],[138.2527,-1.9849],[138.2531,-1.9883],[138.246,-1.9892],[138.2453,-1.9954],[138.2509,-1.9991],[138.2542,-1.9972],[138.2519,-1.993],[138.253,-1.9901],[138.2597,-1.989],[138.2601,-1.9904],[138.2557,-1.9971],[138.2612,-1.9985],[138.2625,-2.0005],[138.2606,-2.0047],[138.2613,-2.0102],[138.2571,-2.0163],[138.2573,-2.0186],[138.2625,-2.0236],[138.2607,-2.0268],[138.2537,-2.0235],[138.2523,-2.0317],[138.2491,-2.0331],[138.2482,-2.0354],[138.2551,-2.0336],[138.2603,-2.0343],[138.2605,-2.0372],[138.2543,-2.04],[138.2534,-2.0436],[138.2555,-2.0448],[138.2598,-2.0419],[138.2618,-2.0423],[138.263,-2.0495],[138.2657,-2.0513],[138.2806,-2.0495],[138.2881,-2.0444],[138.2894,-2.049],[138.2822,-2.0529],[138.2868,-2.0639],[138.2897,-2.0653],[138.2908,-2.0641],[138.2896,-2.0576],[138.2929,-2.0551],[138.3015,-2.0618],[138.3054,-2.067],[138.3107,-2.0688],[138.3066,-2.0772],[138.3015,-2.076],[138.2941,-2.0779],[138.2924,-2.0814],[138.2957,-2.0859],[138.2981,-2.0856],[138.3027,-2.0815],[138.3058,-2.0823],[138.3056,-2.0856],[138.3027,-2.0884],[138.3027,-2.0911],[138.3051,-2.0927],[138.3107,-2.0869],[138.3155,-2.0868],[138.3183,-2.0884],[138.3145,-2.0933],[138.3144,-2.098],[138.3205,-2.0957],[138.3253,-2.0987],[138.3245,-2.1],[138.317,-2.0999],[138.3162,-2.104],[138.3256,-2.1087],[138.3268,-2.1112],[138.3257,-2.1124],[138.3188,-2.1123],[138.3125,-2.1165],[138.3122,-2.1195],[138.316,-2.1205],[138.3262,-2.1176],[138.3281,-2.1212],[138.3221,-2.1254],[138.3228,-2.1288],[138.3306,-2.1256],[138.3334,-2.1259],[138.3449,-2.1344],[138.3422,-2.136],[138.3357,-2.1307],[138.3327,-2.1312],[138.3326,-2.1331],[138.3374,-2.14],[138.3405,-2.1412],[138.3472,-2.1375],[138.352,-2.1424],[138.3507,-2.1446],[138.3441,-2.1443],[138.344,-2.1538],[138.345,-2.1553],[138.3588,-2.158],[138.3595,-2.1625],[138.3579,-2.1647],[138.3565,-2.164],[138.3536,-2.1584],[138.3501,-2.1578],[138.3494,-2.1603],[138.3521,-2.1634],[138.3519,-2.1669],[138.345,-2.164],[138.3424,-2.165],[138.3432,-2.1673],[138.3484,-2.1702],[138.3484,-2.1776],[138.3523,-2.1769],[138.3538,-2.1697],[138.3569,-2.1693],[138.3585,-2.1719],[138.3568,-2.1794],[138.3601,-2.1803],[138.3614,-2.1759],[138.3641,-2.1746],[138.3688,-2.1852],[138.3726,-2.1897],[138.3739,-2.1892],[138.375,-2.1841],[138.3796,-2.1845],[138.3796,-2.1772],[138.3817,-2.1768],[138.3836,-2.1779],[138.3845,-2.1839],[138.3903,-2.1846],[138.3923,-2.1901],[138.3946,-2.1915],[138.3986,-2.1903],[138.3966,-2.1836],[138.3978,-2.1797],[138.4007,-2.179],[138.4034,-2.1848],[138.4036,-2.1916],[138.4063,-2.192],[138.4112,-2.1878],[138.4147,-2.1895],[138.4094,-2.1937],[138.4076,-2.1999],[138.4092,-2.2018],[138.4128,-2.2014],[138.4174,-2.2038],[138.4176,-2.2081],[138.4201,-2.2079],[138.4216,-2.2022],[138.4195,-2.1986],[138.4207,-2.1974],[138.425,-2.2],[138.4301,-2.1978],[138.431,-2.1997],[138.4251,-2.2025],[138.4247,-2.207],[138.431,-2.2033],[138.4339,-2.207],[138.4399,-2.2102],[138.4441,-2.2042],[138.4467,-2.2085],[138.4406,-2.2116],[138.4408,-2.2148],[138.4456,-2.2139],[138.4499,-2.2148],[138.4522,-2.217],[138.4572,-2.2167],[138.458,-2.219],[138.4546,-2.221],[138.455,-2.2222],[138.4609,-2.2199],[138.463,-2.2172],[138.4656,-2.2211],[138.4674,-2.2195],[138.473,-2.221],[138.4776,-2.2277],[138.4715,-2.2242],[138.4691,-2.2266],[138.4702,-2.2303],[138.4828,-2.2305],[138.4906,-2.2356],[138.4921,-2.2403],[138.4962,-2.2382],[138.5051,-2.2452],[138.5115,-2.245],[138.5173,-2.2467],[138.5185,-2.2477],[138.5183,-2.2534],[138.5162,-2.2599],[138.5285,-2.2613],[138.5309,-2.2662],[138.5332,-2.2675],[138.536,-2.2676],[138.5397,-2.264],[138.5443,-2.2638],[138.5479,-2.2657],[138.5511,-2.2703],[138.5572,-2.2661],[138.5606,-2.271],[138.5619,-2.2659],[138.5653,-2.2675],[138.5695,-2.2667],[138.5695,-2.2652],[138.5766,-2.2706],[138.5779,-2.2734],[138.5792,-2.2682],[138.5829,-2.2671],[138.5853,-2.2688],[138.5904,-2.2657],[138.594,-2.2667],[138.5988,-2.2619],[138.6017,-2.2648],[138.6033,-2.2639],[138.6039,-2.2662],[138.6079,-2.265],[138.6088,-2.2692],[138.6214,-2.2773],[138.6204,-2.2793],[138.6222,-2.2893],[138.6299,-2.3011],[138.6668,-2.3511],[138.7145,-2.4124],[138.7242,-2.4225],[138.7214,-2.4283],[138.7215,-2.4386],[138.7268,-2.4499],[138.7273,-2.4571],[138.7247,-2.4616],[138.7209,-2.4624],[138.7199,-2.4654],[138.7222,-2.47],[138.7204,-2.4748],[138.7214,-2.4777],[138.6357,-2.6197],[138.6212,-2.6459],[138.6456,-2.6596],[138.566,-2.6869],[138.4639,-2.7165],[138.3877,-2.7361],[138.387,-2.7317],[138.3893,-2.7262],[138.3966,-2.7179],[138.4108,-2.695],[138.4154,-2.6753],[138.4131,-2.6643],[138.3851,-2.6441],[138.3718,-2.6317],[138.3558,-2.6248],[138.3397,-2.6147],[138.3226,-2.5969],[138.3159,-2.5855]]]}},{"type":"Feature","properties":{"name":"MamberamoTengahTimur","name_en":"MamberamoTengahTimur","admin_level":"6","osm_id":""},"geometry":{"type":"Polygon","coordinates":[[[138.0848,-2.8266],[138.0856,-2.8285],[138.0872,-2.8273],[138.0903,-2.8289],[138.098,-2.8251],[138.1052,-2.8275],[138.1056,-2.8358],[138.1037,-2.8355],[138.1011,-2.8318],[138.0983,-2.832],[138.0976,-2.834],[138.0991,-2.8374],[138.1051,-2.8373],[138.1187,-2.8449],[138.117,-2.8476],[138.1093,-2.8476],[138.1068,-2.8494],[138.1066,-2.852],[138.1127,-2.8547],[138.1142,-2.8566],[138.1136,-2.8583],[138.1083,-2.8601],[138.1088,-2.8619],[138.0981,-2.871],[138.0922,-2.8651],[138.09,-2.8604],[138.0867,-2.8587],[138.0799,-2.8689],[138.0786,-2.8744],[138.0795,-2.8799],[138.0735,-2.8904],[138.0482,-2.898],[138.0473,-2.9035],[138.0503,-2.9192],[138.0477,-2.926],[138.041,-2.9255],[138.0308,-2.9196],[138.03,-2.9095],[138.0236,-2.9078],[138.0173,-2.9112],[138.0185,-2.9167],[138.0156,-2.9239],[138.0152,-2.9323],[138.0173,-2.9556],[138.0147,-2.9632],[138.0059,-2.9733],[138.0012,-2.9831],[138.0025,-2.9929],[137.9985,-2.9932],[137.9956,-2.9898],[137.9918,-2.9896],[137.9838,-2.9855],[137.9755,-2.9798],[137.974,-2.9762],[137.9706,-2.9742],[137.9714,-2.9709],[137.9685,-2.9706],[137.9682,-2.9671],[137.9656,-2.964],[137.9635,-2.9639],[137.9634,-2.957],[137.9588,-2.9539],[137.9595,-2.9518],[137.9575,-2.951],[137.9584,-2.9497],[137.9568,-2.9493],[137.9541,-2.944],[137.9509,-2.9427],[137.9521,-2.9414],[137.9497,-2.9402],[137.95,-2.9376],[137.9456,-2.9376],[137.9436,-2.9317],[137.938,-2.9305],[137.9353,-2.923],[137.9322,-2.9197],[137.9326,-2.9169],[137.9294,-2.9164],[137.9262,-2.9127],[137.9245,-2.9134],[137.9239,-2.904],[137.9209,-2.9008],[137.9226,-2.8947],[137.9178,-2.8864],[137.9002,-2.892],[137.8707,-2.9049],[137.8166,-2.9143],[137.7848,-2.9167],[137.6964,-2.9192],[137.6953,-2.8979],[137.6824,-2.8767],[137.6577,-2.8673],[137.6471,-2.8331],[137.633,-2.8049],[137.6294,-2.779],[137.6296,-2.7572],[137.6365,-2.758],[137.6377,-2.7602],[137.6396,-2.7593],[137.6404,-2.7574],[137.6363,-2.7525],[137.6419,-2.7488],[137.6448,-2.7519],[137.649,-2.7418],[137.6507,-2.744],[137.6519,-2.7427],[137.6539,-2.7436],[137.6548,-2.7415],[137.6584,-2.7427],[137.6599,-2.7405],[137.6631,-2.7421],[137.6647,-2.7377],[137.6724,-2.7365],[137.6734,-2.7351],[137.6813,-2.7398],[137.6864,-2.7401],[137.6923,-2.7317],[137.6957,-2.7293],[137.7191,-2.7318],[137.7333,-2.7291],[137.743,-2.7333],[137.7473,-2.7336],[137.7509,-2.7364],[137.7536,-2.7361],[137.7538,-2.7379],[137.7617,-2.7396],[137.7654,-2.7387],[137.7679,-2.7402],[137.7729,-2.7403],[137.7758,-2.7363],[137.7811,-2.7372],[137.7507,-2.6817],[137.7483,-2.669],[137.738,-2.6572],[137.7103,-2.65],[137.7103,-2.6405],[137.7016,-2.6278],[137.7055,-2.6168],[137.6794,-2.6112],[137.6746,-2.6049],[137.6729,-2.5917],[137.6774,-2.5883],[137.6898,-2.5879],[137.7012,-2.5775],[137.7064,-2.5758],[137.7098,-2.5813],[137.7263,-2.5833],[137.7422,-2.5937],[137.7448,-2.5936],[137.7472,-2.5903],[137.7506,-2.5924],[137.7535,-2.5916],[137.7564,-2.5979],[137.7601,-2.5995],[137.7603,-2.6028],[137.7635,-2.6048],[137.7665,-2.6151],[137.7708,-2.6111],[137.7731,-2.6147],[137.7789,-2.6108],[137.7841,-2.6116],[137.7899,-2.6172],[137.7894,-2.6191],[137.787,-2.6185],[137.7862,-2.6199],[137.7868,-2.6229],[137.7917,-2.6231],[137.7923,-2.6186],[137.796,-2.6201],[137.7958,-2.6252],[137.7976,-2.6254],[137.7996,-2.6292],[137.8066,-2.6343],[137.8116,-2.6451],[137.8132,-2.6442],[137.8127,-2.6403],[137.8152,-2.6405],[137.8208,-2.65],[137.8315,-2.661],[137.8362,-2.6605],[137.8429,-2.6625],[137.8467,-2.6673],[137.8472,-2.6734],[137.8506,-2.672],[137.8499,-2.6572],[137.8436,-2.6265],[137.8436,-2.6166],[137.8409,-2.6013],[137.8391,-2.5427],[137.8409,-2.5327],[137.8481,-2.5264],[137.8553,-2.5147],[137.8544,-2.503],[137.8481,-2.4804],[137.8481,-2.4696],[137.8535,-2.4615],[137.8571,-2.4516],[137.8812,-2.4825],[137.9007,-2.4992],[137.9229,-2.5076],[137.955,-2.5103],[138.0399,-2.5215],[138.0969,-2.5243],[138.1331,-2.5312],[138.1763,-2.5326],[138.1985,-2.5229],[138.2333,-2.5159],[138.2518,-2.5162],[138.261,-2.5266],[138.2807,-2.5373],[138.2897,-2.5473],[138.2956,-2.5556],[138.2966,-2.5601],[138.3027,-2.5656],[138.3226,-2.5969],[138.3397,-2.6147],[138.3558,-2.6248],[138.3718,-2.6317],[138.3851,-2.6441],[138.4131,-2.6643],[138.4154,-2.6753],[138.4108,-2.695],[138.3966,-2.7179],[138.3893,-2.7262],[138.387,-2.7317],[138.3877,-2.7361],[138.3792,-2.7816],[138.3727,-2.7844],[138.3691,-2.7908],[138.3733,-2.8013],[138.3645,-2.8079],[138.3542,-2.8227],[138.3154,-2.8353],[138.3018,-2.833],[138.2813,-2.833],[138.2653,-2.8262],[138.2437,-2.825],[138.2174,-2.7934],[138.2074,-2.7978],[138.1971,-2.7954],[138.1579,-2.7954],[138.1304,-2.7993],[138.1084,-2.8096],[138.0862,-2.8242],[138.0848,-2.8266]]]}},{"type":"Feature","properties":{"name":"MamberamoUlu","name_en":"MamberamoUlu","admin_level":"6","osm_id":""},"geometry":{"type":"Polygon","coordinates":[[[139.0336,-3.2824],[139.0382,-3.2937],[139.0484,-3.2923],[139.0515,-3.2836],[139.0588,-3.2765],[139.0721,-3.2749],[139.0888,-3.2806],[139.0983,-3.2955],[139.0975,-3.308],[139.0836,-3.311],[139.0826,-3.3005],[139.0836,-3.2877],[139.0743,-3.2873],[139.0674,-3.2965],[139.069,-3.3094],[139.0757,-3.3253],[139.0762,-3.336],[139.0648,-3.3634],[139.048,-3.3929],[139.0053,-3.3817],[138.9899,-3.3901],[138.9661,-3.3999],[138.9304,-3.4195],[138.9164,-3.4209],[138.8841,-3.4293],[138.8549,-3.4179],[138.7925,-3.3471],[138.7301,-3.2858],[138.6879,-3.2889],[138.6466,-3.309],[138.5627,-3.3375],[138.4977,-3.3316],[138.4696,-3.325],[138.4069,-3.3299],[138.3805,-3.3184],[138.3656,-3.2903],[138.3573,-3.2622],[138.3392,-3.216],[138.3272,-3.1944],[138.2748,-3.1978],[138.2153,-3.2077],[138.1773,-3.2308],[138.1723,-3.2364],[138.1677,-3.2661],[138.1617,-3.2781],[138.1557,-3.2824],[138.1458,-3.2863],[138.1335,-3.2836],[138.1279,-3.2724],[138.1104,-3.2626],[138.0873,-3.264],[138.0761,-3.2626],[138.0684,-3.2549],[138.0663,-3.2451],[138.0579,-3.2416],[138.0481,-3.2416],[138.0412,-3.2464],[138.0154,-3.2352],[138.0098,-3.2245],[138.0132,-3.22],[138.0193,-3.2172],[138.0193,-3.1993],[138.0137,-3.1904],[138.007,-3.1848],[138.0067,-3.1651],[138.0096,-3.1605],[138.0099,-3.1554],[138.007,-3.1533],[137.9967,-3.154],[137.9949,-3.1508],[137.9952,-3.1465],[137.9909,-3.1454],[137.9873,-3.1483],[137.9841,-3.1458],[137.9848,-3.1411],[137.9743,-3.1345],[137.9531,-3.1274],[137.8825,-3.1168],[137.8248,-3.1203],[137.7342,-3.118],[137.6659,-3.1133],[137.6177,-3.1121],[137.5953,-3.0886],[137.5815,-3.0656],[137.5766,-3.0673],[137.5718,-3.0665],[137.5688,-3.0642],[137.5628,-3.0539],[137.5581,-3.0515],[137.5394,-3.0517],[137.5312,-3.0539],[137.5248,-3.0585],[137.521,-3.0584],[137.5124,-3.0574],[137.5068,-3.0531],[137.503,-3.0537],[137.5008,-3.0507],[137.4939,-3.055],[137.4923,-3.046],[137.4874,-3.0505],[137.4855,-3.0505],[137.4839,-3.0499],[137.4854,-3.0474],[137.4833,-3.0442],[137.4753,-3.0462],[137.4754,-3.0486],[137.4729,-3.0502],[137.4681,-3.0452],[137.4655,-3.0482],[137.4656,-3.0506],[137.4623,-3.0521],[137.4601,-3.0513],[137.4617,-3.0475],[137.4594,-3.047],[137.4582,-3.0501],[137.4561,-3.0499],[137.4492,-3.04],[137.4448,-3.0415],[137.4369,-3.0402],[137.4361,-3.0379],[137.4373,-3.0369],[137.44,-3.038],[137.4413,-3.0366],[137.4388,-3.0322],[137.4357,-3.0303],[137.4392,-3.0288],[137.4394,-3.0252],[137.4339,-3.021],[137.4319,-3.0158],[137.4262,-3.0168],[137.4208,-3.0137],[137.4328,-3.007],[137.4247,-3.0051],[137.4203,-3.0077],[137.419,-2.9973],[137.423,-2.9941],[137.4186,-2.9933],[137.4164,-2.9895],[137.4079,-2.9885],[137.4054,-2.9861],[137.3954,-2.983],[137.3935,-2.9802],[137.3903,-2.9791],[137.3891,-2.9741],[137.3861,-2.9712],[137.3857,-2.9649],[137.3833,-2.9639],[137.3804,-2.9658],[137.3789,-2.9637],[137.3774,-2.9569],[137.3825,-2.956],[137.3821,-2.954],[137.3771,-2.9513],[137.3705,-2.951],[137.37,-2.9479],[137.3751,-2.9497],[137.3817,-2.9478],[137.3843,-2.9453],[137.3829,-2.9435],[137.3779,-2.9439],[137.3776,-2.9421],[137.3803,-2.9397],[137.3793,-2.9328],[137.372,-2.9377],[137.3689,-2.938],[137.3673,-2.9372],[137.3681,-2.9347],[137.3641,-2.932],[137.3647,-2.9305],[137.3704,-2.9302],[137.3657,-2.925],[137.3662,-2.9229],[137.3727,-2.9225],[137.3685,-2.9188],[137.3639,-2.9189],[137.3634,-2.917],[137.3693,-2.9135],[137.3695,-2.9115],[137.3602,-2.9109],[137.3563,-2.9095],[137.3543,-2.9061],[137.3548,-2.9038],[137.3633,-2.9013],[137.3588,-2.8937],[137.3599,-2.8789],[137.3578,-2.8773],[137.3519,-2.8796],[137.3511,-2.8755],[137.3535,-2.87],[137.3499,-2.8647],[137.3457,-2.8691],[137.3447,-2.8681],[137.3443,-2.8567],[137.3413,-2.86],[137.3369,-2.8581],[137.3359,-2.8553],[137.3331,-2.8557],[137.3306,-2.8508],[137.3269,-2.8517],[137.3233,-2.8492],[137.3247,-2.8527],[137.3231,-2.8531],[137.319,-2.8478],[137.2849,-2.8431],[137.2755,-2.8366],[137.2691,-2.8241],[137.2668,-2.7963],[137.2718,-2.7931],[137.291,-2.7912],[137.3121,-2.7859],[137.3141,-2.7834],[137.3402,-2.8095],[137.4059,-2.8898],[137.4229,-2.9409],[137.4546,-2.9896],[137.4838,-3.0091],[137.5422,-3.0334],[137.5714,-3.0407],[137.5958,-3.0529],[137.6153,-3.0846],[137.6274,-3.0894],[137.7516,-3.1065],[137.8173,-3.104],[137.9001,-3.1065],[137.9512,-3.1016],[137.9997,-3.1113],[138.0024,-3.1067],[138.0063,-3.1045],[138.007,-3.1006],[138.0182,-3.0916],[138.0268,-3.0787],[138.0264,-3.0733],[138.0132,-3.0586],[138.0139,-3.0525],[138.0167,-3.049],[138.0257,-3.0479],[138.0322,-3.0576],[138.0357,-3.0594],[138.0393,-3.0568],[138.035,-3.0482],[138.0365,-3.0457],[138.0393,-3.045],[138.0461,-3.0508],[138.0494,-3.0515],[138.0526,-3.0486],[138.0533,-3.045],[138.0511,-3.0414],[138.0379,-3.0422],[138.0365,-3.0382],[138.0379,-3.0339],[138.0422,-3.0303],[138.0594,-3.0198],[138.064,-3.022],[138.0696,-3.0207],[138.0872,-3.0288],[138.1004,-3.0244],[138.1171,-3.0241],[138.1273,-3.0275],[138.132,-3.0337],[138.1348,-3.0417],[138.1412,-3.043],[138.1468,-3.0396],[138.1468,-3.0343],[138.1406,-3.0263],[138.1388,-3.0195],[138.1425,-3.0096],[138.1493,-3.0031],[138.1446,-2.992],[138.1391,-2.9902],[138.1276,-2.9926],[138.1205,-3.0019],[138.1156,-3.0047],[138.1103,-3.0062],[138.1066,-3.0041],[138.1057,-2.9997],[138.1073,-2.9951],[138.114,-2.9849],[138.1239,-2.9759],[138.1279,-2.9753],[138.1344,-2.9793],[138.1496,-2.983],[138.1579,-2.9775],[138.1588,-2.9701],[138.1616,-2.9688],[138.1675,-2.9741],[138.1715,-2.9815],[138.1774,-2.988],[138.1817,-2.9914],[138.187,-2.9902],[138.1888,-2.9837],[138.1882,-2.9778],[138.1814,-2.9707],[138.1814,-2.9623],[138.1848,-2.9546],[138.19,-2.9481],[138.1959,-2.9463],[138.2036,-2.9481],[138.2095,-2.9522],[138.2092,-2.9719],[138.2203,-2.9725],[138.2342,-2.9664],[138.2389,-2.9627],[138.2407,-2.9552],[138.2404,-2.9469],[138.2299,-2.9352],[138.2293,-2.9287],[138.2308,-2.9209],[138.2364,-2.9157],[138.2438,-2.916],[138.2506,-2.9206],[138.2537,-2.9296],[138.2546,-2.9407],[138.2611,-2.9469],[138.2701,-2.9454],[138.2753,-2.9355],[138.2735,-2.9101],[138.2784,-2.8897],[138.2815,-2.8863],[138.2858,-2.8885],[138.2898,-2.8953],[138.2966,-2.9157],[138.309,-2.9231],[138.3179,-2.9231],[138.3241,-2.9188],[138.3288,-2.9135],[138.3306,-2.9077],[138.3278,-2.9021],[138.3102,-2.8941],[138.3099,-2.8891],[138.3139,-2.8839],[138.3217,-2.8836],[138.3288,-2.886],[138.3334,-2.8904],[138.3359,-2.8993],[138.3399,-2.904],[138.3458,-2.9055],[138.3516,-2.9043],[138.3572,-2.8984],[138.3615,-2.8996],[138.3714,-2.9138],[138.3779,-2.9293],[138.3924,-2.9404],[138.3952,-2.9457],[138.4032,-2.946],[138.4066,-2.9413],[138.4088,-2.9302],[138.4116,-2.9247],[138.4168,-2.9213],[138.432,-2.9256],[138.4417,-2.922],[138.5047,-2.886],[138.5104,-2.8719],[138.5146,-2.8506],[138.5338,-2.8053],[138.5522,-2.7918],[138.577,-2.7861],[138.6046,-2.7769],[138.6124,-2.7677],[138.6181,-2.75],[138.628,-2.7422],[138.6464,-2.7387],[138.6613,-2.7415],[138.679,-2.7422],[138.6925,-2.7408],[138.713,-2.7188],[138.7225,-2.6994],[138.7665,-2.7208],[139.1115,-2.9028],[139.1139,-2.9067],[139.1176,-2.9088],[139.1136,-2.9085],[139.1119,-2.915],[139.1089,-2.915],[139.1103,-2.9176],[139.1096,-2.9204],[139.1032,-2.9224],[139.1026,-2.9245],[139.1107,-2.9258],[139.1142,-2.9249],[139.1152,-2.9271],[139.114,-2.9326],[139.1161,-2.9329],[139.12,-2.9323],[139.1256,-2.9263],[139.1268,-2.9289],[139.1262,-2.9333],[139.138,-2.9415],[139.1398,-2.9499],[139.1454,-2.9563],[139.1396,-2.9593],[139.1409,-2.9685],[139.1354,-2.9673],[139.133,-2.9702],[139.138,-2.9696],[139.1421,-2.9735],[139.136,-2.9733],[139.1342,-2.9756],[139.1403,-2.9763],[139.139,-2.9831],[139.1326,-2.9837],[139.1325,-2.9857],[139.1367,-2.9892],[139.1364,-2.9916],[139.1328,-2.9946],[139.1302,-2.9876],[139.1236,-2.9889],[139.1207,-2.9845],[139.1194,-2.9848],[139.1192,-2.9893],[139.1171,-2.9906],[139.1227,-2.9954],[139.1269,-2.9959],[139.1236,-2.9984],[139.1268,-3.0057],[139.1259,-3.0187],[139.1231,-3.0308],[139.0925,-3.0738],[139.0876,-3.073],[139.0843,-3.0766],[139.0824,-3.0754],[139.074,-3.0768],[139.0736,-3.0784],[139.0767,-3.0831],[139.0749,-3.085],[139.0734,-3.0826],[139.0693,-3.0822],[139.0718,-3.0904],[139.0711,-3.0928],[139.0682,-3.0906],[139.0666,-3.0857],[139.0605,-3.0888],[139.0604,-3.0932],[139.0573,-3.0941],[139.0568,-3.0984],[139.0531,-3.098],[139.0498,-3.1085],[139.0453,-3.1084],[139.0476,-3.1135],[139.045,-3.1156],[139.0443,-3.1202],[139.0387,-3.123],[139.0374,-3.1276],[139.0393,-3.1299],[139.0355,-3.1293],[139.0307,-3.1241],[139.0291,-3.1253],[139.0295,-3.127],[139.0329,-3.1316],[139.0325,-3.1335],[139.0301,-3.1334],[139.028,-3.1273],[139.0261,-3.1265],[139.0259,-3.1311],[139.0285,-3.1335],[139.0308,-3.1401],[139.0335,-3.1412],[139.0252,-3.1438],[139.022,-3.1429],[139.0212,-3.1456],[139.0225,-3.1489],[139.0169,-3.1468],[139.0168,-3.149],[139.0231,-3.1527],[139.0221,-3.1624],[139.0183,-3.1631],[139.0222,-3.1644],[139.0226,-3.1659],[139.0182,-3.1659],[139.0153,-3.1697],[139.0158,-3.1714],[139.0209,-3.1707],[139.0219,-3.1725],[139.0206,-3.1748],[139.0154,-3.1726],[139.0147,-3.1748],[139.0228,-3.1771],[139.0218,-3.1795],[139.0162,-3.1827],[139.0214,-3.1861],[139.0145,-3.1894],[139.0125,-3.1884],[139.0031,-3.1906],[139.0011,-3.1935],[139.0022,-3.197],[139.0069,-3.1973],[139.0063,-3.2003],[139.0028,-3.2009],[139.0032,-3.2036],[139.0069,-3.2059],[139.0026,-3.2093],[139.005,-3.2174],[139.0067,-3.2173],[139.007,-3.2145],[139.0086,-3.2152],[139.0069,-3.2188],[139.0089,-3.22],[139.0025,-3.224],[139.0068,-3.2268],[139.0035,-3.2313],[139.0071,-3.234],[139.0078,-3.2287],[139.0107,-3.2297],[139.0113,-3.2329],[139.014,-3.23],[139.0146,-3.2313],[139.0123,-3.2339],[139.0119,-3.2372],[139.0145,-3.237],[139.0146,-3.2385],[139.0123,-3.2389],[139.0122,-3.2419],[139.0098,-3.2407],[139.0086,-3.2424],[139.0107,-3.2459],[139.0125,-3.2431],[139.0134,-3.2436],[139.0115,-3.248],[139.0124,-3.2496],[139.0181,-3.2494],[139.0173,-3.2525],[139.0209,-3.2535],[139.0157,-3.2564],[139.0161,-3.2575],[139.0202,-3.2556],[139.0218,-3.2574],[139.0209,-3.2611],[139.0175,-3.2624],[139.0189,-3.2669],[139.0172,-3.2673],[139.0156,-3.2734],[139.0174,-3.2806],[139.0196,-3.2842],[139.0205,-3.2822],[139.0336,-3.2824]]]}},{"type":"Feature","properties":{"name":"Rofaer","name_en":"Rofaer","admin_level":"6","osm_id":""},"geometry":{"type":"Polygon","coordinates":[[[138.0059,-2.9733],[138.0147,-2.9632],[138.0173,-2.9556],[138.0152,-2.9323],[138.0156,-2.9239],[138.0185,-2.9167],[138.0173,-2.9112],[138.0236,-2.9078],[138.03,-2.9095],[138.0308,-2.9196],[138.041,-2.9255],[138.0477,-2.926],[138.0503,-2.9192],[138.0473,-2.9035],[138.0482,-2.898],[138.0735,-2.8904],[138.0795,-2.8799],[138.0786,-2.8744],[138.0799,-2.8689],[138.0867,-2.8587],[138.09,-2.8604],[138.0922,-2.8651],[138.0981,-2.871],[138.1088,-2.8619],[138.1083,-2.8601],[138.1136,-2.8583],[138.1142,-2.8566],[138.1127,-2.8547],[138.1066,-2.852],[138.1076,-2.8484],[138.117,-2.8476],[138.1188,-2.8458],[138.1051,-2.8373],[138.0991,-2.8374],[138.0983,-2.832],[138.1011,-2.8318],[138.1037,-2.8355],[138.1056,-2.8358],[138.1044,-2.8266],[138.098,-2.8251],[138.0903,-2.8289],[138.0872,-2.8273],[138.0856,-2.8285],[138.0848,-2.8266],[138.0862,-2.8242],[138.1084,-2.8096],[138.1304,-2.7993],[138.1579,-2.7954],[138.1971,-2.7954],[138.2074,-2.7978],[138.2174,-2.7934],[138.2437,-2.825],[138.2653,-2.8262],[138.2813,-2.833],[138.3018,-2.833],[138.3154,-2.8353],[138.3542,-2.8227],[138.3645,-2.8079],[138.3733,-2.8013],[138.3691,-2.7908],[138.3727,-2.7844],[138.3792,-2.7816],[138.3877,-2.7361],[138.4639,-2.7165],[138.566,-2.6869],[138.6456,-2.6596],[138.6705,-2.6738],[138.7225,-2.6994],[138.713,-2.7188],[138.6925,-2.7408],[138.679,-2.7422],[138.6613,-2.7415],[138.6464,-2.7387],[138.628,-2.7422],[138.6181,-2.75],[138.6124,-2.7677],[138.6046,-2.7769],[138.577,-2.7861],[138.5522,-2.7918],[138.5338,-2.8053],[138.5146,-2.8506],[138.5104,-2.8719],[138.5047,-2.886],[138.4417,-2.922],[138.432,-2.9256],[138.4168,-2.9213],[138.4116,-2.9247],[138.4088,-2.9302],[138.4066,-2.9413],[138.4032,-2.946],[138.3952,-2.9457],[138.3924,-2.9404],[138.3779,-2.9293],[138.3714,-2.9138],[138.3615,-2.8996],[138.3572,-2.8984],[138.3516,-2.9043],[138.3458,-2.9055],[138.3399,-2.904],[138.3359,-2.8993],[138.3334,-2.8904],[138.3288,-2.886],[138.3217,-2.8836],[138.3139,-2.8839],[138.3099,-2.8891],[138.3102,-2.8941],[138.3278,-2.9021],[138.3306,-2.9077],[138.3288,-2.9135],[138.3241,-2.9188],[138.3179,-2.9231],[138.309,-2.9231],[138.2966,-2.9157],[138.2898,-2.8953],[138.2858,-2.8885],[138.2815,-2.8863],[138.2784,-2.8897],[138.2735,-2.9101],[138.2753,-2.9355],[138.2701,-2.9454],[138.2611,-2.9469],[138.2546,-2.9407],[138.2537,-2.9296],[138.2506,-2.9206],[138.2438,-2.916],[138.2364,-2.9157],[138.2308,-2.9209],[138.2293,-2.9287],[138.2299,-2.9352],[138.2404,-2.9469],[138.2407,-2.9552],[138.2389,-2.9627],[138.2342,-2.9664],[138.2203,-2.9725],[138.2092,-2.9719],[138.2095,-2.9522],[138.2036,-2.9481],[138.1959,-2.9463],[138.19,-2.9481],[138.1848,-2.9546],[138.1814,-2.9623],[138.1814,-2.9707],[138.1882,-2.9778],[138.1888,-2.9837],[138.187,-2.9902],[138.1817,-2.9914],[138.1774,-2.988],[138.1715,-2.9815],[138.1675,-2.9741],[138.1616,-2.9688],[138.1588,-2.9701],[138.1579,-2.9775],[138.1496,-2.983],[138.1344,-2.9793],[138.1279,-2.9753],[138.1239,-2.9759],[138.114,-2.9849],[138.1073,-2.9951],[138.1057,-2.9997],[138.1066,-3.0041],[138.1103,-3.0062],[138.1156,-3.0047],[138.1205,-3.0019],[138.1276,-2.9926],[138.1391,-2.9902],[138.1446,-2.992],[138.1493,-3.0031],[138.1425,-3.0096],[138.1388,-3.0195],[138.1406,-3.0263],[138.1468,-3.0343],[138.1468,-3.0396],[138.1412,-3.043],[138.1348,-3.0417],[138.132,-3.0337],[138.1273,-3.0275],[138.1171,-3.0241],[138.1004,-3.0244],[138.0872,-3.0288],[138.0696,-3.0207],[138.064,-3.022],[138.0594,-3.0198],[138.0422,-3.0303],[138.0379,-3.0339],[138.0365,-3.0382],[138.0379,-3.0422],[138.0511,-3.0414],[138.0533,-3.045],[138.0526,-3.0486],[138.0494,-3.0515],[138.0461,-3.0508],[138.0393,-3.045],[138.0365,-3.0457],[138.035,-3.0482],[138.0393,-3.0568],[138.0357,-3.0594],[138.0322,-3.0576],[138.0257,-3.0479],[138.0167,-3.049],[138.0139,-3.0525],[138.0132,-3.0586],[138.0264,-3.0733],[138.0268,-3.0787],[138.0182,-3.0916],[138.007,-3.1006],[138.0063,-3.1045],[138.0024,-3.1067],[137.9997,-3.1113],[137.9512,-3.1016],[137.9001,-3.1065],[137.8173,-3.104],[137.7516,-3.1065],[137.6274,-3.0894],[137.6153,-3.0846],[137.5958,-3.0529],[137.5714,-3.0407],[137.5422,-3.0334],[137.4838,-3.0091],[137.4546,-2.9896],[137.4229,-2.9409],[137.4059,-2.8898],[137.3402,-2.8095],[137.3141,-2.7834],[137.3121,-2.7859],[137.291,-2.7912],[137.2718,-2.7931],[137.2721,-2.7772],[137.2492,-2.7611],[137.2763,-2.7291],[137.2792,-2.724],[137.2792,-2.7204],[137.283,-2.7231],[137.2836,-2.721],[137.2873,-2.7191],[137.2861,-2.7146],[137.2664,-2.6975],[137.2634,-2.6929],[137.2631,-2.6881],[137.2608,-2.6857],[137.2601,-2.6816],[137.263,-2.6706],[137.2613,-2.6655],[137.263,-2.6634],[137.2646,-2.653],[137.2606,-2.6381],[137.2634,-2.6372],[137.2677,-2.631],[137.2652,-2.6276],[137.2636,-2.6305],[137.2634,-2.627],[137.2617,-2.626],[137.261,-2.6223],[137.2644,-2.6254],[137.2654,-2.6244],[137.2618,-2.6192],[137.2635,-2.6165],[137.2607,-2.6164],[137.2628,-2.6144],[137.2609,-2.6124],[137.2622,-2.6107],[137.2578,-2.6084],[137.2608,-2.6061],[137.2564,-2.6026],[137.2553,-2.6041],[137.2536,-2.6035],[137.255,-2.6031],[137.2533,-2.6021],[137.255,-2.5995],[137.2518,-2.5958],[137.2537,-2.5911],[137.2518,-2.5911],[137.2505,-2.5889],[137.2489,-2.5896],[137.2484,-2.5875],[137.2465,-2.5876],[137.2451,-2.5847],[137.2423,-2.585],[137.2407,-2.581],[137.2369,-2.5794],[137.2404,-2.5757],[137.237,-2.5743],[137.2369,-2.5761],[137.2306,-2.5759],[137.2316,-2.5778],[137.23,-2.5783],[137.2276,-2.5749],[137.2266,-2.5769],[137.2236,-2.5776],[137.2219,-2.5767],[137.2225,-2.573],[137.2134,-2.5724],[137.1931,-2.5637],[137.1907,-2.5555],[137.2051,-2.5411],[137.2263,-2.5485],[137.2592,-2.5719],[137.2751,-2.5856],[137.3047,-2.6439],[137.3365,-2.6831],[137.3662,-2.7022],[137.3821,-2.717],[137.3905,-2.7287],[137.4213,-2.7509],[137.4455,-2.7606],[137.4556,-2.7581],[137.464,-2.7614],[137.4701,-2.7596],[137.474,-2.7609],[137.4772,-2.7598],[137.4819,-2.7542],[137.486,-2.7521],[137.4918,-2.7532],[137.4966,-2.7584],[137.5082,-2.7598],[137.5151,-2.7567],[137.5151,-2.7492],[137.5167,-2.7472],[137.5237,-2.7446],[137.5297,-2.7498],[137.5373,-2.7463],[137.5424,-2.7477],[137.5478,-2.7419],[137.5596,-2.7397],[137.5615,-2.7338],[137.5677,-2.7294],[137.5692,-2.7289],[137.5696,-2.7358],[137.5737,-2.7352],[137.5781,-2.7322],[137.5768,-2.7297],[137.5791,-2.7284],[137.5794,-2.7318],[137.5815,-2.7319],[137.5817,-2.7293],[137.5836,-2.7299],[137.583,-2.7332],[137.5873,-2.7366],[137.5891,-2.7419],[137.5918,-2.7426],[137.5912,-2.7463],[137.5945,-2.7485],[137.596,-2.7485],[137.5947,-2.745],[137.5985,-2.7454],[137.6019,-2.7417],[137.607,-2.7415],[137.6084,-2.745],[137.6102,-2.7452],[137.6119,-2.7435],[137.6158,-2.745],[137.6194,-2.7432],[137.6233,-2.7473],[137.6233,-2.7452],[137.6259,-2.7447],[137.6263,-2.7493],[137.6303,-2.7471],[137.631,-2.7497],[137.6259,-2.7549],[137.6296,-2.7572],[137.6294,-2.779],[137.633,-2.8049],[137.6471,-2.8331],[137.6577,-2.8673],[137.6824,-2.8767],[137.6953,-2.8979],[137.6964,-2.9192],[137.7848,-2.9167],[137.8166,-2.9143],[137.8707,-2.9049],[137.9002,-2.892],[137.9178,-2.8864],[137.9226,-2.8947],[137.9209,-2.9008],[137.9239,-2.904],[137.9245,-2.9134],[137.9262,-2.9127],[137.9294,-2.9164],[137.9326,-2.9169],[137.9322,-2.9197],[137.9353,-2.923],[137.938,-2.9305],[137.9436,-2.9317],[137.9456,-2.9376],[137.95,-2.9376],[137.9497,-2.9402],[137.9521,-2.9414],[137.9509,-2.9427],[137.9541,-2.944],[137.9568,-2.9493],[137.9584,-2.9497],[137.9575,-2.951],[137.9595,-2.9518],[137.9588,-2.9539],[137.9634,-2.957],[137.9635,-2.9639],[137.9656,-2.964],[137.9682,-2.9671],[137.9685,-2.9706],[137.9714,-2.9709],[137.9706,-2.9742],[137.974,-2.9762],[137.9755,-2.9798],[137.9911,-2.9892],[137.9956,-2.9898],[137.9985,-2.9932],[138.0025,-2.9929],[138.0012,-2.9831],[138.0059,-2.9733]]]}},{"type":"Feature","properties":{"name":"Sawai","name_en":"Sawai","admin_level":"6","osm_id":""},"geometry":{"type":"Polygon","coordinates":[[[137.2032,-2.2288],[137.1797,-2.225],[137.1762,-2.2282],[137.1738,-2.2274],[137.163,-2.2298],[137.1613,-2.2282],[137.1591,-2.2313],[137.1546,-2.2311],[137.1483,-2.2353],[137.141,-2.2364],[137.1424,-2.2262],[137.1459,-2.2195],[137.1451,-2.216],[137.1487,-2.2148],[137.1509,-2.2073],[137.1527,-2.1861],[137.1508,-2.1782],[137.1481,-2.1751],[137.1445,-2.1719],[137.1396,-2.1707],[137.1373,-2.1719],[137.1335,-2.1698],[137.1337,-2.167],[137.1282,-2.1623],[137.1288,-2.1587],[137.1253,-2.1517],[137.119,-2.1489],[137.1188,-2.1467],[137.1209,-2.1446],[137.127,-2.1424],[137.1306,-2.1434],[137.1274,-2.1363],[137.1231,-2.1345],[137.1201,-2.1355],[137.116,-2.1292],[137.1178,-2.1194],[137.1164,-2.1131],[137.1178,-2.1092],[137.1226,-2.1043],[137.1218,-2.1021],[137.1234,-2.1001],[137.1333,-2.101],[137.1419,-2.0981],[137.1494,-2.1022],[137.1545,-2.1031],[137.1589,-2.0951],[137.1656,-2.0919],[137.1672,-2.0893],[137.1665,-2.0873],[137.1683,-2.0862],[137.1698,-2.0883],[137.1752,-2.0838],[137.1732,-2.0816],[137.1752,-2.0781],[137.1782,-2.081],[137.1814,-2.0806],[137.1815,-2.0772],[137.1857,-2.0796],[137.1893,-2.0771],[137.1957,-2.0665],[137.2017,-2.0702],[137.2051,-2.0683],[137.2057,-2.0641],[137.2164,-2.0601],[137.2214,-2.06],[137.2222,-2.058],[137.2267,-2.0557],[137.2276,-2.0531],[137.2305,-2.0519],[137.2319,-2.0447],[137.2305,-2.0419],[137.2267,-2.0424],[137.2152,-2.0382],[137.2145,-2.0346],[137.2119,-2.0324],[137.2133,-2.0303],[137.2117,-2.0298],[137.2116,-2.0248],[137.2057,-2.0209],[137.2036,-2.0134],[137.1997,-2.0087],[137.1928,-2.0036],[137.1929,-2.0011],[137.1897,-2.0005],[137.1927,-1.9926],[137.1892,-1.991],[137.1898,-1.989],[137.1947,-1.9874],[137.2029,-1.988],[137.2082,-1.9902],[137.2137,-1.9867],[137.2164,-1.9813],[137.2155,-1.9788],[137.2086,-1.9777],[137.2017,-1.9702],[137.2044,-1.9706],[137.2033,-1.9663],[137.1971,-1.9628],[137.1966,-1.9607],[137.1932,-1.9598],[137.1945,-1.9565],[137.1928,-1.9542],[137.1915,-1.9447],[137.1815,-1.9363],[137.1784,-1.9373],[137.1776,-1.9396],[137.175,-1.9395],[137.1687,-1.9327],[137.1667,-1.9335],[137.1591,-1.9303],[137.1561,-1.9318],[137.1436,-1.8983],[137.1372,-1.8939],[137.1335,-1.8974],[137.1288,-1.8966],[137.1251,-1.8921],[137.1229,-1.8934],[137.1212,-1.8909],[137.1239,-1.888],[137.1221,-1.8802],[137.1072,-1.8705],[137.1065,-1.8659],[137.1039,-1.8656],[137.1036,-1.8632],[137.0989,-1.859],[137.0912,-1.8553],[137.0892,-1.8516],[137.0948,-1.8072],[137.1023,-1.7931],[137.1133,-1.7866],[137.1245,-1.7757],[137.138,-1.7716],[137.1415,-1.7728],[137.1439,-1.7762],[137.1511,-1.7759],[137.1542,-1.773],[137.1545,-1.7699],[137.1651,-1.7633],[137.2036,-1.7468],[137.2168,-1.7462],[137.2287,-1.7491],[137.2285,-1.7508],[137.2416,-1.7514],[137.2444,-1.7499],[137.2463,-1.7465],[137.2457,-1.7434],[137.2426,-1.7414],[137.2467,-1.7358],[137.2772,-1.7211],[137.3017,-1.7062],[137.3102,-1.698],[137.314,-1.6977],[137.3157,-1.7008],[137.3228,-1.702],[137.329,-1.6976],[137.33,-1.6917],[137.3346,-1.6874],[137.3636,-1.6756],[137.3732,-1.6686],[137.4018,-1.6556],[137.403,-1.6515],[137.4084,-1.6476],[137.4296,-1.634],[137.4446,-1.6281],[137.4496,-1.6213],[137.4743,-1.6053],[137.4764,-1.6022],[137.4767,-1.5976],[137.5311,-1.5783],[137.5389,-1.5721],[137.569,-1.5617],[137.5813,-1.5548],[137.5878,-1.5561],[137.5941,-1.5511],[137.6104,-1.5454],[137.6369,-1.5293],[137.6406,-1.5295],[137.645,-1.5257],[137.6462,-1.5215],[137.6576,-1.515],[137.6649,-1.5135],[137.6814,-1.5049],[137.7242,-1.4943],[137.7341,-1.4945],[137.7379,-1.4978],[137.7399,-1.4974],[137.743,-1.4935],[137.7407,-1.4792],[137.7436,-1.4769],[137.7645,-1.4774],[137.7735,-1.4824],[137.7788,-1.4811],[137.7795,-1.4791],[137.7904,-1.4764],[137.7986,-1.4695],[137.811,-1.4667],[137.8159,-1.4672],[137.8222,-1.465],[137.8237,-1.4658],[137.8368,-1.462],[137.8484,-1.4643],[137.8921,-1.4646],[137.8938,-1.469],[137.8964,-1.4709],[137.8857,-1.4834],[137.8831,-1.4898],[137.8844,-1.5071],[137.8813,-1.5148],[137.8766,-1.5217],[137.8719,-1.5252],[137.8658,-1.5269],[137.8633,-1.5329],[137.8701,-1.5523],[137.8736,-1.5687],[137.8719,-1.5791],[137.8645,-1.5941],[137.8633,-1.6006],[137.8577,-1.6062],[137.8568,-1.617],[137.8581,-1.6234],[137.8676,-1.6334],[137.868,-1.6398],[137.8624,-1.6433],[137.8521,-1.6359],[137.8469,-1.6359],[137.8413,-1.6381],[137.8133,-1.6838],[137.8094,-1.6928],[137.8003,-1.7286],[137.802,-1.7351],[137.8072,-1.7377],[137.8171,-1.7368],[137.8456,-1.723],[137.8796,-1.7036],[137.887,-1.7045],[137.8926,-1.7105],[137.8913,-1.7174],[137.8861,-1.7256],[137.8788,-1.7321],[137.8572,-1.7415],[137.8525,-1.7476],[137.837,-1.7536],[137.8223,-1.7532],[137.7999,-1.7553],[137.7973,-1.7605],[137.7999,-1.77],[137.8133,-1.7838],[137.8219,-1.7864],[137.8309,-1.7833],[137.8473,-1.767],[137.8555,-1.7618],[137.8615,-1.7601],[137.8671,-1.7614],[137.8667,-1.7678],[137.8628,-1.7739],[137.8434,-1.7898],[137.8214,-1.8131],[137.8163,-1.8273],[137.8155,-1.8379],[137.8169,-1.8438],[137.8292,-1.8584],[137.831,-1.8766],[137.8273,-1.8789],[137.8082,-1.878],[137.8046,-1.8843],[137.7737,-1.9967],[137.7725,-2.0073],[137.7503,-1.9917],[137.7286,-1.9823],[137.7151,-1.9777],[137.7054,-1.9789],[137.6922,-1.9766],[137.6871,-1.9724],[137.6842,-1.9614],[137.6824,-1.9598],[137.6747,-1.9732],[137.6706,-1.9872],[137.669,-1.9895],[137.6647,-1.9899],[137.6606,-1.9864],[137.6553,-1.9864],[137.6537,-1.985],[137.6515,-1.9732],[137.6438,-1.9602],[137.6356,-1.9596],[137.6267,-1.9543],[137.6139,-1.9591],[137.61,-1.9583],[137.6065,-1.9563],[137.6027,-1.9492],[137.5955,-1.9476],[137.5868,-1.9404],[137.5848,-1.9408],[137.5856,-1.9506],[137.5835,-1.9594],[137.586,-1.9638],[137.585,-1.9705],[137.5823,-1.9718],[137.5736,-1.9691],[137.5663,-1.9705],[137.5553,-1.9634],[137.5549,-1.974],[137.5514,-1.9772],[137.548,-1.9834],[137.5476,-1.9956],[137.5457,-1.9968],[137.54,-1.9958],[137.5376,-1.9937],[137.5356,-1.9864],[137.5374,-1.9785],[137.5354,-1.976],[137.5319,-1.9797],[137.5288,-1.9807],[137.5195,-1.9779],[137.5053,-1.9899],[137.5032,-1.9939],[137.4981,-1.9884],[137.4955,-1.9882],[137.4857,-1.9927],[137.4827,-1.9913],[137.4758,-1.9817],[137.4644,-1.984],[137.4522,-1.9797],[137.4489,-1.9882],[137.4412,-1.9905],[137.441,-1.9931],[137.4489,-1.9974],[137.4501,-1.9996],[137.4451,-2.0051],[137.443,-2.0104],[137.4396,-2.0116],[137.4363,-2.0094],[137.4357,-2.0057],[137.4316,-2.0017],[137.4227,-2.0043],[137.418,-2.0031],[137.4131,-1.9941],[137.4117,-1.9895],[137.4145,-1.9781],[137.4066,-1.974],[137.404,-1.9709],[137.4034,-1.9669],[137.4141,-1.9634],[137.4192,-1.96],[137.4203,-1.9555],[137.4091,-1.9445],[137.4048,-1.9325],[137.3928,-1.9411],[137.3914,-1.9437],[137.3914,-1.9545],[137.3893,-1.9547],[137.3816,-1.9494],[137.3716,-1.9577],[137.37,-1.9748],[137.3665,-1.9834],[137.3631,-1.986],[137.3602,-1.9862],[137.355,-1.9795],[137.3507,-1.9852],[137.348,-1.9854],[137.346,-1.9927],[137.3468,-1.9945],[137.3568,-1.9986],[137.359,-2.0039],[137.3592,-2.0108],[137.3541,-2.012],[137.3529,-2.0165],[137.3489,-2.0218],[137.3454,-2.0193],[137.3415,-2.0234],[137.347,-2.0429],[137.3489,-2.0423],[137.3495,-2.0395],[137.3517,-2.0391],[137.3556,-2.0407],[137.3611,-2.046],[137.3613,-2.0497],[137.3485,-2.0529],[137.3478,-2.0549],[137.3629,-2.0726],[137.3594,-2.0826],[137.3653,-2.0867],[137.3678,-2.0863],[137.3722,-2.0814],[137.3751,-2.0804],[137.3871,-2.0822],[137.3891,-2.0857],[137.3812,-2.0889],[137.3812,-2.0915],[137.3846,-2.0932],[137.3924,-2.0936],[137.3938,-2.096],[137.394,-2.0987],[137.3812,-2.108],[137.38,-2.1131],[137.3822,-2.1162],[137.3842,-2.1184],[137.3855,-2.1172],[137.3875,-2.1133],[137.3861,-2.1111],[137.3869,-2.109],[137.3885,-2.1094],[137.3934,-2.1153],[137.3991,-2.1178],[137.4017,-2.1247],[137.4056,-2.1273],[137.407,-2.1239],[137.4145,-2.1312],[137.4143,-2.1371],[137.4243,-2.1426],[137.4227,-2.1442],[137.4154,-2.1428],[137.4113,-2.1477],[137.4054,-2.1479],[137.4048,-2.1519],[137.4078,-2.1548],[137.3997,-2.1546],[137.3997,-2.1491],[137.3977,-2.1487],[137.3936,-2.1522],[137.3873,-2.152],[137.3932,-2.1597],[137.3879,-2.1644],[137.379,-2.1627],[137.3741,-2.1666],[137.3708,-2.1666],[137.3576,-2.1639],[137.3517,-2.1703],[137.3409,-2.1717],[137.3403,-2.1764],[137.3324,-2.1829],[137.3222,-2.1802],[137.3194,-2.1808],[137.3183,-2.1827],[137.3192,-2.1877],[137.3165,-2.1922],[137.3192,-2.1965],[137.3106,-2.202],[137.3127,-2.2069],[137.3084,-2.2111],[137.3053,-2.2121],[137.3004,-2.2109],[137.2964,-2.2124],[137.2976,-2.2154],[137.3025,-2.2144],[137.3062,-2.2162],[137.3062,-2.2183],[137.3002,-2.2229],[137.3002,-2.2252],[137.3021,-2.227],[137.3084,-2.2219],[137.3112,-2.2239],[137.3116,-2.2294],[137.3147,-2.2307],[137.3177,-2.2231],[137.3218,-2.2274],[137.3234,-2.2329],[137.3153,-2.2341],[137.3116,-2.239],[137.3021,-2.24],[137.3002,-2.237],[137.2984,-2.2382],[137.2988,-2.2418],[137.2968,-2.2425],[137.2921,-2.2406],[137.2897,-2.2424],[137.2799,-2.2433],[137.2777,-2.241],[137.2691,-2.2394],[137.2529,-2.24],[137.2364,-2.2382],[137.2341,-2.237],[137.2337,-2.2333],[137.2274,-2.2351],[137.2238,-2.2323],[137.2122,-2.2319],[137.2089,-2.2292],[137.2032,-2.2288]]]}},{"type":"Feature","properties":{"name":"WaropenAtas","name_en":"WaropenAtas","admin_level":"6","osm_id":""},"geometry":{"type":"Polygon","coordinates":[[[137.3232,-2.4369],[137.321,-2.4387],[137.3212,-2.4489],[137.3194,-2.4504],[137.3179,-2.4491],[137.3181,-2.4519],[137.316,-2.455],[137.317,-2.457],[137.3209,-2.4548],[137.319,-2.4568],[137.3204,-2.4591],[137.3197,-2.4627],[137.3268,-2.4725],[137.3294,-2.4712],[137.3315,-2.4743],[137.3333,-2.4727],[137.3394,-2.4791],[137.3408,-2.4764],[137.3428,-2.4761],[137.3448,-2.4788],[137.3434,-2.4808],[137.3459,-2.4818],[137.3435,-2.4841],[137.3496,-2.4813],[137.3484,-2.4849],[137.3529,-2.4857],[137.352,-2.49],[137.3542,-2.4911],[137.3559,-2.4949],[137.358,-2.4955],[137.3559,-2.4997],[137.358,-2.5024],[137.36,-2.5018],[137.3596,-2.5034],[137.3615,-2.5048],[137.3598,-2.5076],[137.3635,-2.5064],[137.3634,-2.51],[137.3664,-2.5099],[137.3666,-2.5117],[137.3689,-2.5109],[137.3684,-2.5137],[137.3692,-2.5127],[137.3717,-2.5139],[137.3728,-2.5126],[137.3753,-2.5147],[137.3832,-2.516],[137.3854,-2.5198],[137.3876,-2.5194],[137.3885,-2.5215],[137.3929,-2.5237],[137.3949,-2.5231],[137.3981,-2.5256],[137.4039,-2.5373],[137.4068,-2.538],[137.409,-2.5447],[137.414,-2.5504],[137.4254,-2.5545],[137.4363,-2.5629],[137.4363,-2.5663],[137.4294,-2.5732],[137.4265,-2.5785],[137.4358,-2.583],[137.4419,-2.5827],[137.4466,-2.585],[137.449,-2.5891],[137.4482,-2.5907],[137.4514,-2.6048],[137.4558,-2.6059],[137.4587,-2.6108],[137.4619,-2.6125],[137.4625,-2.6109],[137.4647,-2.6122],[137.4695,-2.6086],[137.4695,-2.6102],[137.474,-2.6133],[137.4791,-2.6203],[137.4873,-2.6198],[137.492,-2.6211],[137.4932,-2.62],[137.4974,-2.6214],[137.5195,-2.6185],[137.5264,-2.6193],[137.5294,-2.6159],[137.534,-2.6145],[137.5402,-2.6155],[137.5494,-2.6223],[137.5546,-2.6205],[137.5586,-2.6223],[137.5596,-2.6215],[137.5569,-2.6158],[137.55,-2.6115],[137.5511,-2.6031],[137.555,-2.6049],[137.5554,-2.5999],[137.5596,-2.5955],[137.5625,-2.5891],[137.574,-2.5765],[137.5742,-2.572],[137.5841,-2.5465],[137.5805,-2.5458],[137.5779,-2.5394],[137.5745,-2.5358],[137.5803,-2.5312],[137.6002,-2.5264],[137.6019,-2.5306],[137.6094,-2.5388],[137.6091,-2.5452],[137.6121,-2.5483],[137.6088,-2.5541],[137.6096,-2.5601],[137.6069,-2.5671],[137.6081,-2.5697],[137.6153,-2.575],[137.623,-2.5771],[137.6281,-2.5816],[137.6315,-2.5803],[137.6317,-2.5827],[137.6366,-2.5796],[137.6363,-2.5764],[137.6384,-2.5812],[137.6414,-2.5779],[137.6456,-2.5818],[137.65,-2.5829],[137.6567,-2.5919],[137.6579,-2.5889],[137.6621,-2.5903],[137.665,-2.5881],[137.6691,-2.5898],[137.6701,-2.5918],[137.6729,-2.5917],[137.6746,-2.6049],[137.6794,-2.6112],[137.7055,-2.6168],[137.7016,-2.6278],[137.7103,-2.6405],[137.7103,-2.65],[137.738,-2.6572],[137.7483,-2.669],[137.7507,-2.6817],[137.7811,-2.7372],[137.7758,-2.7363],[137.7729,-2.7403],[137.7679,-2.7402],[137.7654,-2.7387],[137.7617,-2.7396],[137.7538,-2.7379],[137.7536,-2.7361],[137.7509,-2.7364],[137.7473,-2.7336],[137.743,-2.7333],[137.7333,-2.7291],[137.7191,-2.7318],[137.6957,-2.7293],[137.6923,-2.7317],[137.6864,-2.7401],[137.6813,-2.7398],[137.6734,-2.7351],[137.6724,-2.7365],[137.6647,-2.7377],[137.6631,-2.7421],[137.6599,-2.7405],[137.6584,-2.7427],[137.6548,-2.7415],[137.6539,-2.7436],[137.6519,-2.7427],[137.6507,-2.744],[137.649,-2.7418],[137.6448,-2.7519],[137.6419,-2.7488],[137.6363,-2.7525],[137.6404,-2.7574],[137.6377,-2.7602],[137.6365,-2.758],[137.6266,-2.7562],[137.6268,-2.7529],[137.6312,-2.7479],[137.629,-2.7468],[137.6276,-2.7488],[137.6253,-2.7488],[137.6259,-2.7447],[137.6233,-2.7452],[137.6233,-2.7473],[137.6194,-2.7432],[137.6158,-2.745],[137.6119,-2.7435],[137.6102,-2.7452],[137.6084,-2.745],[137.607,-2.7415],[137.6019,-2.7417],[137.5985,-2.7454],[137.5947,-2.745],[137.596,-2.7485],[137.5918,-2.7471],[137.5918,-2.7426],[137.5891,-2.7419],[137.5873,-2.7366],[137.583,-2.7332],[137.5836,-2.7299],[137.5817,-2.7293],[137.5815,-2.7319],[137.5794,-2.7318],[137.5791,-2.7284],[137.5768,-2.7297],[137.5781,-2.7322],[137.5737,-2.7352],[137.5696,-2.7358],[137.5692,-2.7289],[137.5677,-2.7294],[137.5615,-2.7338],[137.5596,-2.7397],[137.5478,-2.7419],[137.5424,-2.7477],[137.5373,-2.7463],[137.5297,-2.7498],[137.5237,-2.7446],[137.5167,-2.7472],[137.5151,-2.7492],[137.5151,-2.7567],[137.5082,-2.7598],[137.4966,-2.7584],[137.4918,-2.7532],[137.486,-2.7521],[137.4819,-2.7542],[137.4772,-2.7598],[137.474,-2.7609],[137.4701,-2.7596],[137.464,-2.7614],[137.4556,-2.7581],[137.4455,-2.7606],[137.4213,-2.7509],[137.3905,-2.7287],[137.3821,-2.717],[137.3662,-2.7022],[137.3365,-2.6831],[137.3047,-2.6439],[137.2751,-2.5856],[137.2592,-2.5719],[137.2263,-2.5485],[137.2051,-2.5411],[137.1907,-2.5555],[137.1834,-2.5504],[137.1778,-2.5498],[137.1714,-2.5457],[137.1677,-2.5393],[137.1612,-2.5376],[137.1586,-2.5393],[137.1568,-2.5368],[137.155,-2.5363],[137.1546,-2.5378],[137.1517,-2.5349],[137.149,-2.5353],[137.1474,-2.5325],[137.1488,-2.5298],[137.1456,-2.5263],[137.1429,-2.5271],[137.1432,-2.523],[137.1408,-2.5219],[137.1392,-2.523],[137.1371,-2.5178],[137.131,-2.5205],[137.1285,-2.5185],[137.1279,-2.521],[137.1257,-2.5184],[137.1249,-2.5207],[137.123,-2.5154],[137.1207,-2.5175],[137.1195,-2.5153],[137.1159,-2.5147],[137.1148,-2.5123],[137.1134,-2.512],[137.1122,-2.5139],[137.11,-2.511],[137.1137,-2.5058],[137.1123,-2.5007],[137.1111,-2.4996],[137.1072,-2.5015],[137.1058,-2.4994],[137.1061,-2.4957],[137.1039,-2.4955],[137.1012,-2.4922],[137.0966,-2.4911],[137.0932,-2.4879],[137.0897,-2.489],[137.0885,-2.4861],[137.0871,-2.4862],[137.0867,-2.4832],[137.0798,-2.4821],[137.0773,-2.48],[137.0765,-2.4852],[137.075,-2.4856],[137.0694,-2.4801],[137.0644,-2.4799],[137.0635,-2.477],[137.0616,-2.4778],[137.0593,-2.4757],[137.0583,-2.4701],[137.0548,-2.4697],[137.0563,-2.4674],[137.0555,-2.4648],[137.0494,-2.4622],[137.0486,-2.4577],[137.0435,-2.4616],[137.0406,-2.4559],[137.0363,-2.4601],[137.0349,-2.458],[137.037,-2.4553],[137.0346,-2.453],[137.0363,-2.4498],[137.034,-2.4482],[137.0391,-2.4481],[137.0404,-2.4418],[137.0348,-2.4403],[137.0362,-2.4294],[137.0351,-2.4278],[137.0307,-2.4302],[137.0316,-2.4246],[137.0308,-2.4183],[137.0293,-2.4167],[137.0258,-2.418],[137.0199,-2.4239],[137.013,-2.4199],[137.0066,-2.4204],[137.0023,-2.4256],[136.9975,-2.4229],[136.995,-2.4189],[136.9878,-2.4222],[136.9843,-2.418],[136.9743,-2.4261],[136.9708,-2.4256],[136.9692,-2.4233],[136.9643,-2.4252],[136.9635,-2.4205],[136.967,-2.4158],[136.966,-2.414],[136.9577,-2.4116],[136.9538,-2.4035],[136.9497,-2.4018],[136.9497,-2.3986],[136.9481,-2.3968],[136.9444,-2.3948],[136.9407,-2.3979],[136.9341,-2.3929],[136.9132,-2.3854],[136.9079,-2.3795],[136.9079,-2.3772],[136.9121,-2.3718],[136.9094,-2.3644],[136.91,-2.3614],[136.9154,-2.3594],[136.9157,-2.3564],[136.9205,-2.3582],[136.9249,-2.3624],[136.9311,-2.362],[136.9325,-2.3612],[136.9317,-2.359],[136.9278,-2.3562],[136.9267,-2.3502],[136.9311,-2.3474],[136.9336,-2.347],[136.9374,-2.3495],[136.938,-2.3477],[136.9381,-2.34],[136.9369,-2.3391],[136.9248,-2.3349],[136.9213,-2.3389],[136.9192,-2.334],[136.9151,-2.3319],[136.9158,-2.3288],[136.9185,-2.328],[136.9143,-2.3192],[136.9207,-2.3098],[136.9214,-2.3044],[136.9263,-2.3021],[136.9265,-2.3006],[136.9205,-2.2996],[136.9164,-2.2937],[136.9094,-2.2982],[136.9029,-2.2942],[136.9059,-2.2896],[136.9038,-2.2853],[136.9047,-2.2834],[136.9137,-2.2866],[136.9139,-2.2854],[136.91,-2.2827],[136.9112,-2.2781],[136.9066,-2.2765],[136.9023,-2.2648],[136.8995,-2.2694],[136.8938,-2.2651],[136.8962,-2.2705],[136.8943,-2.2724],[136.8916,-2.2713],[136.8918,-2.2653],[136.8886,-2.2603],[136.8895,-2.2548],[136.8837,-2.2522],[136.8855,-2.2498],[136.885,-2.2476],[136.8782,-2.2481],[136.8779,-2.2434],[136.8745,-2.2416],[136.8733,-2.2389],[136.8738,-2.2314],[136.8716,-2.2317],[136.8697,-2.2356],[136.8674,-2.2346],[136.867,-2.2285],[136.864,-2.2218],[136.8604,-2.2244],[136.8572,-2.2198],[136.8557,-2.2228],[136.8535,-2.2234],[136.8506,-2.2202],[136.846,-2.2209],[136.844,-2.2176],[136.8412,-2.2197],[136.8387,-2.2194],[136.8394,-2.2134],[136.8349,-2.2132],[136.8257,-2.2036],[136.8251,-2.2002],[136.8272,-2.1945],[136.8226,-2.1904],[136.8226,-2.1864],[136.807,-2.1763],[136.808,-2.1746],[136.8116,-2.1744],[136.8259,-2.1768],[136.8367,-2.1728],[136.8375,-2.1747],[136.8348,-2.1826],[136.8361,-2.1948],[136.8377,-2.1964],[136.8391,-2.195],[136.8418,-2.1956],[136.8443,-2.1911],[136.8467,-2.1904],[136.8469,-2.192],[136.8494,-2.1905],[136.8498,-2.1921],[136.8528,-2.1898],[136.856,-2.1836],[136.8627,-2.1817],[136.8648,-2.1839],[136.8745,-2.1756],[136.8826,-2.1776],[136.8903,-2.1735],[136.8938,-2.1779],[136.8931,-2.1763],[136.8961,-2.1762],[136.9017,-2.1782],[136.9041,-2.1773],[136.9081,-2.1798],[136.9119,-2.1786],[136.9119,-2.1741],[136.9153,-2.1704],[136.9156,-2.1652],[136.9183,-2.1648],[136.9249,-2.1506],[136.9324,-2.1511],[136.9351,-2.148],[136.9388,-2.1467],[136.9424,-2.1406],[136.9447,-2.1396],[136.9379,-2.1288],[136.9423,-2.1217],[136.9514,-2.127],[136.9548,-2.1267],[136.9556,-2.1251],[136.9587,-2.1255],[136.9624,-2.1286],[136.9704,-2.1315],[136.9757,-2.1312],[136.9769,-2.1327],[136.9871,-2.1286],[137.0001,-2.1291],[137.0147,-2.1183],[137.0205,-2.1183],[137.0248,-2.1148],[137.0288,-2.1168],[137.0311,-2.1143],[137.039,-2.1135],[137.0421,-2.1054],[137.0436,-2.1055],[137.0428,-2.1047],[137.0472,-2.1044],[137.0506,-2.1019],[137.0558,-2.1025],[137.058,-2.0984],[137.0615,-2.1001],[137.0667,-2.0999],[137.0722,-2.1032],[137.0769,-2.1035],[137.0856,-2.1006],[137.0901,-2.1016],[137.092,-2.1032],[137.092,-2.1077],[137.1023,-2.111],[137.1069,-2.1087],[137.1073,-2.1109],[137.1087,-2.111],[137.1159,-2.1061],[137.119,-2.1078],[137.1164,-2.1131],[137.1178,-2.1194],[137.116,-2.1292],[137.1201,-2.1355],[137.1231,-2.1345],[137.1274,-2.1363],[137.1306,-2.1434],[137.127,-2.1424],[137.1209,-2.1446],[137.1188,-2.1467],[137.119,-2.1489],[137.1253,-2.1517],[137.1288,-2.1587],[137.1282,-2.1623],[137.1337,-2.167],[137.1335,-2.1698],[137.1373,-2.1719],[137.1396,-2.1707],[137.1445,-2.1719],[137.1481,-2.1751],[137.1508,-2.1782],[137.1527,-2.1861],[137.1509,-2.2073],[137.1487,-2.2148],[137.1451,-2.216],[137.1459,-2.2195],[137.1424,-2.2262],[137.141,-2.2364],[137.1483,-2.2353],[137.1546,-2.2311],[137.1591,-2.2313],[137.1613,-2.2282],[137.163,-2.2298],[137.1738,-2.2274],[137.1762,-2.2282],[137.1797,-2.225],[137.1974,-2.2288],[137.2067,-2.2286],[137.2122,-2.2319],[137.2238,-2.2323],[137.2274,-2.2351],[137.2321,-2.2329],[137.2337,-2.2333],[137.2341,-2.237],[137.2364,-2.2382],[137.2529,-2.24],[137.2691,-2.2394],[137.2777,-2.241],[137.2799,-2.2433],[137.2897,-2.2424],[137.2921,-2.2406],[137.2968,-2.2425],[137.2988,-2.2418],[137.2984,-2.2382],[137.3002,-2.237],[137.3021,-2.24],[137.3116,-2.239],[137.3153,-2.2341],[137.3234,-2.2329],[137.3277,-2.2368],[137.3285,-2.2399],[137.327,-2.2404],[137.322,-2.2359],[137.3235,-2.2435],[137.3207,-2.2468],[137.3213,-2.2657],[137.3148,-2.2665],[137.3145,-2.2678],[137.3226,-2.2703],[137.3236,-2.2759],[137.3312,-2.2784],[137.3312,-2.2802],[137.3256,-2.2814],[137.3247,-2.2848],[137.3272,-2.2878],[137.3318,-2.2878],[137.3325,-2.2923],[137.3307,-2.2896],[137.3291,-2.29],[137.3234,-2.3001],[137.3301,-2.3061],[137.3266,-2.3097],[137.3298,-2.3087],[137.333,-2.3096],[137.3331,-2.3111],[137.3303,-2.3108],[137.3262,-2.3139],[137.3255,-2.3175],[137.3274,-2.3184],[137.3332,-2.3156],[137.3384,-2.3205],[137.3343,-2.321],[137.3328,-2.3179],[137.3256,-2.3214],[137.3268,-2.3329],[137.3256,-2.3342],[137.3277,-2.3357],[137.332,-2.335],[137.3342,-2.3377],[137.3275,-2.3382],[137.3282,-2.3443],[137.3254,-2.3477],[137.325,-2.3535],[137.3269,-2.3576],[137.3225,-2.36],[137.325,-2.3629],[137.3349,-2.3664],[137.3399,-2.3715],[137.3446,-2.3673],[137.3453,-2.3706],[137.3559,-2.3743],[137.3602,-2.3697],[137.3634,-2.3761],[137.3665,-2.3748],[137.3649,-2.3699],[137.373,-2.3707],[137.3744,-2.3666],[137.378,-2.3636],[137.3834,-2.3736],[137.3823,-2.3766],[137.3789,-2.377],[137.381,-2.3797],[137.3954,-2.3774],[137.3978,-2.3788],[137.4008,-2.3765],[137.4018,-2.3711],[137.4118,-2.3777],[137.4149,-2.3763],[137.4218,-2.3784],[137.4219,-2.3823],[137.4245,-2.3841],[137.4242,-2.3881],[137.4219,-2.3851],[137.4197,-2.3861],[137.4179,-2.3969],[137.4122,-2.3982],[137.4094,-2.3973],[137.4056,-2.4045],[137.403,-2.406],[137.4023,-2.4099],[137.3974,-2.4094],[137.3928,-2.4128],[137.3891,-2.4089],[137.3873,-2.4089],[137.3819,-2.4103],[137.3818,-2.4133],[137.3777,-2.4095],[137.375,-2.4153],[137.3723,-2.4141],[137.3704,-2.4187],[137.3668,-2.4147],[137.3642,-2.42],[137.357,-2.4208],[137.3534,-2.4246],[137.3483,-2.4238],[137.3487,-2.4205],[137.3471,-2.4195],[137.34,-2.4183],[137.3325,-2.4198],[137.3315,-2.4191],[137.3335,-2.417],[137.33,-2.4171],[137.3279,-2.4242],[137.3239,-2.4236],[137.3205,-2.4252],[137.3232,-2.4369]]]}}]}