{"type":"FeatureCollection","metadata":{"parent_osm_id":"gid_IDN.21.18_1","parent_name":"SumbaTengah","parent_name_1":"NusaTenggaraTimur","parent_gid":"IDN.21.18_1","parent_level":"5","child_level":"6","count":5,"source":"GADM 4.1","generated":"2026-05-05"},"features":[{"type":"Feature","properties":{"name":"Katikutana","name_en":"Katikutana","admin_level":"6","osm_id":""},"geometry":{"type":"Polygon","coordinates":[[[119.4833,-9.6205],[119.4826,-9.6103],[119.4806,-9.6055],[119.495,-9.587],[119.5077,-9.577],[119.5131,-9.5682],[119.5161,-9.5603],[119.5149,-9.5424],[119.5186,-9.5361],[119.5371,-9.5481],[119.5458,-9.5465],[119.5498,-9.5494],[119.5566,-9.5412],[119.5581,-9.5358],[119.5695,-9.5395],[119.5707,-9.5516],[119.5743,-9.5551],[119.5779,-9.5846],[119.5801,-9.5923],[119.5835,-9.5975],[119.5846,-9.6118],[119.5808,-9.6102],[119.5646,-9.6089],[119.5615,-9.6096],[119.5608,-9.6122],[119.555,-9.6176],[119.5508,-9.612],[119.5467,-9.6109],[119.5352,-9.6126],[119.5056,-9.621],[119.4828,-9.6244],[119.4833,-9.6205]]]}},{"type":"Feature","properties":{"name":"KatikutanaSelatan","name_en":"KatikutanaSelatan","admin_level":"6","osm_id":""},"geometry":{"type":"Polygon","coordinates":[[[119.5937,-9.621],[119.5966,-9.6179],[119.6068,-9.6163],[119.6115,-9.6214],[119.6133,-9.6198],[119.6173,-9.6216],[119.6218,-9.6416],[119.6258,-9.6486],[119.6301,-9.6508],[119.6334,-9.6581],[119.6339,-9.6658],[119.6346,-9.6649],[119.636,-9.6666],[119.6369,-9.6712],[119.6392,-9.673],[119.6421,-9.6726],[119.6471,-9.6756],[119.6518,-9.676],[119.6521,-9.6855],[119.6605,-9.6904],[119.6637,-9.6973],[119.6761,-9.6979],[119.6944,-9.7079],[119.7275,-9.7094],[119.7278,-9.7155],[119.7325,-9.7179],[119.7384,-9.7272],[119.7412,-9.7265],[119.7488,-9.7315],[119.7497,-9.7352],[119.7426,-9.7432],[119.7378,-9.7561],[119.7369,-9.779],[119.7341,-9.7914],[119.736,-9.8068],[119.7317,-9.8227],[119.732,-9.8405],[119.7203,-9.8439],[119.714,-9.8383],[119.6914,-9.8336],[119.6857,-9.8302],[119.6748,-9.8287],[119.6784,-9.8289],[119.6783,-9.8274],[119.6801,-9.8286],[119.6828,-9.8271],[119.6831,-9.824],[119.689,-9.8201],[119.6899,-9.816],[119.6887,-9.8127],[119.6851,-9.8119],[119.6866,-9.8073],[119.6841,-9.8036],[119.6827,-9.8047],[119.681,-9.8037],[119.6807,-9.8049],[119.6789,-9.8033],[119.6746,-9.8036],[119.6755,-9.8018],[119.6724,-9.7972],[119.6773,-9.7961],[119.6787,-9.7902],[119.6731,-9.7861],[119.6729,-9.7828],[119.6703,-9.7806],[119.66,-9.7766],[119.6535,-9.7763],[119.65,-9.7786],[119.6496,-9.7826],[119.647,-9.7833],[119.6467,-9.7855],[119.65,-9.7885],[119.6474,-9.79],[119.646,-9.7934],[119.6422,-9.7924],[119.6279,-9.7998],[119.6211,-9.8009],[119.6179,-9.7986],[119.6141,-9.7904],[119.621,-9.7912],[119.6225,-9.7883],[119.6199,-9.7863],[119.6199,-9.7839],[119.6237,-9.7848],[119.6276,-9.7789],[119.628,-9.7771],[119.6255,-9.7751],[119.6259,-9.7736],[119.6282,-9.7733],[119.6283,-9.7696],[119.6241,-9.7655],[119.6151,-9.764],[119.6132,-9.7701],[119.6086,-9.7754],[119.6056,-9.7738],[119.6019,-9.777],[119.5949,-9.7791],[119.595,-9.7776],[119.5938,-9.7786],[119.5933,-9.7772],[119.5961,-9.7738],[119.5955,-9.7726],[119.5918,-9.7739],[119.5904,-9.7721],[119.5899,-9.7733],[119.5899,-9.7717],[119.5869,-9.7699],[119.5879,-9.7663],[119.5834,-9.7619],[119.579,-9.7629],[119.5774,-9.7663],[119.5745,-9.7656],[119.5682,-9.7689],[119.5592,-9.7638],[119.5532,-9.766],[119.5486,-9.7585],[119.5494,-9.7536],[119.5467,-9.7519],[119.543,-9.7527],[119.5414,-9.75],[119.5403,-9.7419],[119.5069,-9.7411],[119.5062,-9.7373],[119.5079,-9.7332],[119.5067,-9.7296],[119.51,-9.7286],[119.5093,-9.7264],[119.5108,-9.7267],[119.52,-9.7108],[119.5255,-9.7061],[119.5349,-9.6928],[119.5306,-9.6873],[119.5172,-9.6813],[119.502,-9.6803],[119.4989,-9.6815],[119.4974,-9.6795],[119.4925,-9.6788],[119.4829,-9.6839],[119.4804,-9.682],[119.4779,-9.6834],[119.475,-9.6806],[119.4707,-9.6803],[119.4694,-9.6765],[119.4727,-9.6746],[119.4711,-9.6701],[119.4729,-9.6673],[119.4761,-9.6658],[119.4814,-9.6571],[119.4877,-9.6552],[119.4849,-9.65],[119.4852,-9.6445],[119.4881,-9.64],[119.4888,-9.6348],[119.4827,-9.6302],[119.4828,-9.6244],[119.5056,-9.621],[119.5449,-9.611],[119.5508,-9.612],[119.555,-9.6176],[119.5608,-9.6122],[119.5615,-9.6096],[119.5647,-9.6089],[119.5808,-9.6102],[119.5846,-9.6118],[119.5898,-9.6199],[119.5937,-9.621]]]}},{"type":"Feature","properties":{"name":"Mamboro","name_en":"Mamboro","admin_level":"6","osm_id":""},"geometry":{"type":"Polygon","coordinates":[[[119.5077,-9.5338],[119.4967,-9.5268],[119.489,-9.5282],[119.4804,-9.5252],[119.4755,-9.5278],[119.4729,-9.5204],[119.4659,-9.5148],[119.4595,-9.5056],[119.458,-9.5026],[119.4594,-9.5005],[119.4648,-9.4987],[119.465,-9.4936],[119.4595,-9.4898],[119.4557,-9.4841],[119.4556,-9.4785],[119.4506,-9.4773],[119.4534,-9.4742],[119.4563,-9.4741],[119.455,-9.469],[119.4501,-9.4684],[119.4494,-9.4639],[119.4434,-9.4654],[119.4454,-9.4589],[119.4437,-9.4564],[119.4451,-9.4548],[119.4417,-9.4543],[119.443,-9.4524],[119.4408,-9.45],[119.4417,-9.4467],[119.4394,-9.4475],[119.4387,-9.4432],[119.4366,-9.4444],[119.4364,-9.442],[119.4348,-9.4424],[119.4363,-9.44],[119.4325,-9.4383],[119.4332,-9.4355],[119.4308,-9.4322],[119.4342,-9.4308],[119.4327,-9.4293],[119.4308,-9.4302],[119.4317,-9.4262],[119.4295,-9.4265],[119.4265,-9.4236],[119.4297,-9.4217],[119.4278,-9.4206],[119.4287,-9.4167],[119.4267,-9.417],[119.4212,-9.4124],[119.416,-9.3737],[119.4252,-9.3755],[119.4262,-9.3779],[119.4433,-9.3643],[119.4607,-9.3593],[119.4724,-9.358],[119.4769,-9.3588],[119.4893,-9.3658],[119.5001,-9.3684],[119.5144,-9.3756],[119.5226,-9.3779],[119.5318,-9.3778],[119.5498,-9.3729],[119.5581,-9.3682],[119.5718,-9.3563],[119.589,-9.3496],[119.6033,-9.3462],[119.6324,-9.3461],[119.6407,-9.3555],[119.656,-9.3674],[119.6545,-9.3694],[119.6561,-9.3716],[119.6535,-9.3743],[119.6553,-9.3757],[119.6525,-9.3827],[119.6507,-9.383],[119.6475,-9.3944],[119.6419,-9.4003],[119.6399,-9.4053],[119.6395,-9.4117],[119.6449,-9.4247],[119.641,-9.4432],[119.6347,-9.4472],[119.6205,-9.4488],[119.6097,-9.4473],[119.6056,-9.4512],[119.6037,-9.4493],[119.6011,-9.4493],[119.6006,-9.4475],[119.5959,-9.4484],[119.5938,-9.4559],[119.5842,-9.4588],[119.5788,-9.469],[119.5756,-9.4717],[119.5714,-9.4725],[119.572,-9.4778],[119.569,-9.4833],[119.5576,-9.4914],[119.5528,-9.4922],[119.5377,-9.487],[119.5336,-9.4877],[119.5271,-9.4918],[119.521,-9.4912],[119.5205,-9.4963],[119.527,-9.4965],[119.5276,-9.4983],[119.5229,-9.5182],[119.5236,-9.5206],[119.5196,-9.5284],[119.5188,-9.5358],[119.5077,-9.5338]]]}},{"type":"Feature","properties":{"name":"UmbuRatuNggay","name_en":"UmbuRatuNggay","admin_level":"6","osm_id":""},"geometry":{"type":"Polygon","coordinates":[[[119.7233,-9.69],[119.7084,-9.6879],[119.6966,-9.6837],[119.6967,-9.6824],[119.6902,-9.6789],[119.6844,-9.6442],[119.6901,-9.638],[119.6919,-9.6309],[119.7011,-9.6264],[119.7053,-9.621],[119.7098,-9.6184],[119.7091,-9.616],[119.7108,-9.6126],[119.7128,-9.6119],[119.7113,-9.6096],[119.7124,-9.6085],[119.7111,-9.6078],[119.7117,-9.6043],[119.709,-9.6018],[119.7085,-9.5975],[119.7063,-9.597],[119.7114,-9.5917],[119.7143,-9.592],[119.7119,-9.5892],[119.7117,-9.5855],[119.7081,-9.5823],[119.7021,-9.5805],[119.7006,-9.5758],[119.7012,-9.5708],[119.6963,-9.5672],[119.6963,-9.5612],[119.6916,-9.5544],[119.6811,-9.5524],[119.6761,-9.5559],[119.6718,-9.5497],[119.6686,-9.5507],[119.6655,-9.5493],[119.6637,-9.5443],[119.6554,-9.5449],[119.6541,-9.5408],[119.6569,-9.5343],[119.6558,-9.5303],[119.657,-9.5256],[119.6526,-9.5138],[119.6431,-9.5075],[119.6406,-9.5039],[119.6339,-9.5056],[119.6322,-9.5037],[119.6258,-9.5024],[119.6334,-9.4754],[119.6316,-9.4472],[119.6373,-9.4465],[119.641,-9.4432],[119.6449,-9.4247],[119.6395,-9.4117],[119.6399,-9.4053],[119.6419,-9.4003],[119.6475,-9.3944],[119.648,-9.3905],[119.6498,-9.3889],[119.649,-9.3876],[119.6507,-9.3861],[119.6499,-9.3845],[119.6524,-9.3828],[119.6553,-9.3757],[119.6535,-9.3743],[119.6561,-9.3716],[119.6548,-9.3683],[119.656,-9.3674],[119.664,-9.3707],[119.6868,-9.3825],[119.7307,-9.3892],[119.7615,-9.3857],[119.7731,-9.3968],[119.7843,-9.3996],[119.7943,-9.3994],[119.807,-9.3939],[119.8342,-9.3647],[119.8494,-9.3526],[119.8648,-9.3435],[119.8696,-9.3557],[119.869,-9.3575],[119.8754,-9.3672],[119.8764,-9.3713],[119.8868,-9.3734],[119.8881,-9.3756],[119.8938,-9.3765],[119.8982,-9.38],[119.9004,-9.3786],[119.9049,-9.3793],[119.9091,-9.3832],[119.9079,-9.3864],[119.91,-9.3874],[119.9117,-9.3916],[119.9105,-9.3935],[119.9128,-9.3952],[119.9098,-9.3994],[119.9113,-9.4026],[119.907,-9.4067],[119.9068,-9.4104],[119.9045,-9.4109],[119.9051,-9.4125],[119.9024,-9.4119],[119.9023,-9.4176],[119.8992,-9.4207],[119.9014,-9.4217],[119.9015,-9.4239],[119.8985,-9.4257],[119.8965,-9.4319],[119.8986,-9.4328],[119.8973,-9.4339],[119.9062,-9.4542],[119.9166,-9.4657],[119.9152,-9.4745],[119.9173,-9.4773],[119.9218,-9.4761],[119.9208,-9.4805],[119.9258,-9.482],[119.9228,-9.4846],[119.9259,-9.4849],[119.9233,-9.4894],[119.918,-9.4877],[119.9174,-9.493],[119.9208,-9.4959],[119.9171,-9.497],[119.9161,-9.4996],[119.9143,-9.4957],[119.9114,-9.497],[119.9125,-9.5055],[119.9092,-9.5129],[119.906,-9.5126],[119.9043,-9.5086],[119.9034,-9.5128],[119.8963,-9.5166],[119.8928,-9.5162],[119.889,-9.5127],[119.8866,-9.513],[119.886,-9.5188],[119.8826,-9.5232],[119.8752,-9.5283],[119.8731,-9.5328],[119.8748,-9.5434],[119.871,-9.5427],[119.871,-9.5465],[119.8669,-9.5498],[119.8698,-9.5519],[119.8699,-9.5544],[119.8672,-9.5555],[119.8651,-9.5531],[119.8582,-9.5558],[119.8594,-9.5618],[119.856,-9.5639],[119.8554,-9.5674],[119.8526,-9.568],[119.8533,-9.5739],[119.8474,-9.5734],[119.8413,-9.5777],[119.8395,-9.5874],[119.842,-9.5893],[119.8431,-9.5941],[119.8454,-9.5951],[119.8459,-9.5984],[119.8409,-9.6022],[119.8439,-9.6041],[119.8442,-9.6021],[119.8465,-9.6021],[119.8498,-9.6068],[119.8483,-9.6098],[119.8508,-9.6121],[119.8417,-9.6177],[119.8477,-9.6293],[119.8461,-9.6318],[119.847,-9.6342],[119.8455,-9.6395],[119.8467,-9.6416],[119.844,-9.6536],[119.8447,-9.6615],[119.8416,-9.6666],[119.8382,-9.6692],[119.8355,-9.6677],[119.8308,-9.6695],[119.8086,-9.6668],[119.7869,-9.6698],[119.7648,-9.6763],[119.7463,-9.6702],[119.7348,-9.6774],[119.7287,-9.6837],[119.7253,-9.6902],[119.7233,-9.69]]]}},{"type":"Feature","properties":{"name":"UmbuRatuNggayBarat","name_en":"UmbuRatuNggayBarat","admin_level":"6","osm_id":""},"geometry":{"type":"Polygon","coordinates":[[[119.7255,-9.7095],[119.6944,-9.7079],[119.6761,-9.6979],[119.6646,-9.6979],[119.6622,-9.6955],[119.6605,-9.6904],[119.6521,-9.6855],[119.6518,-9.676],[119.6471,-9.6756],[119.6371,-9.6714],[119.636,-9.6666],[119.6346,-9.6649],[119.6339,-9.6658],[119.6334,-9.6581],[119.6301,-9.6508],[119.6258,-9.6486],[119.6218,-9.6416],[119.6173,-9.6216],[119.6133,-9.6198],[119.6115,-9.6214],[119.6068,-9.6163],[119.5974,-9.6176],[119.5937,-9.621],[119.5913,-9.6207],[119.5847,-9.6124],[119.5835,-9.5975],[119.5801,-9.5923],[119.5779,-9.5846],[119.5743,-9.5551],[119.5707,-9.5516],[119.5695,-9.5395],[119.5581,-9.5358],[119.5566,-9.5412],[119.5498,-9.5494],[119.5458,-9.5465],[119.5371,-9.5481],[119.5186,-9.5361],[119.5196,-9.5284],[119.5236,-9.5206],[119.5229,-9.5182],[119.5276,-9.4983],[119.527,-9.4965],[119.5205,-9.4963],[119.521,-9.4912],[119.5271,-9.4918],[119.5336,-9.4877],[119.5377,-9.487],[119.5528,-9.4922],[119.5576,-9.4914],[119.569,-9.4833],[119.572,-9.4778],[119.5714,-9.4725],[119.5756,-9.4717],[119.5788,-9.469],[119.5842,-9.4588],[119.5938,-9.4559],[119.5959,-9.4484],[119.6006,-9.4475],[119.6011,-9.4493],[119.6037,-9.4493],[119.6056,-9.4512],[119.6066,-9.4489],[119.6114,-9.447],[119.6191,-9.4488],[119.6316,-9.4472],[119.6334,-9.4754],[119.6258,-9.5024],[119.6322,-9.5037],[119.6339,-9.5056],[119.6406,-9.5039],[119.6431,-9.5075],[119.6526,-9.5138],[119.657,-9.5256],[119.6558,-9.5303],[119.6569,-9.5343],[119.6541,-9.5408],[119.6554,-9.5449],[119.6637,-9.5443],[119.6655,-9.5493],[119.6686,-9.5507],[119.6718,-9.5497],[119.6761,-9.5559],[119.6811,-9.5524],[119.6919,-9.5547],[119.6963,-9.5612],[119.6961,-9.5668],[119.7012,-9.5708],[119.7006,-9.5758],[119.7021,-9.5805],[119.7081,-9.5823],[119.7117,-9.5854],[119.7119,-9.5892],[119.7144,-9.5915],[119.708,-9.5939],[119.7063,-9.597],[119.7085,-9.5975],[119.709,-9.6018],[119.7117,-9.6043],[119.7111,-9.6078],[119.7124,-9.6085],[119.7113,-9.6096],[119.7128,-9.6119],[119.7108,-9.6126],[119.7091,-9.616],[119.7097,-9.6186],[119.7053,-9.621],[119.7011,-9.6264],[119.6919,-9.6309],[119.6901,-9.638],[119.6844,-9.6442],[119.6899,-9.6784],[119.6923,-9.681],[119.6967,-9.6824],[119.6966,-9.6837],[119.7084,-9.6879],[119.7253,-9.6902],[119.7275,-9.7078],[119.7275,-9.7094],[119.7255,-9.7095]]]}}]}