{"type":"FeatureCollection","metadata":{"parent_osm_id":"gid:IDN.3.3_1","parent_name":"BangkaTengah","parent_name_1":"BangkaBelitung","parent_gid":"IDN.3.3_1","parent_level":"5","child_level":"6","count":6,"source":"GADM 4.1","generated":"2026-05-05"},"features":[{"type":"Feature","properties":{"name":"Koba","name_en":"Koba","admin_level":"6","osm_id":"","gid":"IDN.3.3.1_1"},"geometry":{"type":"Polygon","coordinates":[[[106.4248,-2.5632],[106.4247,-2.568],[106.421,-2.5701],[106.4157,-2.5672],[106.4088,-2.5693],[106.4013,-2.568],[106.4006,-2.5662],[106.397,-2.5687],[106.3791,-2.5659],[106.3728,-2.5592],[106.373,-2.5557],[106.3699,-2.5543],[106.3513,-2.5539],[106.3372,-2.5475],[106.3328,-2.5538],[106.3238,-2.554],[106.3189,-2.55],[106.309,-2.5481],[106.305,-2.5513],[106.3014,-2.5518],[106.2975,-2.5579],[106.2971,-2.5641],[106.289,-2.5704],[106.2834,-2.5681],[106.2811,-2.5694],[106.281,-2.5733],[106.2714,-2.5764],[106.2632,-2.5754],[106.2512,-2.5804],[106.2475,-2.5847],[106.2367,-2.5847],[106.2277,-2.5811],[106.2215,-2.5737],[106.2139,-2.5711],[106.2092,-2.5744],[106.2065,-2.5703],[106.2018,-2.5692],[106.1999,-2.5599],[106.201,-2.5367],[106.1992,-2.5285],[106.2003,-2.5221],[106.2128,-2.51],[106.2224,-2.505],[106.2237,-2.4888],[106.2254,-2.4854],[106.2251,-2.4782],[106.2328,-2.4758],[106.2345,-2.4718],[106.2332,-2.4684],[106.2405,-2.4669],[106.2409,-2.4652],[106.2384,-2.4611],[106.2294,-2.4544],[106.2292,-2.452],[106.2393,-2.446],[106.2437,-2.4461],[106.248,-2.4513],[106.254,-2.4503],[106.2583,-2.4458],[106.2611,-2.4454],[106.2653,-2.4519],[106.2652,-2.4591],[106.2684,-2.4604],[106.2829,-2.4492],[106.286,-2.441],[106.2906,-2.436],[106.2766,-2.4249],[106.2652,-2.4232],[106.2631,-2.4185],[106.2638,-2.4135],[106.2689,-2.4091],[106.2752,-2.4095],[106.2771,-2.4054],[106.2705,-2.3932],[106.2607,-2.3911],[106.2545,-2.3919],[106.2538,-2.3878],[106.2498,-2.382],[106.2515,-2.378],[106.2489,-2.373],[106.2441,-2.3755],[106.2448,-2.381],[106.2375,-2.3793],[106.2339,-2.3728],[106.2342,-2.3699],[106.2384,-2.3673],[106.2443,-2.3665],[106.2396,-2.3585],[106.237,-2.3578],[106.2373,-2.3607],[106.2337,-2.3606],[106.2297,-2.3573],[106.2261,-2.3585],[106.2249,-2.3562],[106.2206,-2.3557],[106.2146,-2.3523],[106.2141,-2.348],[106.2176,-2.3365],[106.2172,-2.3261],[106.2221,-2.3219],[106.2281,-2.3203],[106.2323,-2.3157],[106.2343,-2.3158],[106.2383,-2.329],[106.2581,-2.3528],[106.2795,-2.3917],[106.2995,-2.4208],[106.3016,-2.4227],[106.3067,-2.422],[106.3273,-2.4446],[106.346,-2.4602],[106.3718,-2.4726],[106.395,-2.4782],[106.4013,-2.4787],[106.405,-2.4773],[106.4152,-2.4802],[106.4236,-2.4803],[106.4365,-2.4775],[106.4466,-2.4727],[106.4658,-2.4859],[106.4651,-2.4903],[106.4669,-2.4929],[106.4673,-2.4999],[106.4602,-2.5018],[106.4632,-2.5047],[106.461,-2.5078],[106.4625,-2.5088],[106.4619,-2.5124],[106.4639,-2.513],[106.4635,-2.5174],[106.4532,-2.5186],[106.4518,-2.5279],[106.4469,-2.5325],[106.4353,-2.5355],[106.4361,-2.5382],[106.4304,-2.5438],[106.4287,-2.5478],[106.4278,-2.5586],[106.4263,-2.5609],[106.4281,-2.563],[106.4248,-2.5632]]]}},{"type":"Feature","properties":{"name":"LubukBesar","name_en":"LubukBesar","admin_level":"6","osm_id":"","gid":"IDN.3.3.2_1"},"geometry":{"type":"Polygon","coordinates":[[[106.606,-2.691],[106.6007,-2.6902],[106.5997,-2.6864],[106.5972,-2.6844],[106.5806,-2.6848],[106.5792,-2.6792],[106.5713,-2.6743],[106.5633,-2.6646],[106.558,-2.6613],[106.5465,-2.6611],[106.5406,-2.6584],[106.5366,-2.6589],[106.5311,-2.6547],[106.5256,-2.6584],[106.5134,-2.6574],[106.5106,-2.6605],[106.4963,-2.6569],[106.5007,-2.6341],[106.4954,-2.6218],[106.4944,-2.6123],[106.4889,-2.6118],[106.4863,-2.6141],[106.482,-2.6137],[106.4785,-2.6176],[106.4708,-2.6171],[106.4665,-2.6189],[106.4579,-2.6173],[106.4567,-2.6191],[106.4526,-2.6197],[106.444,-2.6162],[106.4431,-2.5956],[106.4487,-2.581],[106.4553,-2.5778],[106.4579,-2.5741],[106.4565,-2.5677],[106.4584,-2.5635],[106.4575,-2.5584],[106.4546,-2.5585],[106.4495,-2.5633],[106.4375,-2.5688],[106.4332,-2.5641],[106.4284,-2.5632],[106.4263,-2.5609],[106.4278,-2.5586],[106.4271,-2.5555],[106.4296,-2.5453],[106.4361,-2.5382],[106.4353,-2.5355],[106.4469,-2.5325],[106.4518,-2.5279],[106.4532,-2.5186],[106.4635,-2.5174],[106.4639,-2.513],[106.4619,-2.5124],[106.4625,-2.5088],[106.461,-2.5078],[106.4632,-2.5047],[106.4602,-2.5018],[106.4673,-2.4999],[106.4669,-2.4929],[106.4651,-2.4903],[106.4658,-2.4859],[106.4792,-2.4969],[106.49,-2.5014],[106.5425,-2.5133],[106.5689,-2.521],[106.6185,-2.5308],[106.6201,-2.5325],[106.6226,-2.5316],[106.6403,-2.5352],[106.6975,-2.5422],[106.7551,-2.5568],[106.841,-2.5722],[106.8493,-2.5719],[106.8441,-2.5754],[106.8413,-2.5847],[106.8376,-2.5874],[106.8343,-2.5872],[106.8327,-2.5898],[106.8306,-2.5881],[106.8237,-2.5887],[106.8072,-2.5946],[106.8018,-2.5948],[106.8018,-2.5936],[106.8065,-2.5941],[106.8243,-2.5882],[106.8232,-2.5838],[106.8196,-2.5794],[106.8159,-2.578],[106.8088,-2.5786],[106.7975,-2.5825],[106.7856,-2.5891],[106.7835,-2.5919],[106.7847,-2.594],[106.7731,-2.6077],[106.7709,-2.6076],[106.7689,-2.6016],[106.763,-2.5984],[106.7468,-2.6084],[106.7338,-2.6209],[106.7328,-2.6241],[106.7275,-2.6298],[106.7232,-2.6307],[106.7203,-2.6345],[106.7077,-2.6431],[106.7086,-2.6464],[106.7034,-2.6503],[106.7029,-2.6532],[106.699,-2.6573],[106.6975,-2.6633],[106.6893,-2.6688],[106.6822,-2.6814],[106.6814,-2.686],[106.6743,-2.6933],[106.6654,-2.7121],[106.6561,-2.7196],[106.6561,-2.7212],[106.6489,-2.7179],[106.6438,-2.7187],[106.638,-2.7132],[106.6368,-2.7014],[106.6334,-2.6952],[106.6216,-2.6947],[106.606,-2.691]]]}},{"type":"Feature","properties":{"name":"Namang","name_en":"Namang","admin_level":"6","osm_id":"","gid":"IDN.3.3.3_1"},"geometry":{"type":"Polygon","coordinates":[[[106.2293,-2.3182],[106.2281,-2.3203],[106.2241,-2.3208],[106.2172,-2.3261],[106.2176,-2.3365],[106.2141,-2.348],[106.2146,-2.3523],[106.2206,-2.3557],[106.2249,-2.3562],[106.2261,-2.3585],[106.2297,-2.3573],[106.2337,-2.3606],[106.2373,-2.3607],[106.237,-2.3578],[106.2396,-2.3585],[106.2443,-2.3665],[106.2384,-2.3673],[106.2342,-2.3699],[106.2339,-2.3728],[106.2375,-2.3793],[106.2448,-2.381],[106.2441,-2.3755],[106.2489,-2.373],[106.2515,-2.378],[106.2498,-2.382],[106.2538,-2.3878],[106.2545,-2.3919],[106.2607,-2.3911],[106.2705,-2.3932],[106.2771,-2.4054],[106.2752,-2.4095],[106.2689,-2.4091],[106.2638,-2.4135],[106.2631,-2.4185],[106.2652,-2.4232],[106.2766,-2.4249],[106.2905,-2.435],[106.2901,-2.4376],[106.2855,-2.4419],[106.2829,-2.4492],[106.2684,-2.4604],[106.2652,-2.4591],[106.2653,-2.4519],[106.2611,-2.4454],[106.2583,-2.4458],[106.2547,-2.45],[106.2498,-2.4513],[106.2466,-2.4511],[106.2424,-2.4459],[106.2393,-2.446],[106.2283,-2.4517],[106.2247,-2.4447],[106.2069,-2.4204],[106.1951,-2.4141],[106.1917,-2.4035],[106.1869,-2.3987],[106.1785,-2.3965],[106.1723,-2.3912],[106.1741,-2.3744],[106.1803,-2.3641],[106.1695,-2.3597],[106.1677,-2.3479],[106.168,-2.3423],[106.1742,-2.3359],[106.1753,-2.3294],[106.1785,-2.3251],[106.173,-2.3129],[106.1763,-2.3083],[106.1757,-2.3055],[106.1648,-2.2992],[106.1594,-2.2977],[106.1524,-2.2988],[106.1515,-2.2907],[106.1441,-2.2794],[106.1406,-2.2799],[106.1321,-2.2891],[106.1227,-2.2886],[106.1267,-2.2788],[106.1267,-2.2743],[106.105,-2.277],[106.1014,-2.2736],[106.1477,-2.2298],[106.1643,-2.2288],[106.164,-2.2256],[106.1661,-2.2211],[106.1688,-2.2216],[106.1718,-2.2156],[106.1836,-2.2164],[106.1984,-2.2099],[106.2058,-2.2094],[106.2049,-2.2181],[106.2118,-2.233],[106.2113,-2.2362],[106.213,-2.2404],[106.2257,-2.2548],[106.2255,-2.2598],[106.2282,-2.2602],[106.2245,-2.2634],[106.2225,-2.2692],[106.223,-2.275],[106.2256,-2.278],[106.2258,-2.2987],[106.2317,-2.3084],[106.2309,-2.3106],[106.2325,-2.313],[106.2323,-2.3157],[106.2293,-2.3182]]]}},{"type":"Feature","properties":{"name":"PangkalanBaru","name_en":"PangkalanBaru","admin_level":"6","osm_id":"","gid":"IDN.3.3.4_1"},"geometry":{"type":"Polygon","coordinates":[[[106.1661,-2.2211],[106.164,-2.2256],[106.1643,-2.2288],[106.1477,-2.2298],[106.1212,-2.2549],[106.1175,-2.2515],[106.1097,-2.2501],[106.1058,-2.2499],[106.1045,-2.2522],[106.098,-2.2525],[106.096,-2.2501],[106.0946,-2.2504],[106.094,-2.2484],[106.0981,-2.24],[106.0974,-2.226],[106.0932,-2.2176],[106.0825,-2.2137],[106.0951,-2.1978],[106.0966,-2.1983],[106.0989,-2.1955],[106.105,-2.1958],[106.1075,-2.1873],[106.1047,-2.184],[106.1053,-2.1795],[106.1023,-2.1813],[106.0961,-2.1806],[106.091,-2.1772],[106.0898,-2.1737],[106.0862,-2.1712],[106.0736,-2.1745],[106.0723,-2.1686],[106.07,-2.1663],[106.0747,-2.161],[106.073,-2.1588],[106.0735,-2.1567],[106.0792,-2.1539],[106.0782,-2.1513],[106.0926,-2.1445],[106.0986,-2.1479],[106.1005,-2.1462],[106.1012,-2.1512],[106.1034,-2.154],[106.109,-2.155],[106.1104,-2.1535],[106.1172,-2.1544],[106.1302,-2.1468],[106.1364,-2.148],[106.1421,-2.1532],[106.1487,-2.1564],[106.1493,-2.1546],[106.1519,-2.1593],[106.157,-2.1591],[106.1605,-2.1533],[106.1682,-2.1576],[106.1702,-2.1553],[106.1818,-2.1536],[106.1868,-2.1622],[106.1923,-2.1608],[106.1902,-2.1626],[106.1928,-2.1626],[106.1907,-2.1643],[106.1927,-2.1658],[106.1899,-2.1657],[106.1884,-2.1704],[106.1938,-2.1804],[106.2025,-2.183],[106.1991,-2.1832],[106.1993,-2.1878],[106.2041,-2.1942],[106.204,-2.2006],[106.207,-2.2037],[106.2076,-2.209],[106.1984,-2.2099],[106.1836,-2.2164],[106.1718,-2.2156],[106.1688,-2.2216],[106.1661,-2.2211]]]}},{"type":"Feature","properties":{"name":"SimpangKatis","name_en":"SimpangKatis","admin_level":"6","osm_id":"","gid":"IDN.3.3.5_1"},"geometry":{"type":"Polygon","coordinates":[[[106.1501,-2.2894],[106.1515,-2.2907],[106.1524,-2.2988],[106.1594,-2.2977],[106.1648,-2.2992],[106.1757,-2.3055],[106.1763,-2.3083],[106.173,-2.3129],[106.1785,-2.3251],[106.1753,-2.3294],[106.1742,-2.3359],[106.168,-2.3423],[106.1677,-2.3479],[106.1695,-2.3597],[106.1781,-2.3628],[106.1801,-2.3653],[106.1741,-2.3744],[106.1723,-2.3912],[106.1632,-2.3928],[106.1615,-2.3965],[106.1485,-2.3951],[106.1471,-2.39],[106.1369,-2.3879],[106.1326,-2.3799],[106.1255,-2.3722],[106.116,-2.3686],[106.1127,-2.3606],[106.1034,-2.3537],[106.1049,-2.353],[106.076,-2.359],[106.075,-2.3422],[106.0769,-2.3389],[106.0674,-2.3212],[106.0667,-2.3155],[106.0591,-2.3098],[106.0585,-2.3027],[106.0556,-2.3006],[106.05,-2.2861],[106.0488,-2.2877],[106.0472,-2.2859],[106.0455,-2.2739],[106.0415,-2.2701],[106.0381,-2.2631],[106.0263,-2.2647],[106.0238,-2.2608],[106.0157,-2.2601],[106.0025,-2.2551],[106.0003,-2.2525],[106.0001,-2.2486],[105.9972,-2.2471],[105.9828,-2.2417],[105.9794,-2.2422],[105.9813,-2.238],[105.9799,-2.2287],[105.9919,-2.2217],[106.0162,-2.2168],[106.0209,-2.2144],[106.0198,-2.2127],[106.0211,-2.2075],[106.0306,-2.1979],[106.0381,-2.1942],[106.0397,-2.1917],[106.0394,-2.1861],[106.0446,-2.1845],[106.0486,-2.1812],[106.0862,-2.1712],[106.0898,-2.1737],[106.091,-2.1772],[106.0961,-2.1806],[106.1023,-2.1813],[106.1053,-2.1795],[106.1047,-2.184],[106.1075,-2.1873],[106.105,-2.1958],[106.0989,-2.1955],[106.0966,-2.1983],[106.0951,-2.1978],[106.0825,-2.2137],[106.0932,-2.2176],[106.0974,-2.226],[106.0981,-2.24],[106.094,-2.2484],[106.0946,-2.2504],[106.096,-2.2501],[106.098,-2.2525],[106.1045,-2.2522],[106.1058,-2.2499],[106.1097,-2.2501],[106.1175,-2.2515],[106.1212,-2.2549],[106.1014,-2.2736],[106.105,-2.277],[106.1267,-2.2743],[106.1267,-2.2788],[106.1227,-2.2886],[106.1321,-2.2891],[106.1406,-2.2799],[106.1441,-2.2794],[106.1501,-2.2894]]]}},{"type":"Feature","properties":{"name":"SungaiSelan","name_en":"SungaiSelan","admin_level":"6","osm_id":"","gid":"IDN.3.3.6_1"},"geometry":{"type":"Polygon","coordinates":[[[106.1631,-2.5281],[106.1631,-2.5252],[106.1513,-2.521],[106.1499,-2.5178],[106.1501,-2.5088],[106.1486,-2.5067],[106.137,-2.5022],[106.1201,-2.5009],[106.1114,-2.4877],[106.0947,-2.492],[106.0884,-2.4913],[106.0867,-2.4956],[106.0713,-2.5001],[106.0678,-2.499],[106.0677,-2.4931],[106.0609,-2.4908],[106.059,-2.4996],[106.0529,-2.4989],[106.0508,-2.5021],[106.0518,-2.5063],[106.0559,-2.5084],[106.0544,-2.5129],[106.0511,-2.5157],[106.0464,-2.5164],[106.0314,-2.5124],[106.0303,-2.5105],[106.0316,-2.5025],[106.0288,-2.5013],[106.0198,-2.4827],[106.0121,-2.4789],[105.9717,-2.4882],[105.9355,-2.4823],[105.9322,-2.4701],[105.9264,-2.4587],[105.9125,-2.4443],[105.882,-2.4282],[105.8802,-2.4242],[105.8743,-2.4291],[105.8685,-2.4284],[105.8507,-2.4193],[105.8383,-2.4152],[105.8332,-2.411],[105.8267,-2.3934],[105.8184,-2.381],[105.8088,-2.3741],[105.8033,-2.3668],[105.8126,-2.3637],[105.8233,-2.3499],[105.8254,-2.3496],[105.8257,-2.3474],[105.8278,-2.3476],[105.8292,-2.3502],[105.83,-2.3477],[105.8365,-2.3487],[105.8396,-2.346],[105.8432,-2.3455],[105.8455,-2.3394],[105.8531,-2.3401],[105.8599,-2.3384],[105.8664,-2.3331],[105.8826,-2.3342],[105.8874,-2.3385],[105.8941,-2.3388],[105.8966,-2.3418],[105.9023,-2.3425],[105.8997,-2.3384],[105.9037,-2.3217],[105.9121,-2.3115],[105.92,-2.3063],[105.9215,-2.3034],[105.9204,-2.3002],[105.9223,-2.2928],[105.9214,-2.2911],[105.9249,-2.2883],[105.9352,-2.2861],[105.9386,-2.2792],[105.9355,-2.2763],[105.9351,-2.268],[105.9279,-2.2658],[105.9227,-2.2616],[105.9174,-2.2609],[105.9118,-2.2501],[105.9115,-2.2473],[105.913,-2.2457],[105.9173,-2.2456],[105.9193,-2.2432],[105.9179,-2.2304],[105.9227,-2.2251],[105.9231,-2.2114],[105.9252,-2.2089],[105.9263,-2.2084],[105.9277,-2.2166],[105.9298,-2.2189],[105.9415,-2.2234],[105.9491,-2.2288],[105.9632,-2.23],[105.9653,-2.2245],[105.9737,-2.2299],[105.9804,-2.2307],[105.9813,-2.238],[105.9794,-2.2422],[105.9847,-2.2422],[106.0001,-2.2486],[106.0003,-2.2525],[106.0025,-2.2551],[106.0157,-2.2601],[106.0238,-2.2608],[106.0263,-2.2647],[106.0381,-2.2631],[106.0415,-2.2701],[106.0455,-2.2739],[106.0472,-2.2859],[106.0488,-2.2877],[106.05,-2.2861],[106.0556,-2.3006],[106.0585,-2.3027],[106.0591,-2.3098],[106.0667,-2.3155],[106.0674,-2.3212],[106.0769,-2.3389],[106.075,-2.3422],[106.076,-2.359],[106.1049,-2.353],[106.1034,-2.3537],[106.1127,-2.3606],[106.1176,-2.3702],[106.1255,-2.3722],[106.1326,-2.3799],[106.1369,-2.3879],[106.1471,-2.39],[106.1485,-2.3951],[106.1615,-2.3965],[106.1632,-2.3928],[106.1723,-2.3912],[106.1785,-2.3965],[106.1869,-2.3987],[106.1929,-2.4053],[106.1951,-2.4141],[106.2069,-2.4204],[106.227,-2.448],[106.2294,-2.4544],[106.2384,-2.4611],[106.2405,-2.4669],[106.2332,-2.4684],[106.2342,-2.4742],[106.2251,-2.4782],[106.2254,-2.4854],[106.2237,-2.4888],[106.2224,-2.505],[106.2128,-2.51],[106.2003,-2.5221],[106.1992,-2.5285],[106.2009,-2.5356],[106.2003,-2.5659],[106.1961,-2.5625],[106.1893,-2.5615],[106.1828,-2.5538],[106.1786,-2.552],[106.1773,-2.5434],[106.1746,-2.5415],[106.1733,-2.5377],[106.1665,-2.5338],[106.1631,-2.5281]]]}}]}