{"type":"FeatureCollection","metadata":{"parent_osm_id":"gid_IDN.18.9_1","parent_name":"TidoreKepulauan","parent_name_1":"MalukuUtara","parent_gid":"IDN.18.9_1","parent_level":"5","child_level":"6","count":8,"source":"GADM 4.1","generated":"2026-05-05"},"features":[{"type":"Feature","properties":{"name":"Oba","name_en":"Oba","admin_level":"6","osm_id":""},"geometry":{"type":"Polygon","coordinates":[[[127.7911,0.1635],[127.7906,0.1589],[127.7877,0.1546],[127.7813,0.1545],[127.7781,0.1606],[127.7743,0.1622],[127.7693,0.1675],[127.7693,0.1742],[127.76,0.176],[127.7599,0.1723],[127.7528,0.1698],[127.749,0.176],[127.7386,0.1732],[127.7323,0.1765],[127.7327,0.1701],[127.7271,0.1631],[127.7239,0.1624],[127.7186,0.1659],[127.7172,0.1619],[127.7177,0.1559],[127.7129,0.1563],[127.706,0.1538],[127.6976,0.1551],[127.6942,0.1535],[127.696,0.1591],[127.6944,0.1676],[127.6962,0.1718],[127.696,0.1852],[127.7014,0.1953],[127.7002,0.1988],[127.7068,0.2073],[127.7086,0.2131],[127.7065,0.2223],[127.7085,0.2307],[127.7148,0.2424],[127.7173,0.2566],[127.7159,0.2642],[127.7236,0.2732],[127.7278,0.2837],[127.734,0.302],[127.7342,0.3117],[127.721,0.3423],[127.7166,0.3478],[127.7103,0.3504],[127.7095,0.3529],[127.6939,0.3453],[127.6889,0.3499],[127.6856,0.3483],[127.6768,0.35],[127.6754,0.3481],[127.6653,0.3458],[127.6613,0.3422],[127.6573,0.3448],[127.6519,0.3553],[127.6487,0.3577],[127.6459,0.3583],[127.6436,0.3572],[127.638,0.3589],[127.6347,0.3571],[127.6217,0.3603],[127.618,0.3749],[127.6215,0.3798],[127.6228,0.3859],[127.6223,0.396],[127.6166,0.3973],[127.6165,0.4005],[127.6097,0.397],[127.6054,0.3977],[127.6027,0.3997],[127.6015,0.4059],[127.5991,0.4077],[127.6026,0.4139],[127.6071,0.4167],[127.6193,0.4174],[127.6238,0.4199],[127.6289,0.4257],[127.6295,0.4306],[127.6266,0.4366],[127.6213,0.4367],[127.6194,0.4404],[127.6259,0.4503],[127.6237,0.4524],[127.6242,0.4595],[127.6328,0.4631],[127.6381,0.4626],[127.6406,0.4599],[127.6424,0.4626],[127.6474,0.4632],[127.6541,0.4601],[127.654,0.4563],[127.6508,0.4521],[127.6535,0.4483],[127.6521,0.4447],[127.6616,0.4452],[127.6641,0.4427],[127.6686,0.4417],[127.6714,0.4443],[127.6763,0.4452],[127.6792,0.4426],[127.6816,0.4448],[127.6881,0.4401],[127.6933,0.4522],[127.6984,0.4565],[127.6977,0.4589],[127.7002,0.465],[127.7049,0.4695],[127.7058,0.4631],[127.7091,0.4604],[127.7168,0.4596],[127.7197,0.4571],[127.7228,0.4572],[127.7238,0.4547],[127.7283,0.4559],[127.7317,0.4607],[127.7358,0.4617],[127.7339,0.4728],[127.7362,0.4815],[127.7389,0.4848],[127.7483,0.4815],[127.7507,0.4759],[127.7518,0.467],[127.7557,0.4595],[127.7605,0.4598],[127.7723,0.4681],[127.7756,0.4661],[127.7727,0.4586],[127.7686,0.4543],[127.7696,0.4501],[127.7735,0.4484],[127.7722,0.4466],[127.7743,0.444],[127.7747,0.4365],[127.7723,0.4328],[127.7723,0.4296],[127.775,0.4131],[127.7901,0.3974],[127.791,0.3938],[127.7889,0.3905],[127.7902,0.3879],[127.7922,0.3886],[127.7987,0.3855],[127.7997,0.3816],[127.8034,0.3807],[127.8065,0.3737],[127.8014,0.3681],[127.8007,0.3619],[127.8072,0.34],[127.8019,0.331],[127.7986,0.3174],[127.7995,0.3109],[127.8024,0.3072],[127.802,0.301],[127.8036,0.2969],[127.8121,0.2843],[127.8173,0.2796],[127.8195,0.2726],[127.8154,0.2723],[127.8116,0.2696],[127.8073,0.2568],[127.8048,0.2564],[127.7973,0.2485],[127.8013,0.2368],[127.8144,0.2305],[127.8128,0.2297],[127.8128,0.2214],[127.8146,0.2209],[127.8169,0.2159],[127.8237,0.2094],[127.8216,0.2077],[127.8229,0.205],[127.8219,0.2013],[127.8095,0.1959],[127.8051,0.1907],[127.8025,0.1832],[127.7986,0.1788],[127.7982,0.1747],[127.7956,0.1739],[127.794,0.1674],[127.7911,0.1635]]]}},{"type":"Feature","properties":{"name":"ObaSelatan","name_en":"ObaSelatan","admin_level":"6","osm_id":""},"geometry":{"type":"Polygon","coordinates":[[[127.7963,0.014],[127.7882,0.0091],[127.7862,0.0056],[127.7745,0.0048],[127.7726,0.0033],[127.7701,0.0041],[127.7686,0.0082],[127.7681,0.0255],[127.7539,0.02],[127.751,0.023],[127.7476,0.0234],[127.7402,0.021],[127.7377,0.0186],[127.7357,0.0097],[127.7328,0.0048],[127.7274,0.0032],[127.7256,0.0073],[127.723,0.0017],[127.7178,0.0013],[127.7129,0.0032],[127.7109,0.0],[127.7102,-0.008],[127.7058,-0.0073],[127.6994,-0.01],[127.6972,-0.0026],[127.6993,0.0158],[127.7081,0.0278],[127.7128,0.0398],[127.711,0.0421],[127.7135,0.0412],[127.7166,0.0442],[127.7149,0.0478],[127.7175,0.0512],[127.7206,0.0603],[127.7218,0.0724],[127.7209,0.0756],[127.7169,0.0783],[127.7167,0.0852],[127.7136,0.0881],[127.7117,0.0964],[127.7137,0.1003],[127.7122,0.1026],[127.7075,0.1039],[127.7046,0.1009],[127.6913,0.1001],[127.6879,0.0976],[127.6846,0.0985],[127.6899,0.104],[127.689,0.1087],[127.6902,0.112],[127.6967,0.1158],[127.6964,0.1185],[127.6997,0.1207],[127.7019,0.1255],[127.6992,0.1346],[127.7004,0.1358],[127.694,0.1402],[127.6919,0.1482],[127.6942,0.1535],[127.6974,0.155],[127.706,0.1538],[127.7129,0.1563],[127.7177,0.1559],[127.7172,0.1619],[127.7186,0.1659],[127.7239,0.1624],[127.7271,0.1631],[127.7327,0.1701],[127.7323,0.1765],[127.7386,0.1732],[127.749,0.176],[127.7528,0.1698],[127.7599,0.1723],[127.76,0.176],[127.769,0.1743],[127.7693,0.1675],[127.7743,0.1622],[127.7781,0.1606],[127.781,0.1547],[127.7877,0.1546],[127.7892,0.1498],[127.7891,0.1407],[127.791,0.1351],[127.7888,0.1256],[127.7924,0.1174],[127.7905,0.1087],[127.7921,0.0993],[127.7898,0.0932],[127.79,0.0875],[127.7926,0.0839],[127.7969,0.0817],[127.7942,0.0745],[127.7953,0.0706],[127.7986,0.07],[127.7951,0.0613],[127.7975,0.0562],[127.7966,0.0537],[127.8019,0.0491],[127.806,0.048],[127.8074,0.0424],[127.8145,0.0382],[127.8173,0.0319],[127.8102,0.0181],[127.8024,0.0215],[127.7963,0.014]]]}},{"type":"Feature","properties":{"name":"ObaTengah","name_en":"ObaTengah","admin_level":"6","osm_id":""},"geometry":{"type":"Polygon","coordinates":[[[127.6199,0.4177],[127.6083,0.4172],[127.6032,0.4143],[127.5992,0.4081],[127.6015,0.4059],[127.6015,0.403],[127.5968,0.4007],[127.5948,0.4019],[127.5939,0.4079],[127.5849,0.4089],[127.5818,0.4139],[127.5787,0.4147],[127.5789,0.4184],[127.5819,0.4191],[127.5856,0.4229],[127.5815,0.4232],[127.5809,0.4287],[127.5731,0.4285],[127.575,0.4325],[127.5726,0.4355],[127.5749,0.439],[127.5731,0.4407],[127.5768,0.4438],[127.5747,0.4458],[127.5716,0.4457],[127.5713,0.4471],[127.5748,0.4487],[127.5748,0.4506],[127.5689,0.4547],[127.5702,0.4583],[127.5681,0.4687],[127.57,0.4715],[127.5668,0.4784],[127.5681,0.4883],[127.5647,0.4957],[127.5619,0.5159],[127.5585,0.5217],[127.548,0.5285],[127.5436,0.5294],[127.5396,0.5331],[127.5366,0.5427],[127.5344,0.5435],[127.5273,0.5528],[127.5276,0.5582],[127.5349,0.5668],[127.5368,0.574],[127.5354,0.5863],[127.5304,0.6024],[127.5294,0.6122],[127.5342,0.6232],[127.541,0.6321],[127.5393,0.6367],[127.5414,0.6435],[127.54,0.6477],[127.5405,0.6538],[127.5419,0.6517],[127.5446,0.6543],[127.5452,0.6502],[127.5471,0.65],[127.5487,0.6544],[127.5553,0.6564],[127.5586,0.6489],[127.5627,0.6486],[127.5632,0.6455],[127.5647,0.6465],[127.5674,0.6443],[127.568,0.6457],[127.5716,0.6449],[127.5719,0.647],[127.5772,0.6475],[127.5804,0.6469],[127.5842,0.6436],[127.5948,0.6454],[127.5993,0.6441],[127.6025,0.646],[127.6058,0.6438],[127.6086,0.6442],[127.6132,0.6386],[127.6101,0.6318],[127.6061,0.629],[127.6053,0.6266],[127.6078,0.62],[127.6117,0.6182],[127.6147,0.6194],[127.6145,0.6267],[127.6168,0.6308],[127.62,0.6332],[127.6303,0.6342],[127.6304,0.6445],[127.6326,0.6472],[127.6388,0.6496],[127.6448,0.6478],[127.6531,0.657],[127.6707,0.6629],[127.6768,0.6589],[127.6813,0.6503],[127.6912,0.6449],[127.6952,0.6406],[127.6983,0.6407],[127.71,0.6338],[127.7164,0.6356],[127.7241,0.642],[127.726,0.6466],[127.7248,0.6526],[127.7261,0.655],[127.7353,0.655],[127.7426,0.6489],[127.7399,0.6422],[127.7422,0.6341],[127.75,0.6319],[127.7556,0.6375],[127.7608,0.6361],[127.765,0.6227],[127.768,0.6199],[127.7739,0.6211],[127.78,0.6187],[127.7826,0.6276],[127.7864,0.6306],[127.7873,0.6351],[127.7913,0.6364],[127.7919,0.6313],[127.7966,0.6265],[127.7978,0.6232],[127.8068,0.6186],[127.81,0.6145],[127.8089,0.61],[127.8111,0.6042],[127.8102,0.5979],[127.8207,0.5921],[127.8249,0.5828],[127.8289,0.5803],[127.829,0.5772],[127.8316,0.5756],[127.8302,0.5701],[127.8228,0.5673],[127.8232,0.5625],[127.8212,0.5605],[127.8214,0.5565],[127.8253,0.5507],[127.8259,0.5424],[127.8197,0.5376],[127.8159,0.5372],[127.8105,0.529],[127.8067,0.5265],[127.8123,0.5217],[127.8128,0.5182],[127.8116,0.5154],[127.8061,0.5128],[127.8036,0.5081],[127.8064,0.5026],[127.805,0.4965],[127.8061,0.4904],[127.8014,0.4849],[127.8008,0.4811],[127.7963,0.4817],[127.7931,0.4867],[127.7868,0.4865],[127.7849,0.4883],[127.7821,0.4874],[127.7777,0.4835],[127.7775,0.4793],[127.7754,0.4762],[127.7771,0.4742],[127.7767,0.4705],[127.7793,0.4676],[127.7756,0.4661],[127.7723,0.4681],[127.7605,0.4598],[127.7557,0.4595],[127.7518,0.467],[127.7507,0.4759],[127.7483,0.4815],[127.7389,0.4848],[127.7362,0.4815],[127.7339,0.4728],[127.7358,0.4617],[127.7317,0.4607],[127.7283,0.4559],[127.7238,0.4547],[127.7228,0.4572],[127.7197,0.4571],[127.7168,0.4596],[127.7091,0.4604],[127.7058,0.4631],[127.7049,0.4695],[127.7002,0.465],[127.6977,0.4589],[127.6984,0.4565],[127.6933,0.4522],[127.6881,0.4401],[127.6816,0.4448],[127.6792,0.4426],[127.6763,0.4452],[127.6714,0.4443],[127.6686,0.4417],[127.6641,0.4427],[127.6616,0.4452],[127.6521,0.4447],[127.6535,0.4483],[127.6508,0.4521],[127.6542,0.4568],[127.6535,0.4609],[127.645,0.4635],[127.6406,0.4599],[127.6381,0.4626],[127.6323,0.4629],[127.6238,0.4589],[127.6237,0.4524],[127.6259,0.4503],[127.6194,0.4404],[127.6213,0.4367],[127.6265,0.4368],[127.6296,0.4294],[127.6283,0.4248],[127.6199,0.4177]]]}},{"type":"Feature","properties":{"name":"ObaUtara","name_en":"ObaUtara","admin_level":"6","osm_id":""},"geometry":{"type":"Polygon","coordinates":[[[127.7909,0.6383],[127.7913,0.6364],[127.7876,0.6355],[127.7864,0.6306],[127.7826,0.6276],[127.78,0.6187],[127.7739,0.6211],[127.768,0.6199],[127.765,0.6227],[127.7608,0.6361],[127.7556,0.6375],[127.75,0.6319],[127.7422,0.6341],[127.7399,0.6422],[127.7426,0.6489],[127.7353,0.655],[127.7261,0.655],[127.7248,0.6526],[127.726,0.6466],[127.7241,0.642],[127.7164,0.6356],[127.71,0.6338],[127.6983,0.6407],[127.6952,0.6406],[127.6912,0.6449],[127.6813,0.6503],[127.6768,0.6589],[127.6707,0.6629],[127.6531,0.657],[127.6448,0.6478],[127.6388,0.6496],[127.6326,0.6472],[127.6304,0.6445],[127.6303,0.6342],[127.6192,0.6328],[127.6149,0.6284],[127.6147,0.6194],[127.6107,0.6184],[127.6078,0.62],[127.6053,0.6266],[127.6061,0.629],[127.6101,0.6318],[127.6132,0.6386],[127.6086,0.6442],[127.6058,0.6438],[127.6025,0.646],[127.5993,0.6441],[127.5948,0.6454],[127.5842,0.6436],[127.5804,0.6469],[127.5772,0.6475],[127.5719,0.647],[127.5716,0.6449],[127.568,0.6457],[127.5674,0.6443],[127.5647,0.6465],[127.5632,0.6455],[127.5627,0.6486],[127.5586,0.6489],[127.5551,0.6565],[127.5487,0.6544],[127.5471,0.65],[127.5452,0.6502],[127.5446,0.6543],[127.5421,0.6518],[127.5407,0.6523],[127.54,0.6547],[127.5455,0.6607],[127.5455,0.6663],[127.5512,0.6824],[127.552,0.6949],[127.5479,0.7043],[127.5501,0.7206],[127.5473,0.7288],[127.5577,0.7409],[127.5604,0.7413],[127.5746,0.7537],[127.5884,0.7556],[127.5969,0.7601],[127.5978,0.7582],[127.6014,0.7588],[127.5963,0.755],[127.5962,0.7508],[127.5992,0.7498],[127.5993,0.756],[127.6019,0.7575],[127.6019,0.7613],[127.6042,0.7641],[127.6014,0.765],[127.6033,0.7665],[127.6056,0.7657],[127.6025,0.7684],[127.6027,0.7714],[127.6005,0.7704],[127.5989,0.7727],[127.6025,0.7792],[127.6106,0.7798],[127.6153,0.7828],[127.6183,0.7902],[127.621,0.7867],[127.6233,0.7875],[127.6243,0.7861],[127.621,0.782],[127.6216,0.7784],[127.6289,0.7773],[127.6385,0.7685],[127.648,0.7695],[127.648,0.7741],[127.651,0.7745],[127.6515,0.7761],[127.6568,0.7731],[127.6576,0.7758],[127.6609,0.7761],[127.663,0.7755],[127.6637,0.7716],[127.6672,0.7705],[127.6672,0.7677],[127.6727,0.7712],[127.6813,0.7591],[127.6877,0.7586],[127.6923,0.7563],[127.7003,0.7563],[127.7002,0.7603],[127.7021,0.7625],[127.7135,0.7614],[127.7168,0.765],[127.7204,0.762],[127.728,0.7589],[127.7314,0.7592],[127.7359,0.7558],[127.7509,0.7577],[127.7576,0.7514],[127.7586,0.7472],[127.7573,0.7425],[127.7673,0.7309],[127.766,0.7216],[127.768,0.7071],[127.7773,0.6969],[127.7827,0.6931],[127.7809,0.6842],[127.7822,0.6723],[127.7886,0.6624],[127.7879,0.6561],[127.7927,0.6458],[127.7909,0.6383]]]}},{"type":"Feature","properties":{"name":"Tidore","name_en":"Tidore","admin_level":"6","osm_id":""},"geometry":{"type":"Polygon","coordinates":[[[127.4423,0.6466],[127.4322,0.6361],[127.4312,0.632],[127.4191,0.6418],[127.4127,0.653],[127.403,0.6624],[127.4103,0.6751],[127.4179,0.6819],[127.4173,0.6887],[127.432,0.6906],[127.4419,0.6939],[127.4548,0.6847],[127.454,0.6821],[127.4568,0.6778],[127.4563,0.6726],[127.4508,0.6648],[127.4477,0.654],[127.4423,0.6466]]]}},{"type":"Feature","properties":{"name":"TidoreSelatan","name_en":"TidoreSelatan","admin_level":"6","osm_id":""},"geometry":{"type":"Polygon","coordinates":[[[127.401,0.5675],[127.3985,0.5643],[127.3915,0.5619],[127.3853,0.5649],[127.3828,0.5626],[127.382,0.5583],[127.3794,0.5627],[127.3817,0.5696],[127.3849,0.5725],[127.3857,0.5764],[127.3936,0.5867],[127.395,0.5852],[127.3981,0.5858],[127.3992,0.5835],[127.402,0.5854],[127.408,0.5846],[127.4107,0.581],[127.4109,0.5736],[127.4089,0.5731],[127.4058,0.5678],[127.4029,0.5688],[127.401,0.5675]]]}},{"type":"Feature","properties":{"name":"TidoreTimur","name_en":"TidoreTimur","admin_level":"6","osm_id":""},"geometry":{"type":"Polygon","coordinates":[[[127.4598,0.7131],[127.4575,0.7072],[127.4548,0.6847],[127.4419,0.6939],[127.432,0.6906],[127.4173,0.6887],[127.4095,0.6944],[127.4052,0.7007],[127.4148,0.706],[127.4212,0.712],[127.4252,0.7185],[127.4259,0.7238],[127.4195,0.7308],[127.4,0.7435],[127.3982,0.7563],[127.4061,0.7589],[127.4055,0.7513],[127.4094,0.7478],[127.4149,0.7499],[127.4151,0.7523],[127.4171,0.7526],[127.4181,0.751],[127.4212,0.7521],[127.4259,0.7492],[127.43,0.75],[127.4323,0.7477],[127.4485,0.7459],[127.4515,0.7406],[127.4513,0.7361],[127.455,0.7316],[127.455,0.7224],[127.4591,0.7187],[127.4605,0.7156],[127.4598,0.7131]]]}},{"type":"Feature","properties":{"name":"TidoreUtara","name_en":"TidoreUtara","admin_level":"6","osm_id":""},"geometry":{"type":"Polygon","coordinates":[[[127.3969,0.6664],[127.3765,0.6666],[127.3643,0.6624],[127.362,0.6783],[127.3657,0.6838],[127.3682,0.6936],[127.3787,0.7056],[127.3804,0.715],[127.3867,0.7254],[127.3843,0.7343],[127.3869,0.7405],[127.3855,0.7477],[127.3894,0.7505],[127.3894,0.7522],[127.3946,0.7518],[127.3969,0.7531],[127.3968,0.7557],[127.3982,0.7563],[127.4,0.7435],[127.4219,0.7288],[127.4259,0.7222],[127.4252,0.7185],[127.4178,0.7084],[127.4052,0.7007],[127.4095,0.6944],[127.4173,0.6887],[127.4179,0.6819],[127.4103,0.6751],[127.403,0.6624],[127.3969,0.6664]]]}}]}