{"type":"FeatureCollection","metadata":{"parent_osm_id":"gid:IDN.13.6_1","parent_name":"HuluSungaiSelatan","parent_name_1":"KalimantanSelatan","parent_gid":"IDN.13.6_1","parent_level":"5","child_level":"6","count":11,"source":"GADM 4.1","generated":"2026-05-05"},"features":[{"type":"Feature","properties":{"name":"Angkinang","name_en":"Angkinang","admin_level":"6","osm_id":"","gid":"IDN.13.6.1_1"},"geometry":{"type":"Polygon","coordinates":[[[115.294,-2.7538],[115.287,-2.7532],[115.2802,-2.7551],[115.2799,-2.7532],[115.2731,-2.7526],[115.2702,-2.7465],[115.2667,-2.7457],[115.2631,-2.7468],[115.2633,-2.7481],[115.2589,-2.7477],[115.249,-2.736],[115.232,-2.7279],[115.229,-2.7184],[115.2322,-2.6901],[115.2392,-2.6787],[115.2504,-2.679],[115.2641,-2.6862],[115.2747,-2.6872],[115.3072,-2.7006],[115.3163,-2.7018],[115.313,-2.7073],[115.3105,-2.7194],[115.305,-2.7298],[115.307,-2.7355],[115.3147,-2.7415],[115.3147,-2.7464],[115.3185,-2.7557],[115.3176,-2.7597],[115.3042,-2.762],[115.3001,-2.7544],[115.294,-2.7538]]]}},{"type":"Feature","properties":{"name":"DahaBarat","name_en":"DahaBarat","admin_level":"6","osm_id":"","gid":"IDN.13.6.2_1"},"geometry":{"type":"Polygon","coordinates":[[[115.0134,-2.7705],[114.9973,-2.7563],[114.9803,-2.7346],[114.9665,-2.7053],[114.8958,-2.5824],[115.0667,-2.6557],[115.0645,-2.6646],[115.0665,-2.669],[115.0701,-2.6719],[115.07,-2.6743],[115.0652,-2.6785],[115.0837,-2.6981],[115.0188,-2.7468],[115.0134,-2.7705]]]}},{"type":"Feature","properties":{"name":"DahaSelatan","name_en":"DahaSelatan","admin_level":"6","osm_id":"","gid":"IDN.13.6.3_1"},"geometry":{"type":"Polygon","coordinates":[[[115.0806,-2.6948],[115.0652,-2.6785],[115.07,-2.6743],[115.0701,-2.6719],[115.0665,-2.669],[115.0645,-2.6646],[115.0667,-2.6557],[114.8958,-2.5824],[114.8665,-2.5318],[114.8781,-2.5254],[114.8888,-2.5153],[114.9027,-2.5184],[114.9599,-2.5778],[114.9756,-2.5901],[114.9942,-2.6017],[115.0108,-2.6085],[115.095,-2.6286],[115.0966,-2.633],[115.107,-2.6299],[115.1113,-2.6316],[115.1192,-2.6304],[115.1274,-2.6218],[115.1274,-2.6176],[115.131,-2.6143],[115.1408,-2.6177],[115.1494,-2.614],[115.1519,-2.6091],[115.1578,-2.611],[115.1639,-2.6154],[115.1662,-2.6267],[115.169,-2.629],[115.1713,-2.6357],[115.1751,-2.6378],[115.1789,-2.6377],[115.1807,-2.64],[115.1756,-2.6897],[115.1415,-2.7113],[115.1256,-2.7317],[115.0735,-2.771],[115.0725,-2.7857],[115.0665,-2.7831],[115.0597,-2.7851],[115.0435,-2.7855],[115.0207,-2.7774],[115.0134,-2.7705],[115.0188,-2.7468],[115.0837,-2.6981],[115.0806,-2.6948]]]}},{"type":"Feature","properties":{"name":"DahaUtara","name_en":"DahaUtara","admin_level":"6","osm_id":"","gid":"IDN.13.6.4_1"},"geometry":{"type":"Polygon","coordinates":[[[115.108,-2.6303],[115.0966,-2.633],[115.095,-2.6286],[115.0108,-2.6085],[114.9942,-2.6017],[114.9756,-2.5901],[114.9599,-2.5778],[114.9027,-2.5184],[114.9146,-2.5196],[114.9978,-2.4989],[115.1417,-2.549],[115.1522,-2.5488],[115.1752,-2.5582],[115.1671,-2.5681],[115.1613,-2.5796],[115.1616,-2.5873],[115.1603,-2.5863],[115.1622,-2.5988],[115.1577,-2.6115],[115.1519,-2.6091],[115.1494,-2.614],[115.1408,-2.6177],[115.131,-2.6143],[115.1274,-2.6176],[115.1274,-2.6218],[115.1192,-2.6304],[115.1113,-2.6316],[115.108,-2.6303]]]}},{"type":"Feature","properties":{"name":"Kalumpang","name_en":"Kalumpang","admin_level":"6","osm_id":"","gid":"IDN.13.6.5_1"},"geometry":{"type":"Polygon","coordinates":[[[115.1273,-2.8392],[115.1099,-2.8354],[115.1067,-2.8373],[115.1044,-2.8356],[115.0997,-2.8359],[115.0997,-2.8324],[115.0946,-2.8295],[115.0897,-2.8303],[115.0878,-2.8323],[115.0882,-2.8362],[115.0859,-2.841],[115.0804,-2.8398],[115.0685,-2.8457],[115.0626,-2.8399],[115.0632,-2.8351],[115.0682,-2.8271],[115.0681,-2.8189],[115.0727,-2.811],[115.0758,-2.7904],[115.0725,-2.7854],[115.0735,-2.771],[115.1256,-2.7317],[115.1317,-2.7236],[115.1859,-2.8076],[115.1898,-2.8201],[115.1897,-2.8335],[115.1896,-2.8357],[115.1714,-2.8535],[115.1273,-2.8392]]]}},{"type":"Feature","properties":{"name":"Kandangan","name_en":"Kandangan","admin_level":"6","osm_id":"","gid":"IDN.13.6.6_1"},"geometry":{"type":"Polygon","coordinates":[[[115.27,-2.8125],[115.2656,-2.8053],[115.2669,-2.8],[115.2615,-2.7976],[115.2531,-2.7974],[115.2497,-2.8014],[115.2249,-2.7758],[115.2273,-2.774],[115.2214,-2.7721],[115.2191,-2.7582],[115.2196,-2.7498],[115.2089,-2.7426],[115.191,-2.7341],[115.1648,-2.6972],[115.1756,-2.6897],[115.1807,-2.64],[115.1786,-2.6376],[115.179,-2.6356],[115.189,-2.6324],[115.1926,-2.6346],[115.1958,-2.64],[115.201,-2.6416],[115.2103,-2.6506],[115.212,-2.6565],[115.211,-2.6633],[115.214,-2.6709],[115.2268,-2.6882],[115.2322,-2.6901],[115.229,-2.7184],[115.232,-2.7279],[115.249,-2.736],[115.2589,-2.7477],[115.2633,-2.7481],[115.2644,-2.746],[115.2692,-2.7462],[115.2708,-2.7468],[115.2731,-2.7526],[115.2799,-2.7532],[115.2784,-2.7613],[115.2807,-2.7692],[115.2745,-2.7709],[115.2751,-2.7791],[115.2807,-2.7881],[115.2904,-2.796],[115.29,-2.7973],[115.2867,-2.7975],[115.287,-2.7999],[115.2893,-2.8003],[115.288,-2.8053],[115.2889,-2.8085],[115.27,-2.8125]]]}},{"type":"Feature","properties":{"name":"Loksado","name_en":"Loksado","admin_level":"6","osm_id":"","gid":"IDN.13.6.7_1"},"geometry":{"type":"Polygon","coordinates":[[[115.4554,-2.7644],[115.46,-2.7607],[115.4624,-2.7519],[115.4665,-2.7505],[115.4729,-2.7442],[115.4809,-2.731],[115.4866,-2.7274],[115.4885,-2.7232],[115.495,-2.7179],[115.5108,-2.7224],[115.524,-2.7216],[115.5278,-2.7249],[115.5478,-2.7292],[115.5545,-2.7245],[115.565,-2.7206],[115.5691,-2.7147],[115.578,-2.7115],[115.5881,-2.7136],[115.5993,-2.7223],[115.5972,-2.7282],[115.5952,-2.7498],[115.5891,-2.7723],[115.5725,-2.8111],[115.5575,-2.8255],[115.556,-2.8295],[115.55,-2.8295],[115.5448,-2.8325],[115.5413,-2.8395],[115.5399,-2.8475],[115.5272,-2.8603],[115.5252,-2.8682],[115.5227,-2.872],[115.518,-2.875],[115.5126,-2.8845],[115.5077,-2.8865],[115.4993,-2.8807],[115.4876,-2.8786],[115.4783,-2.8731],[115.4741,-2.875],[115.4604,-2.873],[115.4578,-2.8737],[115.4455,-2.889],[115.443,-2.8895],[115.438,-2.8842],[115.4308,-2.8883],[115.4241,-2.8903],[115.4192,-2.89],[115.4108,-2.8935],[115.402,-2.8947],[115.396,-2.8925],[115.3892,-2.8857],[115.3861,-2.8856],[115.3824,-2.882],[115.3832,-2.8791],[115.3799,-2.8711],[115.38,-2.8664],[115.3762,-2.8596],[115.3676,-2.8549],[115.3652,-2.8477],[115.3577,-2.8385],[115.3585,-2.8316],[115.3659,-2.8176],[115.3786,-2.7832],[115.4142,-2.7826],[115.4339,-2.7756],[115.4358,-2.7798],[115.4383,-2.7823],[115.4406,-2.7823],[115.4473,-2.7776],[115.4506,-2.7714],[115.451,-2.7662],[115.4554,-2.7644]]]}},{"type":"Feature","properties":{"name":"PadangBatung","name_en":"PadangBatung","admin_level":"6","osm_id":"","gid":"IDN.13.6.8_1"},"geometry":{"type":"Polygon","coordinates":[[[115.2886,-2.8032],[115.2893,-2.8003],[115.287,-2.7999],[115.2867,-2.7975],[115.29,-2.7973],[115.2904,-2.796],[115.2807,-2.7881],[115.2751,-2.7791],[115.2745,-2.7709],[115.2807,-2.7692],[115.2784,-2.7613],[115.2796,-2.755],[115.287,-2.7532],[115.3001,-2.7544],[115.3042,-2.762],[115.3199,-2.7598],[115.3212,-2.7641],[115.3234,-2.7653],[115.3466,-2.7719],[115.3486,-2.7734],[115.3527,-2.7837],[115.3586,-2.7841],[115.3714,-2.7815],[115.3786,-2.7832],[115.3659,-2.8176],[115.3585,-2.8316],[115.3577,-2.8385],[115.3652,-2.8477],[115.3676,-2.8549],[115.3762,-2.8596],[115.38,-2.8664],[115.3799,-2.8711],[115.3832,-2.8791],[115.3753,-2.8943],[115.3761,-2.8975],[115.3838,-2.9031],[115.3846,-2.9068],[115.381,-2.9167],[115.3784,-2.919],[115.3659,-2.926],[115.354,-2.9352],[115.3419,-2.9376],[115.3377,-2.9372],[115.3349,-2.934],[115.3314,-2.9332],[115.3219,-2.9359],[115.3177,-2.9252],[115.3059,-2.9235],[115.3012,-2.924],[115.2964,-2.9333],[115.2869,-2.9298],[115.2826,-2.9299],[115.2809,-2.9177],[115.2698,-2.9037],[115.267,-2.8965],[115.2629,-2.8929],[115.2589,-2.8923],[115.2567,-2.8892],[115.2635,-2.8842],[115.2699,-2.8753],[115.2697,-2.8728],[115.274,-2.8718],[115.2744,-2.8702],[115.2682,-2.8677],[115.2646,-2.8631],[115.264,-2.8585],[115.2697,-2.849],[115.279,-2.8431],[115.2796,-2.8406],[115.2705,-2.8301],[115.2634,-2.828],[115.2656,-2.8053],[115.2699,-2.8126],[115.2889,-2.8085],[115.2886,-2.8032]]]}},{"type":"Feature","properties":{"name":"Simpur","name_en":"Simpur","admin_level":"6","osm_id":"","gid":"IDN.13.6.9_1"},"geometry":{"type":"Polygon","coordinates":[[[115.2454,-2.8072],[115.2384,-2.816],[115.2316,-2.8175],[115.2212,-2.8243],[115.1954,-2.8347],[115.1896,-2.8339],[115.1898,-2.8201],[115.1859,-2.8076],[115.1317,-2.7236],[115.1362,-2.7167],[115.1415,-2.7113],[115.1648,-2.6972],[115.191,-2.7341],[115.2089,-2.7426],[115.2196,-2.7498],[115.2208,-2.7714],[115.2273,-2.774],[115.2249,-2.7758],[115.2497,-2.8014],[115.2454,-2.8072]]]}},{"type":"Feature","properties":{"name":"Sungairaya","name_en":"Sungairaya","admin_level":"6","osm_id":"","gid":"IDN.13.6.10_1"},"geometry":{"type":"Polygon","coordinates":[[[115.2589,-2.8923],[115.2534,-2.8947],[115.2439,-2.8901],[115.2317,-2.8728],[115.2264,-2.8716],[115.2142,-2.8738],[115.2114,-2.872],[115.1979,-2.8692],[115.1867,-2.865],[115.1848,-2.8595],[115.1714,-2.8535],[115.1896,-2.8357],[115.1896,-2.8339],[115.1954,-2.8347],[115.2001,-2.8331],[115.2212,-2.8243],[115.2316,-2.8175],[115.2384,-2.816],[115.2531,-2.7974],[115.2615,-2.7976],[115.2669,-2.8],[115.2634,-2.828],[115.2705,-2.8301],[115.2796,-2.8406],[115.279,-2.8431],[115.2697,-2.849],[115.2649,-2.8556],[115.2646,-2.8631],[115.2682,-2.8677],[115.2744,-2.8702],[115.274,-2.8718],[115.2697,-2.8728],[115.2699,-2.8753],[115.2635,-2.8842],[115.2574,-2.8879],[115.2567,-2.8892],[115.2589,-2.8923]]]}},{"type":"Feature","properties":{"name":"TelagaLangsat","name_en":"TelagaLangsat","admin_level":"6","osm_id":"","gid":"IDN.13.6.11_1"},"geometry":{"type":"Polygon","coordinates":[[[115.3688,-2.7818],[115.3586,-2.7841],[115.3527,-2.7837],[115.3486,-2.7734],[115.3466,-2.7719],[115.3234,-2.7653],[115.3212,-2.7641],[115.3209,-2.7604],[115.3176,-2.7594],[115.3185,-2.7557],[115.3147,-2.7464],[115.3147,-2.7415],[115.307,-2.7355],[115.305,-2.7298],[115.3105,-2.7194],[115.313,-2.7073],[115.3163,-2.7018],[115.3209,-2.7001],[115.3289,-2.7021],[115.3473,-2.7156],[115.3586,-2.7168],[115.3696,-2.7304],[115.3777,-2.744],[115.3999,-2.7478],[115.4032,-2.7537],[115.4026,-2.7575],[115.4058,-2.76],[115.4097,-2.7666],[115.4177,-2.7664],[115.4239,-2.7714],[115.4234,-2.7763],[115.4283,-2.7778],[115.4142,-2.7826],[115.4021,-2.7835],[115.3688,-2.7818]]]}}]}